<?xml version="1.0" encoding="UTF-8"?>
<gpx version="1.1" creator="yatutbuv" xmlns="http://www.topografix.com/GPX/1/1">
  <trk><name>GraphHopper Track</name><trkseg>
      <trkpt lat="52.211531" lon="20.957096"></trkpt>
      <trkpt lat="52.211662" lon="20.956575"></trkpt>
      <trkpt lat="52.211779" lon="20.956654"></trkpt>
      <trkpt lat="52.211972" lon="20.955694"></trkpt>
      <trkpt lat="52.211886" lon="20.95302"></trkpt>
      <trkpt lat="52.209714" lon="20.94972"></trkpt>
      <trkpt lat="52.209434" lon="20.949801"></trkpt>
      <trkpt lat="52.209366" lon="20.949656"></trkpt>
      <trkpt lat="52.209335" lon="20.949517"></trkpt>
      <trkpt lat="52.209921" lon="20.94946"></trkpt>
      <trkpt lat="52.210175" lon="20.94929"></trkpt>
      <trkpt lat="52.202556" lon="20.938087"></trkpt>
      <trkpt lat="52.197333" lon="20.930182"></trkpt>
      <trkpt lat="52.195269" lon="20.927454"></trkpt>
      <trkpt lat="52.190509" lon="20.919818"></trkpt>
      <trkpt lat="52.189819" lon="20.918878"></trkpt>
      <trkpt lat="52.189246" lon="20.918236"></trkpt>
      <trkpt lat="52.188551" lon="20.917781"></trkpt>
      <trkpt lat="52.180435" lon="20.914908"></trkpt>
      <trkpt lat="52.178992" lon="20.91421"></trkpt>
      <trkpt lat="52.176784" lon="20.913412"></trkpt>
      <trkpt lat="52.176131" lon="20.91286"></trkpt>
      <trkpt lat="52.175686" lon="20.912131"></trkpt>
      <trkpt lat="52.174929" lon="20.909447"></trkpt>
      <trkpt lat="52.174845" lon="20.908059"></trkpt>
      <trkpt lat="52.175027" lon="20.906488"></trkpt>
      <trkpt lat="52.17705" lon="20.896321"></trkpt>
      <trkpt lat="52.178208" lon="20.891377"></trkpt>
      <trkpt lat="52.179917" lon="20.885879"></trkpt>
      <trkpt lat="52.182415" lon="20.879356"></trkpt>
      <trkpt lat="52.189123" lon="20.863469"></trkpt>
      <trkpt lat="52.190429" lon="20.860702"></trkpt>
      <trkpt lat="52.192461" lon="20.857395"></trkpt>
      <trkpt lat="52.197546" lon="20.851397"></trkpt>
      <trkpt lat="52.198333" lon="20.850183"></trkpt>
      <trkpt lat="52.198933" lon="20.848981"></trkpt>
      <trkpt lat="52.199739" lon="20.846507"></trkpt>
      <trkpt lat="52.200238" lon="20.843657"></trkpt>
      <trkpt lat="52.200329" lon="20.841227"></trkpt>
      <trkpt lat="52.200098" lon="20.838596"></trkpt>
      <trkpt lat="52.199553" lon="20.836182"></trkpt>
      <trkpt lat="52.194869" lon="20.821927"></trkpt>
      <trkpt lat="52.193736" lon="20.817596"></trkpt>
      <trkpt lat="52.193085" lon="20.813463"></trkpt>
      <trkpt lat="52.192567" lon="20.805111"></trkpt>
      <trkpt lat="52.191974" lon="20.799458"></trkpt>
      <trkpt lat="52.18968" lon="20.783841"></trkpt>
      <trkpt lat="52.188889" lon="20.780503"></trkpt>
      <trkpt lat="52.187776" lon="20.777794"></trkpt>
      <trkpt lat="52.187005" lon="20.776484"></trkpt>
      <trkpt lat="52.186136" lon="20.775306"></trkpt>
      <trkpt lat="52.184659" lon="20.773926"></trkpt>
      <trkpt lat="52.181354" lon="20.771811"></trkpt>
      <trkpt lat="52.179599" lon="20.770376"></trkpt>
      <trkpt lat="52.178209" lon="20.768766"></trkpt>
      <trkpt lat="52.176679" lon="20.766259"></trkpt>
      <trkpt lat="52.175455" lon="20.763582"></trkpt>
      <trkpt lat="52.172116" lon="20.75528"></trkpt>
      <trkpt lat="52.168477" lon="20.745657"></trkpt>
      <trkpt lat="52.165672" lon="20.736965"></trkpt>
      <trkpt lat="52.163118" lon="20.727427"></trkpt>
      <trkpt lat="52.162018" lon="20.72257"></trkpt>
      <trkpt lat="52.160501" lon="20.714953"></trkpt>
      <trkpt lat="52.155334" lon="20.686394"></trkpt>
      <trkpt lat="52.153984" lon="20.678254"></trkpt>
      <trkpt lat="52.149692" lon="20.648488"></trkpt>
      <trkpt lat="52.147778" lon="20.628896"></trkpt>
      <trkpt lat="52.146541" lon="20.618943"></trkpt>
      <trkpt lat="52.144548" lon="20.606374"></trkpt>
      <trkpt lat="52.142134" lon="20.594158"></trkpt>
      <trkpt lat="52.139441" lon="20.582364"></trkpt>
      <trkpt lat="52.130529" lon="20.545349"></trkpt>
      <trkpt lat="52.129032" lon="20.54013"></trkpt>
      <trkpt lat="52.124931" lon="20.527846"></trkpt>
      <trkpt lat="52.122859" lon="20.521096"></trkpt>
      <trkpt lat="52.120805" lon="20.51362"></trkpt>
      <trkpt lat="52.118817" lon="20.505386"></trkpt>
      <trkpt lat="52.116744" lon="20.495353"></trkpt>
      <trkpt lat="52.111918" lon="20.469384"></trkpt>
      <trkpt lat="52.110329" lon="20.461594"></trkpt>
      <trkpt lat="52.108542" lon="20.453977"></trkpt>
      <trkpt lat="52.103488" lon="20.43421"></trkpt>
      <trkpt lat="52.101709" lon="20.426415"></trkpt>
      <trkpt lat="52.100743" lon="20.421675"></trkpt>
      <trkpt lat="52.098743" lon="20.410238"></trkpt>
      <trkpt lat="52.095332" lon="20.386494"></trkpt>
      <trkpt lat="52.094394" lon="20.381355"></trkpt>
      <trkpt lat="52.093203" lon="20.376169"></trkpt>
      <trkpt lat="52.091521" lon="20.370091"></trkpt>
      <trkpt lat="52.089727" lon="20.364773"></trkpt>
      <trkpt lat="52.087921" lon="20.360171"></trkpt>
      <trkpt lat="52.083062" lon="20.348937"></trkpt>
      <trkpt lat="52.080703" lon="20.342651"></trkpt>
      <trkpt lat="52.079176" lon="20.337894"></trkpt>
      <trkpt lat="52.077637" lon="20.332449"></trkpt>
      <trkpt lat="52.075683" lon="20.323863"></trkpt>
      <trkpt lat="52.07439" lon="20.316302"></trkpt>
      <trkpt lat="52.073537" lon="20.309415"></trkpt>
      <trkpt lat="52.072979" lon="20.302432"></trkpt>
      <trkpt lat="52.072733" lon="20.294589"></trkpt>
      <trkpt lat="52.07279" lon="20.288348"></trkpt>
      <trkpt lat="52.072982" lon="20.28356"></trkpt>
      <trkpt lat="52.074844" lon="20.254445"></trkpt>
      <trkpt lat="52.075273" lon="20.243225"></trkpt>
      <trkpt lat="52.075272" lon="20.235757"></trkpt>
      <trkpt lat="52.075038" lon="20.228728"></trkpt>
      <trkpt lat="52.074536" lon="20.221199"></trkpt>
      <trkpt lat="52.073819" lon="20.214077"></trkpt>
      <trkpt lat="52.072391" lon="20.203993"></trkpt>
      <trkpt lat="52.071504" lon="20.199051"></trkpt>
      <trkpt lat="52.070334" lon="20.193391"></trkpt>
      <trkpt lat="52.068756" lon="20.186755"></trkpt>
      <trkpt lat="52.063437" lon="20.16616"></trkpt>
      <trkpt lat="52.060087" lon="20.152606"></trkpt>
      <trkpt lat="52.05744" lon="20.140771"></trkpt>
      <trkpt lat="52.055155" lon="20.129242"></trkpt>
      <trkpt lat="52.052861" lon="20.115919"></trkpt>
      <trkpt lat="52.05141" lon="20.105865"></trkpt>
      <trkpt lat="52.049776" lon="20.092961"></trkpt>
      <trkpt lat="52.046978" lon="20.068111"></trkpt>
      <trkpt lat="52.046109" lon="20.061381"></trkpt>
      <trkpt lat="52.044425" lon="20.051426"></trkpt>
      <trkpt lat="52.042647" lon="20.043358"></trkpt>
      <trkpt lat="52.041169" lon="20.037729"></trkpt>
      <trkpt lat="52.039558" lon="20.032315"></trkpt>
      <trkpt lat="52.034487" lon="20.017069"></trkpt>
      <trkpt lat="52.033012" lon="20.013227"></trkpt>
      <trkpt lat="52.031658" lon="20.010139"></trkpt>
      <trkpt lat="52.026025" lon="19.99931"></trkpt>
      <trkpt lat="52.023345" lon="19.99324"></trkpt>
      <trkpt lat="52.021076" lon="19.986796"></trkpt>
      <trkpt lat="52.017013" lon="19.973187"></trkpt>
      <trkpt lat="52.015012" lon="19.967764"></trkpt>
      <trkpt lat="52.013542" lon="19.964529"></trkpt>
      <trkpt lat="52.012206" lon="19.961919"></trkpt>
      <trkpt lat="52.006518" lon="19.951623"></trkpt>
      <trkpt lat="52.004269" lon="19.946737"></trkpt>
      <trkpt lat="52.002534" lon="19.942292"></trkpt>
      <trkpt lat="52.000281" lon="19.935237"></trkpt>
      <trkpt lat="51.992855" lon="19.908882"></trkpt>
      <trkpt lat="51.991335" lon="19.904153"></trkpt>
      <trkpt lat="51.989189" lon="19.8986"></trkpt>
      <trkpt lat="51.987004" lon="19.893922"></trkpt>
      <trkpt lat="51.984431" lon="19.889251"></trkpt>
      <trkpt lat="51.982215" lon="19.885803"></trkpt>
      <trkpt lat="51.973145" lon="19.87281"></trkpt>
      <trkpt lat="51.970669" lon="19.868844"></trkpt>
      <trkpt lat="51.968796" lon="19.865442"></trkpt>
      <trkpt lat="51.963835" lon="19.855802"></trkpt>
      <trkpt lat="51.961654" lon="19.852229"></trkpt>
      <trkpt lat="51.959432" lon="19.849149"></trkpt>
      <trkpt lat="51.958215" lon="19.847666"></trkpt>
      <trkpt lat="51.953649" lon="19.842795"></trkpt>
      <trkpt lat="51.950539" lon="19.839195"></trkpt>
      <trkpt lat="51.9479" lon="19.835435"></trkpt>
      <trkpt lat="51.94533" lon="19.830958"></trkpt>
      <trkpt lat="51.942926" lon="19.825809"></trkpt>
      <trkpt lat="51.932464" lon="19.801556"></trkpt>
      <trkpt lat="51.930311" lon="19.796322"></trkpt>
      <trkpt lat="51.928187" lon="19.790493"></trkpt>
      <trkpt lat="51.922263" lon="19.771848"></trkpt>
      <trkpt lat="51.919257" lon="19.763721"></trkpt>
      <trkpt lat="51.915628" lon="19.755328"></trkpt>
      <trkpt lat="51.9087" lon="19.740434"></trkpt>
      <trkpt lat="51.905786" lon="19.733214"></trkpt>
      <trkpt lat="51.904523" lon="19.729619"></trkpt>
      <trkpt lat="51.903128" lon="19.725175"></trkpt>
      <trkpt lat="51.9012" lon="19.71796"></trkpt>
      <trkpt lat="51.899514" lon="19.710048"></trkpt>
      <trkpt lat="51.898289" lon="19.702054"></trkpt>
      <trkpt lat="51.897737" lon="19.697181"></trkpt>
      <trkpt lat="51.897208" lon="19.690401"></trkpt>
      <trkpt lat="51.896601" lon="19.674043"></trkpt>
      <trkpt lat="51.896283" lon="19.669467"></trkpt>
      <trkpt lat="51.895534" lon="19.663583"></trkpt>
      <trkpt lat="51.893308" lon="19.651398"></trkpt>
      <trkpt lat="51.892527" lon="19.643756"></trkpt>
      <trkpt lat="51.892183" lon="19.638241"></trkpt>
      <trkpt lat="51.892391" lon="19.637258"></trkpt>
      <trkpt lat="51.893126" lon="19.635434"></trkpt>
      <trkpt lat="51.893305" lon="19.634154"></trkpt>
      <trkpt lat="51.893111" lon="19.632798"></trkpt>
      <trkpt lat="51.892524" lon="19.631667"></trkpt>
      <trkpt lat="51.892055" lon="19.631272"></trkpt>
      <trkpt lat="51.891395" lon="19.631091"></trkpt>
      <trkpt lat="51.890885" lon="19.631218"></trkpt>
      <trkpt lat="51.890246" lon="19.631748"></trkpt>
      <trkpt lat="51.889788" lon="19.632594"></trkpt>
      <trkpt lat="51.888926" lon="19.635224"></trkpt>
      <trkpt lat="51.8879" lon="19.637082"></trkpt>
      <trkpt lat="51.885849" lon="19.63983"></trkpt>
      <trkpt lat="51.884061" lon="19.641732"></trkpt>
      <trkpt lat="51.875409" lon="19.649585"></trkpt>
      <trkpt lat="51.872899" lon="19.651642"></trkpt>
      <trkpt lat="51.870689" lon="19.653217"></trkpt>
      <trkpt lat="51.86641" lon="19.655775"></trkpt>
      <trkpt lat="51.863895" lon="19.656972"></trkpt>
      <trkpt lat="51.861153" lon="19.658002"></trkpt>
      <trkpt lat="51.859115" lon="19.658619"></trkpt>
      <trkpt lat="51.855164" lon="19.659524"></trkpt>
      <trkpt lat="51.851793" lon="19.659888"></trkpt>
      <trkpt lat="51.848245" lon="19.659901"></trkpt>
      <trkpt lat="51.844318" lon="19.659455"></trkpt>
      <trkpt lat="51.841612" lon="19.658892"></trkpt>
      <trkpt lat="51.837464" lon="19.657573"></trkpt>
      <trkpt lat="51.833907" lon="19.655999"></trkpt>
      <trkpt lat="51.829343" lon="19.653358"></trkpt>
      <trkpt lat="51.825536" lon="19.650502"></trkpt>
      <trkpt lat="51.822007" lon="19.647335"></trkpt>
      <trkpt lat="51.818607" lon="19.643689"></trkpt>
      <trkpt lat="51.816837" lon="19.641585"></trkpt>
      <trkpt lat="51.805286" lon="19.626825"></trkpt>
      <trkpt lat="51.801627" lon="19.623168"></trkpt>
      <trkpt lat="51.798978" lon="19.621072"></trkpt>
      <trkpt lat="51.79673" lon="19.619616"></trkpt>
      <trkpt lat="51.788649" lon="19.615558"></trkpt>
      <trkpt lat="51.785631" lon="19.613613"></trkpt>
      <trkpt lat="51.784053" lon="19.612391"></trkpt>
      <trkpt lat="51.781506" lon="19.610069"></trkpt>
      <trkpt lat="51.776175" lon="19.604388"></trkpt>
      <trkpt lat="51.773275" lon="19.601663"></trkpt>
      <trkpt lat="51.771044" lon="19.599948"></trkpt>
      <trkpt lat="51.769099" lon="19.598681"></trkpt>
      <trkpt lat="51.767384" lon="19.597738"></trkpt>
      <trkpt lat="51.765489" lon="19.596874"></trkpt>
      <trkpt lat="51.762127" lon="19.595762"></trkpt>
      <trkpt lat="51.758998" lon="19.595204"></trkpt>
      <trkpt lat="51.756149" lon="19.595081"></trkpt>
      <trkpt lat="51.7525" lon="19.595444"></trkpt>
      <trkpt lat="51.749888" lon="19.596091"></trkpt>
      <trkpt lat="51.74791" lon="19.596787"></trkpt>
      <trkpt lat="51.727345" lon="19.60571"></trkpt>
      <trkpt lat="51.723816" lon="19.607055"></trkpt>
      <trkpt lat="51.7213" lon="19.607702"></trkpt>
      <trkpt lat="51.718076" lon="19.608098"></trkpt>
      <trkpt lat="51.71472" lon="19.608012"></trkpt>
      <trkpt lat="51.712269" lon="19.60763"></trkpt>
      <trkpt lat="51.710057" lon="19.607048"></trkpt>
      <trkpt lat="51.708679" lon="19.606566"></trkpt>
      <trkpt lat="51.70571" lon="19.605241"></trkpt>
      <trkpt lat="51.639071" lon="19.571139"></trkpt>
      <trkpt lat="51.636799" lon="19.570146"></trkpt>
      <trkpt lat="51.633432" lon="19.569037"></trkpt>
      <trkpt lat="51.630965" lon="19.568486"></trkpt>
      <trkpt lat="51.626944" lon="19.568077"></trkpt>
      <trkpt lat="51.623324" lon="19.568204"></trkpt>
      <trkpt lat="51.619707" lon="19.5688"></trkpt>
      <trkpt lat="51.615779" lon="19.569995"></trkpt>
      <trkpt lat="51.612203" lon="19.571595"></trkpt>
      <trkpt lat="51.60992" lon="19.572903"></trkpt>
      <trkpt lat="51.60752" lon="19.574509"></trkpt>
      <trkpt lat="51.605131" lon="19.57638"></trkpt>
      <trkpt lat="51.596468" lon="19.58365"></trkpt>
      <trkpt lat="51.593867" lon="19.585549"></trkpt>
      <trkpt lat="51.591235" lon="19.587278"></trkpt>
      <trkpt lat="51.58529" lon="19.590582"></trkpt>
      <trkpt lat="51.565385" lon="19.601127"></trkpt>
      <trkpt lat="51.562981" lon="19.602269"></trkpt>
      <trkpt lat="51.560567" lon="19.60317"></trkpt>
      <trkpt lat="51.55757" lon="19.603926"></trkpt>
      <trkpt lat="51.555124" lon="19.604282"></trkpt>
      <trkpt lat="51.552537" lon="19.604393"></trkpt>
      <trkpt lat="51.55011" lon="19.604272"></trkpt>
      <trkpt lat="51.546364" lon="19.603585"></trkpt>
      <trkpt lat="51.539145" lon="19.601438"></trkpt>
      <trkpt lat="51.534527" lon="19.600283"></trkpt>
      <trkpt lat="51.530075" lon="19.599584"></trkpt>
      <trkpt lat="51.527714" lon="19.599418"></trkpt>
      <trkpt lat="51.522412" lon="19.599496"></trkpt>
      <trkpt lat="51.519711" lon="19.59975"></trkpt>
      <trkpt lat="51.517481" lon="19.600107"></trkpt>
      <trkpt lat="51.512805" lon="19.601198"></trkpt>
      <trkpt lat="51.508168" lon="19.602797"></trkpt>
      <trkpt lat="51.504777" lon="19.604343"></trkpt>
      <trkpt lat="51.501552" lon="19.606041"></trkpt>
      <trkpt lat="51.498338" lon="19.60801"></trkpt>
      <trkpt lat="51.49456" lon="19.610673"></trkpt>
      <trkpt lat="51.491313" lon="19.613332"></trkpt>
      <trkpt lat="51.473026" lon="19.629705"></trkpt>
      <trkpt lat="51.467627" lon="19.633837"></trkpt>
      <trkpt lat="51.463544" lon="19.636356"></trkpt>
      <trkpt lat="51.460116" lon="19.63811"></trkpt>
      <trkpt lat="51.455505" lon="19.639959"></trkpt>
      <trkpt lat="51.451624" lon="19.641101"></trkpt>
      <trkpt lat="51.446568" lon="19.642059"></trkpt>
      <trkpt lat="51.44268" lon="19.642423"></trkpt>
      <trkpt lat="51.438494" lon="19.642467"></trkpt>
      <trkpt lat="51.435746" lon="19.642261"></trkpt>
      <trkpt lat="51.433996" lon="19.641985"></trkpt>
      <trkpt lat="51.43148" lon="19.641362"></trkpt>
      <trkpt lat="51.394473" lon="19.629773"></trkpt>
      <trkpt lat="51.389692" lon="19.628097"></trkpt>
      <trkpt lat="51.387792" lon="19.627316"></trkpt>
      <trkpt lat="51.383124" lon="19.62508"></trkpt>
      <trkpt lat="51.378874" lon="19.622646"></trkpt>
      <trkpt lat="51.35387" lon="19.605913"></trkpt>
      <trkpt lat="51.344374" lon="19.598875"></trkpt>
      <trkpt lat="51.3332" lon="19.589356"></trkpt>
      <trkpt lat="51.320466" lon="19.578296"></trkpt>
      <trkpt lat="51.316275" lon="19.574161"></trkpt>
      <trkpt lat="51.312231" lon="19.569465"></trkpt>
      <trkpt lat="51.310192" lon="19.566738"></trkpt>
      <trkpt lat="51.301476" lon="19.554236"></trkpt>
      <trkpt lat="51.299377" lon="19.551459"></trkpt>
      <trkpt lat="51.297489" lon="19.549183"></trkpt>
      <trkpt lat="51.293786" lon="19.545192"></trkpt>
      <trkpt lat="51.292371" lon="19.543833"></trkpt>
      <trkpt lat="51.289803" lon="19.541524"></trkpt>
      <trkpt lat="51.287144" lon="19.539431"></trkpt>
      <trkpt lat="51.28446" lon="19.537539"></trkpt>
      <trkpt lat="51.28184" lon="19.535934"></trkpt>
      <trkpt lat="51.278788" lon="19.534308"></trkpt>
      <trkpt lat="51.2756" lon="19.532906"></trkpt>
      <trkpt lat="51.272751" lon="19.531901"></trkpt>
      <trkpt lat="51.270248" lon="19.531178"></trkpt>
      <trkpt lat="51.256672" lon="19.528064"></trkpt>
      <trkpt lat="51.253229" lon="19.527053"></trkpt>
      <trkpt lat="51.250427" lon="19.525985"></trkpt>
      <trkpt lat="51.247398" lon="19.524585"></trkpt>
      <trkpt lat="51.244928" lon="19.523248"></trkpt>
      <trkpt lat="51.241957" lon="19.52139"></trkpt>
      <trkpt lat="51.239243" lon="19.519449"></trkpt>
      <trkpt lat="51.2362" lon="19.516951"></trkpt>
      <trkpt lat="51.233263" lon="19.514226"></trkpt>
      <trkpt lat="51.23041" lon="19.511231"></trkpt>
      <trkpt lat="51.227797" lon="19.508161"></trkpt>
      <trkpt lat="51.225143" lon="19.504687"></trkpt>
      <trkpt lat="51.217463" lon="19.493511"></trkpt>
      <trkpt lat="51.214396" lon="19.489575"></trkpt>
      <trkpt lat="51.212293" lon="19.487221"></trkpt>
      <trkpt lat="51.209306" lon="19.484136"></trkpt>
      <trkpt lat="51.206089" lon="19.481278"></trkpt>
      <trkpt lat="51.202719" lon="19.478671"></trkpt>
      <trkpt lat="51.201006" lon="19.477514"></trkpt>
      <trkpt lat="51.199213" lon="19.476386"></trkpt>
      <trkpt lat="51.197092" lon="19.475232"></trkpt>
      <trkpt lat="51.193901" lon="19.473725"></trkpt>
      <trkpt lat="51.192131" lon="19.473062"></trkpt>
      <trkpt lat="51.186954" lon="19.471465"></trkpt>
      <trkpt lat="51.183079" lon="19.470021"></trkpt>
      <trkpt lat="51.178293" lon="19.467663"></trkpt>
      <trkpt lat="51.176235" lon="19.466435"></trkpt>
      <trkpt lat="51.172334" lon="19.463737"></trkpt>
      <trkpt lat="51.169549" lon="19.461435"></trkpt>
      <trkpt lat="51.167061" lon="19.459125"></trkpt>
      <trkpt lat="51.165092" lon="19.457104"></trkpt>
      <trkpt lat="51.163166" lon="19.455005"></trkpt>
      <trkpt lat="51.160796" lon="19.45215"></trkpt>
      <trkpt lat="51.145422" lon="19.431062"></trkpt>
      <trkpt lat="51.141471" lon="19.425996"></trkpt>
      <trkpt lat="51.137896" lon="19.42167"></trkpt>
      <trkpt lat="51.131427" lon="19.414407"></trkpt>
      <trkpt lat="51.111139" lon="19.393203"></trkpt>
      <trkpt lat="51.105688" lon="19.38766"></trkpt>
      <trkpt lat="51.102797" lon="19.385048"></trkpt>
      <trkpt lat="51.099443" lon="19.382317"></trkpt>
      <trkpt lat="51.095562" lon="19.379538"></trkpt>
      <trkpt lat="51.091823" lon="19.377215"></trkpt>
      <trkpt lat="51.086707" lon="19.374572"></trkpt>
      <trkpt lat="51.078772" lon="19.371372"></trkpt>
      <trkpt lat="51.072948" lon="19.368751"></trkpt>
      <trkpt lat="51.068185" lon="19.366233"></trkpt>
      <trkpt lat="51.065908" lon="19.364895"></trkpt>
      <trkpt lat="51.061021" lon="19.361725"></trkpt>
      <trkpt lat="51.057599" lon="19.359268"></trkpt>
      <trkpt lat="51.054185" lon="19.356589"></trkpt>
      <trkpt lat="51.049717" lon="19.352737"></trkpt>
      <trkpt lat="51.046194" lon="19.349405"></trkpt>
      <trkpt lat="51.042744" lon="19.345899"></trkpt>
      <trkpt lat="51.0383" lon="19.340937"></trkpt>
      <trkpt lat="51.033648" lon="19.335211"></trkpt>
      <trkpt lat="51.029971" lon="19.330228"></trkpt>
      <trkpt lat="51.020617" lon="19.316415"></trkpt>
      <trkpt lat="51.016316" lon="19.310466"></trkpt>
      <trkpt lat="51.012294" lon="19.305508"></trkpt>
      <trkpt lat="51.00948" lon="19.302332"></trkpt>
      <trkpt lat="51.006382" lon="19.299079"></trkpt>
      <trkpt lat="51.003057" lon="19.295915"></trkpt>
      <trkpt lat="50.999974" lon="19.293222"></trkpt>
      <trkpt lat="50.995163" lon="19.289391"></trkpt>
      <trkpt lat="50.991527" lon="19.286688"></trkpt>
      <trkpt lat="50.988218" lon="19.283949"></trkpt>
      <trkpt lat="50.981819" lon="19.278176"></trkpt>
      <trkpt lat="50.978317" lon="19.274606"></trkpt>
      <trkpt lat="50.973466" lon="19.269184"></trkpt>
      <trkpt lat="50.970316" lon="19.265384"></trkpt>
      <trkpt lat="50.961112" lon="19.253655"></trkpt>
      <trkpt lat="50.957999" lon="19.249916"></trkpt>
      <trkpt lat="50.955141" lon="19.246846"></trkpt>
      <trkpt lat="50.951934" lon="19.243746"></trkpt>
      <trkpt lat="50.948682" lon="19.240959"></trkpt>
      <trkpt lat="50.944152" lon="19.237581"></trkpt>
      <trkpt lat="50.936713" lon="19.233135"></trkpt>
      <trkpt lat="50.932608" lon="19.230557"></trkpt>
      <trkpt lat="50.930048" lon="19.228754"></trkpt>
      <trkpt lat="50.925748" lon="19.225393"></trkpt>
      <trkpt lat="50.92238" lon="19.222559"></trkpt>
      <trkpt lat="50.918714" lon="19.219158"></trkpt>
      <trkpt lat="50.915734" lon="19.216121"></trkpt>
      <trkpt lat="50.911921" lon="19.211899"></trkpt>
      <trkpt lat="50.90768" lon="19.206783"></trkpt>
      <trkpt lat="50.902759" lon="19.200066"></trkpt>
      <trkpt lat="50.89878" lon="19.193958"></trkpt>
      <trkpt lat="50.89483" lon="19.187271"></trkpt>
      <trkpt lat="50.886331" lon="19.171815"></trkpt>
      <trkpt lat="50.884064" lon="19.167116"></trkpt>
      <trkpt lat="50.881587" lon="19.161"></trkpt>
      <trkpt lat="50.880028" lon="19.156366"></trkpt>
      <trkpt lat="50.87848" lon="19.150851"></trkpt>
      <trkpt lat="50.877128" lon="19.144731"></trkpt>
      <trkpt lat="50.876317" lon="19.13996"></trkpt>
      <trkpt lat="50.875795" lon="19.135958"></trkpt>
      <trkpt lat="50.875279" lon="19.130404"></trkpt>
      <trkpt lat="50.874303" lon="19.11255"></trkpt>
      <trkpt lat="50.873709" lon="19.105893"></trkpt>
      <trkpt lat="50.872655" lon="19.098502"></trkpt>
      <trkpt lat="50.871757" lon="19.093865"></trkpt>
      <trkpt lat="50.870755" lon="19.089556"></trkpt>
      <trkpt lat="50.869693" lon="19.085628"></trkpt>
      <trkpt lat="50.868475" lon="19.08168"></trkpt>
      <trkpt lat="50.866767" lon="19.076877"></trkpt>
      <trkpt lat="50.865666" lon="19.074122"></trkpt>
      <trkpt lat="50.863283" lon="19.068801"></trkpt>
      <trkpt lat="50.857246" lon="19.056295"></trkpt>
      <trkpt lat="50.85417" lon="19.050447"></trkpt>
      <trkpt lat="50.850698" lon="19.044966"></trkpt>
      <trkpt lat="50.847683" lon="19.041042"></trkpt>
      <trkpt lat="50.843717" lon="19.036713"></trkpt>
      <trkpt lat="50.840543" lon="19.033895"></trkpt>
      <trkpt lat="50.837051" lon="19.031312"></trkpt>
      <trkpt lat="50.833301" lon="19.0291"></trkpt>
      <trkpt lat="50.830567" lon="19.027816"></trkpt>
      <trkpt lat="50.821954" lon="19.024303"></trkpt>
      <trkpt lat="50.819636" lon="19.02312"></trkpt>
      <trkpt lat="50.816906" lon="19.021437"></trkpt>
      <trkpt lat="50.813702" lon="19.019083"></trkpt>
      <trkpt lat="50.811479" lon="19.017166"></trkpt>
      <trkpt lat="50.800059" lon="19.006368"></trkpt>
      <trkpt lat="50.798758" lon="19.005337"></trkpt>
      <trkpt lat="50.797028" lon="19.004198"></trkpt>
      <trkpt lat="50.794649" lon="19.003018"></trkpt>
      <trkpt lat="50.792282" lon="19.002259"></trkpt>
      <trkpt lat="50.789666" lon="19.001866"></trkpt>
      <trkpt lat="50.787323" lon="19.001891"></trkpt>
      <trkpt lat="50.785352" lon="19.002171"></trkpt>
      <trkpt lat="50.782294" lon="19.003192"></trkpt>
      <trkpt lat="50.780095" lon="19.004348"></trkpt>
      <trkpt lat="50.778005" lon="19.005776"></trkpt>
      <trkpt lat="50.776154" lon="19.007391"></trkpt>
      <trkpt lat="50.767589" lon="19.015419"></trkpt>
      <trkpt lat="50.755817" lon="19.026564"></trkpt>
      <trkpt lat="50.753703" lon="19.028712"></trkpt>
      <trkpt lat="50.751817" lon="19.031086"></trkpt>
      <trkpt lat="50.749905" lon="19.034009"></trkpt>
      <trkpt lat="50.74776" lon="19.03798"></trkpt>
      <trkpt lat="50.742874" lon="19.047701"></trkpt>
      <trkpt lat="50.741583" lon="19.049731"></trkpt>
      <trkpt lat="50.739933" lon="19.05181"></trkpt>
      <trkpt lat="50.737839" lon="19.053824"></trkpt>
      <trkpt lat="50.736479" lon="19.054803"></trkpt>
      <trkpt lat="50.735233" lon="19.05553"></trkpt>
      <trkpt lat="50.733671" lon="19.056219"></trkpt>
      <trkpt lat="50.732315" lon="19.056657"></trkpt>
      <trkpt lat="50.730392" lon="19.056956"></trkpt>
      <trkpt lat="50.71496" lon="19.056874"></trkpt>
      <trkpt lat="50.694183" lon="19.056499"></trkpt>
      <trkpt lat="50.691269" lon="19.056353"></trkpt>
      <trkpt lat="50.687501" lon="19.055819"></trkpt>
      <trkpt lat="50.683484" lon="19.05469"></trkpt>
      <trkpt lat="50.680792" lon="19.053665"></trkpt>
      <trkpt lat="50.678734" lon="19.052717"></trkpt>
      <trkpt lat="50.656734" lon="19.040571"></trkpt>
      <trkpt lat="50.65389" lon="19.039215"></trkpt>
      <trkpt lat="50.650767" lon="19.038031"></trkpt>
      <trkpt lat="50.64857" lon="19.037405"></trkpt>
      <trkpt lat="50.643277" lon="19.036295"></trkpt>
      <trkpt lat="50.619904" lon="19.03167"></trkpt>
      <trkpt lat="50.616463" lon="19.03106"></trkpt>
      <trkpt lat="50.61428" lon="19.030797"></trkpt>
      <trkpt lat="50.61135" lon="19.030714"></trkpt>
      <trkpt lat="50.609342" lon="19.030857"></trkpt>
      <trkpt lat="50.606389" lon="19.031289"></trkpt>
      <trkpt lat="50.602217" lon="19.032466"></trkpt>
      <trkpt lat="50.600077" lon="19.033331"></trkpt>
      <trkpt lat="50.598228" lon="19.034225"></trkpt>
      <trkpt lat="50.595736" lon="19.035627"></trkpt>
      <trkpt lat="50.593911" lon="19.036839"></trkpt>
      <trkpt lat="50.571467" lon="19.05279"></trkpt>
      <trkpt lat="50.568752" lon="19.054385"></trkpt>
      <trkpt lat="50.566722" lon="19.055397"></trkpt>
      <trkpt lat="50.564336" lon="19.056353"></trkpt>
      <trkpt lat="50.562817" lon="19.056864"></trkpt>
      <trkpt lat="50.559246" lon="19.057745"></trkpt>
      <trkpt lat="50.528896" lon="19.064599"></trkpt>
      <trkpt lat="50.525789" lon="19.065071"></trkpt>
      <trkpt lat="50.523867" lon="19.065213"></trkpt>
      <trkpt lat="50.520853" lon="19.065265"></trkpt>
      <trkpt lat="50.516536" lon="19.064909"></trkpt>
      <trkpt lat="50.51146" lon="19.063795"></trkpt>
      <trkpt lat="50.508459" lon="19.062806"></trkpt>
      <trkpt lat="50.506571" lon="19.062047"></trkpt>
      <trkpt lat="50.501838" lon="19.059709"></trkpt>
      <trkpt lat="50.498702" lon="19.057725"></trkpt>
      <trkpt lat="50.49105" lon="19.052131"></trkpt>
      <trkpt lat="50.488766" lon="19.050665"></trkpt>
      <trkpt lat="50.486582" lon="19.049673"></trkpt>
      <trkpt lat="50.484968" lon="19.049187"></trkpt>
      <trkpt lat="50.483532" lon="19.048973"></trkpt>
      <trkpt lat="50.481162" lon="19.048916"></trkpt>
      <trkpt lat="50.479279" lon="19.04923"></trkpt>
      <trkpt lat="50.477606" lon="19.049732"></trkpt>
      <trkpt lat="50.476015" lon="19.050428"></trkpt>
      <trkpt lat="50.474431" lon="19.051342"></trkpt>
      <trkpt lat="50.470829" lon="19.053938"></trkpt>
      <trkpt lat="50.467449" lon="19.0562"></trkpt>
      <trkpt lat="50.46576" lon="19.056893"></trkpt>
      <trkpt lat="50.464342" lon="19.057221"></trkpt>
      <trkpt lat="50.463062" lon="19.05731"></trkpt>
      <trkpt lat="50.462346" lon="19.057249"></trkpt>
      <trkpt lat="50.45773" lon="19.05629"></trkpt>
      <trkpt lat="50.453997" lon="19.05591"></trkpt>
      <trkpt lat="50.45115" lon="19.055951"></trkpt>
      <trkpt lat="50.443495" lon="19.05636"></trkpt>
      <trkpt lat="50.441745" lon="19.056303"></trkpt>
      <trkpt lat="50.439688" lon="19.056011"></trkpt>
      <trkpt lat="50.4384" lon="19.055698"></trkpt>
      <trkpt lat="50.436942" lon="19.055222"></trkpt>
      <trkpt lat="50.434841" lon="19.054298"></trkpt>
      <trkpt lat="50.419079" lon="19.04538"></trkpt>
      <trkpt lat="50.417383" lon="19.044261"></trkpt>
      <trkpt lat="50.416235" lon="19.043332"></trkpt>
      <trkpt lat="50.414796" lon="19.041886"></trkpt>
      <trkpt lat="50.413356" lon="19.040048"></trkpt>
      <trkpt lat="50.41199" lon="19.037831"></trkpt>
      <trkpt lat="50.410984" lon="19.035788"></trkpt>
      <trkpt lat="50.410328" lon="19.034167"></trkpt>
      <trkpt lat="50.409338" lon="19.031112"></trkpt>
      <trkpt lat="50.406066" lon="19.01931"></trkpt>
      <trkpt lat="50.405183" lon="19.016612"></trkpt>
      <trkpt lat="50.403904" lon="19.013236"></trkpt>
      <trkpt lat="50.402176" lon="19.009366"></trkpt>
      <trkpt lat="50.389773" lon="18.983751"></trkpt>
      <trkpt lat="50.388181" lon="18.981012"></trkpt>
      <trkpt lat="50.385951" lon="18.977869"></trkpt>
      <trkpt lat="50.374071" lon="18.964358"></trkpt>
      <trkpt lat="50.372218" lon="18.962076"></trkpt>
      <trkpt lat="50.370885" lon="18.959903"></trkpt>
      <trkpt lat="50.370054" lon="18.958074"></trkpt>
      <trkpt lat="50.369287" lon="18.9558"></trkpt>
      <trkpt lat="50.368659" lon="18.95302"></trkpt>
      <trkpt lat="50.368332" lon="18.950046"></trkpt>
      <trkpt lat="50.368291" lon="18.947354"></trkpt>
      <trkpt lat="50.369098" lon="18.917933"></trkpt>
      <trkpt lat="50.369349" lon="18.914879"></trkpt>
      <trkpt lat="50.370006" lon="18.911067"></trkpt>
      <trkpt lat="50.372098" lon="18.903504"></trkpt>
      <trkpt lat="50.372801" lon="18.899523"></trkpt>
      <trkpt lat="50.373006" lon="18.895507"></trkpt>
      <trkpt lat="50.372674" lon="18.88862"></trkpt>
      <trkpt lat="50.372932" lon="18.885306"></trkpt>
      <trkpt lat="50.373463" lon="18.882827"></trkpt>
      <trkpt lat="50.374108" lon="18.880853"></trkpt>
      <trkpt lat="50.377794" lon="18.873357"></trkpt>
      <trkpt lat="50.379797" lon="18.868737"></trkpt>
      <trkpt lat="50.38209" lon="18.862649"></trkpt>
      <trkpt lat="50.386418" lon="18.850559"></trkpt>
      <trkpt lat="50.386941" lon="18.848725"></trkpt>
      <trkpt lat="50.387385" lon="18.846548"></trkpt>
      <trkpt lat="50.387707" lon="18.843478"></trkpt>
      <trkpt lat="50.38773" lon="18.841856"></trkpt>
      <trkpt lat="50.387636" lon="18.83967"></trkpt>
      <trkpt lat="50.387329" lon="18.837292"></trkpt>
      <trkpt lat="50.385164" lon="18.828307"></trkpt>
      <trkpt lat="50.384859" lon="18.82632"></trkpt>
      <trkpt lat="50.384685" lon="18.824005"></trkpt>
      <trkpt lat="50.384725" lon="18.821344"></trkpt>
      <trkpt lat="50.384927" lon="18.819303"></trkpt>
      <trkpt lat="50.386473" lon="18.81007"></trkpt>
      <trkpt lat="50.386713" lon="18.807898"></trkpt>
      <trkpt lat="50.386735" lon="18.803964"></trkpt>
      <trkpt lat="50.38622" lon="18.800108"></trkpt>
      <trkpt lat="50.383248" lon="18.788751"></trkpt>
      <trkpt lat="50.382135" lon="18.785442"></trkpt>
      <trkpt lat="50.380688" lon="18.782955"></trkpt>
      <trkpt lat="50.377749" lon="18.779668"></trkpt>
      <trkpt lat="50.376927" lon="18.778506"></trkpt>
      <trkpt lat="50.376128" lon="18.777068"></trkpt>
      <trkpt lat="50.375237" lon="18.774673"></trkpt>
      <trkpt lat="50.374841" lon="18.77305"></trkpt>
      <trkpt lat="50.374539" lon="18.77118"></trkpt>
      <trkpt lat="50.371656" lon="18.744512"></trkpt>
      <trkpt lat="50.371303" lon="18.742298"></trkpt>
      <trkpt lat="50.370354" lon="18.738848"></trkpt>
      <trkpt lat="50.369468" lon="18.736725"></trkpt>
      <trkpt lat="50.367966" lon="18.734148"></trkpt>
      <trkpt lat="50.366696" lon="18.73256"></trkpt>
      <trkpt lat="50.365852" lon="18.731747"></trkpt>
      <trkpt lat="50.364701" lon="18.73086"></trkpt>
      <trkpt lat="50.355883" lon="18.725075"></trkpt>
      <trkpt lat="50.354791" lon="18.724492"></trkpt>
      <trkpt lat="50.353521" lon="18.724007"></trkpt>
      <trkpt lat="50.351636" lon="18.723644"></trkpt>
      <trkpt lat="50.349885" lon="18.723671"></trkpt>
      <trkpt lat="50.348216" lon="18.724037"></trkpt>
      <trkpt lat="50.334677" lon="18.728767"></trkpt>
      <trkpt lat="50.333342" lon="18.729128"></trkpt>
      <trkpt lat="50.33151" lon="18.729443"></trkpt>
      <trkpt lat="50.330238" lon="18.729537"></trkpt>
      <trkpt lat="50.328302" lon="18.729482"></trkpt>
      <trkpt lat="50.326785" lon="18.729277"></trkpt>
      <trkpt lat="50.325" lon="18.728849"></trkpt>
      <trkpt lat="50.322971" lon="18.72811"></trkpt>
      <trkpt lat="50.318031" lon="18.725578"></trkpt>
      <trkpt lat="50.316512" lon="18.725143"></trkpt>
      <trkpt lat="50.315546" lon="18.725028"></trkpt>
      <trkpt lat="50.314225" lon="18.725061"></trkpt>
      <trkpt lat="50.312523" lon="18.725438"></trkpt>
      <trkpt lat="50.307106" lon="18.728006"></trkpt>
      <trkpt lat="50.305154" lon="18.728327"></trkpt>
      <trkpt lat="50.303833" lon="18.728209"></trkpt>
      <trkpt lat="50.302534" lon="18.727831"></trkpt>
      <trkpt lat="50.301242" lon="18.727151"></trkpt>
      <trkpt lat="50.300362" lon="18.726504"></trkpt>
      <trkpt lat="50.299262" lon="18.725447"></trkpt>
      <trkpt lat="50.297808" lon="18.723495"></trkpt>
      <trkpt lat="50.294483" lon="18.71772"></trkpt>
      <trkpt lat="50.293167" lon="18.716207"></trkpt>
      <trkpt lat="50.292003" lon="18.715343"></trkpt>
      <trkpt lat="50.291232" lon="18.71496"></trkpt>
      <trkpt lat="50.29043" lon="18.714705"></trkpt>
      <trkpt lat="50.289407" lon="18.714553"></trkpt>
      <trkpt lat="50.287841" lon="18.714749"></trkpt>
      <trkpt lat="50.286681" lon="18.715213"></trkpt>
      <trkpt lat="50.28545" lon="18.716083"></trkpt>
      <trkpt lat="50.284641" lon="18.716909"></trkpt>
      <trkpt lat="50.283614" lon="18.718303"></trkpt>
      <trkpt lat="50.280226" lon="18.724402"></trkpt>
      <trkpt lat="50.278804" lon="18.726248"></trkpt>
      <trkpt lat="50.277525" lon="18.727445"></trkpt>
      <trkpt lat="50.275621" lon="18.728615"></trkpt>
      <trkpt lat="50.273946" lon="18.729149"></trkpt>
      <trkpt lat="50.272532" lon="18.729257"></trkpt>
      <trkpt lat="50.270914" lon="18.72903"></trkpt>
      <trkpt lat="50.269335" lon="18.72842"></trkpt>
      <trkpt lat="50.267479" lon="18.727153"></trkpt>
      <trkpt lat="50.261561" lon="18.721003"></trkpt>
      <trkpt lat="50.259643" lon="18.719391"></trkpt>
      <trkpt lat="50.258398" lon="18.718517"></trkpt>
      <trkpt lat="50.257064" lon="18.71775"></trkpt>
      <trkpt lat="50.255405" lon="18.716979"></trkpt>
      <trkpt lat="50.251145" lon="18.715566"></trkpt>
      <trkpt lat="50.24765" lon="18.714172"></trkpt>
      <trkpt lat="50.244801" lon="18.712604"></trkpt>
      <trkpt lat="50.242707" lon="18.711246"></trkpt>
      <trkpt lat="50.240367" lon="18.709437"></trkpt>
      <trkpt lat="50.237898" lon="18.707115"></trkpt>
      <trkpt lat="50.229064" lon="18.697569"></trkpt>
      <trkpt lat="50.226408" lon="18.694982"></trkpt>
      <trkpt lat="50.224648" lon="18.693627"></trkpt>
      <trkpt lat="50.222795" lon="18.692574"></trkpt>
      <trkpt lat="50.221017" lon="18.691888"></trkpt>
      <trkpt lat="50.21884" lon="18.691439"></trkpt>
      <trkpt lat="50.216868" lon="18.691386"></trkpt>
      <trkpt lat="50.215396" lon="18.691563"></trkpt>
      <trkpt lat="50.213109" lon="18.692234"></trkpt>
      <trkpt lat="50.211636" lon="18.692929"></trkpt>
      <trkpt lat="50.209429" lon="18.694293"></trkpt>
      <trkpt lat="50.203019" lon="18.69877"></trkpt>
      <trkpt lat="50.200712" lon="18.700153"></trkpt>
      <trkpt lat="50.197631" lon="18.701594"></trkpt>
      <trkpt lat="50.190025" lon="18.70461"></trkpt>
      <trkpt lat="50.187197" lon="18.706112"></trkpt>
      <trkpt lat="50.184886" lon="18.707648"></trkpt>
      <trkpt lat="50.178372" lon="18.71268"></trkpt>
      <trkpt lat="50.177053" lon="18.713563"></trkpt>
      <trkpt lat="50.175596" lon="18.714343"></trkpt>
      <trkpt lat="50.173476" lon="18.71506"></trkpt>
      <trkpt lat="50.172293" lon="18.715256"></trkpt>
      <trkpt lat="50.17092" lon="18.715303"></trkpt>
      <trkpt lat="50.168944" lon="18.71505"></trkpt>
      <trkpt lat="50.167661" lon="18.714672"></trkpt>
      <trkpt lat="50.166564" lon="18.714203"></trkpt>
      <trkpt lat="50.164666" lon="18.713064"></trkpt>
      <trkpt lat="50.162562" lon="18.711255"></trkpt>
      <trkpt lat="50.153699" lon="18.701531"></trkpt>
      <trkpt lat="50.150921" lon="18.698981"></trkpt>
      <trkpt lat="50.148948" lon="18.697553"></trkpt>
      <trkpt lat="50.146843" lon="18.696347"></trkpt>
      <trkpt lat="50.144214" lon="18.695246"></trkpt>
      <trkpt lat="50.132543" lon="18.69161"></trkpt>
      <trkpt lat="50.128656" lon="18.690278"></trkpt>
      <trkpt lat="50.125462" lon="18.688769"></trkpt>
      <trkpt lat="50.121768" lon="18.686378"></trkpt>
      <trkpt lat="50.120053" lon="18.684997"></trkpt>
      <trkpt lat="50.117986" lon="18.683092"></trkpt>
      <trkpt lat="50.104329" lon="18.668973"></trkpt>
      <trkpt lat="50.101451" lon="18.666545"></trkpt>
      <trkpt lat="50.098856" lon="18.664938"></trkpt>
      <trkpt lat="50.097398" lon="18.664254"></trkpt>
      <trkpt lat="50.095718" lon="18.663656"></trkpt>
      <trkpt lat="50.093939" lon="18.663216"></trkpt>
      <trkpt lat="50.092059" lon="18.662978"></trkpt>
      <trkpt lat="50.089432" lon="18.662927"></trkpt>
      <trkpt lat="50.074949" lon="18.663408"></trkpt>
      <trkpt lat="50.072807" lon="18.663301"></trkpt>
      <trkpt lat="50.07153" lon="18.663047"></trkpt>
      <trkpt lat="50.070105" lon="18.662494"></trkpt>
      <trkpt lat="50.068349" lon="18.661485"></trkpt>
      <trkpt lat="50.067177" lon="18.660558"></trkpt>
      <trkpt lat="50.065951" lon="18.65933"></trkpt>
      <trkpt lat="50.064963" lon="18.658108"></trkpt>
      <trkpt lat="50.061314" lon="18.652216"></trkpt>
      <trkpt lat="50.059715" lon="18.650163"></trkpt>
      <trkpt lat="50.058047" lon="18.648669"></trkpt>
      <trkpt lat="50.054469" lon="18.646341"></trkpt>
      <trkpt lat="50.052692" lon="18.644928"></trkpt>
      <trkpt lat="50.051322" lon="18.643378"></trkpt>
      <trkpt lat="50.050208" lon="18.641683"></trkpt>
      <trkpt lat="50.048947" lon="18.638997"></trkpt>
      <trkpt lat="50.047842" lon="18.635599"></trkpt>
      <trkpt lat="50.042904" lon="18.616885"></trkpt>
      <trkpt lat="50.042054" lon="18.614123"></trkpt>
      <trkpt lat="50.041251" lon="18.612111"></trkpt>
      <trkpt lat="50.040444" lon="18.610488"></trkpt>
      <trkpt lat="50.038745" lon="18.607899"></trkpt>
      <trkpt lat="50.037778" lon="18.606782"></trkpt>
      <trkpt lat="50.036508" lon="18.605584"></trkpt>
      <trkpt lat="50.034484" lon="18.604231"></trkpt>
      <trkpt lat="50.032456" lon="18.603418"></trkpt>
      <trkpt lat="50.02664" lon="18.602267"></trkpt>
      <trkpt lat="50.024819" lon="18.601782"></trkpt>
      <trkpt lat="50.022547" lon="18.600656"></trkpt>
      <trkpt lat="50.021044" lon="18.599501"></trkpt>
      <trkpt lat="50.020153" lon="18.598657"></trkpt>
      <trkpt lat="50.018378" lon="18.596505"></trkpt>
      <trkpt lat="50.012479" lon="18.587465"></trkpt>
      <trkpt lat="50.011624" lon="18.586302"></trkpt>
      <trkpt lat="50.010007" lon="18.584441"></trkpt>
      <trkpt lat="50.007305" lon="18.582006"></trkpt>
      <trkpt lat="50.000846" lon="18.577535"></trkpt>
      <trkpt lat="49.999414" lon="18.576356"></trkpt>
      <trkpt lat="49.998001" lon="18.574943"></trkpt>
      <trkpt lat="49.991909" lon="18.568012"></trkpt>
      <trkpt lat="49.990525" lon="18.566614"></trkpt>
      <trkpt lat="49.989325" lon="18.565564"></trkpt>
      <trkpt lat="49.984843" lon="18.562273"></trkpt>
      <trkpt lat="49.982648" lon="18.560129"></trkpt>
      <trkpt lat="49.980933" lon="18.557814"></trkpt>
      <trkpt lat="49.979326" lon="18.554858"></trkpt>
      <trkpt lat="49.978144" lon="18.551892"></trkpt>
      <trkpt lat="49.975922" lon="18.545549"></trkpt>
      <trkpt lat="49.974581" lon="18.542888"></trkpt>
      <trkpt lat="49.973294" lon="18.540904"></trkpt>
      <trkpt lat="49.972008" lon="18.53939"></trkpt>
      <trkpt lat="49.970159" lon="18.537818"></trkpt>
      <trkpt lat="49.966615" lon="18.535726"></trkpt>
      <trkpt lat="49.964811" lon="18.534436"></trkpt>
      <trkpt lat="49.96357" lon="18.53324"></trkpt>
      <trkpt lat="49.962609" lon="18.532091"></trkpt>
      <trkpt lat="49.961142" lon="18.529851"></trkpt>
      <trkpt lat="49.959911" lon="18.527272"></trkpt>
      <trkpt lat="49.958921" lon="18.524331"></trkpt>
      <trkpt lat="49.958332" lon="18.521696"></trkpt>
      <trkpt lat="49.957979" lon="18.518993"></trkpt>
      <trkpt lat="49.957777" lon="18.514265"></trkpt>
      <trkpt lat="49.957804" lon="18.498996"></trkpt>
      <trkpt lat="49.957585" lon="18.495234"></trkpt>
      <trkpt lat="49.956955" lon="18.490581"></trkpt>
      <trkpt lat="49.954699" lon="18.47861"></trkpt>
      <trkpt lat="49.954206" lon="18.474265"></trkpt>
      <trkpt lat="49.954168" lon="18.469602"></trkpt>
      <trkpt lat="49.954822" lon="18.46048"></trkpt>
      <trkpt lat="49.954918" lon="18.456821"></trkpt>
      <trkpt lat="49.95464" lon="18.452516"></trkpt>
      <trkpt lat="49.954254" lon="18.449906"></trkpt>
      <trkpt lat="49.953782" lon="18.447653"></trkpt>
      <trkpt lat="49.952758" lon="18.444161"></trkpt>
      <trkpt lat="49.951689" lon="18.44147"></trkpt>
      <trkpt lat="49.950639" lon="18.439347"></trkpt>
      <trkpt lat="49.94653" lon="18.431916"></trkpt>
      <trkpt lat="49.944877" lon="18.428533"></trkpt>
      <trkpt lat="49.942827" lon="18.423446"></trkpt>
      <trkpt lat="49.938776" lon="18.412582"></trkpt>
      <trkpt lat="49.937532" lon="18.409521"></trkpt>
      <trkpt lat="49.935325" lon="18.404876"></trkpt>
      <trkpt lat="49.930237" lon="18.394766"></trkpt>
      <trkpt lat="49.925666" lon="18.384744"></trkpt>
      <trkpt lat="49.921581" lon="18.374927"></trkpt>
      <trkpt lat="49.918402" lon="18.366251"></trkpt>
      <trkpt lat="49.916883" lon="18.361455"></trkpt>
      <trkpt lat="49.915511" lon="18.356597"></trkpt>
      <trkpt lat="49.91361" lon="18.348525"></trkpt>
      <trkpt lat="49.912842" lon="18.344179"></trkpt>
      <trkpt lat="49.912337" lon="18.340182"></trkpt>
      <trkpt lat="49.910627" lon="18.322282"></trkpt>
      <trkpt lat="49.909714" lon="18.317886"></trkpt>
      <trkpt lat="49.90911" lon="18.315982"></trkpt>
      <trkpt lat="49.908289" lon="18.313923"></trkpt>
      <trkpt lat="49.907127" lon="18.311622"></trkpt>
      <trkpt lat="49.906269" lon="18.310248"></trkpt>
      <trkpt lat="49.905343" lon="18.308962"></trkpt>
      <trkpt lat="49.903973" lon="18.307355"></trkpt>
      <trkpt lat="49.902881" lon="18.306311"></trkpt>
      <trkpt lat="49.901304" lon="18.30512"></trkpt>
      <trkpt lat="49.899904" lon="18.304309"></trkpt>
      <trkpt lat="49.898531" lon="18.303741"></trkpt>
      <trkpt lat="49.896492" lon="18.303232"></trkpt>
      <trkpt lat="49.895311" lon="18.30314"></trkpt>
      <trkpt lat="49.893759" lon="18.303203"></trkpt>
      <trkpt lat="49.891476" lon="18.3037"></trkpt>
      <trkpt lat="49.885539" lon="18.305676"></trkpt>
      <trkpt lat="49.883605" lon="18.305917"></trkpt>
      <trkpt lat="49.8819" lon="18.305698"></trkpt>
      <trkpt lat="49.880642" lon="18.305254"></trkpt>
      <trkpt lat="49.879382" lon="18.304581"></trkpt>
      <trkpt lat="49.877894" lon="18.30341"></trkpt>
      <trkpt lat="49.876109" lon="18.301303"></trkpt>
      <trkpt lat="49.875163" lon="18.299764"></trkpt>
      <trkpt lat="49.874255" lon="18.297853"></trkpt>
      <trkpt lat="49.873492" lon="18.29562"></trkpt>
      <trkpt lat="49.871684" lon="18.289395"></trkpt>
      <trkpt lat="49.869649" lon="18.283937"></trkpt>
      <trkpt lat="49.868021" lon="18.280407"></trkpt>
      <trkpt lat="49.865319" lon="18.27539"></trkpt>
      <trkpt lat="49.863913" lon="18.272344"></trkpt>
      <trkpt lat="49.86275" lon="18.268693"></trkpt>
      <trkpt lat="49.861455" lon="18.26316"></trkpt>
      <trkpt lat="49.860347" lon="18.260184"></trkpt>
      <trkpt lat="49.85897" lon="18.257695"></trkpt>
      <trkpt lat="49.854593" lon="18.25103"></trkpt>
      <trkpt lat="49.853381" lon="18.248487"></trkpt>
      <trkpt lat="49.852803" lon="18.246793"></trkpt>
      <trkpt lat="49.852207" lon="18.244272"></trkpt>
      <trkpt lat="49.851091" lon="18.235837"></trkpt>
      <trkpt lat="49.850515" lon="18.232921"></trkpt>
      <trkpt lat="49.850071" lon="18.231422"></trkpt>
      <trkpt lat="49.849232" lon="18.229293"></trkpt>
      <trkpt lat="49.847656" lon="18.226551"></trkpt>
      <trkpt lat="49.845886" lon="18.224266"></trkpt>
      <trkpt lat="49.8445" lon="18.222783"></trkpt>
      <trkpt lat="49.842389" lon="18.22093"></trkpt>
      <trkpt lat="49.840792" lon="18.219854"></trkpt>
      <trkpt lat="49.839637" lon="18.219281"></trkpt>
      <trkpt lat="49.83799" lon="18.218759"></trkpt>
      <trkpt lat="49.835809" lon="18.218533"></trkpt>
      <trkpt lat="49.8337" lon="18.21863"></trkpt>
      <trkpt lat="49.832469" lon="18.218562"></trkpt>
      <trkpt lat="49.830645" lon="18.218133"></trkpt>
      <trkpt lat="49.82935" lon="18.217576"></trkpt>
      <trkpt lat="49.827372" lon="18.216302"></trkpt>
      <trkpt lat="49.823501" lon="18.213063"></trkpt>
      <trkpt lat="49.820942" lon="18.211262"></trkpt>
      <trkpt lat="49.816953" lon="18.209298"></trkpt>
      <trkpt lat="49.814302" lon="18.20821"></trkpt>
      <trkpt lat="49.810764" lon="18.206961"></trkpt>
      <trkpt lat="49.809133" lon="18.20606"></trkpt>
      <trkpt lat="49.80818" lon="18.205319"></trkpt>
      <trkpt lat="49.807003" lon="18.204121"></trkpt>
      <trkpt lat="49.805477" lon="18.201921"></trkpt>
      <trkpt lat="49.804736" lon="18.200535"></trkpt>
      <trkpt lat="49.804046" lon="18.198817"></trkpt>
      <trkpt lat="49.803521" lon="18.197105"></trkpt>
      <trkpt lat="49.802857" lon="18.194312"></trkpt>
      <trkpt lat="49.801787" lon="18.18838"></trkpt>
      <trkpt lat="49.801213" lon="18.183334"></trkpt>
      <trkpt lat="49.800948" lon="18.178517"></trkpt>
      <trkpt lat="49.800177" lon="18.144776"></trkpt>
      <trkpt lat="49.799707" lon="18.139383"></trkpt>
      <trkpt lat="49.799005" lon="18.134988"></trkpt>
      <trkpt lat="49.797859" lon="18.129883"></trkpt>
      <trkpt lat="49.79576" lon="18.123034"></trkpt>
      <trkpt lat="49.794301" lon="18.11954"></trkpt>
      <trkpt lat="49.792878" lon="18.116791"></trkpt>
      <trkpt lat="49.79085" lon="18.11321"></trkpt>
      <trkpt lat="49.789769" lon="18.111532"></trkpt>
      <trkpt lat="49.783305" lon="18.102703"></trkpt>
      <trkpt lat="49.782249" lon="18.101349"></trkpt>
      <trkpt lat="49.780814" lon="18.099811"></trkpt>
      <trkpt lat="49.779871" lon="18.09897"></trkpt>
      <trkpt lat="49.777876" lon="18.097636"></trkpt>
      <trkpt lat="49.776141" lon="18.096803"></trkpt>
      <trkpt lat="49.774446" lon="18.096303"></trkpt>
      <trkpt lat="49.772948" lon="18.096039"></trkpt>
      <trkpt lat="49.757526" lon="18.095798"></trkpt>
      <trkpt lat="49.754636" lon="18.095689"></trkpt>
      <trkpt lat="49.753581" lon="18.095508"></trkpt>
      <trkpt lat="49.751484" lon="18.094743"></trkpt>
      <trkpt lat="49.749543" lon="18.09352"></trkpt>
      <trkpt lat="49.747433" lon="18.091482"></trkpt>
      <trkpt lat="49.745729" lon="18.089091"></trkpt>
      <trkpt lat="49.744624" lon="18.086984"></trkpt>
      <trkpt lat="49.743688" lon="18.084638"></trkpt>
      <trkpt lat="49.742818" lon="18.081443"></trkpt>
      <trkpt lat="49.742407" lon="18.079081"></trkpt>
      <trkpt lat="49.741855" lon="18.073434"></trkpt>
      <trkpt lat="49.741493" lon="18.062472"></trkpt>
      <trkpt lat="49.741121" lon="18.057265"></trkpt>
      <trkpt lat="49.74043" lon="18.051617"></trkpt>
      <trkpt lat="49.739468" lon="18.04628"></trkpt>
      <trkpt lat="49.73842" lon="18.041689"></trkpt>
      <trkpt lat="49.736302" lon="18.034684"></trkpt>
      <trkpt lat="49.734219" lon="18.029344"></trkpt>
      <trkpt lat="49.732299" lon="18.025087"></trkpt>
      <trkpt lat="49.731036" lon="18.022678"></trkpt>
      <trkpt lat="49.729006" lon="18.019208"></trkpt>
      <trkpt lat="49.726843" lon="18.01597"></trkpt>
      <trkpt lat="49.72541" lon="18.01405"></trkpt>
      <trkpt lat="49.723202" lon="18.011377"></trkpt>
      <trkpt lat="49.715516" lon="18.003336"></trkpt>
      <trkpt lat="49.713341" lon="18.000905"></trkpt>
      <trkpt lat="49.70881" lon="17.99524"></trkpt>
      <trkpt lat="49.703904" lon="17.987782"></trkpt>
      <trkpt lat="49.701038" lon="17.982723"></trkpt>
      <trkpt lat="49.697555" lon="17.975652"></trkpt>
      <trkpt lat="49.695761" lon="17.971449"></trkpt>
      <trkpt lat="49.693863" lon="17.966514"></trkpt>
      <trkpt lat="49.688975" lon="17.95256"></trkpt>
      <trkpt lat="49.687411" lon="17.948778"></trkpt>
      <trkpt lat="49.685122" lon="17.94406"></trkpt>
      <trkpt lat="49.682926" lon="17.940218"></trkpt>
      <trkpt lat="49.681633" lon="17.938206"></trkpt>
      <trkpt lat="49.671891" lon="17.92492"></trkpt>
      <trkpt lat="49.669116" lon="17.920695"></trkpt>
      <trkpt lat="49.666527" lon="17.9164"></trkpt>
      <trkpt lat="49.663217" lon="17.910369"></trkpt>
      <trkpt lat="49.63877" lon="17.863827"></trkpt>
      <trkpt lat="49.63658" lon="17.858983"></trkpt>
      <trkpt lat="49.634491" lon="17.853474"></trkpt>
      <trkpt lat="49.632978" lon="17.848689"></trkpt>
      <trkpt lat="49.629514" lon="17.836301"></trkpt>
      <trkpt lat="49.627675" lon="17.830879"></trkpt>
      <trkpt lat="49.625067" lon="17.8246"></trkpt>
      <trkpt lat="49.621756" lon="17.818223"></trkpt>
      <trkpt lat="49.619904" lon="17.815196"></trkpt>
      <trkpt lat="49.617574" lon="17.811813"></trkpt>
      <trkpt lat="49.615161" lon="17.808735"></trkpt>
      <trkpt lat="49.613207" lon="17.806495"></trkpt>
      <trkpt lat="49.610849" lon="17.804114"></trkpt>
      <trkpt lat="49.608997" lon="17.802425"></trkpt>
      <trkpt lat="49.602206" lon="17.796842"></trkpt>
      <trkpt lat="49.600422" lon="17.795115"></trkpt>
      <trkpt lat="49.598622" lon="17.793105"></trkpt>
      <trkpt lat="49.597195" lon="17.791279"></trkpt>
      <trkpt lat="49.595229" lon="17.788376"></trkpt>
      <trkpt lat="49.592836" lon="17.784026"></trkpt>
      <trkpt lat="49.591578" lon="17.781256"></trkpt>
      <trkpt lat="49.590546" lon="17.77862"></trkpt>
      <trkpt lat="49.589602" lon="17.775832"></trkpt>
      <trkpt lat="49.588715" lon="17.772696"></trkpt>
      <trkpt lat="49.587828" lon="17.768731"></trkpt>
      <trkpt lat="49.586129" lon="17.759405"></trkpt>
      <trkpt lat="49.585014" lon="17.755281"></trkpt>
      <trkpt lat="49.584375" lon="17.753644"></trkpt>
      <trkpt lat="49.583252" lon="17.751415"></trkpt>
      <trkpt lat="49.579981" lon="17.746646"></trkpt>
      <trkpt lat="49.578427" lon="17.743739"></trkpt>
      <trkpt lat="49.577078" lon="17.740063"></trkpt>
      <trkpt lat="49.576309" lon="17.736384"></trkpt>
      <trkpt lat="49.576079" lon="17.734476"></trkpt>
      <trkpt lat="49.57599" lon="17.732077"></trkpt>
      <trkpt lat="49.57628" lon="17.71926"></trkpt>
      <trkpt lat="49.576049" lon="17.71417"></trkpt>
      <trkpt lat="49.575516" lon="17.710059"></trkpt>
      <trkpt lat="49.572734" lon="17.693402"></trkpt>
      <trkpt lat="49.572353" lon="17.689594"></trkpt>
      <trkpt lat="49.572418" lon="17.685853"></trkpt>
      <trkpt lat="49.574109" lon="17.671878"></trkpt>
      <trkpt lat="49.574417" lon="17.667121"></trkpt>
      <trkpt lat="49.574365" lon="17.663527"></trkpt>
      <trkpt lat="49.574118" lon="17.660431"></trkpt>
      <trkpt lat="49.573356" lon="17.655678"></trkpt>
      <trkpt lat="49.57289" lon="17.653586"></trkpt>
      <trkpt lat="49.571994" lon="17.650567"></trkpt>
      <trkpt lat="49.570759" lon="17.647219"></trkpt>
      <trkpt lat="49.569618" lon="17.644757"></trkpt>
      <trkpt lat="49.56621" lon="17.638261"></trkpt>
      <trkpt lat="49.565065" lon="17.635602"></trkpt>
      <trkpt lat="49.563758" lon="17.631593"></trkpt>
      <trkpt lat="49.561799" lon="17.623468"></trkpt>
      <trkpt lat="49.561066" lon="17.621272"></trkpt>
      <trkpt lat="49.560432" lon="17.619766"></trkpt>
      <trkpt lat="49.559282" lon="17.617623"></trkpt>
      <trkpt lat="49.558219" lon="17.616052"></trkpt>
      <trkpt lat="49.553604" lon="17.609805"></trkpt>
      <trkpt lat="49.551994" lon="17.60739"></trkpt>
      <trkpt lat="49.550364" lon="17.604178"></trkpt>
      <trkpt lat="49.549458" lon="17.60188"></trkpt>
      <trkpt lat="49.548802" lon="17.599799"></trkpt>
      <trkpt lat="49.547916" lon="17.595841"></trkpt>
      <trkpt lat="49.547404" lon="17.591238"></trkpt>
      <trkpt lat="49.547338" lon="17.588526"></trkpt>
      <trkpt lat="49.547607" lon="17.573229"></trkpt>
      <trkpt lat="49.547521" lon="17.569868"></trkpt>
      <trkpt lat="49.546947" lon="17.565831"></trkpt>
      <trkpt lat="49.546205" lon="17.56303"></trkpt>
      <trkpt lat="49.54507" lon="17.56013"></trkpt>
      <trkpt lat="49.543839" lon="17.557852"></trkpt>
      <trkpt lat="49.536979" lon="17.54847"></trkpt>
      <trkpt lat="49.534475" lon="17.544435"></trkpt>
      <trkpt lat="49.532104" lon="17.539643"></trkpt>
      <trkpt lat="49.52682" lon="17.526995"></trkpt>
      <trkpt lat="49.524318" lon="17.52209"></trkpt>
      <trkpt lat="49.521589" lon="17.517813"></trkpt>
      <trkpt lat="49.515737" lon="17.510065"></trkpt>
      <trkpt lat="49.514714" lon="17.508455"></trkpt>
      <trkpt lat="49.513152" lon="17.505644"></trkpt>
      <trkpt lat="49.511739" lon="17.502567"></trkpt>
      <trkpt lat="49.510317" lon="17.498713"></trkpt>
      <trkpt lat="49.50953" lon="17.496097"></trkpt>
      <trkpt lat="49.507959" lon="17.489726"></trkpt>
      <trkpt lat="49.507199" lon="17.487063"></trkpt>
      <trkpt lat="49.505959" lon="17.483789"></trkpt>
      <trkpt lat="49.504699" lon="17.481289"></trkpt>
      <trkpt lat="49.503131" lon="17.478844"></trkpt>
      <trkpt lat="49.501556" lon="17.47689"></trkpt>
      <trkpt lat="49.489023" lon="17.463337"></trkpt>
      <trkpt lat="49.48679" lon="17.460543"></trkpt>
      <trkpt lat="49.484337" lon="17.456921"></trkpt>
      <trkpt lat="49.482348" lon="17.45351"></trkpt>
      <trkpt lat="49.480065" lon="17.448835"></trkpt>
      <trkpt lat="49.476089" lon="17.438808"></trkpt>
      <trkpt lat="49.474664" lon="17.435583"></trkpt>
      <trkpt lat="49.473039" lon="17.432532"></trkpt>
      <trkpt lat="49.471703" lon="17.430418"></trkpt>
      <trkpt lat="49.469493" lon="17.427527"></trkpt>
      <trkpt lat="49.466765" lon="17.424683"></trkpt>
      <trkpt lat="49.464873" lon="17.423106"></trkpt>
      <trkpt lat="49.463308" lon="17.422029"></trkpt>
      <trkpt lat="49.461534" lon="17.421024"></trkpt>
      <trkpt lat="49.458476" lon="17.419764"></trkpt>
      <trkpt lat="49.456067" lon="17.419086"></trkpt>
      <trkpt lat="49.453768" lon="17.4186"></trkpt>
      <trkpt lat="49.449744" lon="17.418044"></trkpt>
      <trkpt lat="49.448371" lon="17.418043"></trkpt>
      <trkpt lat="49.447026" lon="17.418259"></trkpt>
      <trkpt lat="49.445468" lon="17.418819"></trkpt>
      <trkpt lat="49.44387" lon="17.419749"></trkpt>
      <trkpt lat="49.442544" lon="17.420852"></trkpt>
      <trkpt lat="49.441027" lon="17.422558"></trkpt>
      <trkpt lat="49.439929" lon="17.424205"></trkpt>
      <trkpt lat="49.439099" lon="17.425776"></trkpt>
      <trkpt lat="49.436868" lon="17.431334"></trkpt>
      <trkpt lat="49.435675" lon="17.433592"></trkpt>
      <trkpt lat="49.434496" lon="17.435292"></trkpt>
      <trkpt lat="49.433674" lon="17.436255"></trkpt>
      <trkpt lat="49.431695" lon="17.438012"></trkpt>
      <trkpt lat="49.430049" lon="17.438985"></trkpt>
      <trkpt lat="49.42805" lon="17.439669"></trkpt>
      <trkpt lat="49.413559" lon="17.442175"></trkpt>
      <trkpt lat="49.411478" lon="17.442627"></trkpt>
      <trkpt lat="49.408636" lon="17.44356"></trkpt>
      <trkpt lat="49.405403" lon="17.445105"></trkpt>
      <trkpt lat="49.403698" lon="17.446141"></trkpt>
      <trkpt lat="49.401794" lon="17.447501"></trkpt>
      <trkpt lat="49.398757" lon="17.450151"></trkpt>
      <trkpt lat="49.396623" lon="17.452414"></trkpt>
      <trkpt lat="49.391967" lon="17.45777"></trkpt>
      <trkpt lat="49.388978" lon="17.460645"></trkpt>
      <trkpt lat="49.38579" lon="17.463053"></trkpt>
      <trkpt lat="49.382336" lon="17.464994"></trkpt>
      <trkpt lat="49.378923" lon="17.466306"></trkpt>
      <trkpt lat="49.375533" lon="17.467058"></trkpt>
      <trkpt lat="49.37233" lon="17.467303"></trkpt>
      <trkpt lat="49.365709" lon="17.467393"></trkpt>
      <trkpt lat="49.363263" lon="17.467655"></trkpt>
      <trkpt lat="49.360205" lon="17.468268"></trkpt>
      <trkpt lat="49.357671" lon="17.469027"></trkpt>
      <trkpt lat="49.35506" lon="17.470053"></trkpt>
      <trkpt lat="49.3441" lon="17.475352"></trkpt>
      <trkpt lat="49.342675" lon="17.475894"></trkpt>
      <trkpt lat="49.341564" lon="17.476082"></trkpt>
      <trkpt lat="49.340613" lon="17.476066"></trkpt>
      <trkpt lat="49.339588" lon="17.475877"></trkpt>
      <trkpt lat="49.338308" lon="17.475378"></trkpt>
      <trkpt lat="49.337299" lon="17.474748"></trkpt>
      <trkpt lat="49.33618" lon="17.473768"></trkpt>
      <trkpt lat="49.3354" lon="17.472867"></trkpt>
      <trkpt lat="49.334022" lon="17.470637"></trkpt>
      <trkpt lat="49.327308" lon="17.45386"></trkpt>
      <trkpt lat="49.326091" lon="17.450589"></trkpt>
      <trkpt lat="49.325106" lon="17.447504"></trkpt>
      <trkpt lat="49.323837" lon="17.442433"></trkpt>
      <trkpt lat="49.321348" lon="17.429537"></trkpt>
      <trkpt lat="49.320789" lon="17.427315"></trkpt>
      <trkpt lat="49.319328" lon="17.422541"></trkpt>
      <trkpt lat="49.317381" lon="17.417681"></trkpt>
      <trkpt lat="49.314086" lon="17.41096"></trkpt>
      <trkpt lat="49.313596" lon="17.409662"></trkpt>
      <trkpt lat="49.313017" lon="17.4076"></trkpt>
      <trkpt lat="49.312634" lon="17.405525"></trkpt>
      <trkpt lat="49.312412" lon="17.402827"></trkpt>
      <trkpt lat="49.312453" lon="17.400556"></trkpt>
      <trkpt lat="49.312871" lon="17.393924"></trkpt>
      <trkpt lat="49.312833" lon="17.386244"></trkpt>
      <trkpt lat="49.312699" lon="17.383606"></trkpt>
      <trkpt lat="49.312144" lon="17.380338"></trkpt>
      <trkpt lat="49.308442" lon="17.365014"></trkpt>
      <trkpt lat="49.308083" lon="17.362966"></trkpt>
      <trkpt lat="49.307832" lon="17.36041"></trkpt>
      <trkpt lat="49.307789" lon="17.358116"></trkpt>
      <trkpt lat="49.307986" lon="17.355078"></trkpt>
      <trkpt lat="49.308582" lon="17.351677"></trkpt>
      <trkpt lat="49.30918" lon="17.349526"></trkpt>
      <trkpt lat="49.310471" lon="17.346315"></trkpt>
      <trkpt lat="49.314294" lon="17.338887"></trkpt>
      <trkpt lat="49.316087" lon="17.334862"></trkpt>
      <trkpt lat="49.318046" lon="17.329604"></trkpt>
      <trkpt lat="49.319445" lon="17.325002"></trkpt>
      <trkpt lat="49.32105" lon="17.31832"></trkpt>
      <trkpt lat="49.321737" lon="17.314515"></trkpt>
      <trkpt lat="49.322419" lon="17.309437"></trkpt>
      <trkpt lat="49.322862" lon="17.304119"></trkpt>
      <trkpt lat="49.323033" lon="17.299532"></trkpt>
      <trkpt lat="49.323006" lon="17.295949"></trkpt>
      <trkpt lat="49.322746" lon="17.290241"></trkpt>
      <trkpt lat="49.322228" lon="17.285203"></trkpt>
      <trkpt lat="49.320995" lon="17.276666"></trkpt>
      <trkpt lat="49.320665" lon="17.273699"></trkpt>
      <trkpt lat="49.320343" lon="17.268397"></trkpt>
      <trkpt lat="49.320345" lon="17.263878"></trkpt>
      <trkpt lat="49.320653" lon="17.258903"></trkpt>
      <trkpt lat="49.321538" lon="17.25236"></trkpt>
      <trkpt lat="49.322381" lon="17.248302"></trkpt>
      <trkpt lat="49.32419" lon="17.240666"></trkpt>
      <trkpt lat="49.324848" lon="17.237349"></trkpt>
      <trkpt lat="49.325376" lon="17.233814"></trkpt>
      <trkpt lat="49.32576" lon="17.23003"></trkpt>
      <trkpt lat="49.325958" lon="17.226567"></trkpt>
      <trkpt lat="49.325942" lon="17.221103"></trkpt>
      <trkpt lat="49.325597" lon="17.215995"></trkpt>
      <trkpt lat="49.324917" lon="17.210885"></trkpt>
      <trkpt lat="49.324114" lon="17.206781"></trkpt>
      <trkpt lat="49.32136" lon="17.194896"></trkpt>
      <trkpt lat="49.32029" lon="17.189232"></trkpt>
      <trkpt lat="49.31958" lon="17.183879"></trkpt>
      <trkpt lat="49.318486" lon="17.172312"></trkpt>
      <trkpt lat="49.317617" lon="17.166908"></trkpt>
      <trkpt lat="49.316943" lon="17.163886"></trkpt>
      <trkpt lat="49.315794" lon="17.159714"></trkpt>
      <trkpt lat="49.31477" lon="17.156673"></trkpt>
      <trkpt lat="49.311787" lon="17.148919"></trkpt>
      <trkpt lat="49.31035" lon="17.144291"></trkpt>
      <trkpt lat="49.309216" lon="17.139491"></trkpt>
      <trkpt lat="49.308142" lon="17.133453"></trkpt>
      <trkpt lat="49.307458" lon="17.130267"></trkpt>
      <trkpt lat="49.306144" lon="17.125494"></trkpt>
      <trkpt lat="49.304811" lon="17.12168"></trkpt>
      <trkpt lat="49.303016" lon="17.117496"></trkpt>
      <trkpt lat="49.301421" lon="17.114387"></trkpt>
      <trkpt lat="49.299509" lon="17.111208"></trkpt>
      <trkpt lat="49.295198" lon="17.104761"></trkpt>
      <trkpt lat="49.293137" lon="17.101034"></trkpt>
      <trkpt lat="49.291387" lon="17.097217"></trkpt>
      <trkpt lat="49.288473" lon="17.089779"></trkpt>
      <trkpt lat="49.287103" lon="17.086569"></trkpt>
      <trkpt lat="49.282437" lon="17.077521"></trkpt>
      <trkpt lat="49.281242" lon="17.074514"></trkpt>
      <trkpt lat="49.280506" lon="17.072036"></trkpt>
      <trkpt lat="49.279794" lon="17.068575"></trkpt>
      <trkpt lat="49.278929" lon="17.060346"></trkpt>
      <trkpt lat="49.278239" lon="17.056518"></trkpt>
      <trkpt lat="49.277735" lon="17.054634"></trkpt>
      <trkpt lat="49.276812" lon="17.051984"></trkpt>
      <trkpt lat="49.274247" lon="17.046017"></trkpt>
      <trkpt lat="49.273712" lon="17.044207"></trkpt>
      <trkpt lat="49.273346" lon="17.042473"></trkpt>
      <trkpt lat="49.273085" lon="17.040518"></trkpt>
      <trkpt lat="49.272983" lon="17.038715"></trkpt>
      <trkpt lat="49.273165" lon="17.032048"></trkpt>
      <trkpt lat="49.272948" lon="17.027653"></trkpt>
      <trkpt lat="49.272642" lon="17.025282"></trkpt>
      <trkpt lat="49.272035" lon="17.022002"></trkpt>
      <trkpt lat="49.270595" lon="17.016106"></trkpt>
      <trkpt lat="49.268899" lon="17.010897"></trkpt>
      <trkpt lat="49.26705" lon="17.006495"></trkpt>
      <trkpt lat="49.261641" lon="16.996254"></trkpt>
      <trkpt lat="49.259416" lon="16.991285"></trkpt>
      <trkpt lat="49.257426" lon="16.985348"></trkpt>
      <trkpt lat="49.254397" lon="16.974438"></trkpt>
      <trkpt lat="49.252782" lon="16.969074"></trkpt>
      <trkpt lat="49.251312" lon="16.964759"></trkpt>
      <trkpt lat="49.248536" lon="16.957896"></trkpt>
      <trkpt lat="49.245394" lon="16.951339"></trkpt>
      <trkpt lat="49.241655" lon="16.944849"></trkpt>
      <trkpt lat="49.238163" lon="16.939747"></trkpt>
      <trkpt lat="49.235806" lon="16.936663"></trkpt>
      <trkpt lat="49.23413" lon="16.934672"></trkpt>
      <trkpt lat="49.231676" lon="16.932023"></trkpt>
      <trkpt lat="49.230282" lon="16.930696"></trkpt>
      <trkpt lat="49.227889" lon="16.928776"></trkpt>
      <trkpt lat="49.225244" lon="16.927056"></trkpt>
      <trkpt lat="49.219688" lon="16.923835"></trkpt>
      <trkpt lat="49.216855" lon="16.92172"></trkpt>
      <trkpt lat="49.212431" lon="16.917564"></trkpt>
      <trkpt lat="49.210013" lon="16.914992"></trkpt>
      <trkpt lat="49.206753" lon="16.911085"></trkpt>
      <trkpt lat="49.204325" lon="16.90752"></trkpt>
      <trkpt lat="49.202331" lon="16.903897"></trkpt>
      <trkpt lat="49.198386" lon="16.894738"></trkpt>
      <trkpt lat="49.197287" lon="16.892603"></trkpt>
      <trkpt lat="49.195521" lon="16.889787"></trkpt>
      <trkpt lat="49.1925" lon="16.885486"></trkpt>
      <trkpt lat="49.191613" lon="16.883986"></trkpt>
      <trkpt lat="49.189914" lon="16.880354"></trkpt>
      <trkpt lat="49.188984" lon="16.877504"></trkpt>
      <trkpt lat="49.188382" lon="16.874234"></trkpt>
      <trkpt lat="49.188213" lon="16.871033"></trkpt>
      <trkpt lat="49.188406" lon="16.867959"></trkpt>
      <trkpt lat="49.189232" lon="16.860611"></trkpt>
      <trkpt lat="49.189287" lon="16.85813"></trkpt>
      <trkpt lat="49.189108" lon="16.854906"></trkpt>
      <trkpt lat="49.188658" lon="16.851776"></trkpt>
      <trkpt lat="49.188142" lon="16.849461"></trkpt>
      <trkpt lat="49.187356" lon="16.84686"></trkpt>
      <trkpt lat="49.184836" lon="16.839986"></trkpt>
      <trkpt lat="49.184243" lon="16.837742"></trkpt>
      <trkpt lat="49.183932" lon="16.835855"></trkpt>
      <trkpt lat="49.183737" lon="16.833735"></trkpt>
      <trkpt lat="49.183568" lon="16.825642"></trkpt>
      <trkpt lat="49.183256" lon="16.820743"></trkpt>
      <trkpt lat="49.180799" lon="16.798271"></trkpt>
      <trkpt lat="49.180424" lon="16.793542"></trkpt>
      <trkpt lat="49.180314" lon="16.79073"></trkpt>
      <trkpt lat="49.180329" lon="16.78665"></trkpt>
      <trkpt lat="49.180523" lon="16.783219"></trkpt>
      <trkpt lat="49.18126" lon="16.77728"></trkpt>
      <trkpt lat="49.182038" lon="16.773267"></trkpt>
      <trkpt lat="49.185074" lon="16.759986"></trkpt>
      <trkpt lat="49.185914" lon="16.755387"></trkpt>
      <trkpt lat="49.186478" lon="16.751104"></trkpt>
      <trkpt lat="49.186826" lon="16.74692"></trkpt>
      <trkpt lat="49.18699" lon="16.741559"></trkpt>
      <trkpt lat="49.186856" lon="16.736756"></trkpt>
      <trkpt lat="49.186474" lon="16.7318"></trkpt>
      <trkpt lat="49.185802" lon="16.726883"></trkpt>
      <trkpt lat="49.184995" lon="16.722727"></trkpt>
      <trkpt lat="49.184365" lon="16.720168"></trkpt>
      <trkpt lat="49.182593" lon="16.714587"></trkpt>
      <trkpt lat="49.181116" lon="16.710972"></trkpt>
      <trkpt lat="49.1791" lon="16.706986"></trkpt>
      <trkpt lat="49.178186" lon="16.705419"></trkpt>
      <trkpt lat="49.176263" lon="16.70253"></trkpt>
      <trkpt lat="49.170426" lon="16.695147"></trkpt>
      <trkpt lat="49.168829" lon="16.693036"></trkpt>
      <trkpt lat="49.167168" lon="16.690519"></trkpt>
      <trkpt lat="49.16607" lon="16.688457"></trkpt>
      <trkpt lat="49.165253" lon="16.686506"></trkpt>
      <trkpt lat="49.16466" lon="16.684709"></trkpt>
      <trkpt lat="49.163998" lon="16.681891"></trkpt>
      <trkpt lat="49.163508" lon="16.67799"></trkpt>
      <trkpt lat="49.16327" lon="16.673634"></trkpt>
      <trkpt lat="49.163384" lon="16.661353"></trkpt>
      <trkpt lat="49.163072" lon="16.65526"></trkpt>
      <trkpt lat="49.162225" lon="16.648987"></trkpt>
      <trkpt lat="49.160177" lon="16.638209"></trkpt>
      <trkpt lat="49.159686" lon="16.634552"></trkpt>
      <trkpt lat="49.159505" lon="16.631756"></trkpt>
      <trkpt lat="49.159055" lon="16.613063"></trkpt>
      <trkpt lat="49.159072" lon="16.608668"></trkpt>
      <trkpt lat="49.159362" lon="16.604788"></trkpt>
      <trkpt lat="49.160046" lon="16.59871"></trkpt>
      <trkpt lat="49.160353" lon="16.598044"></trkpt>
      <trkpt lat="49.160536" lon="16.597953"></trkpt>
      <trkpt lat="49.160779" lon="16.598035"></trkpt>
      <trkpt lat="49.16097" lon="16.59844"></trkpt>
      <trkpt lat="49.160931" lon="16.598863"></trkpt>
      <trkpt lat="49.160732" lon="16.599125"></trkpt>
      <trkpt lat="49.160218" lon="16.599359"></trkpt>
      <trkpt lat="49.138199" lon="16.60314"></trkpt>
      <trkpt lat="49.136176" lon="16.603401"></trkpt>
      <trkpt lat="49.133698" lon="16.603571"></trkpt>
      <trkpt lat="49.127683" lon="16.603637"></trkpt>
      <trkpt lat="49.113709" lon="16.604851"></trkpt>
      <trkpt lat="49.111357" lon="16.604951"></trkpt>
      <trkpt lat="49.108421" lon="16.604674"></trkpt>
      <trkpt lat="49.106558" lon="16.604236"></trkpt>
      <trkpt lat="49.104604" lon="16.60357"></trkpt>
      <trkpt lat="49.102906" lon="16.602777"></trkpt>
      <trkpt lat="49.100933" lon="16.601632"></trkpt>
      <trkpt lat="49.098869" lon="16.600162"></trkpt>
      <trkpt lat="49.096408" lon="16.598214"></trkpt>
      <trkpt lat="49.094047" lon="16.595834"></trkpt>
      <trkpt lat="49.092888" lon="16.594405"></trkpt>
      <trkpt lat="49.091475" lon="16.592369"></trkpt>
      <trkpt lat="49.089679" lon="16.589182"></trkpt>
      <trkpt lat="49.088297" lon="16.586058"></trkpt>
      <trkpt lat="49.087304" lon="16.583286"></trkpt>
      <trkpt lat="49.085023" lon="16.576097"></trkpt>
      <trkpt lat="49.083397" lon="16.571966"></trkpt>
      <trkpt lat="49.082459" lon="16.570009"></trkpt>
      <trkpt lat="49.081001" lon="16.567396"></trkpt>
      <trkpt lat="49.079738" lon="16.565433"></trkpt>
      <trkpt lat="49.07846" lon="16.563716"></trkpt>
      <trkpt lat="49.076104" lon="16.561045"></trkpt>
      <trkpt lat="49.067227" lon="16.55285"></trkpt>
      <trkpt lat="49.063562" lon="16.549717"></trkpt>
      <trkpt lat="49.060178" lon="16.547492"></trkpt>
      <trkpt lat="49.056854" lon="16.545911"></trkpt>
      <trkpt lat="49.054589" lon="16.545072"></trkpt>
      <trkpt lat="49.052133" lon="16.544336"></trkpt>
      <trkpt lat="49.05007" lon="16.543852"></trkpt>
      <trkpt lat="49.047392" lon="16.543408"></trkpt>
      <trkpt lat="49.044391" lon="16.543154"></trkpt>
      <trkpt lat="49.04255" lon="16.543121"></trkpt>
      <trkpt lat="49.039177" lon="16.543311"></trkpt>
      <trkpt lat="49.035334" lon="16.543877"></trkpt>
      <trkpt lat="49.031787" lon="16.544628"></trkpt>
      <trkpt lat="49.018443" lon="16.547935"></trkpt>
      <trkpt lat="49.014761" lon="16.548634"></trkpt>
      <trkpt lat="49.011804" lon="16.549053"></trkpt>
      <trkpt lat="49.007509" lon="16.549405"></trkpt>
      <trkpt lat="49.002653" lon="16.549425"></trkpt>
      <trkpt lat="48.99866" lon="16.549041"></trkpt>
      <trkpt lat="48.995498" lon="16.548351"></trkpt>
      <trkpt lat="48.99352" lon="16.547719"></trkpt>
      <trkpt lat="48.99175" lon="16.546988"></trkpt>
      <trkpt lat="48.988035" lon="16.545069"></trkpt>
      <trkpt lat="48.984233" lon="16.542532"></trkpt>
      <trkpt lat="48.980997" lon="16.539856"></trkpt>
      <trkpt lat="48.979462" lon="16.538331"></trkpt>
      <trkpt lat="48.976931" lon="16.535351"></trkpt>
      <trkpt lat="48.974778" lon="16.532256"></trkpt>
      <trkpt lat="48.970702" lon="16.52563"></trkpt>
      <trkpt lat="48.969203" lon="16.523779"></trkpt>
      <trkpt lat="48.967983" lon="16.522632"></trkpt>
      <trkpt lat="48.966561" lon="16.521638"></trkpt>
      <trkpt lat="48.964482" lon="16.520712"></trkpt>
      <trkpt lat="48.962497" lon="16.520348"></trkpt>
      <trkpt lat="48.960717" lon="16.52043"></trkpt>
      <trkpt lat="48.95896" lon="16.520828"></trkpt>
      <trkpt lat="48.95167" lon="16.52302"></trkpt>
      <trkpt lat="48.950248" lon="16.523553"></trkpt>
      <trkpt lat="48.949149" lon="16.524146"></trkpt>
      <trkpt lat="48.947807" lon="16.525154"></trkpt>
      <trkpt lat="48.94658" lon="16.526401"></trkpt>
      <trkpt lat="48.942994" lon="16.530888"></trkpt>
      <trkpt lat="48.9415" lon="16.532123"></trkpt>
      <trkpt lat="48.939784" lon="16.533034"></trkpt>
      <trkpt lat="48.938083" lon="16.533496"></trkpt>
      <trkpt lat="48.936804" lon="16.533589"></trkpt>
      <trkpt lat="48.936081" lon="16.533542"></trkpt>
      <trkpt lat="48.93378" lon="16.53309"></trkpt>
      <trkpt lat="48.933005" lon="16.53313"></trkpt>
      <trkpt lat="48.931761" lon="16.533621"></trkpt>
      <trkpt lat="48.930726" lon="16.534518"></trkpt>
      <trkpt lat="48.929867" lon="16.535779"></trkpt>
      <trkpt lat="48.922715" lon="16.550151"></trkpt>
      <trkpt lat="48.915163" lon="16.565006"></trkpt>
      <trkpt lat="48.914289" lon="16.566316"></trkpt>
      <trkpt lat="48.913216" lon="16.567526"></trkpt>
      <trkpt lat="48.908358" lon="16.571548"></trkpt>
      <trkpt lat="48.907358" lon="16.572685"></trkpt>
      <trkpt lat="48.906645" lon="16.573781"></trkpt>
      <trkpt lat="48.905966" lon="16.575229"></trkpt>
      <trkpt lat="48.9053" lon="16.577186"></trkpt>
      <trkpt lat="48.90423" lon="16.581981"></trkpt>
      <trkpt lat="48.903863" lon="16.582897"></trkpt>
      <trkpt lat="48.903251" lon="16.583901"></trkpt>
      <trkpt lat="48.902459" lon="16.584735"></trkpt>
      <trkpt lat="48.901407" lon="16.585405"></trkpt>
      <trkpt lat="48.891269" lon="16.589894"></trkpt>
      <trkpt lat="48.889613" lon="16.59091"></trkpt>
      <trkpt lat="48.888654" lon="16.591817"></trkpt>
      <trkpt lat="48.887914" lon="16.592715"></trkpt>
      <trkpt lat="48.882207" lon="16.600895"></trkpt>
      <trkpt lat="48.88085" lon="16.602338"></trkpt>
      <trkpt lat="48.879498" lon="16.603274"></trkpt>
      <trkpt lat="48.877201" lon="16.604197"></trkpt>
      <trkpt lat="48.861349" lon="16.608268"></trkpt>
      <trkpt lat="48.850379" lon="16.610049"></trkpt>
      <trkpt lat="48.829876" lon="16.612892"></trkpt>
      <trkpt lat="48.827852" lon="16.613414"></trkpt>
      <trkpt lat="48.825855" lon="16.614505"></trkpt>
      <trkpt lat="48.82191" lon="16.617417"></trkpt>
      <trkpt lat="48.820243" lon="16.619003"></trkpt>
      <trkpt lat="48.818871" lon="16.620783"></trkpt>
      <trkpt lat="48.817634" lon="16.622707"></trkpt>
      <trkpt lat="48.816642" lon="16.62382"></trkpt>
      <trkpt lat="48.815482" lon="16.624634"></trkpt>
      <trkpt lat="48.814152" lon="16.625095"></trkpt>
      <trkpt lat="48.806401" lon="16.626337"></trkpt>
      <trkpt lat="48.806261" lon="16.626162"></trkpt>
      <trkpt lat="48.806146" lon="16.626379"></trkpt>
      <trkpt lat="48.803667" lon="16.626882"></trkpt>
      <trkpt lat="48.802816" lon="16.627339"></trkpt>
      <trkpt lat="48.802023" lon="16.628116"></trkpt>
      <trkpt lat="48.800805" lon="16.630222"></trkpt>
      <trkpt lat="48.800638" lon="16.630248"></trkpt>
      <trkpt lat="48.800523" lon="16.630777"></trkpt>
      <trkpt lat="48.799935" lon="16.631739"></trkpt>
      <trkpt lat="48.79919" lon="16.63248"></trkpt>
      <trkpt lat="48.798586" lon="16.63288"></trkpt>
      <trkpt lat="48.798013" lon="16.6331"></trkpt>
      <trkpt lat="48.792323" lon="16.634116"></trkpt>
      <trkpt lat="48.791411" lon="16.634633"></trkpt>
      <trkpt lat="48.788187" lon="16.637397"></trkpt>
      <trkpt lat="48.786666" lon="16.638208"></trkpt>
      <trkpt lat="48.772595" lon="16.642407"></trkpt>
      <trkpt lat="48.772226" lon="16.642431"></trkpt>
      <trkpt lat="48.771925" lon="16.642205"></trkpt>
      <trkpt lat="48.771789" lon="16.641865"></trkpt>
      <trkpt lat="48.77155" lon="16.641911"></trkpt>
      <trkpt lat="48.771248" lon="16.641736"></trkpt>
      <trkpt lat="48.770327" lon="16.640511"></trkpt>
      <trkpt lat="48.769396" lon="16.639802"></trkpt>
      <trkpt lat="48.760331" lon="16.635258"></trkpt>
      <trkpt lat="48.758722" lon="16.634601"></trkpt>
      <trkpt lat="48.757614" lon="16.63435"></trkpt>
      <trkpt lat="48.756174" lon="16.634229"></trkpt>
      <trkpt lat="48.754736" lon="16.634344"></trkpt>
      <trkpt lat="48.7432" lon="16.637205"></trkpt>
      <trkpt lat="48.741814" lon="16.637874"></trkpt>
      <trkpt lat="48.740562" lon="16.638853"></trkpt>
      <trkpt lat="48.739234" lon="16.640356"></trkpt>
      <trkpt lat="48.738195" lon="16.642008"></trkpt>
      <trkpt lat="48.737178" lon="16.644439"></trkpt>
      <trkpt lat="48.736144" lon="16.648727"></trkpt>
      <trkpt lat="48.735699" lon="16.650131"></trkpt>
      <trkpt lat="48.73429" lon="16.653332"></trkpt>
      <trkpt lat="48.733975" lon="16.655186"></trkpt>
      <trkpt lat="48.733804" lon="16.655634"></trkpt>
      <trkpt lat="48.733581" lon="16.655916"></trkpt>
      <trkpt lat="48.732957" lon="16.656304"></trkpt>
      <trkpt lat="48.732042" lon="16.656589"></trkpt>
      <trkpt lat="48.729332" lon="16.657781"></trkpt>
      <trkpt lat="48.7286" lon="16.657877"></trkpt>
      <trkpt lat="48.72745" lon="16.657732"></trkpt>
      <trkpt lat="48.712902" lon="16.654021"></trkpt>
      <trkpt lat="48.710979" lon="16.654018"></trkpt>
      <trkpt lat="48.708183" lon="16.653195"></trkpt>
      <trkpt lat="48.705139" lon="16.651717"></trkpt>
      <trkpt lat="48.704068" lon="16.65146"></trkpt>
      <trkpt lat="48.702905" lon="16.651359"></trkpt>
      <trkpt lat="48.701284" lon="16.651525"></trkpt>
      <trkpt lat="48.699878" lon="16.651974"></trkpt>
      <trkpt lat="48.698543" lon="16.652701"></trkpt>
      <trkpt lat="48.695493" lon="16.654985"></trkpt>
      <trkpt lat="48.69383" lon="16.655756"></trkpt>
      <trkpt lat="48.692024" lon="16.656091"></trkpt>
      <trkpt lat="48.687126" lon="16.656274"></trkpt>
      <trkpt lat="48.686232" lon="16.656419"></trkpt>
      <trkpt lat="48.685214" lon="16.656745"></trkpt>
      <trkpt lat="48.683704" lon="16.657489"></trkpt>
      <trkpt lat="48.682778" lon="16.658138"></trkpt>
      <trkpt lat="48.68187" lon="16.658959"></trkpt>
      <trkpt lat="48.680939" lon="16.660024"></trkpt>
      <trkpt lat="48.679528" lon="16.662154"></trkpt>
      <trkpt lat="48.674591" lon="16.671315"></trkpt>
      <trkpt lat="48.673282" lon="16.673394"></trkpt>
      <trkpt lat="48.671802" lon="16.675069"></trkpt>
      <trkpt lat="48.669188" lon="16.677099"></trkpt>
      <trkpt lat="48.667954" lon="16.678347"></trkpt>
      <trkpt lat="48.662826" lon="16.685161"></trkpt>
      <trkpt lat="48.661158" lon="16.686981"></trkpt>
      <trkpt lat="48.660218" lon="16.687806"></trkpt>
      <trkpt lat="48.658658" lon="16.688904"></trkpt>
      <trkpt lat="48.657036" lon="16.689735"></trkpt>
      <trkpt lat="48.65577" lon="16.690182"></trkpt>
      <trkpt lat="48.654432" lon="16.690477"></trkpt>
      <trkpt lat="48.653102" lon="16.6906"></trkpt>
      <trkpt lat="48.651779" lon="16.690552"></trkpt>
      <trkpt lat="48.650287" lon="16.690293"></trkpt>
      <trkpt lat="48.648452" lon="16.689699"></trkpt>
      <trkpt lat="48.646738" lon="16.68899"></trkpt>
      <trkpt lat="48.643041" lon="16.687022"></trkpt>
      <trkpt lat="48.639693" lon="16.684685"></trkpt>
      <trkpt lat="48.632185" lon="16.67875"></trkpt>
      <trkpt lat="48.630941" lon="16.677893"></trkpt>
      <trkpt lat="48.629164" lon="16.676938"></trkpt>
      <trkpt lat="48.626772" lon="16.676132"></trkpt>
      <trkpt lat="48.624346" lon="16.67583"></trkpt>
      <trkpt lat="48.622204" lon="16.675959"></trkpt>
      <trkpt lat="48.618891" lon="16.676568"></trkpt>
      <trkpt lat="48.617537" lon="16.676545"></trkpt>
      <trkpt lat="48.61652" lon="16.676393"></trkpt>
      <trkpt lat="48.615428" lon="16.676106"></trkpt>
      <trkpt lat="48.613683" lon="16.675336"></trkpt>
      <trkpt lat="48.612332" lon="16.67443"></trkpt>
      <trkpt lat="48.610876" lon="16.673165"></trkpt>
      <trkpt lat="48.609413" lon="16.671455"></trkpt>
      <trkpt lat="48.608189" lon="16.669556"></trkpt>
      <trkpt lat="48.607087" lon="16.667343"></trkpt>
      <trkpt lat="48.606183" lon="16.664929"></trkpt>
      <trkpt lat="48.605264" lon="16.661215"></trkpt>
      <trkpt lat="48.601634" lon="16.642934"></trkpt>
      <trkpt lat="48.600461" lon="16.639446"></trkpt>
      <trkpt lat="48.599622" lon="16.637592"></trkpt>
      <trkpt lat="48.598837" lon="16.636168"></trkpt>
      <trkpt lat="48.597939" lon="16.634781"></trkpt>
      <trkpt lat="48.596431" lon="16.632896"></trkpt>
      <trkpt lat="48.59533" lon="16.631794"></trkpt>
      <trkpt lat="48.594048" lon="16.630751"></trkpt>
      <trkpt lat="48.592841" lon="16.62997"></trkpt>
      <trkpt lat="48.591548" lon="16.62933"></trkpt>
      <trkpt lat="48.588736" lon="16.628394"></trkpt>
      <trkpt lat="48.587049" lon="16.627631"></trkpt>
      <trkpt lat="48.585555" lon="16.626719"></trkpt>
      <trkpt lat="48.583345" lon="16.625124"></trkpt>
      <trkpt lat="48.582374" lon="16.624601"></trkpt>
      <trkpt lat="48.580903" lon="16.62408"></trkpt>
      <trkpt lat="48.579275" lon="16.623882"></trkpt>
      <trkpt lat="48.577862" lon="16.624021"></trkpt>
      <trkpt lat="48.576205" lon="16.624542"></trkpt>
      <trkpt lat="48.574361" lon="16.625617"></trkpt>
      <trkpt lat="48.568143" lon="16.631208"></trkpt>
      <trkpt lat="48.566031" lon="16.632748"></trkpt>
      <trkpt lat="48.564472" lon="16.633575"></trkpt>
      <trkpt lat="48.562451" lon="16.63431"></trkpt>
      <trkpt lat="48.561293" lon="16.634562"></trkpt>
      <trkpt lat="48.559465" lon="16.634727"></trkpt>
      <trkpt lat="48.558224" lon="16.634679"></trkpt>
      <trkpt lat="48.556775" lon="16.634446"></trkpt>
      <trkpt lat="48.554694" lon="16.63381"></trkpt>
      <trkpt lat="48.542701" lon="16.627653"></trkpt>
      <trkpt lat="48.540241" lon="16.626753"></trkpt>
      <trkpt lat="48.538621" lon="16.62645"></trkpt>
      <trkpt lat="48.536865" lon="16.626366"></trkpt>
      <trkpt lat="48.527876" lon="16.627059"></trkpt>
      <trkpt lat="48.526473" lon="16.626996"></trkpt>
      <trkpt lat="48.525278" lon="16.626766"></trkpt>
      <trkpt lat="48.523908" lon="16.626295"></trkpt>
      <trkpt lat="48.52276" lon="16.625718"></trkpt>
      <trkpt lat="48.521452" lon="16.624834"></trkpt>
      <trkpt lat="48.5202" lon="16.623701"></trkpt>
      <trkpt lat="48.518682" lon="16.621829"></trkpt>
      <trkpt lat="48.517798" lon="16.620398"></trkpt>
      <trkpt lat="48.514775" lon="16.614722"></trkpt>
      <trkpt lat="48.513488" lon="16.612595"></trkpt>
      <trkpt lat="48.511413" lon="16.609731"></trkpt>
      <trkpt lat="48.509619" lon="16.60769"></trkpt>
      <trkpt lat="48.507095" lon="16.605349"></trkpt>
      <trkpt lat="48.504622" lon="16.603541"></trkpt>
      <trkpt lat="48.500696" lon="16.601065"></trkpt>
      <trkpt lat="48.496111" lon="16.598498"></trkpt>
      <trkpt lat="48.495017" lon="16.59756"></trkpt>
      <trkpt lat="48.493952" lon="16.596304"></trkpt>
      <trkpt lat="48.492813" lon="16.594423"></trkpt>
      <trkpt lat="48.491874" lon="16.592079"></trkpt>
      <trkpt lat="48.491438" lon="16.590402"></trkpt>
      <trkpt lat="48.490701" lon="16.586329"></trkpt>
      <trkpt lat="48.489745" lon="16.583219"></trkpt>
      <trkpt lat="48.488562" lon="16.580652"></trkpt>
      <trkpt lat="48.486605" lon="16.577268"></trkpt>
      <trkpt lat="48.482932" lon="16.571697"></trkpt>
      <trkpt lat="48.479217" lon="16.566908"></trkpt>
      <trkpt lat="48.475109" lon="16.562402"></trkpt>
      <trkpt lat="48.471457" lon="16.55909"></trkpt>
      <trkpt lat="48.469401" lon="16.557523"></trkpt>
      <trkpt lat="48.46752" lon="16.556257"></trkpt>
      <trkpt lat="48.463974" lon="16.554278"></trkpt>
      <trkpt lat="48.461634" lon="16.55325"></trkpt>
      <trkpt lat="48.460168" lon="16.552786"></trkpt>
      <trkpt lat="48.458404" lon="16.552422"></trkpt>
      <trkpt lat="48.457093" lon="16.552284"></trkpt>
      <trkpt lat="48.454374" lon="16.552394"></trkpt>
      <trkpt lat="48.45192" lon="16.552903"></trkpt>
      <trkpt lat="48.449656" lon="16.553733"></trkpt>
      <trkpt lat="48.444049" lon="16.556302"></trkpt>
      <trkpt lat="48.442971" lon="16.556599"></trkpt>
      <trkpt lat="48.442045" lon="16.556694"></trkpt>
      <trkpt lat="48.440986" lon="16.55663"></trkpt>
      <trkpt lat="48.439562" lon="16.556236"></trkpt>
      <trkpt lat="48.437875" lon="16.55529"></trkpt>
      <trkpt lat="48.409308" lon="16.536508"></trkpt>
      <trkpt lat="48.407064" lon="16.534741"></trkpt>
      <trkpt lat="48.405789" lon="16.53344"></trkpt>
      <trkpt lat="48.404381" lon="16.531684"></trkpt>
      <trkpt lat="48.403263" lon="16.53"></trkpt>
      <trkpt lat="48.401932" lon="16.52752"></trkpt>
      <trkpt lat="48.400898" lon="16.525081"></trkpt>
      <trkpt lat="48.399397" lon="16.520923"></trkpt>
      <trkpt lat="48.396921" lon="16.513076"></trkpt>
      <trkpt lat="48.395831" lon="16.510681"></trkpt>
      <trkpt lat="48.394945" lon="16.509241"></trkpt>
      <trkpt lat="48.393549" lon="16.507311"></trkpt>
      <trkpt lat="48.392414" lon="16.505429"></trkpt>
      <trkpt lat="48.386804" lon="16.494572"></trkpt>
      <trkpt lat="48.386005" lon="16.493437"></trkpt>
      <trkpt lat="48.385188" lon="16.492578"></trkpt>
      <trkpt lat="48.383705" lon="16.491556"></trkpt>
      <trkpt lat="48.381872" lon="16.490907"></trkpt>
      <trkpt lat="48.372789" lon="16.488219"></trkpt>
      <trkpt lat="48.369549" lon="16.487144"></trkpt>
      <trkpt lat="48.368594" lon="16.486727"></trkpt>
      <trkpt lat="48.365292" lon="16.48479"></trkpt>
      <trkpt lat="48.363073" lon="16.483876"></trkpt>
      <trkpt lat="48.361822" lon="16.483553"></trkpt>
      <trkpt lat="48.360664" lon="16.483393"></trkpt>
      <trkpt lat="48.356621" lon="16.483366"></trkpt>
      <trkpt lat="48.355237" lon="16.483231"></trkpt>
      <trkpt lat="48.353747" lon="16.482758"></trkpt>
      <trkpt lat="48.352231" lon="16.481929"></trkpt>
      <trkpt lat="48.351083" lon="16.481779"></trkpt>
      <trkpt lat="48.35028" lon="16.481981"></trkpt>
      <trkpt lat="48.349612" lon="16.48238"></trkpt>
      <trkpt lat="48.348998" lon="16.482986"></trkpt>
      <trkpt lat="48.348425" lon="16.483884"></trkpt>
      <trkpt lat="48.348135" lon="16.484563"></trkpt>
      <trkpt lat="48.347826" lon="16.485718"></trkpt>
      <trkpt lat="48.347482" lon="16.488751"></trkpt>
      <trkpt lat="48.346944" lon="16.491351"></trkpt>
      <trkpt lat="48.346506" lon="16.492659"></trkpt>
      <trkpt lat="48.345785" lon="16.49429"></trkpt>
      <trkpt lat="48.335444" lon="16.511081"></trkpt>
      <trkpt lat="48.334006" lon="16.512923"></trkpt>
      <trkpt lat="48.332472" lon="16.514284"></trkpt>
      <trkpt lat="48.330765" lon="16.515275"></trkpt>
      <trkpt lat="48.328906" lon="16.515818"></trkpt>
      <trkpt lat="48.32758" lon="16.515897"></trkpt>
      <trkpt lat="48.324489" lon="16.51545"></trkpt>
      <trkpt lat="48.322618" lon="16.515297"></trkpt>
      <trkpt lat="48.320985" lon="16.515329"></trkpt>
      <trkpt lat="48.318221" lon="16.515578"></trkpt>
      <trkpt lat="48.317198" lon="16.515552"></trkpt>
      <trkpt lat="48.315917" lon="16.515349"></trkpt>
      <trkpt lat="48.314703" lon="16.514985"></trkpt>
      <trkpt lat="48.313519" lon="16.514478"></trkpt>
      <trkpt lat="48.303877" lon="16.509734"></trkpt>
      <trkpt lat="48.302792" lon="16.509338"></trkpt>
      <trkpt lat="48.301236" lon="16.509052"></trkpt>
      <trkpt lat="48.299465" lon="16.509149"></trkpt>
      <trkpt lat="48.297621" lon="16.509715"></trkpt>
      <trkpt lat="48.295981" lon="16.510677"></trkpt>
      <trkpt lat="48.292285" lon="16.513246"></trkpt>
      <trkpt lat="48.290928" lon="16.513904"></trkpt>
      <trkpt lat="48.288912" lon="16.514376"></trkpt>
      <trkpt lat="48.287246" lon="16.514326"></trkpt>
      <trkpt lat="48.285883" lon="16.513983"></trkpt>
      <trkpt lat="48.28435" lon="16.513278"></trkpt>
      <trkpt lat="48.276251" lon="16.508264"></trkpt>
      <trkpt lat="48.275055" lon="16.507747"></trkpt>
      <trkpt lat="48.271729" lon="16.506613"></trkpt>
      <trkpt lat="48.270864" lon="16.506147"></trkpt>
      <trkpt lat="48.269877" lon="16.505263"></trkpt>
      <trkpt lat="48.269246" lon="16.504422"></trkpt>
      <trkpt lat="48.268611" lon="16.50328"></trkpt>
      <trkpt lat="48.267651" lon="16.500753"></trkpt>
      <trkpt lat="48.267147" lon="16.498511"></trkpt>
      <trkpt lat="48.266915" lon="16.496034"></trkpt>
      <trkpt lat="48.266979" lon="16.493589"></trkpt>
      <trkpt lat="48.267324" lon="16.491293"></trkpt>
      <trkpt lat="48.268172" lon="16.487857"></trkpt>
      <trkpt lat="48.268446" lon="16.48567"></trkpt>
      <trkpt lat="48.268498" lon="16.484145"></trkpt>
      <trkpt lat="48.268389" lon="16.482074"></trkpt>
      <trkpt lat="48.268038" lon="16.479935"></trkpt>
      <trkpt lat="48.267573" lon="16.478584"></trkpt>
      <trkpt lat="48.266795" lon="16.477387"></trkpt>
      <trkpt lat="48.265886" lon="16.476631"></trkpt>
      <trkpt lat="48.263222" lon="16.475278"></trkpt>
      <trkpt lat="48.262302" lon="16.475122"></trkpt>
      <trkpt lat="48.260282" lon="16.475594"></trkpt>
      <trkpt lat="48.258338" lon="16.475234"></trkpt>
      <trkpt lat="48.256339" lon="16.474493"></trkpt>
      <trkpt lat="48.253568" lon="16.472924"></trkpt>
      <trkpt lat="48.251927" lon="16.471632"></trkpt>
      <trkpt lat="48.249096" lon="16.46913"></trkpt>
      <trkpt lat="48.247522" lon="16.467392"></trkpt>
      <trkpt lat="48.243992" lon="16.463033"></trkpt>
      <trkpt lat="48.242891" lon="16.461913"></trkpt>
      <trkpt lat="48.241087" lon="16.460463"></trkpt>
      <trkpt lat="48.236513" lon="16.457608"></trkpt>
      <trkpt lat="48.23566" lon="16.456802"></trkpt>
      <trkpt lat="48.234069" lon="16.45492"></trkpt>
      <trkpt lat="48.233236" lon="16.454232"></trkpt>
      <trkpt lat="48.231873" lon="16.453465"></trkpt>
      <trkpt lat="48.227448" lon="16.451552"></trkpt>
      <trkpt lat="48.226528" lon="16.450877"></trkpt>
      <trkpt lat="48.224885" lon="16.44915"></trkpt>
      <trkpt lat="48.220959" lon="16.44725"></trkpt>
      <trkpt lat="48.219972" lon="16.447045"></trkpt>
      <trkpt lat="48.217042" lon="16.447005"></trkpt>
      <trkpt lat="48.216216" lon="16.446843"></trkpt>
      <trkpt lat="48.215685" lon="16.446571"></trkpt>
      <trkpt lat="48.214725" lon="16.445592"></trkpt>
      <trkpt lat="48.212061" lon="16.441271"></trkpt>
      <trkpt lat="48.211872" lon="16.440628"></trkpt>
      <trkpt lat="48.211912" lon="16.440107"></trkpt>
      <trkpt lat="48.213047" lon="16.437951"></trkpt>
      <trkpt lat="48.220851" lon="16.426369"></trkpt>
      <trkpt lat="48.226128" lon="16.419087"></trkpt>
      <trkpt lat="48.227702" lon="16.417047"></trkpt>
      <trkpt lat="48.228643" lon="16.416073"></trkpt>
      <trkpt lat="48.231044" lon="16.413142"></trkpt>
      <trkpt lat="48.231298" lon="16.41316"></trkpt>
      <trkpt lat="48.23151" lon="16.413458"></trkpt>
      <trkpt lat="48.232057" lon="16.414568"></trkpt>
      <trkpt lat="48.232102" lon="16.41511"></trkpt>
      <trkpt lat="48.231809" lon="16.415424"></trkpt>
      <trkpt lat="48.231289" lon="16.415051"></trkpt>
      <trkpt lat="48.222452" lon="16.398721"></trkpt>
      <trkpt lat="48.223577" lon="16.397346"></trkpt>
      <trkpt lat="48.223674" lon="16.397362"></trkpt>
      <trkpt lat="48.224216" lon="16.398401"></trkpt>
      <trkpt lat="48.224134" lon="16.398501"></trkpt>
  </trkseg></trk>
</gpx>
