<?xml version="1.0" encoding="UTF-8"?>
<gpx version="1.1" creator="yatutbuv" xmlns="http://www.topografix.com/GPX/1/1">
  <trk><name>GraphHopper Track</name><trkseg>
      <trkpt lat="41.781399" lon="3.027495"></trkpt>
      <trkpt lat="41.781927" lon="3.026158"></trkpt>
      <trkpt lat="41.782924" lon="3.027004"></trkpt>
      <trkpt lat="41.790273" lon="3.022196"></trkpt>
      <trkpt lat="41.790597" lon="3.022071"></trkpt>
      <trkpt lat="41.791644" lon="3.0213"></trkpt>
      <trkpt lat="41.793335" lon="3.020501"></trkpt>
      <trkpt lat="41.793594" lon="3.020523"></trkpt>
      <trkpt lat="41.793771" lon="3.020311"></trkpt>
      <trkpt lat="41.795161" lon="3.019697"></trkpt>
      <trkpt lat="41.795498" lon="3.019743"></trkpt>
      <trkpt lat="41.795683" lon="3.019468"></trkpt>
      <trkpt lat="41.79635" lon="3.019155"></trkpt>
      <trkpt lat="41.797397" lon="3.018409"></trkpt>
      <trkpt lat="41.798237" lon="3.017623"></trkpt>
      <trkpt lat="41.798929" lon="3.016727"></trkpt>
      <trkpt lat="41.800479" lon="3.014093"></trkpt>
      <trkpt lat="41.801189" lon="3.013116"></trkpt>
      <trkpt lat="41.802255" lon="3.012228"></trkpt>
      <trkpt lat="41.803054" lon="3.01174"></trkpt>
      <trkpt lat="41.804061" lon="3.010761"></trkpt>
      <trkpt lat="41.808069" lon="3.004344"></trkpt>
      <trkpt lat="41.80866" lon="3.004461"></trkpt>
      <trkpt lat="41.808954" lon="3.004148"></trkpt>
      <trkpt lat="41.809157" lon="3.003243"></trkpt>
      <trkpt lat="41.80889" lon="3.002446"></trkpt>
      <trkpt lat="41.808759" lon="2.999192"></trkpt>
      <trkpt lat="41.808951" lon="2.997958"></trkpt>
      <trkpt lat="41.809327" lon="2.996768"></trkpt>
      <trkpt lat="41.810074" lon="2.995311"></trkpt>
      <trkpt lat="41.812852" lon="2.99108"></trkpt>
      <trkpt lat="41.814291" lon="2.988669"></trkpt>
      <trkpt lat="41.817481" lon="2.981938"></trkpt>
      <trkpt lat="41.818195" lon="2.98082"></trkpt>
      <trkpt lat="41.819421" lon="2.979333"></trkpt>
      <trkpt lat="41.823008" lon="2.976175"></trkpt>
      <trkpt lat="41.824272" lon="2.974881"></trkpt>
      <trkpt lat="41.826116" lon="2.972372"></trkpt>
      <trkpt lat="41.826696" lon="2.971358"></trkpt>
      <trkpt lat="41.82719" lon="2.969643"></trkpt>
      <trkpt lat="41.827711" lon="2.963934"></trkpt>
      <trkpt lat="41.826967" lon="2.950196"></trkpt>
      <trkpt lat="41.827196" lon="2.946481"></trkpt>
      <trkpt lat="41.827778" lon="2.943118"></trkpt>
      <trkpt lat="41.828904" lon="2.938981"></trkpt>
      <trkpt lat="41.829419" lon="2.938049"></trkpt>
      <trkpt lat="41.830459" lon="2.937"></trkpt>
      <trkpt lat="41.830734" lon="2.936577"></trkpt>
      <trkpt lat="41.831159" lon="2.935103"></trkpt>
      <trkpt lat="41.831156" lon="2.93438"></trkpt>
      <trkpt lat="41.830614" lon="2.931758"></trkpt>
      <trkpt lat="41.830449" lon="2.930411"></trkpt>
      <trkpt lat="41.830538" lon="2.929128"></trkpt>
      <trkpt lat="41.830862" lon="2.927193"></trkpt>
      <trkpt lat="41.830874" lon="2.926056"></trkpt>
      <trkpt lat="41.830486" lon="2.920929"></trkpt>
      <trkpt lat="41.830083" lon="2.917483"></trkpt>
      <trkpt lat="41.829638" lon="2.911101"></trkpt>
      <trkpt lat="41.829685" lon="2.910278"></trkpt>
      <trkpt lat="41.829929" lon="2.909116"></trkpt>
      <trkpt lat="41.830366" lon="2.908044"></trkpt>
      <trkpt lat="41.830879" lon="2.907257"></trkpt>
      <trkpt lat="41.831528" lon="2.906589"></trkpt>
      <trkpt lat="41.834181" lon="2.904504"></trkpt>
      <trkpt lat="41.835979" lon="2.902519"></trkpt>
      <trkpt lat="41.841764" lon="2.895375"></trkpt>
      <trkpt lat="41.843365" lon="2.892908"></trkpt>
      <trkpt lat="41.844897" lon="2.889902"></trkpt>
      <trkpt lat="41.845623" lon="2.889084"></trkpt>
      <trkpt lat="41.846231" lon="2.888651"></trkpt>
      <trkpt lat="41.847275" lon="2.888244"></trkpt>
      <trkpt lat="41.870119" lon="2.883446"></trkpt>
      <trkpt lat="41.871201" lon="2.883142"></trkpt>
      <trkpt lat="41.872017" lon="2.882732"></trkpt>
      <trkpt lat="41.872379" lon="2.882747"></trkpt>
      <trkpt lat="41.8726" lon="2.882266"></trkpt>
      <trkpt lat="41.873535" lon="2.881212"></trkpt>
      <trkpt lat="41.874212" lon="2.880059"></trkpt>
      <trkpt lat="41.875586" lon="2.876046"></trkpt>
      <trkpt lat="41.877837" lon="2.872322"></trkpt>
      <trkpt lat="41.879027" lon="2.869222"></trkpt>
      <trkpt lat="41.880087" lon="2.867354"></trkpt>
      <trkpt lat="41.88147" lon="2.865961"></trkpt>
      <trkpt lat="41.88498" lon="2.86384"></trkpt>
      <trkpt lat="41.888109" lon="2.86163"></trkpt>
      <trkpt lat="41.889888" lon="2.860779"></trkpt>
      <trkpt lat="41.892352" lon="2.859891"></trkpt>
      <trkpt lat="41.893073" lon="2.85977"></trkpt>
      <trkpt lat="41.893389" lon="2.859983"></trkpt>
      <trkpt lat="41.893536" lon="2.859963"></trkpt>
      <trkpt lat="41.893697" lon="2.85973"></trkpt>
      <trkpt lat="41.89411" lon="2.859485"></trkpt>
      <trkpt lat="41.895071" lon="2.859348"></trkpt>
      <trkpt lat="41.895908" lon="2.859374"></trkpt>
      <trkpt lat="41.898601" lon="2.859793"></trkpt>
      <trkpt lat="41.899462" lon="2.859644"></trkpt>
      <trkpt lat="41.899952" lon="2.859435"></trkpt>
      <trkpt lat="41.90295" lon="2.857188"></trkpt>
      <trkpt lat="41.90476" lon="2.854443"></trkpt>
      <trkpt lat="41.905227" lon="2.854034"></trkpt>
      <trkpt lat="41.90597" lon="2.853645"></trkpt>
      <trkpt lat="41.91514" lon="2.850882"></trkpt>
      <trkpt lat="41.915582" lon="2.851069"></trkpt>
      <trkpt lat="41.916068" lon="2.850761"></trkpt>
      <trkpt lat="41.926482" lon="2.850343"></trkpt>
      <trkpt lat="41.927311" lon="2.850052"></trkpt>
      <trkpt lat="41.930423" lon="2.847875"></trkpt>
      <trkpt lat="41.931771" lon="2.846291"></trkpt>
      <trkpt lat="41.932569" lon="2.845091"></trkpt>
      <trkpt lat="41.933883" lon="2.841778"></trkpt>
      <trkpt lat="41.935249" lon="2.839606"></trkpt>
      <trkpt lat="41.935792" lon="2.838322"></trkpt>
      <trkpt lat="41.936275" lon="2.836446"></trkpt>
      <trkpt lat="41.936748" lon="2.833521"></trkpt>
      <trkpt lat="41.936919" lon="2.831721"></trkpt>
      <trkpt lat="41.937026" lon="2.827764"></trkpt>
      <trkpt lat="41.937387" lon="2.825638"></trkpt>
      <trkpt lat="41.937808" lon="2.824288"></trkpt>
      <trkpt lat="41.938461" lon="2.822755"></trkpt>
      <trkpt lat="41.939153" lon="2.821408"></trkpt>
      <trkpt lat="41.940376" lon="2.81943"></trkpt>
      <trkpt lat="41.942839" lon="2.816522"></trkpt>
      <trkpt lat="41.944516" lon="2.815342"></trkpt>
      <trkpt lat="41.947175" lon="2.814279"></trkpt>
      <trkpt lat="41.949626" lon="2.812986"></trkpt>
      <trkpt lat="41.950409" lon="2.812825"></trkpt>
      <trkpt lat="41.95312" lon="2.812739"></trkpt>
      <trkpt lat="41.954362" lon="2.812364"></trkpt>
      <trkpt lat="41.955233" lon="2.811735"></trkpt>
      <trkpt lat="41.956112" lon="2.810738"></trkpt>
      <trkpt lat="41.956721" lon="2.809707"></trkpt>
      <trkpt lat="41.958298" lon="2.805329"></trkpt>
      <trkpt lat="41.959099" lon="2.803762"></trkpt>
      <trkpt lat="41.960148" lon="2.802317"></trkpt>
      <trkpt lat="41.961941" lon="2.800396"></trkpt>
      <trkpt lat="41.962747" lon="2.79903"></trkpt>
      <trkpt lat="41.963104" lon="2.797952"></trkpt>
      <trkpt lat="41.963323" lon="2.796594"></trkpt>
      <trkpt lat="41.963239" lon="2.794358"></trkpt>
      <trkpt lat="41.96296" lon="2.792916"></trkpt>
      <trkpt lat="41.962397" lon="2.790989"></trkpt>
      <trkpt lat="41.962423" lon="2.790408"></trkpt>
      <trkpt lat="41.962003" lon="2.789859"></trkpt>
      <trkpt lat="41.960893" lon="2.7868"></trkpt>
      <trkpt lat="41.960474" lon="2.785273"></trkpt>
      <trkpt lat="41.960404" lon="2.784084"></trkpt>
      <trkpt lat="41.960711" lon="2.783129"></trkpt>
      <trkpt lat="41.96169" lon="2.782058"></trkpt>
      <trkpt lat="41.963805" lon="2.780689"></trkpt>
      <trkpt lat="41.965245" lon="2.779928"></trkpt>
      <trkpt lat="41.967356" lon="2.779121"></trkpt>
      <trkpt lat="41.970182" lon="2.77852"></trkpt>
      <trkpt lat="41.972408" lon="2.778398"></trkpt>
      <trkpt lat="41.974424" lon="2.778537"></trkpt>
      <trkpt lat="41.975981" lon="2.778814"></trkpt>
      <trkpt lat="41.977658" lon="2.779288"></trkpt>
      <trkpt lat="41.979767" lon="2.780102"></trkpt>
      <trkpt lat="41.981709" lon="2.781089"></trkpt>
      <trkpt lat="41.984666" lon="2.783071"></trkpt>
      <trkpt lat="41.987026" lon="2.785115"></trkpt>
      <trkpt lat="41.989605" lon="2.787968"></trkpt>
      <trkpt lat="41.991755" lon="2.790928"></trkpt>
      <trkpt lat="41.995257" lon="2.796403"></trkpt>
      <trkpt lat="41.997582" lon="2.799825"></trkpt>
      <trkpt lat="41.999811" lon="2.802599"></trkpt>
      <trkpt lat="42.00213" lon="2.804935"></trkpt>
      <trkpt lat="42.003505" lon="2.806056"></trkpt>
      <trkpt lat="42.004807" lon="2.806918"></trkpt>
      <trkpt lat="42.008612" lon="2.808777"></trkpt>
      <trkpt lat="42.009919" lon="2.809525"></trkpt>
      <trkpt lat="42.014311" lon="2.812952"></trkpt>
      <trkpt lat="42.015787" lon="2.813795"></trkpt>
      <trkpt lat="42.019483" lon="2.815537"></trkpt>
      <trkpt lat="42.020685" lon="2.816218"></trkpt>
      <trkpt lat="42.022559" lon="2.817607"></trkpt>
      <trkpt lat="42.024253" lon="2.819303"></trkpt>
      <trkpt lat="42.025366" lon="2.820728"></trkpt>
      <trkpt lat="42.02648" lon="2.822534"></trkpt>
      <trkpt lat="42.027555" lon="2.82465"></trkpt>
      <trkpt lat="42.030247" lon="2.830586"></trkpt>
      <trkpt lat="42.031278" lon="2.8324"></trkpt>
      <trkpt lat="42.032585" lon="2.834268"></trkpt>
      <trkpt lat="42.033708" lon="2.835605"></trkpt>
      <trkpt lat="42.035355" lon="2.837183"></trkpt>
      <trkpt lat="42.037068" lon="2.838471"></trkpt>
      <trkpt lat="42.039351" lon="2.839806"></trkpt>
      <trkpt lat="42.040444" lon="2.840625"></trkpt>
      <trkpt lat="42.041528" lon="2.841874"></trkpt>
      <trkpt lat="42.042161" lon="2.842887"></trkpt>
      <trkpt lat="42.042983" lon="2.844863"></trkpt>
      <trkpt lat="42.043437" lon="2.846996"></trkpt>
      <trkpt lat="42.043563" lon="2.849168"></trkpt>
      <trkpt lat="42.043342" lon="2.855624"></trkpt>
      <trkpt lat="42.043453" lon="2.858972"></trkpt>
      <trkpt lat="42.04363" lon="2.860701"></trkpt>
      <trkpt lat="42.044026" lon="2.862709"></trkpt>
      <trkpt lat="42.044901" lon="2.86554"></trkpt>
      <trkpt lat="42.045957" lon="2.867852"></trkpt>
      <trkpt lat="42.047336" lon="2.87033"></trkpt>
      <trkpt lat="42.049632" lon="2.873849"></trkpt>
      <trkpt lat="42.052009" lon="2.877093"></trkpt>
      <trkpt lat="42.053761" lon="2.879247"></trkpt>
      <trkpt lat="42.055862" lon="2.881478"></trkpt>
      <trkpt lat="42.057687" lon="2.883031"></trkpt>
      <trkpt lat="42.058958" lon="2.88392"></trkpt>
      <trkpt lat="42.061143" lon="2.885155"></trkpt>
      <trkpt lat="42.063971" lon="2.886187"></trkpt>
      <trkpt lat="42.066403" lon="2.886694"></trkpt>
      <trkpt lat="42.069896" lon="2.886876"></trkpt>
      <trkpt lat="42.071563" lon="2.887087"></trkpt>
      <trkpt lat="42.073668" lon="2.887764"></trkpt>
      <trkpt lat="42.076402" lon="2.889038"></trkpt>
      <trkpt lat="42.077732" lon="2.88951"></trkpt>
      <trkpt lat="42.079518" lon="2.889858"></trkpt>
      <trkpt lat="42.084088" lon="2.890103"></trkpt>
      <trkpt lat="42.085467" lon="2.890386"></trkpt>
      <trkpt lat="42.087573" lon="2.891098"></trkpt>
      <trkpt lat="42.090109" lon="2.892299"></trkpt>
      <trkpt lat="42.093373" lon="2.894402"></trkpt>
      <trkpt lat="42.095669" lon="2.896265"></trkpt>
      <trkpt lat="42.097097" lon="2.897653"></trkpt>
      <trkpt lat="42.09913" lon="2.900068"></trkpt>
      <trkpt lat="42.103096" lon="2.90631"></trkpt>
      <trkpt lat="42.105359" lon="2.909282"></trkpt>
      <trkpt lat="42.106492" lon="2.91043"></trkpt>
      <trkpt lat="42.107545" lon="2.911263"></trkpt>
      <trkpt lat="42.108443" lon="2.911835"></trkpt>
      <trkpt lat="42.110192" lon="2.912661"></trkpt>
      <trkpt lat="42.111872" lon="2.913119"></trkpt>
      <trkpt lat="42.114007" lon="2.9133"></trkpt>
      <trkpt lat="42.114955" lon="2.913223"></trkpt>
      <trkpt lat="42.120056" lon="2.912184"></trkpt>
      <trkpt lat="42.121875" lon="2.911922"></trkpt>
      <trkpt lat="42.123299" lon="2.911825"></trkpt>
      <trkpt lat="42.126476" lon="2.912145"></trkpt>
      <trkpt lat="42.128566" lon="2.912624"></trkpt>
      <trkpt lat="42.130825" lon="2.913427"></trkpt>
      <trkpt lat="42.133202" lon="2.914679"></trkpt>
      <trkpt lat="42.136996" lon="2.917012"></trkpt>
      <trkpt lat="42.138797" lon="2.917878"></trkpt>
      <trkpt lat="42.140911" lon="2.918573"></trkpt>
      <trkpt lat="42.143382" lon="2.918994"></trkpt>
      <trkpt lat="42.145543" lon="2.919035"></trkpt>
      <trkpt lat="42.14742" lon="2.918824"></trkpt>
      <trkpt lat="42.153237" lon="2.917215"></trkpt>
      <trkpt lat="42.155073" lon="2.916838"></trkpt>
      <trkpt lat="42.157001" lon="2.916806"></trkpt>
      <trkpt lat="42.158294" lon="2.917043"></trkpt>
      <trkpt lat="42.160628" lon="2.918034"></trkpt>
      <trkpt lat="42.161837" lon="2.918835"></trkpt>
      <trkpt lat="42.163079" lon="2.919877"></trkpt>
      <trkpt lat="42.165014" lon="2.921907"></trkpt>
      <trkpt lat="42.168633" lon="2.926301"></trkpt>
      <trkpt lat="42.171367" lon="2.929296"></trkpt>
      <trkpt lat="42.17349" lon="2.931006"></trkpt>
      <trkpt lat="42.175773" lon="2.93234"></trkpt>
      <trkpt lat="42.178446" lon="2.933239"></trkpt>
      <trkpt lat="42.179984" lon="2.933529"></trkpt>
      <trkpt lat="42.181249" lon="2.933623"></trkpt>
      <trkpt lat="42.183455" lon="2.933514"></trkpt>
      <trkpt lat="42.189902" lon="2.932494"></trkpt>
      <trkpt lat="42.192148" lon="2.932461"></trkpt>
      <trkpt lat="42.194136" lon="2.932695"></trkpt>
      <trkpt lat="42.195949" lon="2.933117"></trkpt>
      <trkpt lat="42.198309" lon="2.933958"></trkpt>
      <trkpt lat="42.200288" lon="2.934862"></trkpt>
      <trkpt lat="42.206361" lon="2.938027"></trkpt>
      <trkpt lat="42.209122" lon="2.939247"></trkpt>
      <trkpt lat="42.211268" lon="2.939917"></trkpt>
      <trkpt lat="42.21358" lon="2.940382"></trkpt>
      <trkpt lat="42.21646" lon="2.940583"></trkpt>
      <trkpt lat="42.219568" lon="2.940347"></trkpt>
      <trkpt lat="42.223118" lon="2.939518"></trkpt>
      <trkpt lat="42.22828" lon="2.937911"></trkpt>
      <trkpt lat="42.230873" lon="2.937231"></trkpt>
      <trkpt lat="42.232947" lon="2.93687"></trkpt>
      <trkpt lat="42.235462" lon="2.93675"></trkpt>
      <trkpt lat="42.237204" lon="2.936885"></trkpt>
      <trkpt lat="42.238795" lon="2.937166"></trkpt>
      <trkpt lat="42.241154" lon="2.937876"></trkpt>
      <trkpt lat="42.242407" lon="2.938391"></trkpt>
      <trkpt lat="42.244016" lon="2.939245"></trkpt>
      <trkpt lat="42.248503" lon="2.942053"></trkpt>
      <trkpt lat="42.25073" lon="2.943199"></trkpt>
      <trkpt lat="42.25309" lon="2.944007"></trkpt>
      <trkpt lat="42.255219" lon="2.944355"></trkpt>
      <trkpt lat="42.25745" lon="2.944353"></trkpt>
      <trkpt lat="42.259893" lon="2.943916"></trkpt>
      <trkpt lat="42.262562" lon="2.942906"></trkpt>
      <trkpt lat="42.26681" lon="2.940561"></trkpt>
      <trkpt lat="42.268397" lon="2.939867"></trkpt>
      <trkpt lat="42.270338" lon="2.939383"></trkpt>
      <trkpt lat="42.272193" lon="2.939268"></trkpt>
      <trkpt lat="42.273521" lon="2.939408"></trkpt>
      <trkpt lat="42.274631" lon="2.93966"></trkpt>
      <trkpt lat="42.279692" lon="2.941437"></trkpt>
      <trkpt lat="42.281761" lon="2.941818"></trkpt>
      <trkpt lat="42.283304" lon="2.941834"></trkpt>
      <trkpt lat="42.284651" lon="2.941657"></trkpt>
      <trkpt lat="42.288702" lon="2.940729"></trkpt>
      <trkpt lat="42.290248" lon="2.940481"></trkpt>
      <trkpt lat="42.291929" lon="2.94043"></trkpt>
      <trkpt lat="42.293804" lon="2.940665"></trkpt>
      <trkpt lat="42.295592" lon="2.941168"></trkpt>
      <trkpt lat="42.296845" lon="2.941714"></trkpt>
      <trkpt lat="42.300999" lon="2.944135"></trkpt>
      <trkpt lat="42.303153" lon="2.945194"></trkpt>
      <trkpt lat="42.304522" lon="2.945667"></trkpt>
      <trkpt lat="42.306183" lon="2.946002"></trkpt>
      <trkpt lat="42.308443" lon="2.946161"></trkpt>
      <trkpt lat="42.310596" lon="2.945959"></trkpt>
      <trkpt lat="42.312787" lon="2.945431"></trkpt>
      <trkpt lat="42.315247" lon="2.944506"></trkpt>
      <trkpt lat="42.319263" lon="2.942489"></trkpt>
      <trkpt lat="42.322833" lon="2.940179"></trkpt>
      <trkpt lat="42.325961" lon="2.937702"></trkpt>
      <trkpt lat="42.329164" lon="2.934637"></trkpt>
      <trkpt lat="42.332158" lon="2.931221"></trkpt>
      <trkpt lat="42.337334" lon="2.924299"></trkpt>
      <trkpt lat="42.33892" lon="2.922476"></trkpt>
      <trkpt lat="42.341572" lon="2.91999"></trkpt>
      <trkpt lat="42.3452" lon="2.917047"></trkpt>
      <trkpt lat="42.347602" lon="2.914565"></trkpt>
      <trkpt lat="42.349636" lon="2.911808"></trkpt>
      <trkpt lat="42.352536" lon="2.906828"></trkpt>
      <trkpt lat="42.353942" lon="2.904937"></trkpt>
      <trkpt lat="42.355884" lon="2.90317"></trkpt>
      <trkpt lat="42.357793" lon="2.901959"></trkpt>
      <trkpt lat="42.359775" lon="2.900278"></trkpt>
      <trkpt lat="42.361542" lon="2.898126"></trkpt>
      <trkpt lat="42.36355" lon="2.894745"></trkpt>
      <trkpt lat="42.36436" lon="2.893594"></trkpt>
      <trkpt lat="42.365686" lon="2.892241"></trkpt>
      <trkpt lat="42.367428" lon="2.891066"></trkpt>
      <trkpt lat="42.368719" lon="2.89054"></trkpt>
      <trkpt lat="42.370498" lon="2.890126"></trkpt>
      <trkpt lat="42.372213" lon="2.889503"></trkpt>
      <trkpt lat="42.373121" lon="2.888993"></trkpt>
      <trkpt lat="42.375437" lon="2.887345"></trkpt>
      <trkpt lat="42.376626" lon="2.886752"></trkpt>
      <trkpt lat="42.378175" lon="2.886315"></trkpt>
      <trkpt lat="42.381176" lon="2.885945"></trkpt>
      <trkpt lat="42.382902" lon="2.885403"></trkpt>
      <trkpt lat="42.386801" lon="2.883113"></trkpt>
      <trkpt lat="42.390743" lon="2.88162"></trkpt>
      <trkpt lat="42.391803" lon="2.880982"></trkpt>
      <trkpt lat="42.394864" lon="2.878745"></trkpt>
      <trkpt lat="42.399972" lon="2.876555"></trkpt>
      <trkpt lat="42.40477" lon="2.873679"></trkpt>
      <trkpt lat="42.4063" lon="2.872962"></trkpt>
      <trkpt lat="42.407513" lon="2.872645"></trkpt>
      <trkpt lat="42.408616" lon="2.872512"></trkpt>
      <trkpt lat="42.411239" lon="2.872584"></trkpt>
      <trkpt lat="42.412886" lon="2.872407"></trkpt>
      <trkpt lat="42.419406" lon="2.870822"></trkpt>
      <trkpt lat="42.420841" lon="2.870366"></trkpt>
      <trkpt lat="42.422051" lon="2.869758"></trkpt>
      <trkpt lat="42.423112" lon="2.868995"></trkpt>
      <trkpt lat="42.426015" lon="2.866296"></trkpt>
      <trkpt lat="42.427033" lon="2.865478"></trkpt>
      <trkpt lat="42.42842" lon="2.864641"></trkpt>
      <trkpt lat="42.429809" lon="2.864095"></trkpt>
      <trkpt lat="42.430971" lon="2.863844"></trkpt>
      <trkpt lat="42.432484" lon="2.863734"></trkpt>
      <trkpt lat="42.434124" lon="2.863837"></trkpt>
      <trkpt lat="42.435389" lon="2.86412"></trkpt>
      <trkpt lat="42.436426" lon="2.864573"></trkpt>
      <trkpt lat="42.438877" lon="2.866464"></trkpt>
      <trkpt lat="42.440677" lon="2.867264"></trkpt>
      <trkpt lat="42.442277" lon="2.868258"></trkpt>
      <trkpt lat="42.443332" lon="2.868624"></trkpt>
      <trkpt lat="42.444225" lon="2.8687"></trkpt>
      <trkpt lat="42.447119" lon="2.868049"></trkpt>
      <trkpt lat="42.449506" lon="2.868384"></trkpt>
      <trkpt lat="42.450429" lon="2.868361"></trkpt>
      <trkpt lat="42.454768" lon="2.867148"></trkpt>
      <trkpt lat="42.456832" lon="2.865845"></trkpt>
      <trkpt lat="42.458011" lon="2.865418"></trkpt>
      <trkpt lat="42.459464" lon="2.865428"></trkpt>
      <trkpt lat="42.461401" lon="2.866002"></trkpt>
      <trkpt lat="42.46276" lon="2.865976"></trkpt>
      <trkpt lat="42.469476" lon="2.864389"></trkpt>
      <trkpt lat="42.471097" lon="2.863632"></trkpt>
      <trkpt lat="42.471958" lon="2.862942"></trkpt>
      <trkpt lat="42.472939" lon="2.861806"></trkpt>
      <trkpt lat="42.474761" lon="2.858817"></trkpt>
      <trkpt lat="42.475645" lon="2.8566"></trkpt>
      <trkpt lat="42.476519" lon="2.852779"></trkpt>
      <trkpt lat="42.476889" lon="2.851626"></trkpt>
      <trkpt lat="42.477665" lon="2.850004"></trkpt>
      <trkpt lat="42.478884" lon="2.84812"></trkpt>
      <trkpt lat="42.479836" lon="2.846876"></trkpt>
      <trkpt lat="42.481181" lon="2.845663"></trkpt>
      <trkpt lat="42.482146" lon="2.845146"></trkpt>
      <trkpt lat="42.484941" lon="2.844142"></trkpt>
      <trkpt lat="42.485916" lon="2.843473"></trkpt>
      <trkpt lat="42.486923" lon="2.842466"></trkpt>
      <trkpt lat="42.488905" lon="2.839826"></trkpt>
      <trkpt lat="42.489951" lon="2.838226"></trkpt>
      <trkpt lat="42.493091" lon="2.832563"></trkpt>
      <trkpt lat="42.495215" lon="2.82937"></trkpt>
      <trkpt lat="42.495933" lon="2.827813"></trkpt>
      <trkpt lat="42.497341" lon="2.8236"></trkpt>
      <trkpt lat="42.498604" lon="2.821403"></trkpt>
      <trkpt lat="42.49974" lon="2.820105"></trkpt>
      <trkpt lat="42.500835" lon="2.81917"></trkpt>
      <trkpt lat="42.501379" lon="2.818838"></trkpt>
      <trkpt lat="42.502687" lon="2.818338"></trkpt>
      <trkpt lat="42.504321" lon="2.818033"></trkpt>
      <trkpt lat="42.506121" lon="2.818068"></trkpt>
      <trkpt lat="42.521474" lon="2.819193"></trkpt>
      <trkpt lat="42.524103" lon="2.819675"></trkpt>
      <trkpt lat="42.525293" lon="2.820097"></trkpt>
      <trkpt lat="42.526142" lon="2.820561"></trkpt>
      <trkpt lat="42.527084" lon="2.821461"></trkpt>
      <trkpt lat="42.529607" lon="2.823131"></trkpt>
      <trkpt lat="42.530848" lon="2.824585"></trkpt>
      <trkpt lat="42.53189" lon="2.826128"></trkpt>
      <trkpt lat="42.533143" lon="2.82843"></trkpt>
      <trkpt lat="42.536879" lon="2.837281"></trkpt>
      <trkpt lat="42.538597" lon="2.840875"></trkpt>
      <trkpt lat="42.540028" lon="2.84328"></trkpt>
      <trkpt lat="42.541137" lon="2.844817"></trkpt>
      <trkpt lat="42.542522" lon="2.846341"></trkpt>
      <trkpt lat="42.544526" lon="2.847955"></trkpt>
      <trkpt lat="42.546084" lon="2.848827"></trkpt>
      <trkpt lat="42.547829" lon="2.849464"></trkpt>
      <trkpt lat="42.549173" lon="2.849717"></trkpt>
      <trkpt lat="42.550737" lon="2.849795"></trkpt>
      <trkpt lat="42.552265" lon="2.849637"></trkpt>
      <trkpt lat="42.553706" lon="2.84927"></trkpt>
      <trkpt lat="42.555349" lon="2.848579"></trkpt>
      <trkpt lat="42.558851" lon="2.846664"></trkpt>
      <trkpt lat="42.56087" lon="2.845695"></trkpt>
      <trkpt lat="42.564121" lon="2.844609"></trkpt>
      <trkpt lat="42.566539" lon="2.844171"></trkpt>
      <trkpt lat="42.568329" lon="2.844003"></trkpt>
      <trkpt lat="42.572556" lon="2.843982"></trkpt>
      <trkpt lat="42.574297" lon="2.844132"></trkpt>
      <trkpt lat="42.577542" lon="2.844655"></trkpt>
      <trkpt lat="42.580643" lon="2.845463"></trkpt>
      <trkpt lat="42.583104" lon="2.846337"></trkpt>
      <trkpt lat="42.593034" lon="2.850333"></trkpt>
      <trkpt lat="42.595179" lon="2.851061"></trkpt>
      <trkpt lat="42.597866" lon="2.851775"></trkpt>
      <trkpt lat="42.600672" lon="2.852278"></trkpt>
      <trkpt lat="42.602866" lon="2.852499"></trkpt>
      <trkpt lat="42.608655" lon="2.852677"></trkpt>
      <trkpt lat="42.611835" lon="2.853108"></trkpt>
      <trkpt lat="42.614276" lon="2.853637"></trkpt>
      <trkpt lat="42.615903" lon="2.8541"></trkpt>
      <trkpt lat="42.618868" lon="2.855161"></trkpt>
      <trkpt lat="42.624873" lon="2.857931"></trkpt>
      <trkpt lat="42.627735" lon="2.85906"></trkpt>
      <trkpt lat="42.630806" lon="2.859963"></trkpt>
      <trkpt lat="42.634075" lon="2.860606"></trkpt>
      <trkpt lat="42.637095" lon="2.860899"></trkpt>
      <trkpt lat="42.652476" lon="2.861437"></trkpt>
      <trkpt lat="42.660687" lon="2.861395"></trkpt>
      <trkpt lat="42.661602" lon="2.861559"></trkpt>
      <trkpt lat="42.661915" lon="2.861714"></trkpt>
      <trkpt lat="42.662955" lon="2.862942"></trkpt>
      <trkpt lat="42.663361" lon="2.863112"></trkpt>
      <trkpt lat="42.663602" lon="2.863041"></trkpt>
      <trkpt lat="42.663828" lon="2.862776"></trkpt>
      <trkpt lat="42.664533" lon="2.859861"></trkpt>
      <trkpt lat="42.66468" lon="2.859541"></trkpt>
      <trkpt lat="42.665097" lon="2.859156"></trkpt>
      <trkpt lat="42.669156" lon="2.859292"></trkpt>
      <trkpt lat="42.670059" lon="2.859089"></trkpt>
      <trkpt lat="42.670239" lon="2.859221"></trkpt>
      <trkpt lat="42.670714" lon="2.859136"></trkpt>
      <trkpt lat="42.6717" lon="2.859383"></trkpt>
      <trkpt lat="42.672193" lon="2.859715"></trkpt>
      <trkpt lat="42.672509" lon="2.860131"></trkpt>
      <trkpt lat="42.674151" lon="2.86333"></trkpt>
      <trkpt lat="42.67419" lon="2.864144"></trkpt>
      <trkpt lat="42.674717" lon="2.864531"></trkpt>
      <trkpt lat="42.678661" lon="2.872138"></trkpt>
      <trkpt lat="42.679609" lon="2.873544"></trkpt>
      <trkpt lat="42.681914" lon="2.876509"></trkpt>
      <trkpt lat="42.682131" lon="2.877297"></trkpt>
      <trkpt lat="42.682341" lon="2.877325"></trkpt>
      <trkpt lat="42.682454" lon="2.877229"></trkpt>
      <trkpt lat="42.682643" lon="2.876575"></trkpt>
      <trkpt lat="42.683243" lon="2.876053"></trkpt>
      <trkpt lat="42.68503" lon="2.875026"></trkpt>
      <trkpt lat="42.686576" lon="2.874668"></trkpt>
      <trkpt lat="42.687049" lon="2.874979"></trkpt>
      <trkpt lat="42.687173" lon="2.875488"></trkpt>
      <trkpt lat="42.688276" lon="2.874873"></trkpt>
      <trkpt lat="42.688989" lon="2.877296"></trkpt>
      <trkpt lat="42.691612" lon="2.882755"></trkpt>
      <trkpt lat="42.69233" lon="2.884928"></trkpt>
      <trkpt lat="42.694024" lon="2.887893"></trkpt>
      <trkpt lat="42.693999" lon="2.888123"></trkpt>
      <trkpt lat="42.693516" lon="2.888811"></trkpt>
      <trkpt lat="42.693833" lon="2.893837"></trkpt>
      <trkpt lat="42.694803" lon="2.893628"></trkpt>
      <trkpt lat="42.694796" lon="2.892926"></trkpt>
      <trkpt lat="42.693782" lon="2.893029"></trkpt>
      <trkpt lat="42.693626" lon="2.890546"></trkpt>
      <trkpt lat="42.694637" lon="2.889212"></trkpt>
      <trkpt lat="42.701527" lon="2.885905"></trkpt>
      <trkpt lat="42.706165" lon="2.883197"></trkpt>
      <trkpt lat="42.706909" lon="2.882414"></trkpt>
      <trkpt lat="42.707562" lon="2.881396"></trkpt>
      <trkpt lat="42.709192" lon="2.876783"></trkpt>
      <trkpt lat="42.710172" lon="2.875063"></trkpt>
      <trkpt lat="42.710965" lon="2.874088"></trkpt>
      <trkpt lat="42.711606" lon="2.873499"></trkpt>
      <trkpt lat="42.712375" lon="2.873087"></trkpt>
      <trkpt lat="42.713392" lon="2.872869"></trkpt>
      <trkpt lat="42.714718" lon="2.872954"></trkpt>
      <trkpt lat="42.716759" lon="2.873379"></trkpt>
      <trkpt lat="42.71986" lon="2.874306"></trkpt>
      <trkpt lat="42.72124" lon="2.874956"></trkpt>
      <trkpt lat="42.723483" lon="2.876325"></trkpt>
      <trkpt lat="42.724764" lon="2.877203"></trkpt>
      <trkpt lat="42.728909" lon="2.880459"></trkpt>
      <trkpt lat="42.737501" lon="2.885934"></trkpt>
      <trkpt lat="42.742493" lon="2.889666"></trkpt>
      <trkpt lat="42.743212" lon="2.890465"></trkpt>
      <trkpt lat="42.744482" lon="2.89238"></trkpt>
      <trkpt lat="42.745376" lon="2.893232"></trkpt>
      <trkpt lat="42.745884" lon="2.893533"></trkpt>
      <trkpt lat="42.747604" lon="2.894117"></trkpt>
      <trkpt lat="42.75729" lon="2.896792"></trkpt>
      <trkpt lat="42.765212" lon="2.899127"></trkpt>
      <trkpt lat="42.772923" lon="2.901444"></trkpt>
      <trkpt lat="42.777048" lon="2.902859"></trkpt>
      <trkpt lat="42.777297" lon="2.903183"></trkpt>
      <trkpt lat="42.777495" lon="2.904351"></trkpt>
      <trkpt lat="42.778409" lon="2.905326"></trkpt>
      <trkpt lat="42.778483" lon="2.905795"></trkpt>
      <trkpt lat="42.777511" lon="2.909736"></trkpt>
      <trkpt lat="42.777303" lon="2.90994"></trkpt>
      <trkpt lat="42.776988" lon="2.909847"></trkpt>
      <trkpt lat="42.776534" lon="2.908679"></trkpt>
      <trkpt lat="42.777036" lon="2.907928"></trkpt>
      <trkpt lat="42.777143" lon="2.907981"></trkpt>
      <trkpt lat="42.777019" lon="2.908592"></trkpt>
      <trkpt lat="42.776798" lon="2.908589"></trkpt>
      <trkpt lat="42.776691" lon="2.908848"></trkpt>
      <trkpt lat="42.777017" lon="2.909634"></trkpt>
      <trkpt lat="42.777333" lon="2.909562"></trkpt>
      <trkpt lat="42.777512" lon="2.908769"></trkpt>
      <trkpt lat="42.77719" lon="2.908653"></trkpt>
      <trkpt lat="42.777305" lon="2.908037"></trkpt>
      <trkpt lat="42.777036" lon="2.907928"></trkpt>
      <trkpt lat="42.777148" lon="2.907168"></trkpt>
      <trkpt lat="42.777609" lon="2.906846"></trkpt>
      <trkpt lat="42.77873" lon="2.907321"></trkpt>
      <trkpt lat="42.778882" lon="2.907606"></trkpt>
      <trkpt lat="42.778217" lon="2.909096"></trkpt>
      <trkpt lat="42.777784" lon="2.911128"></trkpt>
      <trkpt lat="42.778056" lon="2.912057"></trkpt>
      <trkpt lat="42.777946" lon="2.913676"></trkpt>
      <trkpt lat="42.778342" lon="2.914797"></trkpt>
      <trkpt lat="42.778341" lon="2.915044"></trkpt>
      <trkpt lat="42.77823" lon="2.915128"></trkpt>
      <trkpt lat="42.777684" lon="2.914228"></trkpt>
      <trkpt lat="42.777525" lon="2.913536"></trkpt>
      <trkpt lat="42.777622" lon="2.910583"></trkpt>
      <trkpt lat="42.778119" lon="2.907848"></trkpt>
      <trkpt lat="42.779798" lon="2.900985"></trkpt>
      <trkpt lat="42.780175" lon="2.899845"></trkpt>
      <trkpt lat="42.780561" lon="2.899659"></trkpt>
      <trkpt lat="42.780748" lon="2.899123"></trkpt>
      <trkpt lat="42.781606" lon="2.897831"></trkpt>
      <trkpt lat="42.782344" lon="2.895928"></trkpt>
      <trkpt lat="42.78328" lon="2.894037"></trkpt>
      <trkpt lat="42.78356" lon="2.893777"></trkpt>
      <trkpt lat="42.784043" lon="2.893665"></trkpt>
      <trkpt lat="42.784407" lon="2.893858"></trkpt>
      <trkpt lat="42.784562" lon="2.894178"></trkpt>
      <trkpt lat="42.78454" lon="2.894605"></trkpt>
      <trkpt lat="42.784358" lon="2.894909"></trkpt>
      <trkpt lat="42.783789" lon="2.89501"></trkpt>
      <trkpt lat="42.777578" lon="2.894038"></trkpt>
      <trkpt lat="42.768419" lon="2.892185"></trkpt>
      <trkpt lat="42.764234" lon="2.89173"></trkpt>
      <trkpt lat="42.759902" lon="2.891766"></trkpt>
      <trkpt lat="42.752655" lon="2.892501"></trkpt>
      <trkpt lat="42.751063" lon="2.892558"></trkpt>
      <trkpt lat="42.749045" lon="2.892347"></trkpt>
      <trkpt lat="42.747638" lon="2.892001"></trkpt>
      <trkpt lat="42.745656" lon="2.891184"></trkpt>
      <trkpt lat="42.743925" lon="2.890158"></trkpt>
      <trkpt lat="42.735992" lon="2.884192"></trkpt>
      <trkpt lat="42.731498" lon="2.880977"></trkpt>
      <trkpt lat="42.721219" lon="2.874425"></trkpt>
      <trkpt lat="42.718845" lon="2.873305"></trkpt>
      <trkpt lat="42.714616" lon="2.871572"></trkpt>
      <trkpt lat="42.713405" lon="2.870951"></trkpt>
      <trkpt lat="42.708029" lon="2.867477"></trkpt>
      <trkpt lat="42.704101" lon="2.865296"></trkpt>
      <trkpt lat="42.701976" lon="2.864353"></trkpt>
      <trkpt lat="42.699595" lon="2.863468"></trkpt>
      <trkpt lat="42.697361" lon="2.862814"></trkpt>
      <trkpt lat="42.695272" lon="2.862345"></trkpt>
      <trkpt lat="42.691881" lon="2.861869"></trkpt>
      <trkpt lat="42.689115" lon="2.861744"></trkpt>
      <trkpt lat="42.67922" lon="2.862293"></trkpt>
      <trkpt lat="42.674915" lon="2.862314"></trkpt>
      <trkpt lat="42.67143" lon="2.862118"></trkpt>
      <trkpt lat="42.663623" lon="2.861337"></trkpt>
      <trkpt lat="42.659904" lon="2.861232"></trkpt>
      <trkpt lat="42.65147" lon="2.861262"></trkpt>
      <trkpt lat="42.637079" lon="2.860763"></trkpt>
      <trkpt lat="42.6341" lon="2.860462"></trkpt>
      <trkpt lat="42.630833" lon="2.859823"></trkpt>
      <trkpt lat="42.62775" lon="2.858916"></trkpt>
      <trkpt lat="42.624901" lon="2.857787"></trkpt>
      <trkpt lat="42.618872" lon="2.855017"></trkpt>
      <trkpt lat="42.615919" lon="2.853956"></trkpt>
      <trkpt lat="42.614275" lon="2.85349"></trkpt>
      <trkpt lat="42.610252" lon="2.852716"></trkpt>
      <trkpt lat="42.607006" lon="2.852424"></trkpt>
      <trkpt lat="42.601782" lon="2.852215"></trkpt>
      <trkpt lat="42.598915" lon="2.851801"></trkpt>
      <trkpt lat="42.596937" lon="2.851364"></trkpt>
      <trkpt lat="42.593083" lon="2.85015"></trkpt>
      <trkpt lat="42.581334" lon="2.845498"></trkpt>
      <trkpt lat="42.577481" lon="2.844463"></trkpt>
      <trkpt lat="42.575865" lon="2.844162"></trkpt>
      <trkpt lat="42.573133" lon="2.84385"></trkpt>
      <trkpt lat="42.57172" lon="2.843775"></trkpt>
      <trkpt lat="42.568325" lon="2.843857"></trkpt>
      <trkpt lat="42.564911" lon="2.844295"></trkpt>
      <trkpt lat="42.563176" lon="2.844723"></trkpt>
      <trkpt lat="42.560844" lon="2.845556"></trkpt>
      <trkpt lat="42.558819" lon="2.846529"></trkpt>
      <trkpt lat="42.555311" lon="2.848437"></trkpt>
      <trkpt lat="42.553666" lon="2.849127"></trkpt>
      <trkpt lat="42.552254" lon="2.849489"></trkpt>
      <trkpt lat="42.55077" lon="2.849651"></trkpt>
      <trkpt lat="42.549168" lon="2.849572"></trkpt>
      <trkpt lat="42.547844" lon="2.849324"></trkpt>
      <trkpt lat="42.545546" lon="2.848411"></trkpt>
      <trkpt lat="42.543699" lon="2.847204"></trkpt>
      <trkpt lat="42.542118" lon="2.845705"></trkpt>
      <trkpt lat="42.540105" lon="2.843186"></trkpt>
      <trkpt lat="42.538669" lon="2.840752"></trkpt>
      <trkpt lat="42.537653" lon="2.838728"></trkpt>
      <trkpt lat="42.533759" lon="2.829513"></trkpt>
      <trkpt lat="42.532386" lon="2.826729"></trkpt>
      <trkpt lat="42.530515" lon="2.823933"></trkpt>
      <trkpt lat="42.528572" lon="2.82168"></trkpt>
      <trkpt lat="42.527885" lon="2.821137"></trkpt>
      <trkpt lat="42.525005" lon="2.819786"></trkpt>
      <trkpt lat="42.522547" lon="2.819162"></trkpt>
      <trkpt lat="42.506116" lon="2.817908"></trkpt>
      <trkpt lat="42.504308" lon="2.817887"></trkpt>
      <trkpt lat="42.502665" lon="2.818198"></trkpt>
      <trkpt lat="42.501641" lon="2.818541"></trkpt>
      <trkpt lat="42.500959" lon="2.818922"></trkpt>
      <trkpt lat="42.499615" lon="2.820042"></trkpt>
      <trkpt lat="42.498517" lon="2.821322"></trkpt>
      <trkpt lat="42.49726" lon="2.823514"></trkpt>
      <trkpt lat="42.495826" lon="2.827778"></trkpt>
      <trkpt lat="42.495127" lon="2.829273"></trkpt>
      <trkpt lat="42.492997" lon="2.832459"></trkpt>
      <trkpt lat="42.489862" lon="2.838117"></trkpt>
      <trkpt lat="42.488153" lon="2.840651"></trkpt>
      <trkpt lat="42.486838" lon="2.842363"></trkpt>
      <trkpt lat="42.485852" lon="2.843333"></trkpt>
      <trkpt lat="42.484854" lon="2.844007"></trkpt>
      <trkpt lat="42.48211" lon="2.84499"></trkpt>
      <trkpt lat="42.481132" lon="2.84554"></trkpt>
      <trkpt lat="42.479931" lon="2.846587"></trkpt>
      <trkpt lat="42.478816" lon="2.84802"></trkpt>
      <trkpt lat="42.477566" lon="2.849926"></trkpt>
      <trkpt lat="42.476811" lon="2.851546"></trkpt>
      <trkpt lat="42.476308" lon="2.853244"></trkpt>
      <trkpt lat="42.475643" lon="2.856158"></trkpt>
      <trkpt lat="42.47476" lon="2.858531"></trkpt>
      <trkpt lat="42.472757" lon="2.861783"></trkpt>
      <trkpt lat="42.471854" lon="2.86281"></trkpt>
      <trkpt lat="42.47109" lon="2.863424"></trkpt>
      <trkpt lat="42.469566" lon="2.864175"></trkpt>
      <trkpt lat="42.462786" lon="2.865801"></trkpt>
      <trkpt lat="42.461405" lon="2.865832"></trkpt>
      <trkpt lat="42.459485" lon="2.86526"></trkpt>
      <trkpt lat="42.45881" lon="2.865168"></trkpt>
      <trkpt lat="42.457998" lon="2.865236"></trkpt>
      <trkpt lat="42.456804" lon="2.865664"></trkpt>
      <trkpt lat="42.454741" lon="2.866984"></trkpt>
      <trkpt lat="42.450425" lon="2.868172"></trkpt>
      <trkpt lat="42.449509" lon="2.868188"></trkpt>
      <trkpt lat="42.447107" lon="2.867856"></trkpt>
      <trkpt lat="42.444828" lon="2.868413"></trkpt>
      <trkpt lat="42.443939" lon="2.868501"></trkpt>
      <trkpt lat="42.442666" lon="2.868219"></trkpt>
      <trkpt lat="42.440705" lon="2.867065"></trkpt>
      <trkpt lat="42.438929" lon="2.866261"></trkpt>
      <trkpt lat="42.436792" lon="2.86457"></trkpt>
      <trkpt lat="42.435747" lon="2.864035"></trkpt>
      <trkpt lat="42.434235" lon="2.863669"></trkpt>
      <trkpt lat="42.433023" lon="2.863563"></trkpt>
      <trkpt lat="42.431399" lon="2.863604"></trkpt>
      <trkpt lat="42.430166" lon="2.863818"></trkpt>
      <trkpt lat="42.428383" lon="2.864464"></trkpt>
      <trkpt lat="42.426987" lon="2.865306"></trkpt>
      <trkpt lat="42.42594" lon="2.866149"></trkpt>
      <trkpt lat="42.42306" lon="2.868821"></trkpt>
      <trkpt lat="42.422004" lon="2.869587"></trkpt>
      <trkpt lat="42.420809" lon="2.870183"></trkpt>
      <trkpt lat="42.418908" lon="2.870776"></trkpt>
      <trkpt lat="42.412379" lon="2.872304"></trkpt>
      <trkpt lat="42.410991" lon="2.872432"></trkpt>
      <trkpt lat="42.408719" lon="2.872323"></trkpt>
      <trkpt lat="42.4075" lon="2.872465"></trkpt>
      <trkpt lat="42.406278" lon="2.872789"></trkpt>
      <trkpt lat="42.404717" lon="2.8735"></trkpt>
      <trkpt lat="42.399923" lon="2.876384"></trkpt>
      <trkpt lat="42.39508" lon="2.878438"></trkpt>
      <trkpt lat="42.393674" lon="2.879334"></trkpt>
      <trkpt lat="42.391754" lon="2.880808"></trkpt>
      <trkpt lat="42.39069" lon="2.881451"></trkpt>
      <trkpt lat="42.386759" lon="2.882941"></trkpt>
      <trkpt lat="42.382863" lon="2.885224"></trkpt>
      <trkpt lat="42.381157" lon="2.885766"></trkpt>
      <trkpt lat="42.378161" lon="2.886128"></trkpt>
      <trkpt lat="42.376587" lon="2.886577"></trkpt>
      <trkpt lat="42.375394" lon="2.887171"></trkpt>
      <trkpt lat="42.373071" lon="2.888815"></trkpt>
      <trkpt lat="42.372164" lon="2.889333"></trkpt>
      <trkpt lat="42.3709" lon="2.889821"></trkpt>
      <trkpt lat="42.368688" lon="2.890366"></trkpt>
      <trkpt lat="42.367405" lon="2.890892"></trkpt>
      <trkpt lat="42.365626" lon="2.892079"></trkpt>
      <trkpt lat="42.364273" lon="2.893449"></trkpt>
      <trkpt lat="42.36306" lon="2.895188"></trkpt>
      <trkpt lat="42.361458" lon="2.897951"></trkpt>
      <trkpt lat="42.359692" lon="2.900115"></trkpt>
      <trkpt lat="42.35806" lon="2.901515"></trkpt>
      <trkpt lat="42.355268" lon="2.903416"></trkpt>
      <trkpt lat="42.353757" lon="2.904892"></trkpt>
      <trkpt lat="42.352391" lon="2.906725"></trkpt>
      <trkpt lat="42.349533" lon="2.911632"></trkpt>
      <trkpt lat="42.34853" lon="2.913084"></trkpt>
      <trkpt lat="42.347313" lon="2.914586"></trkpt>
      <trkpt lat="42.345073" lon="2.916906"></trkpt>
      <trkpt lat="42.340884" lon="2.920369"></trkpt>
      <trkpt lat="42.338838" lon="2.922339"></trkpt>
      <trkpt lat="42.336721" lon="2.924829"></trkpt>
      <trkpt lat="42.332069" lon="2.931085"></trkpt>
      <trkpt lat="42.328835" lon="2.934748"></trkpt>
      <trkpt lat="42.325905" lon="2.937532"></trkpt>
      <trkpt lat="42.32278" lon="2.940011"></trkpt>
      <trkpt lat="42.319226" lon="2.942317"></trkpt>
      <trkpt lat="42.315422" lon="2.944238"></trkpt>
      <trkpt lat="42.313456" lon="2.945012"></trkpt>
      <trkpt lat="42.311293" lon="2.945637"></trkpt>
      <trkpt lat="42.308954" lon="2.945958"></trkpt>
      <trkpt lat="42.307176" lon="2.945934"></trkpt>
      <trkpt lat="42.305587" lon="2.945709"></trkpt>
      <trkpt lat="42.30319" lon="2.944991"></trkpt>
      <trkpt lat="42.301343" lon="2.944099"></trkpt>
      <trkpt lat="42.297006" lon="2.94156"></trkpt>
      <trkpt lat="42.295339" lon="2.940863"></trkpt>
      <trkpt lat="42.293564" lon="2.940396"></trkpt>
      <trkpt lat="42.292175" lon="2.940223"></trkpt>
      <trkpt lat="42.290253" lon="2.940263"></trkpt>
      <trkpt lat="42.288668" lon="2.940516"></trkpt>
      <trkpt lat="42.28463" lon="2.941456"></trkpt>
      <trkpt lat="42.28233" lon="2.941649"></trkpt>
      <trkpt lat="42.2808" lon="2.941491"></trkpt>
      <trkpt lat="42.279709" lon="2.941238"></trkpt>
      <trkpt lat="42.274657" lon="2.939465"></trkpt>
      <trkpt lat="42.272929" lon="2.939141"></trkpt>
      <trkpt lat="42.271644" lon="2.939082"></trkpt>
      <trkpt lat="42.269722" lon="2.939302"></trkpt>
      <trkpt lat="42.267908" lon="2.939863"></trkpt>
      <trkpt lat="42.266769" lon="2.940386"></trkpt>
      <trkpt lat="42.262519" lon="2.942725"></trkpt>
      <trkpt lat="42.260353" lon="2.943599"></trkpt>
      <trkpt lat="42.257975" lon="2.944117"></trkpt>
      <trkpt lat="42.256439" lon="2.944222"></trkpt>
      <trkpt lat="42.255221" lon="2.944172"></trkpt>
      <trkpt lat="42.253099" lon="2.943828"></trkpt>
      <trkpt lat="42.250777" lon="2.943041"></trkpt>
      <trkpt lat="42.248572" lon="2.941868"></trkpt>
      <trkpt lat="42.244089" lon="2.939071"></trkpt>
      <trkpt lat="42.241151" lon="2.937651"></trkpt>
      <trkpt lat="42.238837" lon="2.93696"></trkpt>
      <trkpt lat="42.235723" lon="2.936546"></trkpt>
      <trkpt lat="42.233528" lon="2.936616"></trkpt>
      <trkpt lat="42.230818" lon="2.937064"></trkpt>
      <trkpt lat="42.228499" lon="2.937665"></trkpt>
      <trkpt lat="42.222798" lon="2.939423"></trkpt>
      <trkpt lat="42.219588" lon="2.940127"></trkpt>
      <trkpt lat="42.216483" lon="2.940366"></trkpt>
      <trkpt lat="42.213597" lon="2.94017"></trkpt>
      <trkpt lat="42.210562" lon="2.939482"></trkpt>
      <trkpt lat="42.208844" lon="2.938909"></trkpt>
      <trkpt lat="42.205865" lon="2.937551"></trkpt>
      <trkpt lat="42.199525" lon="2.934266"></trkpt>
      <trkpt lat="42.196998" lon="2.93322"></trkpt>
      <trkpt lat="42.194795" lon="2.932602"></trkpt>
      <trkpt lat="42.19258" lon="2.932275"></trkpt>
      <trkpt lat="42.189887" lon="2.932311"></trkpt>
      <trkpt lat="42.1835" lon="2.933287"></trkpt>
      <trkpt lat="42.181259" lon="2.933404"></trkpt>
      <trkpt lat="42.180026" lon="2.933307"></trkpt>
      <trkpt lat="42.178446" lon="2.93302"></trkpt>
      <trkpt lat="42.176129" lon="2.93223"></trkpt>
      <trkpt lat="42.174306" lon="2.931281"></trkpt>
      <trkpt lat="42.173005" lon="2.930416"></trkpt>
      <trkpt lat="42.170732" lon="2.928391"></trkpt>
      <trkpt lat="42.168653" lon="2.926065"></trkpt>
      <trkpt lat="42.165094" lon="2.921722"></trkpt>
      <trkpt lat="42.162723" lon="2.919314"></trkpt>
      <trkpt lat="42.160697" lon="2.917837"></trkpt>
      <trkpt lat="42.158824" lon="2.917011"></trkpt>
      <trkpt lat="42.157103" lon="2.916652"></trkpt>
      <trkpt lat="42.155198" lon="2.916637"></trkpt>
      <trkpt lat="42.153204" lon="2.916984"></trkpt>
      <trkpt lat="42.149011" lon="2.918223"></trkpt>
      <trkpt lat="42.147075" lon="2.91866"></trkpt>
      <trkpt lat="42.145045" lon="2.918842"></trkpt>
      <trkpt lat="42.142832" lon="2.918737"></trkpt>
      <trkpt lat="42.140944" lon="2.918393"></trkpt>
      <trkpt lat="42.138977" lon="2.917749"></trkpt>
      <trkpt lat="42.136855" lon="2.916697"></trkpt>
      <trkpt lat="42.133485" lon="2.914635"></trkpt>
      <trkpt lat="42.131158" lon="2.913394"></trkpt>
      <trkpt lat="42.128651" lon="2.912455"></trkpt>
      <trkpt lat="42.126099" lon="2.91185"></trkpt>
      <trkpt lat="42.123975" lon="2.911647"></trkpt>
      <trkpt lat="42.122393" lon="2.911659"></trkpt>
      <trkpt lat="42.120369" lon="2.911912"></trkpt>
      <trkpt lat="42.116472" lon="2.912728"></trkpt>
      <trkpt lat="42.114372" lon="2.913034"></trkpt>
      <trkpt lat="42.112344" lon="2.912973"></trkpt>
      <trkpt lat="42.110442" lon="2.912528"></trkpt>
      <trkpt lat="42.10912" lon="2.911966"></trkpt>
      <trkpt lat="42.107681" lon="2.911113"></trkpt>
      <trkpt lat="42.106597" lon="2.91027"></trkpt>
      <trkpt lat="42.105456" lon="2.909115"></trkpt>
      <trkpt lat="42.103243" lon="2.906259"></trkpt>
      <trkpt lat="42.099456" lon="2.900247"></trkpt>
      <trkpt lat="42.097173" lon="2.897511"></trkpt>
      <trkpt lat="42.095452" lon="2.895848"></trkpt>
      <trkpt lat="42.093417" lon="2.894199"></trkpt>
      <trkpt lat="42.090212" lon="2.892166"></trkpt>
      <trkpt lat="42.087599" lon="2.890907"></trkpt>
      <trkpt lat="42.085632" lon="2.890215"></trkpt>
      <trkpt lat="42.08412" lon="2.889913"></trkpt>
      <trkpt lat="42.079968" lon="2.889686"></trkpt>
      <trkpt lat="42.078611" lon="2.889502"></trkpt>
      <trkpt lat="42.076793" lon="2.888945"></trkpt>
      <trkpt lat="42.072532" lon="2.887097"></trkpt>
      <trkpt lat="42.071303" lon="2.886759"></trkpt>
      <trkpt lat="42.066423" lon="2.886422"></trkpt>
      <trkpt lat="42.064307" lon="2.886022"></trkpt>
      <trkpt lat="42.061587" lon="2.885097"></trkpt>
      <trkpt lat="42.059545" lon="2.884033"></trkpt>
      <trkpt lat="42.057726" lon="2.882764"></trkpt>
      <trkpt lat="42.055744" lon="2.881056"></trkpt>
      <trkpt lat="42.054353" lon="2.879587"></trkpt>
      <trkpt lat="42.052221" lon="2.876998"></trkpt>
      <trkpt lat="42.049733" lon="2.87361"></trkpt>
      <trkpt lat="42.04739" lon="2.870032"></trkpt>
      <trkpt lat="42.046075" lon="2.867752"></trkpt>
      <trkpt lat="42.045043" lon="2.865471"></trkpt>
      <trkpt lat="42.044084" lon="2.862309"></trkpt>
      <trkpt lat="42.043593" lon="2.858966"></trkpt>
      <trkpt lat="42.04352" lon="2.855479"></trkpt>
      <trkpt lat="42.043753" lon="2.848964"></trkpt>
      <trkpt lat="42.043656" lon="2.847153"></trkpt>
      <trkpt lat="42.043198" lon="2.844882"></trkpt>
      <trkpt lat="42.042294" lon="2.842708"></trkpt>
      <trkpt lat="42.041478" lon="2.841491"></trkpt>
      <trkpt lat="42.040476" lon="2.840434"></trkpt>
      <trkpt lat="42.039444" lon="2.839646"></trkpt>
      <trkpt lat="42.037157" lon="2.838298"></trkpt>
      <trkpt lat="42.035461" lon="2.837031"></trkpt>
      <trkpt lat="42.033816" lon="2.835462"></trkpt>
      <trkpt lat="42.032319" lon="2.833633"></trkpt>
      <trkpt lat="42.030364" lon="2.830478"></trkpt>
      <trkpt lat="42.027806" lon="2.824791"></trkpt>
      <trkpt lat="42.026616" lon="2.8224"></trkpt>
      <trkpt lat="42.025423" lon="2.820527"></trkpt>
      <trkpt lat="42.024339" lon="2.819148"></trkpt>
      <trkpt lat="42.02261" lon="2.817418"></trkpt>
      <trkpt lat="42.020777" lon="2.816065"></trkpt>
      <trkpt lat="42.015065" lon="2.813213"></trkpt>
      <trkpt lat="42.013248" lon="2.811984"></trkpt>
      <trkpt lat="42.010282" lon="2.809555"></trkpt>
      <trkpt lat="42.008981" lon="2.808753"></trkpt>
      <trkpt lat="42.004835" lon="2.80672"></trkpt>
      <trkpt lat="42.00228" lon="2.804833"></trkpt>
      <trkpt lat="41.999955" lon="2.802411"></trkpt>
      <trkpt lat="41.997707" lon="2.799619"></trkpt>
      <trkpt lat="41.996496" lon="2.797902"></trkpt>
      <trkpt lat="41.991867" lon="2.790704"></trkpt>
      <trkpt lat="41.989766" lon="2.787818"></trkpt>
      <trkpt lat="41.988397" lon="2.786212"></trkpt>
      <trkpt lat="41.98667" lon="2.784469"></trkpt>
      <trkpt lat="41.983981" lon="2.782261"></trkpt>
      <trkpt lat="41.982677" lon="2.78138"></trkpt>
      <trkpt lat="41.980488" lon="2.780171"></trkpt>
      <trkpt lat="41.978671" lon="2.779383"></trkpt>
      <trkpt lat="41.97706" lon="2.778836"></trkpt>
      <trkpt lat="41.975389" lon="2.778435"></trkpt>
      <trkpt lat="41.973469" lon="2.778183"></trkpt>
      <trkpt lat="41.971486" lon="2.778154"></trkpt>
      <trkpt lat="41.970099" lon="2.778271"></trkpt>
      <trkpt lat="41.967327" lon="2.778863"></trkpt>
      <trkpt lat="41.965181" lon="2.779682"></trkpt>
      <trkpt lat="41.962945" lon="2.780924"></trkpt>
      <trkpt lat="41.958949" lon="2.783446"></trkpt>
      <trkpt lat="41.958643" lon="2.783486"></trkpt>
      <trkpt lat="41.958308" lon="2.783318"></trkpt>
      <trkpt lat="41.958197" lon="2.782994"></trkpt>
      <trkpt lat="41.958282" lon="2.782544"></trkpt>
      <trkpt lat="41.958532" lon="2.782363"></trkpt>
      <trkpt lat="41.958929" lon="2.78249"></trkpt>
      <trkpt lat="41.959639" lon="2.783675"></trkpt>
      <trkpt lat="41.961972" lon="2.790004"></trkpt>
      <trkpt lat="41.961956" lon="2.790629"></trkpt>
      <trkpt lat="41.962335" lon="2.791051"></trkpt>
      <trkpt lat="41.962754" lon="2.792476"></trkpt>
      <trkpt lat="41.963159" lon="2.794411"></trkpt>
      <trkpt lat="41.963252" lon="2.796206"></trkpt>
      <trkpt lat="41.963105" lon="2.79752"></trkpt>
      <trkpt lat="41.962716" lon="2.798858"></trkpt>
      <trkpt lat="41.961959" lon="2.800197"></trkpt>
      <trkpt lat="41.959875" lon="2.802474"></trkpt>
      <trkpt lat="41.95882" lon="2.804043"></trkpt>
      <trkpt lat="41.957896" lon="2.8061"></trkpt>
      <trkpt lat="41.956635" lon="2.809667"></trkpt>
      <trkpt lat="41.956036" lon="2.810683"></trkpt>
      <trkpt lat="41.955187" lon="2.811647"></trkpt>
      <trkpt lat="41.953665" lon="2.812615"></trkpt>
      <trkpt lat="41.952821" lon="2.812785"></trkpt>
      <trkpt lat="41.950767" lon="2.812802"></trkpt>
      <trkpt lat="41.949626" lon="2.812986"></trkpt>
      <trkpt lat="41.947175" lon="2.814279"></trkpt>
      <trkpt lat="41.944516" lon="2.815342"></trkpt>
      <trkpt lat="41.94352" lon="2.815967"></trkpt>
      <trkpt lat="41.942502" lon="2.8168"></trkpt>
      <trkpt lat="41.940592" lon="2.819079"></trkpt>
      <trkpt lat="41.939153" lon="2.821408"></trkpt>
      <trkpt lat="41.938461" lon="2.822755"></trkpt>
      <trkpt lat="41.937808" lon="2.824288"></trkpt>
      <trkpt lat="41.937387" lon="2.825638"></trkpt>
      <trkpt lat="41.937026" lon="2.827764"></trkpt>
      <trkpt lat="41.936919" lon="2.831721"></trkpt>
      <trkpt lat="41.936748" lon="2.833521"></trkpt>
      <trkpt lat="41.936275" lon="2.836446"></trkpt>
      <trkpt lat="41.935792" lon="2.838322"></trkpt>
      <trkpt lat="41.935249" lon="2.839606"></trkpt>
      <trkpt lat="41.933883" lon="2.841778"></trkpt>
      <trkpt lat="41.932569" lon="2.845091"></trkpt>
      <trkpt lat="41.931841" lon="2.846111"></trkpt>
      <trkpt lat="41.930374" lon="2.847813"></trkpt>
      <trkpt lat="41.927311" lon="2.850052"></trkpt>
      <trkpt lat="41.926482" lon="2.850343"></trkpt>
      <trkpt lat="41.916068" lon="2.850761"></trkpt>
      <trkpt lat="41.915527" lon="2.850558"></trkpt>
      <trkpt lat="41.91514" lon="2.850882"></trkpt>
      <trkpt lat="41.905857" lon="2.853661"></trkpt>
      <trkpt lat="41.905248" lon="2.853928"></trkpt>
      <trkpt lat="41.904615" lon="2.854498"></trkpt>
      <trkpt lat="41.90335" lon="2.856677"></trkpt>
      <trkpt lat="41.90295" lon="2.857188"></trkpt>
      <trkpt lat="41.899952" lon="2.859435"></trkpt>
      <trkpt lat="41.898974" lon="2.859757"></trkpt>
      <trkpt lat="41.898228" lon="2.859786"></trkpt>
      <trkpt lat="41.895478" lon="2.859345"></trkpt>
      <trkpt lat="41.893805" lon="2.859488"></trkpt>
      <trkpt lat="41.893426" lon="2.859253"></trkpt>
      <trkpt lat="41.89287" lon="2.859765"></trkpt>
      <trkpt lat="41.889888" lon="2.860779"></trkpt>
      <trkpt lat="41.888109" lon="2.86163"></trkpt>
      <trkpt lat="41.88498" lon="2.86384"></trkpt>
      <trkpt lat="41.88147" lon="2.865961"></trkpt>
      <trkpt lat="41.880087" lon="2.867354"></trkpt>
      <trkpt lat="41.879027" lon="2.869222"></trkpt>
      <trkpt lat="41.877837" lon="2.872322"></trkpt>
      <trkpt lat="41.875586" lon="2.876046"></trkpt>
      <trkpt lat="41.874212" lon="2.880059"></trkpt>
      <trkpt lat="41.873535" lon="2.881212"></trkpt>
      <trkpt lat="41.87257" lon="2.882245"></trkpt>
      <trkpt lat="41.872173" lon="2.882286"></trkpt>
      <trkpt lat="41.871763" lon="2.882864"></trkpt>
      <trkpt lat="41.870651" lon="2.883324"></trkpt>
      <trkpt lat="41.847275" lon="2.888244"></trkpt>
      <trkpt lat="41.846231" lon="2.888651"></trkpt>
      <trkpt lat="41.845623" lon="2.889084"></trkpt>
      <trkpt lat="41.844897" lon="2.889902"></trkpt>
      <trkpt lat="41.843365" lon="2.892908"></trkpt>
      <trkpt lat="41.841764" lon="2.895375"></trkpt>
      <trkpt lat="41.835979" lon="2.902519"></trkpt>
      <trkpt lat="41.834181" lon="2.904504"></trkpt>
      <trkpt lat="41.831528" lon="2.906589"></trkpt>
      <trkpt lat="41.830879" lon="2.907257"></trkpt>
      <trkpt lat="41.830366" lon="2.908044"></trkpt>
      <trkpt lat="41.829929" lon="2.909116"></trkpt>
      <trkpt lat="41.829685" lon="2.910278"></trkpt>
      <trkpt lat="41.829638" lon="2.911101"></trkpt>
      <trkpt lat="41.830083" lon="2.917483"></trkpt>
      <trkpt lat="41.830558" lon="2.921783"></trkpt>
      <trkpt lat="41.830837" lon="2.925836"></trkpt>
      <trkpt lat="41.830794" lon="2.926842"></trkpt>
      <trkpt lat="41.828995" lon="2.936855"></trkpt>
      <trkpt lat="41.827842" lon="2.941908"></trkpt>
      <trkpt lat="41.826936" lon="2.948229"></trkpt>
      <trkpt lat="41.826884" lon="2.950431"></trkpt>
      <trkpt lat="41.827619" lon="2.96378"></trkpt>
      <trkpt lat="41.827162" lon="2.969168"></trkpt>
      <trkpt lat="41.826982" lon="2.970255"></trkpt>
      <trkpt lat="41.826667" lon="2.971182"></trkpt>
      <trkpt lat="41.826256" lon="2.971985"></trkpt>
      <trkpt lat="41.824215" lon="2.974787"></trkpt>
      <trkpt lat="41.822982" lon="2.976054"></trkpt>
      <trkpt lat="41.819497" lon="2.979095"></trkpt>
      <trkpt lat="41.818347" lon="2.980428"></trkpt>
      <trkpt lat="41.817412" lon="2.981863"></trkpt>
      <trkpt lat="41.814027" lon="2.988936"></trkpt>
      <trkpt lat="41.809506" lon="2.996136"></trkpt>
      <trkpt lat="41.80903" lon="2.997308"></trkpt>
      <trkpt lat="41.808783" lon="2.998323"></trkpt>
      <trkpt lat="41.808584" lon="2.999679"></trkpt>
      <trkpt lat="41.808374" lon="3.002897"></trkpt>
      <trkpt lat="41.807847" lon="3.004776"></trkpt>
      <trkpt lat="41.804061" lon="3.010761"></trkpt>
      <trkpt lat="41.803054" lon="3.01174"></trkpt>
      <trkpt lat="41.802255" lon="3.012228"></trkpt>
      <trkpt lat="41.801189" lon="3.013116"></trkpt>
      <trkpt lat="41.800479" lon="3.014093"></trkpt>
      <trkpt lat="41.798929" lon="3.016727"></trkpt>
      <trkpt lat="41.798237" lon="3.017623"></trkpt>
      <trkpt lat="41.797397" lon="3.018409"></trkpt>
      <trkpt lat="41.79635" lon="3.019155"></trkpt>
      <trkpt lat="41.795683" lon="3.019468"></trkpt>
      <trkpt lat="41.79537" lon="3.019419"></trkpt>
      <trkpt lat="41.795161" lon="3.019697"></trkpt>
      <trkpt lat="41.793771" lon="3.020311"></trkpt>
      <trkpt lat="41.793531" lon="3.020272"></trkpt>
      <trkpt lat="41.793335" lon="3.020501"></trkpt>
      <trkpt lat="41.792101" lon="3.021015"></trkpt>
      <trkpt lat="41.790827" lon="3.021833"></trkpt>
      <trkpt lat="41.788337" lon="3.021224"></trkpt>
      <trkpt lat="41.78818" lon="3.020964"></trkpt>
      <trkpt lat="41.787836" lon="3.020948"></trkpt>
      <trkpt lat="41.786161" lon="3.019701"></trkpt>
      <trkpt lat="41.785233" lon="3.019488"></trkpt>
      <trkpt lat="41.784048" lon="3.019535"></trkpt>
      <trkpt lat="41.783938" lon="3.019673"></trkpt>
      <trkpt lat="41.781145" lon="3.020259"></trkpt>
      <trkpt lat="41.780966" lon="3.020208"></trkpt>
      <trkpt lat="41.780919" lon="3.020355"></trkpt>
      <trkpt lat="41.781043" lon="3.020662"></trkpt>
      <trkpt lat="41.780976" lon="3.02184"></trkpt>
      <trkpt lat="41.781323" lon="3.024741"></trkpt>
      <trkpt lat="41.78061" lon="3.026897"></trkpt>
      <trkpt lat="41.780493" lon="3.027005"></trkpt>
      <trkpt lat="41.78059" lon="3.027112"></trkpt>
      <trkpt lat="41.78066" lon="3.026994"></trkpt>
      <trkpt lat="41.780852" lon="3.027055"></trkpt>
      <trkpt lat="41.781399" lon="3.027495"></trkpt>
  </trkseg></trk>
</gpx>
