<?xml version="1.0" encoding="UTF-8"?>
<gpx version="1.1" creator="yatutbuv" xmlns="http://www.topografix.com/GPX/1/1">
  <trk><name>GraphHopper Track</name><trkseg>
      <trkpt lat="52.211531" lon="20.957096"></trkpt>
      <trkpt lat="52.211662" lon="20.956575"></trkpt>
      <trkpt lat="52.211779" lon="20.956654"></trkpt>
      <trkpt lat="52.211972" lon="20.955694"></trkpt>
      <trkpt lat="52.211886" lon="20.95302"></trkpt>
      <trkpt lat="52.209714" lon="20.94972"></trkpt>
      <trkpt lat="52.209434" lon="20.949801"></trkpt>
      <trkpt lat="52.209366" lon="20.949656"></trkpt>
      <trkpt lat="52.209335" lon="20.949517"></trkpt>
      <trkpt lat="52.209921" lon="20.94946"></trkpt>
      <trkpt lat="52.210175" lon="20.94929"></trkpt>
      <trkpt lat="52.202556" lon="20.938087"></trkpt>
      <trkpt lat="52.197333" lon="20.930182"></trkpt>
      <trkpt lat="52.195269" lon="20.927454"></trkpt>
      <trkpt lat="52.190509" lon="20.919818"></trkpt>
      <trkpt lat="52.189819" lon="20.918878"></trkpt>
      <trkpt lat="52.189246" lon="20.918236"></trkpt>
      <trkpt lat="52.188551" lon="20.917781"></trkpt>
      <trkpt lat="52.180435" lon="20.914908"></trkpt>
      <trkpt lat="52.178992" lon="20.91421"></trkpt>
      <trkpt lat="52.176784" lon="20.913412"></trkpt>
      <trkpt lat="52.176131" lon="20.91286"></trkpt>
      <trkpt lat="52.175686" lon="20.912131"></trkpt>
      <trkpt lat="52.174929" lon="20.909447"></trkpt>
      <trkpt lat="52.174845" lon="20.908059"></trkpt>
      <trkpt lat="52.175027" lon="20.906488"></trkpt>
      <trkpt lat="52.17705" lon="20.896321"></trkpt>
      <trkpt lat="52.178208" lon="20.891377"></trkpt>
      <trkpt lat="52.179917" lon="20.885879"></trkpt>
      <trkpt lat="52.182415" lon="20.879356"></trkpt>
      <trkpt lat="52.189123" lon="20.863469"></trkpt>
      <trkpt lat="52.190429" lon="20.860702"></trkpt>
      <trkpt lat="52.192461" lon="20.857395"></trkpt>
      <trkpt lat="52.197546" lon="20.851397"></trkpt>
      <trkpt lat="52.198333" lon="20.850183"></trkpt>
      <trkpt lat="52.198933" lon="20.848981"></trkpt>
      <trkpt lat="52.199739" lon="20.846507"></trkpt>
      <trkpt lat="52.200238" lon="20.843657"></trkpt>
      <trkpt lat="52.200329" lon="20.841227"></trkpt>
      <trkpt lat="52.200098" lon="20.838596"></trkpt>
      <trkpt lat="52.199553" lon="20.836182"></trkpt>
      <trkpt lat="52.194869" lon="20.821927"></trkpt>
      <trkpt lat="52.193736" lon="20.817596"></trkpt>
      <trkpt lat="52.193085" lon="20.813463"></trkpt>
      <trkpt lat="52.192567" lon="20.805111"></trkpt>
      <trkpt lat="52.191974" lon="20.799458"></trkpt>
      <trkpt lat="52.18968" lon="20.783841"></trkpt>
      <trkpt lat="52.188889" lon="20.780503"></trkpt>
      <trkpt lat="52.187776" lon="20.777794"></trkpt>
      <trkpt lat="52.187005" lon="20.776484"></trkpt>
      <trkpt lat="52.186136" lon="20.775306"></trkpt>
      <trkpt lat="52.184659" lon="20.773926"></trkpt>
      <trkpt lat="52.181354" lon="20.771811"></trkpt>
      <trkpt lat="52.179599" lon="20.770376"></trkpt>
      <trkpt lat="52.178209" lon="20.768766"></trkpt>
      <trkpt lat="52.176679" lon="20.766259"></trkpt>
      <trkpt lat="52.175455" lon="20.763582"></trkpt>
      <trkpt lat="52.172116" lon="20.75528"></trkpt>
      <trkpt lat="52.168477" lon="20.745657"></trkpt>
      <trkpt lat="52.165672" lon="20.736965"></trkpt>
      <trkpt lat="52.163118" lon="20.727427"></trkpt>
      <trkpt lat="52.162018" lon="20.72257"></trkpt>
      <trkpt lat="52.160501" lon="20.714953"></trkpt>
      <trkpt lat="52.155334" lon="20.686394"></trkpt>
      <trkpt lat="52.153984" lon="20.678254"></trkpt>
      <trkpt lat="52.149692" lon="20.648488"></trkpt>
      <trkpt lat="52.147778" lon="20.628896"></trkpt>
      <trkpt lat="52.146541" lon="20.618943"></trkpt>
      <trkpt lat="52.144548" lon="20.606374"></trkpt>
      <trkpt lat="52.142134" lon="20.594158"></trkpt>
      <trkpt lat="52.139441" lon="20.582364"></trkpt>
      <trkpt lat="52.130529" lon="20.545349"></trkpt>
      <trkpt lat="52.129032" lon="20.54013"></trkpt>
      <trkpt lat="52.124931" lon="20.527846"></trkpt>
      <trkpt lat="52.122859" lon="20.521096"></trkpt>
      <trkpt lat="52.120805" lon="20.51362"></trkpt>
      <trkpt lat="52.118817" lon="20.505386"></trkpt>
      <trkpt lat="52.116744" lon="20.495353"></trkpt>
      <trkpt lat="52.111918" lon="20.469384"></trkpt>
      <trkpt lat="52.110329" lon="20.461594"></trkpt>
      <trkpt lat="52.108542" lon="20.453977"></trkpt>
      <trkpt lat="52.103488" lon="20.43421"></trkpt>
      <trkpt lat="52.101709" lon="20.426415"></trkpt>
      <trkpt lat="52.100743" lon="20.421675"></trkpt>
      <trkpt lat="52.098743" lon="20.410238"></trkpt>
      <trkpt lat="52.095332" lon="20.386494"></trkpt>
      <trkpt lat="52.094394" lon="20.381355"></trkpt>
      <trkpt lat="52.093203" lon="20.376169"></trkpt>
      <trkpt lat="52.091521" lon="20.370091"></trkpt>
      <trkpt lat="52.089727" lon="20.364773"></trkpt>
      <trkpt lat="52.087921" lon="20.360171"></trkpt>
      <trkpt lat="52.083062" lon="20.348937"></trkpt>
      <trkpt lat="52.080703" lon="20.342651"></trkpt>
      <trkpt lat="52.079176" lon="20.337894"></trkpt>
      <trkpt lat="52.077637" lon="20.332449"></trkpt>
      <trkpt lat="52.075683" lon="20.323863"></trkpt>
      <trkpt lat="52.07439" lon="20.316302"></trkpt>
      <trkpt lat="52.073537" lon="20.309415"></trkpt>
      <trkpt lat="52.072979" lon="20.302432"></trkpt>
      <trkpt lat="52.072733" lon="20.294589"></trkpt>
      <trkpt lat="52.07279" lon="20.288348"></trkpt>
      <trkpt lat="52.072982" lon="20.28356"></trkpt>
      <trkpt lat="52.074844" lon="20.254445"></trkpt>
      <trkpt lat="52.075273" lon="20.243225"></trkpt>
      <trkpt lat="52.075272" lon="20.235757"></trkpt>
      <trkpt lat="52.075038" lon="20.228728"></trkpt>
      <trkpt lat="52.074536" lon="20.221199"></trkpt>
      <trkpt lat="52.073819" lon="20.214077"></trkpt>
      <trkpt lat="52.072391" lon="20.203993"></trkpt>
      <trkpt lat="52.071504" lon="20.199051"></trkpt>
      <trkpt lat="52.070334" lon="20.193391"></trkpt>
      <trkpt lat="52.068756" lon="20.186755"></trkpt>
      <trkpt lat="52.063437" lon="20.16616"></trkpt>
      <trkpt lat="52.060087" lon="20.152606"></trkpt>
      <trkpt lat="52.05744" lon="20.140771"></trkpt>
      <trkpt lat="52.054735" lon="20.126937"></trkpt>
      <trkpt lat="52.052861" lon="20.115919"></trkpt>
      <trkpt lat="52.050702" lon="20.100489"></trkpt>
      <trkpt lat="52.046978" lon="20.068111"></trkpt>
      <trkpt lat="52.046109" lon="20.061381"></trkpt>
      <trkpt lat="52.044812" lon="20.053442"></trkpt>
      <trkpt lat="52.043273" lon="20.046001"></trkpt>
      <trkpt lat="52.042018" lon="20.040856"></trkpt>
      <trkpt lat="52.039558" lon="20.032315"></trkpt>
      <trkpt lat="52.03549" lon="20.020029"></trkpt>
      <trkpt lat="52.033701" lon="20.014976"></trkpt>
      <trkpt lat="52.031658" lon="20.010139"></trkpt>
      <trkpt lat="52.026025" lon="19.99931"></trkpt>
      <trkpt lat="52.023345" lon="19.99324"></trkpt>
      <trkpt lat="52.021076" lon="19.986796"></trkpt>
      <trkpt lat="52.017013" lon="19.973187"></trkpt>
      <trkpt lat="52.015012" lon="19.967764"></trkpt>
      <trkpt lat="52.013542" lon="19.964529"></trkpt>
      <trkpt lat="52.012206" lon="19.961919"></trkpt>
      <trkpt lat="52.006518" lon="19.951623"></trkpt>
      <trkpt lat="52.004269" lon="19.946737"></trkpt>
      <trkpt lat="52.002534" lon="19.942292"></trkpt>
      <trkpt lat="52.000281" lon="19.935237"></trkpt>
      <trkpt lat="51.992855" lon="19.908882"></trkpt>
      <trkpt lat="51.991335" lon="19.904153"></trkpt>
      <trkpt lat="51.989189" lon="19.8986"></trkpt>
      <trkpt lat="51.987004" lon="19.893922"></trkpt>
      <trkpt lat="51.984431" lon="19.889251"></trkpt>
      <trkpt lat="51.982215" lon="19.885803"></trkpt>
      <trkpt lat="51.973145" lon="19.87281"></trkpt>
      <trkpt lat="51.970669" lon="19.868844"></trkpt>
      <trkpt lat="51.968796" lon="19.865442"></trkpt>
      <trkpt lat="51.963835" lon="19.855802"></trkpt>
      <trkpt lat="51.961654" lon="19.852229"></trkpt>
      <trkpt lat="51.959432" lon="19.849149"></trkpt>
      <trkpt lat="51.958215" lon="19.847666"></trkpt>
      <trkpt lat="51.953649" lon="19.842795"></trkpt>
      <trkpt lat="51.950539" lon="19.839195"></trkpt>
      <trkpt lat="51.948907" lon="19.836946"></trkpt>
      <trkpt lat="51.947222" lon="19.834342"></trkpt>
      <trkpt lat="51.944798" lon="19.829903"></trkpt>
      <trkpt lat="51.942926" lon="19.825809"></trkpt>
      <trkpt lat="51.934725" lon="19.806805"></trkpt>
      <trkpt lat="51.930311" lon="19.796322"></trkpt>
      <trkpt lat="51.928187" lon="19.790493"></trkpt>
      <trkpt lat="51.922263" lon="19.771848"></trkpt>
      <trkpt lat="51.919257" lon="19.763721"></trkpt>
      <trkpt lat="51.916767" lon="19.757842"></trkpt>
      <trkpt lat="51.908152" lon="19.739169"></trkpt>
      <trkpt lat="51.906218" lon="19.734378"></trkpt>
      <trkpt lat="51.904523" lon="19.729619"></trkpt>
      <trkpt lat="51.902599" lon="19.72335"></trkpt>
      <trkpt lat="51.900646" lon="19.715578"></trkpt>
      <trkpt lat="51.899514" lon="19.710048"></trkpt>
      <trkpt lat="51.898957" lon="19.706703"></trkpt>
      <trkpt lat="51.897984" lon="19.699518"></trkpt>
      <trkpt lat="51.897208" lon="19.690401"></trkpt>
      <trkpt lat="51.896601" lon="19.674043"></trkpt>
      <trkpt lat="51.896283" lon="19.669467"></trkpt>
      <trkpt lat="51.895534" lon="19.663583"></trkpt>
      <trkpt lat="51.893035" lon="19.649639"></trkpt>
      <trkpt lat="51.892527" lon="19.645418"></trkpt>
      <trkpt lat="51.89218" lon="19.641327"></trkpt>
      <trkpt lat="51.888943" lon="19.596125"></trkpt>
      <trkpt lat="51.888711" lon="19.59016"></trkpt>
      <trkpt lat="51.888812" lon="19.585191"></trkpt>
      <trkpt lat="51.889202" lon="19.579669"></trkpt>
      <trkpt lat="51.889987" lon="19.573532"></trkpt>
      <trkpt lat="51.891891" lon="19.563083"></trkpt>
      <trkpt lat="51.893122" lon="19.557754"></trkpt>
      <trkpt lat="51.893633" lon="19.553787"></trkpt>
      <trkpt lat="51.895532" lon="19.543546"></trkpt>
      <trkpt lat="51.896469" lon="19.537861"></trkpt>
      <trkpt lat="51.897561" lon="19.529132"></trkpt>
      <trkpt lat="51.898116" lon="19.522175"></trkpt>
      <trkpt lat="51.89842" lon="19.514208"></trkpt>
      <trkpt lat="51.898406" lon="19.507587"></trkpt>
      <trkpt lat="51.897976" lon="19.491419"></trkpt>
      <trkpt lat="51.898047" lon="19.486043"></trkpt>
      <trkpt lat="51.898524" lon="19.478908"></trkpt>
      <trkpt lat="51.899051" lon="19.474487"></trkpt>
      <trkpt lat="51.899616" lon="19.470894"></trkpt>
      <trkpt lat="51.901092" lon="19.463836"></trkpt>
      <trkpt lat="51.90217" lon="19.45984"></trkpt>
      <trkpt lat="51.903234" lon="19.456428"></trkpt>
      <trkpt lat="51.904984" lon="19.451608"></trkpt>
      <trkpt lat="51.912536" lon="19.43275"></trkpt>
      <trkpt lat="51.91417" lon="19.428229"></trkpt>
      <trkpt lat="51.91593" lon="19.42265"></trkpt>
      <trkpt lat="51.91805" lon="19.414157"></trkpt>
      <trkpt lat="51.919058" lon="19.409067"></trkpt>
      <trkpt lat="51.91984" lon="19.404153"></trkpt>
      <trkpt lat="51.920549" lon="19.398305"></trkpt>
      <trkpt lat="51.921109" lon="19.390835"></trkpt>
      <trkpt lat="51.921296" lon="19.384745"></trkpt>
      <trkpt lat="51.921233" lon="19.372052"></trkpt>
      <trkpt lat="51.921358" lon="19.365145"></trkpt>
      <trkpt lat="51.921697" lon="19.35827"></trkpt>
      <trkpt lat="51.922499" lon="19.349213"></trkpt>
      <trkpt lat="51.92397" lon="19.338532"></trkpt>
      <trkpt lat="51.926597" lon="19.324694"></trkpt>
      <trkpt lat="51.927522" lon="19.318789"></trkpt>
      <trkpt lat="51.928118" lon="19.312905"></trkpt>
      <trkpt lat="51.928938" lon="19.30016"></trkpt>
      <trkpt lat="51.929835" lon="19.29267"></trkpt>
      <trkpt lat="51.93077" lon="19.287457"></trkpt>
      <trkpt lat="51.934379" lon="19.271025"></trkpt>
      <trkpt lat="51.935199" lon="19.266685"></trkpt>
      <trkpt lat="51.938899" lon="19.240965"></trkpt>
      <trkpt lat="51.939474" lon="19.235597"></trkpt>
      <trkpt lat="51.939817" lon="19.229935"></trkpt>
      <trkpt lat="51.939906" lon="19.224172"></trkpt>
      <trkpt lat="51.939855" lon="19.211201"></trkpt>
      <trkpt lat="51.940151" lon="19.202881"></trkpt>
      <trkpt lat="51.940506" lon="19.198785"></trkpt>
      <trkpt lat="51.941217" lon="19.193252"></trkpt>
      <trkpt lat="51.942309" lon="19.187335"></trkpt>
      <trkpt lat="51.943548" lon="19.182131"></trkpt>
      <trkpt lat="51.945118" lon="19.176791"></trkpt>
      <trkpt lat="51.949866" lon="19.162744"></trkpt>
      <trkpt lat="51.950986" lon="19.158963"></trkpt>
      <trkpt lat="51.952453" lon="19.152952"></trkpt>
      <trkpt lat="51.954926" lon="19.141088"></trkpt>
      <trkpt lat="51.955897" lon="19.137175"></trkpt>
      <trkpt lat="51.957098" lon="19.133057"></trkpt>
      <trkpt lat="51.958239" lon="19.129664"></trkpt>
      <trkpt lat="51.959582" lon="19.126123"></trkpt>
      <trkpt lat="51.96346" lon="19.116807"></trkpt>
      <trkpt lat="51.964899" lon="19.112831"></trkpt>
      <trkpt lat="51.965999" lon="19.109421"></trkpt>
      <trkpt lat="51.969795" lon="19.096294"></trkpt>
      <trkpt lat="51.971662" lon="19.090765"></trkpt>
      <trkpt lat="51.974069" lon="19.084747"></trkpt>
      <trkpt lat="51.976623" lon="19.079388"></trkpt>
      <trkpt lat="51.979264" lon="19.074548"></trkpt>
      <trkpt lat="51.98562" lon="19.063624"></trkpt>
      <trkpt lat="51.988294" lon="19.058452"></trkpt>
      <trkpt lat="51.991001" lon="19.05209"></trkpt>
      <trkpt lat="51.993071" lon="19.045954"></trkpt>
      <trkpt lat="51.994921" lon="19.038884"></trkpt>
      <trkpt lat="51.996051" lon="19.033171"></trkpt>
      <trkpt lat="51.999506" lon="19.008706"></trkpt>
      <trkpt lat="52.000724" lon="19.002183"></trkpt>
      <trkpt lat="52.002126" lon="18.996124"></trkpt>
      <trkpt lat="52.004438" lon="18.988028"></trkpt>
      <trkpt lat="52.00949" lon="18.973434"></trkpt>
      <trkpt lat="52.011188" lon="18.967954"></trkpt>
      <trkpt lat="52.012593" lon="18.962301"></trkpt>
      <trkpt lat="52.015136" lon="18.950433"></trkpt>
      <trkpt lat="52.01669" lon="18.944683"></trkpt>
      <trkpt lat="52.024193" lon="18.922222"></trkpt>
      <trkpt lat="52.025869" lon="18.916764"></trkpt>
      <trkpt lat="52.027416" lon="18.910442"></trkpt>
      <trkpt lat="52.030901" lon="18.893384"></trkpt>
      <trkpt lat="52.032197" lon="18.887627"></trkpt>
      <trkpt lat="52.034238" lon="18.880239"></trkpt>
      <trkpt lat="52.03652" lon="18.873628"></trkpt>
      <trkpt lat="52.037759" lon="18.870539"></trkpt>
      <trkpt lat="52.03966" lon="18.866275"></trkpt>
      <trkpt lat="52.041206" lon="18.863167"></trkpt>
      <trkpt lat="52.043076" lon="18.859762"></trkpt>
      <trkpt lat="52.046682" lon="18.853983"></trkpt>
      <trkpt lat="52.060748" lon="18.833281"></trkpt>
      <trkpt lat="52.064012" lon="18.828272"></trkpt>
      <trkpt lat="52.067053" lon="18.822877"></trkpt>
      <trkpt lat="52.073032" lon="18.810611"></trkpt>
      <trkpt lat="52.075018" lon="18.806958"></trkpt>
      <trkpt lat="52.076493" lon="18.804509"></trkpt>
      <trkpt lat="52.080066" lon="18.799354"></trkpt>
      <trkpt lat="52.085857" lon="18.792279"></trkpt>
      <trkpt lat="52.088523" lon="18.788831"></trkpt>
      <trkpt lat="52.090682" lon="18.785648"></trkpt>
      <trkpt lat="52.092814" lon="18.782053"></trkpt>
      <trkpt lat="52.094362" lon="18.779104"></trkpt>
      <trkpt lat="52.096283" lon="18.774951"></trkpt>
      <trkpt lat="52.101201" lon="18.762323"></trkpt>
      <trkpt lat="52.102962" lon="18.758133"></trkpt>
      <trkpt lat="52.105185" lon="18.753474"></trkpt>
      <trkpt lat="52.110373" lon="18.743429"></trkpt>
      <trkpt lat="52.11222" lon="18.7393"></trkpt>
      <trkpt lat="52.114064" lon="18.734463"></trkpt>
      <trkpt lat="52.115469" lon="18.730093"></trkpt>
      <trkpt lat="52.116493" lon="18.726371"></trkpt>
      <trkpt lat="52.118029" lon="18.719331"></trkpt>
      <trkpt lat="52.119162" lon="18.711809"></trkpt>
      <trkpt lat="52.121263" lon="18.694324"></trkpt>
      <trkpt lat="52.122527" lon="18.686895"></trkpt>
      <trkpt lat="52.124023" lon="18.680628"></trkpt>
      <trkpt lat="52.127584" lon="18.668625"></trkpt>
      <trkpt lat="52.1286" lon="18.664639"></trkpt>
      <trkpt lat="52.129479" lon="18.660521"></trkpt>
      <trkpt lat="52.131541" lon="18.649202"></trkpt>
      <trkpt lat="52.132498" lon="18.644635"></trkpt>
      <trkpt lat="52.137283" lon="18.626136"></trkpt>
      <trkpt lat="52.1392" lon="18.6172"></trkpt>
      <trkpt lat="52.140291" lon="18.610675"></trkpt>
      <trkpt lat="52.141247" lon="18.603207"></trkpt>
      <trkpt lat="52.141887" lon="18.595826"></trkpt>
      <trkpt lat="52.142205" lon="18.589593"></trkpt>
      <trkpt lat="52.142302" lon="18.584779"></trkpt>
      <trkpt lat="52.142265" lon="18.578747"></trkpt>
      <trkpt lat="52.141578" lon="18.547131"></trkpt>
      <trkpt lat="52.14175" lon="18.539327"></trkpt>
      <trkpt lat="52.142248" lon="18.531922"></trkpt>
      <trkpt lat="52.143196" lon="18.523734"></trkpt>
      <trkpt lat="52.144417" lon="18.516391"></trkpt>
      <trkpt lat="52.14596" lon="18.509133"></trkpt>
      <trkpt lat="52.149915" lon="18.492476"></trkpt>
      <trkpt lat="52.151207" lon="18.485859"></trkpt>
      <trkpt lat="52.151792" lon="18.481985"></trkpt>
      <trkpt lat="52.152385" lon="18.476507"></trkpt>
      <trkpt lat="52.15266" lon="18.472366"></trkpt>
      <trkpt lat="52.152795" lon="18.467847"></trkpt>
      <trkpt lat="52.152753" lon="18.463162"></trkpt>
      <trkpt lat="52.152546" lon="18.458789"></trkpt>
      <trkpt lat="52.15222" lon="18.454853"></trkpt>
      <trkpt lat="52.151568" lon="18.449553"></trkpt>
      <trkpt lat="52.150059" lon="18.440963"></trkpt>
      <trkpt lat="52.144643" lon="18.414561"></trkpt>
      <trkpt lat="52.143715" lon="18.408709"></trkpt>
      <trkpt lat="52.143143" lon="18.403432"></trkpt>
      <trkpt lat="52.142798" lon="18.397769"></trkpt>
      <trkpt lat="52.142452" lon="18.38617"></trkpt>
      <trkpt lat="52.142185" lon="18.381157"></trkpt>
      <trkpt lat="52.140686" lon="18.364649"></trkpt>
      <trkpt lat="52.140289" lon="18.357596"></trkpt>
      <trkpt lat="52.140273" lon="18.352068"></trkpt>
      <trkpt lat="52.14047" lon="18.347241"></trkpt>
      <trkpt lat="52.140874" lon="18.342313"></trkpt>
      <trkpt lat="52.141667" lon="18.336244"></trkpt>
      <trkpt lat="52.142726" lon="18.330544"></trkpt>
      <trkpt lat="52.145512" lon="18.318736"></trkpt>
      <trkpt lat="52.146684" lon="18.312969"></trkpt>
      <trkpt lat="52.14756" lon="18.307107"></trkpt>
      <trkpt lat="52.149079" lon="18.293866"></trkpt>
      <trkpt lat="52.150171" lon="18.287476"></trkpt>
      <trkpt lat="52.151461" lon="18.281876"></trkpt>
      <trkpt lat="52.152554" lon="18.278548"></trkpt>
      <trkpt lat="52.153671" lon="18.27439"></trkpt>
      <trkpt lat="52.155646" lon="18.268012"></trkpt>
      <trkpt lat="52.156844" lon="18.263673"></trkpt>
      <trkpt lat="52.1578" lon="18.259602"></trkpt>
      <trkpt lat="52.158764" lon="18.254644"></trkpt>
      <trkpt lat="52.159613" lon="18.248932"></trkpt>
      <trkpt lat="52.160182" lon="18.243473"></trkpt>
      <trkpt lat="52.162617" lon="18.210371"></trkpt>
      <trkpt lat="52.163204" lon="18.205218"></trkpt>
      <trkpt lat="52.16489" lon="18.194245"></trkpt>
      <trkpt lat="52.1674" lon="18.179299"></trkpt>
      <trkpt lat="52.17017" lon="18.165084"></trkpt>
      <trkpt lat="52.17267" lon="18.153706"></trkpt>
      <trkpt lat="52.177639" lon="18.1332"></trkpt>
      <trkpt lat="52.17879" lon="18.12796"></trkpt>
      <trkpt lat="52.179905" lon="18.121739"></trkpt>
      <trkpt lat="52.181816" lon="18.109018"></trkpt>
      <trkpt lat="52.183476" lon="18.100345"></trkpt>
      <trkpt lat="52.18508" lon="18.093666"></trkpt>
      <trkpt lat="52.187295" lon="18.085337"></trkpt>
      <trkpt lat="52.1902" lon="18.076194"></trkpt>
      <trkpt lat="52.191599" lon="18.071252"></trkpt>
      <trkpt lat="52.192711" lon="18.066422"></trkpt>
      <trkpt lat="52.195142" lon="18.053638"></trkpt>
      <trkpt lat="52.196496" lon="18.048095"></trkpt>
      <trkpt lat="52.198318" lon="18.042192"></trkpt>
      <trkpt lat="52.203252" lon="18.027919"></trkpt>
      <trkpt lat="52.205648" lon="18.01937"></trkpt>
      <trkpt lat="52.207023" lon="18.013344"></trkpt>
      <trkpt lat="52.211403" lon="17.991838"></trkpt>
      <trkpt lat="52.213746" lon="17.981449"></trkpt>
      <trkpt lat="52.217507" lon="17.966709"></trkpt>
      <trkpt lat="52.221996" lon="17.951159"></trkpt>
      <trkpt lat="52.224716" lon="17.940215"></trkpt>
      <trkpt lat="52.227021" lon="17.929689"></trkpt>
      <trkpt lat="52.23054" lon="17.911455"></trkpt>
      <trkpt lat="52.232132" lon="17.90456"></trkpt>
      <trkpt lat="52.234486" lon="17.896389"></trkpt>
      <trkpt lat="52.239618" lon="17.88174"></trkpt>
      <trkpt lat="52.240837" lon="17.877825"></trkpt>
      <trkpt lat="52.243563" lon="17.8673"></trkpt>
      <trkpt lat="52.247757" lon="17.849719"></trkpt>
      <trkpt lat="52.251549" lon="17.832529"></trkpt>
      <trkpt lat="52.253952" lon="17.82087"></trkpt>
      <trkpt lat="52.25699" lon="17.805116"></trkpt>
      <trkpt lat="52.260995" lon="17.782652"></trkpt>
      <trkpt lat="52.261673" lon="17.778575"></trkpt>
      <trkpt lat="52.262329" lon="17.773619"></trkpt>
      <trkpt lat="52.264024" lon="17.755932"></trkpt>
      <trkpt lat="52.265204" lon="17.746248"></trkpt>
      <trkpt lat="52.266156" lon="17.740259"></trkpt>
      <trkpt lat="52.267007" lon="17.7357"></trkpt>
      <trkpt lat="52.268976" lon="17.726894"></trkpt>
      <trkpt lat="52.271268" lon="17.718507"></trkpt>
      <trkpt lat="52.27427" lon="17.709391"></trkpt>
      <trkpt lat="52.27723" lon="17.701656"></trkpt>
      <trkpt lat="52.286626" lon="17.678313"></trkpt>
      <trkpt lat="52.289361" lon="17.670859"></trkpt>
      <trkpt lat="52.291878" lon="17.662814"></trkpt>
      <trkpt lat="52.294289" lon="17.653541"></trkpt>
      <trkpt lat="52.306518" lon="17.600263"></trkpt>
      <trkpt lat="52.307734" lon="17.594401"></trkpt>
      <trkpt lat="52.308576" lon="17.58894"></trkpt>
      <trkpt lat="52.3091" lon="17.58408"></trkpt>
      <trkpt lat="52.310355" lon="17.563944"></trkpt>
      <trkpt lat="52.311072" lon="17.557003"></trkpt>
      <trkpt lat="52.31173" lon="17.552741"></trkpt>
      <trkpt lat="52.315593" lon="17.532269"></trkpt>
      <trkpt lat="52.316988" lon="17.522686"></trkpt>
      <trkpt lat="52.317747" lon="17.514528"></trkpt>
      <trkpt lat="52.318123" lon="17.50666"></trkpt>
      <trkpt lat="52.319135" lon="17.440602"></trkpt>
      <trkpt lat="52.319074" lon="17.433819"></trkpt>
      <trkpt lat="52.318502" lon="17.423669"></trkpt>
      <trkpt lat="52.317514" lon="17.414784"></trkpt>
      <trkpt lat="52.316662" lon="17.409256"></trkpt>
      <trkpt lat="52.31296" lon="17.38823"></trkpt>
      <trkpt lat="52.311621" lon="17.378785"></trkpt>
      <trkpt lat="52.310883" lon="17.371765"></trkpt>
      <trkpt lat="52.310491" lon="17.366833"></trkpt>
      <trkpt lat="52.310031" lon="17.357572"></trkpt>
      <trkpt lat="52.309931" lon="17.350041"></trkpt>
      <trkpt lat="52.310311" lon="17.217338"></trkpt>
      <trkpt lat="52.310174" lon="17.212582"></trkpt>
      <trkpt lat="52.309799" lon="17.207266"></trkpt>
      <trkpt lat="52.307728" lon="17.191041"></trkpt>
      <trkpt lat="52.307332" lon="17.185423"></trkpt>
      <trkpt lat="52.30721" lon="17.181315"></trkpt>
      <trkpt lat="52.307244" lon="17.176646"></trkpt>
      <trkpt lat="52.307493" lon="17.171491"></trkpt>
      <trkpt lat="52.307946" lon="17.166526"></trkpt>
      <trkpt lat="52.308666" lon="17.161253"></trkpt>
      <trkpt lat="52.309834" lon="17.155152"></trkpt>
      <trkpt lat="52.312035" lon="17.14676"></trkpt>
      <trkpt lat="52.325566" lon="17.103321"></trkpt>
      <trkpt lat="52.327887" lon="17.095235"></trkpt>
      <trkpt lat="52.33033" lon="17.085654"></trkpt>
      <trkpt lat="52.332089" lon="17.077812"></trkpt>
      <trkpt lat="52.341195" lon="17.033724"></trkpt>
      <trkpt lat="52.343253" lon="17.022057"></trkpt>
      <trkpt lat="52.345387" lon="17.007536"></trkpt>
      <trkpt lat="52.345815" lon="17.00392"></trkpt>
      <trkpt lat="52.34605" lon="17.003078"></trkpt>
      <trkpt lat="52.348427" lon="16.998906"></trkpt>
      <trkpt lat="52.349227" lon="16.998196"></trkpt>
      <trkpt lat="52.367492" lon="16.991804"></trkpt>
      <trkpt lat="52.368204" lon="16.991519"></trkpt>
      <trkpt lat="52.368789" lon="16.99114"></trkpt>
      <trkpt lat="52.370683" lon="16.989045"></trkpt>
      <trkpt lat="52.389716" lon="16.966134"></trkpt>
      <trkpt lat="52.391122" lon="16.963944"></trkpt>
      <trkpt lat="52.392226" lon="16.96157"></trkpt>
      <trkpt lat="52.395376" lon="16.951601"></trkpt>
      <trkpt lat="52.395912" lon="16.95107"></trkpt>
      <trkpt lat="52.396118" lon="16.950646"></trkpt>
      <trkpt lat="52.396094" lon="16.949581"></trkpt>
      <trkpt lat="52.399128" lon="16.936179"></trkpt>
      <trkpt lat="52.400341" lon="16.925247"></trkpt>
      <trkpt lat="52.400618" lon="16.924298"></trkpt>
      <trkpt lat="52.401416" lon="16.923011"></trkpt>
      <trkpt lat="52.401676" lon="16.922248"></trkpt>
      <trkpt lat="52.403013" lon="16.915757"></trkpt>
      <trkpt lat="52.403582" lon="16.911418"></trkpt>
      <trkpt lat="52.403775" lon="16.911191"></trkpt>
      <trkpt lat="52.406166" lon="16.912092"></trkpt>
      <trkpt lat="52.40774" lon="16.912851"></trkpt>
      <trkpt lat="52.408631" lon="16.912997"></trkpt>
      <trkpt lat="52.410204" lon="16.913547"></trkpt>
      <trkpt lat="52.410548" lon="16.913402"></trkpt>
      <trkpt lat="52.41067" lon="16.913195"></trkpt>
      <trkpt lat="52.413822" lon="16.898695"></trkpt>
      <trkpt lat="52.414199" lon="16.897448"></trkpt>
      <trkpt lat="52.415358" lon="16.891915"></trkpt>
      <trkpt lat="52.415641" lon="16.89106"></trkpt>
      <trkpt lat="52.416318" lon="16.887462"></trkpt>
      <trkpt lat="52.417451" lon="16.882461"></trkpt>
      <trkpt lat="52.415482" lon="16.880564"></trkpt>
      <trkpt lat="52.412692" lon="16.877454"></trkpt>
      <trkpt lat="52.411268" lon="16.876841"></trkpt>
      <trkpt lat="52.412291" lon="16.869491"></trkpt>
      <trkpt lat="52.408753" lon="16.868119"></trkpt>
      <trkpt lat="52.408982" lon="16.867394"></trkpt>
  </trkseg></trk>
</gpx>
