<?xml version="1.0" encoding="UTF-8"?>
<gpx version="1.1" creator="yatutbuv" xmlns="http://www.topografix.com/GPX/1/1">
  <trk><name>GraphHopper Track</name><trkseg>
      <trkpt lat="49.019356" lon="19.577019"></trkpt>
      <trkpt lat="49.019574" lon="19.576767"></trkpt>
      <trkpt lat="49.019646" lon="19.576898"></trkpt>
      <trkpt lat="49.021745" lon="19.574309"></trkpt>
      <trkpt lat="49.022192" lon="19.573911"></trkpt>
      <trkpt lat="49.02293" lon="19.573594"></trkpt>
      <trkpt lat="49.02669" lon="19.572608"></trkpt>
      <trkpt lat="49.031802" lon="19.572913"></trkpt>
      <trkpt lat="49.03269" lon="19.573054"></trkpt>
      <trkpt lat="49.033031" lon="19.573244"></trkpt>
      <trkpt lat="49.037238" lon="19.577239"></trkpt>
      <trkpt lat="49.040833" lon="19.578496"></trkpt>
      <trkpt lat="49.047355" lon="19.578539"></trkpt>
      <trkpt lat="49.053139" lon="19.577651"></trkpt>
      <trkpt lat="49.053537" lon="19.577714"></trkpt>
      <trkpt lat="49.054077" lon="19.578083"></trkpt>
      <trkpt lat="49.058571" lon="19.583529"></trkpt>
      <trkpt lat="49.060662" lon="19.585089"></trkpt>
      <trkpt lat="49.062463" lon="19.585615"></trkpt>
      <trkpt lat="49.065523" lon="19.587789"></trkpt>
      <trkpt lat="49.068056" lon="19.59008"></trkpt>
      <trkpt lat="49.071047" lon="19.59231"></trkpt>
      <trkpt lat="49.071703" lon="19.593182"></trkpt>
      <trkpt lat="49.072158" lon="19.594087"></trkpt>
      <trkpt lat="49.073155" lon="19.597952"></trkpt>
      <trkpt lat="49.073734" lon="19.599051"></trkpt>
      <trkpt lat="49.074306" lon="19.599645"></trkpt>
      <trkpt lat="49.075221" lon="19.600086"></trkpt>
      <trkpt lat="49.075826" lon="19.59997"></trkpt>
      <trkpt lat="49.076115" lon="19.599575"></trkpt>
      <trkpt lat="49.076204" lon="19.598723"></trkpt>
      <trkpt lat="49.075834" lon="19.597418"></trkpt>
      <trkpt lat="49.075778" lon="19.596551"></trkpt>
      <trkpt lat="49.076161" lon="19.595039"></trkpt>
      <trkpt lat="49.077213" lon="19.592611"></trkpt>
      <trkpt lat="49.0808" lon="19.58605"></trkpt>
      <trkpt lat="49.081557" lon="19.584162"></trkpt>
      <trkpt lat="49.081932" lon="19.58275"></trkpt>
      <trkpt lat="49.082238" lon="19.580529"></trkpt>
      <trkpt lat="49.08226" lon="19.578649"></trkpt>
      <trkpt lat="49.081578" lon="19.573293"></trkpt>
      <trkpt lat="49.081494" lon="19.570241"></trkpt>
      <trkpt lat="49.083053" lon="19.558236"></trkpt>
      <trkpt lat="49.083416" lon="19.55671"></trkpt>
      <trkpt lat="49.084022" lon="19.55523"></trkpt>
      <trkpt lat="49.084605" lon="19.554226"></trkpt>
      <trkpt lat="49.086371" lon="19.552023"></trkpt>
      <trkpt lat="49.087025" lon="19.550724"></trkpt>
      <trkpt lat="49.087332" lon="19.549765"></trkpt>
      <trkpt lat="49.087528" lon="19.548757"></trkpt>
      <trkpt lat="49.087623" lon="19.547203"></trkpt>
      <trkpt lat="49.086975" lon="19.541761"></trkpt>
      <trkpt lat="49.086951" lon="19.53995"></trkpt>
      <trkpt lat="49.087104" lon="19.538427"></trkpt>
      <trkpt lat="49.087362" lon="19.537126"></trkpt>
      <trkpt lat="49.08781" lon="19.535646"></trkpt>
      <trkpt lat="49.09012" lon="19.530767"></trkpt>
      <trkpt lat="49.090702" lon="19.529237"></trkpt>
      <trkpt lat="49.091164" lon="19.527405"></trkpt>
      <trkpt lat="49.091431" lon="19.525058"></trkpt>
      <trkpt lat="49.092014" lon="19.515579"></trkpt>
      <trkpt lat="49.091872" lon="19.512781"></trkpt>
      <trkpt lat="49.091489" lon="19.510853"></trkpt>
      <trkpt lat="49.091045" lon="19.509467"></trkpt>
      <trkpt lat="49.08828" lon="19.503485"></trkpt>
      <trkpt lat="49.08779" lon="19.501796"></trkpt>
      <trkpt lat="49.087479" lon="19.499626"></trkpt>
      <trkpt lat="49.087533" lon="19.497359"></trkpt>
      <trkpt lat="49.087774" lon="19.495852"></trkpt>
      <trkpt lat="49.088296" lon="19.494098"></trkpt>
      <trkpt lat="49.089441" lon="19.491558"></trkpt>
      <trkpt lat="49.090008" lon="19.490015"></trkpt>
      <trkpt lat="49.090372" lon="19.488339"></trkpt>
      <trkpt lat="49.090533" lon="19.486239"></trkpt>
      <trkpt lat="49.090452" lon="19.484643"></trkpt>
      <trkpt lat="49.090257" lon="19.483364"></trkpt>
      <trkpt lat="49.088826" lon="19.478308"></trkpt>
      <trkpt lat="49.088452" lon="19.476403"></trkpt>
      <trkpt lat="49.088127" lon="19.473882"></trkpt>
      <trkpt lat="49.08802" lon="19.469813"></trkpt>
      <trkpt lat="49.088469" lon="19.463057"></trkpt>
      <trkpt lat="49.088759" lon="19.459878"></trkpt>
      <trkpt lat="49.089246" lon="19.456952"></trkpt>
      <trkpt lat="49.089846" lon="19.454527"></trkpt>
      <trkpt lat="49.091153" lon="19.450115"></trkpt>
      <trkpt lat="49.091917" lon="19.44825"></trkpt>
      <trkpt lat="49.092626" lon="19.446973"></trkpt>
      <trkpt lat="49.093482" lon="19.445769"></trkpt>
      <trkpt lat="49.095288" lon="19.443586"></trkpt>
      <trkpt lat="49.096589" lon="19.441386"></trkpt>
      <trkpt lat="49.097067" lon="19.440157"></trkpt>
      <trkpt lat="49.097469" lon="19.438578"></trkpt>
      <trkpt lat="49.097699" lon="19.436016"></trkpt>
      <trkpt lat="49.097638" lon="19.434742"></trkpt>
      <trkpt lat="49.097339" lon="19.43302"></trkpt>
      <trkpt lat="49.096644" lon="19.430971"></trkpt>
      <trkpt lat="49.09552" lon="19.428836"></trkpt>
      <trkpt lat="49.095401" lon="19.428163"></trkpt>
      <trkpt lat="49.095554" lon="19.427299"></trkpt>
      <trkpt lat="49.095526" lon="19.426744"></trkpt>
      <trkpt lat="49.095079" lon="19.425708"></trkpt>
      <trkpt lat="49.094589" lon="19.423781"></trkpt>
      <trkpt lat="49.093573" lon="19.420889"></trkpt>
      <trkpt lat="49.092546" lon="19.416719"></trkpt>
      <trkpt lat="49.091671" lon="19.412221"></trkpt>
      <trkpt lat="49.092424" lon="19.411655"></trkpt>
      <trkpt lat="49.09314" lon="19.410862"></trkpt>
      <trkpt lat="49.093342" lon="19.411243"></trkpt>
      <trkpt lat="49.093402" lon="19.411763"></trkpt>
      <trkpt lat="49.093297" lon="19.412909"></trkpt>
      <trkpt lat="49.093845" lon="19.413889"></trkpt>
      <trkpt lat="49.094678" lon="19.413648"></trkpt>
      <trkpt lat="49.095364" lon="19.413725"></trkpt>
      <trkpt lat="49.096436" lon="19.412931"></trkpt>
      <trkpt lat="49.097163" lon="19.412591"></trkpt>
      <trkpt lat="49.098289" lon="19.412523"></trkpt>
      <trkpt lat="49.099923" lon="19.409664"></trkpt>
      <trkpt lat="49.100747" lon="19.408889"></trkpt>
      <trkpt lat="49.100833" lon="19.408643"></trkpt>
      <trkpt lat="49.100573" lon="19.407418"></trkpt>
      <trkpt lat="49.100349" lon="19.406963"></trkpt>
      <trkpt lat="49.099766" lon="19.406275"></trkpt>
      <trkpt lat="49.099606" lon="19.405351"></trkpt>
      <trkpt lat="49.099739" lon="19.404433"></trkpt>
      <trkpt lat="49.100237" lon="19.403054"></trkpt>
      <trkpt lat="49.100529" lon="19.40143"></trkpt>
      <trkpt lat="49.100816" lon="19.398662"></trkpt>
      <trkpt lat="49.100738" lon="19.397757"></trkpt>
      <trkpt lat="49.097588" lon="19.390162"></trkpt>
      <trkpt lat="49.097554" lon="19.388074"></trkpt>
      <trkpt lat="49.097322" lon="19.386589"></trkpt>
      <trkpt lat="49.096616" lon="19.385958"></trkpt>
      <trkpt lat="49.096252" lon="19.385401"></trkpt>
      <trkpt lat="49.095541" lon="19.38313"></trkpt>
      <trkpt lat="49.09382" lon="19.379526"></trkpt>
      <trkpt lat="49.093887" lon="19.376571"></trkpt>
      <trkpt lat="49.092974" lon="19.373277"></trkpt>
      <trkpt lat="49.092802" lon="19.372134"></trkpt>
      <trkpt lat="49.093039" lon="19.367437"></trkpt>
      <trkpt lat="49.093355" lon="19.364538"></trkpt>
      <trkpt lat="49.093283" lon="19.363538"></trkpt>
      <trkpt lat="49.09152" lon="19.358808"></trkpt>
      <trkpt lat="49.09088" lon="19.356747"></trkpt>
      <trkpt lat="49.08941" lon="19.35305"></trkpt>
      <trkpt lat="49.089026" lon="19.352196"></trkpt>
      <trkpt lat="49.087674" lon="19.350012"></trkpt>
      <trkpt lat="49.087065" lon="19.348155"></trkpt>
      <trkpt lat="49.086535" lon="19.34574"></trkpt>
      <trkpt lat="49.086463" lon="19.344637"></trkpt>
      <trkpt lat="49.086512" lon="19.343921"></trkpt>
      <trkpt lat="49.087262" lon="19.341085"></trkpt>
      <trkpt lat="49.087275" lon="19.34028"></trkpt>
      <trkpt lat="49.086756" lon="19.338341"></trkpt>
      <trkpt lat="49.086337" lon="19.335756"></trkpt>
      <trkpt lat="49.084971" lon="19.331883"></trkpt>
      <trkpt lat="49.084806" lon="19.329149"></trkpt>
      <trkpt lat="49.084491" lon="19.327563"></trkpt>
      <trkpt lat="49.08338" lon="19.323825"></trkpt>
      <trkpt lat="49.081986" lon="19.319704"></trkpt>
      <trkpt lat="49.081336" lon="19.315948"></trkpt>
      <trkpt lat="49.081378" lon="19.314497"></trkpt>
      <trkpt lat="49.081582" lon="19.313357"></trkpt>
      <trkpt lat="49.082184" lon="19.311859"></trkpt>
      <trkpt lat="49.086677" lon="19.304692"></trkpt>
      <trkpt lat="49.087578" lon="19.304585"></trkpt>
      <trkpt lat="49.088199" lon="19.304242"></trkpt>
      <trkpt lat="49.088895" lon="19.303664"></trkpt>
      <trkpt lat="49.089087" lon="19.303589"></trkpt>
      <trkpt lat="49.089578" lon="19.304152"></trkpt>
      <trkpt lat="49.089913" lon="19.304949"></trkpt>
      <trkpt lat="49.090169" lon="19.305965"></trkpt>
      <trkpt lat="49.090494" lon="19.306587"></trkpt>
      <trkpt lat="49.090981" lon="19.307122"></trkpt>
      <trkpt lat="49.091464" lon="19.307351"></trkpt>
      <trkpt lat="49.091885" lon="19.307356"></trkpt>
      <trkpt lat="49.09231" lon="19.307215"></trkpt>
      <trkpt lat="49.093632" lon="19.306202"></trkpt>
      <trkpt lat="49.094489" lon="19.305912"></trkpt>
      <trkpt lat="49.095155" lon="19.305871"></trkpt>
      <trkpt lat="49.096257" lon="19.306053"></trkpt>
      <trkpt lat="49.101161" lon="19.30538"></trkpt>
      <trkpt lat="49.10256" lon="19.304423"></trkpt>
      <trkpt lat="49.102842" lon="19.30438"></trkpt>
      <trkpt lat="49.103262" lon="19.303367"></trkpt>
      <trkpt lat="49.104257" lon="19.302337"></trkpt>
      <trkpt lat="49.108811" lon="19.299513"></trkpt>
      <trkpt lat="49.109335" lon="19.299554"></trkpt>
      <trkpt lat="49.109757" lon="19.298964"></trkpt>
      <trkpt lat="49.11065" lon="19.298703"></trkpt>
      <trkpt lat="49.112153" lon="19.298645"></trkpt>
      <trkpt lat="49.113909" lon="19.298105"></trkpt>
      <trkpt lat="49.115763" lon="19.298319"></trkpt>
      <trkpt lat="49.118923" lon="19.297142"></trkpt>
      <trkpt lat="49.12078" lon="19.295596"></trkpt>
      <trkpt lat="49.122797" lon="19.294532"></trkpt>
      <trkpt lat="49.124244" lon="19.293611"></trkpt>
      <trkpt lat="49.125685" lon="19.292935"></trkpt>
      <trkpt lat="49.12638" lon="19.292072"></trkpt>
      <trkpt lat="49.127364" lon="19.289643"></trkpt>
      <trkpt lat="49.127948" lon="19.28903"></trkpt>
      <trkpt lat="49.128895" lon="19.288481"></trkpt>
      <trkpt lat="49.129511" lon="19.288269"></trkpt>
      <trkpt lat="49.130593" lon="19.288172"></trkpt>
      <trkpt lat="49.132912" lon="19.28878"></trkpt>
      <trkpt lat="49.134156" lon="19.288861"></trkpt>
      <trkpt lat="49.134977" lon="19.288515"></trkpt>
      <trkpt lat="49.136096" lon="19.287665"></trkpt>
      <trkpt lat="49.136849" lon="19.287461"></trkpt>
      <trkpt lat="49.138231" lon="19.287603"></trkpt>
      <trkpt lat="49.140103" lon="19.287549"></trkpt>
      <trkpt lat="49.141649" lon="19.287737"></trkpt>
      <trkpt lat="49.1434" lon="19.287632"></trkpt>
      <trkpt lat="49.14495" lon="19.288482"></trkpt>
      <trkpt lat="49.145351" lon="19.288491"></trkpt>
      <trkpt lat="49.145809" lon="19.288216"></trkpt>
      <trkpt lat="49.14633" lon="19.287582"></trkpt>
      <trkpt lat="49.146824" lon="19.285043"></trkpt>
      <trkpt lat="49.147067" lon="19.284571"></trkpt>
      <trkpt lat="49.147623" lon="19.28424"></trkpt>
      <trkpt lat="49.148124" lon="19.284302"></trkpt>
      <trkpt lat="49.149182" lon="19.284876"></trkpt>
      <trkpt lat="49.150667" lon="19.285281"></trkpt>
      <trkpt lat="49.151493" lon="19.285893"></trkpt>
      <trkpt lat="49.15311" lon="19.288476"></trkpt>
      <trkpt lat="49.154429" lon="19.291174"></trkpt>
      <trkpt lat="49.155" lon="19.291709"></trkpt>
      <trkpt lat="49.15713" lon="19.292723"></trkpt>
      <trkpt lat="49.157723" lon="19.293182"></trkpt>
      <trkpt lat="49.158371" lon="19.294161"></trkpt>
      <trkpt lat="49.159208" lon="19.296333"></trkpt>
      <trkpt lat="49.159487" lon="19.296808"></trkpt>
      <trkpt lat="49.160048" lon="19.297352"></trkpt>
      <trkpt lat="49.161561" lon="19.298056"></trkpt>
      <trkpt lat="49.162773" lon="19.29975"></trkpt>
      <trkpt lat="49.163328" lon="19.300114"></trkpt>
      <trkpt lat="49.163906" lon="19.300166"></trkpt>
      <trkpt lat="49.164318" lon="19.300018"></trkpt>
      <trkpt lat="49.166104" lon="19.298344"></trkpt>
      <trkpt lat="49.166689" lon="19.298082"></trkpt>
      <trkpt lat="49.167342" lon="19.297951"></trkpt>
      <trkpt lat="49.1683" lon="19.298024"></trkpt>
      <trkpt lat="49.172096" lon="19.299454"></trkpt>
      <trkpt lat="49.174809" lon="19.300053"></trkpt>
      <trkpt lat="49.175256" lon="19.300011"></trkpt>
      <trkpt lat="49.175823" lon="19.299793"></trkpt>
      <trkpt lat="49.178022" lon="19.298107"></trkpt>
      <trkpt lat="49.178522" lon="19.298014"></trkpt>
      <trkpt lat="49.179288" lon="19.29828"></trkpt>
      <trkpt lat="49.179946" lon="19.299031"></trkpt>
      <trkpt lat="49.180431" lon="19.300367"></trkpt>
      <trkpt lat="49.180958" lon="19.302322"></trkpt>
      <trkpt lat="49.181522" lon="19.305561"></trkpt>
      <trkpt lat="49.181916" lon="19.3068"></trkpt>
      <trkpt lat="49.1822" lon="19.307329"></trkpt>
      <trkpt lat="49.182806" lon="19.307941"></trkpt>
      <trkpt lat="49.183183" lon="19.308189"></trkpt>
      <trkpt lat="49.18383" lon="19.308402"></trkpt>
      <trkpt lat="49.184407" lon="19.308399"></trkpt>
      <trkpt lat="49.185038" lon="19.308178"></trkpt>
      <trkpt lat="49.189541" lon="19.305446"></trkpt>
      <trkpt lat="49.192775" lon="19.304538"></trkpt>
      <trkpt lat="49.197123" lon="19.304336"></trkpt>
      <trkpt lat="49.197886" lon="19.304175"></trkpt>
      <trkpt lat="49.199895" lon="19.303335"></trkpt>
      <trkpt lat="49.206109" lon="19.301156"></trkpt>
      <trkpt lat="49.209012" lon="19.299494"></trkpt>
      <trkpt lat="49.209508" lon="19.299341"></trkpt>
      <trkpt lat="49.210163" lon="19.299252"></trkpt>
      <trkpt lat="49.210965" lon="19.299318"></trkpt>
      <trkpt lat="49.214032" lon="19.300249"></trkpt>
      <trkpt lat="49.215019" lon="19.300385"></trkpt>
      <trkpt lat="49.215935" lon="19.300262"></trkpt>
      <trkpt lat="49.216633" lon="19.300009"></trkpt>
      <trkpt lat="49.218118" lon="19.29914"></trkpt>
      <trkpt lat="49.218824" lon="19.298855"></trkpt>
      <trkpt lat="49.219634" lon="19.298827"></trkpt>
      <trkpt lat="49.220637" lon="19.299232"></trkpt>
      <trkpt lat="49.221309" lon="19.299802"></trkpt>
      <trkpt lat="49.221788" lon="19.300414"></trkpt>
      <trkpt lat="49.224104" lon="19.305004"></trkpt>
      <trkpt lat="49.225778" lon="19.307382"></trkpt>
      <trkpt lat="49.226567" lon="19.308077"></trkpt>
      <trkpt lat="49.227434" lon="19.308551"></trkpt>
      <trkpt lat="49.229926" lon="19.309355"></trkpt>
      <trkpt lat="49.230506" lon="19.309647"></trkpt>
      <trkpt lat="49.231351" lon="19.310532"></trkpt>
      <trkpt lat="49.231874" lon="19.311726"></trkpt>
      <trkpt lat="49.232096" lon="19.313165"></trkpt>
      <trkpt lat="49.232043" lon="19.314301"></trkpt>
      <trkpt lat="49.231009" lon="19.318586"></trkpt>
      <trkpt lat="49.230753" lon="19.320911"></trkpt>
      <trkpt lat="49.230816" lon="19.322138"></trkpt>
      <trkpt lat="49.231288" lon="19.324176"></trkpt>
      <trkpt lat="49.231636" lon="19.326782"></trkpt>
      <trkpt lat="49.231689" lon="19.328476"></trkpt>
      <trkpt lat="49.232084" lon="19.33046"></trkpt>
      <trkpt lat="49.231797" lon="19.332753"></trkpt>
      <trkpt lat="49.231227" lon="19.334404"></trkpt>
      <trkpt lat="49.230789" lon="19.336547"></trkpt>
      <trkpt lat="49.230795" lon="19.337204"></trkpt>
      <trkpt lat="49.230926" lon="19.337495"></trkpt>
      <trkpt lat="49.231205" lon="19.3377"></trkpt>
      <trkpt lat="49.232253" lon="19.337721"></trkpt>
      <trkpt lat="49.236077" lon="19.335748"></trkpt>
      <trkpt lat="49.237029" lon="19.33584"></trkpt>
      <trkpt lat="49.239013" lon="19.336812"></trkpt>
      <trkpt lat="49.239393" lon="19.336753"></trkpt>
      <trkpt lat="49.24024" lon="19.336186"></trkpt>
      <trkpt lat="49.240714" lon="19.336002"></trkpt>
      <trkpt lat="49.242976" lon="19.335918"></trkpt>
      <trkpt lat="49.243936" lon="19.336285"></trkpt>
      <trkpt lat="49.24485" lon="19.337356"></trkpt>
      <trkpt lat="49.245208" lon="19.337599"></trkpt>
      <trkpt lat="49.245746" lon="19.337754"></trkpt>
      <trkpt lat="49.246582" lon="19.337704"></trkpt>
      <trkpt lat="49.249526" lon="19.339184"></trkpt>
      <trkpt lat="49.25061" lon="19.339381"></trkpt>
      <trkpt lat="49.2507" lon="19.339817"></trkpt>
      <trkpt lat="49.25248" lon="19.340732"></trkpt>
      <trkpt lat="49.252941" lon="19.340745"></trkpt>
      <trkpt lat="49.253806" lon="19.340201"></trkpt>
      <trkpt lat="49.254474" lon="19.340227"></trkpt>
      <trkpt lat="49.254799" lon="19.34035"></trkpt>
      <trkpt lat="49.255219" lon="19.340735"></trkpt>
      <trkpt lat="49.256554" lon="19.34255"></trkpt>
      <trkpt lat="49.25686" lon="19.343006"></trkpt>
      <trkpt lat="49.257161" lon="19.343785"></trkpt>
      <trkpt lat="49.257602" lon="19.346816"></trkpt>
      <trkpt lat="49.258055" lon="19.348582"></trkpt>
      <trkpt lat="49.258685" lon="19.350394"></trkpt>
      <trkpt lat="49.258688" lon="19.353081"></trkpt>
      <trkpt lat="49.258388" lon="19.35574"></trkpt>
      <trkpt lat="49.258504" lon="19.356407"></trkpt>
      <trkpt lat="49.258854" lon="19.356768"></trkpt>
      <trkpt lat="49.259323" lon="19.356848"></trkpt>
      <trkpt lat="49.261611" lon="19.35665"></trkpt>
      <trkpt lat="49.262821" lon="19.35624"></trkpt>
      <trkpt lat="49.263976" lon="19.355607"></trkpt>
      <trkpt lat="49.265729" lon="19.355104"></trkpt>
      <trkpt lat="49.267015" lon="19.354128"></trkpt>
      <trkpt lat="49.267879" lon="19.353242"></trkpt>
      <trkpt lat="49.271532" lon="19.350791"></trkpt>
      <trkpt lat="49.272124" lon="19.35056"></trkpt>
      <trkpt lat="49.273332" lon="19.350517"></trkpt>
      <trkpt lat="49.274158" lon="19.350287"></trkpt>
      <trkpt lat="49.27731" lon="19.347579"></trkpt>
      <trkpt lat="49.277832" lon="19.347333"></trkpt>
      <trkpt lat="49.279194" lon="19.34701"></trkpt>
      <trkpt lat="49.281727" lon="19.347077"></trkpt>
      <trkpt lat="49.284328" lon="19.348922"></trkpt>
      <trkpt lat="49.285696" lon="19.349624"></trkpt>
      <trkpt lat="49.286009" lon="19.349585"></trkpt>
      <trkpt lat="49.286639" lon="19.349001"></trkpt>
      <trkpt lat="49.287605" lon="19.348835"></trkpt>
      <trkpt lat="49.289147" lon="19.348843"></trkpt>
      <trkpt lat="49.290035" lon="19.349028"></trkpt>
      <trkpt lat="49.29164" lon="19.349118"></trkpt>
      <trkpt lat="49.293089" lon="19.348613"></trkpt>
      <trkpt lat="49.293198" lon="19.348748"></trkpt>
      <trkpt lat="49.293161" lon="19.349088"></trkpt>
      <trkpt lat="49.292558" lon="19.349935"></trkpt>
      <trkpt lat="49.291965" lon="19.350327"></trkpt>
      <trkpt lat="49.29073" lon="19.350761"></trkpt>
      <trkpt lat="49.290524" lon="19.350991"></trkpt>
      <trkpt lat="49.29058" lon="19.351278"></trkpt>
      <trkpt lat="49.291863" lon="19.351463"></trkpt>
      <trkpt lat="49.292565" lon="19.351921"></trkpt>
      <trkpt lat="49.293138" lon="19.351836"></trkpt>
      <trkpt lat="49.293421" lon="19.351687"></trkpt>
      <trkpt lat="49.293683" lon="19.351352"></trkpt>
      <trkpt lat="49.294283" lon="19.349945"></trkpt>
      <trkpt lat="49.294627" lon="19.349792"></trkpt>
      <trkpt lat="49.299163" lon="19.352958"></trkpt>
      <trkpt lat="49.303047" lon="19.35389"></trkpt>
      <trkpt lat="49.303397" lon="19.35385"></trkpt>
      <trkpt lat="49.304714" lon="19.35293"></trkpt>
      <trkpt lat="49.307316" lon="19.352861"></trkpt>
      <trkpt lat="49.30793" lon="19.352625"></trkpt>
      <trkpt lat="49.308899" lon="19.351737"></trkpt>
      <trkpt lat="49.310984" lon="19.348614"></trkpt>
      <trkpt lat="49.311334" lon="19.34839"></trkpt>
      <trkpt lat="49.321951" lon="19.348667"></trkpt>
      <trkpt lat="49.324179" lon="19.348521"></trkpt>
      <trkpt lat="49.32445" lon="19.34863"></trkpt>
      <trkpt lat="49.324728" lon="19.348977"></trkpt>
      <trkpt lat="49.325459" lon="19.3513"></trkpt>
      <trkpt lat="49.32583" lon="19.353422"></trkpt>
      <trkpt lat="49.326557" lon="19.354968"></trkpt>
      <trkpt lat="49.327438" lon="19.355943"></trkpt>
      <trkpt lat="49.32803" lon="19.356994"></trkpt>
      <trkpt lat="49.328009" lon="19.35761"></trkpt>
      <trkpt lat="49.327424" lon="19.359464"></trkpt>
      <trkpt lat="49.327432" lon="19.360103"></trkpt>
      <trkpt lat="49.331152" lon="19.378563"></trkpt>
      <trkpt lat="49.331967" lon="19.382004"></trkpt>
      <trkpt lat="49.332338" lon="19.382323"></trkpt>
      <trkpt lat="49.333275" lon="19.382606"></trkpt>
      <trkpt lat="49.335514" lon="19.382918"></trkpt>
      <trkpt lat="49.336144" lon="19.382872"></trkpt>
      <trkpt lat="49.337125" lon="19.382565"></trkpt>
      <trkpt lat="49.337701" lon="19.382602"></trkpt>
      <trkpt lat="49.338666" lon="19.382891"></trkpt>
      <trkpt lat="49.340676" lon="19.383916"></trkpt>
      <trkpt lat="49.342057" lon="19.383993"></trkpt>
      <trkpt lat="49.342796" lon="19.384344"></trkpt>
      <trkpt lat="49.345188" lon="19.386652"></trkpt>
      <trkpt lat="49.349646" lon="19.39193"></trkpt>
      <trkpt lat="49.352369" lon="19.394235"></trkpt>
      <trkpt lat="49.353267" lon="19.395196"></trkpt>
      <trkpt lat="49.355662" lon="19.398731"></trkpt>
      <trkpt lat="49.356572" lon="19.400397"></trkpt>
      <trkpt lat="49.357276" lon="19.401979"></trkpt>
      <trkpt lat="49.358036" lon="19.403179"></trkpt>
      <trkpt lat="49.362941" lon="19.407113"></trkpt>
      <trkpt lat="49.363641" lon="19.407553"></trkpt>
      <trkpt lat="49.364748" lon="19.407789"></trkpt>
      <trkpt lat="49.365147" lon="19.408143"></trkpt>
      <trkpt lat="49.365547" lon="19.408851"></trkpt>
      <trkpt lat="49.366199" lon="19.410516"></trkpt>
      <trkpt lat="49.367665" lon="19.411934"></trkpt>
      <trkpt lat="49.368964" lon="19.413809"></trkpt>
      <trkpt lat="49.372699" lon="19.422119"></trkpt>
      <trkpt lat="49.381593" lon="19.435495"></trkpt>
      <trkpt lat="49.381874" lon="19.436425"></trkpt>
      <trkpt lat="49.382558" lon="19.443378"></trkpt>
      <trkpt lat="49.38276" lon="19.444125"></trkpt>
      <trkpt lat="49.383235" lon="19.445028"></trkpt>
      <trkpt lat="49.384481" lon="19.44669"></trkpt>
      <trkpt lat="49.387221" lon="19.450783"></trkpt>
      <trkpt lat="49.3881" lon="19.451349"></trkpt>
      <trkpt lat="49.390391" lon="19.451476"></trkpt>
      <trkpt lat="49.391671" lon="19.451996"></trkpt>
      <trkpt lat="49.397247" lon="19.457101"></trkpt>
      <trkpt lat="49.398583" lon="19.458381"></trkpt>
      <trkpt lat="49.399254" lon="19.459209"></trkpt>
      <trkpt lat="49.400085" lon="19.461201"></trkpt>
      <trkpt lat="49.400345" lon="19.463279"></trkpt>
      <trkpt lat="49.400934" lon="19.465785"></trkpt>
      <trkpt lat="49.402006" lon="19.471797"></trkpt>
      <trkpt lat="49.402171" lon="19.473052"></trkpt>
      <trkpt lat="49.402038" lon="19.473785"></trkpt>
      <trkpt lat="49.402119" lon="19.474498"></trkpt>
      <trkpt lat="49.402028" lon="19.476295"></trkpt>
      <trkpt lat="49.402263" lon="19.477493"></trkpt>
      <trkpt lat="49.403272" lon="19.479663"></trkpt>
      <trkpt lat="49.404304" lon="19.481283"></trkpt>
      <trkpt lat="49.404353" lon="19.481538"></trkpt>
      <trkpt lat="49.404653" lon="19.481646"></trkpt>
      <trkpt lat="49.405494" lon="19.482664"></trkpt>
      <trkpt lat="49.408147" lon="19.486322"></trkpt>
      <trkpt lat="49.40952" lon="19.487432"></trkpt>
      <trkpt lat="49.414668" lon="19.490203"></trkpt>
      <trkpt lat="49.418171" lon="19.492416"></trkpt>
      <trkpt lat="49.420069" lon="19.493824"></trkpt>
      <trkpt lat="49.430228" lon="19.502166"></trkpt>
      <trkpt lat="49.432" lon="19.50289"></trkpt>
      <trkpt lat="49.43744" lon="19.50422"></trkpt>
      <trkpt lat="49.438337" lon="19.504642"></trkpt>
      <trkpt lat="49.439082" lon="19.505389"></trkpt>
      <trkpt lat="49.439719" lon="19.506717"></trkpt>
      <trkpt lat="49.439967" lon="19.508252"></trkpt>
      <trkpt lat="49.440009" lon="19.511299"></trkpt>
      <trkpt lat="49.440127" lon="19.51163"></trkpt>
      <trkpt lat="49.44028" lon="19.511735"></trkpt>
      <trkpt lat="49.441951" lon="19.51108"></trkpt>
      <trkpt lat="49.444073" lon="19.510897"></trkpt>
      <trkpt lat="49.445414" lon="19.511161"></trkpt>
      <trkpt lat="49.446485" lon="19.5109"></trkpt>
      <trkpt lat="49.449344" lon="19.509787"></trkpt>
      <trkpt lat="49.451217" lon="19.509311"></trkpt>
      <trkpt lat="49.452895" lon="19.507853"></trkpt>
      <trkpt lat="49.453976" lon="19.507234"></trkpt>
      <trkpt lat="49.455098" lon="19.506761"></trkpt>
      <trkpt lat="49.467035" lon="19.498872"></trkpt>
      <trkpt lat="49.4728" lon="19.493422"></trkpt>
      <trkpt lat="49.477766" lon="19.488099"></trkpt>
      <trkpt lat="49.478156" lon="19.487332"></trkpt>
      <trkpt lat="49.479468" lon="19.482811"></trkpt>
      <trkpt lat="49.479942" lon="19.481857"></trkpt>
      <trkpt lat="49.485354" lon="19.475502"></trkpt>
      <trkpt lat="49.493788" lon="19.468682"></trkpt>
      <trkpt lat="49.50069" lon="19.464872"></trkpt>
      <trkpt lat="49.502849" lon="19.464054"></trkpt>
      <trkpt lat="49.508455" lon="19.460147"></trkpt>
      <trkpt lat="49.522113" lon="19.445296"></trkpt>
      <trkpt lat="49.526356" lon="19.440528"></trkpt>
      <trkpt lat="49.530849" lon="19.434794"></trkpt>
      <trkpt lat="49.533011" lon="19.431232"></trkpt>
      <trkpt lat="49.535064" lon="19.429396"></trkpt>
      <trkpt lat="49.53755" lon="19.427991"></trkpt>
      <trkpt lat="49.539743" lon="19.426082"></trkpt>
      <trkpt lat="49.540424" lon="19.424896"></trkpt>
      <trkpt lat="49.540537" lon="19.424465"></trkpt>
      <trkpt lat="49.54087" lon="19.414595"></trkpt>
      <trkpt lat="49.538682" lon="19.400055"></trkpt>
      <trkpt lat="49.538681" lon="19.399482"></trkpt>
      <trkpt lat="49.541543" lon="19.390428"></trkpt>
      <trkpt lat="49.542818" lon="19.381222"></trkpt>
      <trkpt lat="49.543205" lon="19.37651"></trkpt>
      <trkpt lat="49.543339" lon="19.376038"></trkpt>
      <trkpt lat="49.544465" lon="19.374032"></trkpt>
      <trkpt lat="49.544879" lon="19.372684"></trkpt>
      <trkpt lat="49.544995" lon="19.371003"></trkpt>
      <trkpt lat="49.544983" lon="19.367804"></trkpt>
      <trkpt lat="49.54636" lon="19.365984"></trkpt>
      <trkpt lat="49.548333" lon="19.364614"></trkpt>
      <trkpt lat="49.550912" lon="19.361726"></trkpt>
      <trkpt lat="49.551461" lon="19.360868"></trkpt>
      <trkpt lat="49.552088" lon="19.359296"></trkpt>
      <trkpt lat="49.553378" lon="19.358041"></trkpt>
      <trkpt lat="49.554034" lon="19.357038"></trkpt>
      <trkpt lat="49.554777" lon="19.356609"></trkpt>
      <trkpt lat="49.555551" lon="19.354925"></trkpt>
      <trkpt lat="49.55617" lon="19.354425"></trkpt>
      <trkpt lat="49.557603" lon="19.353763"></trkpt>
      <trkpt lat="49.557928" lon="19.353798"></trkpt>
      <trkpt lat="49.559936" lon="19.354561"></trkpt>
      <trkpt lat="49.56083" lon="19.35509"></trkpt>
      <trkpt lat="49.561267" lon="19.355046"></trkpt>
      <trkpt lat="49.56223" lon="19.354579"></trkpt>
      <trkpt lat="49.56257" lon="19.35402"></trkpt>
      <trkpt lat="49.563586" lon="19.353601"></trkpt>
      <trkpt lat="49.564824" lon="19.352324"></trkpt>
      <trkpt lat="49.565523" lon="19.351758"></trkpt>
      <trkpt lat="49.567986" lon="19.350133"></trkpt>
      <trkpt lat="49.569694" lon="19.349293"></trkpt>
      <trkpt lat="49.57012" lon="19.348652"></trkpt>
      <trkpt lat="49.570944" lon="19.346105"></trkpt>
      <trkpt lat="49.573456" lon="19.343865"></trkpt>
      <trkpt lat="49.576717" lon="19.344353"></trkpt>
      <trkpt lat="49.577949" lon="19.344883"></trkpt>
      <trkpt lat="49.579202" lon="19.344858"></trkpt>
      <trkpt lat="49.580585" lon="19.344287"></trkpt>
      <trkpt lat="49.58284" lon="19.343816"></trkpt>
      <trkpt lat="49.585084" lon="19.342564"></trkpt>
      <trkpt lat="49.585774" lon="19.342356"></trkpt>
      <trkpt lat="49.586732" lon="19.34267"></trkpt>
      <trkpt lat="49.587469" lon="19.342717"></trkpt>
      <trkpt lat="49.588888" lon="19.343774"></trkpt>
      <trkpt lat="49.589926" lon="19.343718"></trkpt>
      <trkpt lat="49.591713" lon="19.344444"></trkpt>
      <trkpt lat="49.593741" lon="19.344244"></trkpt>
      <trkpt lat="49.594146" lon="19.344081"></trkpt>
      <trkpt lat="49.594737" lon="19.343491"></trkpt>
      <trkpt lat="49.595962" lon="19.34138"></trkpt>
      <trkpt lat="49.596172" lon="19.341218"></trkpt>
      <trkpt lat="49.596681" lon="19.341181"></trkpt>
      <trkpt lat="49.596952" lon="19.340997"></trkpt>
      <trkpt lat="49.597386" lon="19.339939"></trkpt>
      <trkpt lat="49.598326" lon="19.3391"></trkpt>
      <trkpt lat="49.599063" lon="19.338005"></trkpt>
      <trkpt lat="49.599511" lon="19.336349"></trkpt>
      <trkpt lat="49.599808" lon="19.335792"></trkpt>
      <trkpt lat="49.600518" lon="19.33536"></trkpt>
      <trkpt lat="49.602545" lon="19.330544"></trkpt>
      <trkpt lat="49.60307" lon="19.327727"></trkpt>
      <trkpt lat="49.6033" lon="19.327214"></trkpt>
      <trkpt lat="49.604988" lon="19.325699"></trkpt>
      <trkpt lat="49.605746" lon="19.32517"></trkpt>
      <trkpt lat="49.607894" lon="19.324969"></trkpt>
      <trkpt lat="49.608948" lon="19.325108"></trkpt>
      <trkpt lat="49.609715" lon="19.325084"></trkpt>
      <trkpt lat="49.611375" lon="19.325252"></trkpt>
      <trkpt lat="49.61217" lon="19.325538"></trkpt>
      <trkpt lat="49.613677" lon="19.325824"></trkpt>
      <trkpt lat="49.628617" lon="19.330952"></trkpt>
      <trkpt lat="49.628884" lon="19.331146"></trkpt>
      <trkpt lat="49.629636" lon="19.332179"></trkpt>
      <trkpt lat="49.630326" lon="19.333343"></trkpt>
      <trkpt lat="49.630604" lon="19.333425"></trkpt>
      <trkpt lat="49.632093" lon="19.333301"></trkpt>
      <trkpt lat="49.635234" lon="19.331097"></trkpt>
      <trkpt lat="49.636871" lon="19.330897"></trkpt>
      <trkpt lat="49.638554" lon="19.330339"></trkpt>
      <trkpt lat="49.639308" lon="19.329912"></trkpt>
      <trkpt lat="49.639789" lon="19.329118"></trkpt>
      <trkpt lat="49.641802" lon="19.327053"></trkpt>
      <trkpt lat="49.643097" lon="19.326536"></trkpt>
      <trkpt lat="49.643526" lon="19.326246"></trkpt>
      <trkpt lat="49.644563" lon="19.324981"></trkpt>
      <trkpt lat="49.653705" lon="19.315996"></trkpt>
      <trkpt lat="49.655433" lon="19.315167"></trkpt>
      <trkpt lat="49.657198" lon="19.312905"></trkpt>
      <trkpt lat="49.657797" lon="19.312476"></trkpt>
      <trkpt lat="49.658948" lon="19.312097"></trkpt>
      <trkpt lat="49.659471" lon="19.311546"></trkpt>
      <trkpt lat="49.65969" lon="19.310788"></trkpt>
      <trkpt lat="49.659692" lon="19.309498"></trkpt>
      <trkpt lat="49.659211" lon="19.306379"></trkpt>
      <trkpt lat="49.658568" lon="19.303987"></trkpt>
      <trkpt lat="49.658582" lon="19.299729"></trkpt>
      <trkpt lat="49.65926" lon="19.296707"></trkpt>
      <trkpt lat="49.66058" lon="19.294528"></trkpt>
      <trkpt lat="49.660867" lon="19.293818"></trkpt>
      <trkpt lat="49.661184" lon="19.289299"></trkpt>
      <trkpt lat="49.662016" lon="19.283881"></trkpt>
      <trkpt lat="49.662388" lon="19.282591"></trkpt>
      <trkpt lat="49.662239" lon="19.279015"></trkpt>
      <trkpt lat="49.662442" lon="19.277012"></trkpt>
      <trkpt lat="49.661831" lon="19.275218"></trkpt>
      <trkpt lat="49.661829" lon="19.274375"></trkpt>
      <trkpt lat="49.662612" lon="19.270474"></trkpt>
      <trkpt lat="49.66545" lon="19.259517"></trkpt>
      <trkpt lat="49.665943" lon="19.256553"></trkpt>
      <trkpt lat="49.668451" lon="19.248703"></trkpt>
      <trkpt lat="49.66885" lon="19.248135"></trkpt>
      <trkpt lat="49.669726" lon="19.247337"></trkpt>
      <trkpt lat="49.670017" lon="19.246912"></trkpt>
      <trkpt lat="49.670214" lon="19.244702"></trkpt>
      <trkpt lat="49.670428" lon="19.238644"></trkpt>
      <trkpt lat="49.671449" lon="19.231523"></trkpt>
      <trkpt lat="49.672504" lon="19.227212"></trkpt>
      <trkpt lat="49.672664" lon="19.227009"></trkpt>
      <trkpt lat="49.675254" lon="19.220521"></trkpt>
      <trkpt lat="49.676956" lon="19.216679"></trkpt>
      <trkpt lat="49.677176" lon="19.215586"></trkpt>
      <trkpt lat="49.677518" lon="19.215169"></trkpt>
      <trkpt lat="49.677952" lon="19.213624"></trkpt>
      <trkpt lat="49.679016" lon="19.211812"></trkpt>
      <trkpt lat="49.679477" lon="19.210709"></trkpt>
      <trkpt lat="49.679814" lon="19.209686"></trkpt>
      <trkpt lat="49.679715" lon="19.209473"></trkpt>
      <trkpt lat="49.679581" lon="19.20949"></trkpt>
      <trkpt lat="49.679493" lon="19.209134"></trkpt>
      <trkpt lat="49.67951" lon="19.208304"></trkpt>
      <trkpt lat="49.681774" lon="19.202278"></trkpt>
      <trkpt lat="49.682067" lon="19.201647"></trkpt>
      <trkpt lat="49.682744" lon="19.201035"></trkpt>
      <trkpt lat="49.683779" lon="19.199803"></trkpt>
      <trkpt lat="49.684144" lon="19.19919"></trkpt>
      <trkpt lat="49.68444" lon="19.197113"></trkpt>
      <trkpt lat="49.684656" lon="19.196636"></trkpt>
      <trkpt lat="49.684574" lon="19.196065"></trkpt>
      <trkpt lat="49.684669" lon="19.195809"></trkpt>
      <trkpt lat="49.686325" lon="19.193526"></trkpt>
      <trkpt lat="49.689425" lon="19.190333"></trkpt>
      <trkpt lat="49.689872" lon="19.190011"></trkpt>
      <trkpt lat="49.69072" lon="19.189727"></trkpt>
      <trkpt lat="49.691227" lon="19.189877"></trkpt>
      <trkpt lat="49.691554" lon="19.190372"></trkpt>
      <trkpt lat="49.691826" lon="19.192584"></trkpt>
      <trkpt lat="49.692234" lon="19.193587"></trkpt>
      <trkpt lat="49.692267" lon="19.194017"></trkpt>
      <trkpt lat="49.692551" lon="19.194149"></trkpt>
      <trkpt lat="49.692727" lon="19.193859"></trkpt>
      <trkpt lat="49.692632" lon="19.19334"></trkpt>
      <trkpt lat="49.692652" lon="19.19173"></trkpt>
      <trkpt lat="49.691141" lon="19.182721"></trkpt>
      <trkpt lat="49.691205" lon="19.182042"></trkpt>
      <trkpt lat="49.690926" lon="19.181554"></trkpt>
      <trkpt lat="49.690042" lon="19.178549"></trkpt>
      <trkpt lat="49.689102" lon="19.176644"></trkpt>
      <trkpt lat="49.688463" lon="19.175684"></trkpt>
      <trkpt lat="49.687954" lon="19.175119"></trkpt>
      <trkpt lat="49.685082" lon="19.172574"></trkpt>
      <trkpt lat="49.683281" lon="19.170703"></trkpt>
      <trkpt lat="49.682816" lon="19.169715"></trkpt>
      <trkpt lat="49.682603" lon="19.168659"></trkpt>
      <trkpt lat="49.682596" lon="19.167811"></trkpt>
      <trkpt lat="49.68275" lon="19.166881"></trkpt>
      <trkpt lat="49.684305" lon="19.163355"></trkpt>
      <trkpt lat="49.684759" lon="19.161749"></trkpt>
      <trkpt lat="49.685016" lon="19.160208"></trkpt>
      <trkpt lat="49.685135" lon="19.15743"></trkpt>
      <trkpt lat="49.6849" lon="19.149562"></trkpt>
      <trkpt lat="49.68499" lon="19.148024"></trkpt>
      <trkpt lat="49.685308" lon="19.145918"></trkpt>
      <trkpt lat="49.685847" lon="19.143852"></trkpt>
      <trkpt lat="49.686484" lon="19.14221"></trkpt>
      <trkpt lat="49.687445" lon="19.140412"></trkpt>
      <trkpt lat="49.688471" lon="19.139037"></trkpt>
      <trkpt lat="49.689679" lon="19.137865"></trkpt>
      <trkpt lat="49.690624" lon="19.137203"></trkpt>
      <trkpt lat="49.691923" lon="19.136611"></trkpt>
      <trkpt lat="49.694579" lon="19.135661"></trkpt>
      <trkpt lat="49.695534" lon="19.135071"></trkpt>
      <trkpt lat="49.696503" lon="19.134255"></trkpt>
      <trkpt lat="49.697765" lon="19.132796"></trkpt>
      <trkpt lat="49.704044" lon="19.123578"></trkpt>
      <trkpt lat="49.705544" lon="19.122021"></trkpt>
      <trkpt lat="49.706808" lon="19.121171"></trkpt>
      <trkpt lat="49.707679" lon="19.120776"></trkpt>
      <trkpt lat="49.70857" lon="19.120525"></trkpt>
      <trkpt lat="49.710249" lon="19.120426"></trkpt>
      <trkpt lat="49.711821" lon="19.12079"></trkpt>
      <trkpt lat="49.714866" lon="19.122056"></trkpt>
      <trkpt lat="49.716081" lon="19.12241"></trkpt>
      <trkpt lat="49.717598" lon="19.122492"></trkpt>
      <trkpt lat="49.718717" lon="19.122302"></trkpt>
      <trkpt lat="49.719986" lon="19.121819"></trkpt>
      <trkpt lat="49.7309" lon="19.116553"></trkpt>
      <trkpt lat="49.734064" lon="19.114843"></trkpt>
      <trkpt lat="49.735629" lon="19.11348"></trkpt>
      <trkpt lat="49.736644" lon="19.112319"></trkpt>
      <trkpt lat="49.737712" lon="19.110803"></trkpt>
      <trkpt lat="49.738668" lon="19.109093"></trkpt>
      <trkpt lat="49.739535" lon="19.107106"></trkpt>
      <trkpt lat="49.740321" lon="19.104665"></trkpt>
      <trkpt lat="49.741892" lon="19.097298"></trkpt>
      <trkpt lat="49.742567" lon="19.095082"></trkpt>
      <trkpt lat="49.743232" lon="19.093564"></trkpt>
      <trkpt lat="49.743892" lon="19.092397"></trkpt>
      <trkpt lat="49.744743" lon="19.091209"></trkpt>
      <trkpt lat="49.745893" lon="19.090028"></trkpt>
      <trkpt lat="49.747276" lon="19.089056"></trkpt>
      <trkpt lat="49.748757" lon="19.088461"></trkpt>
      <trkpt lat="49.755594" lon="19.08731"></trkpt>
      <trkpt lat="49.7575" lon="19.086737"></trkpt>
      <trkpt lat="49.758646" lon="19.086127"></trkpt>
      <trkpt lat="49.764475" lon="19.082361"></trkpt>
      <trkpt lat="49.766182" lon="19.081522"></trkpt>
      <trkpt lat="49.767774" lon="19.081222"></trkpt>
      <trkpt lat="49.770557" lon="19.08127"></trkpt>
      <trkpt lat="49.771446" lon="19.081076"></trkpt>
      <trkpt lat="49.77249" lon="19.080602"></trkpt>
      <trkpt lat="49.773877" lon="19.079488"></trkpt>
      <trkpt lat="49.776686" lon="19.075997"></trkpt>
      <trkpt lat="49.778088" lon="19.074425"></trkpt>
      <trkpt lat="49.783338" lon="19.069233"></trkpt>
      <trkpt lat="49.784146" lon="19.068535"></trkpt>
      <trkpt lat="49.784745" lon="19.068223"></trkpt>
      <trkpt lat="49.785275" lon="19.068129"></trkpt>
      <trkpt lat="49.785888" lon="19.068234"></trkpt>
      <trkpt lat="49.786445" lon="19.068542"></trkpt>
      <trkpt lat="49.786854" lon="19.068924"></trkpt>
      <trkpt lat="49.787495" lon="19.069805"></trkpt>
      <trkpt lat="49.789443" lon="19.073513"></trkpt>
      <trkpt lat="49.789946" lon="19.07412"></trkpt>
      <trkpt lat="49.790566" lon="19.074566"></trkpt>
      <trkpt lat="49.791478" lon="19.074757"></trkpt>
      <trkpt lat="49.793863" lon="19.074648"></trkpt>
      <trkpt lat="49.795122" lon="19.074755"></trkpt>
      <trkpt lat="49.796669" lon="19.075108"></trkpt>
      <trkpt lat="49.797489" lon="19.075539"></trkpt>
      <trkpt lat="49.798534" lon="19.076657"></trkpt>
      <trkpt lat="49.799713" lon="19.078843"></trkpt>
      <trkpt lat="49.800348" lon="19.079757"></trkpt>
      <trkpt lat="49.800951" lon="19.080365"></trkpt>
      <trkpt lat="49.80193" lon="19.080978"></trkpt>
      <trkpt lat="49.802991" lon="19.08122"></trkpt>
      <trkpt lat="49.806232" lon="19.081209"></trkpt>
      <trkpt lat="49.807587" lon="19.08131"></trkpt>
      <trkpt lat="49.814839" lon="19.082603"></trkpt>
      <trkpt lat="49.815424" lon="19.082845"></trkpt>
      <trkpt lat="49.816181" lon="19.083369"></trkpt>
      <trkpt lat="49.816699" lon="19.083892"></trkpt>
      <trkpt lat="49.818201" lon="19.085862"></trkpt>
      <trkpt lat="49.818794" lon="19.086386"></trkpt>
      <trkpt lat="49.819512" lon="19.086813"></trkpt>
      <trkpt lat="49.820566" lon="19.087119"></trkpt>
      <trkpt lat="49.821717" lon="19.087127"></trkpt>
      <trkpt lat="49.82272" lon="19.086925"></trkpt>
      <trkpt lat="49.827173" lon="19.084952"></trkpt>
      <trkpt lat="49.828514" lon="19.084494"></trkpt>
      <trkpt lat="49.829719" lon="19.084376"></trkpt>
      <trkpt lat="49.831343" lon="19.084645"></trkpt>
      <trkpt lat="49.837516" lon="19.087108"></trkpt>
      <trkpt lat="49.839666" lon="19.088381"></trkpt>
      <trkpt lat="49.841501" lon="19.089994"></trkpt>
      <trkpt lat="49.843779" lon="19.092582"></trkpt>
      <trkpt lat="49.844262" lon="19.094261"></trkpt>
      <trkpt lat="49.844693" lon="19.094528"></trkpt>
      <trkpt lat="49.845041" lon="19.094349"></trkpt>
      <trkpt lat="49.845272" lon="19.093861"></trkpt>
      <trkpt lat="49.845222" lon="19.093123"></trkpt>
      <trkpt lat="49.843782" lon="19.090356"></trkpt>
      <trkpt lat="49.843517" lon="19.089406"></trkpt>
      <trkpt lat="49.843161" lon="19.083583"></trkpt>
      <trkpt lat="49.843139" lon="19.080936"></trkpt>
      <trkpt lat="49.843246" lon="19.079153"></trkpt>
      <trkpt lat="49.844191" lon="19.071026"></trkpt>
      <trkpt lat="49.844545" lon="19.069211"></trkpt>
      <trkpt lat="49.845205" lon="19.067192"></trkpt>
      <trkpt lat="49.846365" lon="19.064617"></trkpt>
      <trkpt lat="49.846756" lon="19.063447"></trkpt>
      <trkpt lat="49.847739" lon="19.058678"></trkpt>
      <trkpt lat="49.849018" lon="19.054843"></trkpt>
      <trkpt lat="49.849682" lon="19.050843"></trkpt>
      <trkpt lat="49.850994" lon="19.045078"></trkpt>
      <trkpt lat="49.85112" lon="19.043391"></trkpt>
      <trkpt lat="49.850997" lon="19.04185"></trkpt>
      <trkpt lat="49.849545" lon="19.034918"></trkpt>
      <trkpt lat="49.849487" lon="19.034199"></trkpt>
      <trkpt lat="49.849498" lon="19.033026"></trkpt>
      <trkpt lat="49.849755" lon="19.031591"></trkpt>
      <trkpt lat="49.850209" lon="19.030478"></trkpt>
      <trkpt lat="49.850628" lon="19.029862"></trkpt>
      <trkpt lat="49.851871" lon="19.028833"></trkpt>
      <trkpt lat="49.856259" lon="19.027198"></trkpt>
      <trkpt lat="49.857084" lon="19.026705"></trkpt>
      <trkpt lat="49.858048" lon="19.025786"></trkpt>
      <trkpt lat="49.858721" lon="19.024922"></trkpt>
      <trkpt lat="49.859421" lon="19.023681"></trkpt>
      <trkpt lat="49.862617" lon="19.016079"></trkpt>
      <trkpt lat="49.863172" lon="19.015018"></trkpt>
      <trkpt lat="49.876444" lon="18.999282"></trkpt>
      <trkpt lat="49.877615" lon="18.998252"></trkpt>
      <trkpt lat="49.878523" lon="18.997878"></trkpt>
      <trkpt lat="49.87951" lon="18.997839"></trkpt>
      <trkpt lat="49.880305" lon="18.998107"></trkpt>
      <trkpt lat="49.882475" lon="18.999237"></trkpt>
      <trkpt lat="49.883375" lon="18.999363"></trkpt>
      <trkpt lat="49.884045" lon="18.999257"></trkpt>
      <trkpt lat="49.884609" lon="18.999032"></trkpt>
      <trkpt lat="49.885508" lon="18.998456"></trkpt>
      <trkpt lat="49.886227" lon="18.997952"></trkpt>
      <trkpt lat="49.886548" lon="18.99755"></trkpt>
      <trkpt lat="49.891057" lon="18.994378"></trkpt>
      <trkpt lat="49.89136" lon="18.994356"></trkpt>
      <trkpt lat="49.892789" lon="18.99339"></trkpt>
      <trkpt lat="49.893722" lon="18.992937"></trkpt>
      <trkpt lat="49.895542" lon="18.992528"></trkpt>
      <trkpt lat="49.906701" lon="18.991384"></trkpt>
      <trkpt lat="49.907536" lon="18.990987"></trkpt>
      <trkpt lat="49.909857" lon="18.989213"></trkpt>
      <trkpt lat="49.910495" lon="18.988882"></trkpt>
      <trkpt lat="49.911213" lon="18.988707"></trkpt>
      <trkpt lat="49.915606" lon="18.988834"></trkpt>
      <trkpt lat="49.918401" lon="18.989046"></trkpt>
      <trkpt lat="49.919061" lon="18.989314"></trkpt>
      <trkpt lat="49.919759" lon="18.989794"></trkpt>
      <trkpt lat="49.923218" lon="18.993016"></trkpt>
      <trkpt lat="49.923757" lon="18.993313"></trkpt>
      <trkpt lat="49.92456" lon="18.993565"></trkpt>
      <trkpt lat="49.925729" lon="18.993528"></trkpt>
      <trkpt lat="49.927879" lon="18.992531"></trkpt>
      <trkpt lat="49.928894" lon="18.991906"></trkpt>
      <trkpt lat="49.936475" lon="18.984841"></trkpt>
      <trkpt lat="49.941919" lon="18.982508"></trkpt>
      <trkpt lat="49.942641" lon="18.981988"></trkpt>
      <trkpt lat="49.943482" lon="18.980784"></trkpt>
      <trkpt lat="49.9455" lon="18.974688"></trkpt>
      <trkpt lat="49.946094" lon="18.973526"></trkpt>
      <trkpt lat="49.946534" lon="18.973016"></trkpt>
      <trkpt lat="49.953254" lon="18.967162"></trkpt>
      <trkpt lat="49.965" lon="18.958799"></trkpt>
      <trkpt lat="49.965567" lon="18.958452"></trkpt>
      <trkpt lat="49.966317" lon="18.958218"></trkpt>
      <trkpt lat="49.966368" lon="18.957134"></trkpt>
      <trkpt lat="49.969615" lon="18.94756"></trkpt>
      <trkpt lat="49.969861" lon="18.947151"></trkpt>
      <trkpt lat="49.969819" lon="18.946913"></trkpt>
      <trkpt lat="49.970925" lon="18.942713"></trkpt>
      <trkpt lat="49.972512" lon="18.9437"></trkpt>
      <trkpt lat="49.972708" lon="18.943681"></trkpt>
      <trkpt lat="49.973339" lon="18.943214"></trkpt>
      <trkpt lat="49.974024" lon="18.945362"></trkpt>
      <trkpt lat="49.974293" lon="18.945002"></trkpt>
      <trkpt lat="49.975708" lon="18.943907"></trkpt>
      <trkpt lat="49.976945" lon="18.94341"></trkpt>
      <trkpt lat="49.977521" lon="18.944456"></trkpt>
      <trkpt lat="49.978037" lon="18.944921"></trkpt>
      <trkpt lat="49.978673" lon="18.944743"></trkpt>
      <trkpt lat="49.979052" lon="18.943595"></trkpt>
      <trkpt lat="49.978972" lon="18.942979"></trkpt>
      <trkpt lat="49.978555" lon="18.943086"></trkpt>
      <trkpt lat="49.978436" lon="18.942095"></trkpt>
      <trkpt lat="49.977963" lon="18.942214"></trkpt>
      <trkpt lat="49.977826" lon="18.941648"></trkpt>
      <trkpt lat="49.978596" lon="18.941443"></trkpt>
      <trkpt lat="49.978972" lon="18.942979"></trkpt>
      <trkpt lat="49.978555" lon="18.943086"></trkpt>
      <trkpt lat="49.978612" lon="18.943701"></trkpt>
      <trkpt lat="49.977317" lon="18.9441"></trkpt>
      <trkpt lat="49.976945" lon="18.94341"></trkpt>
      <trkpt lat="49.975682" lon="18.94393"></trkpt>
      <trkpt lat="49.975248" lon="18.941376"></trkpt>
      <trkpt lat="49.975757" lon="18.939061"></trkpt>
      <trkpt lat="49.975504" lon="18.93837"></trkpt>
      <trkpt lat="49.974602" lon="18.937435"></trkpt>
      <trkpt lat="49.974607" lon="18.937054"></trkpt>
      <trkpt lat="49.974947" lon="18.936858"></trkpt>
      <trkpt lat="49.975683" lon="18.936726"></trkpt>
      <trkpt lat="49.976906" lon="18.936816"></trkpt>
      <trkpt lat="49.9771" lon="18.936742"></trkpt>
      <trkpt lat="49.977474" lon="18.936086"></trkpt>
      <trkpt lat="49.977893" lon="18.935667"></trkpt>
      <trkpt lat="49.98068" lon="18.933853"></trkpt>
      <trkpt lat="49.981627" lon="18.93287"></trkpt>
      <trkpt lat="49.983227" lon="18.929494"></trkpt>
      <trkpt lat="49.986698" lon="18.923638"></trkpt>
      <trkpt lat="49.987284" lon="18.922243"></trkpt>
      <trkpt lat="49.997606" lon="18.893553"></trkpt>
      <trkpt lat="49.997803" lon="18.893673"></trkpt>
      <trkpt lat="49.99787" lon="18.893918"></trkpt>
      <trkpt lat="49.997905" lon="18.894921"></trkpt>
      <trkpt lat="49.998101" lon="18.896106"></trkpt>
      <trkpt lat="50.001104" lon="18.904712"></trkpt>
      <trkpt lat="50.001717" lon="18.907994"></trkpt>
      <trkpt lat="50.001861" lon="18.910769"></trkpt>
      <trkpt lat="50.001345" lon="18.919329"></trkpt>
      <trkpt lat="50.001618" lon="18.927674"></trkpt>
      <trkpt lat="50.001548" lon="18.930608"></trkpt>
      <trkpt lat="50.001262" lon="18.932664"></trkpt>
      <trkpt lat="50.000785" lon="18.934617"></trkpt>
      <trkpt lat="49.998139" lon="18.941662"></trkpt>
      <trkpt lat="49.997735" lon="18.943325"></trkpt>
      <trkpt lat="49.997573" lon="18.945968"></trkpt>
      <trkpt lat="49.997853" lon="18.949878"></trkpt>
      <trkpt lat="49.998099" lon="18.950465"></trkpt>
      <trkpt lat="49.998393" lon="18.950595"></trkpt>
      <trkpt lat="49.998587" lon="18.950537"></trkpt>
      <trkpt lat="49.999118" lon="18.94962"></trkpt>
      <trkpt lat="49.999364" lon="18.949405"></trkpt>
      <trkpt lat="49.999898" lon="18.949454"></trkpt>
      <trkpt lat="50.004558" lon="18.952099"></trkpt>
      <trkpt lat="50.005299" lon="18.952633"></trkpt>
      <trkpt lat="50.006202" lon="18.953602"></trkpt>
      <trkpt lat="50.00772" lon="18.955914"></trkpt>
      <trkpt lat="50.008932" lon="18.957036"></trkpt>
      <trkpt lat="50.010231" lon="18.957627"></trkpt>
      <trkpt lat="50.011657" lon="18.957698"></trkpt>
      <trkpt lat="50.012388" lon="18.9575"></trkpt>
      <trkpt lat="50.013084" lon="18.95715"></trkpt>
      <trkpt lat="50.014031" lon="18.956387"></trkpt>
      <trkpt lat="50.014671" lon="18.955628"></trkpt>
      <trkpt lat="50.015419" lon="18.954373"></trkpt>
      <trkpt lat="50.018235" lon="18.948743"></trkpt>
      <trkpt lat="50.022096" lon="18.943698"></trkpt>
      <trkpt lat="50.022894" lon="18.942818"></trkpt>
      <trkpt lat="50.023765" lon="18.942069"></trkpt>
      <trkpt lat="50.024718" lon="18.941453"></trkpt>
      <trkpt lat="50.02566" lon="18.941032"></trkpt>
      <trkpt lat="50.027402" lon="18.940683"></trkpt>
      <trkpt lat="50.028854" lon="18.940748"></trkpt>
      <trkpt lat="50.047335" lon="18.943027"></trkpt>
      <trkpt lat="50.04811" lon="18.943182"></trkpt>
      <trkpt lat="50.049185" lon="18.943605"></trkpt>
      <trkpt lat="50.050109" lon="18.944228"></trkpt>
      <trkpt lat="50.050988" lon="18.945059"></trkpt>
      <trkpt lat="50.051806" lon="18.946118"></trkpt>
      <trkpt lat="50.052423" lon="18.94715"></trkpt>
      <trkpt lat="50.064413" lon="18.972897"></trkpt>
      <trkpt lat="50.074245" lon="18.995454"></trkpt>
      <trkpt lat="50.075377" lon="18.997677"></trkpt>
      <trkpt lat="50.076352" lon="18.999048"></trkpt>
      <trkpt lat="50.077123" lon="18.999891"></trkpt>
      <trkpt lat="50.078429" lon="19.000934"></trkpt>
      <trkpt lat="50.079424" lon="19.001475"></trkpt>
      <trkpt lat="50.087956" lon="19.005269"></trkpt>
      <trkpt lat="50.090209" lon="19.006148"></trkpt>
      <trkpt lat="50.091404" lon="19.006335"></trkpt>
      <trkpt lat="50.092724" lon="19.006299"></trkpt>
      <trkpt lat="50.094036" lon="19.005969"></trkpt>
      <trkpt lat="50.097147" lon="19.004907"></trkpt>
      <trkpt lat="50.098624" lon="19.004869"></trkpt>
      <trkpt lat="50.099886" lon="19.005229"></trkpt>
      <trkpt lat="50.105267" lon="19.007708"></trkpt>
      <trkpt lat="50.10615" lon="19.007842"></trkpt>
      <trkpt lat="50.108199" lon="19.007573"></trkpt>
      <trkpt lat="50.109106" lon="19.007836"></trkpt>
      <trkpt lat="50.109938" lon="19.008417"></trkpt>
      <trkpt lat="50.111896" lon="19.010382"></trkpt>
      <trkpt lat="50.112576" lon="19.010878"></trkpt>
      <trkpt lat="50.113273" lon="19.011173"></trkpt>
      <trkpt lat="50.115108" lon="19.011502"></trkpt>
      <trkpt lat="50.115852" lon="19.011888"></trkpt>
      <trkpt lat="50.11636" lon="19.012297"></trkpt>
      <trkpt lat="50.117344" lon="19.013565"></trkpt>
      <trkpt lat="50.119986" lon="19.01817"></trkpt>
      <trkpt lat="50.123836" lon="19.022012"></trkpt>
      <trkpt lat="50.124948" lon="19.022937"></trkpt>
      <trkpt lat="50.12572" lon="19.023481"></trkpt>
      <trkpt lat="50.127645" lon="19.024505"></trkpt>
      <trkpt lat="50.129612" lon="19.025051"></trkpt>
      <trkpt lat="50.131989" lon="19.025333"></trkpt>
      <trkpt lat="50.132572" lon="19.025589"></trkpt>
      <trkpt lat="50.133295" lon="19.026032"></trkpt>
      <trkpt lat="50.134136" lon="19.02704"></trkpt>
      <trkpt lat="50.13463" lon="19.028069"></trkpt>
      <trkpt lat="50.134958" lon="19.029213"></trkpt>
      <trkpt lat="50.139268" lon="19.053647"></trkpt>
      <trkpt lat="50.139765" lon="19.057104"></trkpt>
      <trkpt lat="50.140032" lon="19.060045"></trkpt>
      <trkpt lat="50.142215" lon="19.094896"></trkpt>
      <trkpt lat="50.142468" lon="19.097409"></trkpt>
      <trkpt lat="50.142805" lon="19.09911"></trkpt>
      <trkpt lat="50.143409" lon="19.101092"></trkpt>
      <trkpt lat="50.144232" lon="19.102972"></trkpt>
      <trkpt lat="50.151758" lon="19.115968"></trkpt>
      <trkpt lat="50.152806" lon="19.118096"></trkpt>
      <trkpt lat="50.153719" lon="19.120508"></trkpt>
      <trkpt lat="50.154354" lon="19.122867"></trkpt>
      <trkpt lat="50.154782" lon="19.125166"></trkpt>
      <trkpt lat="50.156411" lon="19.139987"></trkpt>
      <trkpt lat="50.157084" lon="19.143973"></trkpt>
      <trkpt lat="50.157665" lon="19.145907"></trkpt>
      <trkpt lat="50.158375" lon="19.147454"></trkpt>
      <trkpt lat="50.159242" lon="19.148794"></trkpt>
      <trkpt lat="50.163583" lon="19.153749"></trkpt>
      <trkpt lat="50.164025" lon="19.154511"></trkpt>
      <trkpt lat="50.16502" lon="19.155725"></trkpt>
      <trkpt lat="50.165818" lon="19.156951"></trkpt>
      <trkpt lat="50.166949" lon="19.159408"></trkpt>
      <trkpt lat="50.169339" lon="19.166209"></trkpt>
      <trkpt lat="50.16994" lon="19.167382"></trkpt>
      <trkpt lat="50.170638" lon="19.168284"></trkpt>
      <trkpt lat="50.171363" lon="19.1689"></trkpt>
      <trkpt lat="50.172016" lon="19.169252"></trkpt>
      <trkpt lat="50.172765" lon="19.169455"></trkpt>
      <trkpt lat="50.173457" lon="19.169471"></trkpt>
      <trkpt lat="50.186669" lon="19.166627"></trkpt>
      <trkpt lat="50.188219" lon="19.166456"></trkpt>
      <trkpt lat="50.189693" lon="19.166654"></trkpt>
      <trkpt lat="50.196893" lon="19.168634"></trkpt>
      <trkpt lat="50.197832" lon="19.168816"></trkpt>
      <trkpt lat="50.198778" lon="19.168838"></trkpt>
      <trkpt lat="50.20037" lon="19.168448"></trkpt>
      <trkpt lat="50.204494" lon="19.166524"></trkpt>
      <trkpt lat="50.205283" lon="19.166295"></trkpt>
      <trkpt lat="50.206454" lon="19.166237"></trkpt>
      <trkpt lat="50.209784" lon="19.166714"></trkpt>
      <trkpt lat="50.211486" lon="19.1673"></trkpt>
      <trkpt lat="50.213609" lon="19.168605"></trkpt>
      <trkpt lat="50.216858" lon="19.171577"></trkpt>
      <trkpt lat="50.218227" lon="19.172272"></trkpt>
      <trkpt lat="50.219369" lon="19.172524"></trkpt>
      <trkpt lat="50.220618" lon="19.172475"></trkpt>
      <trkpt lat="50.222063" lon="19.171986"></trkpt>
      <trkpt lat="50.223092" lon="19.171323"></trkpt>
      <trkpt lat="50.226563" lon="19.16843"></trkpt>
      <trkpt lat="50.22763" lon="19.167843"></trkpt>
      <trkpt lat="50.229001" lon="19.167526"></trkpt>
      <trkpt lat="50.230077" lon="19.167582"></trkpt>
      <trkpt lat="50.231321" lon="19.167979"></trkpt>
      <trkpt lat="50.232256" lon="19.168553"></trkpt>
      <trkpt lat="50.234397" lon="19.170273"></trkpt>
      <trkpt lat="50.235587" lon="19.1708"></trkpt>
      <trkpt lat="50.236807" lon="19.170815"></trkpt>
      <trkpt lat="50.24051" lon="19.170141"></trkpt>
      <trkpt lat="50.241396" lon="19.170226"></trkpt>
      <trkpt lat="50.242029" lon="19.170454"></trkpt>
      <trkpt lat="50.242793" lon="19.170978"></trkpt>
      <trkpt lat="50.243362" lon="19.171549"></trkpt>
      <trkpt lat="50.250626" lon="19.181191"></trkpt>
      <trkpt lat="50.256815" lon="19.187282"></trkpt>
      <trkpt lat="50.259611" lon="19.190292"></trkpt>
      <trkpt lat="50.260392" lon="19.190861"></trkpt>
      <trkpt lat="50.261127" lon="19.191159"></trkpt>
      <trkpt lat="50.261916" lon="19.191267"></trkpt>
      <trkpt lat="50.264237" lon="19.191159"></trkpt>
      <trkpt lat="50.265198" lon="19.191316"></trkpt>
      <trkpt lat="50.265999" lon="19.191736"></trkpt>
      <trkpt lat="50.266896" lon="19.192533"></trkpt>
      <trkpt lat="50.267753" lon="19.193848"></trkpt>
      <trkpt lat="50.268254" lon="19.195123"></trkpt>
      <trkpt lat="50.268567" lon="19.196515"></trkpt>
      <trkpt lat="50.269065" lon="19.199945"></trkpt>
      <trkpt lat="50.269533" lon="19.201679"></trkpt>
      <trkpt lat="50.270096" lon="19.203089"></trkpt>
      <trkpt lat="50.271131" lon="19.204879"></trkpt>
      <trkpt lat="50.272037" lon="19.205947"></trkpt>
      <trkpt lat="50.274663" lon="19.208435"></trkpt>
      <trkpt lat="50.275653" lon="19.209149"></trkpt>
      <trkpt lat="50.27807" lon="19.210584"></trkpt>
      <trkpt lat="50.278938" lon="19.211262"></trkpt>
      <trkpt lat="50.281922" lon="19.214569"></trkpt>
      <trkpt lat="50.283083" lon="19.215624"></trkpt>
      <trkpt lat="50.283979" lon="19.216221"></trkpt>
      <trkpt lat="50.285208" lon="19.216765"></trkpt>
      <trkpt lat="50.291971" lon="19.218211"></trkpt>
      <trkpt lat="50.293888" lon="19.218884"></trkpt>
      <trkpt lat="50.305139" lon="19.224988"></trkpt>
      <trkpt lat="50.30633" lon="19.225751"></trkpt>
      <trkpt lat="50.307621" lon="19.226964"></trkpt>
      <trkpt lat="50.313034" lon="19.233968"></trkpt>
      <trkpt lat="50.313556" lon="19.234539"></trkpt>
      <trkpt lat="50.314725" lon="19.235493"></trkpt>
      <trkpt lat="50.341024" lon="19.249178"></trkpt>
      <trkpt lat="50.342712" lon="19.24989"></trkpt>
      <trkpt lat="50.344438" lon="19.250366"></trkpt>
      <trkpt lat="50.345874" lon="19.250519"></trkpt>
      <trkpt lat="50.365715" lon="19.250761"></trkpt>
      <trkpt lat="50.366998" lon="19.250595"></trkpt>
      <trkpt lat="50.368406" lon="19.250069"></trkpt>
      <trkpt lat="50.369817" lon="19.249137"></trkpt>
      <trkpt lat="50.386818" lon="19.234789"></trkpt>
      <trkpt lat="50.388351" lon="19.233757"></trkpt>
      <trkpt lat="50.390112" lon="19.233028"></trkpt>
      <trkpt lat="50.391998" lon="19.232784"></trkpt>
      <trkpt lat="50.393533" lon="19.232938"></trkpt>
      <trkpt lat="50.397481" lon="19.233814"></trkpt>
      <trkpt lat="50.39883" lon="19.233858"></trkpt>
      <trkpt lat="50.400538" lon="19.233456"></trkpt>
      <trkpt lat="50.401953" lon="19.232675"></trkpt>
      <trkpt lat="50.403237" lon="19.231614"></trkpt>
      <trkpt lat="50.404421" lon="19.230132"></trkpt>
      <trkpt lat="50.405066" lon="19.229108"></trkpt>
      <trkpt lat="50.40733" lon="19.224749"></trkpt>
      <trkpt lat="50.408897" lon="19.222653"></trkpt>
      <trkpt lat="50.409981" lon="19.221655"></trkpt>
      <trkpt lat="50.411121" lon="19.220881"></trkpt>
      <trkpt lat="50.413715" lon="19.219755"></trkpt>
      <trkpt lat="50.415126" lon="19.218899"></trkpt>
      <trkpt lat="50.41677" lon="19.21725"></trkpt>
      <trkpt lat="50.417584" lon="19.216115"></trkpt>
      <trkpt lat="50.418367" lon="19.214698"></trkpt>
      <trkpt lat="50.419143" lon="19.212789"></trkpt>
      <trkpt lat="50.419923" lon="19.209674"></trkpt>
      <trkpt lat="50.420189" lon="19.207145"></trkpt>
      <trkpt lat="50.4204" lon="19.19787"></trkpt>
      <trkpt lat="50.420968" lon="19.191825"></trkpt>
      <trkpt lat="50.421931" lon="19.186264"></trkpt>
      <trkpt lat="50.424607" lon="19.174253"></trkpt>
      <trkpt lat="50.424841" lon="19.172502"></trkpt>
      <trkpt lat="50.425061" lon="19.168059"></trkpt>
      <trkpt lat="50.425318" lon="19.16562"></trkpt>
      <trkpt lat="50.425887" lon="19.162721"></trkpt>
      <trkpt lat="50.426771" lon="19.159867"></trkpt>
      <trkpt lat="50.427404" lon="19.158335"></trkpt>
      <trkpt lat="50.428418" lon="19.156372"></trkpt>
      <trkpt lat="50.429432" lon="19.154828"></trkpt>
      <trkpt lat="50.430778" lon="19.153211"></trkpt>
      <trkpt lat="50.432853" lon="19.151413"></trkpt>
      <trkpt lat="50.44083" lon="19.145467"></trkpt>
      <trkpt lat="50.441832" lon="19.144607"></trkpt>
      <trkpt lat="50.442679" lon="19.143674"></trkpt>
      <trkpt lat="50.444939" lon="19.140181"></trkpt>
      <trkpt lat="50.447664" lon="19.136909"></trkpt>
      <trkpt lat="50.448228" lon="19.136089"></trkpt>
      <trkpt lat="50.449222" lon="19.134128"></trkpt>
      <trkpt lat="50.449974" lon="19.131716"></trkpt>
      <trkpt lat="50.450309" lon="19.12972"></trkpt>
      <trkpt lat="50.450422" lon="19.127428"></trkpt>
      <trkpt lat="50.44994" lon="19.121092"></trkpt>
      <trkpt lat="50.449919" lon="19.119208"></trkpt>
      <trkpt lat="50.450108" lon="19.117035"></trkpt>
      <trkpt lat="50.450437" lon="19.115239"></trkpt>
      <trkpt lat="50.450975" lon="19.113358"></trkpt>
      <trkpt lat="50.451681" lon="19.111627"></trkpt>
      <trkpt lat="50.454442" lon="19.106924"></trkpt>
      <trkpt lat="50.455414" lon="19.10482"></trkpt>
      <trkpt lat="50.456434" lon="19.10145"></trkpt>
      <trkpt lat="50.45694" lon="19.098028"></trkpt>
      <trkpt lat="50.457015" lon="19.095244"></trkpt>
      <trkpt lat="50.456663" lon="19.091547"></trkpt>
      <trkpt lat="50.453152" lon="19.077013"></trkpt>
      <trkpt lat="50.452778" lon="19.07464"></trkpt>
      <trkpt lat="50.45263" lon="19.072437"></trkpt>
      <trkpt lat="50.452687" lon="19.069902"></trkpt>
      <trkpt lat="50.453728" lon="19.060078"></trkpt>
      <trkpt lat="50.453939" lon="19.059417"></trkpt>
      <trkpt lat="50.454429" lon="19.058567"></trkpt>
      <trkpt lat="50.45532" lon="19.057254"></trkpt>
      <trkpt lat="50.455933" lon="19.056756"></trkpt>
      <trkpt lat="50.456522" lon="19.056638"></trkpt>
      <trkpt lat="50.458876" lon="19.056791"></trkpt>
      <trkpt lat="50.461452" lon="19.057367"></trkpt>
      <trkpt lat="50.462697" lon="19.057527"></trkpt>
      <trkpt lat="50.463817" lon="19.057526"></trkpt>
      <trkpt lat="50.465394" lon="19.057257"></trkpt>
      <trkpt lat="50.466861" lon="19.056745"></trkpt>
      <trkpt lat="50.468032" lon="19.056135"></trkpt>
      <trkpt lat="50.474502" lon="19.051661"></trkpt>
      <trkpt lat="50.477218" lon="19.050224"></trkpt>
      <trkpt lat="50.478902" lon="19.049662"></trkpt>
      <trkpt lat="50.480884" lon="19.049297"></trkpt>
      <trkpt lat="50.482071" lon="19.049228"></trkpt>
      <trkpt lat="50.483778" lon="19.049333"></trkpt>
      <trkpt lat="50.485387" lon="19.049635"></trkpt>
      <trkpt lat="50.486451" lon="19.049965"></trkpt>
      <trkpt lat="50.488877" lon="19.051071"></trkpt>
      <trkpt lat="50.491132" lon="19.05253"></trkpt>
      <trkpt lat="50.498053" lon="19.057603"></trkpt>
      <trkpt lat="50.500339" lon="19.059131"></trkpt>
      <trkpt lat="50.502937" lon="19.060626"></trkpt>
      <trkpt lat="50.505576" lon="19.061938"></trkpt>
      <trkpt lat="50.508941" lon="19.063297"></trkpt>
      <trkpt lat="50.513597" lon="19.064636"></trkpt>
      <trkpt lat="50.517547" lon="19.065323"></trkpt>
      <trkpt lat="50.519895" lon="19.065532"></trkpt>
      <trkpt lat="50.523653" lon="19.06555"></trkpt>
      <trkpt lat="50.526876" lon="19.065246"></trkpt>
      <trkpt lat="50.528962" lon="19.064883"></trkpt>
      <trkpt lat="50.561343" lon="19.057587"></trkpt>
      <trkpt lat="50.563096" lon="19.057116"></trkpt>
      <trkpt lat="50.565427" lon="19.056248"></trkpt>
      <trkpt lat="50.56914" lon="19.054553"></trkpt>
      <trkpt lat="50.571406" lon="19.053152"></trkpt>
      <trkpt lat="50.594099" lon="19.037038"></trkpt>
      <trkpt lat="50.597348" lon="19.035004"></trkpt>
      <trkpt lat="50.600593" lon="19.033438"></trkpt>
      <trkpt lat="50.604434" lon="19.03206"></trkpt>
      <trkpt lat="50.607972" lon="19.031343"></trkpt>
      <trkpt lat="50.610139" lon="19.031106"></trkpt>
      <trkpt lat="50.612717" lon="19.03101"></trkpt>
      <trkpt lat="50.615074" lon="19.031144"></trkpt>
      <trkpt lat="50.619828" lon="19.031941"></trkpt>
      <trkpt lat="50.646618" lon="19.037301"></trkpt>
      <trkpt lat="50.65105" lon="19.038484"></trkpt>
      <trkpt lat="50.65401" lon="19.039572"></trkpt>
      <trkpt lat="50.658508" lon="19.04181"></trkpt>
      <trkpt lat="50.661642" lon="19.043634"></trkpt>
      <trkpt lat="50.678656" lon="19.052975"></trkpt>
      <trkpt lat="50.682198" lon="19.054575"></trkpt>
      <trkpt lat="50.684491" lon="19.055349"></trkpt>
      <trkpt lat="50.687523" lon="19.056105"></trkpt>
      <trkpt lat="50.689796" lon="19.0565"></trkpt>
      <trkpt lat="50.692748" lon="19.056747"></trkpt>
      <trkpt lat="50.700046" lon="19.056916"></trkpt>
      <trkpt lat="50.729212" lon="19.057337"></trkpt>
      <trkpt lat="50.731964" lon="19.057115"></trkpt>
      <trkpt lat="50.734054" lon="19.056452"></trkpt>
      <trkpt lat="50.736019" lon="19.055492"></trkpt>
      <trkpt lat="50.738368" lon="19.053778"></trkpt>
      <trkpt lat="50.740045" lon="19.052117"></trkpt>
      <trkpt lat="50.741518" lon="19.050252"></trkpt>
      <trkpt lat="50.743041" lon="19.047886"></trkpt>
      <trkpt lat="50.749338" lon="19.035411"></trkpt>
      <trkpt lat="50.751018" lon="19.03265"></trkpt>
      <trkpt lat="50.753013" lon="19.029879"></trkpt>
      <trkpt lat="50.754513" lon="19.028223"></trkpt>
      <trkpt lat="50.757086" lon="19.025691"></trkpt>
      <trkpt lat="50.777741" lon="19.006343"></trkpt>
      <trkpt lat="50.779993" lon="19.00472"></trkpt>
      <trkpt lat="50.781475" lon="19.003891"></trkpt>
      <trkpt lat="50.78345" lon="19.003048"></trkpt>
      <trkpt lat="50.786213" lon="19.002324"></trkpt>
      <trkpt lat="50.788299" lon="19.002127"></trkpt>
      <trkpt lat="50.790867" lon="19.00228"></trkpt>
      <trkpt lat="50.793098" lon="19.002775"></trkpt>
      <trkpt lat="50.795084" lon="19.003505"></trkpt>
      <trkpt lat="50.7972" lon="19.00461"></trkpt>
      <trkpt lat="50.799607" lon="19.00632"></trkpt>
      <trkpt lat="50.801779" lon="19.008271"></trkpt>
      <trkpt lat="50.810998" lon="19.01707"></trkpt>
      <trkpt lat="50.814052" lon="19.019689"></trkpt>
      <trkpt lat="50.817119" lon="19.02189"></trkpt>
      <trkpt lat="50.819858" lon="19.023536"></trkpt>
      <trkpt lat="50.82243" lon="19.024819"></trkpt>
      <trkpt lat="50.830003" lon="19.027878"></trkpt>
      <trkpt lat="50.833296" lon="19.029395"></trkpt>
      <trkpt lat="50.837157" lon="19.031692"></trkpt>
      <trkpt lat="50.840501" lon="19.034178"></trkpt>
      <trkpt lat="50.844146" lon="19.037505"></trkpt>
      <trkpt lat="50.846727" lon="19.04027"></trkpt>
      <trkpt lat="50.848326" lon="19.042195"></trkpt>
      <trkpt lat="50.85148" lon="19.046517"></trkpt>
      <trkpt lat="50.854732" lon="19.051874"></trkpt>
      <trkpt lat="50.857036" lon="19.056335"></trkpt>
      <trkpt lat="50.862761" lon="19.068176"></trkpt>
      <trkpt lat="50.865737" lon="19.074817"></trkpt>
      <trkpt lat="50.867511" lon="19.079458"></trkpt>
      <trkpt lat="50.868509" lon="19.082406"></trkpt>
      <trkpt lat="50.869688" lon="19.086296"></trkpt>
      <trkpt lat="50.870985" lon="19.091296"></trkpt>
      <trkpt lat="50.872523" lon="19.098848"></trkpt>
      <trkpt lat="50.873595" lon="19.106503"></trkpt>
      <trkpt lat="50.874206" lon="19.113868"></trkpt>
      <trkpt lat="50.875106" lon="19.130485"></trkpt>
      <trkpt lat="50.87561" lon="19.13599"></trkpt>
      <trkpt lat="50.876153" lon="19.140125"></trkpt>
      <trkpt lat="50.87691" lon="19.144583"></trkpt>
      <trkpt lat="50.878166" lon="19.150348"></trkpt>
      <trkpt lat="50.879339" lon="19.15474"></trkpt>
      <trkpt lat="50.880505" lon="19.158491"></trkpt>
      <trkpt lat="50.882636" lon="19.164304"></trkpt>
      <trkpt lat="50.884157" lon="19.167862"></trkpt>
      <trkpt lat="50.887544" lon="19.174538"></trkpt>
      <trkpt lat="50.896662" lon="19.190842"></trkpt>
      <trkpt lat="50.898593" lon="19.194021"></trkpt>
      <trkpt lat="50.902748" lon="19.200408"></trkpt>
      <trkpt lat="50.905273" lon="19.203916"></trkpt>
      <trkpt lat="50.909462" lon="19.209309"></trkpt>
      <trkpt lat="50.913836" lon="19.21438"></trkpt>
      <trkpt lat="50.918519" lon="19.219231"></trkpt>
      <trkpt lat="50.923228" lon="19.223598"></trkpt>
      <trkpt lat="50.928505" lon="19.227877"></trkpt>
      <trkpt lat="50.93272" lon="19.2309"></trkpt>
      <trkpt lat="50.936658" lon="19.233418"></trkpt>
      <trkpt lat="50.942506" lon="19.236824"></trkpt>
      <trkpt lat="50.946063" lon="19.239226"></trkpt>
      <trkpt lat="50.949355" lon="19.241783"></trkpt>
      <trkpt lat="50.953636" lon="19.245633"></trkpt>
      <trkpt lat="50.957278" lon="19.249405"></trkpt>
      <trkpt lat="50.959644" lon="19.252146"></trkpt>
      <trkpt lat="50.971684" lon="19.267395"></trkpt>
      <trkpt lat="50.975421" lon="19.271772"></trkpt>
      <trkpt lat="50.979995" lon="19.276653"></trkpt>
      <trkpt lat="50.984265" lon="19.280793"></trkpt>
      <trkpt lat="50.988113" lon="19.28418"></trkpt>
      <trkpt lat="50.999921" lon="19.293459"></trkpt>
      <trkpt lat="51.002985" lon="19.296154"></trkpt>
      <trkpt lat="51.00755" lon="19.3006"></trkpt>
      <trkpt lat="51.012226" lon="19.305764"></trkpt>
      <trkpt lat="51.0171" lon="19.311858"></trkpt>
      <trkpt lat="51.020959" lon="19.317298"></trkpt>
      <trkpt lat="51.030021" lon="19.330626"></trkpt>
      <trkpt lat="51.034374" lon="19.336478"></trkpt>
      <trkpt lat="51.039545" lon="19.342713"></trkpt>
      <trkpt lat="51.04481" lon="19.348381"></trkpt>
      <trkpt lat="51.048402" lon="19.35187"></trkpt>
      <trkpt lat="51.054073" lon="19.356816"></trkpt>
      <trkpt lat="51.059497" lon="19.360969"></trkpt>
      <trkpt lat="51.064001" lon="19.364003"></trkpt>
      <trkpt lat="51.068125" lon="19.366484"></trkpt>
      <trkpt lat="51.072856" lon="19.369007"></trkpt>
      <trkpt lat="51.077352" lon="19.371075"></trkpt>
      <trkpt lat="51.086674" lon="19.374854"></trkpt>
      <trkpt lat="51.090536" lon="19.376796"></trkpt>
      <trkpt lat="51.093132" lon="19.37829"></trkpt>
      <trkpt lat="51.097118" lon="19.38092"></trkpt>
      <trkpt lat="51.100903" lon="19.3838"></trkpt>
      <trkpt lat="51.103701" lon="19.386167"></trkpt>
      <trkpt lat="51.10672" lon="19.389005"></trkpt>
      <trkpt lat="51.109342" lon="19.391658"></trkpt>
      <trkpt lat="51.12867" lon="19.411745"></trkpt>
      <trkpt lat="51.134227" lon="19.417705"></trkpt>
      <trkpt lat="51.137806" lon="19.421851"></trkpt>
      <trkpt lat="51.14137" lon="19.426211"></trkpt>
      <trkpt lat="51.14532" lon="19.431287"></trkpt>
      <trkpt lat="51.160727" lon="19.452292"></trkpt>
      <trkpt lat="51.164062" lon="19.456237"></trkpt>
      <trkpt lat="51.167115" lon="19.459396"></trkpt>
      <trkpt lat="51.169458" lon="19.461586"></trkpt>
      <trkpt lat="51.172287" lon="19.463882"></trkpt>
      <trkpt lat="51.175169" lon="19.465967"></trkpt>
      <trkpt lat="51.178225" lon="19.467867"></trkpt>
      <trkpt lat="51.179856" lon="19.468764"></trkpt>
      <trkpt lat="51.183052" lon="19.470267"></trkpt>
      <trkpt lat="51.186326" lon="19.471517"></trkpt>
      <trkpt lat="51.190863" lon="19.472855"></trkpt>
      <trkpt lat="51.193017" lon="19.473611"></trkpt>
      <trkpt lat="51.195876" lon="19.4749"></trkpt>
      <trkpt lat="51.198584" lon="19.476284"></trkpt>
      <trkpt lat="51.200927" lon="19.47775"></trkpt>
      <trkpt lat="51.204402" lon="19.480136"></trkpt>
      <trkpt lat="51.206024" lon="19.48148"></trkpt>
      <trkpt lat="51.208672" lon="19.483799"></trkpt>
      <trkpt lat="51.211679" lon="19.486805"></trkpt>
      <trkpt lat="51.215537" lon="19.491317"></trkpt>
      <trkpt lat="51.218632" lon="19.495457"></trkpt>
      <trkpt lat="51.225044" lon="19.504818"></trkpt>
      <trkpt lat="51.227859" lon="19.508491"></trkpt>
      <trkpt lat="51.229717" lon="19.510684"></trkpt>
      <trkpt lat="51.231825" lon="19.512996"></trkpt>
      <trkpt lat="51.234044" lon="19.51521"></trkpt>
      <trkpt lat="51.236394" lon="19.517346"></trkpt>
      <trkpt lat="51.239144" lon="19.519582"></trkpt>
      <trkpt lat="51.241949" lon="19.521593"></trkpt>
      <trkpt lat="51.244859" lon="19.523413"></trkpt>
      <trkpt lat="51.247382" lon="19.524779"></trkpt>
      <trkpt lat="51.250412" lon="19.526179"></trkpt>
      <trkpt lat="51.253209" lon="19.527244"></trkpt>
      <trkpt lat="51.255356" lon="19.527912"></trkpt>
      <trkpt lat="51.270232" lon="19.531369"></trkpt>
      <trkpt lat="51.273993" lon="19.532508"></trkpt>
      <trkpt lat="51.277571" lon="19.533926"></trkpt>
      <trkpt lat="51.279842" lon="19.535035"></trkpt>
      <trkpt lat="51.282916" lon="19.536776"></trkpt>
      <trkpt lat="51.287103" lon="19.539613"></trkpt>
      <trkpt lat="51.289983" lon="19.541918"></trkpt>
      <trkpt lat="51.292572" lon="19.544247"></trkpt>
      <trkpt lat="51.297403" lon="19.549323"></trkpt>
      <trkpt lat="51.301399" lon="19.554348"></trkpt>
      <trkpt lat="51.308553" lon="19.564729"></trkpt>
      <trkpt lat="51.311854" lon="19.569207"></trkpt>
      <trkpt lat="51.315576" lon="19.573674"></trkpt>
      <trkpt lat="51.319443" lon="19.577629"></trkpt>
      <trkpt lat="51.341184" lon="19.59652"></trkpt>
      <trkpt lat="51.343803" lon="19.598704"></trkpt>
      <trkpt lat="51.348328" lon="19.602224"></trkpt>
      <trkpt lat="51.354658" lon="19.606747"></trkpt>
      <trkpt lat="51.378058" lon="19.622327"></trkpt>
      <trkpt lat="51.381297" lon="19.624272"></trkpt>
      <trkpt lat="51.384921" lon="19.626182"></trkpt>
      <trkpt lat="51.388633" lon="19.62786"></trkpt>
      <trkpt lat="51.391781" lon="19.629067"></trkpt>
      <trkpt lat="51.406967" lon="19.633913"></trkpt>
      <trkpt lat="51.431559" lon="19.641568"></trkpt>
      <trkpt lat="51.433816" lon="19.64255"></trkpt>
      <trkpt lat="51.435261" lon="19.643513"></trkpt>
      <trkpt lat="51.436397" lon="19.644543"></trkpt>
      <trkpt lat="51.437905" lon="19.646359"></trkpt>
      <trkpt lat="51.439471" lon="19.649002"></trkpt>
      <trkpt lat="51.440729" lon="19.652092"></trkpt>
      <trkpt lat="51.441474" lon="19.654833"></trkpt>
      <trkpt lat="51.442046" lon="19.658581"></trkpt>
      <trkpt lat="51.442178" lon="19.662429"></trkpt>
      <trkpt lat="51.441983" lon="19.673857"></trkpt>
      <trkpt lat="51.442017" lon="19.679205"></trkpt>
      <trkpt lat="51.442301" lon="19.686087"></trkpt>
      <trkpt lat="51.443336" lon="19.702397"></trkpt>
      <trkpt lat="51.44363" lon="19.710401"></trkpt>
      <trkpt lat="51.443653" lon="19.717841"></trkpt>
      <trkpt lat="51.443483" lon="19.727592"></trkpt>
      <trkpt lat="51.443679" lon="19.735643"></trkpt>
      <trkpt lat="51.444372" lon="19.744284"></trkpt>
      <trkpt lat="51.445107" lon="19.751267"></trkpt>
      <trkpt lat="51.445955" lon="19.755512"></trkpt>
      <trkpt lat="51.447099" lon="19.75931"></trkpt>
      <trkpt lat="51.44865" lon="19.762877"></trkpt>
      <trkpt lat="51.450655" lon="19.766329"></trkpt>
      <trkpt lat="51.491687" lon="19.829488"></trkpt>
      <trkpt lat="51.492582" lon="19.831631"></trkpt>
      <trkpt lat="51.493023" lon="19.833545"></trkpt>
      <trkpt lat="51.492981" lon="19.833917"></trkpt>
      <trkpt lat="51.492743" lon="19.834329"></trkpt>
      <trkpt lat="51.492078" lon="19.8346"></trkpt>
      <trkpt lat="51.49165" lon="19.83443"></trkpt>
      <trkpt lat="51.491648" lon="19.833884"></trkpt>
      <trkpt lat="51.491865" lon="19.833497"></trkpt>
      <trkpt lat="51.492871" lon="19.83271"></trkpt>
      <trkpt lat="51.493212" lon="19.832655"></trkpt>
      <trkpt lat="51.493673" lon="19.832766"></trkpt>
      <trkpt lat="51.493938" lon="19.832943"></trkpt>
      <trkpt lat="51.494317" lon="19.833565"></trkpt>
      <trkpt lat="51.498125" lon="19.832"></trkpt>
      <trkpt lat="51.498218" lon="19.832091"></trkpt>
      <trkpt lat="51.498269" lon="19.831931"></trkpt>
      <trkpt lat="51.501601" lon="19.830585"></trkpt>
      <trkpt lat="51.504105" lon="19.830053"></trkpt>
      <trkpt lat="51.504869" lon="19.830049"></trkpt>
      <trkpt lat="51.50515" lon="19.830554"></trkpt>
      <trkpt lat="51.505736" lon="19.832953"></trkpt>
      <trkpt lat="51.506208" lon="19.833962"></trkpt>
      <trkpt lat="51.506907" lon="19.834858"></trkpt>
      <trkpt lat="51.509677" lon="19.837698"></trkpt>
      <trkpt lat="51.509981" lon="19.838179"></trkpt>
      <trkpt lat="51.518291" lon="19.879447"></trkpt>
      <trkpt lat="51.518594" lon="19.880143"></trkpt>
      <trkpt lat="51.518826" lon="19.880363"></trkpt>
      <trkpt lat="51.519495" lon="19.880603"></trkpt>
      <trkpt lat="51.519741" lon="19.880803"></trkpt>
      <trkpt lat="51.521041" lon="19.882347"></trkpt>
      <trkpt lat="51.521233" lon="19.882858"></trkpt>
      <trkpt lat="51.528843" lon="19.929972"></trkpt>
      <trkpt lat="51.528885" lon="19.931389"></trkpt>
      <trkpt lat="51.528556" lon="19.932637"></trkpt>
      <trkpt lat="51.526646" lon="19.936079"></trkpt>
      <trkpt lat="51.526387" lon="19.936445"></trkpt>
      <trkpt lat="51.526134" lon="19.936583"></trkpt>
      <trkpt lat="51.525907" lon="19.937405"></trkpt>
      <trkpt lat="51.524867" lon="19.939404"></trkpt>
      <trkpt lat="51.524771" lon="19.940821"></trkpt>
      <trkpt lat="51.525064" lon="19.941816"></trkpt>
      <trkpt lat="51.52491" lon="19.942009"></trkpt>
      <trkpt lat="51.524714" lon="19.942053"></trkpt>
      <trkpt lat="51.524448" lon="19.941824"></trkpt>
      <trkpt lat="51.524337" lon="19.941507"></trkpt>
      <trkpt lat="51.523534" lon="19.938573"></trkpt>
      <trkpt lat="51.523653" lon="19.938039"></trkpt>
      <trkpt lat="51.52393" lon="19.937785"></trkpt>
      <trkpt lat="51.524093" lon="19.937778"></trkpt>
      <trkpt lat="51.524378" lon="19.938056"></trkpt>
      <trkpt lat="51.525257" lon="19.940257"></trkpt>
      <trkpt lat="51.52693" lon="19.943321"></trkpt>
      <trkpt lat="51.540447" lon="19.964496"></trkpt>
      <trkpt lat="51.542315" lon="19.967676"></trkpt>
      <trkpt lat="51.543501" lon="19.970258"></trkpt>
      <trkpt lat="51.544511" lon="19.972911"></trkpt>
      <trkpt lat="51.551713" lon="19.995146"></trkpt>
      <trkpt lat="51.553239" lon="19.999081"></trkpt>
      <trkpt lat="51.555044" lon="20.002738"></trkpt>
      <trkpt lat="51.565204" lon="20.02145"></trkpt>
      <trkpt lat="51.566216" lon="20.022887"></trkpt>
      <trkpt lat="51.566745" lon="20.023452"></trkpt>
      <trkpt lat="51.567737" lon="20.024239"></trkpt>
      <trkpt lat="51.57958" lon="20.030062"></trkpt>
      <trkpt lat="51.58108" lon="20.031252"></trkpt>
      <trkpt lat="51.587115" lon="20.038449"></trkpt>
      <trkpt lat="51.589331" lon="20.04138"></trkpt>
      <trkpt lat="51.590487" lon="20.043444"></trkpt>
      <trkpt lat="51.593882" lon="20.050771"></trkpt>
      <trkpt lat="51.595002" lon="20.052683"></trkpt>
      <trkpt lat="51.59589" lon="20.053927"></trkpt>
      <trkpt lat="51.596723" lon="20.054893"></trkpt>
      <trkpt lat="51.598518" lon="20.0565"></trkpt>
      <trkpt lat="51.604993" lon="20.060788"></trkpt>
      <trkpt lat="51.60608" lon="20.061641"></trkpt>
      <trkpt lat="51.60717" lon="20.062702"></trkpt>
      <trkpt lat="51.608772" lon="20.064798"></trkpt>
      <trkpt lat="51.609609" lon="20.066215"></trkpt>
      <trkpt lat="51.610661" lon="20.068485"></trkpt>
      <trkpt lat="51.617524" lon="20.086795"></trkpt>
      <trkpt lat="51.618492" lon="20.089041"></trkpt>
      <trkpt lat="51.62007" lon="20.091769"></trkpt>
      <trkpt lat="51.621082" lon="20.093085"></trkpt>
      <trkpt lat="51.622389" lon="20.094468"></trkpt>
      <trkpt lat="51.62481" lon="20.096517"></trkpt>
      <trkpt lat="51.626344" lon="20.09799"></trkpt>
      <trkpt lat="51.627626" lon="20.099581"></trkpt>
      <trkpt lat="51.629152" lon="20.102112"></trkpt>
      <trkpt lat="51.648192" lon="20.142385"></trkpt>
      <trkpt lat="51.6494" lon="20.144241"></trkpt>
      <trkpt lat="51.652432" lon="20.147354"></trkpt>
      <trkpt lat="51.653803" lon="20.148953"></trkpt>
      <trkpt lat="51.655098" lon="20.15097"></trkpt>
      <trkpt lat="51.656119" lon="20.152894"></trkpt>
      <trkpt lat="51.657134" lon="20.155421"></trkpt>
      <trkpt lat="51.657662" lon="20.15705"></trkpt>
      <trkpt lat="51.65919" lon="20.163135"></trkpt>
      <trkpt lat="51.659766" lon="20.164797"></trkpt>
      <trkpt lat="51.660428" lon="20.166052"></trkpt>
      <trkpt lat="51.661547" lon="20.167621"></trkpt>
      <trkpt lat="51.673687" lon="20.182746"></trkpt>
      <trkpt lat="51.677619" lon="20.188019"></trkpt>
      <trkpt lat="51.679824" lon="20.191335"></trkpt>
      <trkpt lat="51.689319" lon="20.206602"></trkpt>
      <trkpt lat="51.692123" lon="20.210405"></trkpt>
      <trkpt lat="51.695428" lon="20.214493"></trkpt>
      <trkpt lat="51.696615" lon="20.215673"></trkpt>
      <trkpt lat="51.701473" lon="20.218993"></trkpt>
      <trkpt lat="51.702676" lon="20.219696"></trkpt>
      <trkpt lat="51.703787" lon="20.220129"></trkpt>
      <trkpt lat="51.705197" lon="20.220343"></trkpt>
      <trkpt lat="51.706413" lon="20.220227"></trkpt>
      <trkpt lat="51.711346" lon="20.218865"></trkpt>
      <trkpt lat="51.712258" lon="20.218856"></trkpt>
      <trkpt lat="51.713815" lon="20.219272"></trkpt>
      <trkpt lat="51.724178" lon="20.225109"></trkpt>
      <trkpt lat="51.742306" lon="20.235687"></trkpt>
      <trkpt lat="51.743357" lon="20.236374"></trkpt>
      <trkpt lat="51.744483" lon="20.237313"></trkpt>
      <trkpt lat="51.745715" lon="20.238772"></trkpt>
      <trkpt lat="51.746538" lon="20.2401"></trkpt>
      <trkpt lat="51.7529" lon="20.252069"></trkpt>
      <trkpt lat="51.755295" lon="20.256127"></trkpt>
      <trkpt lat="51.757955" lon="20.259925"></trkpt>
      <trkpt lat="51.764408" lon="20.268698"></trkpt>
      <trkpt lat="51.765517" lon="20.26995"></trkpt>
      <trkpt lat="51.767095" lon="20.271397"></trkpt>
      <trkpt lat="51.768943" lon="20.272612"></trkpt>
      <trkpt lat="51.770409" lon="20.273252"></trkpt>
      <trkpt lat="51.780844" lon="20.27705"></trkpt>
      <trkpt lat="51.78299" lon="20.278406"></trkpt>
      <trkpt lat="51.784845" lon="20.28009"></trkpt>
      <trkpt lat="51.790002" lon="20.286458"></trkpt>
      <trkpt lat="51.799929" lon="20.296765"></trkpt>
      <trkpt lat="51.814624" lon="20.312543"></trkpt>
      <trkpt lat="51.823322" lon="20.32155"></trkpt>
      <trkpt lat="51.826558" lon="20.325191"></trkpt>
      <trkpt lat="51.828122" lon="20.327764"></trkpt>
      <trkpt lat="51.840198" lon="20.349767"></trkpt>
      <trkpt lat="51.841278" lon="20.352714"></trkpt>
      <trkpt lat="51.843207" lon="20.359831"></trkpt>
      <trkpt lat="51.84382" lon="20.361305"></trkpt>
      <trkpt lat="51.844856" lon="20.363037"></trkpt>
      <trkpt lat="51.848308" lon="20.366853"></trkpt>
      <trkpt lat="51.862304" lon="20.381677"></trkpt>
      <trkpt lat="51.863805" lon="20.382998"></trkpt>
      <trkpt lat="51.86479" lon="20.383543"></trkpt>
      <trkpt lat="51.874044" lon="20.387432"></trkpt>
      <trkpt lat="51.874809" lon="20.387906"></trkpt>
      <trkpt lat="51.876116" lon="20.389135"></trkpt>
      <trkpt lat="51.876909" lon="20.390178"></trkpt>
      <trkpt lat="51.878015" lon="20.392362"></trkpt>
      <trkpt lat="51.883996" lon="20.411186"></trkpt>
      <trkpt lat="51.8848" lon="20.413088"></trkpt>
      <trkpt lat="51.885771" lon="20.414721"></trkpt>
      <trkpt lat="51.892356" lon="20.42324"></trkpt>
      <trkpt lat="51.915225" lon="20.450637"></trkpt>
      <trkpt lat="51.91862" lon="20.455182"></trkpt>
      <trkpt lat="51.92669" lon="20.464004"></trkpt>
      <trkpt lat="51.927935" lon="20.465794"></trkpt>
      <trkpt lat="51.93117" lon="20.471938"></trkpt>
      <trkpt lat="51.932296" lon="20.473554"></trkpt>
      <trkpt lat="51.934253" lon="20.475445"></trkpt>
      <trkpt lat="51.95877" lon="20.497783"></trkpt>
      <trkpt lat="51.96005" lon="20.498583"></trkpt>
      <trkpt lat="51.974339" lon="20.504271"></trkpt>
      <trkpt lat="51.975966" lon="20.505351"></trkpt>
      <trkpt lat="51.976803" lon="20.506164"></trkpt>
      <trkpt lat="51.977538" lon="20.507093"></trkpt>
      <trkpt lat="51.978782" lon="20.509233"></trkpt>
      <trkpt lat="51.979749" lon="20.511799"></trkpt>
      <trkpt lat="51.984166" lon="20.530994"></trkpt>
      <trkpt lat="51.984654" lon="20.532643"></trkpt>
      <trkpt lat="51.985491" lon="20.534732"></trkpt>
      <trkpt lat="51.987026" lon="20.537348"></trkpt>
      <trkpt lat="51.999719" lon="20.55588"></trkpt>
      <trkpt lat="52.000879" lon="20.55781"></trkpt>
      <trkpt lat="52.001586" lon="20.55928"></trkpt>
      <trkpt lat="52.002563" lon="20.561954"></trkpt>
      <trkpt lat="52.003358" lon="20.565421"></trkpt>
      <trkpt lat="52.003697" lon="20.568694"></trkpt>
      <trkpt lat="52.004357" lon="20.594727"></trkpt>
      <trkpt lat="52.004637" lon="20.597591"></trkpt>
      <trkpt lat="52.005051" lon="20.599534"></trkpt>
      <trkpt lat="52.005395" lon="20.600774"></trkpt>
      <trkpt lat="52.006343" lon="20.603254"></trkpt>
      <trkpt lat="52.007034" lon="20.604521"></trkpt>
      <trkpt lat="52.009641" lon="20.608491"></trkpt>
      <trkpt lat="52.010904" lon="20.611024"></trkpt>
      <trkpt lat="52.013041" lon="20.616403"></trkpt>
      <trkpt lat="52.020729" lon="20.636982"></trkpt>
      <trkpt lat="52.021486" lon="20.63989"></trkpt>
      <trkpt lat="52.025635" lon="20.661681"></trkpt>
      <trkpt lat="52.02692" lon="20.667693"></trkpt>
      <trkpt lat="52.034847" lon="20.690221"></trkpt>
      <trkpt lat="52.036195" lon="20.693627"></trkpt>
      <trkpt lat="52.037635" lon="20.696168"></trkpt>
      <trkpt lat="52.03851" lon="20.697326"></trkpt>
      <trkpt lat="52.043114" lon="20.702432"></trkpt>
      <trkpt lat="52.044164" lon="20.703928"></trkpt>
      <trkpt lat="52.045455" lon="20.706203"></trkpt>
      <trkpt lat="52.068531" lon="20.753945"></trkpt>
      <trkpt lat="52.069823" lon="20.7576"></trkpt>
      <trkpt lat="52.076654" lon="20.782117"></trkpt>
      <trkpt lat="52.077685" lon="20.784693"></trkpt>
      <trkpt lat="52.078531" lon="20.786256"></trkpt>
      <trkpt lat="52.080917" lon="20.790108"></trkpt>
      <trkpt lat="52.082136" lon="20.793005"></trkpt>
      <trkpt lat="52.082967" lon="20.796042"></trkpt>
      <trkpt lat="52.08456" lon="20.803914"></trkpt>
      <trkpt lat="52.085004" lon="20.805331"></trkpt>
      <trkpt lat="52.085593" lon="20.806662"></trkpt>
      <trkpt lat="52.086408" lon="20.808006"></trkpt>
      <trkpt lat="52.087796" lon="20.809498"></trkpt>
      <trkpt lat="52.089104" lon="20.81031"></trkpt>
      <trkpt lat="52.09325" lon="20.812046"></trkpt>
      <trkpt lat="52.094406" lon="20.812677"></trkpt>
      <trkpt lat="52.095988" lon="20.813982"></trkpt>
      <trkpt lat="52.096697" lon="20.814876"></trkpt>
      <trkpt lat="52.097342" lon="20.815929"></trkpt>
      <trkpt lat="52.098531" lon="20.818459"></trkpt>
      <trkpt lat="52.117115" lon="20.864383"></trkpt>
      <trkpt lat="52.118709" lon="20.86744"></trkpt>
      <trkpt lat="52.121253" lon="20.871856"></trkpt>
      <trkpt lat="52.122918" lon="20.874323"></trkpt>
      <trkpt lat="52.124417" lon="20.875795"></trkpt>
      <trkpt lat="52.126106" lon="20.876789"></trkpt>
      <trkpt lat="52.137396" lon="20.881332"></trkpt>
      <trkpt lat="52.139433" lon="20.882449"></trkpt>
      <trkpt lat="52.141471" lon="20.883872"></trkpt>
      <trkpt lat="52.143442" lon="20.885582"></trkpt>
      <trkpt lat="52.145748" lon="20.888056"></trkpt>
      <trkpt lat="52.147287" lon="20.890032"></trkpt>
      <trkpt lat="52.151854" lon="20.896399"></trkpt>
      <trkpt lat="52.154358" lon="20.899219"></trkpt>
      <trkpt lat="52.160647" lon="20.904799"></trkpt>
      <trkpt lat="52.162757" lon="20.906439"></trkpt>
      <trkpt lat="52.164406" lon="20.907481"></trkpt>
      <trkpt lat="52.174481" lon="20.912991"></trkpt>
      <trkpt lat="52.178854" lon="20.914663"></trkpt>
      <trkpt lat="52.18805" lon="20.917848"></trkpt>
      <trkpt lat="52.188811" lon="20.918214"></trkpt>
      <trkpt lat="52.189343" lon="20.918653"></trkpt>
      <trkpt lat="52.190463" lon="20.920139"></trkpt>
      <trkpt lat="52.195516" lon="20.928105"></trkpt>
      <trkpt lat="52.196931" lon="20.929904"></trkpt>
      <trkpt lat="52.198667" lon="20.932424"></trkpt>
      <trkpt lat="52.207619" lon="20.94585"></trkpt>
      <trkpt lat="52.211012" lon="20.951121"></trkpt>
      <trkpt lat="52.211979" lon="20.952418"></trkpt>
      <trkpt lat="52.211966" lon="20.952783"></trkpt>
      <trkpt lat="52.21187" lon="20.952939"></trkpt>
      <trkpt lat="52.211741" lon="20.952863"></trkpt>
      <trkpt lat="52.211669" lon="20.953061"></trkpt>
      <trkpt lat="52.211822" lon="20.953193"></trkpt>
      <trkpt lat="52.211974" lon="20.953904"></trkpt>
      <trkpt lat="52.211972" lon="20.955694"></trkpt>
      <trkpt lat="52.211779" lon="20.956654"></trkpt>
      <trkpt lat="52.211662" lon="20.956575"></trkpt>
      <trkpt lat="52.211531" lon="20.957096"></trkpt>
  </trkseg></trk>
</gpx>
