<?xml version="1.0" encoding="UTF-8"?>
<gpx version="1.1" creator="yatutbuv" xmlns="http://www.topografix.com/GPX/1/1">
  <trk><name>GraphHopper Track</name><trkseg>
      <trkpt lat="49.834496" lon="24.009278"></trkpt>
      <trkpt lat="49.834742" lon="24.009518"></trkpt>
      <trkpt lat="49.834708" lon="24.017072"></trkpt>
      <trkpt lat="49.834233" lon="24.017152"></trkpt>
      <trkpt lat="49.833271" lon="24.018826"></trkpt>
      <trkpt lat="49.832704" lon="24.018552"></trkpt>
      <trkpt lat="49.832401" lon="24.018097"></trkpt>
      <trkpt lat="49.832225" lon="24.018511"></trkpt>
      <trkpt lat="49.829012" lon="24.018355"></trkpt>
      <trkpt lat="49.828049" lon="24.019124"></trkpt>
      <trkpt lat="49.827852" lon="24.019136"></trkpt>
      <trkpt lat="49.826613" lon="24.018027"></trkpt>
      <trkpt lat="49.8251" lon="24.021029"></trkpt>
      <trkpt lat="49.824846" lon="24.020841"></trkpt>
      <trkpt lat="49.805914" lon="24.018893"></trkpt>
      <trkpt lat="49.801921" lon="24.017998"></trkpt>
      <trkpt lat="49.801694" lon="24.017781"></trkpt>
      <trkpt lat="49.787685" lon="24.014701"></trkpt>
      <trkpt lat="49.785323" lon="24.014203"></trkpt>
      <trkpt lat="49.783109" lon="24.013915"></trkpt>
      <trkpt lat="49.778744" lon="24.013902"></trkpt>
      <trkpt lat="49.764434" lon="24.014307"></trkpt>
      <trkpt lat="49.759565" lon="24.014779"></trkpt>
      <trkpt lat="49.755026" lon="24.014923"></trkpt>
      <trkpt lat="49.750514" lon="24.014739"></trkpt>
      <trkpt lat="49.742698" lon="24.014934"></trkpt>
      <trkpt lat="49.742115" lon="24.014861"></trkpt>
      <trkpt lat="49.741348" lon="24.0146"></trkpt>
      <trkpt lat="49.737722" lon="24.012867"></trkpt>
      <trkpt lat="49.7158" lon="24.00211"></trkpt>
      <trkpt lat="49.708942" lon="23.99879"></trkpt>
      <trkpt lat="49.707647" lon="23.998256"></trkpt>
      <trkpt lat="49.707207" lon="23.998279"></trkpt>
      <trkpt lat="49.706746" lon="23.998491"></trkpt>
      <trkpt lat="49.700127" lon="24.002662"></trkpt>
      <trkpt lat="49.692104" lon="24.004025"></trkpt>
      <trkpt lat="49.679862" lon="24.00511"></trkpt>
      <trkpt lat="49.679286" lon="24.004865"></trkpt>
      <trkpt lat="49.67724" lon="24.00305"></trkpt>
      <trkpt lat="49.676073" lon="24.002577"></trkpt>
      <trkpt lat="49.674741" lon="24.002641"></trkpt>
      <trkpt lat="49.67157" lon="24.003558"></trkpt>
      <trkpt lat="49.670292" lon="24.00367"></trkpt>
      <trkpt lat="49.661162" lon="24.002476"></trkpt>
      <trkpt lat="49.630718" lon="23.995388"></trkpt>
      <trkpt lat="49.626927" lon="23.995207"></trkpt>
      <trkpt lat="49.615327" lon="23.99506"></trkpt>
      <trkpt lat="49.614488" lon="23.99514"></trkpt>
      <trkpt lat="49.612983" lon="23.995574"></trkpt>
      <trkpt lat="49.601692" lon="24.000154"></trkpt>
      <trkpt lat="49.600198" lon="24.000864"></trkpt>
      <trkpt lat="49.597509" lon="24.002469"></trkpt>
      <trkpt lat="49.596826" lon="24.002761"></trkpt>
      <trkpt lat="49.595981" lon="24.002946"></trkpt>
      <trkpt lat="49.594858" lon="24.002883"></trkpt>
      <trkpt lat="49.593395" lon="24.002315"></trkpt>
      <trkpt lat="49.578749" lon="23.994311"></trkpt>
      <trkpt lat="49.576589" lon="23.993195"></trkpt>
      <trkpt lat="49.57269" lon="23.99141"></trkpt>
      <trkpt lat="49.571124" lon="23.990913"></trkpt>
      <trkpt lat="49.567367" lon="23.990684"></trkpt>
      <trkpt lat="49.563818" lon="23.989556"></trkpt>
      <trkpt lat="49.55765" lon="23.98838"></trkpt>
      <trkpt lat="49.556852" lon="23.98811"></trkpt>
      <trkpt lat="49.555623" lon="23.987291"></trkpt>
      <trkpt lat="49.554202" lon="23.985778"></trkpt>
      <trkpt lat="49.553576" lon="23.984729"></trkpt>
      <trkpt lat="49.550632" lon="23.97794"></trkpt>
      <trkpt lat="49.547422" lon="23.971708"></trkpt>
      <trkpt lat="49.544646" lon="23.965021"></trkpt>
      <trkpt lat="49.5432" lon="23.958367"></trkpt>
      <trkpt lat="49.542343" lon="23.956187"></trkpt>
      <trkpt lat="49.541485" lon="23.954953"></trkpt>
      <trkpt lat="49.54048" lon="23.95407"></trkpt>
      <trkpt lat="49.536944" lon="23.952383"></trkpt>
      <trkpt lat="49.533812" lon="23.950446"></trkpt>
      <trkpt lat="49.533063" lon="23.950097"></trkpt>
      <trkpt lat="49.531604" lon="23.949683"></trkpt>
      <trkpt lat="49.528911" lon="23.949256"></trkpt>
      <trkpt lat="49.52815" lon="23.949249"></trkpt>
      <trkpt lat="49.527179" lon="23.949511"></trkpt>
      <trkpt lat="49.525102" lon="23.950622"></trkpt>
      <trkpt lat="49.523846" lon="23.95151"></trkpt>
      <trkpt lat="49.52145" lon="23.954169"></trkpt>
      <trkpt lat="49.520917" lon="23.954691"></trkpt>
      <trkpt lat="49.52009" lon="23.955258"></trkpt>
      <trkpt lat="49.518727" lon="23.95569"></trkpt>
      <trkpt lat="49.515611" lon="23.955636"></trkpt>
      <trkpt lat="49.514778" lon="23.95581"></trkpt>
      <trkpt lat="49.514139" lon="23.9561"></trkpt>
      <trkpt lat="49.513394" lon="23.956598"></trkpt>
      <trkpt lat="49.512391" lon="23.957713"></trkpt>
      <trkpt lat="49.509174" lon="23.962575"></trkpt>
      <trkpt lat="49.507306" lon="23.964734"></trkpt>
      <trkpt lat="49.502599" lon="23.968096"></trkpt>
      <trkpt lat="49.501875" lon="23.968868"></trkpt>
      <trkpt lat="49.500231" lon="23.971127"></trkpt>
      <trkpt lat="49.499398" lon="23.971975"></trkpt>
      <trkpt lat="49.498323" lon="23.972607"></trkpt>
      <trkpt lat="49.496648" lon="23.972817"></trkpt>
      <trkpt lat="49.495537" lon="23.972607"></trkpt>
      <trkpt lat="49.494569" lon="23.972099"></trkpt>
      <trkpt lat="49.492191" lon="23.969755"></trkpt>
      <trkpt lat="49.491166" lon="23.968508"></trkpt>
      <trkpt lat="49.490417" lon="23.967092"></trkpt>
      <trkpt lat="49.489942" lon="23.965724"></trkpt>
      <trkpt lat="49.489092" lon="23.960832"></trkpt>
      <trkpt lat="49.488623" lon="23.959264"></trkpt>
      <trkpt lat="49.488139" lon="23.95838"></trkpt>
      <trkpt lat="49.487571" lon="23.957712"></trkpt>
      <trkpt lat="49.486947" lon="23.957249"></trkpt>
      <trkpt lat="49.486278" lon="23.956975"></trkpt>
      <trkpt lat="49.485424" lon="23.956835"></trkpt>
      <trkpt lat="49.479507" lon="23.956563"></trkpt>
      <trkpt lat="49.476441" lon="23.956297"></trkpt>
      <trkpt lat="49.473185" lon="23.956273"></trkpt>
      <trkpt lat="49.453608" lon="23.955288"></trkpt>
      <trkpt lat="49.451805" lon="23.954785"></trkpt>
      <trkpt lat="49.425529" lon="23.94618"></trkpt>
      <trkpt lat="49.411953" lon="23.94185"></trkpt>
      <trkpt lat="49.410881" lon="23.941602"></trkpt>
      <trkpt lat="49.410143" lon="23.941624"></trkpt>
      <trkpt lat="49.408469" lon="23.941921"></trkpt>
      <trkpt lat="49.400363" lon="23.943505"></trkpt>
      <trkpt lat="49.396468" lon="23.944719"></trkpt>
      <trkpt lat="49.393493" lon="23.945856"></trkpt>
      <trkpt lat="49.392399" lon="23.945909"></trkpt>
      <trkpt lat="49.391624" lon="23.945606"></trkpt>
      <trkpt lat="49.391123" lon="23.945245"></trkpt>
      <trkpt lat="49.390495" lon="23.944562"></trkpt>
      <trkpt lat="49.389479" lon="23.943145"></trkpt>
      <trkpt lat="49.388622" lon="23.942405"></trkpt>
      <trkpt lat="49.33662" lon="23.910702"></trkpt>
      <trkpt lat="49.296422" lon="23.886034"></trkpt>
      <trkpt lat="49.273454" lon="23.871544"></trkpt>
      <trkpt lat="49.271461" lon="23.875493"></trkpt>
      <trkpt lat="49.271265" lon="23.875487"></trkpt>
      <trkpt lat="49.270949" lon="23.875153"></trkpt>
      <trkpt lat="49.268961" lon="23.872686"></trkpt>
      <trkpt lat="49.268728" lon="23.872836"></trkpt>
      <trkpt lat="49.267268" lon="23.875849"></trkpt>
      <trkpt lat="49.266905" lon="23.875949"></trkpt>
      <trkpt lat="49.26645" lon="23.875848"></trkpt>
      <trkpt lat="49.265476" lon="23.875175"></trkpt>
      <trkpt lat="49.260727" lon="23.868211"></trkpt>
      <trkpt lat="49.249576" lon="23.859324"></trkpt>
      <trkpt lat="49.247307" lon="23.856499"></trkpt>
      <trkpt lat="49.246865" lon="23.85444"></trkpt>
      <trkpt lat="49.246611" lon="23.854324"></trkpt>
      <trkpt lat="49.246236" lon="23.854624"></trkpt>
      <trkpt lat="49.246022" lon="23.854589"></trkpt>
      <trkpt lat="49.245009" lon="23.853144"></trkpt>
      <trkpt lat="49.242861" lon="23.849236"></trkpt>
      <trkpt lat="49.241774" lon="23.845347"></trkpt>
      <trkpt lat="49.241399" lon="23.844633"></trkpt>
      <trkpt lat="49.239956" lon="23.842564"></trkpt>
      <trkpt lat="49.2384" lon="23.838705"></trkpt>
      <trkpt lat="49.236632" lon="23.836028"></trkpt>
      <trkpt lat="49.235197" lon="23.832135"></trkpt>
      <trkpt lat="49.232763" lon="23.828579"></trkpt>
      <trkpt lat="49.231232" lon="23.826026"></trkpt>
      <trkpt lat="49.230836" lon="23.824923"></trkpt>
      <trkpt lat="49.23033" lon="23.821966"></trkpt>
      <trkpt lat="49.229835" lon="23.820584"></trkpt>
      <trkpt lat="49.223652" lon="23.811844"></trkpt>
      <trkpt lat="49.222537" lon="23.809746"></trkpt>
      <trkpt lat="49.222156" lon="23.808671"></trkpt>
      <trkpt lat="49.221969" lon="23.807542"></trkpt>
      <trkpt lat="49.221919" lon="23.804281"></trkpt>
      <trkpt lat="49.221753" lon="23.802567"></trkpt>
      <trkpt lat="49.221277" lon="23.800677"></trkpt>
      <trkpt lat="49.220694" lon="23.799311"></trkpt>
      <trkpt lat="49.214005" lon="23.788471"></trkpt>
      <trkpt lat="49.198763" lon="23.764495"></trkpt>
      <trkpt lat="49.196646" lon="23.760748"></trkpt>
      <trkpt lat="49.192053" lon="23.753967"></trkpt>
      <trkpt lat="49.163783" lon="23.717358"></trkpt>
      <trkpt lat="49.150336" lon="23.703641"></trkpt>
      <trkpt lat="49.140742" lon="23.693548"></trkpt>
      <trkpt lat="49.133424" lon="23.685749"></trkpt>
      <trkpt lat="49.128099" lon="23.679375"></trkpt>
      <trkpt lat="49.121336" lon="23.672977"></trkpt>
      <trkpt lat="49.12085" lon="23.672289"></trkpt>
      <trkpt lat="49.119888" lon="23.670514"></trkpt>
      <trkpt lat="49.119544" lon="23.670103"></trkpt>
      <trkpt lat="49.118896" lon="23.66971"></trkpt>
      <trkpt lat="49.11779" lon="23.669597"></trkpt>
      <trkpt lat="49.11713" lon="23.669228"></trkpt>
      <trkpt lat="49.116233" lon="23.668401"></trkpt>
      <trkpt lat="49.115476" lon="23.667328"></trkpt>
      <trkpt lat="49.113517" lon="23.663"></trkpt>
      <trkpt lat="49.113144" lon="23.661859"></trkpt>
      <trkpt lat="49.105571" lon="23.635342"></trkpt>
      <trkpt lat="49.104373" lon="23.630112"></trkpt>
      <trkpt lat="49.102737" lon="23.615662"></trkpt>
      <trkpt lat="49.102708" lon="23.614916"></trkpt>
      <trkpt lat="49.102852" lon="23.613727"></trkpt>
      <trkpt lat="49.103322" lon="23.611458"></trkpt>
      <trkpt lat="49.103658" lon="23.610564"></trkpt>
      <trkpt lat="49.104256" lon="23.609791"></trkpt>
      <trkpt lat="49.107878" lon="23.607267"></trkpt>
      <trkpt lat="49.109259" lon="23.604208"></trkpt>
      <trkpt lat="49.109974" lon="23.602157"></trkpt>
      <trkpt lat="49.110218" lon="23.600531"></trkpt>
      <trkpt lat="49.110119" lon="23.598746"></trkpt>
      <trkpt lat="49.109396" lon="23.594222"></trkpt>
      <trkpt lat="49.108888" lon="23.592507"></trkpt>
      <trkpt lat="49.108437" lon="23.591868"></trkpt>
      <trkpt lat="49.107843" lon="23.591514"></trkpt>
      <trkpt lat="49.106851" lon="23.591271"></trkpt>
      <trkpt lat="49.102192" lon="23.59058"></trkpt>
      <trkpt lat="49.101451" lon="23.590336"></trkpt>
      <trkpt lat="49.088827" lon="23.583702"></trkpt>
      <trkpt lat="49.087438" lon="23.582867"></trkpt>
      <trkpt lat="49.072663" lon="23.564873"></trkpt>
      <trkpt lat="49.06328" lon="23.553642"></trkpt>
      <trkpt lat="49.062581" lon="23.552583"></trkpt>
      <trkpt lat="49.055311" lon="23.538307"></trkpt>
      <trkpt lat="49.053269" lon="23.533862"></trkpt>
      <trkpt lat="49.052814" lon="23.532298"></trkpt>
      <trkpt lat="49.052634" lon="23.532119"></trkpt>
      <trkpt lat="49.052171" lon="23.530396"></trkpt>
      <trkpt lat="49.051457" lon="23.528684"></trkpt>
      <trkpt lat="49.049013" lon="23.525445"></trkpt>
      <trkpt lat="49.048037" lon="23.523276"></trkpt>
      <trkpt lat="49.047764" lon="23.523025"></trkpt>
      <trkpt lat="49.046898" lon="23.52261"></trkpt>
      <trkpt lat="49.046124" lon="23.521993"></trkpt>
      <trkpt lat="49.046551" lon="23.521794"></trkpt>
      <trkpt lat="49.047235" lon="23.520944"></trkpt>
      <trkpt lat="49.04732" lon="23.520926"></trkpt>
      <trkpt lat="49.047496" lon="23.521268"></trkpt>
      <trkpt lat="49.047303" lon="23.521477"></trkpt>
      <trkpt lat="49.045858" lon="23.515767"></trkpt>
      <trkpt lat="49.04529" lon="23.514329"></trkpt>
      <trkpt lat="49.043957" lon="23.512543"></trkpt>
      <trkpt lat="49.043691" lon="23.512015"></trkpt>
      <trkpt lat="49.041504" lon="23.506189"></trkpt>
      <trkpt lat="49.040725" lon="23.504424"></trkpt>
      <trkpt lat="49.040309" lon="23.503749"></trkpt>
      <trkpt lat="49.039751" lon="23.503134"></trkpt>
      <trkpt lat="49.039129" lon="23.502654"></trkpt>
      <trkpt lat="49.037624" lon="23.50201"></trkpt>
      <trkpt lat="49.036653" lon="23.501763"></trkpt>
      <trkpt lat="49.034737" lon="23.501713"></trkpt>
      <trkpt lat="49.029366" lon="23.501889"></trkpt>
      <trkpt lat="49.02901" lon="23.501822"></trkpt>
      <trkpt lat="49.028585" lon="23.501567"></trkpt>
      <trkpt lat="49.026193" lon="23.498508"></trkpt>
      <trkpt lat="49.025532" lon="23.497386"></trkpt>
      <trkpt lat="49.019262" lon="23.479274"></trkpt>
      <trkpt lat="49.018039" lon="23.476708"></trkpt>
      <trkpt lat="49.017586" lon="23.476194"></trkpt>
      <trkpt lat="49.016143" lon="23.475221"></trkpt>
      <trkpt lat="49.010596" lon="23.473483"></trkpt>
      <trkpt lat="49.009856" lon="23.473128"></trkpt>
      <trkpt lat="49.009198" lon="23.47244"></trkpt>
      <trkpt lat="49.007644" lon="23.469353"></trkpt>
      <trkpt lat="49.006813" lon="23.468895"></trkpt>
      <trkpt lat="49.004603" lon="23.468398"></trkpt>
      <trkpt lat="49.004211" lon="23.46805"></trkpt>
      <trkpt lat="49.003242" lon="23.465653"></trkpt>
      <trkpt lat="49.003079" lon="23.464646"></trkpt>
      <trkpt lat="49.005459" lon="23.454731"></trkpt>
      <trkpt lat="49.006765" lon="23.438389"></trkpt>
      <trkpt lat="49.00711" lon="23.436662"></trkpt>
      <trkpt lat="49.009146" lon="23.429658"></trkpt>
      <trkpt lat="49.009339" lon="23.428293"></trkpt>
      <trkpt lat="49.009325" lon="23.426943"></trkpt>
      <trkpt lat="49.008939" lon="23.425645"></trkpt>
      <trkpt lat="49.0062" lon="23.419166"></trkpt>
      <trkpt lat="49.003817" lon="23.415182"></trkpt>
      <trkpt lat="49.003103" lon="23.414106"></trkpt>
      <trkpt lat="49.000123" lon="23.411932"></trkpt>
      <trkpt lat="48.999466" lon="23.411146"></trkpt>
      <trkpt lat="48.998696" lon="23.408856"></trkpt>
      <trkpt lat="48.998206" lon="23.406148"></trkpt>
      <trkpt lat="48.997812" lon="23.40502"></trkpt>
      <trkpt lat="48.997242" lon="23.404285"></trkpt>
      <trkpt lat="48.996325" lon="23.403797"></trkpt>
      <trkpt lat="48.995454" lon="23.403732"></trkpt>
      <trkpt lat="48.994356" lon="23.40391"></trkpt>
      <trkpt lat="48.993628" lon="23.403657"></trkpt>
      <trkpt lat="48.991584" lon="23.402344"></trkpt>
      <trkpt lat="48.990062" lon="23.400172"></trkpt>
      <trkpt lat="48.987977" lon="23.398904"></trkpt>
      <trkpt lat="48.986833" lon="23.397967"></trkpt>
      <trkpt lat="48.986262" lon="23.397633"></trkpt>
      <trkpt lat="48.98451" lon="23.397003"></trkpt>
      <trkpt lat="48.984154" lon="23.396737"></trkpt>
      <trkpt lat="48.983568" lon="23.395848"></trkpt>
      <trkpt lat="48.981747" lon="23.392093"></trkpt>
      <trkpt lat="48.981257" lon="23.392032"></trkpt>
      <trkpt lat="48.97877" lon="23.392541"></trkpt>
      <trkpt lat="48.977268" lon="23.392059"></trkpt>
      <trkpt lat="48.974934" lon="23.392199"></trkpt>
      <trkpt lat="48.974406" lon="23.392124"></trkpt>
      <trkpt lat="48.974107" lon="23.391937"></trkpt>
      <trkpt lat="48.971728" lon="23.389619"></trkpt>
      <trkpt lat="48.970791" lon="23.388273"></trkpt>
      <trkpt lat="48.96964" lon="23.387573"></trkpt>
      <trkpt lat="48.967464" lon="23.385439"></trkpt>
      <trkpt lat="48.966336" lon="23.384045"></trkpt>
      <trkpt lat="48.964688" lon="23.382498"></trkpt>
      <trkpt lat="48.963991" lon="23.381894"></trkpt>
      <trkpt lat="48.962735" lon="23.381344"></trkpt>
      <trkpt lat="48.962453" lon="23.381076"></trkpt>
      <trkpt lat="48.96223" lon="23.380567"></trkpt>
      <trkpt lat="48.960919" lon="23.374357"></trkpt>
      <trkpt lat="48.95968" lon="23.367363"></trkpt>
      <trkpt lat="48.958125" lon="23.364699"></trkpt>
      <trkpt lat="48.956964" lon="23.361402"></trkpt>
      <trkpt lat="48.954757" lon="23.358626"></trkpt>
      <trkpt lat="48.953634" lon="23.35669"></trkpt>
      <trkpt lat="48.951628" lon="23.354401"></trkpt>
      <trkpt lat="48.951325" lon="23.353806"></trkpt>
      <trkpt lat="48.950685" lon="23.35013"></trkpt>
      <trkpt lat="48.950253" lon="23.345613"></trkpt>
      <trkpt lat="48.949409" lon="23.34127"></trkpt>
      <trkpt lat="48.949283" lon="23.339667"></trkpt>
      <trkpt lat="48.947557" lon="23.335662"></trkpt>
      <trkpt lat="48.947116" lon="23.335381"></trkpt>
      <trkpt lat="48.945408" lon="23.335219"></trkpt>
      <trkpt lat="48.944778" lon="23.335051"></trkpt>
      <trkpt lat="48.944258" lon="23.334592"></trkpt>
      <trkpt lat="48.943108" lon="23.33323"></trkpt>
      <trkpt lat="48.941762" lon="23.332402"></trkpt>
      <trkpt lat="48.939376" lon="23.330449"></trkpt>
      <trkpt lat="48.937168" lon="23.326642"></trkpt>
      <trkpt lat="48.935428" lon="23.325103"></trkpt>
      <trkpt lat="48.934482" lon="23.322881"></trkpt>
      <trkpt lat="48.932671" lon="23.321455"></trkpt>
      <trkpt lat="48.930287" lon="23.31881"></trkpt>
      <trkpt lat="48.927857" lon="23.317299"></trkpt>
      <trkpt lat="48.926905" lon="23.315746"></trkpt>
      <trkpt lat="48.925231" lon="23.314209"></trkpt>
      <trkpt lat="48.924469" lon="23.312942"></trkpt>
      <trkpt lat="48.924044" lon="23.3112"></trkpt>
      <trkpt lat="48.92355" lon="23.310257"></trkpt>
      <trkpt lat="48.921426" lon="23.308724"></trkpt>
      <trkpt lat="48.918982" lon="23.307159"></trkpt>
      <trkpt lat="48.918639" lon="23.306802"></trkpt>
      <trkpt lat="48.918234" lon="23.306012"></trkpt>
      <trkpt lat="48.917233" lon="23.303147"></trkpt>
      <trkpt lat="48.916649" lon="23.302112"></trkpt>
      <trkpt lat="48.914936" lon="23.300092"></trkpt>
      <trkpt lat="48.913772" lon="23.29805"></trkpt>
      <trkpt lat="48.911786" lon="23.296358"></trkpt>
      <trkpt lat="48.909556" lon="23.293477"></trkpt>
      <trkpt lat="48.908516" lon="23.292787"></trkpt>
      <trkpt lat="48.907641" lon="23.292535"></trkpt>
      <trkpt lat="48.906599" lon="23.292779"></trkpt>
      <trkpt lat="48.905956" lon="23.293156"></trkpt>
      <trkpt lat="48.905154" lon="23.293998"></trkpt>
      <trkpt lat="48.904599" lon="23.294946"></trkpt>
      <trkpt lat="48.904351" lon="23.295544"></trkpt>
      <trkpt lat="48.903385" lon="23.299603"></trkpt>
      <trkpt lat="48.903047" lon="23.300398"></trkpt>
      <trkpt lat="48.902296" lon="23.3014"></trkpt>
      <trkpt lat="48.901684" lon="23.301898"></trkpt>
      <trkpt lat="48.90105" lon="23.302173"></trkpt>
      <trkpt lat="48.899031" lon="23.302426"></trkpt>
      <trkpt lat="48.896682" lon="23.303311"></trkpt>
      <trkpt lat="48.896035" lon="23.303421"></trkpt>
      <trkpt lat="48.895519" lon="23.303347"></trkpt>
      <trkpt lat="48.894926" lon="23.303052"></trkpt>
      <trkpt lat="48.894341" lon="23.302358"></trkpt>
      <trkpt lat="48.893374" lon="23.300784"></trkpt>
      <trkpt lat="48.893018" lon="23.300522"></trkpt>
      <trkpt lat="48.891874" lon="23.300016"></trkpt>
      <trkpt lat="48.891329" lon="23.299526"></trkpt>
      <trkpt lat="48.890243" lon="23.29799"></trkpt>
      <trkpt lat="48.889066" lon="23.295475"></trkpt>
      <trkpt lat="48.887497" lon="23.293221"></trkpt>
      <trkpt lat="48.887122" lon="23.293103"></trkpt>
      <trkpt lat="48.885874" lon="23.293831"></trkpt>
      <trkpt lat="48.885196" lon="23.29388"></trkpt>
      <trkpt lat="48.884009" lon="23.293203"></trkpt>
      <trkpt lat="48.881879" lon="23.292612"></trkpt>
      <trkpt lat="48.881351" lon="23.291977"></trkpt>
      <trkpt lat="48.881164" lon="23.291275"></trkpt>
      <trkpt lat="48.88045" lon="23.285541"></trkpt>
      <trkpt lat="48.8829" lon="23.282362"></trkpt>
      <trkpt lat="48.883152" lon="23.281567"></trkpt>
      <trkpt lat="48.883585" lon="23.279207"></trkpt>
      <trkpt lat="48.883864" lon="23.278476"></trkpt>
      <trkpt lat="48.884301" lon="23.2779"></trkpt>
      <trkpt lat="48.885174" lon="23.277196"></trkpt>
      <trkpt lat="48.885511" lon="23.276596"></trkpt>
      <trkpt lat="48.886037" lon="23.274981"></trkpt>
      <trkpt lat="48.886685" lon="23.272261"></trkpt>
      <trkpt lat="48.888332" lon="23.263695"></trkpt>
      <trkpt lat="48.888551" lon="23.261565"></trkpt>
      <trkpt lat="48.888593" lon="23.259359"></trkpt>
      <trkpt lat="48.888368" lon="23.258303"></trkpt>
      <trkpt lat="48.887529" lon="23.255911"></trkpt>
      <trkpt lat="48.887235" lon="23.254537"></trkpt>
      <trkpt lat="48.88734" lon="23.252587"></trkpt>
      <trkpt lat="48.887589" lon="23.250808"></trkpt>
      <trkpt lat="48.888544" lon="23.248812"></trkpt>
      <trkpt lat="48.888883" lon="23.248356"></trkpt>
      <trkpt lat="48.88936" lon="23.24814"></trkpt>
      <trkpt lat="48.890986" lon="23.248094"></trkpt>
      <trkpt lat="48.891455" lon="23.247616"></trkpt>
      <trkpt lat="48.893254" lon="23.241635"></trkpt>
      <trkpt lat="48.893955" lon="23.239764"></trkpt>
      <trkpt lat="48.894364" lon="23.239047"></trkpt>
      <trkpt lat="48.896432" lon="23.236529"></trkpt>
      <trkpt lat="48.89737" lon="23.23502"></trkpt>
      <trkpt lat="48.900233" lon="23.229133"></trkpt>
      <trkpt lat="48.901748" lon="23.225789"></trkpt>
      <trkpt lat="48.902365" lon="23.224031"></trkpt>
      <trkpt lat="48.902423" lon="23.222358"></trkpt>
      <trkpt lat="48.901813" lon="23.219882"></trkpt>
      <trkpt lat="48.901681" lon="23.218223"></trkpt>
      <trkpt lat="48.901809" lon="23.214192"></trkpt>
      <trkpt lat="48.901457" lon="23.212923"></trkpt>
      <trkpt lat="48.900056" lon="23.209637"></trkpt>
      <trkpt lat="48.899638" lon="23.207424"></trkpt>
      <trkpt lat="48.89965" lon="23.205788"></trkpt>
      <trkpt lat="48.901158" lon="23.183696"></trkpt>
      <trkpt lat="48.901193" lon="23.181214"></trkpt>
      <trkpt lat="48.900979" lon="23.177066"></trkpt>
      <trkpt lat="48.901008" lon="23.175605"></trkpt>
      <trkpt lat="48.901248" lon="23.173867"></trkpt>
      <trkpt lat="48.901826" lon="23.172075"></trkpt>
      <trkpt lat="48.90218" lon="23.171371"></trkpt>
      <trkpt lat="48.903069" lon="23.169918"></trkpt>
      <trkpt lat="48.910348" lon="23.159231"></trkpt>
      <trkpt lat="48.911531" lon="23.156828"></trkpt>
      <trkpt lat="48.912313" lon="23.154049"></trkpt>
      <trkpt lat="48.912658" lon="23.15219"></trkpt>
      <trkpt lat="48.912919" lon="23.149587"></trkpt>
      <trkpt lat="48.912783" lon="23.144298"></trkpt>
      <trkpt lat="48.911483" lon="23.133881"></trkpt>
      <trkpt lat="48.91099" lon="23.132129"></trkpt>
      <trkpt lat="48.910246" lon="23.130796"></trkpt>
      <trkpt lat="48.909318" lon="23.129687"></trkpt>
      <trkpt lat="48.90834" lon="23.128892"></trkpt>
      <trkpt lat="48.907313" lon="23.128375"></trkpt>
      <trkpt lat="48.905286" lon="23.127647"></trkpt>
      <trkpt lat="48.904551" lon="23.127487"></trkpt>
      <trkpt lat="48.903367" lon="23.127443"></trkpt>
      <trkpt lat="48.899717" lon="23.127725"></trkpt>
      <trkpt lat="48.896825" lon="23.127514"></trkpt>
      <trkpt lat="48.895961" lon="23.127282"></trkpt>
      <trkpt lat="48.895354" lon="23.126878"></trkpt>
      <trkpt lat="48.894715" lon="23.126007"></trkpt>
      <trkpt lat="48.893749" lon="23.123788"></trkpt>
      <trkpt lat="48.893278" lon="23.12299"></trkpt>
      <trkpt lat="48.892552" lon="23.122308"></trkpt>
      <trkpt lat="48.891966" lon="23.122051"></trkpt>
      <trkpt lat="48.891481" lon="23.121974"></trkpt>
      <trkpt lat="48.88634" lon="23.123283"></trkpt>
      <trkpt lat="48.883935" lon="23.124175"></trkpt>
      <trkpt lat="48.880119" lon="23.124391"></trkpt>
      <trkpt lat="48.879572" lon="23.124529"></trkpt>
      <trkpt lat="48.878706" lon="23.125229"></trkpt>
      <trkpt lat="48.877491" lon="23.127739"></trkpt>
      <trkpt lat="48.876804" lon="23.128442"></trkpt>
      <trkpt lat="48.876278" lon="23.128691"></trkpt>
      <trkpt lat="48.874233" lon="23.129133"></trkpt>
      <trkpt lat="48.871941" lon="23.129898"></trkpt>
      <trkpt lat="48.87123" lon="23.130454"></trkpt>
      <trkpt lat="48.870116" lon="23.132082"></trkpt>
      <trkpt lat="48.869295" lon="23.132803"></trkpt>
      <trkpt lat="48.86862" lon="23.132932"></trkpt>
      <trkpt lat="48.867919" lon="23.132593"></trkpt>
      <trkpt lat="48.863386" lon="23.126167"></trkpt>
      <trkpt lat="48.862443" lon="23.125473"></trkpt>
      <trkpt lat="48.860539" lon="23.124834"></trkpt>
      <trkpt lat="48.859981" lon="23.124203"></trkpt>
      <trkpt lat="48.859734" lon="23.123684"></trkpt>
      <trkpt lat="48.858958" lon="23.121094"></trkpt>
      <trkpt lat="48.858432" lon="23.120444"></trkpt>
      <trkpt lat="48.857011" lon="23.119395"></trkpt>
      <trkpt lat="48.856469" lon="23.118623"></trkpt>
      <trkpt lat="48.856163" lon="23.117432"></trkpt>
      <trkpt lat="48.856216" lon="23.11548"></trkpt>
      <trkpt lat="48.856086" lon="23.114432"></trkpt>
      <trkpt lat="48.855753" lon="23.113777"></trkpt>
      <trkpt lat="48.854511" lon="23.11239"></trkpt>
      <trkpt lat="48.85425" lon="23.111729"></trkpt>
      <trkpt lat="48.854204" lon="23.110684"></trkpt>
      <trkpt lat="48.854996" lon="23.10744"></trkpt>
      <trkpt lat="48.855059" lon="23.106452"></trkpt>
      <trkpt lat="48.854716" lon="23.105805"></trkpt>
      <trkpt lat="48.853805" lon="23.105154"></trkpt>
      <trkpt lat="48.853335" lon="23.104666"></trkpt>
      <trkpt lat="48.852895" lon="23.10373"></trkpt>
      <trkpt lat="48.852749" lon="23.10279"></trkpt>
      <trkpt lat="48.853002" lon="23.102129"></trkpt>
      <trkpt lat="48.854865" lon="23.100602"></trkpt>
      <trkpt lat="48.855171" lon="23.100013"></trkpt>
      <trkpt lat="48.855195" lon="23.098685"></trkpt>
      <trkpt lat="48.854805" lon="23.096923"></trkpt>
      <trkpt lat="48.854758" lon="23.096185"></trkpt>
      <trkpt lat="48.854975" lon="23.095467"></trkpt>
      <trkpt lat="48.855949" lon="23.094522"></trkpt>
      <trkpt lat="48.85634" lon="23.093785"></trkpt>
      <trkpt lat="48.856347" lon="23.093023"></trkpt>
      <trkpt lat="48.85591" lon="23.091771"></trkpt>
      <trkpt lat="48.85524" lon="23.090869"></trkpt>
      <trkpt lat="48.854181" lon="23.090201"></trkpt>
      <trkpt lat="48.851669" lon="23.090069"></trkpt>
      <trkpt lat="48.850492" lon="23.08955"></trkpt>
      <trkpt lat="48.84991" lon="23.088972"></trkpt>
      <trkpt lat="48.848866" lon="23.087144"></trkpt>
      <trkpt lat="48.848226" lon="23.08521"></trkpt>
      <trkpt lat="48.847712" lon="23.084765"></trkpt>
      <trkpt lat="48.847073" lon="23.08449"></trkpt>
      <trkpt lat="48.84646" lon="23.083872"></trkpt>
      <trkpt lat="48.842589" lon="23.07769"></trkpt>
      <trkpt lat="48.841967" lon="23.075719"></trkpt>
      <trkpt lat="48.841003" lon="23.071022"></trkpt>
      <trkpt lat="48.840209" lon="23.069104"></trkpt>
      <trkpt lat="48.839647" lon="23.068288"></trkpt>
      <trkpt lat="48.839047" lon="23.067679"></trkpt>
      <trkpt lat="48.838041" lon="23.066996"></trkpt>
      <trkpt lat="48.837354" lon="23.066678"></trkpt>
      <trkpt lat="48.836613" lon="23.066563"></trkpt>
      <trkpt lat="48.83587" lon="23.066656"></trkpt>
      <trkpt lat="48.832154" lon="23.068171"></trkpt>
      <trkpt lat="48.831222" lon="23.068411"></trkpt>
      <trkpt lat="48.826322" lon="23.068843"></trkpt>
      <trkpt lat="48.825706" lon="23.069102"></trkpt>
      <trkpt lat="48.824255" lon="23.070558"></trkpt>
      <trkpt lat="48.823499" lon="23.07099"></trkpt>
      <trkpt lat="48.82272" lon="23.071033"></trkpt>
      <trkpt lat="48.819493" lon="23.070594"></trkpt>
      <trkpt lat="48.81865" lon="23.070683"></trkpt>
      <trkpt lat="48.818163" lon="23.070854"></trkpt>
      <trkpt lat="48.817426" lon="23.071548"></trkpt>
      <trkpt lat="48.814146" lon="23.076852"></trkpt>
      <trkpt lat="48.813189" lon="23.078116"></trkpt>
      <trkpt lat="48.812209" lon="23.079079"></trkpt>
      <trkpt lat="48.81141" lon="23.079558"></trkpt>
      <trkpt lat="48.810434" lon="23.079852"></trkpt>
      <trkpt lat="48.802148" lon="23.081068"></trkpt>
      <trkpt lat="48.800881" lon="23.081447"></trkpt>
      <trkpt lat="48.800157" lon="23.081874"></trkpt>
      <trkpt lat="48.799686" lon="23.082345"></trkpt>
      <trkpt lat="48.797183" lon="23.086015"></trkpt>
      <trkpt lat="48.796082" lon="23.086987"></trkpt>
      <trkpt lat="48.795371" lon="23.087279"></trkpt>
      <trkpt lat="48.78997" lon="23.087096"></trkpt>
      <trkpt lat="48.783138" lon="23.088129"></trkpt>
      <trkpt lat="48.773041" lon="23.089841"></trkpt>
      <trkpt lat="48.77237" lon="23.09028"></trkpt>
      <trkpt lat="48.771296" lon="23.09179"></trkpt>
      <trkpt lat="48.76873" lon="23.093853"></trkpt>
      <trkpt lat="48.767939" lon="23.094167"></trkpt>
      <trkpt lat="48.762811" lon="23.094424"></trkpt>
      <trkpt lat="48.75979" lon="23.094271"></trkpt>
      <trkpt lat="48.755155" lon="23.093894"></trkpt>
      <trkpt lat="48.753539" lon="23.09323"></trkpt>
      <trkpt lat="48.753115" lon="23.0932"></trkpt>
      <trkpt lat="48.751239" lon="23.093609"></trkpt>
      <trkpt lat="48.750721" lon="23.093623"></trkpt>
      <trkpt lat="48.750171" lon="23.093424"></trkpt>
      <trkpt lat="48.749548" lon="23.092946"></trkpt>
      <trkpt lat="48.748876" lon="23.092008"></trkpt>
      <trkpt lat="48.748503" lon="23.091145"></trkpt>
      <trkpt lat="48.74718" lon="23.086854"></trkpt>
      <trkpt lat="48.746807" lon="23.083104"></trkpt>
      <trkpt lat="48.746288" lon="23.081959"></trkpt>
      <trkpt lat="48.745504" lon="23.081229"></trkpt>
      <trkpt lat="48.742797" lon="23.079898"></trkpt>
      <trkpt lat="48.740628" lon="23.078295"></trkpt>
      <trkpt lat="48.739502" lon="23.077088"></trkpt>
      <trkpt lat="48.738858" lon="23.075962"></trkpt>
      <trkpt lat="48.735909" lon="23.068997"></trkpt>
      <trkpt lat="48.735572" lon="23.067966"></trkpt>
      <trkpt lat="48.735437" lon="23.06682"></trkpt>
      <trkpt lat="48.735485" lon="23.064053"></trkpt>
      <trkpt lat="48.734271" lon="23.056563"></trkpt>
      <trkpt lat="48.733804" lon="23.055687"></trkpt>
      <trkpt lat="48.733231" lon="23.05504"></trkpt>
      <trkpt lat="48.732559" lon="23.054569"></trkpt>
      <trkpt lat="48.730492" lon="23.053497"></trkpt>
      <trkpt lat="48.730129" lon="23.053132"></trkpt>
      <trkpt lat="48.729884" lon="23.052569"></trkpt>
      <trkpt lat="48.72916" lon="23.049303"></trkpt>
      <trkpt lat="48.72863" lon="23.048392"></trkpt>
      <trkpt lat="48.728008" lon="23.047906"></trkpt>
      <trkpt lat="48.727273" lon="23.047757"></trkpt>
      <trkpt lat="48.725942" lon="23.047744"></trkpt>
      <trkpt lat="48.724166" lon="23.047193"></trkpt>
      <trkpt lat="48.722066" lon="23.0476"></trkpt>
      <trkpt lat="48.721501" lon="23.047607"></trkpt>
      <trkpt lat="48.720686" lon="23.047406"></trkpt>
      <trkpt lat="48.719455" lon="23.04679"></trkpt>
      <trkpt lat="48.71859" lon="23.046674"></trkpt>
      <trkpt lat="48.717867" lon="23.0469"></trkpt>
      <trkpt lat="48.717264" lon="23.047368"></trkpt>
      <trkpt lat="48.715965" lon="23.049258"></trkpt>
      <trkpt lat="48.715341" lon="23.049864"></trkpt>
      <trkpt lat="48.714863" lon="23.050058"></trkpt>
      <trkpt lat="48.714135" lon="23.050038"></trkpt>
      <trkpt lat="48.712911" lon="23.049425"></trkpt>
      <trkpt lat="48.7115" lon="23.048504"></trkpt>
      <trkpt lat="48.707985" lon="23.045493"></trkpt>
      <trkpt lat="48.706506" lon="23.044858"></trkpt>
      <trkpt lat="48.704521" lon="23.044292"></trkpt>
      <trkpt lat="48.701743" lon="23.043707"></trkpt>
      <trkpt lat="48.700883" lon="23.043713"></trkpt>
      <trkpt lat="48.698552" lon="23.044029"></trkpt>
      <trkpt lat="48.697171" lon="23.044393"></trkpt>
      <trkpt lat="48.69678" lon="23.044365"></trkpt>
      <trkpt lat="48.696311" lon="23.044168"></trkpt>
      <trkpt lat="48.695446" lon="23.043484"></trkpt>
      <trkpt lat="48.692853" lon="23.039988"></trkpt>
      <trkpt lat="48.692424" lon="23.03959"></trkpt>
      <trkpt lat="48.69203" lon="23.039395"></trkpt>
      <trkpt lat="48.691535" lon="23.039336"></trkpt>
      <trkpt lat="48.690321" lon="23.039835"></trkpt>
      <trkpt lat="48.687818" lon="23.041736"></trkpt>
      <trkpt lat="48.687415" lon="23.042148"></trkpt>
      <trkpt lat="48.686883" lon="23.043191"></trkpt>
      <trkpt lat="48.686188" lon="23.045886"></trkpt>
      <trkpt lat="48.685596" lon="23.046672"></trkpt>
      <trkpt lat="48.685004" lon="23.047184"></trkpt>
      <trkpt lat="48.683938" lon="23.04756"></trkpt>
      <trkpt lat="48.683466" lon="23.047547"></trkpt>
      <trkpt lat="48.681691" lon="23.046796"></trkpt>
      <trkpt lat="48.680989" lon="23.046669"></trkpt>
      <trkpt lat="48.680316" lon="23.046744"></trkpt>
      <trkpt lat="48.67905" lon="23.047122"></trkpt>
      <trkpt lat="48.677951" lon="23.047701"></trkpt>
      <trkpt lat="48.676794" lon="23.048587"></trkpt>
      <trkpt lat="48.674456" lon="23.051296"></trkpt>
      <trkpt lat="48.673774" lon="23.051942"></trkpt>
      <trkpt lat="48.672977" lon="23.052492"></trkpt>
      <trkpt lat="48.672249" lon="23.052768"></trkpt>
      <trkpt lat="48.671286" lon="23.052714"></trkpt>
      <trkpt lat="48.668912" lon="23.051925"></trkpt>
      <trkpt lat="48.668353" lon="23.051846"></trkpt>
      <trkpt lat="48.663439" lon="23.051906"></trkpt>
      <trkpt lat="48.662217" lon="23.052189"></trkpt>
      <trkpt lat="48.661355" lon="23.052569"></trkpt>
      <trkpt lat="48.660908" lon="23.052898"></trkpt>
      <trkpt lat="48.658604" lon="23.055777"></trkpt>
      <trkpt lat="48.657712" lon="23.056686"></trkpt>
      <trkpt lat="48.65683" lon="23.057226"></trkpt>
      <trkpt lat="48.655232" lon="23.057763"></trkpt>
      <trkpt lat="48.654367" lon="23.057799"></trkpt>
      <trkpt lat="48.653613" lon="23.057455"></trkpt>
      <trkpt lat="48.651976" lon="23.055696"></trkpt>
      <trkpt lat="48.650741" lon="23.054835"></trkpt>
      <trkpt lat="48.64909" lon="23.054343"></trkpt>
      <trkpt lat="48.64772" lon="23.05411"></trkpt>
      <trkpt lat="48.646799" lon="23.054066"></trkpt>
      <trkpt lat="48.644771" lon="23.054335"></trkpt>
      <trkpt lat="48.644091" lon="23.054179"></trkpt>
      <trkpt lat="48.642964" lon="23.053473"></trkpt>
      <trkpt lat="48.641666" lon="23.051737"></trkpt>
      <trkpt lat="48.641333" lon="23.051433"></trkpt>
      <trkpt lat="48.640848" lon="23.051185"></trkpt>
      <trkpt lat="48.639721" lon="23.051012"></trkpt>
      <trkpt lat="48.639018" lon="23.050708"></trkpt>
      <trkpt lat="48.636923" lon="23.048897"></trkpt>
      <trkpt lat="48.635658" lon="23.048447"></trkpt>
      <trkpt lat="48.633887" lon="23.048598"></trkpt>
      <trkpt lat="48.633489" lon="23.048528"></trkpt>
      <trkpt lat="48.630339" lon="23.046283"></trkpt>
      <trkpt lat="48.629494" lon="23.045934"></trkpt>
      <trkpt lat="48.628562" lon="23.045851"></trkpt>
      <trkpt lat="48.627055" lon="23.04587"></trkpt>
      <trkpt lat="48.626451" lon="23.04601"></trkpt>
      <trkpt lat="48.625974" lon="23.046329"></trkpt>
      <trkpt lat="48.62558" lon="23.046789"></trkpt>
      <trkpt lat="48.625021" lon="23.047922"></trkpt>
      <trkpt lat="48.623676" lon="23.052581"></trkpt>
      <trkpt lat="48.623193" lon="23.053243"></trkpt>
      <trkpt lat="48.622639" lon="23.053568"></trkpt>
      <trkpt lat="48.622124" lon="23.05362"></trkpt>
      <trkpt lat="48.618179" lon="23.052276"></trkpt>
      <trkpt lat="48.6175" lon="23.052506"></trkpt>
      <trkpt lat="48.616941" lon="23.053113"></trkpt>
      <trkpt lat="48.616003" lon="23.055367"></trkpt>
      <trkpt lat="48.614969" lon="23.057008"></trkpt>
      <trkpt lat="48.614279" lon="23.057839"></trkpt>
      <trkpt lat="48.613427" lon="23.058123"></trkpt>
      <trkpt lat="48.612853" lon="23.05795"></trkpt>
      <trkpt lat="48.612032" lon="23.057345"></trkpt>
      <trkpt lat="48.609839" lon="23.05488"></trkpt>
      <trkpt lat="48.608009" lon="23.053981"></trkpt>
      <trkpt lat="48.607228" lon="23.053275"></trkpt>
      <trkpt lat="48.606564" lon="23.052043"></trkpt>
      <trkpt lat="48.605111" lon="23.047647"></trkpt>
      <trkpt lat="48.604409" lon="23.04652"></trkpt>
      <trkpt lat="48.603912" lon="23.046139"></trkpt>
      <trkpt lat="48.600601" lon="23.044327"></trkpt>
      <trkpt lat="48.598978" lon="23.042547"></trkpt>
      <trkpt lat="48.598618" lon="23.042482"></trkpt>
      <trkpt lat="48.598146" lon="23.042598"></trkpt>
      <trkpt lat="48.595381" lon="23.043888"></trkpt>
      <trkpt lat="48.594322" lon="23.043973"></trkpt>
      <trkpt lat="48.593169" lon="23.043733"></trkpt>
      <trkpt lat="48.588641" lon="23.042055"></trkpt>
      <trkpt lat="48.587069" lon="23.041002"></trkpt>
      <trkpt lat="48.583771" lon="23.037703"></trkpt>
      <trkpt lat="48.582491" lon="23.03676"></trkpt>
      <trkpt lat="48.575906" lon="23.034089"></trkpt>
      <trkpt lat="48.574763" lon="23.033427"></trkpt>
      <trkpt lat="48.574025" lon="23.032708"></trkpt>
      <trkpt lat="48.571105" lon="23.029302"></trkpt>
      <trkpt lat="48.570471" lon="23.028683"></trkpt>
      <trkpt lat="48.569216" lon="23.027786"></trkpt>
      <trkpt lat="48.568145" lon="23.02725"></trkpt>
      <trkpt lat="48.559887" lon="23.024433"></trkpt>
      <trkpt lat="48.559294" lon="23.023997"></trkpt>
      <trkpt lat="48.558867" lon="23.023157"></trkpt>
      <trkpt lat="48.558466" lon="23.021316"></trkpt>
      <trkpt lat="48.557952" lon="23.017611"></trkpt>
      <trkpt lat="48.557962" lon="23.015539"></trkpt>
      <trkpt lat="48.558512" lon="23.009385"></trkpt>
      <trkpt lat="48.557845" lon="23.003154"></trkpt>
      <trkpt lat="48.557865" lon="23.001871"></trkpt>
      <trkpt lat="48.558119" lon="23.000371"></trkpt>
      <trkpt lat="48.560283" lon="22.99344"></trkpt>
      <trkpt lat="48.560921" lon="22.988018"></trkpt>
      <trkpt lat="48.561996" lon="22.983657"></trkpt>
      <trkpt lat="48.562664" lon="22.9776"></trkpt>
      <trkpt lat="48.563173" lon="22.976262"></trkpt>
      <trkpt lat="48.565198" lon="22.972635"></trkpt>
      <trkpt lat="48.565403" lon="22.971983"></trkpt>
      <trkpt lat="48.565513" lon="22.970957"></trkpt>
      <trkpt lat="48.565331" lon="22.969103"></trkpt>
      <trkpt lat="48.559068" lon="22.94792"></trkpt>
      <trkpt lat="48.558156" lon="22.945379"></trkpt>
      <trkpt lat="48.557054" lon="22.942995"></trkpt>
      <trkpt lat="48.555524" lon="22.938058"></trkpt>
      <trkpt lat="48.554896" lon="22.937103"></trkpt>
      <trkpt lat="48.553167" lon="22.934928"></trkpt>
      <trkpt lat="48.550733" lon="22.93215"></trkpt>
      <trkpt lat="48.546889" lon="22.929283"></trkpt>
      <trkpt lat="48.546009" lon="22.928976"></trkpt>
      <trkpt lat="48.545433" lon="22.928976"></trkpt>
      <trkpt lat="48.543549" lon="22.929591"></trkpt>
      <trkpt lat="48.542525" lon="22.929634"></trkpt>
      <trkpt lat="48.54128" lon="22.929213"></trkpt>
      <trkpt lat="48.540284" lon="22.928385"></trkpt>
      <trkpt lat="48.539572" lon="22.927457"></trkpt>
      <trkpt lat="48.538805" lon="22.925829"></trkpt>
      <trkpt lat="48.536554" lon="22.920183"></trkpt>
      <trkpt lat="48.53614" lon="22.918735"></trkpt>
      <trkpt lat="48.535964" lon="22.917475"></trkpt>
      <trkpt lat="48.535939" lon="22.915949"></trkpt>
      <trkpt lat="48.536151" lon="22.914182"></trkpt>
      <trkpt lat="48.536551" lon="22.912857"></trkpt>
      <trkpt lat="48.537873" lon="22.909415"></trkpt>
      <trkpt lat="48.538123" lon="22.908241"></trkpt>
      <trkpt lat="48.538177" lon="22.907327"></trkpt>
      <trkpt lat="48.538117" lon="22.90615"></trkpt>
      <trkpt lat="48.536034" lon="22.893293"></trkpt>
      <trkpt lat="48.535726" lon="22.892219"></trkpt>
      <trkpt lat="48.533221" lon="22.888322"></trkpt>
      <trkpt lat="48.530701" lon="22.886119"></trkpt>
      <trkpt lat="48.523312" lon="22.878594"></trkpt>
      <trkpt lat="48.520099" lon="22.872607"></trkpt>
      <trkpt lat="48.519294" lon="22.871297"></trkpt>
      <trkpt lat="48.501268" lon="22.846464"></trkpt>
      <trkpt lat="48.500074" lon="22.844206"></trkpt>
      <trkpt lat="48.498325" lon="22.839324"></trkpt>
      <trkpt lat="48.497416" lon="22.837435"></trkpt>
      <trkpt lat="48.496368" lon="22.836001"></trkpt>
      <trkpt lat="48.494324" lon="22.834135"></trkpt>
      <trkpt lat="48.493638" lon="22.833186"></trkpt>
      <trkpt lat="48.493192" lon="22.831989"></trkpt>
      <trkpt lat="48.492416" lon="22.828314"></trkpt>
      <trkpt lat="48.491968" lon="22.827006"></trkpt>
      <trkpt lat="48.491412" lon="22.826065"></trkpt>
      <trkpt lat="48.49001" lon="22.824256"></trkpt>
      <trkpt lat="48.489402" lon="22.823101"></trkpt>
      <trkpt lat="48.488511" lon="22.820157"></trkpt>
      <trkpt lat="48.488393" lon="22.818997"></trkpt>
      <trkpt lat="48.488288" lon="22.814645"></trkpt>
      <trkpt lat="48.488" lon="22.812561"></trkpt>
      <trkpt lat="48.487544" lon="22.810386"></trkpt>
      <trkpt lat="48.486611" lon="22.808348"></trkpt>
      <trkpt lat="48.485862" lon="22.807526"></trkpt>
      <trkpt lat="48.484695" lon="22.806519"></trkpt>
      <trkpt lat="48.484063" lon="22.805719"></trkpt>
      <trkpt lat="48.483561" lon="22.804742"></trkpt>
      <trkpt lat="48.483285" lon="22.803853"></trkpt>
      <trkpt lat="48.478244" lon="22.780547"></trkpt>
      <trkpt lat="48.477846" lon="22.779217"></trkpt>
      <trkpt lat="48.477355" lon="22.778088"></trkpt>
      <trkpt lat="48.476872" lon="22.777128"></trkpt>
      <trkpt lat="48.474041" lon="22.77248"></trkpt>
      <trkpt lat="48.473401" lon="22.770617"></trkpt>
      <trkpt lat="48.471925" lon="22.76182"></trkpt>
      <trkpt lat="48.471654" lon="22.75447"></trkpt>
      <trkpt lat="48.471162" lon="22.752783"></trkpt>
      <trkpt lat="48.469812" lon="22.750591"></trkpt>
      <trkpt lat="48.469427" lon="22.749078"></trkpt>
      <trkpt lat="48.469379" lon="22.748394"></trkpt>
      <trkpt lat="48.469481" lon="22.74753"></trkpt>
      <trkpt lat="48.470208" lon="22.744996"></trkpt>
      <trkpt lat="48.470363" lon="22.743069"></trkpt>
      <trkpt lat="48.470074" lon="22.740651"></trkpt>
      <trkpt lat="48.468779" lon="22.736727"></trkpt>
      <trkpt lat="48.468538" lon="22.735637"></trkpt>
      <trkpt lat="48.468432" lon="22.734041"></trkpt>
      <trkpt lat="48.468746" lon="22.729459"></trkpt>
      <trkpt lat="48.468564" lon="22.727897"></trkpt>
      <trkpt lat="48.467917" lon="22.726185"></trkpt>
      <trkpt lat="48.468138" lon="22.726131"></trkpt>
      <trkpt lat="48.468726" lon="22.725656"></trkpt>
      <trkpt lat="48.469485" lon="22.724909"></trkpt>
      <trkpt lat="48.470578" lon="22.724314"></trkpt>
      <trkpt lat="48.470914" lon="22.723823"></trkpt>
      <trkpt lat="48.470879" lon="22.723264"></trkpt>
      <trkpt lat="48.470108" lon="22.722758"></trkpt>
      <trkpt lat="48.469692" lon="22.722275"></trkpt>
      <trkpt lat="48.468731" lon="22.72032"></trkpt>
      <trkpt lat="48.468851" lon="22.719889"></trkpt>
      <trkpt lat="48.469071" lon="22.719836"></trkpt>
      <trkpt lat="48.469552" lon="22.720229"></trkpt>
      <trkpt lat="48.470178" lon="22.720093"></trkpt>
      <trkpt lat="48.470713" lon="22.719104"></trkpt>
      <trkpt lat="48.471529" lon="22.71856"></trkpt>
      <trkpt lat="48.47174" lon="22.718175"></trkpt>
      <trkpt lat="48.474721" lon="22.71911"></trkpt>
      <trkpt lat="48.47174" lon="22.718175"></trkpt>
      <trkpt lat="48.471529" lon="22.71856"></trkpt>
      <trkpt lat="48.470713" lon="22.719104"></trkpt>
      <trkpt lat="48.470178" lon="22.720093"></trkpt>
      <trkpt lat="48.469552" lon="22.720229"></trkpt>
      <trkpt lat="48.469071" lon="22.719836"></trkpt>
      <trkpt lat="48.468851" lon="22.719889"></trkpt>
      <trkpt lat="48.468731" lon="22.72032"></trkpt>
      <trkpt lat="48.468981" lon="22.720946"></trkpt>
      <trkpt lat="48.469692" lon="22.722275"></trkpt>
      <trkpt lat="48.470108" lon="22.722758"></trkpt>
      <trkpt lat="48.470879" lon="22.723264"></trkpt>
      <trkpt lat="48.470914" lon="22.723823"></trkpt>
      <trkpt lat="48.470578" lon="22.724314"></trkpt>
      <trkpt lat="48.469485" lon="22.724909"></trkpt>
      <trkpt lat="48.468726" lon="22.725656"></trkpt>
      <trkpt lat="48.468138" lon="22.726131"></trkpt>
      <trkpt lat="48.467917" lon="22.726185"></trkpt>
      <trkpt lat="48.467325" lon="22.725361"></trkpt>
      <trkpt lat="48.46299" lon="22.72113"></trkpt>
      <trkpt lat="48.461892" lon="22.719766"></trkpt>
      <trkpt lat="48.460871" lon="22.717997"></trkpt>
      <trkpt lat="48.460286" lon="22.716555"></trkpt>
      <trkpt lat="48.460176" lon="22.715974"></trkpt>
      <trkpt lat="48.460064" lon="22.715972"></trkpt>
      <trkpt lat="48.458734" lon="22.710799"></trkpt>
      <trkpt lat="48.458542" lon="22.70988"></trkpt>
      <trkpt lat="48.458565" lon="22.709516"></trkpt>
      <trkpt lat="48.458153" lon="22.708514"></trkpt>
      <trkpt lat="48.456246" lon="22.701494"></trkpt>
      <trkpt lat="48.451918" lon="22.688114"></trkpt>
      <trkpt lat="48.451403" lon="22.68569"></trkpt>
      <trkpt lat="48.450788" lon="22.686053"></trkpt>
      <trkpt lat="48.442536" lon="22.68621"></trkpt>
      <trkpt lat="48.441107" lon="22.686376"></trkpt>
      <trkpt lat="48.439181" lon="22.687151"></trkpt>
      <trkpt lat="48.436285" lon="22.689272"></trkpt>
      <trkpt lat="48.435425" lon="22.688004"></trkpt>
      <trkpt lat="48.434472" lon="22.687524"></trkpt>
      <trkpt lat="48.434231" lon="22.686924"></trkpt>
      <trkpt lat="48.43385" lon="22.685169"></trkpt>
      <trkpt lat="48.434231" lon="22.686924"></trkpt>
      <trkpt lat="48.434472" lon="22.687524"></trkpt>
      <trkpt lat="48.435211" lon="22.687866"></trkpt>
      <trkpt lat="48.4356" lon="22.688173"></trkpt>
      <trkpt lat="48.436197" lon="22.689197"></trkpt>
      <trkpt lat="48.434074" lon="22.691677"></trkpt>
      <trkpt lat="48.432489" lon="22.693312"></trkpt>
      <trkpt lat="48.436163" lon="22.712177"></trkpt>
      <trkpt lat="48.436294" lon="22.712279"></trkpt>
      <trkpt lat="48.436594" lon="22.717471"></trkpt>
      <trkpt lat="48.436815" lon="22.717684"></trkpt>
      <trkpt lat="48.43678" lon="22.723727"></trkpt>
      <trkpt lat="48.436528" lon="22.725557"></trkpt>
      <trkpt lat="48.43675" lon="22.726804"></trkpt>
      <trkpt lat="48.437803" lon="22.726812"></trkpt>
      <trkpt lat="48.438872" lon="22.726217"></trkpt>
      <trkpt lat="48.439407" lon="22.727273"></trkpt>
      <trkpt lat="48.441522" lon="22.730187"></trkpt>
      <trkpt lat="48.441616" lon="22.73076"></trkpt>
      <trkpt lat="48.441359" lon="22.732674"></trkpt>
      <trkpt lat="48.440156" lon="22.738493"></trkpt>
      <trkpt lat="48.438733" lon="22.743816"></trkpt>
      <trkpt lat="48.438499" lon="22.744282"></trkpt>
      <trkpt lat="48.438398" lon="22.745155"></trkpt>
      <trkpt lat="48.436809" lon="22.751777"></trkpt>
      <trkpt lat="48.436541" lon="22.752143"></trkpt>
      <trkpt lat="48.436584" lon="22.75266"></trkpt>
      <trkpt lat="48.435231" lon="22.758042"></trkpt>
      <trkpt lat="48.432855" lon="22.763037"></trkpt>
      <trkpt lat="48.431003" lon="22.767987"></trkpt>
      <trkpt lat="48.430852" lon="22.76868"></trkpt>
      <trkpt lat="48.430337" lon="22.774206"></trkpt>
      <trkpt lat="48.430462" lon="22.774987"></trkpt>
      <trkpt lat="48.431428" lon="22.77804"></trkpt>
      <trkpt lat="48.431538" lon="22.778946"></trkpt>
      <trkpt lat="48.430977" lon="22.786605"></trkpt>
      <trkpt lat="48.430855" lon="22.787482"></trkpt>
      <trkpt lat="48.430656" lon="22.788019"></trkpt>
      <trkpt lat="48.430174" lon="22.788626"></trkpt>
      <trkpt lat="48.427468" lon="22.790752"></trkpt>
      <trkpt lat="48.415282" lon="22.794396"></trkpt>
      <trkpt lat="48.41405" lon="22.795051"></trkpt>
      <trkpt lat="48.413235" lon="22.795933"></trkpt>
      <trkpt lat="48.407648" lon="22.804012"></trkpt>
      <trkpt lat="48.407124" lon="22.804626"></trkpt>
      <trkpt lat="48.40661" lon="22.804997"></trkpt>
      <trkpt lat="48.403533" lon="22.8061"></trkpt>
      <trkpt lat="48.400119" lon="22.807957"></trkpt>
      <trkpt lat="48.399207" lon="22.808329"></trkpt>
      <trkpt lat="48.398261" lon="22.808426"></trkpt>
      <trkpt lat="48.395036" lon="22.80827"></trkpt>
      <trkpt lat="48.390187" lon="22.809606"></trkpt>
      <trkpt lat="48.388585" lon="22.810537"></trkpt>
      <trkpt lat="48.384764" lon="22.813835"></trkpt>
      <trkpt lat="48.383963" lon="22.81437"></trkpt>
      <trkpt lat="48.383159" lon="22.814797"></trkpt>
      <trkpt lat="48.376994" lon="22.817239"></trkpt>
      <trkpt lat="48.376164" lon="22.817766"></trkpt>
      <trkpt lat="48.371941" lon="22.823863"></trkpt>
      <trkpt lat="48.370126" lon="22.825779"></trkpt>
      <trkpt lat="48.366815" lon="22.834861"></trkpt>
      <trkpt lat="48.366517" lon="22.835873"></trkpt>
      <trkpt lat="48.363382" lon="22.851276"></trkpt>
      <trkpt lat="48.361761" lon="22.861151"></trkpt>
      <trkpt lat="48.361582" lon="22.861621"></trkpt>
      <trkpt lat="48.361371" lon="22.861831"></trkpt>
      <trkpt lat="48.359929" lon="22.862382"></trkpt>
      <trkpt lat="48.359898" lon="22.862755"></trkpt>
      <trkpt lat="48.360363" lon="22.863487"></trkpt>
      <trkpt lat="48.360342" lon="22.863854"></trkpt>
      <trkpt lat="48.359165" lon="22.864649"></trkpt>
      <trkpt lat="48.358538" lon="22.865723"></trkpt>
      <trkpt lat="48.358248" lon="22.866728"></trkpt>
      <trkpt lat="48.358199" lon="22.867494"></trkpt>
      <trkpt lat="48.358314" lon="22.867985"></trkpt>
      <trkpt lat="48.358669" lon="22.86865"></trkpt>
      <trkpt lat="48.358697" lon="22.869071"></trkpt>
      <trkpt lat="48.358633" lon="22.869223"></trkpt>
      <trkpt lat="48.358378" lon="22.869277"></trkpt>
      <trkpt lat="48.357413" lon="22.868605"></trkpt>
      <trkpt lat="48.357201" lon="22.868578"></trkpt>
      <trkpt lat="48.357021" lon="22.868694"></trkpt>
      <trkpt lat="48.356917" lon="22.869981"></trkpt>
      <trkpt lat="48.356568" lon="22.871204"></trkpt>
      <trkpt lat="48.355588" lon="22.872338"></trkpt>
      <trkpt lat="48.354924" lon="22.872866"></trkpt>
      <trkpt lat="48.353563" lon="22.874929"></trkpt>
      <trkpt lat="48.351857" lon="22.876508"></trkpt>
      <trkpt lat="48.351323" lon="22.877142"></trkpt>
      <trkpt lat="48.350732" lon="22.878381"></trkpt>
      <trkpt lat="48.348978" lon="22.883204"></trkpt>
      <trkpt lat="48.347912" lon="22.885602"></trkpt>
      <trkpt lat="48.347677" lon="22.885846"></trkpt>
      <trkpt lat="48.347181" lon="22.886033"></trkpt>
      <trkpt lat="48.34467" lon="22.886703"></trkpt>
      <trkpt lat="48.340409" lon="22.88634"></trkpt>
      <trkpt lat="48.337767" lon="22.886233"></trkpt>
      <trkpt lat="48.336205" lon="22.886387"></trkpt>
      <trkpt lat="48.334862" lon="22.886767"></trkpt>
      <trkpt lat="48.331085" lon="22.888586"></trkpt>
      <trkpt lat="48.326086" lon="22.890532"></trkpt>
      <trkpt lat="48.319166" lon="22.896907"></trkpt>
      <trkpt lat="48.31875" lon="22.897511"></trkpt>
      <trkpt lat="48.318583" lon="22.898199"></trkpt>
      <trkpt lat="48.31872" lon="22.902018"></trkpt>
      <trkpt lat="48.318897" lon="22.902422"></trkpt>
      <trkpt lat="48.319568" lon="22.90317"></trkpt>
      <trkpt lat="48.319775" lon="22.903645"></trkpt>
      <trkpt lat="48.319966" lon="22.904671"></trkpt>
      <trkpt lat="48.319886" lon="22.906086"></trkpt>
      <trkpt lat="48.320044" lon="22.907195"></trkpt>
      <trkpt lat="48.321111" lon="22.909625"></trkpt>
      <trkpt lat="48.321917" lon="22.912556"></trkpt>
      <trkpt lat="48.321856" lon="22.912849"></trkpt>
      <trkpt lat="48.3209" lon="22.913554"></trkpt>
      <trkpt lat="48.320057" lon="22.914906"></trkpt>
      <trkpt lat="48.319537" lon="22.915375"></trkpt>
      <trkpt lat="48.316927" lon="22.916435"></trkpt>
      <trkpt lat="48.314884" lon="22.916418"></trkpt>
      <trkpt lat="48.314527" lon="22.916524"></trkpt>
      <trkpt lat="48.313649" lon="22.917476"></trkpt>
      <trkpt lat="48.311819" lon="22.918738"></trkpt>
      <trkpt lat="48.30904" lon="22.920989"></trkpt>
      <trkpt lat="48.307657" lon="22.923069"></trkpt>
      <trkpt lat="48.307031" lon="22.923603"></trkpt>
      <trkpt lat="48.305284" lon="22.924659"></trkpt>
      <trkpt lat="48.303028" lon="22.927361"></trkpt>
      <trkpt lat="48.30251" lon="22.928192"></trkpt>
      <trkpt lat="48.301282" lon="22.931221"></trkpt>
      <trkpt lat="48.299319" lon="22.934892"></trkpt>
      <trkpt lat="48.298587" lon="22.935777"></trkpt>
      <trkpt lat="48.297756" lon="22.936303"></trkpt>
      <trkpt lat="48.299586" lon="22.939568"></trkpt>
      <trkpt lat="48.300674" lon="22.942695"></trkpt>
      <trkpt lat="48.301828" lon="22.947628"></trkpt>
      <trkpt lat="48.303533" lon="22.950524"></trkpt>
      <trkpt lat="48.3042" lon="22.951231"></trkpt>
      <trkpt lat="48.305394" lon="22.953792"></trkpt>
      <trkpt lat="48.303754" lon="22.955131"></trkpt>
      <trkpt lat="48.303413" lon="22.95555"></trkpt>
      <trkpt lat="48.303365" lon="22.95579"></trkpt>
      <trkpt lat="48.303562" lon="22.956399"></trkpt>
      <trkpt lat="48.304418" lon="22.95755"></trkpt>
      <trkpt lat="48.304622" lon="22.958201"></trkpt>
      <trkpt lat="48.304612" lon="22.958784"></trkpt>
      <trkpt lat="48.304058" lon="22.959185"></trkpt>
      <trkpt lat="48.303964" lon="22.960539"></trkpt>
      <trkpt lat="48.304189" lon="22.961664"></trkpt>
      <trkpt lat="48.304886" lon="22.963456"></trkpt>
      <trkpt lat="48.304885" lon="22.963766"></trkpt>
      <trkpt lat="48.304633" lon="22.964333"></trkpt>
      <trkpt lat="48.304487" lon="22.966299"></trkpt>
      <trkpt lat="48.304768" lon="22.967809"></trkpt>
      <trkpt lat="48.30251" lon="22.969033"></trkpt>
      <trkpt lat="48.300957" lon="22.970155"></trkpt>
      <trkpt lat="48.300378" lon="22.970388"></trkpt>
      <trkpt lat="48.29886" lon="22.97047"></trkpt>
      <trkpt lat="48.298549" lon="22.970964"></trkpt>
      <trkpt lat="48.297944" lon="22.972513"></trkpt>
      <trkpt lat="48.297011" lon="22.973219"></trkpt>
      <trkpt lat="48.296421" lon="22.973882"></trkpt>
      <trkpt lat="48.295916" lon="22.974921"></trkpt>
      <trkpt lat="48.295051" lon="22.976011"></trkpt>
      <trkpt lat="48.294311" lon="22.977697"></trkpt>
      <trkpt lat="48.293826" lon="22.979188"></trkpt>
      <trkpt lat="48.2936" lon="22.979336"></trkpt>
      <trkpt lat="48.292108" lon="22.979667"></trkpt>
      <trkpt lat="48.291049" lon="22.980057"></trkpt>
      <trkpt lat="48.290616" lon="22.980975"></trkpt>
      <trkpt lat="48.289193" lon="22.981347"></trkpt>
      <trkpt lat="48.287479" lon="22.983391"></trkpt>
      <trkpt lat="48.288324" lon="22.988956"></trkpt>
      <trkpt lat="48.287787" lon="22.996644"></trkpt>
      <trkpt lat="48.287636" lon="22.997049"></trkpt>
      <trkpt lat="48.286701" lon="22.998372"></trkpt>
      <trkpt lat="48.286379" lon="22.999184"></trkpt>
      <trkpt lat="48.27665" lon="23.044813"></trkpt>
      <trkpt lat="48.276162" lon="23.046383"></trkpt>
      <trkpt lat="48.275444" lon="23.048065"></trkpt>
      <trkpt lat="48.269177" lon="23.058799"></trkpt>
      <trkpt lat="48.268492" lon="23.059443"></trkpt>
      <trkpt lat="48.267376" lon="23.063021"></trkpt>
      <trkpt lat="48.266747" lon="23.066346"></trkpt>
      <trkpt lat="48.267185" lon="23.067318"></trkpt>
      <trkpt lat="48.268208" lon="23.067954"></trkpt>
      <trkpt lat="48.268457" lon="23.068328"></trkpt>
      <trkpt lat="48.269251" lon="23.072075"></trkpt>
      <trkpt lat="48.270534" lon="23.080867"></trkpt>
      <trkpt lat="48.26893" lon="23.094438"></trkpt>
      <trkpt lat="48.268507" lon="23.102948"></trkpt>
      <trkpt lat="48.270441" lon="23.115278"></trkpt>
      <trkpt lat="48.268217" lon="23.115853"></trkpt>
      <trkpt lat="48.265824" lon="23.112493"></trkpt>
      <trkpt lat="48.26546" lon="23.112217"></trkpt>
      <trkpt lat="48.256961" lon="23.109115"></trkpt>
      <trkpt lat="48.256376" lon="23.108999"></trkpt>
      <trkpt lat="48.254965" lon="23.109287"></trkpt>
      <trkpt lat="48.254444" lon="23.109259"></trkpt>
      <trkpt lat="48.252891" lon="23.108744"></trkpt>
      <trkpt lat="48.252022" lon="23.108041"></trkpt>
      <trkpt lat="48.251521" lon="23.10793"></trkpt>
      <trkpt lat="48.250185" lon="23.107895"></trkpt>
      <trkpt lat="48.248831" lon="23.107412"></trkpt>
      <trkpt lat="48.246825" lon="23.107523"></trkpt>
      <trkpt lat="48.246322" lon="23.108259"></trkpt>
      <trkpt lat="48.24576" lon="23.10867"></trkpt>
      <trkpt lat="48.244942" lon="23.108744"></trkpt>
      <trkpt lat="48.243275" lon="23.109162"></trkpt>
      <trkpt lat="48.242789" lon="23.109367"></trkpt>
      <trkpt lat="48.242291" lon="23.109783"></trkpt>
      <trkpt lat="48.241656" lon="23.1096"></trkpt>
      <trkpt lat="48.241286" lon="23.109948"></trkpt>
      <trkpt lat="48.24092" lon="23.110015"></trkpt>
      <trkpt lat="48.240514" lon="23.110283"></trkpt>
      <trkpt lat="48.239007" lon="23.110383"></trkpt>
      <trkpt lat="48.238577" lon="23.110786"></trkpt>
      <trkpt lat="48.238014" lon="23.111692"></trkpt>
      <trkpt lat="48.237162" lon="23.112709"></trkpt>
      <trkpt lat="48.236148" lon="23.113615"></trkpt>
      <trkpt lat="48.235545" lon="23.114004"></trkpt>
      <trkpt lat="48.234961" lon="23.115099"></trkpt>
      <trkpt lat="48.232304" lon="23.118221"></trkpt>
      <trkpt lat="48.229943" lon="23.122029"></trkpt>
      <trkpt lat="48.22946" lon="23.122241"></trkpt>
      <trkpt lat="48.228882" lon="23.122083"></trkpt>
      <trkpt lat="48.228354" lon="23.122767"></trkpt>
      <trkpt lat="48.228052" lon="23.122983"></trkpt>
      <trkpt lat="48.226537" lon="23.123044"></trkpt>
      <trkpt lat="48.225796" lon="23.12336"></trkpt>
      <trkpt lat="48.225495" lon="23.123974"></trkpt>
      <trkpt lat="48.225495" lon="23.124731"></trkpt>
      <trkpt lat="48.225295" lon="23.125988"></trkpt>
      <trkpt lat="48.2254" lon="23.127188"></trkpt>
      <trkpt lat="48.225353" lon="23.128382"></trkpt>
      <trkpt lat="48.22552" lon="23.129196"></trkpt>
      <trkpt lat="48.225465" lon="23.129536"></trkpt>
      <trkpt lat="48.224648" lon="23.132073"></trkpt>
      <trkpt lat="48.223328" lon="23.134359"></trkpt>
      <trkpt lat="48.22269" lon="23.135083"></trkpt>
      <trkpt lat="48.222451" lon="23.135956"></trkpt>
      <trkpt lat="48.222607" lon="23.136954"></trkpt>
      <trkpt lat="48.221946" lon="23.13868"></trkpt>
      <trkpt lat="48.2212" lon="23.139224"></trkpt>
      <trkpt lat="48.219671" lon="23.138754"></trkpt>
      <trkpt lat="48.219336" lon="23.138857"></trkpt>
      <trkpt lat="48.218027" lon="23.140789"></trkpt>
      <trkpt lat="48.212411" lon="23.151078"></trkpt>
      <trkpt lat="48.211268" lon="23.150862"></trkpt>
      <trkpt lat="48.210489" lon="23.151099"></trkpt>
      <trkpt lat="48.210039" lon="23.15151"></trkpt>
      <trkpt lat="48.209894" lon="23.152535"></trkpt>
      <trkpt lat="48.210097" lon="23.153424"></trkpt>
      <trkpt lat="48.210651" lon="23.15476"></trkpt>
      <trkpt lat="48.211574" lon="23.156313"></trkpt>
      <trkpt lat="48.212086" lon="23.156879"></trkpt>
      <trkpt lat="48.213235" lon="23.159051"></trkpt>
      <trkpt lat="48.213533" lon="23.160459"></trkpt>
      <trkpt lat="48.212194" lon="23.162017"></trkpt>
      <trkpt lat="48.211832" lon="23.163543"></trkpt>
      <trkpt lat="48.210045" lon="23.166701"></trkpt>
      <trkpt lat="48.209467" lon="23.167307"></trkpt>
      <trkpt lat="48.208676" lon="23.167703"></trkpt>
      <trkpt lat="48.20835" lon="23.168178"></trkpt>
      <trkpt lat="48.207479" lon="23.172244"></trkpt>
      <trkpt lat="48.207274" lon="23.173686"></trkpt>
      <trkpt lat="48.206883" lon="23.1742"></trkpt>
      <trkpt lat="48.206444" lon="23.175653"></trkpt>
      <trkpt lat="48.206351" lon="23.176452"></trkpt>
      <trkpt lat="48.205654" lon="23.177813"></trkpt>
      <trkpt lat="48.20556" lon="23.177938"></trkpt>
      <trkpt lat="48.205074" lon="23.17804"></trkpt>
      <trkpt lat="48.204623" lon="23.178608"></trkpt>
      <trkpt lat="48.204597" lon="23.180342"></trkpt>
      <trkpt lat="48.204431" lon="23.180463"></trkpt>
      <trkpt lat="48.204204" lon="23.18045"></trkpt>
      <trkpt lat="48.192206" lon="23.178048"></trkpt>
      <trkpt lat="48.190265" lon="23.198704"></trkpt>
      <trkpt lat="48.187897" lon="23.21342"></trkpt>
      <trkpt lat="48.185333" lon="23.231374"></trkpt>
      <trkpt lat="48.183897" lon="23.243835"></trkpt>
      <trkpt lat="48.181624" lon="23.261551"></trkpt>
      <trkpt lat="48.181784" lon="23.262722"></trkpt>
      <trkpt lat="48.181204" lon="23.265185"></trkpt>
      <trkpt lat="48.181025" lon="23.268516"></trkpt>
      <trkpt lat="48.18047" lon="23.271863"></trkpt>
      <trkpt lat="48.18046" lon="23.272733"></trkpt>
      <trkpt lat="48.180592" lon="23.273461"></trkpt>
      <trkpt lat="48.180867" lon="23.273383"></trkpt>
      <trkpt lat="48.181143" lon="23.273524"></trkpt>
      <trkpt lat="48.181847" lon="23.274258"></trkpt>
      <trkpt lat="48.183336" lon="23.277049"></trkpt>
      <trkpt lat="48.184452" lon="23.278801"></trkpt>
      <trkpt lat="48.187548" lon="23.281981"></trkpt>
      <trkpt lat="48.189656" lon="23.284517"></trkpt>
      <trkpt lat="48.197662" lon="23.289889"></trkpt>
      <trkpt lat="48.198682" lon="23.290637"></trkpt>
      <trkpt lat="48.200044" lon="23.291977"></trkpt>
      <trkpt lat="48.200573" lon="23.292777"></trkpt>
      <trkpt lat="48.200845" lon="23.293446"></trkpt>
      <trkpt lat="48.201115" lon="23.294701"></trkpt>
      <trkpt lat="48.201152" lon="23.29595"></trkpt>
      <trkpt lat="48.201031" lon="23.297349"></trkpt>
      <trkpt lat="48.200677" lon="23.299221"></trkpt>
      <trkpt lat="48.198697" lon="23.308506"></trkpt>
      <trkpt lat="48.198428" lon="23.309207"></trkpt>
      <trkpt lat="48.198202" lon="23.309343"></trkpt>
      <trkpt lat="48.198072" lon="23.309667"></trkpt>
      <trkpt lat="48.198196" lon="23.311097"></trkpt>
      <trkpt lat="48.197659" lon="23.314281"></trkpt>
      <trkpt lat="48.195073" lon="23.323893"></trkpt>
      <trkpt lat="48.194072" lon="23.326108"></trkpt>
      <trkpt lat="48.19299" lon="23.327396"></trkpt>
      <trkpt lat="48.191978" lon="23.328216"></trkpt>
      <trkpt lat="48.191116" lon="23.328682"></trkpt>
      <trkpt lat="48.190074" lon="23.329052"></trkpt>
      <trkpt lat="48.189415" lon="23.329099"></trkpt>
      <trkpt lat="48.180398" lon="23.328432"></trkpt>
      <trkpt lat="48.179494" lon="23.334293"></trkpt>
      <trkpt lat="48.179006" lon="23.335887"></trkpt>
      <trkpt lat="48.178809" lon="23.337139"></trkpt>
      <trkpt lat="48.178877" lon="23.337957"></trkpt>
      <trkpt lat="48.1793" lon="23.33962"></trkpt>
      <trkpt lat="48.179921" lon="23.340934"></trkpt>
      <trkpt lat="48.180102" lon="23.341632"></trkpt>
      <trkpt lat="48.179328" lon="23.34307"></trkpt>
      <trkpt lat="48.178579" lon="23.343457"></trkpt>
      <trkpt lat="48.177847" lon="23.345491"></trkpt>
      <trkpt lat="48.177796" lon="23.345726"></trkpt>
      <trkpt lat="48.178287" lon="23.349153"></trkpt>
      <trkpt lat="48.17685" lon="23.356286"></trkpt>
      <trkpt lat="48.180734" lon="23.35857"></trkpt>
      <trkpt lat="48.180969" lon="23.358779"></trkpt>
      <trkpt lat="48.181177" lon="23.359319"></trkpt>
      <trkpt lat="48.181681" lon="23.359995"></trkpt>
  </trkseg></trk>
</gpx>
