<?xml version="1.0" encoding="UTF-8"?>
<gpx version="1.1" creator="yatutbuv" xmlns="http://www.topografix.com/GPX/1/1">
  <trk><name>GraphHopper Track</name><trkseg>
      <trkpt lat="49.448085" lon="22.386456"></trkpt>
      <trkpt lat="49.446373" lon="22.383464"></trkpt>
      <trkpt lat="49.44714" lon="22.382034"></trkpt>
      <trkpt lat="49.448524" lon="22.384549"></trkpt>
      <trkpt lat="49.451735" lon="22.389545"></trkpt>
      <trkpt lat="49.451757" lon="22.390091"></trkpt>
      <trkpt lat="49.453174" lon="22.390312"></trkpt>
      <trkpt lat="49.457235" lon="22.3925"></trkpt>
      <trkpt lat="49.457503" lon="22.392997"></trkpt>
      <trkpt lat="49.458383" lon="22.395763"></trkpt>
      <trkpt lat="49.458677" lon="22.396139"></trkpt>
      <trkpt lat="49.459126" lon="22.396291"></trkpt>
      <trkpt lat="49.460494" lon="22.39635"></trkpt>
      <trkpt lat="49.46104" lon="22.396575"></trkpt>
      <trkpt lat="49.461972" lon="22.396724"></trkpt>
      <trkpt lat="49.462181" lon="22.396883"></trkpt>
      <trkpt lat="49.462588" lon="22.397698"></trkpt>
      <trkpt lat="49.462988" lon="22.398012"></trkpt>
      <trkpt lat="49.463772" lon="22.397077"></trkpt>
      <trkpt lat="49.464306" lon="22.397174"></trkpt>
      <trkpt lat="49.464373" lon="22.398282"></trkpt>
      <trkpt lat="49.464786" lon="22.39883"></trkpt>
      <trkpt lat="49.465218" lon="22.399032"></trkpt>
      <trkpt lat="49.466372" lon="22.399049"></trkpt>
      <trkpt lat="49.466737" lon="22.399177"></trkpt>
      <trkpt lat="49.467166" lon="22.399701"></trkpt>
      <trkpt lat="49.469467" lon="22.403764"></trkpt>
      <trkpt lat="49.471996" lon="22.40764"></trkpt>
      <trkpt lat="49.472325" lon="22.409069"></trkpt>
      <trkpt lat="49.472311" lon="22.410289"></trkpt>
      <trkpt lat="49.471101" lon="22.417704"></trkpt>
      <trkpt lat="49.470322" lon="22.420076"></trkpt>
      <trkpt lat="49.470295" lon="22.421586"></trkpt>
      <trkpt lat="49.470686" lon="22.422859"></trkpt>
      <trkpt lat="49.474188" lon="22.43022"></trkpt>
      <trkpt lat="49.475314" lon="22.43301"></trkpt>
      <trkpt lat="49.47569" lon="22.434663"></trkpt>
      <trkpt lat="49.476707" lon="22.437459"></trkpt>
      <trkpt lat="49.477568" lon="22.440649"></trkpt>
      <trkpt lat="49.477604" lon="22.442084"></trkpt>
      <trkpt lat="49.477372" lon="22.443123"></trkpt>
      <trkpt lat="49.478092" lon="22.443675"></trkpt>
      <trkpt lat="49.478512" lon="22.443766"></trkpt>
      <trkpt lat="49.480238" lon="22.443138"></trkpt>
      <trkpt lat="49.481766" lon="22.443293"></trkpt>
      <trkpt lat="49.483234" lon="22.443649"></trkpt>
      <trkpt lat="49.485205" lon="22.443587"></trkpt>
      <trkpt lat="49.485954" lon="22.443329"></trkpt>
      <trkpt lat="49.486364" lon="22.44335"></trkpt>
      <trkpt lat="49.488034" lon="22.444756"></trkpt>
      <trkpt lat="49.48947" lon="22.446477"></trkpt>
      <trkpt lat="49.491181" lon="22.448224"></trkpt>
      <trkpt lat="49.493013" lon="22.449442"></trkpt>
      <trkpt lat="49.494169" lon="22.450024"></trkpt>
      <trkpt lat="49.494778" lon="22.44985"></trkpt>
      <trkpt lat="49.4955" lon="22.449975"></trkpt>
      <trkpt lat="49.49676" lon="22.44996"></trkpt>
      <trkpt lat="49.498193" lon="22.450422"></trkpt>
      <trkpt lat="49.500293" lon="22.450857"></trkpt>
      <trkpt lat="49.502154" lon="22.452004"></trkpt>
      <trkpt lat="49.504123" lon="22.453846"></trkpt>
      <trkpt lat="49.504607" lon="22.454462"></trkpt>
      <trkpt lat="49.506822" lon="22.458093"></trkpt>
      <trkpt lat="49.507512" lon="22.458731"></trkpt>
      <trkpt lat="49.507793" lon="22.459331"></trkpt>
      <trkpt lat="49.507899" lon="22.461791"></trkpt>
      <trkpt lat="49.508802" lon="22.463823"></trkpt>
      <trkpt lat="49.508976" lon="22.464481"></trkpt>
      <trkpt lat="49.508977" lon="22.466975"></trkpt>
      <trkpt lat="49.508205" lon="22.471167"></trkpt>
      <trkpt lat="49.509068" lon="22.473668"></trkpt>
      <trkpt lat="49.508998" lon="22.475737"></trkpt>
      <trkpt lat="49.509298" lon="22.476657"></trkpt>
      <trkpt lat="49.509851" lon="22.477695"></trkpt>
      <trkpt lat="49.510926" lon="22.478719"></trkpt>
      <trkpt lat="49.511891" lon="22.479232"></trkpt>
      <trkpt lat="49.512064" lon="22.479471"></trkpt>
      <trkpt lat="49.512109" lon="22.480907"></trkpt>
      <trkpt lat="49.512449" lon="22.483478"></trkpt>
      <trkpt lat="49.51279" lon="22.484398"></trkpt>
      <trkpt lat="49.51326" lon="22.485227"></trkpt>
      <trkpt lat="49.513532" lon="22.486437"></trkpt>
      <trkpt lat="49.51384" lon="22.487192"></trkpt>
      <trkpt lat="49.514161" lon="22.487467"></trkpt>
      <trkpt lat="49.514552" lon="22.487507"></trkpt>
      <trkpt lat="49.515324" lon="22.487045"></trkpt>
      <trkpt lat="49.51688" lon="22.486548"></trkpt>
      <trkpt lat="49.518273" lon="22.485611"></trkpt>
      <trkpt lat="49.519478" lon="22.485565"></trkpt>
      <trkpt lat="49.522007" lon="22.486663"></trkpt>
      <trkpt lat="49.522591" lon="22.487138"></trkpt>
      <trkpt lat="49.523348" lon="22.487551"></trkpt>
      <trkpt lat="49.52527" lon="22.48803"></trkpt>
      <trkpt lat="49.525645" lon="22.488332"></trkpt>
      <trkpt lat="49.528533" lon="22.492483"></trkpt>
      <trkpt lat="49.529693" lon="22.49347"></trkpt>
      <trkpt lat="49.532572" lon="22.496486"></trkpt>
      <trkpt lat="49.533991" lon="22.497647"></trkpt>
      <trkpt lat="49.534655" lon="22.500898"></trkpt>
      <trkpt lat="49.53532" lon="22.502172"></trkpt>
      <trkpt lat="49.535601" lon="22.503692"></trkpt>
      <trkpt lat="49.536171" lon="22.504746"></trkpt>
      <trkpt lat="49.536628" lon="22.506151"></trkpt>
      <trkpt lat="49.536737" lon="22.505982"></trkpt>
      <trkpt lat="49.539318" lon="22.504457"></trkpt>
      <trkpt lat="49.541432" lon="22.503776"></trkpt>
      <trkpt lat="49.543201" lon="22.501047"></trkpt>
      <trkpt lat="49.544383" lon="22.498021"></trkpt>
      <trkpt lat="49.547328" lon="22.493401"></trkpt>
      <trkpt lat="49.547804" lon="22.492841"></trkpt>
      <trkpt lat="49.548555" lon="22.492241"></trkpt>
      <trkpt lat="49.548945" lon="22.49172"></trkpt>
      <trkpt lat="49.549228" lon="22.490886"></trkpt>
      <trkpt lat="49.549845" lon="22.48772"></trkpt>
      <trkpt lat="49.550978" lon="22.485775"></trkpt>
      <trkpt lat="49.551859" lon="22.482941"></trkpt>
      <trkpt lat="49.552181" lon="22.482473"></trkpt>
      <trkpt lat="49.553449" lon="22.481474"></trkpt>
      <trkpt lat="49.553759" lon="22.481038"></trkpt>
      <trkpt lat="49.555403" lon="22.477161"></trkpt>
      <trkpt lat="49.556583" lon="22.474862"></trkpt>
      <trkpt lat="49.55849" lon="22.47159"></trkpt>
      <trkpt lat="49.559601" lon="22.469008"></trkpt>
      <trkpt lat="49.561591" lon="22.465171"></trkpt>
      <trkpt lat="49.563123" lon="22.461928"></trkpt>
      <trkpt lat="49.56406" lon="22.45969"></trkpt>
      <trkpt lat="49.568118" lon="22.452997"></trkpt>
      <trkpt lat="49.568884" lon="22.45032"></trkpt>
      <trkpt lat="49.569719" lon="22.448057"></trkpt>
      <trkpt lat="49.570222" lon="22.446903"></trkpt>
      <trkpt lat="49.571802" lon="22.444047"></trkpt>
      <trkpt lat="49.57261" lon="22.44028"></trkpt>
      <trkpt lat="49.573093" lon="22.438905"></trkpt>
      <trkpt lat="49.573722" lon="22.437719"></trkpt>
      <trkpt lat="49.574814" lon="22.436717"></trkpt>
      <trkpt lat="49.575351" lon="22.435396"></trkpt>
      <trkpt lat="49.575973" lon="22.432951"></trkpt>
      <trkpt lat="49.576656" lon="22.431869"></trkpt>
      <trkpt lat="49.577517" lon="22.428706"></trkpt>
      <trkpt lat="49.577533" lon="22.426893"></trkpt>
      <trkpt lat="49.578095" lon="22.425214"></trkpt>
      <trkpt lat="49.578233" lon="22.425148"></trkpt>
      <trkpt lat="49.578592" lon="22.425505"></trkpt>
      <trkpt lat="49.578924" lon="22.425587"></trkpt>
      <trkpt lat="49.580086" lon="22.423942"></trkpt>
      <trkpt lat="49.58128" lon="22.423695"></trkpt>
      <trkpt lat="49.581627" lon="22.423379"></trkpt>
      <trkpt lat="49.581883" lon="22.422794"></trkpt>
      <trkpt lat="49.58211" lon="22.422543"></trkpt>
      <trkpt lat="49.582996" lon="22.422017"></trkpt>
      <trkpt lat="49.583527" lon="22.420732"></trkpt>
      <trkpt lat="49.584487" lon="22.419068"></trkpt>
      <trkpt lat="49.585166" lon="22.417253"></trkpt>
      <trkpt lat="49.586003" lon="22.416273"></trkpt>
      <trkpt lat="49.586629" lon="22.415164"></trkpt>
      <trkpt lat="49.587118" lon="22.413219"></trkpt>
      <trkpt lat="49.588324" lon="22.409539"></trkpt>
      <trkpt lat="49.589005" lon="22.406031"></trkpt>
      <trkpt lat="49.589662" lon="22.404417"></trkpt>
      <trkpt lat="49.590021" lon="22.402572"></trkpt>
      <trkpt lat="49.590549" lon="22.401558"></trkpt>
      <trkpt lat="49.591504" lon="22.400722"></trkpt>
      <trkpt lat="49.591956" lon="22.400152"></trkpt>
      <trkpt lat="49.592199" lon="22.399311"></trkpt>
      <trkpt lat="49.593325" lon="22.397119"></trkpt>
      <trkpt lat="49.593877" lon="22.391754"></trkpt>
      <trkpt lat="49.594592" lon="22.391936"></trkpt>
      <trkpt lat="49.599876" lon="22.391189"></trkpt>
      <trkpt lat="49.600575" lon="22.391198"></trkpt>
      <trkpt lat="49.605503" lon="22.393067"></trkpt>
      <trkpt lat="49.607429" lon="22.39408"></trkpt>
      <trkpt lat="49.607873" lon="22.394421"></trkpt>
      <trkpt lat="49.608266" lon="22.39511"></trkpt>
      <trkpt lat="49.608628" lon="22.397076"></trkpt>
      <trkpt lat="49.608875" lon="22.397772"></trkpt>
      <trkpt lat="49.613063" lon="22.40296"></trkpt>
      <trkpt lat="49.61339" lon="22.403566"></trkpt>
      <trkpt lat="49.613789" lon="22.405045"></trkpt>
      <trkpt lat="49.614053" lon="22.405619"></trkpt>
      <trkpt lat="49.61457" lon="22.406084"></trkpt>
      <trkpt lat="49.615962" lon="22.406687"></trkpt>
      <trkpt lat="49.616349" lon="22.407167"></trkpt>
      <trkpt lat="49.616553" lon="22.407867"></trkpt>
      <trkpt lat="49.616574" lon="22.408854"></trkpt>
      <trkpt lat="49.616544" lon="22.411695"></trkpt>
      <trkpt lat="49.616367" lon="22.413034"></trkpt>
      <trkpt lat="49.615939" lon="22.414459"></trkpt>
      <trkpt lat="49.614584" lon="22.41753"></trkpt>
      <trkpt lat="49.614448" lon="22.418296"></trkpt>
      <trkpt lat="49.614812" lon="22.424329"></trkpt>
      <trkpt lat="49.615142" lon="22.42698"></trkpt>
      <trkpt lat="49.615573" lon="22.428509"></trkpt>
      <trkpt lat="49.61643" lon="22.429085"></trkpt>
      <trkpt lat="49.617243" lon="22.429288"></trkpt>
      <trkpt lat="49.617929" lon="22.429012"></trkpt>
      <trkpt lat="49.619231" lon="22.427832"></trkpt>
      <trkpt lat="49.61987" lon="22.426478"></trkpt>
      <trkpt lat="49.620204" lon="22.426223"></trkpt>
      <trkpt lat="49.620462" lon="22.426196"></trkpt>
      <trkpt lat="49.620743" lon="22.426297"></trkpt>
      <trkpt lat="49.621404" lon="22.426913"></trkpt>
      <trkpt lat="49.621816" lon="22.427118"></trkpt>
      <trkpt lat="49.623542" lon="22.42684"></trkpt>
      <trkpt lat="49.624043" lon="22.42693"></trkpt>
      <trkpt lat="49.62458" lon="22.427347"></trkpt>
      <trkpt lat="49.626787" lon="22.429684"></trkpt>
      <trkpt lat="49.627162" lon="22.429772"></trkpt>
      <trkpt lat="49.627913" lon="22.429676"></trkpt>
      <trkpt lat="49.628679" lon="22.429328"></trkpt>
      <trkpt lat="49.630515" lon="22.427696"></trkpt>
      <trkpt lat="49.632074" lon="22.426807"></trkpt>
      <trkpt lat="49.633572" lon="22.424601"></trkpt>
      <trkpt lat="49.634117" lon="22.424153"></trkpt>
      <trkpt lat="49.636751" lon="22.423317"></trkpt>
      <trkpt lat="49.639813" lon="22.423291"></trkpt>
      <trkpt lat="49.640742" lon="22.423114"></trkpt>
      <trkpt lat="49.64112" lon="22.423188"></trkpt>
      <trkpt lat="49.642431" lon="22.424058"></trkpt>
      <trkpt lat="49.643055" lon="22.424073"></trkpt>
      <trkpt lat="49.643549" lon="22.423808"></trkpt>
      <trkpt lat="49.646779" lon="22.420938"></trkpt>
      <trkpt lat="49.648077" lon="22.4208"></trkpt>
      <trkpt lat="49.650002" lon="22.420927"></trkpt>
      <trkpt lat="49.650557" lon="22.421188"></trkpt>
      <trkpt lat="49.652769" lon="22.422809"></trkpt>
      <trkpt lat="49.65337" lon="22.423091"></trkpt>
      <trkpt lat="49.654252" lon="22.423181"></trkpt>
      <trkpt lat="49.654345" lon="22.423481"></trkpt>
      <trkpt lat="49.654257" lon="22.423725"></trkpt>
      <trkpt lat="49.653232" lon="22.423833"></trkpt>
      <trkpt lat="49.653085" lon="22.423993"></trkpt>
      <trkpt lat="49.653069" lon="22.424256"></trkpt>
      <trkpt lat="49.653193" lon="22.424456"></trkpt>
      <trkpt lat="49.653873" lon="22.424595"></trkpt>
      <trkpt lat="49.654175" lon="22.42484"></trkpt>
      <trkpt lat="49.655" lon="22.426169"></trkpt>
      <trkpt lat="49.655196" lon="22.426803"></trkpt>
      <trkpt lat="49.655245" lon="22.428374"></trkpt>
      <trkpt lat="49.655457" lon="22.429033"></trkpt>
      <trkpt lat="49.655994" lon="22.429526"></trkpt>
      <trkpt lat="49.657824" lon="22.430384"></trkpt>
      <trkpt lat="49.659809" lon="22.432124"></trkpt>
      <trkpt lat="49.661429" lon="22.433936"></trkpt>
      <trkpt lat="49.661733" lon="22.434045"></trkpt>
      <trkpt lat="49.662124" lon="22.433949"></trkpt>
      <trkpt lat="49.66324" lon="22.432772"></trkpt>
      <trkpt lat="49.664503" lon="22.4324"></trkpt>
      <trkpt lat="49.668672" lon="22.430273"></trkpt>
      <trkpt lat="49.670364" lon="22.429928"></trkpt>
      <trkpt lat="49.671211" lon="22.430001"></trkpt>
      <trkpt lat="49.675" lon="22.431911"></trkpt>
      <trkpt lat="49.67538" lon="22.432192"></trkpt>
      <trkpt lat="49.67615" lon="22.433044"></trkpt>
      <trkpt lat="49.677913" lon="22.435518"></trkpt>
      <trkpt lat="49.678602" lon="22.436159"></trkpt>
      <trkpt lat="49.689323" lon="22.44137"></trkpt>
      <trkpt lat="49.689705" lon="22.441666"></trkpt>
      <trkpt lat="49.690286" lon="22.44271"></trkpt>
      <trkpt lat="49.690471" lon="22.443842"></trkpt>
      <trkpt lat="49.690172" lon="22.448258"></trkpt>
      <trkpt lat="49.691035" lon="22.45094"></trkpt>
      <trkpt lat="49.69121" lon="22.451962"></trkpt>
      <trkpt lat="49.690578" lon="22.459713"></trkpt>
      <trkpt lat="49.69104" lon="22.466816"></trkpt>
      <trkpt lat="49.690462" lon="22.472579"></trkpt>
      <trkpt lat="49.691579" lon="22.476557"></trkpt>
      <trkpt lat="49.691753" lon="22.478579"></trkpt>
      <trkpt lat="49.692136" lon="22.480842"></trkpt>
      <trkpt lat="49.692112" lon="22.481426"></trkpt>
      <trkpt lat="49.691616" lon="22.482897"></trkpt>
      <trkpt lat="49.69158" lon="22.483608"></trkpt>
      <trkpt lat="49.693071" lon="22.487682"></trkpt>
      <trkpt lat="49.69388" lon="22.492796"></trkpt>
      <trkpt lat="49.69478" lon="22.49573"></trkpt>
      <trkpt lat="49.695266" lon="22.501427"></trkpt>
      <trkpt lat="49.696635" lon="22.50641"></trkpt>
      <trkpt lat="49.698381" lon="22.510684"></trkpt>
      <trkpt lat="49.698664" lon="22.511065"></trkpt>
      <trkpt lat="49.699987" lon="22.511998"></trkpt>
      <trkpt lat="49.700444" lon="22.51289"></trkpt>
      <trkpt lat="49.700722" lon="22.515824"></trkpt>
      <trkpt lat="49.701397" lon="22.518458"></trkpt>
      <trkpt lat="49.701654" lon="22.520507"></trkpt>
      <trkpt lat="49.702805" lon="22.525272"></trkpt>
      <trkpt lat="49.702578" lon="22.526201"></trkpt>
      <trkpt lat="49.701394" lon="22.527375"></trkpt>
      <trkpt lat="49.700675" lon="22.528446"></trkpt>
      <trkpt lat="49.700692" lon="22.528742"></trkpt>
      <trkpt lat="49.70091" lon="22.528852"></trkpt>
      <trkpt lat="49.702071" lon="22.527908"></trkpt>
      <trkpt lat="49.702318" lon="22.52798"></trkpt>
      <trkpt lat="49.702374" lon="22.528156"></trkpt>
      <trkpt lat="49.702277" lon="22.528487"></trkpt>
      <trkpt lat="49.701773" lon="22.528677"></trkpt>
      <trkpt lat="49.701571" lon="22.528947"></trkpt>
      <trkpt lat="49.70108" lon="22.530301"></trkpt>
      <trkpt lat="49.701107" lon="22.530682"></trkpt>
      <trkpt lat="49.701394" lon="22.530722"></trkpt>
      <trkpt lat="49.702002" lon="22.529431"></trkpt>
      <trkpt lat="49.702721" lon="22.528734"></trkpt>
      <trkpt lat="49.702989" lon="22.528687"></trkpt>
      <trkpt lat="49.703103" lon="22.528949"></trkpt>
      <trkpt lat="49.70302" lon="22.529215"></trkpt>
      <trkpt lat="49.702566" lon="22.52953"></trkpt>
      <trkpt lat="49.7023" lon="22.529882"></trkpt>
      <trkpt lat="49.701846" lon="22.531268"></trkpt>
      <trkpt lat="49.70197" lon="22.532131"></trkpt>
      <trkpt lat="49.702596" lon="22.533354"></trkpt>
      <trkpt lat="49.702752" lon="22.533907"></trkpt>
      <trkpt lat="49.702708" lon="22.534682"></trkpt>
      <trkpt lat="49.702256" lon="22.53681"></trkpt>
      <trkpt lat="49.702267" lon="22.537874"></trkpt>
      <trkpt lat="49.702399" lon="22.538674"></trkpt>
      <trkpt lat="49.702969" lon="22.540515"></trkpt>
      <trkpt lat="49.704346" lon="22.54246"></trkpt>
      <trkpt lat="49.706604" lon="22.546724"></trkpt>
      <trkpt lat="49.707353" lon="22.547745"></trkpt>
      <trkpt lat="49.709003" lon="22.549346"></trkpt>
      <trkpt lat="49.709308" lon="22.549922"></trkpt>
      <trkpt lat="49.709405" lon="22.550766"></trkpt>
      <trkpt lat="49.709048" lon="22.552613"></trkpt>
      <trkpt lat="49.70903" lon="22.55401"></trkpt>
      <trkpt lat="49.709496" lon="22.556701"></trkpt>
      <trkpt lat="49.70984" lon="22.559728"></trkpt>
      <trkpt lat="49.710175" lon="22.56103"></trkpt>
      <trkpt lat="49.712601" lon="22.567432"></trkpt>
      <trkpt lat="49.712698" lon="22.56825"></trkpt>
      <trkpt lat="49.712609" lon="22.573218"></trkpt>
      <trkpt lat="49.713505" lon="22.580768"></trkpt>
      <trkpt lat="49.713715" lon="22.581402"></trkpt>
      <trkpt lat="49.714808" lon="22.582832"></trkpt>
      <trkpt lat="49.714981" lon="22.583432"></trkpt>
      <trkpt lat="49.71422" lon="22.590973"></trkpt>
      <trkpt lat="49.712356" lon="22.595776"></trkpt>
      <trkpt lat="49.712387" lon="22.596517"></trkpt>
      <trkpt lat="49.713314" lon="22.600883"></trkpt>
      <trkpt lat="49.716089" lon="22.605204"></trkpt>
      <trkpt lat="49.717085" lon="22.606126"></trkpt>
      <trkpt lat="49.719836" lon="22.607212"></trkpt>
      <trkpt lat="49.721153" lon="22.607419"></trkpt>
      <trkpt lat="49.721929" lon="22.607292"></trkpt>
      <trkpt lat="49.723994" lon="22.606466"></trkpt>
      <trkpt lat="49.724512" lon="22.606387"></trkpt>
      <trkpt lat="49.725029" lon="22.606672"></trkpt>
      <trkpt lat="49.727783" lon="22.608841"></trkpt>
      <trkpt lat="49.728053" lon="22.609502"></trkpt>
      <trkpt lat="49.728682" lon="22.613733"></trkpt>
      <trkpt lat="49.729037" lon="22.614807"></trkpt>
      <trkpt lat="49.729499" lon="22.615736"></trkpt>
      <trkpt lat="49.729935" lon="22.616401"></trkpt>
      <trkpt lat="49.731438" lon="22.618181"></trkpt>
      <trkpt lat="49.732025" lon="22.619731"></trkpt>
      <trkpt lat="49.732451" lon="22.620346"></trkpt>
      <trkpt lat="49.732868" lon="22.620511"></trkpt>
      <trkpt lat="49.73422" lon="22.620384"></trkpt>
      <trkpt lat="49.73642" lon="22.620515"></trkpt>
      <trkpt lat="49.73693" lon="22.620871"></trkpt>
      <trkpt lat="49.737945" lon="22.62395"></trkpt>
      <trkpt lat="49.740978" lon="22.631362"></trkpt>
      <trkpt lat="49.743727" lon="22.636707"></trkpt>
      <trkpt lat="49.743954" lon="22.636986"></trkpt>
      <trkpt lat="49.74254" lon="22.638251"></trkpt>
      <trkpt lat="49.741255" lon="22.640346"></trkpt>
      <trkpt lat="49.74065" lon="22.641555"></trkpt>
      <trkpt lat="49.738589" lon="22.644813"></trkpt>
      <trkpt lat="49.74066" lon="22.647129"></trkpt>
      <trkpt lat="49.742961" lon="22.650077"></trkpt>
      <trkpt lat="49.74576" lon="22.65671"></trkpt>
      <trkpt lat="49.747507" lon="22.662729"></trkpt>
      <trkpt lat="49.749885" lon="22.667669"></trkpt>
      <trkpt lat="49.750854" lon="22.671429"></trkpt>
      <trkpt lat="49.751482" lon="22.672365"></trkpt>
      <trkpt lat="49.754187" lon="22.678102"></trkpt>
      <trkpt lat="49.755979" lon="22.682683"></trkpt>
      <trkpt lat="49.760333" lon="22.690115"></trkpt>
      <trkpt lat="49.76088" lon="22.692111"></trkpt>
      <trkpt lat="49.761118" lon="22.696643"></trkpt>
      <trkpt lat="49.761296" lon="22.697891"></trkpt>
      <trkpt lat="49.761721" lon="22.699813"></trkpt>
      <trkpt lat="49.7627" lon="22.702947"></trkpt>
      <trkpt lat="49.763724" lon="22.706824"></trkpt>
      <trkpt lat="49.763908" lon="22.709411"></trkpt>
      <trkpt lat="49.764503" lon="22.711263"></trkpt>
      <trkpt lat="49.764935" lon="22.711914"></trkpt>
      <trkpt lat="49.76662" lon="22.713763"></trkpt>
      <trkpt lat="49.767605" lon="22.714497"></trkpt>
      <trkpt lat="49.769808" lon="22.716952"></trkpt>
      <trkpt lat="49.770463" lon="22.718199"></trkpt>
      <trkpt lat="49.770896" lon="22.718729"></trkpt>
      <trkpt lat="49.77251" lon="22.720068"></trkpt>
      <trkpt lat="49.773895" lon="22.720486"></trkpt>
      <trkpt lat="49.773583" lon="22.721742"></trkpt>
      <trkpt lat="49.773497" lon="22.726939"></trkpt>
      <trkpt lat="49.773378" lon="22.728671"></trkpt>
      <trkpt lat="49.773167" lon="22.729936"></trkpt>
      <trkpt lat="49.77334" lon="22.732276"></trkpt>
      <trkpt lat="49.7732" lon="22.734332"></trkpt>
      <trkpt lat="49.774012" lon="22.737563"></trkpt>
      <trkpt lat="49.774453" lon="22.739848"></trkpt>
      <trkpt lat="49.774089" lon="22.745291"></trkpt>
      <trkpt lat="49.774395" lon="22.747174"></trkpt>
      <trkpt lat="49.777967" lon="22.757806"></trkpt>
      <trkpt lat="49.778936" lon="22.759043"></trkpt>
      <trkpt lat="49.780075" lon="22.759735"></trkpt>
      <trkpt lat="49.78176" lon="22.761215"></trkpt>
      <trkpt lat="49.782207" lon="22.762933"></trkpt>
      <trkpt lat="49.783869" lon="22.767668"></trkpt>
      <trkpt lat="49.783857" lon="22.768025"></trkpt>
      <trkpt lat="49.784161" lon="22.768559"></trkpt>
      <trkpt lat="49.784376" lon="22.76932"></trkpt>
      <trkpt lat="49.784368" lon="22.770059"></trkpt>
      <trkpt lat="49.783855" lon="22.77161"></trkpt>
      <trkpt lat="49.783026" lon="22.773206"></trkpt>
      <trkpt lat="49.782838" lon="22.773907"></trkpt>
      <trkpt lat="49.782217" lon="22.774614"></trkpt>
      <trkpt lat="49.782094" lon="22.775922"></trkpt>
      <trkpt lat="49.781738" lon="22.776988"></trkpt>
      <trkpt lat="49.781069" lon="22.778435"></trkpt>
      <trkpt lat="49.780901" lon="22.780762"></trkpt>
      <trkpt lat="49.783086" lon="22.780797"></trkpt>
      <trkpt lat="49.783213" lon="22.780095"></trkpt>
      <trkpt lat="49.783086" lon="22.780797"></trkpt>
      <trkpt lat="49.782513" lon="22.780807"></trkpt>
      <trkpt lat="49.782356" lon="22.774716"></trkpt>
      <trkpt lat="49.782445" lon="22.774398"></trkpt>
      <trkpt lat="49.782838" lon="22.773907"></trkpt>
      <trkpt lat="49.783026" lon="22.773206"></trkpt>
      <trkpt lat="49.784302" lon="22.770535"></trkpt>
      <trkpt lat="49.784562" lon="22.770198"></trkpt>
      <trkpt lat="49.784689" lon="22.770249"></trkpt>
      <trkpt lat="49.787366" lon="22.774976"></trkpt>
      <trkpt lat="49.790187" lon="22.780187"></trkpt>
      <trkpt lat="49.79023" lon="22.780724"></trkpt>
      <trkpt lat="49.790076" lon="22.781319"></trkpt>
      <trkpt lat="49.790464" lon="22.781436"></trkpt>
      <trkpt lat="49.791492" lon="22.782101"></trkpt>
      <trkpt lat="49.792383" lon="22.782965"></trkpt>
      <trkpt lat="49.792681" lon="22.783418"></trkpt>
      <trkpt lat="49.793093" lon="22.784516"></trkpt>
      <trkpt lat="49.795177" lon="22.787838"></trkpt>
      <trkpt lat="49.800267" lon="22.78168"></trkpt>
      <trkpt lat="49.804103" lon="22.777745"></trkpt>
      <trkpt lat="49.804744" lon="22.777413"></trkpt>
      <trkpt lat="49.805282" lon="22.77731"></trkpt>
      <trkpt lat="49.80828" lon="22.777258"></trkpt>
      <trkpt lat="49.808923" lon="22.777345"></trkpt>
      <trkpt lat="49.809578" lon="22.777759"></trkpt>
      <trkpt lat="49.810799" lon="22.779271"></trkpt>
      <trkpt lat="49.81133" lon="22.779687"></trkpt>
      <trkpt lat="49.81194" lon="22.779951"></trkpt>
      <trkpt lat="49.814457" lon="22.780568"></trkpt>
      <trkpt lat="49.815075" lon="22.780935"></trkpt>
      <trkpt lat="49.819879" lon="22.786835"></trkpt>
      <trkpt lat="49.836885" lon="22.79727"></trkpt>
      <trkpt lat="49.843227" lon="22.80143"></trkpt>
      <trkpt lat="49.844841" lon="22.80238"></trkpt>
      <trkpt lat="49.88683" lon="22.816216"></trkpt>
      <trkpt lat="49.889907" lon="22.81657"></trkpt>
      <trkpt lat="49.899089" lon="22.816474"></trkpt>
      <trkpt lat="49.904845" lon="22.817463"></trkpt>
      <trkpt lat="49.905662" lon="22.818006"></trkpt>
      <trkpt lat="49.9063" lon="22.81955"></trkpt>
      <trkpt lat="49.90659" lon="22.819823"></trkpt>
      <trkpt lat="49.90692" lon="22.819914"></trkpt>
      <trkpt lat="49.907472" lon="22.819644"></trkpt>
      <trkpt lat="49.907845" lon="22.818767"></trkpt>
      <trkpt lat="49.908573" lon="22.81164"></trkpt>
      <trkpt lat="49.908829" lon="22.810779"></trkpt>
      <trkpt lat="49.90919" lon="22.810354"></trkpt>
      <trkpt lat="49.909569" lon="22.810171"></trkpt>
      <trkpt lat="49.912419" lon="22.810167"></trkpt>
      <trkpt lat="49.912864" lon="22.809758"></trkpt>
      <trkpt lat="49.913067" lon="22.809211"></trkpt>
      <trkpt lat="49.913063" lon="22.808351"></trkpt>
      <trkpt lat="49.912521" lon="22.807021"></trkpt>
      <trkpt lat="49.912347" lon="22.806282"></trkpt>
      <trkpt lat="49.912396" lon="22.804796"></trkpt>
      <trkpt lat="49.913801" lon="22.796442"></trkpt>
      <trkpt lat="49.914474" lon="22.791331"></trkpt>
      <trkpt lat="49.914976" lon="22.785637"></trkpt>
      <trkpt lat="49.916988" lon="22.756059"></trkpt>
      <trkpt lat="49.917623" lon="22.750302"></trkpt>
      <trkpt lat="49.918703" lon="22.744648"></trkpt>
      <trkpt lat="49.919879" lon="22.740292"></trkpt>
      <trkpt lat="49.92155" lon="22.735547"></trkpt>
      <trkpt lat="49.923285" lon="22.731635"></trkpt>
      <trkpt lat="49.927914" lon="22.722622"></trkpt>
      <trkpt lat="49.929353" lon="22.719107"></trkpt>
      <trkpt lat="49.930449" lon="22.715889"></trkpt>
      <trkpt lat="49.931341" lon="22.712741"></trkpt>
      <trkpt lat="49.932229" lon="22.708841"></trkpt>
      <trkpt lat="49.935784" lon="22.6888"></trkpt>
      <trkpt lat="49.936586" lon="22.684978"></trkpt>
      <trkpt lat="49.937229" lon="22.682651"></trkpt>
      <trkpt lat="49.938342" lon="22.679347"></trkpt>
      <trkpt lat="49.940545" lon="22.674489"></trkpt>
      <trkpt lat="49.942303" lon="22.67154"></trkpt>
      <trkpt lat="49.944221" lon="22.668937"></trkpt>
      <trkpt lat="49.946271" lon="22.666687"></trkpt>
      <trkpt lat="49.948282" lon="22.664923"></trkpt>
      <trkpt lat="49.950274" lon="22.663546"></trkpt>
      <trkpt lat="49.952138" lon="22.662542"></trkpt>
      <trkpt lat="49.959015" lon="22.659787"></trkpt>
      <trkpt lat="49.960659" lon="22.658937"></trkpt>
      <trkpt lat="49.963686" lon="22.656829"></trkpt>
      <trkpt lat="49.965225" lon="22.655429"></trkpt>
      <trkpt lat="49.966669" lon="22.653911"></trkpt>
      <trkpt lat="49.969094" lon="22.650752"></trkpt>
      <trkpt lat="49.971328" lon="22.646953"></trkpt>
      <trkpt lat="49.972447" lon="22.644645"></trkpt>
      <trkpt lat="49.97881" lon="22.630057"></trkpt>
      <trkpt lat="49.981989" lon="22.62377"></trkpt>
      <trkpt lat="49.983889" lon="22.620483"></trkpt>
      <trkpt lat="49.98534" lon="22.618213"></trkpt>
      <trkpt lat="49.989355" lon="22.612789"></trkpt>
      <trkpt lat="49.991494" lon="22.610293"></trkpt>
      <trkpt lat="49.993875" lon="22.607801"></trkpt>
      <trkpt lat="49.997956" lon="22.60415"></trkpt>
      <trkpt lat="50.001227" lon="22.601721"></trkpt>
      <trkpt lat="50.010391" lon="22.595745"></trkpt>
      <trkpt lat="50.01272" lon="22.593822"></trkpt>
      <trkpt lat="50.014341" lon="22.592167"></trkpt>
      <trkpt lat="50.015939" lon="22.590258"></trkpt>
      <trkpt lat="50.021926" lon="22.582075"></trkpt>
      <trkpt lat="50.023373" lon="22.58042"></trkpt>
      <trkpt lat="50.025122" lon="22.578703"></trkpt>
      <trkpt lat="50.027339" lon="22.576921"></trkpt>
      <trkpt lat="50.028914" lon="22.575886"></trkpt>
      <trkpt lat="50.03079" lon="22.574898"></trkpt>
      <trkpt lat="50.033099" lon="22.573984"></trkpt>
      <trkpt lat="50.036357" lon="22.573207"></trkpt>
      <trkpt lat="50.048973" lon="22.571241"></trkpt>
      <trkpt lat="50.053218" lon="22.570481"></trkpt>
      <trkpt lat="50.056073" lon="22.569583"></trkpt>
      <trkpt lat="50.057132" lon="22.569119"></trkpt>
      <trkpt lat="50.060238" lon="22.567281"></trkpt>
      <trkpt lat="50.062718" lon="22.565346"></trkpt>
      <trkpt lat="50.065604" lon="22.56244"></trkpt>
      <trkpt lat="50.067623" lon="22.559714"></trkpt>
      <trkpt lat="50.069726" lon="22.556332"></trkpt>
      <trkpt lat="50.071918" lon="22.551826"></trkpt>
      <trkpt lat="50.072752" lon="22.549719"></trkpt>
      <trkpt lat="50.073784" lon="22.546575"></trkpt>
      <trkpt lat="50.07501" lon="22.54162"></trkpt>
      <trkpt lat="50.075605" lon="22.538278"></trkpt>
      <trkpt lat="50.082157" lon="22.490254"></trkpt>
      <trkpt lat="50.082962" lon="22.485746"></trkpt>
      <trkpt lat="50.083909" lon="22.482365"></trkpt>
      <trkpt lat="50.085031" lon="22.479445"></trkpt>
      <trkpt lat="50.086609" lon="22.47635"></trkpt>
      <trkpt lat="50.101983" lon="22.452022"></trkpt>
      <trkpt lat="50.104164" lon="22.448174"></trkpt>
      <trkpt lat="50.10568" lon="22.444853"></trkpt>
      <trkpt lat="50.106933" lon="22.441545"></trkpt>
      <trkpt lat="50.110066" lon="22.432217"></trkpt>
      <trkpt lat="50.11108" lon="22.428471"></trkpt>
      <trkpt lat="50.111791" lon="22.425042"></trkpt>
      <trkpt lat="50.112329" lon="22.421395"></trkpt>
      <trkpt lat="50.112661" lon="22.417517"></trkpt>
      <trkpt lat="50.112751" lon="22.413615"></trkpt>
      <trkpt lat="50.112596" lon="22.409198"></trkpt>
      <trkpt lat="50.111193" lon="22.393572"></trkpt>
      <trkpt lat="50.110887" lon="22.388978"></trkpt>
      <trkpt lat="50.110809" lon="22.384812"></trkpt>
      <trkpt lat="50.110931" lon="22.380595"></trkpt>
      <trkpt lat="50.111657" lon="22.372757"></trkpt>
      <trkpt lat="50.11617" lon="22.334118"></trkpt>
      <trkpt lat="50.116433" lon="22.329198"></trkpt>
      <trkpt lat="50.116313" lon="22.323755"></trkpt>
      <trkpt lat="50.116015" lon="22.32049"></trkpt>
      <trkpt lat="50.115626" lon="22.317699"></trkpt>
      <trkpt lat="50.114971" lon="22.314314"></trkpt>
      <trkpt lat="50.113967" lon="22.310479"></trkpt>
      <trkpt lat="50.112333" lon="22.305742"></trkpt>
      <trkpt lat="50.10809" lon="22.295133"></trkpt>
      <trkpt lat="50.106544" lon="22.290994"></trkpt>
      <trkpt lat="50.105009" lon="22.28591"></trkpt>
      <trkpt lat="50.103848" lon="22.28085"></trkpt>
      <trkpt lat="50.102706" lon="22.273472"></trkpt>
      <trkpt lat="50.099185" lon="22.246955"></trkpt>
      <trkpt lat="50.09865" lon="22.242165"></trkpt>
      <trkpt lat="50.098505" lon="22.238974"></trkpt>
      <trkpt lat="50.098542" lon="22.235931"></trkpt>
      <trkpt lat="50.098689" lon="22.233503"></trkpt>
      <trkpt lat="50.099374" lon="22.226795"></trkpt>
      <trkpt lat="50.099456" lon="22.22478"></trkpt>
      <trkpt lat="50.099375" lon="22.221174"></trkpt>
      <trkpt lat="50.099109" lon="22.218405"></trkpt>
      <trkpt lat="50.098456" lon="22.214703"></trkpt>
      <trkpt lat="50.097728" lon="22.211925"></trkpt>
      <trkpt lat="50.096837" lon="22.209359"></trkpt>
      <trkpt lat="50.094636" lon="22.203966"></trkpt>
      <trkpt lat="50.093596" lon="22.200462"></trkpt>
      <trkpt lat="50.09126" lon="22.188636"></trkpt>
      <trkpt lat="50.090447" lon="22.182876"></trkpt>
      <trkpt lat="50.090098" lon="22.178499"></trkpt>
      <trkpt lat="50.089977" lon="22.174138"></trkpt>
      <trkpt lat="50.090035" lon="22.170582"></trkpt>
      <trkpt lat="50.090348" lon="22.165787"></trkpt>
      <trkpt lat="50.09073" lon="22.162333"></trkpt>
      <trkpt lat="50.095495" lon="22.127117"></trkpt>
      <trkpt lat="50.095872" lon="22.12339"></trkpt>
      <trkpt lat="50.096038" lon="22.118508"></trkpt>
      <trkpt lat="50.095782" lon="22.112848"></trkpt>
      <trkpt lat="50.09296" lon="22.085915"></trkpt>
      <trkpt lat="50.092595" lon="22.0805"></trkpt>
      <trkpt lat="50.092572" lon="22.078043"></trkpt>
      <trkpt lat="50.092722" lon="22.073958"></trkpt>
      <trkpt lat="50.093561" lon="22.058761"></trkpt>
      <trkpt lat="50.093729" lon="22.057949"></trkpt>
      <trkpt lat="50.09401" lon="22.057557"></trkpt>
      <trkpt lat="50.094189" lon="22.057494"></trkpt>
      <trkpt lat="50.094473" lon="22.05764"></trkpt>
      <trkpt lat="50.094662" lon="22.058104"></trkpt>
      <trkpt lat="50.094557" lon="22.058691"></trkpt>
      <trkpt lat="50.094429" lon="22.058867"></trkpt>
      <trkpt lat="50.094158" lon="22.058945"></trkpt>
      <trkpt lat="50.090202" lon="22.058523"></trkpt>
      <trkpt lat="50.089886" lon="22.058744"></trkpt>
      <trkpt lat="50.089617" lon="22.059442"></trkpt>
      <trkpt lat="50.089496" lon="22.062673"></trkpt>
      <trkpt lat="50.089215" lon="22.06304"></trkpt>
      <trkpt lat="50.088879" lon="22.063009"></trkpt>
      <trkpt lat="50.088617" lon="22.062471"></trkpt>
      <trkpt lat="50.088659" lon="22.061942"></trkpt>
      <trkpt lat="50.088981" lon="22.061488"></trkpt>
      <trkpt lat="50.08947" lon="22.06134"></trkpt>
      <trkpt lat="50.094555" lon="22.061525"></trkpt>
      <trkpt lat="50.095784" lon="22.0618"></trkpt>
      <trkpt lat="50.096805" lon="22.062239"></trkpt>
      <trkpt lat="50.09837" lon="22.06323"></trkpt>
      <trkpt lat="50.119765" lon="22.078539"></trkpt>
      <trkpt lat="50.120278" lon="22.078706"></trkpt>
      <trkpt lat="50.122126" lon="22.079852"></trkpt>
      <trkpt lat="50.12351" lon="22.080473"></trkpt>
      <trkpt lat="50.125445" lon="22.0809"></trkpt>
      <trkpt lat="50.127518" lon="22.080875"></trkpt>
      <trkpt lat="50.148042" lon="22.077816"></trkpt>
      <trkpt lat="50.148467" lon="22.077918"></trkpt>
      <trkpt lat="50.150402" lon="22.077884"></trkpt>
      <trkpt lat="50.152168" lon="22.078276"></trkpt>
      <trkpt lat="50.153169" lon="22.078695"></trkpt>
      <trkpt lat="50.154581" lon="22.079502"></trkpt>
      <trkpt lat="50.164397" lon="22.085925"></trkpt>
      <trkpt lat="50.165556" lon="22.086429"></trkpt>
      <trkpt lat="50.169751" lon="22.087776"></trkpt>
      <trkpt lat="50.170833" lon="22.08822"></trkpt>
      <trkpt lat="50.182811" lon="22.095159"></trkpt>
      <trkpt lat="50.184724" lon="22.096604"></trkpt>
      <trkpt lat="50.191368" lon="22.103008"></trkpt>
      <trkpt lat="50.192883" lon="22.104059"></trkpt>
      <trkpt lat="50.193838" lon="22.104478"></trkpt>
      <trkpt lat="50.19485" lon="22.104735"></trkpt>
      <trkpt lat="50.197346" lon="22.104868"></trkpt>
      <trkpt lat="50.199146" lon="22.105123"></trkpt>
      <trkpt lat="50.200824" lon="22.10571"></trkpt>
      <trkpt lat="50.202021" lon="22.106374"></trkpt>
      <trkpt lat="50.203886" lon="22.107875"></trkpt>
      <trkpt lat="50.205044" lon="22.109157"></trkpt>
      <trkpt lat="50.205794" lon="22.110169"></trkpt>
      <trkpt lat="50.220363" lon="22.133009"></trkpt>
      <trkpt lat="50.221948" lon="22.135251"></trkpt>
      <trkpt lat="50.223376" lon="22.136761"></trkpt>
      <trkpt lat="50.225382" lon="22.138366"></trkpt>
      <trkpt lat="50.227092" lon="22.139358"></trkpt>
      <trkpt lat="50.229108" lon="22.140115"></trkpt>
      <trkpt lat="50.23025" lon="22.140365"></trkpt>
      <trkpt lat="50.231685" lon="22.140492"></trkpt>
      <trkpt lat="50.233597" lon="22.140356"></trkpt>
      <trkpt lat="50.234904" lon="22.140046"></trkpt>
      <trkpt lat="50.24012" lon="22.138282"></trkpt>
      <trkpt lat="50.241742" lon="22.137843"></trkpt>
      <trkpt lat="50.243448" lon="22.137555"></trkpt>
      <trkpt lat="50.248447" lon="22.13708"></trkpt>
      <trkpt lat="50.249558" lon="22.136838"></trkpt>
      <trkpt lat="50.250698" lon="22.136436"></trkpt>
      <trkpt lat="50.25284" lon="22.135235"></trkpt>
      <trkpt lat="50.254706" lon="22.133615"></trkpt>
      <trkpt lat="50.256237" lon="22.131754"></trkpt>
      <trkpt lat="50.261301" lon="22.124634"></trkpt>
      <trkpt lat="50.262404" lon="22.123247"></trkpt>
      <trkpt lat="50.264567" lon="22.121107"></trkpt>
      <trkpt lat="50.265924" lon="22.120066"></trkpt>
      <trkpt lat="50.266963" lon="22.119422"></trkpt>
      <trkpt lat="50.279367" lon="22.113535"></trkpt>
      <trkpt lat="50.280737" lon="22.112959"></trkpt>
      <trkpt lat="50.282313" lon="22.112494"></trkpt>
      <trkpt lat="50.284296" lon="22.11223"></trkpt>
      <trkpt lat="50.286595" lon="22.11235"></trkpt>
      <trkpt lat="50.288792" lon="22.112906"></trkpt>
      <trkpt lat="50.290697" lon="22.113751"></trkpt>
      <trkpt lat="50.292887" lon="22.1152"></trkpt>
      <trkpt lat="50.293998" lon="22.116145"></trkpt>
      <trkpt lat="50.295393" lon="22.117585"></trkpt>
      <trkpt lat="50.296571" lon="22.119039"></trkpt>
      <trkpt lat="50.297589" lon="22.120531"></trkpt>
      <trkpt lat="50.298532" lon="22.122143"></trkpt>
      <trkpt lat="50.299513" lon="22.124128"></trkpt>
      <trkpt lat="50.300605" lon="22.126866"></trkpt>
      <trkpt lat="50.314821" lon="22.167755"></trkpt>
      <trkpt lat="50.316454" lon="22.171751"></trkpt>
      <trkpt lat="50.318559" lon="22.175739"></trkpt>
      <trkpt lat="50.321083" lon="22.179407"></trkpt>
      <trkpt lat="50.336189" lon="22.198167"></trkpt>
      <trkpt lat="50.337655" lon="22.199627"></trkpt>
      <trkpt lat="50.339164" lon="22.200753"></trkpt>
      <trkpt lat="50.340865" lon="22.201651"></trkpt>
      <trkpt lat="50.342573" lon="22.202211"></trkpt>
      <trkpt lat="50.343983" lon="22.202445"></trkpt>
      <trkpt lat="50.344914" lon="22.202469"></trkpt>
      <trkpt lat="50.346684" lon="22.202239"></trkpt>
      <trkpt lat="50.348056" lon="22.201815"></trkpt>
      <trkpt lat="50.350004" lon="22.200838"></trkpt>
      <trkpt lat="50.358164" lon="22.195861"></trkpt>
      <trkpt lat="50.361337" lon="22.193437"></trkpt>
      <trkpt lat="50.371554" lon="22.184277"></trkpt>
      <trkpt lat="50.373495" lon="22.182372"></trkpt>
      <trkpt lat="50.375825" lon="22.179482"></trkpt>
      <trkpt lat="50.37763" lon="22.17659"></trkpt>
      <trkpt lat="50.390539" lon="22.150696"></trkpt>
      <trkpt lat="50.39266" lon="22.147084"></trkpt>
      <trkpt lat="50.394265" lon="22.144831"></trkpt>
      <trkpt lat="50.395548" lon="22.143255"></trkpt>
      <trkpt lat="50.398099" lon="22.140681"></trkpt>
      <trkpt lat="50.400614" lon="22.13869"></trkpt>
      <trkpt lat="50.402297" lon="22.137656"></trkpt>
      <trkpt lat="50.403817" lon="22.136879"></trkpt>
      <trkpt lat="50.419521" lon="22.129502"></trkpt>
      <trkpt lat="50.421416" lon="22.12897"></trkpt>
      <trkpt lat="50.423566" lon="22.128891"></trkpt>
      <trkpt lat="50.424549" lon="22.129039"></trkpt>
      <trkpt lat="50.425967" lon="22.129458"></trkpt>
      <trkpt lat="50.426988" lon="22.12991"></trkpt>
      <trkpt lat="50.428288" lon="22.130698"></trkpt>
      <trkpt lat="50.430212" lon="22.132366"></trkpt>
      <trkpt lat="50.433368" lon="22.136123"></trkpt>
      <trkpt lat="50.434921" lon="22.137673"></trkpt>
      <trkpt lat="50.436721" lon="22.138945"></trkpt>
      <trkpt lat="50.438786" lon="22.139842"></trkpt>
      <trkpt lat="50.439902" lon="22.140125"></trkpt>
      <trkpt lat="50.441587" lon="22.140298"></trkpt>
      <trkpt lat="50.460655" lon="22.141297"></trkpt>
      <trkpt lat="50.462512" lon="22.141673"></trkpt>
      <trkpt lat="50.46431" lon="22.142446"></trkpt>
      <trkpt lat="50.465706" lon="22.143372"></trkpt>
      <trkpt lat="50.466899" lon="22.144409"></trkpt>
      <trkpt lat="50.468716" lon="22.146571"></trkpt>
      <trkpt lat="50.470384" lon="22.149365"></trkpt>
      <trkpt lat="50.471648" lon="22.152416"></trkpt>
      <trkpt lat="50.472275" lon="22.154538"></trkpt>
      <trkpt lat="50.472814" lon="22.15715"></trkpt>
      <trkpt lat="50.474765" lon="22.172443"></trkpt>
      <trkpt lat="50.475218" lon="22.175018"></trkpt>
      <trkpt lat="50.475755" lon="22.177103"></trkpt>
      <trkpt lat="50.476618" lon="22.179568"></trkpt>
      <trkpt lat="50.477456" lon="22.181399"></trkpt>
      <trkpt lat="50.478461" lon="22.183158"></trkpt>
      <trkpt lat="50.480002" lon="22.185239"></trkpt>
      <trkpt lat="50.481906" lon="22.187091"></trkpt>
      <trkpt lat="50.483642" lon="22.188266"></trkpt>
      <trkpt lat="50.491026" lon="22.192615"></trkpt>
      <trkpt lat="50.493005" lon="22.194158"></trkpt>
      <trkpt lat="50.495429" lon="22.196546"></trkpt>
      <trkpt lat="50.497712" lon="22.199413"></trkpt>
      <trkpt lat="50.510875" lon="22.218431"></trkpt>
      <trkpt lat="50.513875" lon="22.221838"></trkpt>
      <trkpt lat="50.515858" lon="22.223653"></trkpt>
      <trkpt lat="50.518536" lon="22.225655"></trkpt>
      <trkpt lat="50.520891" lon="22.227005"></trkpt>
      <trkpt lat="50.524058" lon="22.228318"></trkpt>
      <trkpt lat="50.526257" lon="22.228908"></trkpt>
      <trkpt lat="50.528493" lon="22.229233"></trkpt>
      <trkpt lat="50.530747" lon="22.229319"></trkpt>
      <trkpt lat="50.536778" lon="22.228664"></trkpt>
      <trkpt lat="50.539435" lon="22.228712"></trkpt>
      <trkpt lat="50.542171" lon="22.229146"></trkpt>
      <trkpt lat="50.543409" lon="22.229468"></trkpt>
      <trkpt lat="50.545582" lon="22.230254"></trkpt>
      <trkpt lat="50.54775" lon="22.231321"></trkpt>
      <trkpt lat="50.549233" lon="22.232222"></trkpt>
      <trkpt lat="50.552265" lon="22.234533"></trkpt>
      <trkpt lat="50.553817" lon="22.235994"></trkpt>
      <trkpt lat="50.555344" lon="22.237641"></trkpt>
      <trkpt lat="50.559854" lon="22.24333"></trkpt>
      <trkpt lat="50.56112" lon="22.244761"></trkpt>
      <trkpt lat="50.562713" lon="22.2462"></trkpt>
      <trkpt lat="50.564131" lon="22.247194"></trkpt>
      <trkpt lat="50.565429" lon="22.247888"></trkpt>
      <trkpt lat="50.567001" lon="22.248479"></trkpt>
      <trkpt lat="50.58428" lon="22.253094"></trkpt>
      <trkpt lat="50.58607" lon="22.253798"></trkpt>
      <trkpt lat="50.588194" lon="22.255061"></trkpt>
      <trkpt lat="50.590058" lon="22.256589"></trkpt>
      <trkpt lat="50.591958" lon="22.258659"></trkpt>
      <trkpt lat="50.593711" lon="22.26114"></trkpt>
      <trkpt lat="50.595483" lon="22.264524"></trkpt>
      <trkpt lat="50.596485" lon="22.26703"></trkpt>
      <trkpt lat="50.597291" lon="22.269613"></trkpt>
      <trkpt lat="50.598016" lon="22.272748"></trkpt>
      <trkpt lat="50.598742" lon="22.276637"></trkpt>
      <trkpt lat="50.599292" lon="22.278833"></trkpt>
      <trkpt lat="50.600216" lon="22.281423"></trkpt>
      <trkpt lat="50.600979" lon="22.283045"></trkpt>
      <trkpt lat="50.602199" lon="22.285077"></trkpt>
      <trkpt lat="50.603732" lon="22.28697"></trkpt>
      <trkpt lat="50.605171" lon="22.288278"></trkpt>
      <trkpt lat="50.606813" lon="22.289327"></trkpt>
      <trkpt lat="50.608101" lon="22.289876"></trkpt>
      <trkpt lat="50.609375" lon="22.290202"></trkpt>
      <trkpt lat="50.610544" lon="22.290318"></trkpt>
      <trkpt lat="50.611924" lon="22.290242"></trkpt>
      <trkpt lat="50.613908" lon="22.289694"></trkpt>
      <trkpt lat="50.617748" lon="22.287758"></trkpt>
      <trkpt lat="50.619221" lon="22.287261"></trkpt>
      <trkpt lat="50.621053" lon="22.287068"></trkpt>
      <trkpt lat="50.627393" lon="22.286973"></trkpt>
      <trkpt lat="50.629177" lon="22.287054"></trkpt>
      <trkpt lat="50.631313" lon="22.287402"></trkpt>
      <trkpt lat="50.636294" lon="22.288645"></trkpt>
      <trkpt lat="50.637986" lon="22.288831"></trkpt>
      <trkpt lat="50.640773" lon="22.288885"></trkpt>
      <trkpt lat="50.642666" lon="22.289213"></trkpt>
      <trkpt lat="50.643813" lon="22.289622"></trkpt>
      <trkpt lat="50.644963" lon="22.290205"></trkpt>
      <trkpt lat="50.64612" lon="22.290979"></trkpt>
      <trkpt lat="50.647555" lon="22.29225"></trkpt>
      <trkpt lat="50.648996" lon="22.293938"></trkpt>
      <trkpt lat="50.650452" lon="22.29621"></trkpt>
      <trkpt lat="50.655594" lon="22.30633"></trkpt>
      <trkpt lat="50.658716" lon="22.311503"></trkpt>
      <trkpt lat="50.661024" lon="22.314779"></trkpt>
      <trkpt lat="50.680161" lon="22.340541"></trkpt>
      <trkpt lat="50.681865" lon="22.342984"></trkpt>
      <trkpt lat="50.682948" lon="22.344775"></trkpt>
      <trkpt lat="50.684187" lon="22.347127"></trkpt>
      <trkpt lat="50.68506" lon="22.349059"></trkpt>
      <trkpt lat="50.686533" lon="22.352963"></trkpt>
      <trkpt lat="50.687526" lon="22.356356"></trkpt>
      <trkpt lat="50.690828" lon="22.369427"></trkpt>
      <trkpt lat="50.691687" lon="22.371897"></trkpt>
      <trkpt lat="50.693082" lon="22.374594"></trkpt>
      <trkpt lat="50.69442" lon="22.376388"></trkpt>
      <trkpt lat="50.696114" lon="22.377983"></trkpt>
      <trkpt lat="50.705169" lon="22.38438"></trkpt>
      <trkpt lat="50.706193" lon="22.384989"></trkpt>
      <trkpt lat="50.707754" lon="22.385628"></trkpt>
      <trkpt lat="50.709291" lon="22.385944"></trkpt>
      <trkpt lat="50.711408" lon="22.385892"></trkpt>
      <trkpt lat="50.712894" lon="22.385509"></trkpt>
      <trkpt lat="50.714629" lon="22.384709"></trkpt>
      <trkpt lat="50.716249" lon="22.383522"></trkpt>
      <trkpt lat="50.717733" lon="22.382011"></trkpt>
      <trkpt lat="50.718925" lon="22.380416"></trkpt>
      <trkpt lat="50.720475" lon="22.377588"></trkpt>
      <trkpt lat="50.721574" lon="22.374604"></trkpt>
      <trkpt lat="50.723752" lon="22.366577"></trkpt>
      <trkpt lat="50.725521" lon="22.361685"></trkpt>
      <trkpt lat="50.726468" lon="22.359514"></trkpt>
      <trkpt lat="50.727896" lon="22.356702"></trkpt>
      <trkpt lat="50.733485" lon="22.347161"></trkpt>
      <trkpt lat="50.734877" lon="22.344176"></trkpt>
      <trkpt lat="50.736416" lon="22.340007"></trkpt>
      <trkpt lat="50.737758" lon="22.334972"></trkpt>
      <trkpt lat="50.743101" lon="22.307222"></trkpt>
      <trkpt lat="50.743649" lon="22.304762"></trkpt>
      <trkpt lat="50.74441" lon="22.302258"></trkpt>
      <trkpt lat="50.745418" lon="22.299845"></trkpt>
      <trkpt lat="50.747016" lon="22.297069"></trkpt>
      <trkpt lat="50.748838" lon="22.294842"></trkpt>
      <trkpt lat="50.750562" lon="22.293366"></trkpt>
      <trkpt lat="50.751919" lon="22.29253"></trkpt>
      <trkpt lat="50.753446" lon="22.291898"></trkpt>
      <trkpt lat="50.754674" lon="22.291587"></trkpt>
      <trkpt lat="50.75599" lon="22.291451"></trkpt>
      <trkpt lat="50.784444" lon="22.291851"></trkpt>
      <trkpt lat="50.788349" lon="22.29202"></trkpt>
      <trkpt lat="50.791469" lon="22.292552"></trkpt>
      <trkpt lat="50.794544" lon="22.293513"></trkpt>
      <trkpt lat="50.796498" lon="22.29435"></trkpt>
      <trkpt lat="50.802672" lon="22.297521"></trkpt>
      <trkpt lat="50.806224" lon="22.298831"></trkpt>
      <trkpt lat="50.809805" lon="22.29968"></trkpt>
      <trkpt lat="50.812004" lon="22.299968"></trkpt>
      <trkpt lat="50.814286" lon="22.300091"></trkpt>
      <trkpt lat="50.817403" lon="22.299947"></trkpt>
      <trkpt lat="50.820553" lon="22.299477"></trkpt>
      <trkpt lat="50.837935" lon="22.296103"></trkpt>
      <trkpt lat="50.839783" lon="22.295619"></trkpt>
      <trkpt lat="50.841369" lon="22.295019"></trkpt>
      <trkpt lat="50.842915" lon="22.294274"></trkpt>
      <trkpt lat="50.844857" lon="22.293058"></trkpt>
      <trkpt lat="50.846203" lon="22.29204"></trkpt>
      <trkpt lat="50.853901" lon="22.285088"></trkpt>
      <trkpt lat="50.862979" lon="22.277342"></trkpt>
      <trkpt lat="50.869998" lon="22.27105"></trkpt>
      <trkpt lat="50.874142" lon="22.267695"></trkpt>
      <trkpt lat="50.879936" lon="22.262773"></trkpt>
      <trkpt lat="50.881735" lon="22.260995"></trkpt>
      <trkpt lat="50.89148" lon="22.250329"></trkpt>
      <trkpt lat="50.894117" lon="22.247735"></trkpt>
      <trkpt lat="50.895757" lon="22.246621"></trkpt>
      <trkpt lat="50.897588" lon="22.245821"></trkpt>
      <trkpt lat="50.899552" lon="22.245436"></trkpt>
      <trkpt lat="50.901026" lon="22.245445"></trkpt>
      <trkpt lat="50.902796" lon="22.245805"></trkpt>
      <trkpt lat="50.904299" lon="22.246401"></trkpt>
      <trkpt lat="50.90575" lon="22.247284"></trkpt>
      <trkpt lat="50.907344" lon="22.248631"></trkpt>
      <trkpt lat="50.909387" lon="22.251067"></trkpt>
      <trkpt lat="50.914963" lon="22.259031"></trkpt>
      <trkpt lat="50.916129" lon="22.260532"></trkpt>
      <trkpt lat="50.918849" lon="22.263405"></trkpt>
      <trkpt lat="50.920195" lon="22.264548"></trkpt>
      <trkpt lat="50.922077" lon="22.265882"></trkpt>
      <trkpt lat="50.924838" lon="22.267351"></trkpt>
      <trkpt lat="50.92976" lon="22.269414"></trkpt>
      <trkpt lat="50.931622" lon="22.270085"></trkpt>
      <trkpt lat="50.944072" lon="22.272816"></trkpt>
      <trkpt lat="50.946441" lon="22.273547"></trkpt>
      <trkpt lat="50.948469" lon="22.274344"></trkpt>
      <trkpt lat="50.951043" lon="22.275603"></trkpt>
      <trkpt lat="50.953564" lon="22.277121"></trkpt>
      <trkpt lat="50.95655" lon="22.279318"></trkpt>
      <trkpt lat="50.959162" lon="22.281623"></trkpt>
      <trkpt lat="50.961784" lon="22.284352"></trkpt>
      <trkpt lat="50.964455" lon="22.287628"></trkpt>
      <trkpt lat="50.983345" lon="22.313256"></trkpt>
      <trkpt lat="50.984995" lon="22.315734"></trkpt>
      <trkpt lat="50.987114" lon="22.319434"></trkpt>
      <trkpt lat="50.989125" lon="22.323657"></trkpt>
      <trkpt lat="50.997902" lon="22.345116"></trkpt>
      <trkpt lat="50.999401" lon="22.347804"></trkpt>
      <trkpt lat="51.000892" lon="22.34977"></trkpt>
      <trkpt lat="51.002157" lon="22.351046"></trkpt>
      <trkpt lat="51.003901" lon="22.352348"></trkpt>
      <trkpt lat="51.020014" lon="22.360797"></trkpt>
      <trkpt lat="51.022523" lon="22.362336"></trkpt>
      <trkpt lat="51.025493" lon="22.364528"></trkpt>
      <trkpt lat="51.02812" lon="22.366837"></trkpt>
      <trkpt lat="51.030062" lon="22.368791"></trkpt>
      <trkpt lat="51.045592" lon="22.385693"></trkpt>
      <trkpt lat="51.066997" lon="22.405269"></trkpt>
      <trkpt lat="51.068178" lon="22.406199"></trkpt>
      <trkpt lat="51.069473" lon="22.406998"></trkpt>
      <trkpt lat="51.070821" lon="22.407589"></trkpt>
      <trkpt lat="51.071895" lon="22.407895"></trkpt>
      <trkpt lat="51.073245" lon="22.408074"></trkpt>
      <trkpt lat="51.074814" lon="22.408019"></trkpt>
      <trkpt lat="51.076607" lon="22.407628"></trkpt>
      <trkpt lat="51.092505" lon="22.402927"></trkpt>
      <trkpt lat="51.094468" lon="22.402677"></trkpt>
      <trkpt lat="51.096664" lon="22.402929"></trkpt>
      <trkpt lat="51.098289" lon="22.403508"></trkpt>
      <trkpt lat="51.100202" lon="22.404607"></trkpt>
      <trkpt lat="51.118232" lon="22.417343"></trkpt>
      <trkpt lat="51.119308" lon="22.417911"></trkpt>
      <trkpt lat="51.120435" lon="22.418338"></trkpt>
      <trkpt lat="51.121763" lon="22.418638"></trkpt>
      <trkpt lat="51.122872" lon="22.418732"></trkpt>
      <trkpt lat="51.125086" lon="22.418481"></trkpt>
      <trkpt lat="51.126653" lon="22.417943"></trkpt>
      <trkpt lat="51.127754" lon="22.417376"></trkpt>
      <trkpt lat="51.137564" lon="22.410419"></trkpt>
      <trkpt lat="51.139861" lon="22.409052"></trkpt>
      <trkpt lat="51.141835" lon="22.408172"></trkpt>
      <trkpt lat="51.144041" lon="22.407481"></trkpt>
      <trkpt lat="51.145821" lon="22.407145"></trkpt>
      <trkpt lat="51.147187" lon="22.407014"></trkpt>
      <trkpt lat="51.149926" lon="22.407088"></trkpt>
      <trkpt lat="51.152599" lon="22.407589"></trkpt>
      <trkpt lat="51.15495" lon="22.408396"></trkpt>
      <trkpt lat="51.156857" lon="22.409312"></trkpt>
      <trkpt lat="51.16878" lon="22.41647"></trkpt>
      <trkpt lat="51.170657" lon="22.417925"></trkpt>
      <trkpt lat="51.18894" lon="22.434429"></trkpt>
      <trkpt lat="51.200247" lon="22.442758"></trkpt>
      <trkpt lat="51.201035" lon="22.443186"></trkpt>
      <trkpt lat="51.202495" lon="22.44375"></trkpt>
      <trkpt lat="51.204384" lon="22.444092"></trkpt>
      <trkpt lat="51.206074" lon="22.444037"></trkpt>
      <trkpt lat="51.207389" lon="22.443762"></trkpt>
      <trkpt lat="51.213195" lon="22.44176"></trkpt>
      <trkpt lat="51.214844" lon="22.441312"></trkpt>
      <trkpt lat="51.230648" lon="22.438368"></trkpt>
      <trkpt lat="51.232437" lon="22.437907"></trkpt>
      <trkpt lat="51.233539" lon="22.437482"></trkpt>
      <trkpt lat="51.235913" lon="22.436146"></trkpt>
      <trkpt lat="51.237916" lon="22.434519"></trkpt>
      <trkpt lat="51.24895" lon="22.422825"></trkpt>
      <trkpt lat="51.250835" lon="22.421199"></trkpt>
      <trkpt lat="51.25252" lon="22.420219"></trkpt>
      <trkpt lat="51.254228" lon="22.419615"></trkpt>
      <trkpt lat="51.25631" lon="22.419366"></trkpt>
      <trkpt lat="51.257972" lon="22.419538"></trkpt>
      <trkpt lat="51.258935" lon="22.41979"></trkpt>
      <trkpt lat="51.260266" lon="22.420334"></trkpt>
      <trkpt lat="51.262446" lon="22.421751"></trkpt>
      <trkpt lat="51.269864" lon="22.427879"></trkpt>
      <trkpt lat="51.271673" lon="22.429679"></trkpt>
      <trkpt lat="51.27322" lon="22.431553"></trkpt>
      <trkpt lat="51.274961" lon="22.434122"></trkpt>
      <trkpt lat="51.27625" lon="22.436411"></trkpt>
      <trkpt lat="51.279691" lon="22.443191"></trkpt>
      <trkpt lat="51.2808" lon="22.445796"></trkpt>
      <trkpt lat="51.284979" lon="22.454071"></trkpt>
      <trkpt lat="51.285084" lon="22.454919"></trkpt>
      <trkpt lat="51.284957" lon="22.455348"></trkpt>
      <trkpt lat="51.284636" lon="22.455691"></trkpt>
      <trkpt lat="51.284213" lon="22.45566"></trkpt>
      <trkpt lat="51.283851" lon="22.455166"></trkpt>
      <trkpt lat="51.283779" lon="22.454693"></trkpt>
      <trkpt lat="51.283941" lon="22.453858"></trkpt>
      <trkpt lat="51.287921" lon="22.443033"></trkpt>
      <trkpt lat="51.288604" lon="22.440803"></trkpt>
      <trkpt lat="51.290489" lon="22.435476"></trkpt>
      <trkpt lat="51.291385" lon="22.43208"></trkpt>
      <trkpt lat="51.291897" lon="22.42929"></trkpt>
      <trkpt lat="51.292212" lon="22.4266"></trkpt>
      <trkpt lat="51.292685" lon="22.417871"></trkpt>
      <trkpt lat="51.293053" lon="22.415391"></trkpt>
      <trkpt lat="51.293438" lon="22.413627"></trkpt>
      <trkpt lat="51.294077" lon="22.41143"></trkpt>
      <trkpt lat="51.295097" lon="22.408856"></trkpt>
      <trkpt lat="51.29622" lon="22.406725"></trkpt>
      <trkpt lat="51.297652" lon="22.404666"></trkpt>
      <trkpt lat="51.299449" lon="22.402682"></trkpt>
      <trkpt lat="51.312348" lon="22.389449"></trkpt>
      <trkpt lat="51.314569" lon="22.387555"></trkpt>
      <trkpt lat="51.316176" lon="22.386641"></trkpt>
      <trkpt lat="51.317605" lon="22.386118"></trkpt>
      <trkpt lat="51.318633" lon="22.3859"></trkpt>
      <trkpt lat="51.320006" lon="22.385812"></trkpt>
      <trkpt lat="51.321298" lon="22.385931"></trkpt>
      <trkpt lat="51.332628" lon="22.388867"></trkpt>
      <trkpt lat="51.33393" lon="22.389025"></trkpt>
      <trkpt lat="51.335008" lon="22.388934"></trkpt>
      <trkpt lat="51.336013" lon="22.388659"></trkpt>
      <trkpt lat="51.337105" lon="22.388143"></trkpt>
      <trkpt lat="51.338165" lon="22.387397"></trkpt>
      <trkpt lat="51.339487" lon="22.386056"></trkpt>
      <trkpt lat="51.340585" lon="22.384477"></trkpt>
      <trkpt lat="51.341433" lon="22.382821"></trkpt>
      <trkpt lat="51.34517" lon="22.374413"></trkpt>
      <trkpt lat="51.346451" lon="22.372128"></trkpt>
      <trkpt lat="51.347912" lon="22.370033"></trkpt>
      <trkpt lat="51.349319" lon="22.368398"></trkpt>
      <trkpt lat="51.350993" lon="22.366847"></trkpt>
      <trkpt lat="51.360075" lon="22.360221"></trkpt>
      <trkpt lat="51.361587" lon="22.358965"></trkpt>
      <trkpt lat="51.363341" lon="22.357277"></trkpt>
      <trkpt lat="51.365125" lon="22.355262"></trkpt>
      <trkpt lat="51.367182" lon="22.352502"></trkpt>
      <trkpt lat="51.369223" lon="22.349185"></trkpt>
      <trkpt lat="51.370981" lon="22.345706"></trkpt>
      <trkpt lat="51.372391" lon="22.342329"></trkpt>
      <trkpt lat="51.373592" lon="22.338833"></trkpt>
      <trkpt lat="51.374361" lon="22.336136"></trkpt>
      <trkpt lat="51.37527" lon="22.332172"></trkpt>
      <trkpt lat="51.376199" lon="22.326065"></trkpt>
      <trkpt lat="51.377337" lon="22.309"></trkpt>
      <trkpt lat="51.377809" lon="22.304725"></trkpt>
      <trkpt lat="51.378525" lon="22.300012"></trkpt>
      <trkpt lat="51.392307" lon="22.235001"></trkpt>
      <trkpt lat="51.393391" lon="22.230416"></trkpt>
      <trkpt lat="51.394256" lon="22.227309"></trkpt>
      <trkpt lat="51.395271" lon="22.224097"></trkpt>
      <trkpt lat="51.396821" lon="22.219839"></trkpt>
      <trkpt lat="51.398012" lon="22.216968"></trkpt>
      <trkpt lat="51.399819" lon="22.213113"></trkpt>
      <trkpt lat="51.422651" lon="22.170585"></trkpt>
      <trkpt lat="51.424282" lon="22.167289"></trkpt>
      <trkpt lat="51.425678" lon="22.164097"></trkpt>
      <trkpt lat="51.428127" lon="22.157421"></trkpt>
      <trkpt lat="51.429821" lon="22.151539"></trkpt>
      <trkpt lat="51.430844" lon="22.147112"></trkpt>
      <trkpt lat="51.434507" lon="22.128715"></trkpt>
      <trkpt lat="51.435345" lon="22.125435"></trkpt>
      <trkpt lat="51.436417" lon="22.122295"></trkpt>
      <trkpt lat="51.437529" lon="22.119743"></trkpt>
      <trkpt lat="51.438885" lon="22.117222"></trkpt>
      <trkpt lat="51.440577" lon="22.114715"></trkpt>
      <trkpt lat="51.442659" lon="22.112309"></trkpt>
      <trkpt lat="51.444815" lon="22.110413"></trkpt>
      <trkpt lat="51.451386" lon="22.105454"></trkpt>
      <trkpt lat="51.456056" lon="22.102297"></trkpt>
      <trkpt lat="51.461153" lon="22.098065"></trkpt>
      <trkpt lat="51.470125" lon="22.091275"></trkpt>
      <trkpt lat="51.477574" lon="22.085675"></trkpt>
      <trkpt lat="51.482977" lon="22.08193"></trkpt>
      <trkpt lat="51.488428" lon="22.077365"></trkpt>
      <trkpt lat="51.498078" lon="22.070079"></trkpt>
      <trkpt lat="51.503568" lon="22.06611"></trkpt>
      <trkpt lat="51.524868" lon="22.050062"></trkpt>
      <trkpt lat="51.527575" lon="22.048239"></trkpt>
      <trkpt lat="51.530973" lon="22.04572"></trkpt>
      <trkpt lat="51.533303" lon="22.043959"></trkpt>
      <trkpt lat="51.538206" lon="22.039964"></trkpt>
      <trkpt lat="51.539767" lon="22.03844"></trkpt>
      <trkpt lat="51.541455" lon="22.036571"></trkpt>
      <trkpt lat="51.586495" lon="21.986046"></trkpt>
      <trkpt lat="51.588014" lon="21.98441"></trkpt>
      <trkpt lat="51.589858" lon="21.982753"></trkpt>
      <trkpt lat="51.591974" lon="21.981242"></trkpt>
      <trkpt lat="51.597241" lon="21.978456"></trkpt>
      <trkpt lat="51.599054" lon="21.97729"></trkpt>
      <trkpt lat="51.601003" lon="21.975609"></trkpt>
      <trkpt lat="51.604662" lon="21.97156"></trkpt>
      <trkpt lat="51.605472" lon="21.970801"></trkpt>
      <trkpt lat="51.607519" lon="21.969194"></trkpt>
      <trkpt lat="51.608568" lon="21.96855"></trkpt>
      <trkpt lat="51.611008" lon="21.967439"></trkpt>
      <trkpt lat="51.613136" lon="21.966907"></trkpt>
      <trkpt lat="51.614727" lon="21.966753"></trkpt>
      <trkpt lat="51.619813" lon="21.96673"></trkpt>
      <trkpt lat="51.621193" lon="21.96651"></trkpt>
      <trkpt lat="51.623306" lon="21.965868"></trkpt>
      <trkpt lat="51.625563" lon="21.964763"></trkpt>
      <trkpt lat="51.631129" lon="21.961386"></trkpt>
      <trkpt lat="51.633365" lon="21.959608"></trkpt>
      <trkpt lat="51.634904" lon="21.958042"></trkpt>
      <trkpt lat="51.637216" lon="21.95499"></trkpt>
      <trkpt lat="51.638936" lon="21.951977"></trkpt>
      <trkpt lat="51.640692" lon="21.947854"></trkpt>
      <trkpt lat="51.641849" lon="21.944106"></trkpt>
      <trkpt lat="51.642617" lon="21.940518"></trkpt>
      <trkpt lat="51.64316" lon="21.93637"></trkpt>
      <trkpt lat="51.643324" lon="21.933501"></trkpt>
      <trkpt lat="51.643502" lon="21.92487"></trkpt>
      <trkpt lat="51.644017" lon="21.920232"></trkpt>
      <trkpt lat="51.644556" lon="21.917367"></trkpt>
      <trkpt lat="51.645409" lon="21.914102"></trkpt>
      <trkpt lat="51.64671" lon="21.910499"></trkpt>
      <trkpt lat="51.648014" lon="21.907697"></trkpt>
      <trkpt lat="51.64996" lon="21.904469"></trkpt>
      <trkpt lat="51.650915" lon="21.903178"></trkpt>
      <trkpt lat="51.652842" lon="21.901039"></trkpt>
      <trkpt lat="51.654567" lon="21.899525"></trkpt>
      <trkpt lat="51.656189" lon="21.89842"></trkpt>
      <trkpt lat="51.660533" lon="21.896235"></trkpt>
      <trkpt lat="51.662589" lon="21.894832"></trkpt>
      <trkpt lat="51.664848" lon="21.892661"></trkpt>
      <trkpt lat="51.666864" lon="21.890029"></trkpt>
      <trkpt lat="51.668271" lon="21.887649"></trkpt>
      <trkpt lat="51.669989" lon="21.883792"></trkpt>
      <trkpt lat="51.671152" lon="21.880095"></trkpt>
      <trkpt lat="51.672857" lon="21.872715"></trkpt>
      <trkpt lat="51.673483" lon="21.870593"></trkpt>
      <trkpt lat="51.674521" lon="21.867776"></trkpt>
      <trkpt lat="51.675866" lon="21.864942"></trkpt>
      <trkpt lat="51.684002" lon="21.851872"></trkpt>
      <trkpt lat="51.685937" lon="21.84931"></trkpt>
      <trkpt lat="51.687354" lon="21.847953"></trkpt>
      <trkpt lat="51.689078" lon="21.846762"></trkpt>
      <trkpt lat="51.69047" lon="21.846099"></trkpt>
      <trkpt lat="51.693485" lon="21.844904"></trkpt>
      <trkpt lat="51.694583" lon="21.844315"></trkpt>
      <trkpt lat="51.695692" lon="21.843547"></trkpt>
      <trkpt lat="51.697548" lon="21.841802"></trkpt>
      <trkpt lat="51.699244" lon="21.839549"></trkpt>
      <trkpt lat="51.700674" lon="21.836944"></trkpt>
      <trkpt lat="51.701807" lon="21.834044"></trkpt>
      <trkpt lat="51.702763" lon="21.830705"></trkpt>
      <trkpt lat="51.704112" lon="21.825262"></trkpt>
      <trkpt lat="51.705282" lon="21.821609"></trkpt>
      <trkpt lat="51.706121" lon="21.819587"></trkpt>
      <trkpt lat="51.707076" lon="21.817659"></trkpt>
      <trkpt lat="51.708725" lon="21.814987"></trkpt>
      <trkpt lat="51.710201" lon="21.81309"></trkpt>
      <trkpt lat="51.711581" lon="21.811531"></trkpt>
      <trkpt lat="51.762225" lon="21.756596"></trkpt>
      <trkpt lat="51.770185" lon="21.748172"></trkpt>
      <trkpt lat="51.77236" lon="21.746404"></trkpt>
      <trkpt lat="51.774292" lon="21.745413"></trkpt>
      <trkpt lat="51.775583" lon="21.745031"></trkpt>
      <trkpt lat="51.779571" lon="21.744271"></trkpt>
      <trkpt lat="51.781411" lon="21.74357"></trkpt>
      <trkpt lat="51.783062" lon="21.742541"></trkpt>
      <trkpt lat="51.784662" lon="21.741137"></trkpt>
      <trkpt lat="51.786531" lon="21.738837"></trkpt>
      <trkpt lat="51.787869" lon="21.736566"></trkpt>
      <trkpt lat="51.788916" lon="21.734212"></trkpt>
      <trkpt lat="51.790649" lon="21.729367"></trkpt>
      <trkpt lat="51.791623" lon="21.727022"></trkpt>
      <trkpt lat="51.792829" lon="21.724804"></trkpt>
      <trkpt lat="51.794447" lon="21.722584"></trkpt>
      <trkpt lat="51.817612" lon="21.697932"></trkpt>
      <trkpt lat="51.854965" lon="21.657244"></trkpt>
      <trkpt lat="51.857059" lon="21.654878"></trkpt>
      <trkpt lat="51.858349" lon="21.653194"></trkpt>
      <trkpt lat="51.859202" lon="21.651661"></trkpt>
      <trkpt lat="51.859853" lon="21.650078"></trkpt>
      <trkpt lat="51.860384" lon="21.648297"></trkpt>
      <trkpt lat="51.860783" lon="21.646097"></trkpt>
      <trkpt lat="51.860955" lon="21.643932"></trkpt>
      <trkpt lat="51.861284" lon="21.63329"></trkpt>
      <trkpt lat="51.861488" lon="21.629844"></trkpt>
      <trkpt lat="51.862021" lon="21.625478"></trkpt>
      <trkpt lat="51.863027" lon="21.620459"></trkpt>
      <trkpt lat="51.864468" lon="21.615543"></trkpt>
      <trkpt lat="51.873412" lon="21.589297"></trkpt>
      <trkpt lat="51.874372" lon="21.587086"></trkpt>
      <trkpt lat="51.875605" lon="21.585205"></trkpt>
      <trkpt lat="51.877142" lon="21.583694"></trkpt>
      <trkpt lat="51.878569" lon="21.582865"></trkpt>
      <trkpt lat="51.888523" lon="21.579681"></trkpt>
      <trkpt lat="51.890101" lon="21.579247"></trkpt>
      <trkpt lat="51.891768" lon="21.579013"></trkpt>
      <trkpt lat="51.893241" lon="21.579021"></trkpt>
      <trkpt lat="51.895423" lon="21.579408"></trkpt>
      <trkpt lat="51.896831" lon="21.579896"></trkpt>
      <trkpt lat="51.898725" lon="21.580877"></trkpt>
      <trkpt lat="51.9001" lon="21.581846"></trkpt>
      <trkpt lat="51.901549" lon="21.583128"></trkpt>
      <trkpt lat="51.903087" lon="21.584817"></trkpt>
      <trkpt lat="51.911323" lon="21.594969"></trkpt>
      <trkpt lat="51.912968" lon="21.596561"></trkpt>
      <trkpt lat="51.914368" lon="21.597408"></trkpt>
      <trkpt lat="51.915902" lon="21.597902"></trkpt>
      <trkpt lat="51.917344" lon="21.59798"></trkpt>
      <trkpt lat="51.918725" lon="21.597713"></trkpt>
      <trkpt lat="51.920297" lon="21.596979"></trkpt>
      <trkpt lat="51.924548" lon="21.594089"></trkpt>
      <trkpt lat="51.987359" lon="21.550683"></trkpt>
      <trkpt lat="51.989586" lon="21.548852"></trkpt>
      <trkpt lat="52.040782" lon="21.491701"></trkpt>
      <trkpt lat="52.043142" lon="21.488336"></trkpt>
      <trkpt lat="52.044401" lon="21.486169"></trkpt>
      <trkpt lat="52.045466" lon="21.484052"></trkpt>
      <trkpt lat="52.04675" lon="21.481069"></trkpt>
      <trkpt lat="52.048969" lon="21.474684"></trkpt>
      <trkpt lat="52.050901" lon="21.470321"></trkpt>
      <trkpt lat="52.052896" lon="21.466841"></trkpt>
      <trkpt lat="52.054073" lon="21.465115"></trkpt>
      <trkpt lat="52.055498" lon="21.46331"></trkpt>
      <trkpt lat="52.062569" lon="21.454795"></trkpt>
      <trkpt lat="52.064229" lon="21.452934"></trkpt>
      <trkpt lat="52.066693" lon="21.450771"></trkpt>
      <trkpt lat="52.075708" lon="21.44407"></trkpt>
      <trkpt lat="52.078441" lon="21.441364"></trkpt>
      <trkpt lat="52.08087" lon="21.438204"></trkpt>
      <trkpt lat="52.083084" lon="21.434519"></trkpt>
      <trkpt lat="52.090306" lon="21.420904"></trkpt>
      <trkpt lat="52.093293" lon="21.415131"></trkpt>
      <trkpt lat="52.094056" lon="21.413311"></trkpt>
      <trkpt lat="52.094707" lon="21.411402"></trkpt>
      <trkpt lat="52.095343" lon="21.408974"></trkpt>
      <trkpt lat="52.097449" lon="21.398381"></trkpt>
      <trkpt lat="52.098368" lon="21.394286"></trkpt>
      <trkpt lat="52.099614" lon="21.390646"></trkpt>
      <trkpt lat="52.101183" lon="21.387568"></trkpt>
      <trkpt lat="52.102758" lon="21.385369"></trkpt>
      <trkpt lat="52.104209" lon="21.383873"></trkpt>
      <trkpt lat="52.106376" lon="21.38221"></trkpt>
      <trkpt lat="52.111354" lon="21.378816"></trkpt>
      <trkpt lat="52.112489" lon="21.377738"></trkpt>
      <trkpt lat="52.113705" lon="21.376204"></trkpt>
      <trkpt lat="52.115466" lon="21.37318"></trkpt>
      <trkpt lat="52.129972" lon="21.345487"></trkpt>
      <trkpt lat="52.131285" lon="21.343263"></trkpt>
      <trkpt lat="52.132957" lon="21.340823"></trkpt>
      <trkpt lat="52.136547" lon="21.336025"></trkpt>
      <trkpt lat="52.140082" lon="21.330466"></trkpt>
      <trkpt lat="52.14093" lon="21.329315"></trkpt>
      <trkpt lat="52.146078" lon="21.323886"></trkpt>
      <trkpt lat="52.14822" lon="21.321436"></trkpt>
      <trkpt lat="52.152327" lon="21.316101"></trkpt>
      <trkpt lat="52.156293" lon="21.310149"></trkpt>
      <trkpt lat="52.159579" lon="21.305683"></trkpt>
      <trkpt lat="52.161224" lon="21.303265"></trkpt>
      <trkpt lat="52.163407" lon="21.299526"></trkpt>
      <trkpt lat="52.16754" lon="21.29148"></trkpt>
      <trkpt lat="52.168873" lon="21.289305"></trkpt>
      <trkpt lat="52.169786" lon="21.288242"></trkpt>
      <trkpt lat="52.170862" lon="21.287341"></trkpt>
      <trkpt lat="52.172159" lon="21.286563"></trkpt>
      <trkpt lat="52.173068" lon="21.286237"></trkpt>
      <trkpt lat="52.174963" lon="21.286041"></trkpt>
      <trkpt lat="52.180877" lon="21.286499"></trkpt>
      <trkpt lat="52.182093" lon="21.28635"></trkpt>
      <trkpt lat="52.183937" lon="21.285667"></trkpt>
      <trkpt lat="52.185632" lon="21.28453"></trkpt>
      <trkpt lat="52.188971" lon="21.28108"></trkpt>
      <trkpt lat="52.191206" lon="21.278941"></trkpt>
      <trkpt lat="52.193604" lon="21.276719"></trkpt>
      <trkpt lat="52.194881" lon="21.275806"></trkpt>
      <trkpt lat="52.196237" lon="21.274521"></trkpt>
      <trkpt lat="52.196789" lon="21.274304"></trkpt>
      <trkpt lat="52.197712" lon="21.274649"></trkpt>
      <trkpt lat="52.198382" lon="21.274643"></trkpt>
      <trkpt lat="52.19887" lon="21.274405"></trkpt>
      <trkpt lat="52.199447" lon="21.273771"></trkpt>
      <trkpt lat="52.199818" lon="21.272983"></trkpt>
      <trkpt lat="52.200034" lon="21.271986"></trkpt>
      <trkpt lat="52.200066" lon="21.271179"></trkpt>
      <trkpt lat="52.199932" lon="21.270225"></trkpt>
      <trkpt lat="52.19964" lon="21.269376"></trkpt>
      <trkpt lat="52.198814" lon="21.268041"></trkpt>
      <trkpt lat="52.198539" lon="21.26729"></trkpt>
      <trkpt lat="52.198036" lon="21.263845"></trkpt>
      <trkpt lat="52.197514" lon="21.26134"></trkpt>
      <trkpt lat="52.19703" lon="21.259812"></trkpt>
      <trkpt lat="52.192046" lon="21.239461"></trkpt>
      <trkpt lat="52.190913" lon="21.236083"></trkpt>
      <trkpt lat="52.189726" lon="21.233755"></trkpt>
      <trkpt lat="52.188395" lon="21.231878"></trkpt>
      <trkpt lat="52.171809" lon="21.211953"></trkpt>
      <trkpt lat="52.170899" lon="21.210528"></trkpt>
      <trkpt lat="52.169951" lon="21.208591"></trkpt>
      <trkpt lat="52.169243" lon="21.206651"></trkpt>
      <trkpt lat="52.168679" lon="21.204509"></trkpt>
      <trkpt lat="52.167686" lon="21.197752"></trkpt>
      <trkpt lat="52.164288" lon="21.17142"></trkpt>
      <trkpt lat="52.163906" lon="21.167013"></trkpt>
      <trkpt lat="52.163608" lon="21.157546"></trkpt>
      <trkpt lat="52.163148" lon="21.152894"></trkpt>
      <trkpt lat="52.162627" lon="21.149409"></trkpt>
      <trkpt lat="52.158373" lon="21.127175"></trkpt>
      <trkpt lat="52.157923" lon="21.125279"></trkpt>
      <trkpt lat="52.156756" lon="21.121891"></trkpt>
      <trkpt lat="52.153371" lon="21.114317"></trkpt>
      <trkpt lat="52.152648" lon="21.112459"></trkpt>
      <trkpt lat="52.151836" lon="21.109549"></trkpt>
      <trkpt lat="52.151352" lon="21.106675"></trkpt>
      <trkpt lat="52.151147" lon="21.103671"></trkpt>
      <trkpt lat="52.151244" lon="21.09959"></trkpt>
      <trkpt lat="52.153188" lon="21.075207"></trkpt>
      <trkpt lat="52.153105" lon="21.071998"></trkpt>
      <trkpt lat="52.152808" lon="21.069663"></trkpt>
      <trkpt lat="52.15217" lon="21.066787"></trkpt>
      <trkpt lat="52.151065" lon="21.063825"></trkpt>
      <trkpt lat="52.143342" lon="21.048138"></trkpt>
      <trkpt lat="52.142488" lon="21.046156"></trkpt>
      <trkpt lat="52.141848" lon="21.044313"></trkpt>
      <trkpt lat="52.141246" lon="21.042099"></trkpt>
      <trkpt lat="52.140618" lon="21.038622"></trkpt>
      <trkpt lat="52.140351" lon="21.035576"></trkpt>
      <trkpt lat="52.139563" lon="21.015636"></trkpt>
      <trkpt lat="52.139562" lon="21.006386"></trkpt>
      <trkpt lat="52.139158" lon="20.997552"></trkpt>
      <trkpt lat="52.138927" lon="20.982721"></trkpt>
      <trkpt lat="52.139395" lon="20.978017"></trkpt>
      <trkpt lat="52.139695" lon="20.976346"></trkpt>
      <trkpt lat="52.140244" lon="20.974212"></trkpt>
      <trkpt lat="52.141578" lon="20.970642"></trkpt>
      <trkpt lat="52.142413" lon="20.968998"></trkpt>
      <trkpt lat="52.143299" lon="20.96757"></trkpt>
      <trkpt lat="52.144702" lon="20.965759"></trkpt>
      <trkpt lat="52.146244" lon="20.964265"></trkpt>
      <trkpt lat="52.152767" lon="20.959719"></trkpt>
      <trkpt lat="52.155581" lon="20.957201"></trkpt>
      <trkpt lat="52.156944" lon="20.955682"></trkpt>
      <trkpt lat="52.158401" lon="20.953799"></trkpt>
      <trkpt lat="52.160878" lon="20.94986"></trkpt>
      <trkpt lat="52.161958" lon="20.947735"></trkpt>
      <trkpt lat="52.1641" lon="20.942904"></trkpt>
      <trkpt lat="52.171823" lon="20.917744"></trkpt>
      <trkpt lat="52.172288" lon="20.916705"></trkpt>
      <trkpt lat="52.172955" lon="20.915807"></trkpt>
      <trkpt lat="52.173632" lon="20.915343"></trkpt>
      <trkpt lat="52.17586" lon="20.914177"></trkpt>
      <trkpt lat="52.1763" lon="20.91405"></trkpt>
      <trkpt lat="52.176955" lon="20.914088"></trkpt>
      <trkpt lat="52.181237" lon="20.915472"></trkpt>
      <trkpt lat="52.18805" lon="20.917848"></trkpt>
      <trkpt lat="52.188811" lon="20.918214"></trkpt>
      <trkpt lat="52.189564" lon="20.918886"></trkpt>
      <trkpt lat="52.19131" lon="20.921438"></trkpt>
      <trkpt lat="52.195516" lon="20.928105"></trkpt>
      <trkpt lat="52.196931" lon="20.929904"></trkpt>
      <trkpt lat="52.198667" lon="20.932424"></trkpt>
      <trkpt lat="52.207619" lon="20.94585"></trkpt>
      <trkpt lat="52.211012" lon="20.951121"></trkpt>
      <trkpt lat="52.211979" lon="20.952418"></trkpt>
      <trkpt lat="52.211966" lon="20.952783"></trkpt>
      <trkpt lat="52.21187" lon="20.952939"></trkpt>
      <trkpt lat="52.211741" lon="20.952863"></trkpt>
      <trkpt lat="52.211669" lon="20.953061"></trkpt>
      <trkpt lat="52.211822" lon="20.953193"></trkpt>
      <trkpt lat="52.211974" lon="20.953904"></trkpt>
      <trkpt lat="52.211972" lon="20.955694"></trkpt>
      <trkpt lat="52.211779" lon="20.956654"></trkpt>
      <trkpt lat="52.211662" lon="20.956575"></trkpt>
      <trkpt lat="52.211531" lon="20.957096"></trkpt>
  </trkseg></trk>
</gpx>
