<?xml version="1.0" encoding="UTF-8"?>
<gpx version="1.1" creator="yatutbuv" xmlns="http://www.topografix.com/GPX/1/1">
  <trk><name>GraphHopper Track</name><trkseg>
      <trkpt lat="51.556519" lon="23.617098"></trkpt>
      <trkpt lat="51.556634" lon="23.616226"></trkpt>
      <trkpt lat="51.567835" lon="23.619842"></trkpt>
      <trkpt lat="51.573214" lon="23.621456"></trkpt>
      <trkpt lat="51.573408" lon="23.621405"></trkpt>
      <trkpt lat="51.573935" lon="23.620882"></trkpt>
      <trkpt lat="51.580305" lon="23.613805"></trkpt>
      <trkpt lat="51.582154" lon="23.612376"></trkpt>
      <trkpt lat="51.583715" lon="23.611708"></trkpt>
      <trkpt lat="51.584977" lon="23.611463"></trkpt>
      <trkpt lat="51.595691" lon="23.611226"></trkpt>
      <trkpt lat="51.59818" lon="23.611041"></trkpt>
      <trkpt lat="51.598594" lon="23.610803"></trkpt>
      <trkpt lat="51.605116" lon="23.605467"></trkpt>
      <trkpt lat="51.606679" lon="23.604758"></trkpt>
      <trkpt lat="51.60739" lon="23.604549"></trkpt>
      <trkpt lat="51.653728" lon="23.601537"></trkpt>
      <trkpt lat="51.655372" lon="23.601771"></trkpt>
      <trkpt lat="51.678409" lon="23.606772"></trkpt>
      <trkpt lat="51.679479" lon="23.607205"></trkpt>
      <trkpt lat="51.731" lon="23.636854"></trkpt>
      <trkpt lat="51.73165" lon="23.637369"></trkpt>
      <trkpt lat="51.732228" lon="23.638209"></trkpt>
      <trkpt lat="51.73488" lon="23.645443"></trkpt>
      <trkpt lat="51.735481" lon="23.6463"></trkpt>
      <trkpt lat="51.73593" lon="23.646593"></trkpt>
      <trkpt lat="51.740703" lon="23.647382"></trkpt>
      <trkpt lat="51.755682" lon="23.649325"></trkpt>
      <trkpt lat="51.764184" lon="23.647921"></trkpt>
      <trkpt lat="51.765333" lon="23.647863"></trkpt>
      <trkpt lat="51.765988" lon="23.647968"></trkpt>
      <trkpt lat="51.767129" lon="23.648514"></trkpt>
      <trkpt lat="51.772334" lon="23.652001"></trkpt>
      <trkpt lat="51.774661" lon="23.65417"></trkpt>
      <trkpt lat="51.775456" lon="23.654672"></trkpt>
      <trkpt lat="51.775672" lon="23.654777"></trkpt>
      <trkpt lat="51.776137" lon="23.654762"></trkpt>
      <trkpt lat="51.776416" lon="23.654359"></trkpt>
      <trkpt lat="51.777287" lon="23.654872"></trkpt>
      <trkpt lat="51.77801" lon="23.655079"></trkpt>
      <trkpt lat="51.791037" lon="23.655848"></trkpt>
      <trkpt lat="51.792125" lon="23.655731"></trkpt>
      <trkpt lat="51.793486" lon="23.65514"></trkpt>
      <trkpt lat="51.801443" lon="23.649569"></trkpt>
      <trkpt lat="51.802647" lon="23.648946"></trkpt>
      <trkpt lat="51.80333" lon="23.648773"></trkpt>
      <trkpt lat="51.804563" lon="23.648733"></trkpt>
      <trkpt lat="51.808233" lon="23.649592"></trkpt>
      <trkpt lat="51.809616" lon="23.64967"></trkpt>
      <trkpt lat="51.813862" lon="23.648701"></trkpt>
      <trkpt lat="51.815528" lon="23.648436"></trkpt>
      <trkpt lat="51.815974" lon="23.648396"></trkpt>
      <trkpt lat="51.819328" lon="23.648727"></trkpt>
      <trkpt lat="51.820143" lon="23.648616"></trkpt>
      <trkpt lat="51.85018" lon="23.637734"></trkpt>
      <trkpt lat="51.851548" lon="23.637472"></trkpt>
      <trkpt lat="51.852999" lon="23.637654"></trkpt>
      <trkpt lat="51.922565" lon="23.660831"></trkpt>
      <trkpt lat="51.923505" lon="23.661024"></trkpt>
      <trkpt lat="51.923922" lon="23.660986"></trkpt>
      <trkpt lat="51.933142" lon="23.659406"></trkpt>
      <trkpt lat="51.933566" lon="23.659395"></trkpt>
      <trkpt lat="51.934467" lon="23.659672"></trkpt>
      <trkpt lat="51.935157" lon="23.660146"></trkpt>
      <trkpt lat="51.944762" lon="23.668273"></trkpt>
      <trkpt lat="51.961787" lon="23.68287"></trkpt>
      <trkpt lat="51.980946" lon="23.699092"></trkpt>
      <trkpt lat="52.020932" lon="23.729804"></trkpt>
      <trkpt lat="52.021668" lon="23.730179"></trkpt>
      <trkpt lat="52.02231" lon="23.730289"></trkpt>
      <trkpt lat="52.05241" lon="23.726701"></trkpt>
      <trkpt lat="52.05309" lon="23.726738"></trkpt>
      <trkpt lat="52.058261" lon="23.715249"></trkpt>
      <trkpt lat="52.059425" lon="23.711448"></trkpt>
      <trkpt lat="52.060912" lon="23.704153"></trkpt>
      <trkpt lat="52.061319" lon="23.702998"></trkpt>
      <trkpt lat="52.070849" lon="23.688115"></trkpt>
      <trkpt lat="52.071739" lon="23.686022"></trkpt>
      <trkpt lat="52.072536" lon="23.682573"></trkpt>
      <trkpt lat="52.073038" lon="23.681252"></trkpt>
      <trkpt lat="52.073332" lon="23.680851"></trkpt>
      <trkpt lat="52.073983" lon="23.680999"></trkpt>
      <trkpt lat="52.074427" lon="23.680727"></trkpt>
      <trkpt lat="52.074707" lon="23.68004"></trkpt>
      <trkpt lat="52.07469" lon="23.678961"></trkpt>
      <trkpt lat="52.074812" lon="23.678594"></trkpt>
      <trkpt lat="52.077326" lon="23.67506"></trkpt>
      <trkpt lat="52.078111" lon="23.674107"></trkpt>
      <trkpt lat="52.079069" lon="23.673191"></trkpt>
      <trkpt lat="52.080459" lon="23.672282"></trkpt>
      <trkpt lat="52.08456" lon="23.669939"></trkpt>
      <trkpt lat="52.087235" lon="23.668482"></trkpt>
      <trkpt lat="52.088888" lon="23.667866"></trkpt>
      <trkpt lat="52.092047" lon="23.666204"></trkpt>
      <trkpt lat="52.092521" lon="23.665859"></trkpt>
      <trkpt lat="52.091197" lon="23.661349"></trkpt>
      <trkpt lat="52.090809" lon="23.659549"></trkpt>
      <trkpt lat="52.090257" lon="23.658145"></trkpt>
      <trkpt lat="52.088261" lon="23.656944"></trkpt>
      <trkpt lat="52.086773" lon="23.657195"></trkpt>
      <trkpt lat="52.083702" lon="23.656538"></trkpt>
      <trkpt lat="52.083856" lon="23.654083"></trkpt>
      <trkpt lat="52.082818" lon="23.653811"></trkpt>
      <trkpt lat="52.083856" lon="23.654083"></trkpt>
      <trkpt lat="52.083702" lon="23.656538"></trkpt>
      <trkpt lat="52.086773" lon="23.657195"></trkpt>
      <trkpt lat="52.088261" lon="23.656944"></trkpt>
      <trkpt lat="52.09031" lon="23.658208"></trkpt>
      <trkpt lat="52.090809" lon="23.659549"></trkpt>
      <trkpt lat="52.091161" lon="23.661212"></trkpt>
      <trkpt lat="52.092419" lon="23.665697"></trkpt>
      <trkpt lat="52.091924" lon="23.666075"></trkpt>
      <trkpt lat="52.089203" lon="23.667499"></trkpt>
      <trkpt lat="52.0872" lon="23.668282"></trkpt>
      <trkpt lat="52.085415" lon="23.669221"></trkpt>
      <trkpt lat="52.07963" lon="23.672532"></trkpt>
      <trkpt lat="52.077697" lon="23.674248"></trkpt>
      <trkpt lat="52.07466" lon="23.678473"></trkpt>
      <trkpt lat="52.074401" lon="23.678581"></trkpt>
      <trkpt lat="52.073865" lon="23.67841"></trkpt>
      <trkpt lat="52.073451" lon="23.678673"></trkpt>
      <trkpt lat="52.073176" lon="23.67931"></trkpt>
      <trkpt lat="52.07315" lon="23.680561"></trkpt>
      <trkpt lat="52.072441" lon="23.682331"></trkpt>
      <trkpt lat="52.071522" lon="23.686205"></trkpt>
      <trkpt lat="52.070897" lon="23.687667"></trkpt>
      <trkpt lat="52.061683" lon="23.70204"></trkpt>
      <trkpt lat="52.061142" lon="23.703061"></trkpt>
      <trkpt lat="52.060785" lon="23.704173"></trkpt>
      <trkpt lat="52.059425" lon="23.711448"></trkpt>
      <trkpt lat="52.058067" lon="23.715749"></trkpt>
      <trkpt lat="52.040881" lon="23.753581"></trkpt>
      <trkpt lat="52.039667" lon="23.756328"></trkpt>
      <trkpt lat="52.038516" lon="23.75936"></trkpt>
      <trkpt lat="52.028755" lon="23.793519"></trkpt>
      <trkpt lat="52.028597" lon="23.795067"></trkpt>
      <trkpt lat="52.028568" lon="23.803953"></trkpt>
      <trkpt lat="52.028402" lon="23.805191"></trkpt>
      <trkpt lat="52.027909" lon="23.80691"></trkpt>
      <trkpt lat="51.992358" lon="23.900195"></trkpt>
      <trkpt lat="51.929261" lon="24.064154"></trkpt>
      <trkpt lat="51.926743" lon="24.070451"></trkpt>
      <trkpt lat="51.892708" lon="24.138577"></trkpt>
      <trkpt lat="51.879668" lon="24.128595"></trkpt>
      <trkpt lat="51.818346" lon="24.082233"></trkpt>
      <trkpt lat="51.816505" lon="24.080704"></trkpt>
      <trkpt lat="51.815677" lon="24.079551"></trkpt>
      <trkpt lat="51.814617" lon="24.077535"></trkpt>
      <trkpt lat="51.807613" lon="24.063208"></trkpt>
      <trkpt lat="51.805733" lon="24.060369"></trkpt>
      <trkpt lat="51.803217" lon="24.057369"></trkpt>
      <trkpt lat="51.802004" lon="24.055385"></trkpt>
      <trkpt lat="51.800942" lon="24.052716"></trkpt>
      <trkpt lat="51.797632" lon="24.039823"></trkpt>
      <trkpt lat="51.796983" lon="24.037871"></trkpt>
      <trkpt lat="51.79627" lon="24.036286"></trkpt>
      <trkpt lat="51.795564" lon="24.035107"></trkpt>
      <trkpt lat="51.794711" lon="24.033942"></trkpt>
      <trkpt lat="51.793351" lon="24.032596"></trkpt>
      <trkpt lat="51.792085" lon="24.031775"></trkpt>
      <trkpt lat="51.791243" lon="24.031446"></trkpt>
      <trkpt lat="51.790021" lon="24.03108"></trkpt>
      <trkpt lat="51.788683" lon="24.030841"></trkpt>
      <trkpt lat="51.787315" lon="24.030968"></trkpt>
      <trkpt lat="51.7866" lon="24.031215"></trkpt>
      <trkpt lat="51.78552" lon="24.031839"></trkpt>
      <trkpt lat="51.784683" lon="24.032517"></trkpt>
      <trkpt lat="51.783916" lon="24.033437"></trkpt>
      <trkpt lat="51.779675" lon="24.039186"></trkpt>
      <trkpt lat="51.776152" lon="24.044194"></trkpt>
      <trkpt lat="51.76083" lon="24.022933"></trkpt>
      <trkpt lat="51.760194" lon="24.02218"></trkpt>
      <trkpt lat="51.759128" lon="24.02155"></trkpt>
      <trkpt lat="51.752373" lon="24.018894"></trkpt>
      <trkpt lat="51.751165" lon="24.018109"></trkpt>
      <trkpt lat="51.75068" lon="24.017642"></trkpt>
      <trkpt lat="51.749793" lon="24.016483"></trkpt>
      <trkpt lat="51.749301" lon="24.015627"></trkpt>
      <trkpt lat="51.746293" lon="24.007518"></trkpt>
      <trkpt lat="51.745431" lon="24.005859"></trkpt>
      <trkpt lat="51.74475" lon="24.005154"></trkpt>
      <trkpt lat="51.744237" lon="24.004843"></trkpt>
      <trkpt lat="51.740552" lon="24.003509"></trkpt>
      <trkpt lat="51.739532" lon="24.00294"></trkpt>
      <trkpt lat="51.738972" lon="24.00245"></trkpt>
      <trkpt lat="51.738027" lon="24.001278"></trkpt>
      <trkpt lat="51.737084" lon="23.999324"></trkpt>
      <trkpt lat="51.736571" lon="23.998525"></trkpt>
      <trkpt lat="51.728128" lon="23.990018"></trkpt>
      <trkpt lat="51.72746" lon="23.989656"></trkpt>
      <trkpt lat="51.726937" lon="23.989534"></trkpt>
      <trkpt lat="51.716973" lon="23.988562"></trkpt>
      <trkpt lat="51.708709" lon="23.987667"></trkpt>
      <trkpt lat="51.708053" lon="23.987518"></trkpt>
      <trkpt lat="51.707112" lon="23.986917"></trkpt>
      <trkpt lat="51.702835" lon="23.982022"></trkpt>
      <trkpt lat="51.700018" lon="23.978986"></trkpt>
      <trkpt lat="51.693999" lon="23.974476"></trkpt>
      <trkpt lat="51.682766" lon="23.958517"></trkpt>
      <trkpt lat="51.674733" lon="23.95017"></trkpt>
      <trkpt lat="51.673416" lon="23.94766"></trkpt>
      <trkpt lat="51.671694" lon="23.943643"></trkpt>
      <trkpt lat="51.667913" lon="23.935397"></trkpt>
      <trkpt lat="51.666884" lon="23.932917"></trkpt>
      <trkpt lat="51.666504" lon="23.931643"></trkpt>
      <trkpt lat="51.665156" lon="23.918153"></trkpt>
      <trkpt lat="51.664619" lon="23.915709"></trkpt>
      <trkpt lat="51.643859" lon="23.881669"></trkpt>
  </trkseg></trk>
</gpx>
