<?xml version="1.0" encoding="UTF-8"?>
<gpx version="1.1" creator="yatutbuv" xmlns="http://www.topografix.com/GPX/1/1">
  <trk><name>GraphHopper Track</name><trkseg>
      <trkpt lat="50.562229" lon="30.22049"></trkpt>
      <trkpt lat="50.562123" lon="30.23938"></trkpt>
      <trkpt lat="50.554961" lon="30.239282"></trkpt>
      <trkpt lat="50.554729" lon="30.273144"></trkpt>
      <trkpt lat="50.554469" lon="30.275713"></trkpt>
      <trkpt lat="50.553166" lon="30.281388"></trkpt>
      <trkpt lat="50.5532" lon="30.283923"></trkpt>
      <trkpt lat="50.5537" lon="30.289225"></trkpt>
      <trkpt lat="50.553836" lon="30.291952"></trkpt>
      <trkpt lat="50.553722" lon="30.293147"></trkpt>
      <trkpt lat="50.553221" lon="30.295126"></trkpt>
      <trkpt lat="50.552683" lon="30.296121"></trkpt>
      <trkpt lat="50.551239" lon="30.297729"></trkpt>
      <trkpt lat="50.548587" lon="30.301494"></trkpt>
      <trkpt lat="50.520936" lon="30.349388"></trkpt>
      <trkpt lat="50.518866" lon="30.352727"></trkpt>
      <trkpt lat="50.517872" lon="30.355035"></trkpt>
      <trkpt lat="50.515901" lon="30.361396"></trkpt>
      <trkpt lat="50.515569" lon="30.36276"></trkpt>
      <trkpt lat="50.515458" lon="30.364164"></trkpt>
      <trkpt lat="50.515579" lon="30.365963"></trkpt>
      <trkpt lat="50.5158" lon="30.367014"></trkpt>
      <trkpt lat="50.516819" lon="30.370309"></trkpt>
      <trkpt lat="50.517127" lon="30.372024"></trkpt>
      <trkpt lat="50.52106" lon="30.424296"></trkpt>
      <trkpt lat="50.521408" lon="30.426478"></trkpt>
      <trkpt lat="50.521882" lon="30.427965"></trkpt>
      <trkpt lat="50.522407" lon="30.429099"></trkpt>
      <trkpt lat="50.524131" lon="30.431632"></trkpt>
      <trkpt lat="50.524699" lon="30.432657"></trkpt>
      <trkpt lat="50.525278" lon="30.434227"></trkpt>
      <trkpt lat="50.525522" lon="30.435359"></trkpt>
      <trkpt lat="50.527462" lon="30.455567"></trkpt>
      <trkpt lat="50.527407" lon="30.457578"></trkpt>
      <trkpt lat="50.526484" lon="30.463094"></trkpt>
      <trkpt lat="50.526415" lon="30.464796"></trkpt>
      <trkpt lat="50.526616" lon="30.465954"></trkpt>
      <trkpt lat="50.526965" lon="30.466876"></trkpt>
      <trkpt lat="50.528116" lon="30.468547"></trkpt>
      <trkpt lat="50.528149" lon="30.468867"></trkpt>
      <trkpt lat="50.527992" lon="30.469155"></trkpt>
      <trkpt lat="50.517862" lon="30.468863"></trkpt>
      <trkpt lat="50.517571" lon="30.488213"></trkpt>
      <trkpt lat="50.516932" lon="30.489899"></trkpt>
      <trkpt lat="50.513029" lon="30.493286"></trkpt>
      <trkpt lat="50.512234" lon="30.493489"></trkpt>
      <trkpt lat="50.511974" lon="30.493749"></trkpt>
      <trkpt lat="50.511943" lon="30.494153"></trkpt>
      <trkpt lat="50.512099" lon="30.494965"></trkpt>
      <trkpt lat="50.512049" lon="30.497479"></trkpt>
      <trkpt lat="50.511733" lon="30.497986"></trkpt>
      <trkpt lat="50.511241" lon="30.498027"></trkpt>
      <trkpt lat="50.511046" lon="30.498452"></trkpt>
      <trkpt lat="50.511143" lon="30.498852"></trkpt>
      <trkpt lat="50.511771" lon="30.499144"></trkpt>
      <trkpt lat="50.511992" lon="30.499567"></trkpt>
      <trkpt lat="50.511955" lon="30.504064"></trkpt>
      <trkpt lat="50.512083" lon="30.504364"></trkpt>
      <trkpt lat="50.512235" lon="30.504361"></trkpt>
      <trkpt lat="50.512339" lon="30.504192"></trkpt>
      <trkpt lat="50.512368" lon="30.503516"></trkpt>
      <trkpt lat="50.5129" lon="30.503489"></trkpt>
      <trkpt lat="50.512899" lon="30.50301"></trkpt>
  </trkseg></trk>
</gpx>
