<?xml version="1.0" encoding="UTF-8"?>
<gpx version="1.1" creator="yatutbuv" xmlns="http://www.topografix.com/GPX/1/1">
  <trk><name>GraphHopper Track</name><trkseg>
      <trkpt lat="50.512373" lon="30.503046"></trkpt>
      <trkpt lat="50.512397" lon="30.50108"></trkpt>
      <trkpt lat="50.51231" lon="30.500787"></trkpt>
      <trkpt lat="50.512172" lon="30.50073"></trkpt>
      <trkpt lat="50.511992" lon="30.50113"></trkpt>
      <trkpt lat="50.511935" lon="30.505061"></trkpt>
      <trkpt lat="50.511835" lon="30.505525"></trkpt>
      <trkpt lat="50.511531" lon="30.506047"></trkpt>
      <trkpt lat="50.510829" lon="30.506544"></trkpt>
      <trkpt lat="50.509745" lon="30.506909"></trkpt>
      <trkpt lat="50.508717" lon="30.507425"></trkpt>
      <trkpt lat="50.506967" lon="30.508786"></trkpt>
      <trkpt lat="50.506638" lon="30.508818"></trkpt>
      <trkpt lat="50.506174" lon="30.508586"></trkpt>
      <trkpt lat="50.505972" lon="30.508648"></trkpt>
      <trkpt lat="50.505657" lon="30.509678"></trkpt>
      <trkpt lat="50.505259" lon="30.510294"></trkpt>
      <trkpt lat="50.497491" lon="30.517389"></trkpt>
      <trkpt lat="50.496921" lon="30.517845"></trkpt>
      <trkpt lat="50.496663" lon="30.51785"></trkpt>
      <trkpt lat="50.496169" lon="30.517608"></trkpt>
      <trkpt lat="50.495975" lon="30.517722"></trkpt>
      <trkpt lat="50.495761" lon="30.51872"></trkpt>
      <trkpt lat="50.495428" lon="30.519311"></trkpt>
      <trkpt lat="50.487972" lon="30.526519"></trkpt>
      <trkpt lat="50.486412" lon="30.528253"></trkpt>
      <trkpt lat="50.485936" lon="30.52916"></trkpt>
      <trkpt lat="50.485639" lon="30.530475"></trkpt>
      <trkpt lat="50.485631" lon="30.53163"></trkpt>
      <trkpt lat="50.485907" lon="30.533484"></trkpt>
      <trkpt lat="50.485789" lon="30.534776"></trkpt>
      <trkpt lat="50.485309" lon="30.536072"></trkpt>
      <trkpt lat="50.484673" lon="30.53695"></trkpt>
      <trkpt lat="50.484009" lon="30.53764"></trkpt>
      <trkpt lat="50.48353" lon="30.537839"></trkpt>
      <trkpt lat="50.482787" lon="30.537929"></trkpt>
      <trkpt lat="50.481814" lon="30.537918"></trkpt>
      <trkpt lat="50.480316" lon="30.537606"></trkpt>
      <trkpt lat="50.478747" lon="30.536872"></trkpt>
      <trkpt lat="50.475989" lon="30.535038"></trkpt>
      <trkpt lat="50.474809" lon="30.533982"></trkpt>
      <trkpt lat="50.472877" lon="30.531779"></trkpt>
      <trkpt lat="50.467344" lon="30.524697"></trkpt>
      <trkpt lat="50.467131" lon="30.524622"></trkpt>
      <trkpt lat="50.45962" lon="30.526162"></trkpt>
      <trkpt lat="50.458943" lon="30.526397"></trkpt>
      <trkpt lat="50.458351" lon="30.526957"></trkpt>
      <trkpt lat="50.45588" lon="30.531353"></trkpt>
      <trkpt lat="50.451656" lon="30.541915"></trkpt>
      <trkpt lat="50.446745" lon="30.551909"></trkpt>
      <trkpt lat="50.445763" lon="30.553529"></trkpt>
      <trkpt lat="50.44368" lon="30.556395"></trkpt>
      <trkpt lat="50.44185" lon="30.558546"></trkpt>
      <trkpt lat="50.436969" lon="30.563192"></trkpt>
      <trkpt lat="50.435754" lon="30.564095"></trkpt>
      <trkpt lat="50.432404" lon="30.56568"></trkpt>
      <trkpt lat="50.426025" lon="30.568066"></trkpt>
      <trkpt lat="50.424898" lon="30.568392"></trkpt>
      <trkpt lat="50.421732" lon="30.568843"></trkpt>
      <trkpt lat="50.419217" lon="30.569641"></trkpt>
      <trkpt lat="50.417815" lon="30.569937"></trkpt>
      <trkpt lat="50.416388" lon="30.570061"></trkpt>
      <trkpt lat="50.413961" lon="30.56993"></trkpt>
      <trkpt lat="50.412409" lon="30.569603"></trkpt>
      <trkpt lat="50.410562" lon="30.568926"></trkpt>
      <trkpt lat="50.408676" lon="30.567905"></trkpt>
      <trkpt lat="50.404764" lon="30.565366"></trkpt>
      <trkpt lat="50.402899" lon="30.563672"></trkpt>
      <trkpt lat="50.399639" lon="30.560025"></trkpt>
      <trkpt lat="50.398583" lon="30.559101"></trkpt>
      <trkpt lat="50.397731" lon="30.558562"></trkpt>
      <trkpt lat="50.386385" lon="30.553844"></trkpt>
      <trkpt lat="50.378477" lon="30.550939"></trkpt>
      <trkpt lat="50.375384" lon="30.550111"></trkpt>
      <trkpt lat="50.372506" lon="30.549654"></trkpt>
      <trkpt lat="50.363318" lon="30.549267"></trkpt>
      <trkpt lat="50.360265" lon="30.549429"></trkpt>
      <trkpt lat="50.358435" lon="30.549664"></trkpt>
      <trkpt lat="50.349374" lon="30.551822"></trkpt>
      <trkpt lat="50.347979" lon="30.551998"></trkpt>
      <trkpt lat="50.347155" lon="30.551891"></trkpt>
      <trkpt lat="50.346197" lon="30.551519"></trkpt>
      <trkpt lat="50.345148" lon="30.550718"></trkpt>
      <trkpt lat="50.344295" lon="30.549662"></trkpt>
      <trkpt lat="50.343085" lon="30.547338"></trkpt>
      <trkpt lat="50.342036" lon="30.545681"></trkpt>
      <trkpt lat="50.338895" lon="30.54197"></trkpt>
      <trkpt lat="50.337531" lon="30.540904"></trkpt>
      <trkpt lat="50.336496" lon="30.540523"></trkpt>
      <trkpt lat="50.335313" lon="30.540388"></trkpt>
      <trkpt lat="50.333697" lon="30.540027"></trkpt>
      <trkpt lat="50.33258" lon="30.5395"></trkpt>
      <trkpt lat="50.33055" lon="30.538228"></trkpt>
      <trkpt lat="50.329338" lon="30.537725"></trkpt>
      <trkpt lat="50.328023" lon="30.537503"></trkpt>
      <trkpt lat="50.324717" lon="30.537348"></trkpt>
      <trkpt lat="50.323278" lon="30.537117"></trkpt>
      <trkpt lat="50.30709" lon="30.53374"></trkpt>
      <trkpt lat="50.305097" lon="30.533576"></trkpt>
      <trkpt lat="50.297237" lon="30.533519"></trkpt>
      <trkpt lat="50.280007" lon="30.533587"></trkpt>
      <trkpt lat="50.277481" lon="30.53375"></trkpt>
      <trkpt lat="50.275177" lon="30.534214"></trkpt>
      <trkpt lat="50.272435" lon="30.535173"></trkpt>
      <trkpt lat="50.26927" lon="30.536925"></trkpt>
      <trkpt lat="50.26704" lon="30.538622"></trkpt>
      <trkpt lat="50.265564" lon="30.539964"></trkpt>
      <trkpt lat="50.263429" lon="30.542239"></trkpt>
      <trkpt lat="50.261667" lon="30.544358"></trkpt>
      <trkpt lat="50.260857" lon="30.544913"></trkpt>
      <trkpt lat="50.260229" lon="30.544882"></trkpt>
      <trkpt lat="50.259547" lon="30.544268"></trkpt>
      <trkpt lat="50.259039" lon="30.543145"></trkpt>
      <trkpt lat="50.258263" lon="30.541084"></trkpt>
      <trkpt lat="50.258088" lon="30.539957"></trkpt>
      <trkpt lat="50.257694" lon="30.532611"></trkpt>
      <trkpt lat="50.257903" lon="30.531678"></trkpt>
      <trkpt lat="50.258231" lon="30.531058"></trkpt>
      <trkpt lat="50.258747" lon="30.530463"></trkpt>
      <trkpt lat="50.259187" lon="30.52957"></trkpt>
      <trkpt lat="50.259427" lon="30.526783"></trkpt>
      <trkpt lat="50.259211" lon="30.52588"></trkpt>
      <trkpt lat="50.257574" lon="30.523414"></trkpt>
      <trkpt lat="50.257138" lon="30.522342"></trkpt>
      <trkpt lat="50.256985" lon="30.521487"></trkpt>
      <trkpt lat="50.256817" lon="30.517883"></trkpt>
      <trkpt lat="50.257026" lon="30.516849"></trkpt>
      <trkpt lat="50.257755" lon="30.514768"></trkpt>
      <trkpt lat="50.257907" lon="30.51343"></trkpt>
      <trkpt lat="50.257648" lon="30.512261"></trkpt>
      <trkpt lat="50.256955" lon="30.510817"></trkpt>
      <trkpt lat="50.256595" lon="30.510535"></trkpt>
      <trkpt lat="50.256152" lon="30.510392"></trkpt>
      <trkpt lat="50.255576" lon="30.510488"></trkpt>
      <trkpt lat="50.250185" lon="30.51217"></trkpt>
      <trkpt lat="50.248669" lon="30.512476"></trkpt>
      <trkpt lat="50.247083" lon="30.513032"></trkpt>
      <trkpt lat="50.243087" lon="30.515438"></trkpt>
      <trkpt lat="50.241815" lon="30.51634"></trkpt>
      <trkpt lat="50.241042" lon="30.516648"></trkpt>
      <trkpt lat="50.240028" lon="30.516652"></trkpt>
      <trkpt lat="50.238463" lon="30.516983"></trkpt>
      <trkpt lat="50.237392" lon="30.517058"></trkpt>
      <trkpt lat="50.236885" lon="30.516925"></trkpt>
      <trkpt lat="50.235533" lon="30.51621"></trkpt>
      <trkpt lat="50.231633" lon="30.515057"></trkpt>
      <trkpt lat="50.229992" lon="30.515178"></trkpt>
      <trkpt lat="50.229348" lon="30.515382"></trkpt>
      <trkpt lat="50.228479" lon="30.515984"></trkpt>
      <trkpt lat="50.227882" lon="30.516518"></trkpt>
      <trkpt lat="50.22708" lon="30.517502"></trkpt>
      <trkpt lat="50.225746" lon="30.519643"></trkpt>
      <trkpt lat="50.225348" lon="30.52068"></trkpt>
      <trkpt lat="50.225164" lon="30.521467"></trkpt>
      <trkpt lat="50.224813" lon="30.526334"></trkpt>
      <trkpt lat="50.223923" lon="30.535619"></trkpt>
      <trkpt lat="50.223659" lon="30.536389"></trkpt>
      <trkpt lat="50.223296" lon="30.536924"></trkpt>
      <trkpt lat="50.213899" lon="30.547437"></trkpt>
      <trkpt lat="50.21375" lon="30.547868"></trkpt>
      <trkpt lat="50.21381" lon="30.549151"></trkpt>
      <trkpt lat="50.213697" lon="30.549668"></trkpt>
      <trkpt lat="50.21338" lon="30.550165"></trkpt>
      <trkpt lat="50.212977" lon="30.550298"></trkpt>
      <trkpt lat="50.211883" lon="30.550138"></trkpt>
      <trkpt lat="50.210989" lon="30.550502"></trkpt>
      <trkpt lat="50.209795" lon="30.55149"></trkpt>
      <trkpt lat="50.20904" lon="30.551399"></trkpt>
      <trkpt lat="50.208999" lon="30.550255"></trkpt>
      <trkpt lat="50.209725" lon="30.548975"></trkpt>
      <trkpt lat="50.209772" lon="30.548229"></trkpt>
      <trkpt lat="50.209088" lon="30.546639"></trkpt>
      <trkpt lat="50.209263" lon="30.545049"></trkpt>
      <trkpt lat="50.208834" lon="30.544594"></trkpt>
      <trkpt lat="50.20811" lon="30.54417"></trkpt>
      <trkpt lat="50.207872" lon="30.544311"></trkpt>
      <trkpt lat="50.207127" lon="30.545432"></trkpt>
      <trkpt lat="50.207208" lon="30.546844"></trkpt>
      <trkpt lat="50.207018" lon="30.547263"></trkpt>
      <trkpt lat="50.206815" lon="30.547198"></trkpt>
  </trkseg></trk>
</gpx>
