<?xml version="1.0" encoding="UTF-8"?>
<gpx version="1.1" creator="yatutbuv" xmlns="http://www.topografix.com/GPX/1/1">
  <trk><name>GraphHopper Track</name><trkseg>
      <trkpt lat="50.456029" lon="30.36087"></trkpt>
      <trkpt lat="50.455992" lon="30.361002"></trkpt>
      <trkpt lat="50.455721" lon="30.361047"></trkpt>
      <trkpt lat="50.452691" lon="30.314656"></trkpt>
      <trkpt lat="50.447171" lon="30.237245"></trkpt>
      <trkpt lat="50.445013" lon="30.207513"></trkpt>
      <trkpt lat="50.442926" lon="30.18275"></trkpt>
      <trkpt lat="50.452464" lon="30.181285"></trkpt>
      <trkpt lat="50.455944" lon="30.18183"></trkpt>
      <trkpt lat="50.45939" lon="30.182637"></trkpt>
      <trkpt lat="50.460707" lon="30.182666"></trkpt>
      <trkpt lat="50.463864" lon="30.182167"></trkpt>
      <trkpt lat="50.466036" lon="30.182408"></trkpt>
      <trkpt lat="50.467038" lon="30.182335"></trkpt>
      <trkpt lat="50.469078" lon="30.181736"></trkpt>
      <trkpt lat="50.478795" lon="30.177397"></trkpt>
      <trkpt lat="50.482082" lon="30.176079"></trkpt>
      <trkpt lat="50.491509" lon="30.174518"></trkpt>
      <trkpt lat="50.493108" lon="30.174126"></trkpt>
      <trkpt lat="50.496188" lon="30.172462"></trkpt>
      <trkpt lat="50.498513" lon="30.17095"></trkpt>
      <trkpt lat="50.499959" lon="30.169022"></trkpt>
      <trkpt lat="50.500217" lon="30.169864"></trkpt>
      <trkpt lat="50.500176" lon="30.172163"></trkpt>
      <trkpt lat="50.50115" lon="30.17565"></trkpt>
      <trkpt lat="50.501391" lon="30.176965"></trkpt>
      <trkpt lat="50.501822" lon="30.181345"></trkpt>
      <trkpt lat="50.501766" lon="30.185156"></trkpt>
      <trkpt lat="50.502092" lon="30.186972"></trkpt>
      <trkpt lat="50.502661" lon="30.187989"></trkpt>
      <trkpt lat="50.504488" lon="30.189187"></trkpt>
      <trkpt lat="50.506652" lon="30.19134"></trkpt>
      <trkpt lat="50.507089" lon="30.191364"></trkpt>
      <trkpt lat="50.509746" lon="30.190092"></trkpt>
      <trkpt lat="50.510085" lon="30.190073"></trkpt>
      <trkpt lat="50.514109" lon="30.192631"></trkpt>
      <trkpt lat="50.51537" lon="30.194024"></trkpt>
      <trkpt lat="50.517206" lon="30.191127"></trkpt>
      <trkpt lat="50.518418" lon="30.189763"></trkpt>
      <trkpt lat="50.519597" lon="30.18911"></trkpt>
      <trkpt lat="50.525334" lon="30.186533"></trkpt>
      <trkpt lat="50.534708" lon="30.182018"></trkpt>
      <trkpt lat="50.536157" lon="30.181493"></trkpt>
      <trkpt lat="50.537076" lon="30.181476"></trkpt>
      <trkpt lat="50.538025" lon="30.181718"></trkpt>
      <trkpt lat="50.54287" lon="30.184572"></trkpt>
      <trkpt lat="50.543441" lon="30.184741"></trkpt>
      <trkpt lat="50.543569" lon="30.183104"></trkpt>
      <trkpt lat="50.543942" lon="30.181593"></trkpt>
      <trkpt lat="50.558899" lon="30.133579"></trkpt>
      <trkpt lat="50.569665" lon="30.095044"></trkpt>
      <trkpt lat="50.57592" lon="30.078938"></trkpt>
      <trkpt lat="50.583543" lon="30.06133"></trkpt>
      <trkpt lat="50.584618" lon="30.05843"></trkpt>
      <trkpt lat="50.585735" lon="30.054018"></trkpt>
      <trkpt lat="50.590062" lon="30.031927"></trkpt>
      <trkpt lat="50.591018" lon="30.028495"></trkpt>
      <trkpt lat="50.592006" lon="30.025723"></trkpt>
      <trkpt lat="50.592755" lon="30.024027"></trkpt>
      <trkpt lat="50.61604" lon="29.981148"></trkpt>
      <trkpt lat="50.617072" lon="29.978612"></trkpt>
      <trkpt lat="50.617631" lon="29.97691"></trkpt>
      <trkpt lat="50.624648" lon="29.950994"></trkpt>
      <trkpt lat="50.626496" lon="29.945708"></trkpt>
      <trkpt lat="50.63475" lon="29.928303"></trkpt>
      <trkpt lat="50.635964" lon="29.925848"></trkpt>
      <trkpt lat="50.637043" lon="29.923992"></trkpt>
      <trkpt lat="50.639176" lon="29.919651"></trkpt>
      <trkpt lat="50.639821" lon="29.91846"></trkpt>
      <trkpt lat="50.640289" lon="29.918148"></trkpt>
      <trkpt lat="50.640653" lon="29.917184"></trkpt>
      <trkpt lat="50.644718" lon="29.911668"></trkpt>
      <trkpt lat="50.646551" lon="29.908327"></trkpt>
      <trkpt lat="50.656596" lon="29.886482"></trkpt>
      <trkpt lat="50.657374" lon="29.884591"></trkpt>
      <trkpt lat="50.658541" lon="29.880668"></trkpt>
      <trkpt lat="50.662971" lon="29.860497"></trkpt>
      <trkpt lat="50.663707" lon="29.855181"></trkpt>
      <trkpt lat="50.665268" lon="29.847082"></trkpt>
      <trkpt lat="50.665772" lon="29.842262"></trkpt>
      <trkpt lat="50.666253" lon="29.833259"></trkpt>
      <trkpt lat="50.666664" lon="29.829236"></trkpt>
      <trkpt lat="50.670587" lon="29.805221"></trkpt>
      <trkpt lat="50.671363" lon="29.801547"></trkpt>
      <trkpt lat="50.672511" lon="29.797917"></trkpt>
      <trkpt lat="50.673467" lon="29.795688"></trkpt>
      <trkpt lat="50.679559" lon="29.784041"></trkpt>
      <trkpt lat="50.69438" lon="29.748304"></trkpt>
      <trkpt lat="50.708501" lon="29.713736"></trkpt>
      <trkpt lat="50.709206" lon="29.711371"></trkpt>
      <trkpt lat="50.72625" lon="29.640533"></trkpt>
      <trkpt lat="50.732743" lon="29.614157"></trkpt>
      <trkpt lat="50.733686" lon="29.608822"></trkpt>
      <trkpt lat="50.733925" lon="29.605554"></trkpt>
      <trkpt lat="50.734503" lon="29.566445"></trkpt>
      <trkpt lat="50.734732" lon="29.560902"></trkpt>
      <trkpt lat="50.745454" lon="29.476009"></trkpt>
      <trkpt lat="50.747959" lon="29.457425"></trkpt>
      <trkpt lat="50.753458" lon="29.418949"></trkpt>
      <trkpt lat="50.753973" lon="29.417185"></trkpt>
      <trkpt lat="50.754434" lon="29.416077"></trkpt>
      <trkpt lat="50.755329" lon="29.414333"></trkpt>
      <trkpt lat="50.756584" lon="29.41256"></trkpt>
      <trkpt lat="50.7577" lon="29.411433"></trkpt>
      <trkpt lat="50.761682" lon="29.408614"></trkpt>
      <trkpt lat="50.762933" lon="29.407483"></trkpt>
      <trkpt lat="50.764467" lon="29.405767"></trkpt>
      <trkpt lat="50.765942" lon="29.40373"></trkpt>
      <trkpt lat="50.766661" lon="29.402552"></trkpt>
      <trkpt lat="50.768182" lon="29.39947"></trkpt>
      <trkpt lat="50.790798" lon="29.344295"></trkpt>
      <trkpt lat="50.836657" lon="29.234765"></trkpt>
      <trkpt lat="50.83843" lon="29.23018"></trkpt>
      <trkpt lat="50.83959" lon="29.22582"></trkpt>
      <trkpt lat="50.844916" lon="29.20337"></trkpt>
      <trkpt lat="50.845424" lon="29.200879"></trkpt>
      <trkpt lat="50.84624" lon="29.194642"></trkpt>
      <trkpt lat="50.850525" lon="29.156857"></trkpt>
      <trkpt lat="50.850854" lon="29.154423"></trkpt>
      <trkpt lat="50.851867" lon="29.149502"></trkpt>
      <trkpt lat="50.881976" lon="29.043642"></trkpt>
      <trkpt lat="50.882761" lon="29.040253"></trkpt>
      <trkpt lat="50.903609" lon="28.901253"></trkpt>
      <trkpt lat="50.90463" lon="28.895697"></trkpt>
      <trkpt lat="50.905885" lon="28.891755"></trkpt>
      <trkpt lat="50.922791" lon="28.846997"></trkpt>
      <trkpt lat="50.948073" lon="28.792395"></trkpt>
      <trkpt lat="50.969114" lon="28.737438"></trkpt>
      <trkpt lat="50.969949" lon="28.73496"></trkpt>
      <trkpt lat="50.970892" lon="28.730979"></trkpt>
      <trkpt lat="50.974931" lon="28.709467"></trkpt>
      <trkpt lat="50.977339" lon="28.69734"></trkpt>
      <trkpt lat="50.985431" lon="28.668627"></trkpt>
      <trkpt lat="50.987568" lon="28.662367"></trkpt>
      <trkpt lat="51.001677" lon="28.623831"></trkpt>
      <trkpt lat="51.002966" lon="28.619074"></trkpt>
      <trkpt lat="51.003616" lon="28.615131"></trkpt>
      <trkpt lat="51.006116" lon="28.597565"></trkpt>
      <trkpt lat="51.006254" lon="28.594253"></trkpt>
      <trkpt lat="51.006168" lon="28.590982"></trkpt>
      <trkpt lat="51.00348" lon="28.543707"></trkpt>
      <trkpt lat="51.003677" lon="28.541128"></trkpt>
      <trkpt lat="51.004256" lon="28.538833"></trkpt>
      <trkpt lat="51.009509" lon="28.522655"></trkpt>
      <trkpt lat="51.013803" lon="28.508919"></trkpt>
      <trkpt lat="51.035911" lon="28.440518"></trkpt>
      <trkpt lat="51.046842" lon="28.407101"></trkpt>
      <trkpt lat="51.057255" lon="28.374552"></trkpt>
      <trkpt lat="51.058656" lon="28.368459"></trkpt>
      <trkpt lat="51.07691" lon="28.275224"></trkpt>
      <trkpt lat="51.07803" lon="28.270795"></trkpt>
      <trkpt lat="51.089457" lon="28.230707"></trkpt>
      <trkpt lat="51.09574" lon="28.197433"></trkpt>
      <trkpt lat="51.099037" lon="28.179386"></trkpt>
      <trkpt lat="51.110346" lon="28.120221"></trkpt>
      <trkpt lat="51.110665" lon="28.117433"></trkpt>
      <trkpt lat="51.110679" lon="28.115239"></trkpt>
      <trkpt lat="51.110554" lon="28.113602"></trkpt>
      <trkpt lat="51.109905" lon="28.110373"></trkpt>
      <trkpt lat="51.109051" lon="28.107969"></trkpt>
      <trkpt lat="51.107789" lon="28.105544"></trkpt>
      <trkpt lat="51.085901" lon="28.068877"></trkpt>
      <trkpt lat="51.084611" lon="28.066283"></trkpt>
      <trkpt lat="51.083623" lon="28.063827"></trkpt>
      <trkpt lat="51.082818" lon="28.061176"></trkpt>
      <trkpt lat="51.082007" lon="28.057492"></trkpt>
      <trkpt lat="51.081541" lon="28.053846"></trkpt>
      <trkpt lat="51.081408" lon="28.051525"></trkpt>
      <trkpt lat="51.081139" lon="28.022285"></trkpt>
      <trkpt lat="51.081408" lon="28.016856"></trkpt>
      <trkpt lat="51.08465" lon="27.971815"></trkpt>
      <trkpt lat="51.085194" lon="27.967982"></trkpt>
      <trkpt lat="51.085952" lon="27.964211"></trkpt>
      <trkpt lat="51.10149" lon="27.89515"></trkpt>
      <trkpt lat="51.104619" lon="27.881885"></trkpt>
      <trkpt lat="51.105765" lon="27.877558"></trkpt>
      <trkpt lat="51.148052" lon="27.737242"></trkpt>
      <trkpt lat="51.157623" lon="27.70615"></trkpt>
      <trkpt lat="51.16617" lon="27.677672"></trkpt>
      <trkpt lat="51.16745" lon="27.672667"></trkpt>
      <trkpt lat="51.168061" lon="27.669432"></trkpt>
      <trkpt lat="51.168518" lon="27.665763"></trkpt>
      <trkpt lat="51.168817" lon="27.66075"></trkpt>
      <trkpt lat="51.16857" lon="27.588648"></trkpt>
      <trkpt lat="51.168732" lon="27.583386"></trkpt>
      <trkpt lat="51.169036" lon="27.578748"></trkpt>
      <trkpt lat="51.192333" lon="27.397583"></trkpt>
      <trkpt lat="51.192401" lon="27.395188"></trkpt>
      <trkpt lat="51.19225" lon="27.392783"></trkpt>
      <trkpt lat="51.1895" lon="27.36815"></trkpt>
      <trkpt lat="51.188133" lon="27.354933"></trkpt>
      <trkpt lat="51.188146" lon="27.352155"></trkpt>
      <trkpt lat="51.188483" lon="27.349433"></trkpt>
      <trkpt lat="51.189005" lon="27.346988"></trkpt>
      <trkpt lat="51.189748" lon="27.344329"></trkpt>
      <trkpt lat="51.244714" lon="27.154929"></trkpt>
      <trkpt lat="51.25049" lon="27.13468"></trkpt>
      <trkpt lat="51.266364" lon="27.057177"></trkpt>
      <trkpt lat="51.267383" lon="27.053047"></trkpt>
      <trkpt lat="51.269501" lon="27.046493"></trkpt>
      <trkpt lat="51.281375" lon="27.013349"></trkpt>
      <trkpt lat="51.282971" lon="27.007778"></trkpt>
      <trkpt lat="51.283689" lon="27.004771"></trkpt>
      <trkpt lat="51.28425" lon="27.001328"></trkpt>
      <trkpt lat="51.284485" lon="26.998805"></trkpt>
      <trkpt lat="51.284634" lon="26.99522"></trkpt>
      <trkpt lat="51.284583" lon="26.990834"></trkpt>
      <trkpt lat="51.281922" lon="26.943012"></trkpt>
      <trkpt lat="51.279961" lon="26.902587"></trkpt>
      <trkpt lat="51.278293" lon="26.871796"></trkpt>
      <trkpt lat="51.27815" lon="26.866249"></trkpt>
      <trkpt lat="51.278194" lon="26.862601"></trkpt>
      <trkpt lat="51.278681" lon="26.8562"></trkpt>
      <trkpt lat="51.279916" lon="26.849696"></trkpt>
      <trkpt lat="51.281969" lon="26.842295"></trkpt>
      <trkpt lat="51.295" lon="26.8002"></trkpt>
      <trkpt lat="51.297287" lon="26.793223"></trkpt>
      <trkpt lat="51.298534" lon="26.789948"></trkpt>
      <trkpt lat="51.318647" lon="26.746172"></trkpt>
      <trkpt lat="51.31971" lon="26.742474"></trkpt>
      <trkpt lat="51.320178" lon="26.738921"></trkpt>
      <trkpt lat="51.320266" lon="26.735298"></trkpt>
      <trkpt lat="51.320054" lon="26.729941"></trkpt>
      <trkpt lat="51.317541" lon="26.674111"></trkpt>
      <trkpt lat="51.31909" lon="26.63403"></trkpt>
      <trkpt lat="51.319049" lon="26.631082"></trkpt>
      <trkpt lat="51.318507" lon="26.628196"></trkpt>
      <trkpt lat="51.317196" lon="26.623474"></trkpt>
      <trkpt lat="51.317235" lon="26.62224"></trkpt>
      <trkpt lat="51.316657" lon="26.621604"></trkpt>
      <trkpt lat="51.314414" lon="26.614054"></trkpt>
      <trkpt lat="51.313617" lon="26.611717"></trkpt>
      <trkpt lat="51.312854" lon="26.61018"></trkpt>
      <trkpt lat="51.310422" lon="26.60596"></trkpt>
      <trkpt lat="51.309243" lon="26.603542"></trkpt>
      <trkpt lat="51.308599" lon="26.601423"></trkpt>
      <trkpt lat="51.307617" lon="26.59695"></trkpt>
      <trkpt lat="51.2991" lon="26.550449"></trkpt>
      <trkpt lat="51.298834" lon="26.548112"></trkpt>
      <trkpt lat="51.299223" lon="26.542763"></trkpt>
      <trkpt lat="51.29909" lon="26.541199"></trkpt>
      <trkpt lat="51.298674" lon="26.538633"></trkpt>
      <trkpt lat="51.298078" lon="26.536354"></trkpt>
      <trkpt lat="51.294181" lon="26.52518"></trkpt>
      <trkpt lat="51.293474" lon="26.522267"></trkpt>
      <trkpt lat="51.293202" lon="26.520063"></trkpt>
      <trkpt lat="51.293151" lon="26.516581"></trkpt>
      <trkpt lat="51.29342" lon="26.512933"></trkpt>
      <trkpt lat="51.29559" lon="26.493428"></trkpt>
      <trkpt lat="51.295605" lon="26.491882"></trkpt>
      <trkpt lat="51.295464" lon="26.489956"></trkpt>
      <trkpt lat="51.294604" lon="26.482968"></trkpt>
      <trkpt lat="51.294037" lon="26.480395"></trkpt>
      <trkpt lat="51.293643" lon="26.479126"></trkpt>
      <trkpt lat="51.293243" lon="26.47796"></trkpt>
      <trkpt lat="51.292417" lon="26.4762"></trkpt>
      <trkpt lat="51.291094" lon="26.473932"></trkpt>
      <trkpt lat="51.287584" lon="26.468942"></trkpt>
      <trkpt lat="51.286859" lon="26.467533"></trkpt>
      <trkpt lat="51.286429" lon="26.466226"></trkpt>
      <trkpt lat="51.286008" lon="26.464037"></trkpt>
      <trkpt lat="51.283583" lon="26.4459"></trkpt>
      <trkpt lat="51.2835" lon="26.4428"></trkpt>
      <trkpt lat="51.289067" lon="26.390783"></trkpt>
      <trkpt lat="51.289658" lon="26.384889"></trkpt>
      <trkpt lat="51.289739" lon="26.381528"></trkpt>
      <trkpt lat="51.289385" lon="26.378059"></trkpt>
      <trkpt lat="51.2888" lon="26.375443"></trkpt>
      <trkpt lat="51.288313" lon="26.373868"></trkpt>
      <trkpt lat="51.287386" lon="26.371207"></trkpt>
      <trkpt lat="51.277171" lon="26.345276"></trkpt>
      <trkpt lat="51.275971" lon="26.342078"></trkpt>
      <trkpt lat="51.27538" lon="26.339912"></trkpt>
      <trkpt lat="51.274963" lon="26.337551"></trkpt>
      <trkpt lat="51.274671" lon="26.335033"></trkpt>
      <trkpt lat="51.270865" lon="26.293277"></trkpt>
      <trkpt lat="51.269683" lon="26.273824"></trkpt>
      <trkpt lat="51.267796" lon="26.230629"></trkpt>
      <trkpt lat="51.267767" lon="26.226861"></trkpt>
      <trkpt lat="51.268276" lon="26.220298"></trkpt>
      <trkpt lat="51.273571" lon="26.183845"></trkpt>
      <trkpt lat="51.273876" lon="26.180515"></trkpt>
      <trkpt lat="51.27384" lon="26.177356"></trkpt>
      <trkpt lat="51.273427" lon="26.174321"></trkpt>
      <trkpt lat="51.272754" lon="26.171285"></trkpt>
      <trkpt lat="51.25791" lon="26.110029"></trkpt>
      <trkpt lat="51.257132" lon="26.105321"></trkpt>
      <trkpt lat="51.2544" lon="26.077167"></trkpt>
      <trkpt lat="51.25345" lon="26.032883"></trkpt>
      <trkpt lat="51.253283" lon="26.017517"></trkpt>
      <trkpt lat="51.254513" lon="25.998267"></trkpt>
      <trkpt lat="51.254621" lon="25.995919"></trkpt>
      <trkpt lat="51.254496" lon="25.991536"></trkpt>
      <trkpt lat="51.249845" lon="25.94846"></trkpt>
      <trkpt lat="51.249327" lon="25.941322"></trkpt>
      <trkpt lat="51.2514" lon="25.852117"></trkpt>
      <trkpt lat="51.24745" lon="25.7711"></trkpt>
      <trkpt lat="51.243384" lon="25.721419"></trkpt>
      <trkpt lat="51.24293" lon="25.715132"></trkpt>
      <trkpt lat="51.242921" lon="25.712756"></trkpt>
      <trkpt lat="51.243185" lon="25.708558"></trkpt>
      <trkpt lat="51.243399" lon="25.70711"></trkpt>
      <trkpt lat="51.259168" lon="25.610092"></trkpt>
      <trkpt lat="51.262516" lon="25.583573"></trkpt>
      <trkpt lat="51.262713" lon="25.579776"></trkpt>
      <trkpt lat="51.262371" lon="25.567966"></trkpt>
      <trkpt lat="51.259383" lon="25.487517"></trkpt>
      <trkpt lat="51.257079" lon="25.428356"></trkpt>
      <trkpt lat="51.255255" lon="25.368339"></trkpt>
      <trkpt lat="51.254959" lon="25.304562"></trkpt>
      <trkpt lat="51.253469" lon="25.277761"></trkpt>
      <trkpt lat="51.25105" lon="25.243233"></trkpt>
      <trkpt lat="51.249842" lon="25.200613"></trkpt>
      <trkpt lat="51.249033" lon="25.192679"></trkpt>
      <trkpt lat="51.244718" lon="25.163332"></trkpt>
      <trkpt lat="51.239397" lon="25.119085"></trkpt>
      <trkpt lat="51.229167" lon="25.0654"></trkpt>
      <trkpt lat="51.228322" lon="25.059626"></trkpt>
      <trkpt lat="51.2247" lon="25.028917"></trkpt>
      <trkpt lat="51.221725" lon="25.009014"></trkpt>
      <trkpt lat="51.217468" lon="24.985126"></trkpt>
      <trkpt lat="51.215102" lon="24.9646"></trkpt>
      <trkpt lat="51.200258" lon="24.865709"></trkpt>
      <trkpt lat="51.199999" lon="24.862321"></trkpt>
      <trkpt lat="51.199983" lon="24.8588"></trkpt>
      <trkpt lat="51.203067" lon="24.794083"></trkpt>
      <trkpt lat="51.203051" lon="24.791794"></trkpt>
      <trkpt lat="51.202867" lon="24.788795"></trkpt>
      <trkpt lat="51.202412" lon="24.785379"></trkpt>
      <trkpt lat="51.2017" lon="24.781983"></trkpt>
      <trkpt lat="51.20076" lon="24.779036"></trkpt>
      <trkpt lat="51.199929" lon="24.77689"></trkpt>
      <trkpt lat="51.198948" lon="24.774831"></trkpt>
      <trkpt lat="51.197749" lon="24.772782"></trkpt>
      <trkpt lat="51.190436" lon="24.762317"></trkpt>
      <trkpt lat="51.189054" lon="24.759698"></trkpt>
      <trkpt lat="51.188419" lon="24.757947"></trkpt>
      <trkpt lat="51.188036" lon="24.756508"></trkpt>
      <trkpt lat="51.185991" lon="24.744886"></trkpt>
      <trkpt lat="51.185769" lon="24.742553"></trkpt>
      <trkpt lat="51.185908" lon="24.739227"></trkpt>
      <trkpt lat="51.186303" lon="24.736889"></trkpt>
      <trkpt lat="51.18666" lon="24.735534"></trkpt>
      <trkpt lat="51.198414" lon="24.702998"></trkpt>
      <trkpt lat="51.199029" lon="24.701013"></trkpt>
      <trkpt lat="51.199341" lon="24.699513"></trkpt>
      <trkpt lat="51.201483" lon="24.675965"></trkpt>
      <trkpt lat="51.207697" lon="24.603444"></trkpt>
      <trkpt lat="51.20794" lon="24.601479"></trkpt>
      <trkpt lat="51.213427" lon="24.569002"></trkpt>
      <trkpt lat="51.213679" lon="24.566732"></trkpt>
      <trkpt lat="51.213803" lon="24.564005"></trkpt>
      <trkpt lat="51.214507" lon="24.403141"></trkpt>
      <trkpt lat="51.214941" lon="24.353423"></trkpt>
      <trkpt lat="51.209728" lon="24.188575"></trkpt>
      <trkpt lat="51.201942" lon="24.043927"></trkpt>
      <trkpt lat="51.203331" lon="24.043746"></trkpt>
      <trkpt lat="51.201942" lon="24.043927"></trkpt>
      <trkpt lat="51.201338" lon="24.032609"></trkpt>
      <trkpt lat="51.201431" lon="24.028062"></trkpt>
      <trkpt lat="51.202422" lon="24.016704"></trkpt>
      <trkpt lat="51.202531" lon="24.013973"></trkpt>
      <trkpt lat="51.201768" lon="23.979738"></trkpt>
      <trkpt lat="51.201431" lon="23.974482"></trkpt>
      <trkpt lat="51.19895" lon="23.94834"></trkpt>
      <trkpt lat="51.199199" lon="23.94542"></trkpt>
      <trkpt lat="51.199881" lon="23.942724"></trkpt>
      <trkpt lat="51.204991" lon="23.932071"></trkpt>
      <trkpt lat="51.205448" lon="23.93088"></trkpt>
      <trkpt lat="51.206046" lon="23.928411"></trkpt>
      <trkpt lat="51.206211" lon="23.925616"></trkpt>
      <trkpt lat="51.20601" lon="23.923054"></trkpt>
      <trkpt lat="51.195222" lon="23.840877"></trkpt>
      <trkpt lat="51.19407" lon="23.822717"></trkpt>
      <trkpt lat="51.19367" lon="23.82019"></trkpt>
      <trkpt lat="51.19315" lon="23.818552"></trkpt>
      <trkpt lat="51.192495" lon="23.817107"></trkpt>
      <trkpt lat="51.19151" lon="23.815524"></trkpt>
      <trkpt lat="51.188928" lon="23.812096"></trkpt>
      <trkpt lat="51.188581" lon="23.811489"></trkpt>
      <trkpt lat="51.18837" lon="23.810576"></trkpt>
      <trkpt lat="51.187814" lon="23.809859"></trkpt>
      <trkpt lat="51.187667" lon="23.809938"></trkpt>
      <trkpt lat="51.187445" lon="23.809872"></trkpt>
      <trkpt lat="51.186832" lon="23.809164"></trkpt>
      <trkpt lat="51.184102" lon="23.80661"></trkpt>
      <trkpt lat="51.182429" lon="23.803922"></trkpt>
      <trkpt lat="51.182155" lon="23.803732"></trkpt>
      <trkpt lat="51.18075" lon="23.80198"></trkpt>
      <trkpt lat="51.179174" lon="23.800465"></trkpt>
      <trkpt lat="51.178615" lon="23.799198"></trkpt>
      <trkpt lat="51.175247" lon="23.790041"></trkpt>
      <trkpt lat="51.174631" lon="23.787816"></trkpt>
      <trkpt lat="51.174494" lon="23.786521"></trkpt>
      <trkpt lat="51.174496" lon="23.785157"></trkpt>
      <trkpt lat="51.174762" lon="23.778079"></trkpt>
      <trkpt lat="51.174987" lon="23.776312"></trkpt>
      <trkpt lat="51.175511" lon="23.77425"></trkpt>
      <trkpt lat="51.179526" lon="23.761902"></trkpt>
      <trkpt lat="51.179764" lon="23.760781"></trkpt>
      <trkpt lat="51.179896" lon="23.759182"></trkpt>
      <trkpt lat="51.179684" lon="23.756768"></trkpt>
      <trkpt lat="51.176699" lon="23.738059"></trkpt>
      <trkpt lat="51.176242" lon="23.734193"></trkpt>
      <trkpt lat="51.175992" lon="23.730059"></trkpt>
      <trkpt lat="51.175514" lon="23.713296"></trkpt>
      <trkpt lat="51.1752" lon="23.710173"></trkpt>
      <trkpt lat="51.174766" lon="23.707769"></trkpt>
      <trkpt lat="51.173882" lon="23.704716"></trkpt>
      <trkpt lat="51.167164" lon="23.687694"></trkpt>
      <trkpt lat="51.16649" lon="23.685691"></trkpt>
      <trkpt lat="51.166053" lon="23.683781"></trkpt>
      <trkpt lat="51.165769" lon="23.681472"></trkpt>
      <trkpt lat="51.16573" lon="23.678994"></trkpt>
      <trkpt lat="51.166673" lon="23.661932"></trkpt>
      <trkpt lat="51.166852" lon="23.655415"></trkpt>
      <trkpt lat="51.166552" lon="23.645726"></trkpt>
      <trkpt lat="51.166233" lon="23.642521"></trkpt>
      <trkpt lat="51.165466" lon="23.639084"></trkpt>
      <trkpt lat="51.162481" lon="23.629696"></trkpt>
      <trkpt lat="51.161222" lon="23.626348"></trkpt>
      <trkpt lat="51.155071" lon="23.61157"></trkpt>
      <trkpt lat="51.154147" lon="23.608667"></trkpt>
      <trkpt lat="51.153695" lon="23.606034"></trkpt>
      <trkpt lat="51.151036" lon="23.584833"></trkpt>
      <trkpt lat="51.141455" lon="23.534635"></trkpt>
      <trkpt lat="51.141855" lon="23.514728"></trkpt>
      <trkpt lat="51.14212" lon="23.513731"></trkpt>
      <trkpt lat="51.143569" lon="23.511522"></trkpt>
      <trkpt lat="51.143863" lon="23.510551"></trkpt>
      <trkpt lat="51.143949" lon="23.509629"></trkpt>
      <trkpt lat="51.143834" lon="23.50846"></trkpt>
      <trkpt lat="51.143392" lon="23.507056"></trkpt>
      <trkpt lat="51.143123" lon="23.505672"></trkpt>
      <trkpt lat="51.142952" lon="23.503006"></trkpt>
      <trkpt lat="51.143096" lon="23.50238"></trkpt>
      <trkpt lat="51.1429" lon="23.501784"></trkpt>
      <trkpt lat="51.142283" lon="23.489939"></trkpt>
      <trkpt lat="51.142296" lon="23.485496"></trkpt>
      <trkpt lat="51.142467" lon="23.484601"></trkpt>
      <trkpt lat="51.142912" lon="23.48388"></trkpt>
      <trkpt lat="51.142863" lon="23.483692"></trkpt>
      <trkpt lat="51.142681" lon="23.483628"></trkpt>
      <trkpt lat="51.142489" lon="23.483328"></trkpt>
      <trkpt lat="51.142345" lon="23.48288"></trkpt>
      <trkpt lat="51.142435" lon="23.478491"></trkpt>
      <trkpt lat="51.142927" lon="23.474459"></trkpt>
      <trkpt lat="51.143272" lon="23.473934"></trkpt>
      <trkpt lat="51.143136" lon="23.47278"></trkpt>
      <trkpt lat="51.143257" lon="23.472008"></trkpt>
      <trkpt lat="51.143496" lon="23.471482"></trkpt>
      <trkpt lat="51.143365" lon="23.471047"></trkpt>
      <trkpt lat="51.1434" lon="23.470158"></trkpt>
      <trkpt lat="51.146409" lon="23.438599"></trkpt>
      <trkpt lat="51.146433" lon="23.436345"></trkpt>
      <trkpt lat="51.165237" lon="23.380604"></trkpt>
      <trkpt lat="51.165589" lon="23.378998"></trkpt>
      <trkpt lat="51.165864" lon="23.375605"></trkpt>
      <trkpt lat="51.165788" lon="23.374453"></trkpt>
      <trkpt lat="51.165485" lon="23.373249"></trkpt>
      <trkpt lat="51.165541" lon="23.372336"></trkpt>
      <trkpt lat="51.165958" lon="23.371688"></trkpt>
      <trkpt lat="51.167037" lon="23.370692"></trkpt>
      <trkpt lat="51.167654" lon="23.369602"></trkpt>
      <trkpt lat="51.167336" lon="23.368291"></trkpt>
      <trkpt lat="51.166712" lon="23.366571"></trkpt>
      <trkpt lat="51.166676" lon="23.365023"></trkpt>
      <trkpt lat="51.178538" lon="23.208302"></trkpt>
      <trkpt lat="51.171156" lon="23.121136"></trkpt>
      <trkpt lat="51.163101" lon="23.028515"></trkpt>
      <trkpt lat="51.162111" lon="22.999973"></trkpt>
      <trkpt lat="51.161966" lon="22.992313"></trkpt>
      <trkpt lat="51.1617" lon="22.987855"></trkpt>
      <trkpt lat="51.160482" lon="22.952374"></trkpt>
      <trkpt lat="51.160139" lon="22.945137"></trkpt>
      <trkpt lat="51.149211" lon="22.864508"></trkpt>
      <trkpt lat="51.148902" lon="22.862835"></trkpt>
      <trkpt lat="51.14859" lon="22.861868"></trkpt>
      <trkpt lat="51.147206" lon="22.859371"></trkpt>
      <trkpt lat="51.146682" lon="22.858131"></trkpt>
      <trkpt lat="51.146345" lon="22.856943"></trkpt>
      <trkpt lat="51.146116" lon="22.85559"></trkpt>
      <trkpt lat="51.146065" lon="22.853052"></trkpt>
      <trkpt lat="51.146706" lon="22.84859"></trkpt>
      <trkpt lat="51.146807" lon="22.845806"></trkpt>
      <trkpt lat="51.146694" lon="22.844022"></trkpt>
      <trkpt lat="51.1443" lon="22.821654"></trkpt>
      <trkpt lat="51.14434" lon="22.818416"></trkpt>
      <trkpt lat="51.144695" lon="22.815931"></trkpt>
      <trkpt lat="51.145101" lon="22.814295"></trkpt>
      <trkpt lat="51.14574" lon="22.812474"></trkpt>
      <trkpt lat="51.183597" lon="22.722842"></trkpt>
      <trkpt lat="51.205199" lon="22.66347"></trkpt>
      <trkpt lat="51.206446" lon="22.660712"></trkpt>
      <trkpt lat="51.208074" lon="22.658262"></trkpt>
      <trkpt lat="51.209015" lon="22.65723"></trkpt>
      <trkpt lat="51.209938" lon="22.656425"></trkpt>
      <trkpt lat="51.211654" lon="22.65536"></trkpt>
      <trkpt lat="51.212532" lon="22.655016"></trkpt>
      <trkpt lat="51.21375" lon="22.654738"></trkpt>
      <trkpt lat="51.214838" lon="22.654681"></trkpt>
      <trkpt lat="51.21586" lon="22.654784"></trkpt>
      <trkpt lat="51.218033" lon="22.655374"></trkpt>
      <trkpt lat="51.222805" lon="22.657147"></trkpt>
      <trkpt lat="51.224214" lon="22.657786"></trkpt>
      <trkpt lat="51.226012" lon="22.658822"></trkpt>
      <trkpt lat="51.230025" lon="22.661791"></trkpt>
      <trkpt lat="51.231424" lon="22.66257"></trkpt>
      <trkpt lat="51.232554" lon="22.662984"></trkpt>
      <trkpt lat="51.23363" lon="22.663216"></trkpt>
      <trkpt lat="51.234799" lon="22.663298"></trkpt>
      <trkpt lat="51.235809" lon="22.663223"></trkpt>
      <trkpt lat="51.237636" lon="22.662746"></trkpt>
      <trkpt lat="51.239626" lon="22.661676"></trkpt>
      <trkpt lat="51.24111" lon="22.660452"></trkpt>
      <trkpt lat="51.24492" lon="22.6568"></trkpt>
      <trkpt lat="51.246541" lon="22.655603"></trkpt>
      <trkpt lat="51.248056" lon="22.654837"></trkpt>
      <trkpt lat="51.250028" lon="22.654284"></trkpt>
      <trkpt lat="51.251377" lon="22.654178"></trkpt>
      <trkpt lat="51.252805" lon="22.654298"></trkpt>
      <trkpt lat="51.266714" lon="22.657254"></trkpt>
      <trkpt lat="51.268874" lon="22.657257"></trkpt>
      <trkpt lat="51.270468" lon="22.656877"></trkpt>
      <trkpt lat="51.271357" lon="22.656517"></trkpt>
      <trkpt lat="51.272655" lon="22.655787"></trkpt>
      <trkpt lat="51.273593" lon="22.655096"></trkpt>
      <trkpt lat="51.274844" lon="22.653918"></trkpt>
      <trkpt lat="51.276503" lon="22.651808"></trkpt>
      <trkpt lat="51.277651" lon="22.649826"></trkpt>
      <trkpt lat="51.278327" lon="22.648391"></trkpt>
      <trkpt lat="51.28795" lon="22.619541"></trkpt>
      <trkpt lat="51.288922" lon="22.616979"></trkpt>
      <trkpt lat="51.2897" lon="22.615277"></trkpt>
      <trkpt lat="51.290772" lon="22.613318"></trkpt>
      <trkpt lat="51.294399" lon="22.608125"></trkpt>
      <trkpt lat="51.295615" lon="22.606075"></trkpt>
      <trkpt lat="51.296792" lon="22.60358"></trkpt>
      <trkpt lat="51.299867" lon="22.596186"></trkpt>
      <trkpt lat="51.300952" lon="22.592969"></trkpt>
      <trkpt lat="51.301979" lon="22.588849"></trkpt>
      <trkpt lat="51.302536" lon="22.585649"></trkpt>
      <trkpt lat="51.303078" lon="22.580285"></trkpt>
      <trkpt lat="51.303138" lon="22.577222"></trkpt>
      <trkpt lat="51.303057" lon="22.574595"></trkpt>
      <trkpt lat="51.302498" lon="22.569259"></trkpt>
      <trkpt lat="51.298788" lon="22.54947"></trkpt>
      <trkpt lat="51.298247" lon="22.545399"></trkpt>
      <trkpt lat="51.298073" lon="22.542137"></trkpt>
      <trkpt lat="51.297848" lon="22.532449"></trkpt>
      <trkpt lat="51.297997" lon="22.528458"></trkpt>
      <trkpt lat="51.298379" lon="22.525021"></trkpt>
      <trkpt lat="51.301027" lon="22.511921"></trkpt>
      <trkpt lat="51.301692" lon="22.506876"></trkpt>
      <trkpt lat="51.301945" lon="22.502791"></trkpt>
      <trkpt lat="51.301955" lon="22.499555"></trkpt>
      <trkpt lat="51.301738" lon="22.495684"></trkpt>
      <trkpt lat="51.301412" lon="22.492712"></trkpt>
      <trkpt lat="51.300919" lon="22.489647"></trkpt>
      <trkpt lat="51.300155" lon="22.486139"></trkpt>
      <trkpt lat="51.299121" lon="22.48262"></trkpt>
      <trkpt lat="51.297908" lon="22.479293"></trkpt>
      <trkpt lat="51.296513" lon="22.476184"></trkpt>
      <trkpt lat="51.288932" lon="22.461192"></trkpt>
      <trkpt lat="51.288268" lon="22.459515"></trkpt>
      <trkpt lat="51.286713" lon="22.456237"></trkpt>
      <trkpt lat="51.286484" lon="22.455406"></trkpt>
      <trkpt lat="51.286387" lon="22.454452"></trkpt>
      <trkpt lat="51.286143" lon="22.449099"></trkpt>
      <trkpt lat="51.286229" lon="22.447991"></trkpt>
      <trkpt lat="51.286514" lon="22.446875"></trkpt>
      <trkpt lat="51.29028" lon="22.436127"></trkpt>
      <trkpt lat="51.291385" lon="22.43208"></trkpt>
      <trkpt lat="51.291897" lon="22.42929"></trkpt>
      <trkpt lat="51.292212" lon="22.4266"></trkpt>
      <trkpt lat="51.292557" lon="22.419357"></trkpt>
      <trkpt lat="51.292801" lon="22.416931"></trkpt>
      <trkpt lat="51.293246" lon="22.41444"></trkpt>
      <trkpt lat="51.293916" lon="22.411925"></trkpt>
      <trkpt lat="51.294851" lon="22.409404"></trkpt>
      <trkpt lat="51.295852" lon="22.407363"></trkpt>
      <trkpt lat="51.296887" lon="22.40569"></trkpt>
      <trkpt lat="51.298237" lon="22.403976"></trkpt>
      <trkpt lat="51.312348" lon="22.389449"></trkpt>
      <trkpt lat="51.313955" lon="22.388008"></trkpt>
      <trkpt lat="51.31526" lon="22.387118"></trkpt>
      <trkpt lat="51.316656" lon="22.386437"></trkpt>
      <trkpt lat="51.318148" lon="22.385989"></trkpt>
      <trkpt lat="51.319499" lon="22.385819"></trkpt>
      <trkpt lat="51.320744" lon="22.385858"></trkpt>
      <trkpt lat="51.322261" lon="22.386122"></trkpt>
      <trkpt lat="51.332628" lon="22.388867"></trkpt>
      <trkpt lat="51.33393" lon="22.389025"></trkpt>
      <trkpt lat="51.335008" lon="22.388934"></trkpt>
      <trkpt lat="51.336013" lon="22.388659"></trkpt>
      <trkpt lat="51.337105" lon="22.388143"></trkpt>
      <trkpt lat="51.338165" lon="22.387397"></trkpt>
      <trkpt lat="51.339487" lon="22.386056"></trkpt>
      <trkpt lat="51.340585" lon="22.384477"></trkpt>
      <trkpt lat="51.341433" lon="22.382821"></trkpt>
      <trkpt lat="51.34517" lon="22.374413"></trkpt>
      <trkpt lat="51.346451" lon="22.372128"></trkpt>
      <trkpt lat="51.347912" lon="22.370033"></trkpt>
      <trkpt lat="51.349319" lon="22.368398"></trkpt>
      <trkpt lat="51.350993" lon="22.366847"></trkpt>
      <trkpt lat="51.360075" lon="22.360221"></trkpt>
      <trkpt lat="51.361587" lon="22.358965"></trkpt>
      <trkpt lat="51.363341" lon="22.357277"></trkpt>
      <trkpt lat="51.365125" lon="22.355262"></trkpt>
      <trkpt lat="51.367182" lon="22.352502"></trkpt>
      <trkpt lat="51.368837" lon="22.349865"></trkpt>
      <trkpt lat="51.370202" lon="22.347332"></trkpt>
      <trkpt lat="51.371724" lon="22.344005"></trkpt>
      <trkpt lat="51.373125" lon="22.340279"></trkpt>
      <trkpt lat="51.374361" lon="22.336136"></trkpt>
      <trkpt lat="51.37527" lon="22.332172"></trkpt>
      <trkpt lat="51.376199" lon="22.326065"></trkpt>
      <trkpt lat="51.377337" lon="22.309"></trkpt>
      <trkpt lat="51.377809" lon="22.304725"></trkpt>
      <trkpt lat="51.378525" lon="22.300012"></trkpt>
      <trkpt lat="51.392307" lon="22.235001"></trkpt>
      <trkpt lat="51.393391" lon="22.230416"></trkpt>
      <trkpt lat="51.394256" lon="22.227309"></trkpt>
      <trkpt lat="51.395271" lon="22.224097"></trkpt>
      <trkpt lat="51.396821" lon="22.219839"></trkpt>
      <trkpt lat="51.398012" lon="22.216968"></trkpt>
      <trkpt lat="51.399819" lon="22.213113"></trkpt>
      <trkpt lat="51.422651" lon="22.170585"></trkpt>
      <trkpt lat="51.424282" lon="22.167289"></trkpt>
      <trkpt lat="51.425678" lon="22.164097"></trkpt>
      <trkpt lat="51.428127" lon="22.157421"></trkpt>
      <trkpt lat="51.429821" lon="22.151539"></trkpt>
      <trkpt lat="51.430844" lon="22.147112"></trkpt>
      <trkpt lat="51.434507" lon="22.128715"></trkpt>
      <trkpt lat="51.435345" lon="22.125435"></trkpt>
      <trkpt lat="51.436417" lon="22.122295"></trkpt>
      <trkpt lat="51.437529" lon="22.119743"></trkpt>
      <trkpt lat="51.438885" lon="22.117222"></trkpt>
      <trkpt lat="51.440577" lon="22.114715"></trkpt>
      <trkpt lat="51.442659" lon="22.112309"></trkpt>
      <trkpt lat="51.444815" lon="22.110413"></trkpt>
      <trkpt lat="51.451386" lon="22.105454"></trkpt>
      <trkpt lat="51.456056" lon="22.102297"></trkpt>
      <trkpt lat="51.461153" lon="22.098065"></trkpt>
      <trkpt lat="51.470125" lon="22.091275"></trkpt>
      <trkpt lat="51.477574" lon="22.085675"></trkpt>
      <trkpt lat="51.482977" lon="22.08193"></trkpt>
      <trkpt lat="51.488428" lon="22.077365"></trkpt>
      <trkpt lat="51.498078" lon="22.070079"></trkpt>
      <trkpt lat="51.503568" lon="22.06611"></trkpt>
      <trkpt lat="51.524868" lon="22.050062"></trkpt>
      <trkpt lat="51.527575" lon="22.048239"></trkpt>
      <trkpt lat="51.530973" lon="22.04572"></trkpt>
      <trkpt lat="51.533303" lon="22.043959"></trkpt>
      <trkpt lat="51.538206" lon="22.039964"></trkpt>
      <trkpt lat="51.539767" lon="22.03844"></trkpt>
      <trkpt lat="51.541455" lon="22.036571"></trkpt>
      <trkpt lat="51.586495" lon="21.986046"></trkpt>
      <trkpt lat="51.588014" lon="21.98441"></trkpt>
      <trkpt lat="51.589858" lon="21.982753"></trkpt>
      <trkpt lat="51.591974" lon="21.981242"></trkpt>
      <trkpt lat="51.597241" lon="21.978456"></trkpt>
      <trkpt lat="51.599054" lon="21.97729"></trkpt>
      <trkpt lat="51.601003" lon="21.975609"></trkpt>
      <trkpt lat="51.604662" lon="21.97156"></trkpt>
      <trkpt lat="51.605472" lon="21.970801"></trkpt>
      <trkpt lat="51.607519" lon="21.969194"></trkpt>
      <trkpt lat="51.608568" lon="21.96855"></trkpt>
      <trkpt lat="51.611008" lon="21.967439"></trkpt>
      <trkpt lat="51.613136" lon="21.966907"></trkpt>
      <trkpt lat="51.614727" lon="21.966753"></trkpt>
      <trkpt lat="51.619813" lon="21.96673"></trkpt>
      <trkpt lat="51.622172" lon="21.966261"></trkpt>
      <trkpt lat="51.623639" lon="21.965733"></trkpt>
      <trkpt lat="51.625563" lon="21.964763"></trkpt>
      <trkpt lat="51.631129" lon="21.961386"></trkpt>
      <trkpt lat="51.633365" lon="21.959608"></trkpt>
      <trkpt lat="51.635265" lon="21.957616"></trkpt>
      <trkpt lat="51.637216" lon="21.95499"></trkpt>
      <trkpt lat="51.638936" lon="21.951977"></trkpt>
      <trkpt lat="51.640692" lon="21.947854"></trkpt>
      <trkpt lat="51.641849" lon="21.944106"></trkpt>
      <trkpt lat="51.642617" lon="21.940518"></trkpt>
      <trkpt lat="51.64316" lon="21.93637"></trkpt>
      <trkpt lat="51.643324" lon="21.933501"></trkpt>
      <trkpt lat="51.643502" lon="21.92487"></trkpt>
      <trkpt lat="51.644017" lon="21.920232"></trkpt>
      <trkpt lat="51.644556" lon="21.917367"></trkpt>
      <trkpt lat="51.645409" lon="21.914102"></trkpt>
      <trkpt lat="51.64671" lon="21.910499"></trkpt>
      <trkpt lat="51.648014" lon="21.907697"></trkpt>
      <trkpt lat="51.64996" lon="21.904469"></trkpt>
      <trkpt lat="51.650915" lon="21.903178"></trkpt>
      <trkpt lat="51.652842" lon="21.901039"></trkpt>
      <trkpt lat="51.654567" lon="21.899525"></trkpt>
      <trkpt lat="51.656189" lon="21.89842"></trkpt>
      <trkpt lat="51.660533" lon="21.896235"></trkpt>
      <trkpt lat="51.662589" lon="21.894832"></trkpt>
      <trkpt lat="51.664848" lon="21.892661"></trkpt>
      <trkpt lat="51.666864" lon="21.890029"></trkpt>
      <trkpt lat="51.668271" lon="21.887649"></trkpt>
      <trkpt lat="51.669989" lon="21.883792"></trkpt>
      <trkpt lat="51.671152" lon="21.880095"></trkpt>
      <trkpt lat="51.672857" lon="21.872715"></trkpt>
      <trkpt lat="51.673483" lon="21.870593"></trkpt>
      <trkpt lat="51.674521" lon="21.867776"></trkpt>
      <trkpt lat="51.675866" lon="21.864942"></trkpt>
      <trkpt lat="51.684002" lon="21.851872"></trkpt>
      <trkpt lat="51.685937" lon="21.84931"></trkpt>
      <trkpt lat="51.687354" lon="21.847953"></trkpt>
      <trkpt lat="51.689078" lon="21.846762"></trkpt>
      <trkpt lat="51.69047" lon="21.846099"></trkpt>
      <trkpt lat="51.693485" lon="21.844904"></trkpt>
      <trkpt lat="51.694583" lon="21.844315"></trkpt>
      <trkpt lat="51.695692" lon="21.843547"></trkpt>
      <trkpt lat="51.697548" lon="21.841802"></trkpt>
      <trkpt lat="51.699244" lon="21.839549"></trkpt>
      <trkpt lat="51.700674" lon="21.836944"></trkpt>
      <trkpt lat="51.701807" lon="21.834044"></trkpt>
      <trkpt lat="51.702763" lon="21.830705"></trkpt>
      <trkpt lat="51.704112" lon="21.825262"></trkpt>
      <trkpt lat="51.705282" lon="21.821609"></trkpt>
      <trkpt lat="51.706121" lon="21.819587"></trkpt>
      <trkpt lat="51.707076" lon="21.817659"></trkpt>
      <trkpt lat="51.708725" lon="21.814987"></trkpt>
      <trkpt lat="51.710201" lon="21.81309"></trkpt>
      <trkpt lat="51.711581" lon="21.811531"></trkpt>
      <trkpt lat="51.762225" lon="21.756596"></trkpt>
      <trkpt lat="51.770185" lon="21.748172"></trkpt>
      <trkpt lat="51.77236" lon="21.746404"></trkpt>
      <trkpt lat="51.774292" lon="21.745413"></trkpt>
      <trkpt lat="51.775583" lon="21.745031"></trkpt>
      <trkpt lat="51.779571" lon="21.744271"></trkpt>
      <trkpt lat="51.781411" lon="21.74357"></trkpt>
      <trkpt lat="51.783062" lon="21.742541"></trkpt>
      <trkpt lat="51.784662" lon="21.741137"></trkpt>
      <trkpt lat="51.786531" lon="21.738837"></trkpt>
      <trkpt lat="51.787869" lon="21.736566"></trkpt>
      <trkpt lat="51.788916" lon="21.734212"></trkpt>
      <trkpt lat="51.790649" lon="21.729367"></trkpt>
      <trkpt lat="51.791623" lon="21.727022"></trkpt>
      <trkpt lat="51.792829" lon="21.724804"></trkpt>
      <trkpt lat="51.794447" lon="21.722584"></trkpt>
      <trkpt lat="51.817612" lon="21.697932"></trkpt>
      <trkpt lat="51.854965" lon="21.657244"></trkpt>
      <trkpt lat="51.857059" lon="21.654878"></trkpt>
      <trkpt lat="51.858349" lon="21.653194"></trkpt>
      <trkpt lat="51.859202" lon="21.651661"></trkpt>
      <trkpt lat="51.859853" lon="21.650078"></trkpt>
      <trkpt lat="51.860384" lon="21.648297"></trkpt>
      <trkpt lat="51.860681" lon="21.646805"></trkpt>
      <trkpt lat="51.860955" lon="21.643932"></trkpt>
      <trkpt lat="51.861284" lon="21.63329"></trkpt>
      <trkpt lat="51.861512" lon="21.629573"></trkpt>
      <trkpt lat="51.86217" lon="21.624579"></trkpt>
      <trkpt lat="51.863251" lon="21.619578"></trkpt>
      <trkpt lat="51.864468" lon="21.615543"></trkpt>
      <trkpt lat="51.873412" lon="21.589297"></trkpt>
      <trkpt lat="51.874026" lon="21.587787"></trkpt>
      <trkpt lat="51.874694" lon="21.586519"></trkpt>
      <trkpt lat="51.875418" lon="21.585436"></trkpt>
      <trkpt lat="51.87628" lon="21.584452"></trkpt>
      <trkpt lat="51.877529" lon="21.583424"></trkpt>
      <trkpt lat="51.878569" lon="21.582865"></trkpt>
      <trkpt lat="51.889485" lon="21.579401"></trkpt>
      <trkpt lat="51.891118" lon="21.579074"></trkpt>
      <trkpt lat="51.89263" lon="21.578995"></trkpt>
      <trkpt lat="51.893928" lon="21.579096"></trkpt>
      <trkpt lat="51.895423" lon="21.579408"></trkpt>
      <trkpt lat="51.896831" lon="21.579896"></trkpt>
      <trkpt lat="51.898725" lon="21.580877"></trkpt>
      <trkpt lat="51.9001" lon="21.581846"></trkpt>
      <trkpt lat="51.901549" lon="21.583128"></trkpt>
      <trkpt lat="51.903087" lon="21.584817"></trkpt>
      <trkpt lat="51.911323" lon="21.594969"></trkpt>
      <trkpt lat="51.91236" lon="21.596056"></trkpt>
      <trkpt lat="51.91326" lon="21.596775"></trkpt>
      <trkpt lat="51.914999" lon="21.597665"></trkpt>
      <trkpt lat="51.916782" lon="21.597993"></trkpt>
      <trkpt lat="51.917765" lon="21.597933"></trkpt>
      <trkpt lat="51.918725" lon="21.597713"></trkpt>
      <trkpt lat="51.920297" lon="21.596979"></trkpt>
      <trkpt lat="51.983591" lon="21.553303"></trkpt>
      <trkpt lat="51.988559" lon="21.549772"></trkpt>
      <trkpt lat="51.990518" lon="21.547903"></trkpt>
      <trkpt lat="52.040782" lon="21.491701"></trkpt>
      <trkpt lat="52.043142" lon="21.488336"></trkpt>
      <trkpt lat="52.045183" lon="21.484646"></trkpt>
      <trkpt lat="52.04675" lon="21.481069"></trkpt>
      <trkpt lat="52.04871" lon="21.47538"></trkpt>
      <trkpt lat="52.04995" lon="21.472314"></trkpt>
      <trkpt lat="52.051511" lon="21.469165"></trkpt>
      <trkpt lat="52.052896" lon="21.466841"></trkpt>
      <trkpt lat="52.054073" lon="21.465115"></trkpt>
      <trkpt lat="52.062569" lon="21.454795"></trkpt>
      <trkpt lat="52.064229" lon="21.452934"></trkpt>
      <trkpt lat="52.066693" lon="21.450771"></trkpt>
      <trkpt lat="52.074905" lon="21.444731"></trkpt>
      <trkpt lat="52.076501" lon="21.443361"></trkpt>
      <trkpt lat="52.079152" lon="21.440519"></trkpt>
      <trkpt lat="52.081528" lon="21.437206"></trkpt>
      <trkpt lat="52.083084" lon="21.434519"></trkpt>
      <trkpt lat="52.090306" lon="21.420904"></trkpt>
      <trkpt lat="52.093293" lon="21.415131"></trkpt>
      <trkpt lat="52.094056" lon="21.413311"></trkpt>
      <trkpt lat="52.094707" lon="21.411402"></trkpt>
      <trkpt lat="52.095343" lon="21.408974"></trkpt>
      <trkpt lat="52.097449" lon="21.398381"></trkpt>
      <trkpt lat="52.098368" lon="21.394286"></trkpt>
      <trkpt lat="52.099614" lon="21.390646"></trkpt>
      <trkpt lat="52.101183" lon="21.387568"></trkpt>
      <trkpt lat="52.102758" lon="21.385369"></trkpt>
      <trkpt lat="52.104209" lon="21.383873"></trkpt>
      <trkpt lat="52.106376" lon="21.38221"></trkpt>
      <trkpt lat="52.111354" lon="21.378816"></trkpt>
      <trkpt lat="52.112489" lon="21.377738"></trkpt>
      <trkpt lat="52.113705" lon="21.376204"></trkpt>
      <trkpt lat="52.115466" lon="21.37318"></trkpt>
      <trkpt lat="52.129972" lon="21.345487"></trkpt>
      <trkpt lat="52.131285" lon="21.343263"></trkpt>
      <trkpt lat="52.132957" lon="21.340823"></trkpt>
      <trkpt lat="52.136547" lon="21.336025"></trkpt>
      <trkpt lat="52.140082" lon="21.330466"></trkpt>
      <trkpt lat="52.14093" lon="21.329315"></trkpt>
      <trkpt lat="52.146078" lon="21.323886"></trkpt>
      <trkpt lat="52.14822" lon="21.321436"></trkpt>
      <trkpt lat="52.152327" lon="21.316101"></trkpt>
      <trkpt lat="52.156293" lon="21.310149"></trkpt>
      <trkpt lat="52.159579" lon="21.305683"></trkpt>
      <trkpt lat="52.161224" lon="21.303265"></trkpt>
      <trkpt lat="52.163407" lon="21.299526"></trkpt>
      <trkpt lat="52.16754" lon="21.29148"></trkpt>
      <trkpt lat="52.168873" lon="21.289305"></trkpt>
      <trkpt lat="52.169786" lon="21.288242"></trkpt>
      <trkpt lat="52.170862" lon="21.287341"></trkpt>
      <trkpt lat="52.172159" lon="21.286563"></trkpt>
      <trkpt lat="52.173068" lon="21.286237"></trkpt>
      <trkpt lat="52.174963" lon="21.286041"></trkpt>
      <trkpt lat="52.178967" lon="21.286405"></trkpt>
      <trkpt lat="52.181451" lon="21.286457"></trkpt>
      <trkpt lat="52.182999" lon="21.286081"></trkpt>
      <trkpt lat="52.184905" lon="21.285092"></trkpt>
      <trkpt lat="52.186142" lon="21.284064"></trkpt>
      <trkpt lat="52.188971" lon="21.28108"></trkpt>
      <trkpt lat="52.194109" lon="21.276225"></trkpt>
      <trkpt lat="52.219345" lon="21.25291"></trkpt>
      <trkpt lat="52.21976" lon="21.252723"></trkpt>
      <trkpt lat="52.221265" lon="21.25161"></trkpt>
      <trkpt lat="52.22245" lon="21.250919"></trkpt>
      <trkpt lat="52.222681" lon="21.250961"></trkpt>
      <trkpt lat="52.22283" lon="21.250824"></trkpt>
      <trkpt lat="52.222922" lon="21.250484"></trkpt>
      <trkpt lat="52.222826" lon="21.250119"></trkpt>
      <trkpt lat="52.222911" lon="21.247232"></trkpt>
      <trkpt lat="52.226368" lon="21.148919"></trkpt>
      <trkpt lat="52.226643" lon="21.148664"></trkpt>
      <trkpt lat="52.22722" lon="21.148425"></trkpt>
      <trkpt lat="52.227286" lon="21.146286"></trkpt>
      <trkpt lat="52.227871" lon="21.145649"></trkpt>
      <trkpt lat="52.229291" lon="21.144228"></trkpt>
      <trkpt lat="52.229933" lon="21.143827"></trkpt>
      <trkpt lat="52.230724" lon="21.143682"></trkpt>
      <trkpt lat="52.233742" lon="21.143701"></trkpt>
      <trkpt lat="52.234652" lon="21.143527"></trkpt>
      <trkpt lat="52.236535" lon="21.142582"></trkpt>
      <trkpt lat="52.23722" lon="21.1424"></trkpt>
      <trkpt lat="52.237731" lon="21.141941"></trkpt>
      <trkpt lat="52.24373" lon="21.138799"></trkpt>
      <trkpt lat="52.244743" lon="21.138546"></trkpt>
      <trkpt lat="52.24615" lon="21.137875"></trkpt>
      <trkpt lat="52.247309" lon="21.137703"></trkpt>
      <trkpt lat="52.263788" lon="21.144354"></trkpt>
      <trkpt lat="52.264692" lon="21.144635"></trkpt>
      <trkpt lat="52.265447" lon="21.144706"></trkpt>
      <trkpt lat="52.273106" lon="21.14312"></trkpt>
      <trkpt lat="52.291944" lon="21.138932"></trkpt>
      <trkpt lat="52.294686" lon="21.138588"></trkpt>
      <trkpt lat="52.29755" lon="21.137714"></trkpt>
      <trkpt lat="52.299704" lon="21.137207"></trkpt>
      <trkpt lat="52.307181" lon="21.136728"></trkpt>
      <trkpt lat="52.308082" lon="21.136952"></trkpt>
      <trkpt lat="52.308996" lon="21.137456"></trkpt>
      <trkpt lat="52.31064" lon="21.138751"></trkpt>
      <trkpt lat="52.311123" lon="21.139326"></trkpt>
      <trkpt lat="52.311618" lon="21.139525"></trkpt>
      <trkpt lat="52.317796" lon="21.144392"></trkpt>
      <trkpt lat="52.318843" lon="21.145334"></trkpt>
      <trkpt lat="52.319619" lon="21.145614"></trkpt>
      <trkpt lat="52.321083" lon="21.14588"></trkpt>
      <trkpt lat="52.321495" lon="21.145807"></trkpt>
      <trkpt lat="52.321874" lon="21.145458"></trkpt>
      <trkpt lat="52.322089" lon="21.145487"></trkpt>
      <trkpt lat="52.322217" lon="21.145048"></trkpt>
      <trkpt lat="52.322586" lon="21.144742"></trkpt>
      <trkpt lat="52.324162" lon="21.144876"></trkpt>
      <trkpt lat="52.331233" lon="21.143604"></trkpt>
      <trkpt lat="52.340871" lon="21.140208"></trkpt>
      <trkpt lat="52.341783" lon="21.139982"></trkpt>
      <trkpt lat="52.342446" lon="21.139953"></trkpt>
      <trkpt lat="52.356812" lon="21.141087"></trkpt>
      <trkpt lat="52.357801" lon="21.141062"></trkpt>
      <trkpt lat="52.3588" lon="21.140739"></trkpt>
      <trkpt lat="52.36247" lon="21.139012"></trkpt>
      <trkpt lat="52.365714" lon="21.137194"></trkpt>
      <trkpt lat="52.365673" lon="21.137555"></trkpt>
      <trkpt lat="52.364682" lon="21.138035"></trkpt>
      <trkpt lat="52.364699" lon="21.138419"></trkpt>
      <trkpt lat="52.364682" lon="21.138035"></trkpt>
      <trkpt lat="52.364353" lon="21.138223"></trkpt>
      <trkpt lat="52.364329" lon="21.138911"></trkpt>
      <trkpt lat="52.363581" lon="21.138277"></trkpt>
      <trkpt lat="52.363408" lon="21.137956"></trkpt>
      <trkpt lat="52.363439" lon="21.137512"></trkpt>
      <trkpt lat="52.363672" lon="21.137249"></trkpt>
      <trkpt lat="52.363949" lon="21.137313"></trkpt>
      <trkpt lat="52.364086" lon="21.137543"></trkpt>
      <trkpt lat="52.364102" lon="21.137813"></trkpt>
      <trkpt lat="52.36391" lon="21.138188"></trkpt>
      <trkpt lat="52.360845" lon="21.139795"></trkpt>
      <trkpt lat="52.3588" lon="21.140739"></trkpt>
      <trkpt lat="52.357801" lon="21.141062"></trkpt>
      <trkpt lat="52.356812" lon="21.141087"></trkpt>
      <trkpt lat="52.342446" lon="21.139953"></trkpt>
      <trkpt lat="52.341783" lon="21.139982"></trkpt>
      <trkpt lat="52.340871" lon="21.140208"></trkpt>
      <trkpt lat="52.331233" lon="21.143604"></trkpt>
      <trkpt lat="52.32755" lon="21.144298"></trkpt>
      <trkpt lat="52.324038" lon="21.144695"></trkpt>
      <trkpt lat="52.32286" lon="21.144524"></trkpt>
      <trkpt lat="52.322257" lon="21.144603"></trkpt>
      <trkpt lat="52.322104" lon="21.144533"></trkpt>
      <trkpt lat="52.321603" lon="21.143109"></trkpt>
      <trkpt lat="52.319786" lon="21.14032"></trkpt>
      <trkpt lat="52.313327" lon="21.126874"></trkpt>
      <trkpt lat="52.31154" lon="21.122851"></trkpt>
      <trkpt lat="52.310543" lon="21.119876"></trkpt>
      <trkpt lat="52.308259" lon="21.108924"></trkpt>
      <trkpt lat="52.307633" lon="21.10466"></trkpt>
      <trkpt lat="52.307454" lon="21.099972"></trkpt>
      <trkpt lat="52.307794" lon="21.092416"></trkpt>
      <trkpt lat="52.266293" lon="21.058297"></trkpt>
      <trkpt lat="52.264967" lon="21.057094"></trkpt>
      <trkpt lat="52.264217" lon="21.056099"></trkpt>
      <trkpt lat="52.263545" lon="21.054885"></trkpt>
      <trkpt lat="52.254846" lon="21.034947"></trkpt>
      <trkpt lat="52.254563" lon="21.034702"></trkpt>
      <trkpt lat="52.25207" lon="21.037336"></trkpt>
      <trkpt lat="52.251698" lon="21.037871"></trkpt>
      <trkpt lat="52.249766" lon="21.041559"></trkpt>
      <trkpt lat="52.248883" lon="21.043857"></trkpt>
      <trkpt lat="52.248723" lon="21.043856"></trkpt>
      <trkpt lat="52.248278" lon="21.043514"></trkpt>
      <trkpt lat="52.24761" lon="21.043225"></trkpt>
      <trkpt lat="52.245046" lon="21.043029"></trkpt>
      <trkpt lat="52.244678" lon="21.042909"></trkpt>
      <trkpt lat="52.244389" lon="21.042653"></trkpt>
      <trkpt lat="52.244057" lon="21.042091"></trkpt>
      <trkpt lat="52.24389" lon="21.04146"></trkpt>
      <trkpt lat="52.243822" lon="21.039268"></trkpt>
      <trkpt lat="52.243616" lon="21.038205"></trkpt>
      <trkpt lat="52.243038" lon="21.038705"></trkpt>
      <trkpt lat="52.242305" lon="21.038885"></trkpt>
      <trkpt lat="52.241915" lon="21.0391"></trkpt>
      <trkpt lat="52.240934" lon="21.040455"></trkpt>
      <trkpt lat="52.237173" lon="21.043975"></trkpt>
      <trkpt lat="52.23709" lon="21.044233"></trkpt>
      <trkpt lat="52.239141" lon="21.042322"></trkpt>
      <trkpt lat="52.239325" lon="21.04273"></trkpt>
      <trkpt lat="52.239816" lon="21.042794"></trkpt>
      <trkpt lat="52.240113" lon="21.043051"></trkpt>
      <trkpt lat="52.240215" lon="21.043244"></trkpt>
      <trkpt lat="52.240168" lon="21.043448"></trkpt>
  </trkseg></trk>
</gpx>
