<?xml version="1.0" encoding="UTF-8"?>
<gpx version="1.1" creator="yatutbuv" xmlns="http://www.topografix.com/GPX/1/1">
  <trk><name>GraphHopper Track</name><trkseg>
      <trkpt lat="49.834496" lon="24.009278"></trkpt>
      <trkpt lat="49.834742" lon="24.009518"></trkpt>
      <trkpt lat="49.834803" lon="24.007279"></trkpt>
      <trkpt lat="49.83544" lon="24.005279"></trkpt>
      <trkpt lat="49.83598" lon="24.004625"></trkpt>
      <trkpt lat="49.837121" lon="24.003881"></trkpt>
      <trkpt lat="49.838187" lon="24.006947"></trkpt>
      <trkpt lat="49.840144" lon="24.011934"></trkpt>
      <trkpt lat="49.842007" lon="24.010206"></trkpt>
      <trkpt lat="49.843013" lon="24.010322"></trkpt>
      <trkpt lat="49.844453" lon="24.01103"></trkpt>
      <trkpt lat="49.845841" lon="24.007023"></trkpt>
      <trkpt lat="49.846715" lon="24.004835"></trkpt>
      <trkpt lat="49.847109" lon="24.003003"></trkpt>
      <trkpt lat="49.847999" lon="24.000531"></trkpt>
      <trkpt lat="49.848852" lon="23.997256"></trkpt>
      <trkpt lat="49.849808" lon="23.994483"></trkpt>
      <trkpt lat="49.852386" lon="23.98867"></trkpt>
      <trkpt lat="49.853459" lon="23.986869"></trkpt>
      <trkpt lat="49.853431" lon="23.986589"></trkpt>
      <trkpt lat="49.853804" lon="23.98533"></trkpt>
      <trkpt lat="49.860074" lon="23.970359"></trkpt>
      <trkpt lat="49.861171" lon="23.971514"></trkpt>
      <trkpt lat="49.861465" lon="23.971546"></trkpt>
      <trkpt lat="49.862683" lon="23.970367"></trkpt>
      <trkpt lat="49.863847" lon="23.969543"></trkpt>
      <trkpt lat="49.870443" lon="23.965493"></trkpt>
      <trkpt lat="49.871125" lon="23.964979"></trkpt>
      <trkpt lat="49.871387" lon="23.96453"></trkpt>
      <trkpt lat="49.873632" lon="23.953274"></trkpt>
      <trkpt lat="49.873909" lon="23.950372"></trkpt>
      <trkpt lat="49.874049" lon="23.949881"></trkpt>
      <trkpt lat="49.874265" lon="23.949745"></trkpt>
      <trkpt lat="49.875131" lon="23.949731"></trkpt>
      <trkpt lat="49.877706" lon="23.948418"></trkpt>
      <trkpt lat="49.878871" lon="23.948255"></trkpt>
      <trkpt lat="49.880372" lon="23.947319"></trkpt>
      <trkpt lat="49.880918" lon="23.947199"></trkpt>
      <trkpt lat="49.881475" lon="23.947243"></trkpt>
      <trkpt lat="49.882038" lon="23.947536"></trkpt>
      <trkpt lat="49.882744" lon="23.948578"></trkpt>
      <trkpt lat="49.886506" lon="23.951397"></trkpt>
      <trkpt lat="49.887075" lon="23.951639"></trkpt>
      <trkpt lat="49.887664" lon="23.951396"></trkpt>
      <trkpt lat="49.888852" lon="23.950258"></trkpt>
      <trkpt lat="49.892001" lon="23.948844"></trkpt>
      <trkpt lat="49.893442" lon="23.947771"></trkpt>
      <trkpt lat="49.896255" lon="23.944722"></trkpt>
      <trkpt lat="49.901061" lon="23.942212"></trkpt>
      <trkpt lat="49.902199" lon="23.941384"></trkpt>
      <trkpt lat="49.902781" lon="23.941189"></trkpt>
      <trkpt lat="49.904427" lon="23.939082"></trkpt>
      <trkpt lat="49.905523" lon="23.937362"></trkpt>
      <trkpt lat="49.906307" lon="23.935646"></trkpt>
      <trkpt lat="49.907217" lon="23.931967"></trkpt>
      <trkpt lat="49.909674" lon="23.930273"></trkpt>
      <trkpt lat="49.910626" lon="23.929371"></trkpt>
      <trkpt lat="49.911405" lon="23.92846"></trkpt>
      <trkpt lat="49.91213" lon="23.927218"></trkpt>
      <trkpt lat="49.914595" lon="23.924348"></trkpt>
      <trkpt lat="49.91503" lon="23.923512"></trkpt>
      <trkpt lat="49.915291" lon="23.922583"></trkpt>
      <trkpt lat="49.915597" lon="23.917391"></trkpt>
      <trkpt lat="49.916589" lon="23.915054"></trkpt>
      <trkpt lat="49.917305" lon="23.912916"></trkpt>
      <trkpt lat="49.918213" lon="23.911331"></trkpt>
      <trkpt lat="49.920358" lon="23.908737"></trkpt>
      <trkpt lat="49.920831" lon="23.907871"></trkpt>
      <trkpt lat="49.932605" lon="23.879288"></trkpt>
      <trkpt lat="49.933369" lon="23.877907"></trkpt>
      <trkpt lat="49.934547" lon="23.876343"></trkpt>
      <trkpt lat="49.940688" lon="23.870569"></trkpt>
      <trkpt lat="49.941082" lon="23.870088"></trkpt>
      <trkpt lat="49.94238" lon="23.867896"></trkpt>
      <trkpt lat="49.943334" lon="23.866625"></trkpt>
      <trkpt lat="49.944435" lon="23.865477"></trkpt>
      <trkpt lat="49.94638" lon="23.863745"></trkpt>
      <trkpt lat="49.947842" lon="23.861574"></trkpt>
      <trkpt lat="49.948393" lon="23.860913"></trkpt>
      <trkpt lat="49.949614" lon="23.859783"></trkpt>
      <trkpt lat="49.950026" lon="23.859125"></trkpt>
      <trkpt lat="49.95072" lon="23.857441"></trkpt>
      <trkpt lat="49.951153" lon="23.855582"></trkpt>
      <trkpt lat="49.951407" lon="23.85524"></trkpt>
      <trkpt lat="49.952594" lon="23.854617"></trkpt>
      <trkpt lat="49.952903" lon="23.854145"></trkpt>
      <trkpt lat="49.953111" lon="23.852503"></trkpt>
      <trkpt lat="49.953082" lon="23.849123"></trkpt>
      <trkpt lat="49.953367" lon="23.847136"></trkpt>
      <trkpt lat="49.954005" lon="23.844606"></trkpt>
      <trkpt lat="49.954257" lon="23.841892"></trkpt>
      <trkpt lat="49.954084" lon="23.839005"></trkpt>
      <trkpt lat="49.954143" lon="23.838205"></trkpt>
      <trkpt lat="49.954717" lon="23.83529"></trkpt>
      <trkpt lat="49.955316" lon="23.833951"></trkpt>
      <trkpt lat="49.955501" lon="23.832917"></trkpt>
      <trkpt lat="49.9555" lon="23.832182"></trkpt>
      <trkpt lat="49.954944" lon="23.827818"></trkpt>
      <trkpt lat="49.955325" lon="23.815481"></trkpt>
      <trkpt lat="49.95708" lon="23.816148"></trkpt>
      <trkpt lat="49.957596" lon="23.816228"></trkpt>
      <trkpt lat="49.959567" lon="23.815331"></trkpt>
      <trkpt lat="49.959902" lon="23.815347"></trkpt>
      <trkpt lat="49.960107" lon="23.815481"></trkpt>
      <trkpt lat="49.961133" lon="23.81643"></trkpt>
      <trkpt lat="49.962787" lon="23.818963"></trkpt>
      <trkpt lat="49.963022" lon="23.819563"></trkpt>
      <trkpt lat="49.963384" lon="23.821399"></trkpt>
      <trkpt lat="49.964021" lon="23.8226"></trkpt>
      <trkpt lat="49.964623" lon="23.823157"></trkpt>
      <trkpt lat="49.965877" lon="23.82334"></trkpt>
      <trkpt lat="49.966553" lon="23.823227"></trkpt>
      <trkpt lat="49.96977" lon="23.822123"></trkpt>
      <trkpt lat="49.972123" lon="23.822177"></trkpt>
      <trkpt lat="49.972638" lon="23.822087"></trkpt>
      <trkpt lat="49.973744" lon="23.821206"></trkpt>
      <trkpt lat="49.974547" lon="23.82022"></trkpt>
      <trkpt lat="49.977821" lon="23.817299"></trkpt>
      <trkpt lat="49.978935" lon="23.816836"></trkpt>
      <trkpt lat="49.980035" lon="23.815648"></trkpt>
      <trkpt lat="49.98055" lon="23.815259"></trkpt>
      <trkpt lat="49.981265" lon="23.814953"></trkpt>
      <trkpt lat="49.982671" lon="23.81471"></trkpt>
      <trkpt lat="49.983547" lon="23.814196"></trkpt>
      <trkpt lat="49.985168" lon="23.81266"></trkpt>
      <trkpt lat="49.989702" lon="23.810751"></trkpt>
      <trkpt lat="49.991865" lon="23.810504"></trkpt>
      <trkpt lat="49.992771" lon="23.810257"></trkpt>
      <trkpt lat="49.993349" lon="23.810452"></trkpt>
      <trkpt lat="49.995839" lon="23.811732"></trkpt>
      <trkpt lat="49.998197" lon="23.81174"></trkpt>
      <trkpt lat="49.998755" lon="23.811883"></trkpt>
      <trkpt lat="49.999685" lon="23.813401"></trkpt>
      <trkpt lat="50.000367" lon="23.816093"></trkpt>
      <trkpt lat="50.000636" lon="23.816697"></trkpt>
      <trkpt lat="50.001737" lon="23.816485"></trkpt>
      <trkpt lat="50.004769" lon="23.816536"></trkpt>
      <trkpt lat="50.005018" lon="23.816446"></trkpt>
      <trkpt lat="50.006477" lon="23.815143"></trkpt>
      <trkpt lat="50.011844" lon="23.813243"></trkpt>
      <trkpt lat="50.018476" lon="23.811527"></trkpt>
      <trkpt lat="50.020034" lon="23.811549"></trkpt>
      <trkpt lat="50.023092" lon="23.810623"></trkpt>
      <trkpt lat="50.023492" lon="23.810814"></trkpt>
      <trkpt lat="50.025939" lon="23.813778"></trkpt>
      <trkpt lat="50.029584" lon="23.814984"></trkpt>
      <trkpt lat="50.030986" lon="23.816031"></trkpt>
      <trkpt lat="50.033741" lon="23.815724"></trkpt>
      <trkpt lat="50.034165" lon="23.815322"></trkpt>
      <trkpt lat="50.034445" lon="23.815205"></trkpt>
      <trkpt lat="50.035908" lon="23.815438"></trkpt>
      <trkpt lat="50.039191" lon="23.815484"></trkpt>
      <trkpt lat="50.041709" lon="23.814272"></trkpt>
      <trkpt lat="50.039451" lon="23.807849"></trkpt>
      <trkpt lat="50.038968" lon="23.800598"></trkpt>
      <trkpt lat="50.03571" lon="23.798985"></trkpt>
      <trkpt lat="50.03566" lon="23.798743"></trkpt>
      <trkpt lat="50.035418" lon="23.79861"></trkpt>
  </trkseg></trk>
</gpx>
