<?xml version="1.0" encoding="UTF-8"?>
<gpx version="1.1" creator="yatutbuv" xmlns="http://www.topografix.com/GPX/1/1">
  <trk><name>GraphHopper Track</name><trkseg>
      <trkpt lat="50.404794" lon="30.622491"></trkpt>
      <trkpt lat="50.405192" lon="30.622149"></trkpt>
      <trkpt lat="50.405125" lon="30.621897"></trkpt>
      <trkpt lat="50.406838" lon="30.620795"></trkpt>
      <trkpt lat="50.405113" lon="30.61391"></trkpt>
      <trkpt lat="50.405855" lon="30.612799"></trkpt>
      <trkpt lat="50.406289" lon="30.611742"></trkpt>
      <trkpt lat="50.408642" lon="30.60384"></trkpt>
      <trkpt lat="50.409155" lon="30.602494"></trkpt>
      <trkpt lat="50.410064" lon="30.600691"></trkpt>
      <trkpt lat="50.411867" lon="30.597633"></trkpt>
      <trkpt lat="50.412794" lon="30.59635"></trkpt>
      <trkpt lat="50.413779" lon="30.595552"></trkpt>
      <trkpt lat="50.417528" lon="30.593391"></trkpt>
      <trkpt lat="50.418492" lon="30.592884"></trkpt>
      <trkpt lat="50.41932" lon="30.592667"></trkpt>
      <trkpt lat="50.427656" lon="30.592535"></trkpt>
      <trkpt lat="50.429718" lon="30.592763"></trkpt>
      <trkpt lat="50.43124" lon="30.592676"></trkpt>
      <trkpt lat="50.431457" lon="30.59311"></trkpt>
      <trkpt lat="50.431407" lon="30.593458"></trkpt>
      <trkpt lat="50.431138" lon="30.593675"></trkpt>
      <trkpt lat="50.430863" lon="30.593516"></trkpt>
      <trkpt lat="50.430686" lon="30.593296"></trkpt>
      <trkpt lat="50.430262" lon="30.592086"></trkpt>
      <trkpt lat="50.424275" lon="30.571692"></trkpt>
      <trkpt lat="50.424249" lon="30.570821"></trkpt>
      <trkpt lat="50.424637" lon="30.569157"></trkpt>
      <trkpt lat="50.424921" lon="30.568841"></trkpt>
      <trkpt lat="50.426666" lon="30.568029"></trkpt>
      <trkpt lat="50.43215" lon="30.565947"></trkpt>
      <trkpt lat="50.43624" lon="30.563966"></trkpt>
      <trkpt lat="50.43952" lon="30.561119"></trkpt>
      <trkpt lat="50.442463" lon="30.558117"></trkpt>
      <trkpt lat="50.44333" lon="30.557046"></trkpt>
      <trkpt lat="50.44583" lon="30.553658"></trkpt>
      <trkpt lat="50.446827" lon="30.552017"></trkpt>
      <trkpt lat="50.451709" lon="30.54209"></trkpt>
      <trkpt lat="50.45602" lon="30.531331"></trkpt>
      <trkpt lat="50.458214" lon="30.527447"></trkpt>
      <trkpt lat="50.458734" lon="30.526726"></trkpt>
      <trkpt lat="50.459264" lon="30.526418"></trkpt>
      <trkpt lat="50.460707" lon="30.526227"></trkpt>
      <trkpt lat="50.46335" lon="30.525666"></trkpt>
      <trkpt lat="50.468671" lon="30.524374"></trkpt>
      <trkpt lat="50.469136" lon="30.524235"></trkpt>
      <trkpt lat="50.469421" lon="30.523967"></trkpt>
      <trkpt lat="50.47495" lon="30.515105"></trkpt>
      <trkpt lat="50.475198" lon="30.514523"></trkpt>
      <trkpt lat="50.475342" lon="30.508571"></trkpt>
      <trkpt lat="50.475118" lon="30.504716"></trkpt>
      <trkpt lat="50.475197" lon="30.502748"></trkpt>
      <trkpt lat="50.475436" lon="30.501675"></trkpt>
      <trkpt lat="50.477549" lon="30.498121"></trkpt>
      <trkpt lat="50.477563" lon="30.49766"></trkpt>
      <trkpt lat="50.477212" lon="30.496196"></trkpt>
      <trkpt lat="50.477216" lon="30.495659"></trkpt>
      <trkpt lat="50.477366" lon="30.495185"></trkpt>
      <trkpt lat="50.481497" lon="30.488464"></trkpt>
      <trkpt lat="50.486119" lon="30.483038"></trkpt>
      <trkpt lat="50.487342" lon="30.481464"></trkpt>
      <trkpt lat="50.48785" lon="30.47988"></trkpt>
      <trkpt lat="50.488825" lon="30.473276"></trkpt>
      <trkpt lat="50.48928" lon="30.47231"></trkpt>
      <trkpt lat="50.497615" lon="30.463356"></trkpt>
      <trkpt lat="50.500237" lon="30.460986"></trkpt>
      <trkpt lat="50.500634" lon="30.460667"></trkpt>
      <trkpt lat="50.501344" lon="30.460355"></trkpt>
      <trkpt lat="50.519878" lon="30.453751"></trkpt>
      <trkpt lat="50.520184" lon="30.453516"></trkpt>
      <trkpt lat="50.520369" lon="30.452953"></trkpt>
      <trkpt lat="50.520848" lon="30.449862"></trkpt>
      <trkpt lat="50.521216" lon="30.449723"></trkpt>
      <trkpt lat="50.533569" lon="30.456639"></trkpt>
      <trkpt lat="50.534066" lon="30.45682"></trkpt>
      <trkpt lat="50.545412" lon="30.456118"></trkpt>
      <trkpt lat="50.552166" lon="30.453872"></trkpt>
      <trkpt lat="50.55514" lon="30.453824"></trkpt>
      <trkpt lat="50.556364" lon="30.453623"></trkpt>
      <trkpt lat="50.558642" lon="30.452975"></trkpt>
      <trkpt lat="50.568647" lon="30.452976"></trkpt>
      <trkpt lat="50.569125" lon="30.452813"></trkpt>
      <trkpt lat="50.573142" lon="30.450347"></trkpt>
      <trkpt lat="50.582588" lon="30.447822"></trkpt>
      <trkpt lat="50.586516" lon="30.446962"></trkpt>
      <trkpt lat="50.588173" lon="30.447397"></trkpt>
      <trkpt lat="50.592719" lon="30.449097"></trkpt>
      <trkpt lat="50.592918" lon="30.449284"></trkpt>
      <trkpt lat="50.593068" lon="30.449959"></trkpt>
      <trkpt lat="50.593243" lon="30.450157"></trkpt>
      <trkpt lat="50.594277" lon="30.449884"></trkpt>
      <trkpt lat="50.59508" lon="30.449974"></trkpt>
      <trkpt lat="50.606597" lon="30.454328"></trkpt>
      <trkpt lat="50.607166" lon="30.45437"></trkpt>
      <trkpt lat="50.607494" lon="30.454236"></trkpt>
      <trkpt lat="50.611018" lon="30.451248"></trkpt>
      <trkpt lat="50.612948" lon="30.449032"></trkpt>
      <trkpt lat="50.615406" lon="30.447135"></trkpt>
      <trkpt lat="50.617915" lon="30.445964"></trkpt>
      <trkpt lat="50.623061" lon="30.444758"></trkpt>
      <trkpt lat="50.624369" lon="30.444304"></trkpt>
      <trkpt lat="50.625561" lon="30.443667"></trkpt>
      <trkpt lat="50.627072" lon="30.442655"></trkpt>
      <trkpt lat="50.628462" lon="30.44148"></trkpt>
      <trkpt lat="50.629576" lon="30.439992"></trkpt>
      <trkpt lat="50.631498" lon="30.438148"></trkpt>
      <trkpt lat="50.633643" lon="30.435532"></trkpt>
      <trkpt lat="50.63646" lon="30.431259"></trkpt>
      <trkpt lat="50.637428" lon="30.430037"></trkpt>
      <trkpt lat="50.642922" lon="30.425318"></trkpt>
      <trkpt lat="50.644088" lon="30.424152"></trkpt>
      <trkpt lat="50.647417" lon="30.418206"></trkpt>
      <trkpt lat="50.649449" lon="30.411566"></trkpt>
      <trkpt lat="50.649974" lon="30.410497"></trkpt>
      <trkpt lat="50.650974" lon="30.409347"></trkpt>
      <trkpt lat="50.651581" lon="30.408996"></trkpt>
      <trkpt lat="50.654271" lon="30.408042"></trkpt>
      <trkpt lat="50.655136" lon="30.407621"></trkpt>
      <trkpt lat="50.657331" lon="30.405452"></trkpt>
      <trkpt lat="50.659046" lon="30.403992"></trkpt>
      <trkpt lat="50.659345" lon="30.403857"></trkpt>
      <trkpt lat="50.661035" lon="30.403941"></trkpt>
      <trkpt lat="50.66152" lon="30.403844"></trkpt>
      <trkpt lat="50.667154" lon="30.400285"></trkpt>
      <trkpt lat="50.680567" lon="30.395709"></trkpt>
      <trkpt lat="50.682436" lon="30.395586"></trkpt>
      <trkpt lat="50.683738" lon="30.394963"></trkpt>
      <trkpt lat="50.686568" lon="30.393079"></trkpt>
      <trkpt lat="50.688797" lon="30.39013"></trkpt>
      <trkpt lat="50.701247" lon="30.377451"></trkpt>
      <trkpt lat="50.701906" lon="30.376666"></trkpt>
      <trkpt lat="50.702263" lon="30.376015"></trkpt>
      <trkpt lat="50.702764" lon="30.37409"></trkpt>
      <trkpt lat="50.707637" lon="30.344301"></trkpt>
      <trkpt lat="50.707938" lon="30.34301"></trkpt>
      <trkpt lat="50.708504" lon="30.342091"></trkpt>
      <trkpt lat="50.713668" lon="30.338693"></trkpt>
      <trkpt lat="50.714408" lon="30.338311"></trkpt>
      <trkpt lat="50.715675" lon="30.338215"></trkpt>
      <trkpt lat="50.717308" lon="30.338343"></trkpt>
      <trkpt lat="50.720171" lon="30.337693"></trkpt>
      <trkpt lat="50.72162" lon="30.338051"></trkpt>
      <trkpt lat="50.722555" lon="30.337907"></trkpt>
      <trkpt lat="50.723323" lon="30.337476"></trkpt>
      <trkpt lat="50.724661" lon="30.336367"></trkpt>
      <trkpt lat="50.725903" lon="30.335743"></trkpt>
      <trkpt lat="50.732201" lon="30.33062"></trkpt>
      <trkpt lat="50.733108" lon="30.330163"></trkpt>
      <trkpt lat="50.771117" lon="30.323912"></trkpt>
      <trkpt lat="50.778101" lon="30.322689"></trkpt>
      <trkpt lat="50.778503" lon="30.322501"></trkpt>
      <trkpt lat="50.778797" lon="30.32231"></trkpt>
      <trkpt lat="50.781204" lon="30.319511"></trkpt>
      <trkpt lat="50.783872" lon="30.314021"></trkpt>
      <trkpt lat="50.783973" lon="30.313394"></trkpt>
      <trkpt lat="50.784" lon="30.311191"></trkpt>
      <trkpt lat="50.783854" lon="30.309269"></trkpt>
      <trkpt lat="50.783573" lon="30.30801"></trkpt>
      <trkpt lat="50.783744" lon="30.307524"></trkpt>
      <trkpt lat="50.784976" lon="30.304697"></trkpt>
      <trkpt lat="50.78551" lon="30.303819"></trkpt>
      <trkpt lat="50.787823" lon="30.302405"></trkpt>
      <trkpt lat="50.78888" lon="30.300694"></trkpt>
      <trkpt lat="50.790622" lon="30.296525"></trkpt>
      <trkpt lat="50.791548" lon="30.291717"></trkpt>
      <trkpt lat="50.79194" lon="30.290958"></trkpt>
      <trkpt lat="50.792379" lon="30.290641"></trkpt>
      <trkpt lat="50.792592" lon="30.290638"></trkpt>
      <trkpt lat="50.793436" lon="30.291196"></trkpt>
      <trkpt lat="50.79419" lon="30.291175"></trkpt>
      <trkpt lat="50.802568" lon="30.287292"></trkpt>
      <trkpt lat="50.80493" lon="30.2867"></trkpt>
      <trkpt lat="50.807093" lon="30.286435"></trkpt>
      <trkpt lat="50.808886" lon="30.285335"></trkpt>
      <trkpt lat="50.812246" lon="30.284469"></trkpt>
      <trkpt lat="50.815489" lon="30.283232"></trkpt>
      <trkpt lat="50.82338" lon="30.283049"></trkpt>
      <trkpt lat="50.824687" lon="30.282389"></trkpt>
      <trkpt lat="50.826761" lon="30.282245"></trkpt>
      <trkpt lat="50.829937" lon="30.28369"></trkpt>
      <trkpt lat="50.830584" lon="30.28472"></trkpt>
      <trkpt lat="50.830969" lon="30.285134"></trkpt>
      <trkpt lat="50.831176" lon="30.285078"></trkpt>
      <trkpt lat="50.83283" lon="30.283733"></trkpt>
      <trkpt lat="50.833835" lon="30.283126"></trkpt>
      <trkpt lat="50.836184" lon="30.282193"></trkpt>
      <trkpt lat="50.83892" lon="30.280886"></trkpt>
      <trkpt lat="50.84064" lon="30.279173"></trkpt>
      <trkpt lat="50.846017" lon="30.275331"></trkpt>
      <trkpt lat="50.846449" lon="30.274847"></trkpt>
      <trkpt lat="50.848271" lon="30.271397"></trkpt>
      <trkpt lat="50.850987" lon="30.268723"></trkpt>
      <trkpt lat="50.852104" lon="30.267763"></trkpt>
      <trkpt lat="50.856675" lon="30.265791"></trkpt>
      <trkpt lat="50.858159" lon="30.265286"></trkpt>
      <trkpt lat="50.859263" lon="30.265253"></trkpt>
      <trkpt lat="50.862891" lon="30.267325"></trkpt>
      <trkpt lat="50.86573" lon="30.26721"></trkpt>
      <trkpt lat="50.86978" lon="30.268043"></trkpt>
      <trkpt lat="50.871066" lon="30.268064"></trkpt>
      <trkpt lat="50.880436" lon="30.266734"></trkpt>
      <trkpt lat="50.88135" lon="30.266904"></trkpt>
      <trkpt lat="50.882611" lon="30.26737"></trkpt>
      <trkpt lat="50.884576" lon="30.258741"></trkpt>
      <trkpt lat="50.884816" lon="30.258048"></trkpt>
      <trkpt lat="50.885177" lon="30.257388"></trkpt>
      <trkpt lat="50.885594" lon="30.2569"></trkpt>
      <trkpt lat="50.887905" lon="30.255357"></trkpt>
      <trkpt lat="50.888377" lon="30.255286"></trkpt>
      <trkpt lat="50.888784" lon="30.255358"></trkpt>
      <trkpt lat="50.889273" lon="30.255639"></trkpt>
      <trkpt lat="50.895133" lon="30.26217"></trkpt>
      <trkpt lat="50.895824" lon="30.26245"></trkpt>
      <trkpt lat="50.896674" lon="30.26257"></trkpt>
      <trkpt lat="50.903398" lon="30.262031"></trkpt>
      <trkpt lat="50.904345" lon="30.262172"></trkpt>
      <trkpt lat="50.906803" lon="30.262994"></trkpt>
      <trkpt lat="50.913539" lon="30.262687"></trkpt>
      <trkpt lat="50.914101" lon="30.262799"></trkpt>
      <trkpt lat="50.915751" lon="30.263429"></trkpt>
      <trkpt lat="50.91769" lon="30.263725"></trkpt>
      <trkpt lat="50.918572" lon="30.262519"></trkpt>
      <trkpt lat="50.919714" lon="30.259893"></trkpt>
      <trkpt lat="50.920728" lon="30.257089"></trkpt>
      <trkpt lat="50.92108" lon="30.256522"></trkpt>
      <trkpt lat="50.923509" lon="30.254383"></trkpt>
      <trkpt lat="50.924246" lon="30.255427"></trkpt>
      <trkpt lat="50.925132" lon="30.25498"></trkpt>
      <trkpt lat="50.925542" lon="30.255155"></trkpt>
      <trkpt lat="50.925984" lon="30.256275"></trkpt>
      <trkpt lat="50.926305" lon="30.256706"></trkpt>
      <trkpt lat="50.927085" lon="30.257447"></trkpt>
      <trkpt lat="50.92801" lon="30.258104"></trkpt>
      <trkpt lat="50.928133" lon="30.258006"></trkpt>
      <trkpt lat="50.929283" lon="30.254148"></trkpt>
      <trkpt lat="50.929564" lon="30.253626"></trkpt>
      <trkpt lat="50.936344" lon="30.250452"></trkpt>
      <trkpt lat="50.939023" lon="30.242438"></trkpt>
      <trkpt lat="50.93964" lon="30.241051"></trkpt>
      <trkpt lat="50.946476" lon="30.229839"></trkpt>
      <trkpt lat="50.947175" lon="30.22921"></trkpt>
      <trkpt lat="50.947762" lon="30.229088"></trkpt>
      <trkpt lat="50.971106" lon="30.233064"></trkpt>
      <trkpt lat="50.973385" lon="30.234004"></trkpt>
      <trkpt lat="50.974223" lon="30.234587"></trkpt>
      <trkpt lat="50.976065" lon="30.237686"></trkpt>
      <trkpt lat="50.977332" lon="30.235657"></trkpt>
      <trkpt lat="50.978406" lon="30.235287"></trkpt>
      <trkpt lat="50.979584" lon="30.23511"></trkpt>
      <trkpt lat="50.981233" lon="30.235072"></trkpt>
      <trkpt lat="50.984701" lon="30.235153"></trkpt>
      <trkpt lat="50.986621" lon="30.235325"></trkpt>
      <trkpt lat="50.986766" lon="30.235528"></trkpt>
      <trkpt lat="50.986553" lon="30.244616"></trkpt>
      <trkpt lat="50.986713" lon="30.244629"></trkpt>
      <trkpt lat="50.987827" lon="30.243915"></trkpt>
      <trkpt lat="50.988211" lon="30.2438"></trkpt>
      <trkpt lat="50.991073" lon="30.243565"></trkpt>
      <trkpt lat="50.992765" lon="30.243976"></trkpt>
      <trkpt lat="50.995611" lon="30.245238"></trkpt>
      <trkpt lat="50.997015" lon="30.246222"></trkpt>
      <trkpt lat="50.999926" lon="30.24862"></trkpt>
      <trkpt lat="51.002415" lon="30.252163"></trkpt>
      <trkpt lat="51.006029" lon="30.256248"></trkpt>
      <trkpt lat="51.009848" lon="30.257761"></trkpt>
      <trkpt lat="51.012057" lon="30.257853"></trkpt>
      <trkpt lat="51.01399" lon="30.25852"></trkpt>
      <trkpt lat="51.015429" lon="30.258498"></trkpt>
      <trkpt lat="51.015191" lon="30.273036"></trkpt>
      <trkpt lat="51.015298" lon="30.273615"></trkpt>
      <trkpt lat="51.015594" lon="30.273987"></trkpt>
      <trkpt lat="51.015973" lon="30.274114"></trkpt>
      <trkpt lat="51.02485" lon="30.274249"></trkpt>
      <trkpt lat="51.024278" lon="30.311242"></trkpt>
      <trkpt lat="51.023659" lon="30.340385"></trkpt>
      <trkpt lat="51.023408" lon="30.342183"></trkpt>
      <trkpt lat="51.021498" lon="30.348373"></trkpt>
      <trkpt lat="51.021315" lon="30.349491"></trkpt>
      <trkpt lat="51.020906" lon="30.354552"></trkpt>
      <trkpt lat="51.018509" lon="30.368145"></trkpt>
      <trkpt lat="51.018309" lon="30.372222"></trkpt>
      <trkpt lat="51.018954" lon="30.376393"></trkpt>
      <trkpt lat="51.018696" lon="30.386088"></trkpt>
      <trkpt lat="51.01419" lon="30.403581"></trkpt>
      <trkpt lat="51.013297" lon="30.406627"></trkpt>
      <trkpt lat="51.012883" lon="30.407114"></trkpt>
      <trkpt lat="51.00855" lon="30.41036"></trkpt>
      <trkpt lat="51.007136" lon="30.41117"></trkpt>
      <trkpt lat="51.004731" lon="30.411964"></trkpt>
      <trkpt lat="51.003499" lon="30.412785"></trkpt>
      <trkpt lat="51.002807" lon="30.413496"></trkpt>
      <trkpt lat="51.000248" lon="30.416722"></trkpt>
      <trkpt lat="50.998887" lon="30.418026"></trkpt>
      <trkpt lat="50.995775" lon="30.420512"></trkpt>
      <trkpt lat="50.994806" lon="30.421092"></trkpt>
      <trkpt lat="50.993007" lon="30.421934"></trkpt>
      <trkpt lat="50.988443" lon="30.423495"></trkpt>
      <trkpt lat="50.983695" lon="30.424862"></trkpt>
      <trkpt lat="50.97859" lon="30.424603"></trkpt>
      <trkpt lat="50.95979" lon="30.424121"></trkpt>
      <trkpt lat="50.958681" lon="30.424142"></trkpt>
      <trkpt lat="50.957976" lon="30.424308"></trkpt>
      <trkpt lat="50.956189" lon="30.425467"></trkpt>
      <trkpt lat="50.95478" lon="30.427124"></trkpt>
      <trkpt lat="50.953306" lon="30.428367"></trkpt>
      <trkpt lat="50.948995" lon="30.430104"></trkpt>
      <trkpt lat="50.938932" lon="30.433504"></trkpt>
      <trkpt lat="50.937832" lon="30.434375"></trkpt>
      <trkpt lat="50.93689" lon="30.436755"></trkpt>
      <trkpt lat="50.936057" lon="30.439448"></trkpt>
      <trkpt lat="50.930743" lon="30.440775"></trkpt>
      <trkpt lat="50.928845" lon="30.441054"></trkpt>
      <trkpt lat="50.927962" lon="30.440981"></trkpt>
      <trkpt lat="50.921643" lon="30.439094"></trkpt>
      <trkpt lat="50.920451" lon="30.438508"></trkpt>
      <trkpt lat="50.919733" lon="30.438006"></trkpt>
      <trkpt lat="50.915059" lon="30.433441"></trkpt>
      <trkpt lat="50.914073" lon="30.432624"></trkpt>
      <trkpt lat="50.912956" lon="30.431999"></trkpt>
      <trkpt lat="50.912021" lon="30.431689"></trkpt>
      <trkpt lat="50.90509" lon="30.430926"></trkpt>
      <trkpt lat="50.902917" lon="30.43059"></trkpt>
      <trkpt lat="50.901593" lon="30.430072"></trkpt>
      <trkpt lat="50.900275" lon="30.429069"></trkpt>
      <trkpt lat="50.898917" lon="30.427601"></trkpt>
      <trkpt lat="50.895815" lon="30.423788"></trkpt>
      <trkpt lat="50.893461" lon="30.419558"></trkpt>
      <trkpt lat="50.891289" lon="30.415259"></trkpt>
      <trkpt lat="50.890993" lon="30.413776"></trkpt>
      <trkpt lat="50.890779" lon="30.411415"></trkpt>
      <trkpt lat="50.889981" lon="30.408276"></trkpt>
      <trkpt lat="50.888507" lon="30.404738"></trkpt>
      <trkpt lat="50.888031" lon="30.404154"></trkpt>
      <trkpt lat="50.887435" lon="30.403665"></trkpt>
      <trkpt lat="50.886287" lon="30.403236"></trkpt>
      <trkpt lat="50.87023" lon="30.401733"></trkpt>
      <trkpt lat="50.863085" lon="30.399648"></trkpt>
      <trkpt lat="50.853761" lon="30.398034"></trkpt>
      <trkpt lat="50.84968" lon="30.397991"></trkpt>
      <trkpt lat="50.839891" lon="30.398966"></trkpt>
      <trkpt lat="50.83931" lon="30.398996"></trkpt>
      <trkpt lat="50.838543" lon="30.398835"></trkpt>
      <trkpt lat="50.837965" lon="30.398464"></trkpt>
      <trkpt lat="50.837585" lon="30.398043"></trkpt>
      <trkpt lat="50.831459" lon="30.388784"></trkpt>
      <trkpt lat="50.83106" lon="30.388363"></trkpt>
      <trkpt lat="50.816569" lon="30.378469"></trkpt>
      <trkpt lat="50.813596" lon="30.376521"></trkpt>
      <trkpt lat="50.810382" lon="30.374644"></trkpt>
      <trkpt lat="50.806055" lon="30.371033"></trkpt>
      <trkpt lat="50.805289" lon="30.370698"></trkpt>
      <trkpt lat="50.804722" lon="30.370595"></trkpt>
      <trkpt lat="50.802743" lon="30.370555"></trkpt>
      <trkpt lat="50.802227" lon="30.370342"></trkpt>
      <trkpt lat="50.795781" lon="30.362515"></trkpt>
      <trkpt lat="50.79401" lon="30.357177"></trkpt>
      <trkpt lat="50.790376" lon="30.348211"></trkpt>
      <trkpt lat="50.78764" lon="30.340581"></trkpt>
      <trkpt lat="50.78375" lon="30.329119"></trkpt>
      <trkpt lat="50.781928" lon="30.324786"></trkpt>
      <trkpt lat="50.78156" lon="30.323414"></trkpt>
      <trkpt lat="50.781135" lon="30.321028"></trkpt>
  </trkseg></trk>
</gpx>
