<?xml version="1.0" encoding="UTF-8"?>
<gpx version="1.1" creator="yatutbuv" xmlns="http://www.topografix.com/GPX/1/1">
  <trk><name>GraphHopper Track</name><trkseg>
      <trkpt lat="34.985959" lon="33.994582"></trkpt>
      <trkpt lat="34.987387" lon="33.994846"></trkpt>
      <trkpt lat="34.987422" lon="33.993102"></trkpt>
      <trkpt lat="34.987931" lon="33.9901"></trkpt>
      <trkpt lat="34.988119" lon="33.987855"></trkpt>
      <trkpt lat="34.988596" lon="33.985059"></trkpt>
      <trkpt lat="34.988866" lon="33.981324"></trkpt>
      <trkpt lat="34.989355" lon="33.979264"></trkpt>
      <trkpt lat="34.989508" lon="33.976366"></trkpt>
      <trkpt lat="34.990173" lon="33.97394"></trkpt>
      <trkpt lat="34.990311" lon="33.972835"></trkpt>
      <trkpt lat="34.990276" lon="33.971737"></trkpt>
      <trkpt lat="34.990666" lon="33.971616"></trkpt>
      <trkpt lat="34.991" lon="33.969965"></trkpt>
      <trkpt lat="34.991086" lon="33.96886"></trkpt>
      <trkpt lat="34.990819" lon="33.966941"></trkpt>
      <trkpt lat="34.99082" lon="33.965871"></trkpt>
      <trkpt lat="34.991339" lon="33.963596"></trkpt>
      <trkpt lat="34.992105" lon="33.961155"></trkpt>
      <trkpt lat="34.991655" lon="33.96048"></trkpt>
      <trkpt lat="34.991721" lon="33.960142"></trkpt>
      <trkpt lat="34.99208" lon="33.959644"></trkpt>
      <trkpt lat="34.991322" lon="33.955967"></trkpt>
      <trkpt lat="34.990675" lon="33.950408"></trkpt>
      <trkpt lat="34.990413" lon="33.948988"></trkpt>
      <trkpt lat="34.988052" lon="33.941307"></trkpt>
      <trkpt lat="34.986162" lon="33.931997"></trkpt>
      <trkpt lat="34.983518" lon="33.923751"></trkpt>
      <trkpt lat="34.980048" lon="33.911505"></trkpt>
      <trkpt lat="34.978147" lon="33.905568"></trkpt>
      <trkpt lat="34.977953" lon="33.904104"></trkpt>
      <trkpt lat="34.977797" lon="33.894937"></trkpt>
      <trkpt lat="34.977677" lon="33.893274"></trkpt>
      <trkpt lat="34.976495" lon="33.884617"></trkpt>
      <trkpt lat="34.976298" lon="33.880977"></trkpt>
      <trkpt lat="34.975848" lon="33.878349"></trkpt>
      <trkpt lat="34.975091" lon="33.876251"></trkpt>
      <trkpt lat="34.974005" lon="33.874366"></trkpt>
      <trkpt lat="34.972678" lon="33.872803"></trkpt>
      <trkpt lat="34.971157" lon="33.871379"></trkpt>
      <trkpt lat="34.969859" lon="33.869729"></trkpt>
      <trkpt lat="34.96879" lon="33.867663"></trkpt>
      <trkpt lat="34.968192" lon="33.865677"></trkpt>
      <trkpt lat="34.967551" lon="33.860777"></trkpt>
      <trkpt lat="34.967387" lon="33.858388"></trkpt>
      <trkpt lat="34.967326" lon="33.854005"></trkpt>
      <trkpt lat="34.967537" lon="33.849644"></trkpt>
      <trkpt lat="34.968241" lon="33.844015"></trkpt>
      <trkpt lat="34.968744" lon="33.841707"></trkpt>
      <trkpt lat="34.969407" lon="33.839639"></trkpt>
      <trkpt lat="34.97098" lon="33.835958"></trkpt>
      <trkpt lat="34.971821" lon="33.832879"></trkpt>
      <trkpt lat="34.972211" lon="33.829942"></trkpt>
      <trkpt lat="34.972329" lon="33.826384"></trkpt>
      <trkpt lat="34.972507" lon="33.82436"></trkpt>
      <trkpt lat="34.973148" lon="33.820673"></trkpt>
      <trkpt lat="34.9737" lon="33.818468"></trkpt>
      <trkpt lat="34.974735" lon="33.815551"></trkpt>
      <trkpt lat="34.975614" lon="33.813986"></trkpt>
      <trkpt lat="34.976911" lon="33.812078"></trkpt>
      <trkpt lat="34.977818" lon="33.810162"></trkpt>
      <trkpt lat="34.981143" lon="33.799129"></trkpt>
      <trkpt lat="34.981416" lon="33.79684"></trkpt>
      <trkpt lat="34.981435" lon="33.795685"></trkpt>
      <trkpt lat="34.981221" lon="33.79338"></trkpt>
      <trkpt lat="34.980628" lon="33.790923"></trkpt>
      <trkpt lat="34.980098" lon="33.789431"></trkpt>
      <trkpt lat="34.97961" lon="33.786843"></trkpt>
      <trkpt lat="34.979564" lon="33.785384"></trkpt>
      <trkpt lat="34.979663" lon="33.784166"></trkpt>
      <trkpt lat="34.979894" lon="33.782854"></trkpt>
      <trkpt lat="34.980264" lon="33.781614"></trkpt>
      <trkpt lat="34.981321" lon="33.779397"></trkpt>
      <trkpt lat="34.983247" lon="33.776335"></trkpt>
      <trkpt lat="34.983933" lon="33.775423"></trkpt>
      <trkpt lat="34.985996" lon="33.773195"></trkpt>
      <trkpt lat="34.987028" lon="33.771696"></trkpt>
      <trkpt lat="34.988417" lon="33.768609"></trkpt>
      <trkpt lat="34.991859" lon="33.760298"></trkpt>
      <trkpt lat="34.992469" lon="33.759222"></trkpt>
      <trkpt lat="34.992916" lon="33.758652"></trkpt>
      <trkpt lat="34.99397" lon="33.757787"></trkpt>
      <trkpt lat="34.995378" lon="33.75718"></trkpt>
      <trkpt lat="34.99795" lon="33.756362"></trkpt>
      <trkpt lat="34.998825" lon="33.755882"></trkpt>
      <trkpt lat="34.999866" lon="33.754971"></trkpt>
      <trkpt lat="35.001498" lon="33.752939"></trkpt>
      <trkpt lat="35.003025" lon="33.750491"></trkpt>
      <trkpt lat="35.004247" lon="33.747875"></trkpt>
      <trkpt lat="35.005192" lon="33.745188"></trkpt>
      <trkpt lat="35.00618" lon="33.740898"></trkpt>
      <trkpt lat="35.006547" lon="33.737893"></trkpt>
      <trkpt lat="35.006655" lon="33.73532"></trkpt>
      <trkpt lat="35.006517" lon="33.728711"></trkpt>
      <trkpt lat="35.006596" lon="33.726614"></trkpt>
      <trkpt lat="35.00785" lon="33.708939"></trkpt>
      <trkpt lat="35.007773" lon="33.707569"></trkpt>
      <trkpt lat="35.007546" lon="33.706264"></trkpt>
      <trkpt lat="35.007099" lon="33.704979"></trkpt>
      <trkpt lat="35.006198" lon="33.703437"></trkpt>
      <trkpt lat="35.005122" lon="33.702288"></trkpt>
      <trkpt lat="35.003756" lon="33.701397"></trkpt>
      <trkpt lat="35.002967" lon="33.701092"></trkpt>
      <trkpt lat="35.001699" lon="33.700858"></trkpt>
      <trkpt lat="34.999573" lon="33.700923"></trkpt>
      <trkpt lat="34.998603" lon="33.700784"></trkpt>
      <trkpt lat="34.997172" lon="33.700242"></trkpt>
      <trkpt lat="34.996" lon="33.699456"></trkpt>
      <trkpt lat="34.984294" lon="33.688493"></trkpt>
      <trkpt lat="34.983604" lon="33.68774"></trkpt>
      <trkpt lat="34.982284" lon="33.685833"></trkpt>
      <trkpt lat="34.981308" lon="33.683778"></trkpt>
      <trkpt lat="34.980467" lon="33.680686"></trkpt>
      <trkpt lat="34.979292" lon="33.67265"></trkpt>
      <trkpt lat="34.978409" lon="33.669348"></trkpt>
      <trkpt lat="34.977144" lon="33.666366"></trkpt>
      <trkpt lat="34.975023" lon="33.662559"></trkpt>
      <trkpt lat="34.973612" lon="33.659553"></trkpt>
      <trkpt lat="34.970599" lon="33.650518"></trkpt>
      <trkpt lat="34.969808" lon="33.648671"></trkpt>
      <trkpt lat="34.96621" lon="33.641428"></trkpt>
      <trkpt lat="34.965458" lon="33.639568"></trkpt>
      <trkpt lat="34.964812" lon="33.637141"></trkpt>
      <trkpt lat="34.96451" lon="33.63496"></trkpt>
      <trkpt lat="34.963433" lon="33.617589"></trkpt>
      <trkpt lat="34.96336" lon="33.607054"></trkpt>
      <trkpt lat="34.962477" lon="33.586768"></trkpt>
      <trkpt lat="34.962316" lon="33.58533"></trkpt>
      <trkpt lat="34.962061" lon="33.584267"></trkpt>
      <trkpt lat="34.961254" lon="33.582235"></trkpt>
      <trkpt lat="34.960704" lon="33.581299"></trkpt>
      <trkpt lat="34.959992" lon="33.5804"></trkpt>
      <trkpt lat="34.959358" lon="33.579741"></trkpt>
      <trkpt lat="34.958574" lon="33.579144"></trkpt>
      <trkpt lat="34.954918" lon="33.576928"></trkpt>
      <trkpt lat="34.954172" lon="33.576343"></trkpt>
      <trkpt lat="34.953333" lon="33.575228"></trkpt>
      <trkpt lat="34.952839" lon="33.574051"></trkpt>
      <trkpt lat="34.952437" lon="33.573739"></trkpt>
      <trkpt lat="34.952292" lon="33.573246"></trkpt>
      <trkpt lat="34.952384" lon="33.572993"></trkpt>
      <trkpt lat="34.952611" lon="33.572822"></trkpt>
      <trkpt lat="34.953099" lon="33.572695"></trkpt>
      <trkpt lat="34.953687" lon="33.57289"></trkpt>
      <trkpt lat="34.955368" lon="33.572467"></trkpt>
      <trkpt lat="34.956795" lon="33.571926"></trkpt>
      <trkpt lat="34.958261" lon="33.571139"></trkpt>
      <trkpt lat="34.959289" lon="33.57039"></trkpt>
      <trkpt lat="34.960342" lon="33.569401"></trkpt>
      <trkpt lat="34.96112" lon="33.568473"></trkpt>
      <trkpt lat="34.962094" lon="33.566929"></trkpt>
      <trkpt lat="34.963262" lon="33.564354"></trkpt>
      <trkpt lat="34.976406" lon="33.532987"></trkpt>
      <trkpt lat="34.977355" lon="33.529954"></trkpt>
      <trkpt lat="34.978697" lon="33.523017"></trkpt>
      <trkpt lat="34.979552" lon="33.520323"></trkpt>
      <trkpt lat="34.980764" lon="33.517866"></trkpt>
      <trkpt lat="34.991774" lon="33.49757"></trkpt>
      <trkpt lat="34.992551" lon="33.496054"></trkpt>
      <trkpt lat="34.993375" lon="33.493814"></trkpt>
      <trkpt lat="34.993714" lon="33.492402"></trkpt>
      <trkpt lat="34.994005" lon="33.490456"></trkpt>
      <trkpt lat="34.994118" lon="33.488073"></trkpt>
      <trkpt lat="34.994066" lon="33.486845"></trkpt>
      <trkpt lat="34.993762" lon="33.484681"></trkpt>
      <trkpt lat="34.990579" lon="33.468533"></trkpt>
      <trkpt lat="34.99032" lon="33.465562"></trkpt>
      <trkpt lat="34.99032" lon="33.463446"></trkpt>
      <trkpt lat="34.990457" lon="33.461598"></trkpt>
      <trkpt lat="34.990664" lon="33.460111"></trkpt>
      <trkpt lat="34.991212" lon="33.4576"></trkpt>
      <trkpt lat="34.996044" lon="33.440823"></trkpt>
      <trkpt lat="34.996973" lon="33.436929"></trkpt>
      <trkpt lat="34.997492" lon="33.433609"></trkpt>
      <trkpt lat="34.997839" lon="33.429918"></trkpt>
      <trkpt lat="34.999954" lon="33.403937"></trkpt>
      <trkpt lat="35.000444" lon="33.401609"></trkpt>
      <trkpt lat="35.000915" lon="33.400007"></trkpt>
      <trkpt lat="35.003384" lon="33.394251"></trkpt>
      <trkpt lat="35.003722" lon="33.393248"></trkpt>
      <trkpt lat="35.004192" lon="33.389952"></trkpt>
      <trkpt lat="35.004564" lon="33.388678"></trkpt>
      <trkpt lat="35.005073" lon="33.387938"></trkpt>
      <trkpt lat="35.00543" lon="33.387626"></trkpt>
      <trkpt lat="35.007704" lon="33.38657"></trkpt>
      <trkpt lat="35.012303" lon="33.383722"></trkpt>
      <trkpt lat="35.014264" lon="33.382782"></trkpt>
      <trkpt lat="35.01595" lon="33.382133"></trkpt>
      <trkpt lat="35.018612" lon="33.381366"></trkpt>
      <trkpt lat="35.022144" lon="33.380822"></trkpt>
      <trkpt lat="35.02458" lon="33.380722"></trkpt>
      <trkpt lat="35.027876" lon="33.380984"></trkpt>
      <trkpt lat="35.046599" lon="33.385062"></trkpt>
      <trkpt lat="35.049007" lon="33.385276"></trkpt>
      <trkpt lat="35.050668" lon="33.385166"></trkpt>
      <trkpt lat="35.050755" lon="33.385084"></trkpt>
      <trkpt lat="35.052089" lon="33.381585"></trkpt>
      <trkpt lat="35.052473" lon="33.378907"></trkpt>
      <trkpt lat="35.053756" lon="33.375892"></trkpt>
      <trkpt lat="35.054277" lon="33.375096"></trkpt>
      <trkpt lat="35.056763" lon="33.372605"></trkpt>
      <trkpt lat="35.057468" lon="33.371743"></trkpt>
      <trkpt lat="35.058171" lon="33.370521"></trkpt>
      <trkpt lat="35.058639" lon="33.369349"></trkpt>
      <trkpt lat="35.059063" lon="33.367075"></trkpt>
      <trkpt lat="35.059417" lon="33.353954"></trkpt>
      <trkpt lat="35.05968" lon="33.35216"></trkpt>
      <trkpt lat="35.060264" lon="33.350311"></trkpt>
      <trkpt lat="35.061735" lon="33.346747"></trkpt>
      <trkpt lat="35.064191" lon="33.34287"></trkpt>
      <trkpt lat="35.064568" lon="33.341708"></trkpt>
      <trkpt lat="35.065096" lon="33.339263"></trkpt>
      <trkpt lat="35.066446" lon="33.335968"></trkpt>
      <trkpt lat="35.067075" lon="33.333962"></trkpt>
      <trkpt lat="35.06829" lon="33.331348"></trkpt>
      <trkpt lat="35.069383" lon="33.328586"></trkpt>
      <trkpt lat="35.069927" lon="33.327117"></trkpt>
      <trkpt lat="35.070141" lon="33.32618"></trkpt>
      <trkpt lat="35.070766" lon="33.324763"></trkpt>
      <trkpt lat="35.07124" lon="33.324842"></trkpt>
      <trkpt lat="35.072003" lon="33.324097"></trkpt>
      <trkpt lat="35.072827" lon="33.324285"></trkpt>
      <trkpt lat="35.073584" lon="33.324218"></trkpt>
      <trkpt lat="35.074045" lon="33.323379"></trkpt>
      <trkpt lat="35.074289" lon="33.323461"></trkpt>
      <trkpt lat="35.074419" lon="33.323071"></trkpt>
      <trkpt lat="35.075173" lon="33.322716"></trkpt>
      <trkpt lat="35.075582" lon="33.32229"></trkpt>
      <trkpt lat="35.07551" lon="33.317709"></trkpt>
      <trkpt lat="35.076378" lon="33.314911"></trkpt>
      <trkpt lat="35.077598" lon="33.309978"></trkpt>
      <trkpt lat="35.07791" lon="33.309199"></trkpt>
      <trkpt lat="35.080136" lon="33.305084"></trkpt>
      <trkpt lat="35.081913" lon="33.300644"></trkpt>
      <trkpt lat="35.084103" lon="33.295735"></trkpt>
      <trkpt lat="35.084254" lon="33.290859"></trkpt>
      <trkpt lat="35.084662" lon="33.288416"></trkpt>
      <trkpt lat="35.085124" lon="33.286731"></trkpt>
      <trkpt lat="35.086254" lon="33.284533"></trkpt>
      <trkpt lat="35.086745" lon="33.282527"></trkpt>
      <trkpt lat="35.086916" lon="33.282237"></trkpt>
      <trkpt lat="35.086801" lon="33.281051"></trkpt>
      <trkpt lat="35.086269" lon="33.279904"></trkpt>
      <trkpt lat="35.085932" lon="33.278339"></trkpt>
      <trkpt lat="35.086902" lon="33.278037"></trkpt>
      <trkpt lat="35.087107" lon="33.277284"></trkpt>
      <trkpt lat="35.087319" lon="33.27707"></trkpt>
      <trkpt lat="35.08776" lon="33.277096"></trkpt>
      <trkpt lat="35.088513" lon="33.277691"></trkpt>
      <trkpt lat="35.08934" lon="33.277739"></trkpt>
      <trkpt lat="35.090301" lon="33.278495"></trkpt>
      <trkpt lat="35.091045" lon="33.278368"></trkpt>
      <trkpt lat="35.091349" lon="33.278057"></trkpt>
      <trkpt lat="35.090156" lon="33.26879"></trkpt>
      <trkpt lat="35.084601" lon="33.248645"></trkpt>
      <trkpt lat="35.083983" lon="33.246603"></trkpt>
      <trkpt lat="35.083433" lon="33.245316"></trkpt>
      <trkpt lat="35.082333" lon="33.243675"></trkpt>
      <trkpt lat="35.07931" lon="33.240868"></trkpt>
      <trkpt lat="35.072661" lon="33.232999"></trkpt>
      <trkpt lat="35.070073" lon="33.229383"></trkpt>
      <trkpt lat="35.068786" lon="33.227353"></trkpt>
      <trkpt lat="35.06831" lon="33.225631"></trkpt>
      <trkpt lat="35.068993" lon="33.221124"></trkpt>
      <trkpt lat="35.069013" lon="33.219821"></trkpt>
      <trkpt lat="35.068543" lon="33.217789"></trkpt>
      <trkpt lat="35.067478" lon="33.214487"></trkpt>
      <trkpt lat="35.067122" lon="33.213754"></trkpt>
      <trkpt lat="35.066394" lon="33.212766"></trkpt>
      <trkpt lat="35.062601" lon="33.209233"></trkpt>
      <trkpt lat="35.061052" lon="33.208146"></trkpt>
      <trkpt lat="35.066391" lon="33.194543"></trkpt>
      <trkpt lat="35.067585" lon="33.191238"></trkpt>
      <trkpt lat="35.071464" lon="33.177515"></trkpt>
      <trkpt lat="35.072135" lon="33.174447"></trkpt>
      <trkpt lat="35.073058" lon="33.166409"></trkpt>
      <trkpt lat="35.072901" lon="33.164928"></trkpt>
      <trkpt lat="35.07176" lon="33.15938"></trkpt>
      <trkpt lat="35.071646" lon="33.157473"></trkpt>
      <trkpt lat="35.072502" lon="33.148342"></trkpt>
      <trkpt lat="35.073089" lon="33.129647"></trkpt>
      <trkpt lat="35.072967" lon="33.128338"></trkpt>
      <trkpt lat="35.072379" lon="33.125989"></trkpt>
      <trkpt lat="35.067337" lon="33.110144"></trkpt>
      <trkpt lat="35.065759" lon="33.103526"></trkpt>
      <trkpt lat="35.064897" lon="33.101414"></trkpt>
      <trkpt lat="35.064669" lon="33.100446"></trkpt>
      <trkpt lat="35.064721" lon="33.099357"></trkpt>
      <trkpt lat="35.065063" lon="33.098186"></trkpt>
      <trkpt lat="35.065607" lon="33.097148"></trkpt>
      <trkpt lat="35.06645" lon="33.09639"></trkpt>
      <trkpt lat="35.066836" lon="33.09577"></trkpt>
      <trkpt lat="35.067521" lon="33.090696"></trkpt>
      <trkpt lat="35.064998" lon="33.090053"></trkpt>
      <trkpt lat="35.062172" lon="33.089066"></trkpt>
      <trkpt lat="35.061102" lon="33.088317"></trkpt>
      <trkpt lat="35.059473" lon="33.086282"></trkpt>
      <trkpt lat="35.058792" lon="33.085732"></trkpt>
      <trkpt lat="35.057884" lon="33.085331"></trkpt>
      <trkpt lat="35.055059" lon="33.084825"></trkpt>
      <trkpt lat="35.05504" lon="33.083836"></trkpt>
      <trkpt lat="35.054723" lon="33.082841"></trkpt>
      <trkpt lat="35.054402" lon="33.082154"></trkpt>
      <trkpt lat="35.052629" lon="33.079383"></trkpt>
      <trkpt lat="35.052071" lon="33.077876"></trkpt>
      <trkpt lat="35.05184" lon="33.076242"></trkpt>
      <trkpt lat="35.051831" lon="33.073711"></trkpt>
      <trkpt lat="35.05128" lon="33.071297"></trkpt>
      <trkpt lat="35.050705" lon="33.069432"></trkpt>
      <trkpt lat="35.050244" lon="33.068445"></trkpt>
      <trkpt lat="35.04941" lon="33.067082"></trkpt>
      <trkpt lat="35.048393" lon="33.0649"></trkpt>
      <trkpt lat="35.05099" lon="33.063542"></trkpt>
      <trkpt lat="35.051408" lon="33.062902"></trkpt>
      <trkpt lat="35.051258" lon="33.061602"></trkpt>
      <trkpt lat="35.050822" lon="33.060134"></trkpt>
      <trkpt lat="35.050271" lon="33.059416"></trkpt>
      <trkpt lat="35.0501" lon="33.058825"></trkpt>
      <trkpt lat="35.049666" lon="33.058537"></trkpt>
      <trkpt lat="35.049569" lon="33.058045"></trkpt>
      <trkpt lat="35.049684" lon="33.057774"></trkpt>
      <trkpt lat="35.050415" lon="33.057252"></trkpt>
      <trkpt lat="35.05145" lon="33.055454"></trkpt>
      <trkpt lat="35.052016" lon="33.054842"></trkpt>
      <trkpt lat="35.052027" lon="33.054243"></trkpt>
      <trkpt lat="35.051776" lon="33.053588"></trkpt>
      <trkpt lat="35.051619" lon="33.052632"></trkpt>
      <trkpt lat="35.052313" lon="33.049026"></trkpt>
      <trkpt lat="35.05196" lon="33.048033"></trkpt>
      <trkpt lat="35.052009" lon="33.047496"></trkpt>
      <trkpt lat="35.051818" lon="33.046684"></trkpt>
      <trkpt lat="35.051503" lon="33.04624"></trkpt>
      <trkpt lat="35.05144" lon="33.045856"></trkpt>
      <trkpt lat="35.051572" lon="33.045345"></trkpt>
      <trkpt lat="35.052188" lon="33.044185"></trkpt>
      <trkpt lat="35.052744" lon="33.042149"></trkpt>
      <trkpt lat="35.053677" lon="33.040972"></trkpt>
      <trkpt lat="35.053727" lon="33.038187"></trkpt>
      <trkpt lat="35.055688" lon="33.032441"></trkpt>
      <trkpt lat="35.0552" lon="33.031359"></trkpt>
      <trkpt lat="35.055207" lon="33.030278"></trkpt>
      <trkpt lat="35.0555" lon="33.029896"></trkpt>
      <trkpt lat="35.056706" lon="33.029348"></trkpt>
      <trkpt lat="35.057355" lon="33.028551"></trkpt>
      <trkpt lat="35.057858" lon="33.028226"></trkpt>
      <trkpt lat="35.058456" lon="33.028031"></trkpt>
      <trkpt lat="35.058497" lon="33.027816"></trkpt>
      <trkpt lat="35.057134" lon="33.028176"></trkpt>
      <trkpt lat="35.056878" lon="33.028129"></trkpt>
      <trkpt lat="35.055894" lon="33.027541"></trkpt>
      <trkpt lat="35.053845" lon="33.027097"></trkpt>
      <trkpt lat="35.051107" lon="33.02719"></trkpt>
      <trkpt lat="35.050389" lon="33.027077"></trkpt>
      <trkpt lat="35.049936" lon="33.026914"></trkpt>
      <trkpt lat="35.049072" lon="33.026273"></trkpt>
      <trkpt lat="35.04751" lon="33.025987"></trkpt>
      <trkpt lat="35.046239" lon="33.024937"></trkpt>
      <trkpt lat="35.045369" lon="33.024701"></trkpt>
      <trkpt lat="35.044422" lon="33.023585"></trkpt>
      <trkpt lat="35.042844" lon="33.023536"></trkpt>
      <trkpt lat="35.042197" lon="33.022944"></trkpt>
      <trkpt lat="35.041956" lon="33.023028"></trkpt>
      <trkpt lat="35.041032" lon="33.023942"></trkpt>
      <trkpt lat="35.040735" lon="33.023965"></trkpt>
      <trkpt lat="35.040603" lon="33.023836"></trkpt>
      <trkpt lat="35.040248" lon="33.022698"></trkpt>
      <trkpt lat="35.039976" lon="33.022592"></trkpt>
      <trkpt lat="35.039488" lon="33.022628"></trkpt>
      <trkpt lat="35.039068" lon="33.022191"></trkpt>
      <trkpt lat="35.038385" lon="33.021974"></trkpt>
      <trkpt lat="35.038115" lon="33.021766"></trkpt>
      <trkpt lat="35.037313" lon="33.020484"></trkpt>
      <trkpt lat="35.036947" lon="33.019509"></trkpt>
      <trkpt lat="35.036652" lon="33.019269"></trkpt>
      <trkpt lat="35.03601" lon="33.01911"></trkpt>
      <trkpt lat="35.03578" lon="33.018942"></trkpt>
      <trkpt lat="35.035165" lon="33.017843"></trkpt>
      <trkpt lat="35.034287" lon="33.017159"></trkpt>
      <trkpt lat="35.034174" lon="33.016458"></trkpt>
      <trkpt lat="35.033979" lon="33.016098"></trkpt>
      <trkpt lat="35.032939" lon="33.015675"></trkpt>
      <trkpt lat="35.032001" lon="33.015097"></trkpt>
      <trkpt lat="35.031006" lon="33.014727"></trkpt>
      <trkpt lat="35.030336" lon="33.014773"></trkpt>
      <trkpt lat="35.030193" lon="33.014666"></trkpt>
      <trkpt lat="35.030132" lon="33.013939"></trkpt>
      <trkpt lat="35.029977" lon="33.013569"></trkpt>
      <trkpt lat="35.028796" lon="33.011959"></trkpt>
      <trkpt lat="35.027822" lon="33.010979"></trkpt>
      <trkpt lat="35.027502" lon="33.010844"></trkpt>
      <trkpt lat="35.026476" lon="33.010857"></trkpt>
      <trkpt lat="35.024902" lon="33.010018"></trkpt>
      <trkpt lat="35.02446" lon="33.01"></trkpt>
      <trkpt lat="35.023093" lon="33.009053"></trkpt>
      <trkpt lat="35.022364" lon="33.008268"></trkpt>
      <trkpt lat="35.020495" lon="33.007803"></trkpt>
      <trkpt lat="35.019245" lon="33.007234"></trkpt>
      <trkpt lat="35.017661" lon="33.007167"></trkpt>
      <trkpt lat="35.016828" lon="33.007769"></trkpt>
      <trkpt lat="35.016191" lon="33.007719"></trkpt>
      <trkpt lat="35.015549" lon="33.007059"></trkpt>
      <trkpt lat="35.015281" lon="33.00626"></trkpt>
      <trkpt lat="35.014655" lon="33.005651"></trkpt>
      <trkpt lat="35.013876" lon="33.005251"></trkpt>
      <trkpt lat="35.013212" lon="33.005325"></trkpt>
      <trkpt lat="35.012862" lon="33.005084"></trkpt>
      <trkpt lat="35.012181" lon="33.004864"></trkpt>
      <trkpt lat="35.011257" lon="33.004786"></trkpt>
      <trkpt lat="35.010899" lon="33.004581"></trkpt>
      <trkpt lat="35.010512" lon="33.004136"></trkpt>
      <trkpt lat="35.009075" lon="33.003232"></trkpt>
      <trkpt lat="35.00594" lon="33.001546"></trkpt>
      <trkpt lat="35.00469" lon="32.999952"></trkpt>
      <trkpt lat="35.00391" lon="32.999494"></trkpt>
      <trkpt lat="35.003197" lon="32.998858"></trkpt>
      <trkpt lat="35.001782" lon="32.996422"></trkpt>
      <trkpt lat="35.001558" lon="32.996279"></trkpt>
      <trkpt lat="34.999796" lon="32.996155"></trkpt>
      <trkpt lat="34.999501" lon="32.995725"></trkpt>
      <trkpt lat="34.999398" lon="32.994644"></trkpt>
      <trkpt lat="34.999119" lon="32.994227"></trkpt>
      <trkpt lat="34.998769" lon="32.994084"></trkpt>
      <trkpt lat="34.997898" lon="32.994036"></trkpt>
      <trkpt lat="34.997568" lon="32.99384"></trkpt>
      <trkpt lat="34.997452" lon="32.99366"></trkpt>
      <trkpt lat="34.997294" lon="32.992101"></trkpt>
      <trkpt lat="34.997187" lon="32.991879"></trkpt>
      <trkpt lat="34.996576" lon="32.991583"></trkpt>
      <trkpt lat="34.996473" lon="32.991435"></trkpt>
      <trkpt lat="34.996386" lon="32.990362"></trkpt>
      <trkpt lat="34.996145" lon="32.989993"></trkpt>
      <trkpt lat="34.995568" lon="32.989672"></trkpt>
      <trkpt lat="34.994474" lon="32.989822"></trkpt>
      <trkpt lat="34.993954" lon="32.98938"></trkpt>
      <trkpt lat="34.993505" lon="32.988728"></trkpt>
      <trkpt lat="34.992793" lon="32.988363"></trkpt>
      <trkpt lat="34.992628" lon="32.987398"></trkpt>
      <trkpt lat="34.992748" lon="32.986682"></trkpt>
      <trkpt lat="34.992631" lon="32.98629"></trkpt>
      <trkpt lat="34.992323" lon="32.98593"></trkpt>
      <trkpt lat="34.991289" lon="32.985457"></trkpt>
      <trkpt lat="34.99119" lon="32.984572"></trkpt>
      <trkpt lat="34.990589" lon="32.983994"></trkpt>
      <trkpt lat="34.99031" lon="32.983136"></trkpt>
      <trkpt lat="34.989958" lon="32.981341"></trkpt>
      <trkpt lat="34.989689" lon="32.981035"></trkpt>
      <trkpt lat="34.989403" lon="32.981018"></trkpt>
      <trkpt lat="34.989241" lon="32.980863"></trkpt>
      <trkpt lat="34.988945" lon="32.980158"></trkpt>
      <trkpt lat="34.988774" lon="32.980063"></trkpt>
      <trkpt lat="34.98859" lon="32.980111"></trkpt>
      <trkpt lat="34.987972" lon="32.980458"></trkpt>
      <trkpt lat="34.986528" lon="32.979911"></trkpt>
      <trkpt lat="34.98633" lon="32.979634"></trkpt>
      <trkpt lat="34.986155" lon="32.978659"></trkpt>
      <trkpt lat="34.985798" lon="32.978364"></trkpt>
      <trkpt lat="34.984138" lon="32.97833"></trkpt>
      <trkpt lat="34.984033" lon="32.977894"></trkpt>
      <trkpt lat="34.983345" lon="32.977191"></trkpt>
      <trkpt lat="34.983156" lon="32.977098"></trkpt>
      <trkpt lat="34.982826" lon="32.977367"></trkpt>
      <trkpt lat="34.982009" lon="32.976838"></trkpt>
      <trkpt lat="34.981678" lon="32.976915"></trkpt>
      <trkpt lat="34.980958" lon="32.976391"></trkpt>
      <trkpt lat="34.980618" lon="32.97633"></trkpt>
      <trkpt lat="34.980613" lon="32.976223"></trkpt>
      <trkpt lat="34.980981" lon="32.976064"></trkpt>
      <trkpt lat="34.98123" lon="32.976123"></trkpt>
      <trkpt lat="34.981677" lon="32.975912"></trkpt>
      <trkpt lat="34.981893" lon="32.975607"></trkpt>
      <trkpt lat="34.981785" lon="32.974793"></trkpt>
      <trkpt lat="34.981361" lon="32.9745"></trkpt>
      <trkpt lat="34.981163" lon="32.974035"></trkpt>
      <trkpt lat="34.981161" lon="32.972814"></trkpt>
      <trkpt lat="34.980926" lon="32.972432"></trkpt>
      <trkpt lat="34.98097" lon="32.971927"></trkpt>
      <trkpt lat="34.981162" lon="32.971547"></trkpt>
      <trkpt lat="34.981566" lon="32.972081"></trkpt>
      <trkpt lat="34.981804" lon="32.972167"></trkpt>
      <trkpt lat="34.981452" lon="32.971699"></trkpt>
      <trkpt lat="34.981412" lon="32.970649"></trkpt>
      <trkpt lat="34.981572" lon="32.970054"></trkpt>
      <trkpt lat="34.981396" lon="32.969712"></trkpt>
      <trkpt lat="34.980998" lon="32.969505"></trkpt>
      <trkpt lat="34.980838" lon="32.969017"></trkpt>
      <trkpt lat="34.980617" lon="32.968847"></trkpt>
      <trkpt lat="34.979752" lon="32.968886"></trkpt>
      <trkpt lat="34.979299" lon="32.969337"></trkpt>
      <trkpt lat="34.979265" lon="32.969911"></trkpt>
      <trkpt lat="34.978481" lon="32.970471"></trkpt>
      <trkpt lat="34.977417" lon="32.970731"></trkpt>
      <trkpt lat="34.977278" lon="32.971196"></trkpt>
      <trkpt lat="34.976737" lon="32.97094"></trkpt>
      <trkpt lat="34.976556" lon="32.971247"></trkpt>
      <trkpt lat="34.976194" lon="32.971342"></trkpt>
      <trkpt lat="34.975816" lon="32.971075"></trkpt>
      <trkpt lat="34.975628" lon="32.970614"></trkpt>
      <trkpt lat="34.975019" lon="32.970655"></trkpt>
      <trkpt lat="34.974499" lon="32.970419"></trkpt>
      <trkpt lat="34.973842" lon="32.97116"></trkpt>
      <trkpt lat="34.97353" lon="32.971684"></trkpt>
      <trkpt lat="34.973214" lon="32.971823"></trkpt>
      <trkpt lat="34.97297" lon="32.971789"></trkpt>
      <trkpt lat="34.972364" lon="32.971472"></trkpt>
      <trkpt lat="34.972085" lon="32.971559"></trkpt>
      <trkpt lat="34.971559" lon="32.972131"></trkpt>
      <trkpt lat="34.971574" lon="32.971695"></trkpt>
      <trkpt lat="34.97179" lon="32.971254"></trkpt>
      <trkpt lat="34.973035" lon="32.970868"></trkpt>
      <trkpt lat="34.973168" lon="32.970323"></trkpt>
      <trkpt lat="34.97307" lon="32.969664"></trkpt>
      <trkpt lat="34.97368" lon="32.968333"></trkpt>
      <trkpt lat="34.973994" lon="32.96817"></trkpt>
      <trkpt lat="34.974516" lon="32.967463"></trkpt>
      <trkpt lat="34.97502" lon="32.967602"></trkpt>
      <trkpt lat="34.975134" lon="32.967497"></trkpt>
      <trkpt lat="34.974434" lon="32.9672"></trkpt>
      <trkpt lat="34.973692" lon="32.967808"></trkpt>
      <trkpt lat="34.97328" lon="32.967965"></trkpt>
      <trkpt lat="34.972431" lon="32.968975"></trkpt>
      <trkpt lat="34.972178" lon="32.968951"></trkpt>
      <trkpt lat="34.972031" lon="32.968775"></trkpt>
      <trkpt lat="34.971989" lon="32.968475"></trkpt>
      <trkpt lat="34.97247" lon="32.966827"></trkpt>
      <trkpt lat="34.972457" lon="32.966379"></trkpt>
      <trkpt lat="34.972279" lon="32.966194"></trkpt>
      <trkpt lat="34.971983" lon="32.966161"></trkpt>
      <trkpt lat="34.971285" lon="32.966278"></trkpt>
      <trkpt lat="34.971037" lon="32.966065"></trkpt>
      <trkpt lat="34.971002" lon="32.965731"></trkpt>
      <trkpt lat="34.971264" lon="32.965264"></trkpt>
      <trkpt lat="34.971275" lon="32.964911"></trkpt>
      <trkpt lat="34.971035" lon="32.964456"></trkpt>
      <trkpt lat="34.97112" lon="32.96324"></trkpt>
      <trkpt lat="34.971002" lon="32.963049"></trkpt>
      <trkpt lat="34.970285" lon="32.963177"></trkpt>
      <trkpt lat="34.969975" lon="32.962906"></trkpt>
      <trkpt lat="34.968872" lon="32.962783"></trkpt>
      <trkpt lat="34.968485" lon="32.962489"></trkpt>
      <trkpt lat="34.968209" lon="32.962093"></trkpt>
      <trkpt lat="34.966749" lon="32.961717"></trkpt>
      <trkpt lat="34.966477" lon="32.961916"></trkpt>
      <trkpt lat="34.966413" lon="32.96244"></trkpt>
      <trkpt lat="34.965905" lon="32.962355"></trkpt>
      <trkpt lat="34.965512" lon="32.963011"></trkpt>
      <trkpt lat="34.965311" lon="32.963163"></trkpt>
      <trkpt lat="34.964749" lon="32.963426"></trkpt>
      <trkpt lat="34.964193" lon="32.963434"></trkpt>
      <trkpt lat="34.964048" lon="32.963193"></trkpt>
      <trkpt lat="34.964223" lon="32.962453"></trkpt>
      <trkpt lat="34.964005" lon="32.962196"></trkpt>
      <trkpt lat="34.963864" lon="32.961754"></trkpt>
      <trkpt lat="34.963333" lon="32.961099"></trkpt>
      <trkpt lat="34.962897" lon="32.960893"></trkpt>
      <trkpt lat="34.962048" lon="32.96131"></trkpt>
      <trkpt lat="34.961451" lon="32.961288"></trkpt>
      <trkpt lat="34.960844" lon="32.9618"></trkpt>
      <trkpt lat="34.959523" lon="32.96142"></trkpt>
      <trkpt lat="34.959357" lon="32.961477"></trkpt>
      <trkpt lat="34.959224" lon="32.962124"></trkpt>
      <trkpt lat="34.958988" lon="32.962517"></trkpt>
      <trkpt lat="34.959056" lon="32.962947"></trkpt>
      <trkpt lat="34.958883" lon="32.963529"></trkpt>
      <trkpt lat="34.958294" lon="32.963452"></trkpt>
      <trkpt lat="34.957834" lon="32.963947"></trkpt>
      <trkpt lat="34.958102" lon="32.964609"></trkpt>
      <trkpt lat="34.958157" lon="32.965375"></trkpt>
      <trkpt lat="34.958547" lon="32.965549"></trkpt>
      <trkpt lat="34.959364" lon="32.965449"></trkpt>
      <trkpt lat="34.959634" lon="32.965519"></trkpt>
      <trkpt lat="34.9597" lon="32.965672"></trkpt>
      <trkpt lat="34.959248" lon="32.965676"></trkpt>
      <trkpt lat="34.958523" lon="32.966113"></trkpt>
      <trkpt lat="34.957626" lon="32.965965"></trkpt>
      <trkpt lat="34.957475" lon="32.965218"></trkpt>
      <trkpt lat="34.956528" lon="32.964455"></trkpt>
      <trkpt lat="34.956115" lon="32.963706"></trkpt>
      <trkpt lat="34.956152" lon="32.963206"></trkpt>
      <trkpt lat="34.955766" lon="32.962985"></trkpt>
      <trkpt lat="34.955893" lon="32.96266"></trkpt>
      <trkpt lat="34.95598" lon="32.96169"></trkpt>
      <trkpt lat="34.955843" lon="32.961302"></trkpt>
      <trkpt lat="34.956056" lon="32.9607"></trkpt>
      <trkpt lat="34.956052" lon="32.960191"></trkpt>
      <trkpt lat="34.956514" lon="32.959728"></trkpt>
      <trkpt lat="34.956554" lon="32.959379"></trkpt>
      <trkpt lat="34.956714" lon="32.959206"></trkpt>
      <trkpt lat="34.956568" lon="32.958459"></trkpt>
      <trkpt lat="34.956976" lon="32.957639"></trkpt>
      <trkpt lat="34.95689" lon="32.957281"></trkpt>
      <trkpt lat="34.956591" lon="32.956855"></trkpt>
      <trkpt lat="34.957081" lon="32.956483"></trkpt>
      <trkpt lat="34.957105" lon="32.955789"></trkpt>
      <trkpt lat="34.957495" lon="32.955723"></trkpt>
      <trkpt lat="34.957819" lon="32.955437"></trkpt>
      <trkpt lat="34.957662" lon="32.954524"></trkpt>
      <trkpt lat="34.957228" lon="32.954111"></trkpt>
      <trkpt lat="34.956807" lon="32.954425"></trkpt>
      <trkpt lat="34.95625" lon="32.954175"></trkpt>
      <trkpt lat="34.955472" lon="32.954381"></trkpt>
      <trkpt lat="34.954572" lon="32.953976"></trkpt>
      <trkpt lat="34.954502" lon="32.953757"></trkpt>
      <trkpt lat="34.953678" lon="32.952942"></trkpt>
      <trkpt lat="34.95346" lon="32.952377"></trkpt>
      <trkpt lat="34.953949" lon="32.951806"></trkpt>
      <trkpt lat="34.954575" lon="32.951524"></trkpt>
      <trkpt lat="34.953799" lon="32.951509"></trkpt>
      <trkpt lat="34.95339" lon="32.951325"></trkpt>
      <trkpt lat="34.953192" lon="32.951422"></trkpt>
      <trkpt lat="34.952946" lon="32.951384"></trkpt>
      <trkpt lat="34.952113" lon="32.950846"></trkpt>
      <trkpt lat="34.952231" lon="32.950689"></trkpt>
      <trkpt lat="34.952796" lon="32.950867"></trkpt>
      <trkpt lat="34.953171" lon="32.950592"></trkpt>
      <trkpt lat="34.953178" lon="32.950232"></trkpt>
      <trkpt lat="34.952921" lon="32.94991"></trkpt>
      <trkpt lat="34.95272" lon="32.949029"></trkpt>
      <trkpt lat="34.952873" lon="32.947995"></trkpt>
      <trkpt lat="34.953088" lon="32.94758"></trkpt>
      <trkpt lat="34.953239" lon="32.946802"></trkpt>
      <trkpt lat="34.952593" lon="32.946161"></trkpt>
      <trkpt lat="34.952153" lon="32.946208"></trkpt>
      <trkpt lat="34.951843" lon="32.94648"></trkpt>
      <trkpt lat="34.951419" lon="32.946477"></trkpt>
      <trkpt lat="34.950686" lon="32.946093"></trkpt>
      <trkpt lat="34.950486" lon="32.94579"></trkpt>
      <trkpt lat="34.949776" lon="32.943519"></trkpt>
      <trkpt lat="34.949383" lon="32.943059"></trkpt>
      <trkpt lat="34.948207" lon="32.940976"></trkpt>
      <trkpt lat="34.947846" lon="32.939298"></trkpt>
      <trkpt lat="34.947696" lon="32.939206"></trkpt>
      <trkpt lat="34.947205" lon="32.939276"></trkpt>
      <trkpt lat="34.94661" lon="32.938124"></trkpt>
      <trkpt lat="34.946731" lon="32.937336"></trkpt>
      <trkpt lat="34.946678" lon="32.936987"></trkpt>
      <trkpt lat="34.946469" lon="32.93661"></trkpt>
      <trkpt lat="34.945535" lon="32.936098"></trkpt>
      <trkpt lat="34.94493" lon="32.935312"></trkpt>
      <trkpt lat="34.944825" lon="32.934925"></trkpt>
      <trkpt lat="34.94435" lon="32.934383"></trkpt>
      <trkpt lat="34.943756" lon="32.932227"></trkpt>
      <trkpt lat="34.943358" lon="32.931826"></trkpt>
      <trkpt lat="34.942594" lon="32.932117"></trkpt>
      <trkpt lat="34.942399" lon="32.931424"></trkpt>
      <trkpt lat="34.942319" lon="32.930465"></trkpt>
      <trkpt lat="34.941253" lon="32.929451"></trkpt>
      <trkpt lat="34.941143" lon="32.928396"></trkpt>
      <trkpt lat="34.941007" lon="32.92809"></trkpt>
      <trkpt lat="34.940622" lon="32.927933"></trkpt>
      <trkpt lat="34.939942" lon="32.928382"></trkpt>
      <trkpt lat="34.939599" lon="32.928395"></trkpt>
      <trkpt lat="34.93935" lon="32.92824"></trkpt>
      <trkpt lat="34.939033" lon="32.927771"></trkpt>
      <trkpt lat="34.938569" lon="32.927583"></trkpt>
      <trkpt lat="34.937835" lon="32.927918"></trkpt>
      <trkpt lat="34.937576" lon="32.927934"></trkpt>
      <trkpt lat="34.937319" lon="32.927796"></trkpt>
      <trkpt lat="34.936745" lon="32.927081"></trkpt>
      <trkpt lat="34.936484" lon="32.92696"></trkpt>
      <trkpt lat="34.935925" lon="32.927113"></trkpt>
      <trkpt lat="34.935728" lon="32.927374"></trkpt>
      <trkpt lat="34.935539" lon="32.928036"></trkpt>
      <trkpt lat="34.935165" lon="32.928124"></trkpt>
      <trkpt lat="34.934982" lon="32.927848"></trkpt>
      <trkpt lat="34.934952" lon="32.927192"></trkpt>
      <trkpt lat="34.934807" lon="32.926788"></trkpt>
      <trkpt lat="34.933661" lon="32.925141"></trkpt>
      <trkpt lat="34.933186" lon="32.924731"></trkpt>
      <trkpt lat="34.930969" lon="32.924399"></trkpt>
      <trkpt lat="34.929825" lon="32.924627"></trkpt>
      <trkpt lat="34.929504" lon="32.924476"></trkpt>
      <trkpt lat="34.929302" lon="32.924015"></trkpt>
      <trkpt lat="34.929338" lon="32.9228"></trkpt>
      <trkpt lat="34.92909" lon="32.921934"></trkpt>
      <trkpt lat="34.929399" lon="32.921089"></trkpt>
      <trkpt lat="34.929321" lon="32.919321"></trkpt>
      <trkpt lat="34.929478" lon="32.918841"></trkpt>
      <trkpt lat="34.930013" lon="32.918353"></trkpt>
      <trkpt lat="34.930307" lon="32.91767"></trkpt>
      <trkpt lat="34.930539" lon="32.916239"></trkpt>
      <trkpt lat="34.930377" lon="32.914508"></trkpt>
      <trkpt lat="34.93045" lon="32.914346"></trkpt>
      <trkpt lat="34.930592" lon="32.914322"></trkpt>
      <trkpt lat="34.930718" lon="32.914473"></trkpt>
      <trkpt lat="34.931002" lon="32.917803"></trkpt>
      <trkpt lat="34.931617" lon="32.919036"></trkpt>
      <trkpt lat="34.932652" lon="32.92019"></trkpt>
      <trkpt lat="34.932996" lon="32.920396"></trkpt>
      <trkpt lat="34.933357" lon="32.920429"></trkpt>
      <trkpt lat="34.933712" lon="32.920307"></trkpt>
      <trkpt lat="34.934089" lon="32.919808"></trkpt>
      <trkpt lat="34.934174" lon="32.919512"></trkpt>
      <trkpt lat="34.934384" lon="32.917786"></trkpt>
      <trkpt lat="34.934219" lon="32.916879"></trkpt>
      <trkpt lat="34.933864" lon="32.91626"></trkpt>
      <trkpt lat="34.933042" lon="32.91566"></trkpt>
      <trkpt lat="34.932849" lon="32.915296"></trkpt>
      <trkpt lat="34.933291" lon="32.914457"></trkpt>
      <trkpt lat="34.933305" lon="32.914224"></trkpt>
      <trkpt lat="34.93275" lon="32.912884"></trkpt>
      <trkpt lat="34.933677" lon="32.911603"></trkpt>
      <trkpt lat="34.933705" lon="32.910897"></trkpt>
      <trkpt lat="34.932633" lon="32.908865"></trkpt>
      <trkpt lat="34.93213" lon="32.907109"></trkpt>
      <trkpt lat="34.931862" lon="32.90675"></trkpt>
      <trkpt lat="34.931274" lon="32.906282"></trkpt>
      <trkpt lat="34.930828" lon="32.905547"></trkpt>
      <trkpt lat="34.930678" lon="32.904491"></trkpt>
      <trkpt lat="34.930741" lon="32.903005"></trkpt>
      <trkpt lat="34.931003" lon="32.902017"></trkpt>
      <trkpt lat="34.93178" lon="32.900946"></trkpt>
      <trkpt lat="34.933359" lon="32.899342"></trkpt>
      <trkpt lat="34.933977" lon="32.898117"></trkpt>
      <trkpt lat="34.935589" lon="32.894591"></trkpt>
      <trkpt lat="34.936417" lon="32.892381"></trkpt>
      <trkpt lat="34.936446" lon="32.891326"></trkpt>
      <trkpt lat="34.936143" lon="32.89038"></trkpt>
      <trkpt lat="34.935687" lon="32.889986"></trkpt>
      <trkpt lat="34.933887" lon="32.889405"></trkpt>
      <trkpt lat="34.933208" lon="32.889012"></trkpt>
      <trkpt lat="34.932586" lon="32.888463"></trkpt>
      <trkpt lat="34.931389" lon="32.886561"></trkpt>
      <trkpt lat="34.9312" lon="32.886097"></trkpt>
      <trkpt lat="34.931216" lon="32.885776"></trkpt>
      <trkpt lat="34.931652" lon="32.884738"></trkpt>
      <trkpt lat="34.931586" lon="32.884077"></trkpt>
      <trkpt lat="34.929372" lon="32.881895"></trkpt>
      <trkpt lat="34.928069" lon="32.881275"></trkpt>
      <trkpt lat="34.927082" lon="32.881147"></trkpt>
      <trkpt lat="34.925571" lon="32.88165"></trkpt>
      <trkpt lat="34.924821" lon="32.882289"></trkpt>
      <trkpt lat="34.924518" lon="32.882358"></trkpt>
      <trkpt lat="34.924174" lon="32.882096"></trkpt>
      <trkpt lat="34.923964" lon="32.881454"></trkpt>
      <trkpt lat="34.92449" lon="32.880325"></trkpt>
      <trkpt lat="34.924282" lon="32.879366"></trkpt>
      <trkpt lat="34.924323" lon="32.879022"></trkpt>
      <trkpt lat="34.924524" lon="32.878627"></trkpt>
      <trkpt lat="34.925225" lon="32.877801"></trkpt>
      <trkpt lat="34.925498" lon="32.87774"></trkpt>
      <trkpt lat="34.925673" lon="32.877819"></trkpt>
      <trkpt lat="34.926559" lon="32.878626"></trkpt>
      <trkpt lat="34.926905" lon="32.878728"></trkpt>
      <trkpt lat="34.927627" lon="32.87786"></trkpt>
      <trkpt lat="34.928706" lon="32.877044"></trkpt>
      <trkpt lat="34.930232" lon="32.876655"></trkpt>
      <trkpt lat="34.930945" lon="32.87686"></trkpt>
      <trkpt lat="34.931327" lon="32.876858"></trkpt>
      <trkpt lat="34.932913" lon="32.875994"></trkpt>
      <trkpt lat="34.933488" lon="32.874853"></trkpt>
      <trkpt lat="34.933787" lon="32.874792"></trkpt>
      <trkpt lat="34.934313" lon="32.874996"></trkpt>
      <trkpt lat="34.934572" lon="32.874891"></trkpt>
      <trkpt lat="34.934674" lon="32.874593"></trkpt>
      <trkpt lat="34.934587" lon="32.873804"></trkpt>
      <trkpt lat="34.934729" lon="32.873622"></trkpt>
      <trkpt lat="34.935456" lon="32.873387"></trkpt>
      <trkpt lat="34.935754" lon="32.872787"></trkpt>
      <trkpt lat="34.935762" lon="32.872297"></trkpt>
      <trkpt lat="34.935304" lon="32.871992"></trkpt>
      <trkpt lat="34.933306" lon="32.872214"></trkpt>
      <trkpt lat="34.93309" lon="32.871569"></trkpt>
      <trkpt lat="34.931741" lon="32.870944"></trkpt>
      <trkpt lat="34.931628" lon="32.870791"></trkpt>
      <trkpt lat="34.931545" lon="32.87027"></trkpt>
      <trkpt lat="34.931604" lon="32.869578"></trkpt>
      <trkpt lat="34.931751" lon="32.868941"></trkpt>
      <trkpt lat="34.932138" lon="32.868444"></trkpt>
      <trkpt lat="34.932524" lon="32.868435"></trkpt>
      <trkpt lat="34.933078" lon="32.868789"></trkpt>
      <trkpt lat="34.933532" lon="32.868868"></trkpt>
      <trkpt lat="34.933836" lon="32.868733"></trkpt>
      <trkpt lat="34.934092" lon="32.868401"></trkpt>
      <trkpt lat="34.934619" lon="32.866687"></trkpt>
      <trkpt lat="34.935065" lon="32.865782"></trkpt>
      <trkpt lat="34.935002" lon="32.863617"></trkpt>
      <trkpt lat="34.935218" lon="32.862528"></trkpt>
      <trkpt lat="34.935675" lon="32.86237"></trkpt>
      <trkpt lat="34.936687" lon="32.862829"></trkpt>
      <trkpt lat="34.936958" lon="32.863379"></trkpt>
      <trkpt lat="34.93681" lon="32.863776"></trkpt>
      <trkpt lat="34.936603" lon="32.86383"></trkpt>
      <trkpt lat="34.936538" lon="32.864038"></trkpt>
      <trkpt lat="34.936603" lon="32.86383"></trkpt>
      <trkpt lat="34.93681" lon="32.863776"></trkpt>
      <trkpt lat="34.936947" lon="32.863462"></trkpt>
      <trkpt lat="34.936782" lon="32.862911"></trkpt>
      <trkpt lat="34.93638" lon="32.86263"></trkpt>
      <trkpt lat="34.935675" lon="32.86237"></trkpt>
      <trkpt lat="34.935218" lon="32.862528"></trkpt>
      <trkpt lat="34.935002" lon="32.863617"></trkpt>
      <trkpt lat="34.935065" lon="32.865782"></trkpt>
      <trkpt lat="34.934619" lon="32.866687"></trkpt>
      <trkpt lat="34.934092" lon="32.868401"></trkpt>
      <trkpt lat="34.933836" lon="32.868733"></trkpt>
      <trkpt lat="34.933532" lon="32.868868"></trkpt>
      <trkpt lat="34.933078" lon="32.868789"></trkpt>
      <trkpt lat="34.932524" lon="32.868435"></trkpt>
      <trkpt lat="34.932138" lon="32.868444"></trkpt>
      <trkpt lat="34.931751" lon="32.868941"></trkpt>
      <trkpt lat="34.931604" lon="32.869578"></trkpt>
      <trkpt lat="34.931545" lon="32.87027"></trkpt>
      <trkpt lat="34.931628" lon="32.870791"></trkpt>
      <trkpt lat="34.931741" lon="32.870944"></trkpt>
      <trkpt lat="34.93309" lon="32.871569"></trkpt>
      <trkpt lat="34.933306" lon="32.872214"></trkpt>
      <trkpt lat="34.935304" lon="32.871992"></trkpt>
      <trkpt lat="34.935762" lon="32.872297"></trkpt>
      <trkpt lat="34.935754" lon="32.872787"></trkpt>
      <trkpt lat="34.935456" lon="32.873387"></trkpt>
      <trkpt lat="34.934729" lon="32.873622"></trkpt>
      <trkpt lat="34.934587" lon="32.873804"></trkpt>
      <trkpt lat="34.934674" lon="32.874593"></trkpt>
      <trkpt lat="34.934572" lon="32.874891"></trkpt>
      <trkpt lat="34.934313" lon="32.874996"></trkpt>
      <trkpt lat="34.933787" lon="32.874792"></trkpt>
      <trkpt lat="34.933488" lon="32.874853"></trkpt>
      <trkpt lat="34.932913" lon="32.875994"></trkpt>
      <trkpt lat="34.931327" lon="32.876858"></trkpt>
      <trkpt lat="34.930945" lon="32.87686"></trkpt>
      <trkpt lat="34.930232" lon="32.876655"></trkpt>
      <trkpt lat="34.928706" lon="32.877044"></trkpt>
      <trkpt lat="34.927627" lon="32.87786"></trkpt>
      <trkpt lat="34.926905" lon="32.878728"></trkpt>
      <trkpt lat="34.926559" lon="32.878626"></trkpt>
      <trkpt lat="34.925673" lon="32.877819"></trkpt>
      <trkpt lat="34.925498" lon="32.87774"></trkpt>
      <trkpt lat="34.925225" lon="32.877801"></trkpt>
      <trkpt lat="34.924524" lon="32.878627"></trkpt>
      <trkpt lat="34.924323" lon="32.879022"></trkpt>
      <trkpt lat="34.924282" lon="32.879366"></trkpt>
      <trkpt lat="34.92449" lon="32.880325"></trkpt>
      <trkpt lat="34.923964" lon="32.881454"></trkpt>
      <trkpt lat="34.92341" lon="32.880517"></trkpt>
      <trkpt lat="34.922871" lon="32.88034"></trkpt>
      <trkpt lat="34.922037" lon="32.880316"></trkpt>
      <trkpt lat="34.921766" lon="32.88048"></trkpt>
      <trkpt lat="34.92131" lon="32.87991"></trkpt>
      <trkpt lat="34.921405" lon="32.879136"></trkpt>
      <trkpt lat="34.921101" lon="32.877671"></trkpt>
      <trkpt lat="34.921344" lon="32.876179"></trkpt>
      <trkpt lat="34.920945" lon="32.874505"></trkpt>
      <trkpt lat="34.920638" lon="32.873942"></trkpt>
      <trkpt lat="34.919236" lon="32.873405"></trkpt>
      <trkpt lat="34.918161" lon="32.872604"></trkpt>
      <trkpt lat="34.916513" lon="32.870058"></trkpt>
      <trkpt lat="34.914513" lon="32.868992"></trkpt>
      <trkpt lat="34.911189" lon="32.868109"></trkpt>
      <trkpt lat="34.909658" lon="32.866663"></trkpt>
      <trkpt lat="34.909406" lon="32.866533"></trkpt>
      <trkpt lat="34.908436" lon="32.866471"></trkpt>
      <trkpt lat="34.908016" lon="32.866174"></trkpt>
      <trkpt lat="34.907783" lon="32.865531"></trkpt>
      <trkpt lat="34.907895" lon="32.865007"></trkpt>
      <trkpt lat="34.90845" lon="32.864452"></trkpt>
      <trkpt lat="34.909755" lon="32.863769"></trkpt>
      <trkpt lat="34.910287" lon="32.863215"></trkpt>
      <trkpt lat="34.911118" lon="32.861512"></trkpt>
      <trkpt lat="34.911118" lon="32.861146"></trkpt>
      <trkpt lat="34.910966" lon="32.860897"></trkpt>
      <trkpt lat="34.910135" lon="32.860629"></trkpt>
      <trkpt lat="34.909396" lon="32.860535"></trkpt>
      <trkpt lat="34.908298" lon="32.859021"></trkpt>
      <trkpt lat="34.908025" lon="32.85884"></trkpt>
      <trkpt lat="34.907474" lon="32.858844"></trkpt>
      <trkpt lat="34.906698" lon="32.859128"></trkpt>
      <trkpt lat="34.905622" lon="32.858655"></trkpt>
      <trkpt lat="34.905385" lon="32.858653"></trkpt>
      <trkpt lat="34.904342" lon="32.859834"></trkpt>
      <trkpt lat="34.903995" lon="32.860645"></trkpt>
      <trkpt lat="34.903751" lon="32.860858"></trkpt>
      <trkpt lat="34.902864" lon="32.861105"></trkpt>
      <trkpt lat="34.902623" lon="32.861048"></trkpt>
      <trkpt lat="34.902407" lon="32.860667"></trkpt>
      <trkpt lat="34.902164" lon="32.859158"></trkpt>
      <trkpt lat="34.901839" lon="32.858847"></trkpt>
      <trkpt lat="34.901419" lon="32.858796"></trkpt>
      <trkpt lat="34.900582" lon="32.859153"></trkpt>
      <trkpt lat="34.900208" lon="32.85912"></trkpt>
      <trkpt lat="34.899351" lon="32.858688"></trkpt>
      <trkpt lat="34.898775" lon="32.858127"></trkpt>
      <trkpt lat="34.897803" lon="32.854123"></trkpt>
      <trkpt lat="34.89758" lon="32.853735"></trkpt>
      <trkpt lat="34.897174" lon="32.853575"></trkpt>
      <trkpt lat="34.896855" lon="32.853659"></trkpt>
      <trkpt lat="34.896441" lon="32.854251"></trkpt>
      <trkpt lat="34.895449" lon="32.854902"></trkpt>
      <trkpt lat="34.895183" lon="32.855305"></trkpt>
      <trkpt lat="34.895279" lon="32.85632"></trkpt>
      <trkpt lat="34.896322" lon="32.857713"></trkpt>
      <trkpt lat="34.896347" lon="32.85835"></trkpt>
      <trkpt lat="34.896139" lon="32.858637"></trkpt>
      <trkpt lat="34.895663" lon="32.858918"></trkpt>
      <trkpt lat="34.895148" lon="32.859055"></trkpt>
      <trkpt lat="34.89397" lon="32.858884"></trkpt>
      <trkpt lat="34.892896" lon="32.85905"></trkpt>
      <trkpt lat="34.892436" lon="32.85943"></trkpt>
      <trkpt lat="34.892175" lon="32.859879"></trkpt>
      <trkpt lat="34.891657" lon="32.861652"></trkpt>
      <trkpt lat="34.89171" lon="32.862349"></trkpt>
      <trkpt lat="34.892017" lon="32.862784"></trkpt>
      <trkpt lat="34.892339" lon="32.862929"></trkpt>
      <trkpt lat="34.893629" lon="32.862889"></trkpt>
      <trkpt lat="34.894122" lon="32.86314"></trkpt>
      <trkpt lat="34.895019" lon="32.864052"></trkpt>
      <trkpt lat="34.895013" lon="32.864579"></trkpt>
      <trkpt lat="34.893983" lon="32.865412"></trkpt>
      <trkpt lat="34.893627" lon="32.866164"></trkpt>
      <trkpt lat="34.893916" lon="32.866558"></trkpt>
      <trkpt lat="34.894649" lon="32.86674"></trkpt>
      <trkpt lat="34.895091" lon="32.867134"></trkpt>
      <trkpt lat="34.895759" lon="32.868733"></trkpt>
      <trkpt lat="34.895634" lon="32.869134"></trkpt>
      <trkpt lat="34.895301" lon="32.869315"></trkpt>
      <trkpt lat="34.89499" lon="32.869252"></trkpt>
      <trkpt lat="34.894447" lon="32.868505"></trkpt>
      <trkpt lat="34.894097" lon="32.868348"></trkpt>
      <trkpt lat="34.892444" lon="32.868393"></trkpt>
      <trkpt lat="34.890849" lon="32.868173"></trkpt>
      <trkpt lat="34.890431" lon="32.868332"></trkpt>
      <trkpt lat="34.889869" lon="32.868924"></trkpt>
      <trkpt lat="34.889136" lon="32.868673"></trkpt>
      <trkpt lat="34.888862" lon="32.868717"></trkpt>
      <trkpt lat="34.888637" lon="32.868958"></trkpt>
      <trkpt lat="34.887515" lon="32.872606"></trkpt>
      <trkpt lat="34.88711" lon="32.873394"></trkpt>
      <trkpt lat="34.886666" lon="32.873706"></trkpt>
      <trkpt lat="34.884862" lon="32.874362"></trkpt>
      <trkpt lat="34.882708" lon="32.875803"></trkpt>
      <trkpt lat="34.88292" lon="32.875219"></trkpt>
      <trkpt lat="34.882369" lon="32.873785"></trkpt>
      <trkpt lat="34.882214" lon="32.873626"></trkpt>
      <trkpt lat="34.881326" lon="32.873324"></trkpt>
      <trkpt lat="34.881245" lon="32.872908"></trkpt>
      <trkpt lat="34.881414" lon="32.872752"></trkpt>
      <trkpt lat="34.882101" lon="32.872823"></trkpt>
      <trkpt lat="34.882321" lon="32.872592"></trkpt>
      <trkpt lat="34.882869" lon="32.872615"></trkpt>
      <trkpt lat="34.883077" lon="32.872302"></trkpt>
      <trkpt lat="34.884015" lon="32.871562"></trkpt>
      <trkpt lat="34.884086" lon="32.871313"></trkpt>
      <trkpt lat="34.883693" lon="32.871073"></trkpt>
      <trkpt lat="34.883565" lon="32.870785"></trkpt>
      <trkpt lat="34.88339" lon="32.870702"></trkpt>
      <trkpt lat="34.883052" lon="32.871034"></trkpt>
      <trkpt lat="34.882556" lon="32.871247"></trkpt>
      <trkpt lat="34.881968" lon="32.871152"></trkpt>
      <trkpt lat="34.881567" lon="32.870888"></trkpt>
      <trkpt lat="34.880496" lon="32.870927"></trkpt>
      <trkpt lat="34.879716" lon="32.870159"></trkpt>
      <trkpt lat="34.879089" lon="32.869759"></trkpt>
      <trkpt lat="34.879128" lon="32.869178"></trkpt>
      <trkpt lat="34.878597" lon="32.868614"></trkpt>
      <trkpt lat="34.87848" lon="32.86811"></trkpt>
      <trkpt lat="34.878569" lon="32.867571"></trkpt>
      <trkpt lat="34.878451" lon="32.86729"></trkpt>
      <trkpt lat="34.877955" lon="32.866981"></trkpt>
      <trkpt lat="34.877624" lon="32.866395"></trkpt>
      <trkpt lat="34.877096" lon="32.866807"></trkpt>
      <trkpt lat="34.876554" lon="32.86647"></trkpt>
      <trkpt lat="34.876226" lon="32.866416"></trkpt>
      <trkpt lat="34.87593" lon="32.86656"></trkpt>
      <trkpt lat="34.875838" lon="32.866748"></trkpt>
      <trkpt lat="34.876019" lon="32.867699"></trkpt>
      <trkpt lat="34.875221" lon="32.866814"></trkpt>
      <trkpt lat="34.874404" lon="32.866811"></trkpt>
      <trkpt lat="34.874124" lon="32.866596"></trkpt>
      <trkpt lat="34.873478" lon="32.866456"></trkpt>
      <trkpt lat="34.873233" lon="32.866647"></trkpt>
      <trkpt lat="34.873061" lon="32.866641"></trkpt>
      <trkpt lat="34.872799" lon="32.866417"></trkpt>
      <trkpt lat="34.871526" lon="32.866109"></trkpt>
      <trkpt lat="34.870691" lon="32.866056"></trkpt>
      <trkpt lat="34.87004" lon="32.866169"></trkpt>
      <trkpt lat="34.869815" lon="32.866694"></trkpt>
      <trkpt lat="34.868987" lon="32.866688"></trkpt>
      <trkpt lat="34.868265" lon="32.86733"></trkpt>
      <trkpt lat="34.867991" lon="32.868583"></trkpt>
      <trkpt lat="34.867846" lon="32.868792"></trkpt>
      <trkpt lat="34.867197" lon="32.868915"></trkpt>
      <trkpt lat="34.866316" lon="32.869538"></trkpt>
      <trkpt lat="34.865777" lon="32.869502"></trkpt>
      <trkpt lat="34.865101" lon="32.869643"></trkpt>
      <trkpt lat="34.864447" lon="32.870739"></trkpt>
      <trkpt lat="34.863572" lon="32.871123"></trkpt>
      <trkpt lat="34.863457" lon="32.871651"></trkpt>
      <trkpt lat="34.863116" lon="32.872173"></trkpt>
      <trkpt lat="34.863224" lon="32.87234"></trkpt>
      <trkpt lat="34.863476" lon="32.872424"></trkpt>
      <trkpt lat="34.863454" lon="32.872657"></trkpt>
      <trkpt lat="34.862443" lon="32.873149"></trkpt>
      <trkpt lat="34.861232" lon="32.872814"></trkpt>
      <trkpt lat="34.860551" lon="32.873242"></trkpt>
      <trkpt lat="34.860109" lon="32.8738"></trkpt>
      <trkpt lat="34.859902" lon="32.874735"></trkpt>
      <trkpt lat="34.859566" lon="32.874577"></trkpt>
      <trkpt lat="34.858415" lon="32.873161"></trkpt>
      <trkpt lat="34.857577" lon="32.872696"></trkpt>
      <trkpt lat="34.856444" lon="32.87143"></trkpt>
      <trkpt lat="34.85571" lon="32.871158"></trkpt>
      <trkpt lat="34.855188" lon="32.87071"></trkpt>
      <trkpt lat="34.854547" lon="32.870662"></trkpt>
      <trkpt lat="34.853863" lon="32.870811"></trkpt>
      <trkpt lat="34.853217" lon="32.870504"></trkpt>
      <trkpt lat="34.852642" lon="32.870772"></trkpt>
      <trkpt lat="34.852252" lon="32.870792"></trkpt>
      <trkpt lat="34.851274" lon="32.869697"></trkpt>
      <trkpt lat="34.850018" lon="32.869992"></trkpt>
      <trkpt lat="34.849203" lon="32.869622"></trkpt>
      <trkpt lat="34.848449" lon="32.868475"></trkpt>
      <trkpt lat="34.848281" lon="32.868379"></trkpt>
      <trkpt lat="34.847074" lon="32.868569"></trkpt>
      <trkpt lat="34.846722" lon="32.868434"></trkpt>
      <trkpt lat="34.84551" lon="32.868366"></trkpt>
      <trkpt lat="34.845094" lon="32.868106"></trkpt>
      <trkpt lat="34.844905" lon="32.867782"></trkpt>
      <trkpt lat="34.845107" lon="32.866911"></trkpt>
      <trkpt lat="34.8449" lon="32.865822"></trkpt>
      <trkpt lat="34.843566" lon="32.865355"></trkpt>
      <trkpt lat="34.84333" lon="32.865096"></trkpt>
      <trkpt lat="34.842969" lon="32.864223"></trkpt>
      <trkpt lat="34.842294" lon="32.863667"></trkpt>
      <trkpt lat="34.842092" lon="32.863348"></trkpt>
      <trkpt lat="34.841973" lon="32.863025"></trkpt>
      <trkpt lat="34.842006" lon="32.862651"></trkpt>
      <trkpt lat="34.842459" lon="32.861541"></trkpt>
      <trkpt lat="34.84241" lon="32.861152"></trkpt>
      <trkpt lat="34.84214" lon="32.860594"></trkpt>
      <trkpt lat="34.841768" lon="32.860271"></trkpt>
      <trkpt lat="34.841346" lon="32.859392"></trkpt>
      <trkpt lat="34.840928" lon="32.859103"></trkpt>
      <trkpt lat="34.83972" lon="32.859479"></trkpt>
      <trkpt lat="34.839157" lon="32.859402"></trkpt>
      <trkpt lat="34.838657" lon="32.859013"></trkpt>
      <trkpt lat="34.83794" lon="32.857829"></trkpt>
      <trkpt lat="34.83716" lon="32.857522"></trkpt>
      <trkpt lat="34.836464" lon="32.856755"></trkpt>
      <trkpt lat="34.835412" lon="32.856605"></trkpt>
      <trkpt lat="34.834744" lon="32.856339"></trkpt>
      <trkpt lat="34.834519" lon="32.855877"></trkpt>
      <trkpt lat="34.834145" lon="32.853152"></trkpt>
      <trkpt lat="34.833746" lon="32.852751"></trkpt>
      <trkpt lat="34.833231" lon="32.852641"></trkpt>
      <trkpt lat="34.832951" lon="32.852355"></trkpt>
      <trkpt lat="34.8331" lon="32.851406"></trkpt>
      <trkpt lat="34.832978" lon="32.850757"></trkpt>
      <trkpt lat="34.832609" lon="32.850476"></trkpt>
      <trkpt lat="34.831547" lon="32.850535"></trkpt>
      <trkpt lat="34.830086" lon="32.849651"></trkpt>
      <trkpt lat="34.829969" lon="32.849226"></trkpt>
      <trkpt lat="34.830175" lon="32.847748"></trkpt>
      <trkpt lat="34.830079" lon="32.847143"></trkpt>
      <trkpt lat="34.830382" lon="32.846489"></trkpt>
      <trkpt lat="34.830358" lon="32.846138"></trkpt>
      <trkpt lat="34.830073" lon="32.845889"></trkpt>
      <trkpt lat="34.829423" lon="32.845851"></trkpt>
      <trkpt lat="34.828742" lon="32.845412"></trkpt>
      <trkpt lat="34.828318" lon="32.844929"></trkpt>
      <trkpt lat="34.828135" lon="32.844392"></trkpt>
      <trkpt lat="34.828175" lon="32.843964"></trkpt>
      <trkpt lat="34.828348" lon="32.843604"></trkpt>
      <trkpt lat="34.829194" lon="32.843309"></trkpt>
      <trkpt lat="34.829396" lon="32.843049"></trkpt>
      <trkpt lat="34.829429" lon="32.842708"></trkpt>
      <trkpt lat="34.829246" lon="32.842272"></trkpt>
      <trkpt lat="34.828492" lon="32.841555"></trkpt>
      <trkpt lat="34.827547" lon="32.841373"></trkpt>
      <trkpt lat="34.826719" lon="32.840507"></trkpt>
      <trkpt lat="34.826529" lon="32.840531"></trkpt>
      <trkpt lat="34.826121" lon="32.840976"></trkpt>
      <trkpt lat="34.825819" lon="32.84089"></trkpt>
      <trkpt lat="34.824983" lon="32.839786"></trkpt>
      <trkpt lat="34.823501" lon="32.838285"></trkpt>
      <trkpt lat="34.823405" lon="32.837924"></trkpt>
      <trkpt lat="34.823477" lon="32.837452"></trkpt>
      <trkpt lat="34.824016" lon="32.83701"></trkpt>
      <trkpt lat="34.824143" lon="32.836155"></trkpt>
      <trkpt lat="34.824628" lon="32.835768"></trkpt>
      <trkpt lat="34.825156" lon="32.834908"></trkpt>
      <trkpt lat="34.825205" lon="32.834375"></trkpt>
      <trkpt lat="34.824927" lon="32.833911"></trkpt>
      <trkpt lat="34.825023" lon="32.833331"></trkpt>
      <trkpt lat="34.825229" lon="32.83316"></trkpt>
      <trkpt lat="34.825674" lon="32.83306"></trkpt>
      <trkpt lat="34.825779" lon="32.832734"></trkpt>
      <trkpt lat="34.825659" lon="32.831634"></trkpt>
      <trkpt lat="34.825459" lon="32.831366"></trkpt>
      <trkpt lat="34.824866" lon="32.831015"></trkpt>
      <trkpt lat="34.824256" lon="32.829793"></trkpt>
      <trkpt lat="34.823984" lon="32.829497"></trkpt>
      <trkpt lat="34.822911" lon="32.829383"></trkpt>
      <trkpt lat="34.821856" lon="32.830271"></trkpt>
      <trkpt lat="34.819712" lon="32.829733"></trkpt>
      <trkpt lat="34.818937" lon="32.829237"></trkpt>
      <trkpt lat="34.818352" lon="32.828706"></trkpt>
      <trkpt lat="34.81592" lon="32.824993"></trkpt>
      <trkpt lat="34.815531" lon="32.824614"></trkpt>
      <trkpt lat="34.814993" lon="32.824442"></trkpt>
      <trkpt lat="34.81429" lon="32.824472"></trkpt>
      <trkpt lat="34.813098" lon="32.825119"></trkpt>
      <trkpt lat="34.811781" lon="32.825415"></trkpt>
      <trkpt lat="34.811368" lon="32.825384"></trkpt>
      <trkpt lat="34.809516" lon="32.82435"></trkpt>
      <trkpt lat="34.807983" lon="32.82281"></trkpt>
      <trkpt lat="34.807368" lon="32.82238"></trkpt>
      <trkpt lat="34.806909" lon="32.822198"></trkpt>
      <trkpt lat="34.802974" lon="32.821544"></trkpt>
      <trkpt lat="34.80254" lon="32.821616"></trkpt>
      <trkpt lat="34.802026" lon="32.821901"></trkpt>
      <trkpt lat="34.80162" lon="32.822334"></trkpt>
      <trkpt lat="34.800809" lon="32.823625"></trkpt>
      <trkpt lat="34.799039" lon="32.824747"></trkpt>
      <trkpt lat="34.797528" lon="32.825176"></trkpt>
      <trkpt lat="34.796205" lon="32.825724"></trkpt>
      <trkpt lat="34.794734" lon="32.826045"></trkpt>
      <trkpt lat="34.790347" lon="32.827972"></trkpt>
      <trkpt lat="34.789367" lon="32.828865"></trkpt>
      <trkpt lat="34.788668" lon="32.82919"></trkpt>
      <trkpt lat="34.788063" lon="32.829361"></trkpt>
      <trkpt lat="34.787277" lon="32.82929"></trkpt>
      <trkpt lat="34.785531" lon="32.828657"></trkpt>
      <trkpt lat="34.784938" lon="32.828296"></trkpt>
      <trkpt lat="34.784523" lon="32.82829"></trkpt>
      <trkpt lat="34.784359" lon="32.828142"></trkpt>
      <trkpt lat="34.784292" lon="32.82805"></trkpt>
      <trkpt lat="34.784635" lon="32.827781"></trkpt>
      <trkpt lat="34.784894" lon="32.827391"></trkpt>
      <trkpt lat="34.785567" lon="32.825073"></trkpt>
      <trkpt lat="34.786072" lon="32.824481"></trkpt>
      <trkpt lat="34.786646" lon="32.824182"></trkpt>
      <trkpt lat="34.787371" lon="32.824156"></trkpt>
      <trkpt lat="34.788889" lon="32.824903"></trkpt>
      <trkpt lat="34.789393" lon="32.824877"></trkpt>
      <trkpt lat="34.790947" lon="32.823426"></trkpt>
      <trkpt lat="34.791843" lon="32.822095"></trkpt>
      <trkpt lat="34.793277" lon="32.821302"></trkpt>
      <trkpt lat="34.793684" lon="32.820945"></trkpt>
      <trkpt lat="34.794273" lon="32.819998"></trkpt>
      <trkpt lat="34.795649" lon="32.816279"></trkpt>
      <trkpt lat="34.795871" lon="32.814809"></trkpt>
      <trkpt lat="34.795552" lon="32.810543"></trkpt>
      <trkpt lat="34.795534" lon="32.808154"></trkpt>
      <trkpt lat="34.795626" lon="32.806423"></trkpt>
      <trkpt lat="34.795922" lon="32.804973"></trkpt>
      <trkpt lat="34.795361" lon="32.804555"></trkpt>
      <trkpt lat="34.794382" lon="32.803197"></trkpt>
      <trkpt lat="34.794151" lon="32.801542"></trkpt>
      <trkpt lat="34.793514" lon="32.800505"></trkpt>
      <trkpt lat="34.792537" lon="32.80003"></trkpt>
      <trkpt lat="34.791785" lon="32.799324"></trkpt>
      <trkpt lat="34.791293" lon="32.799185"></trkpt>
      <trkpt lat="34.790167" lon="32.799124"></trkpt>
      <trkpt lat="34.789692" lon="32.798935"></trkpt>
      <trkpt lat="34.788901" lon="32.797978"></trkpt>
      <trkpt lat="34.788367" lon="32.797582"></trkpt>
      <trkpt lat="34.787785" lon="32.797335"></trkpt>
      <trkpt lat="34.786384" lon="32.797106"></trkpt>
      <trkpt lat="34.785837" lon="32.796767"></trkpt>
      <trkpt lat="34.78545" lon="32.796752"></trkpt>
      <trkpt lat="34.784908" lon="32.796946"></trkpt>
      <trkpt lat="34.784652" lon="32.796864"></trkpt>
      <trkpt lat="34.784006" lon="32.795663"></trkpt>
      <trkpt lat="34.783671" lon="32.795489"></trkpt>
      <trkpt lat="34.783432" lon="32.795603"></trkpt>
      <trkpt lat="34.782984" lon="32.796174"></trkpt>
      <trkpt lat="34.782666" lon="32.796285"></trkpt>
      <trkpt lat="34.782227" lon="32.796195"></trkpt>
      <trkpt lat="34.781851" lon="32.796458"></trkpt>
      <trkpt lat="34.781516" lon="32.796907"></trkpt>
      <trkpt lat="34.781274" lon="32.796985"></trkpt>
      <trkpt lat="34.779813" lon="32.796533"></trkpt>
      <trkpt lat="34.779559" lon="32.796629"></trkpt>
      <trkpt lat="34.778973" lon="32.797183"></trkpt>
      <trkpt lat="34.778587" lon="32.796912"></trkpt>
      <trkpt lat="34.778025" lon="32.795949"></trkpt>
      <trkpt lat="34.777968" lon="32.795256"></trkpt>
      <trkpt lat="34.778151" lon="32.794534"></trkpt>
      <trkpt lat="34.777228" lon="32.794727"></trkpt>
      <trkpt lat="34.773872" lon="32.794933"></trkpt>
      <trkpt lat="34.773301" lon="32.79488"></trkpt>
      <trkpt lat="34.772763" lon="32.794596"></trkpt>
      <trkpt lat="34.772308" lon="32.794542"></trkpt>
      <trkpt lat="34.771607" lon="32.794674"></trkpt>
      <trkpt lat="34.771322" lon="32.793197"></trkpt>
      <trkpt lat="34.771217" lon="32.791747"></trkpt>
      <trkpt lat="34.770832" lon="32.791162"></trkpt>
      <trkpt lat="34.769069" lon="32.789366"></trkpt>
      <trkpt lat="34.768399" lon="32.789008"></trkpt>
      <trkpt lat="34.7679" lon="32.788974"></trkpt>
      <trkpt lat="34.765964" lon="32.789279"></trkpt>
      <trkpt lat="34.765048" lon="32.789261"></trkpt>
      <trkpt lat="34.764306" lon="32.789048"></trkpt>
      <trkpt lat="34.762843" lon="32.788398"></trkpt>
      <trkpt lat="34.762228" lon="32.78801"></trkpt>
      <trkpt lat="34.761294" lon="32.787047"></trkpt>
      <trkpt lat="34.760798" lon="32.786746"></trkpt>
      <trkpt lat="34.757066" lon="32.785105"></trkpt>
      <trkpt lat="34.755215" lon="32.784615"></trkpt>
      <trkpt lat="34.754576" lon="32.784338"></trkpt>
      <trkpt lat="34.753832" lon="32.783744"></trkpt>
      <trkpt lat="34.751859" lon="32.781261"></trkpt>
      <trkpt lat="34.750352" lon="32.779886"></trkpt>
      <trkpt lat="34.749622" lon="32.779434"></trkpt>
      <trkpt lat="34.748705" lon="32.779314"></trkpt>
      <trkpt lat="34.746275" lon="32.779997"></trkpt>
      <trkpt lat="34.745055" lon="32.779747"></trkpt>
      <trkpt lat="34.744676" lon="32.779781"></trkpt>
      <trkpt lat="34.741631" lon="32.780892"></trkpt>
      <trkpt lat="34.741218" lon="32.7809"></trkpt>
      <trkpt lat="34.740039" lon="32.780568"></trkpt>
      <trkpt lat="34.737787" lon="32.780155"></trkpt>
      <trkpt lat="34.736831" lon="32.77936"></trkpt>
      <trkpt lat="34.733268" lon="32.773097"></trkpt>
      <trkpt lat="34.732546" lon="32.772347"></trkpt>
      <trkpt lat="34.731774" lon="32.7719"></trkpt>
      <trkpt lat="34.731094" lon="32.771705"></trkpt>
      <trkpt lat="34.730379" lon="32.771665"></trkpt>
      <trkpt lat="34.724446" lon="32.772482"></trkpt>
      <trkpt lat="34.723348" lon="32.773055"></trkpt>
      <trkpt lat="34.72003" lon="32.776033"></trkpt>
      <trkpt lat="34.719234" lon="32.776251"></trkpt>
      <trkpt lat="34.718721" lon="32.776169"></trkpt>
      <trkpt lat="34.717975" lon="32.775698"></trkpt>
      <trkpt lat="34.716457" lon="32.773706"></trkpt>
      <trkpt lat="34.713908" lon="32.768336"></trkpt>
      <trkpt lat="34.713183" lon="32.767714"></trkpt>
      <trkpt lat="34.712575" lon="32.767593"></trkpt>
      <trkpt lat="34.711557" lon="32.767687"></trkpt>
      <trkpt lat="34.709326" lon="32.766686"></trkpt>
      <trkpt lat="34.705971" lon="32.765631"></trkpt>
      <trkpt lat="34.704085" lon="32.764828"></trkpt>
      <trkpt lat="34.700354" lon="32.762884"></trkpt>
      <trkpt lat="34.699394" lon="32.76257"></trkpt>
      <trkpt lat="34.697818" lon="32.762378"></trkpt>
      <trkpt lat="34.696151" lon="32.762403"></trkpt>
      <trkpt lat="34.69429" lon="32.762833"></trkpt>
      <trkpt lat="34.693818" lon="32.763048"></trkpt>
      <trkpt lat="34.692624" lon="32.763135"></trkpt>
      <trkpt lat="34.691257" lon="32.762528"></trkpt>
      <trkpt lat="34.689485" lon="32.761243"></trkpt>
      <trkpt lat="34.688395" lon="32.761274"></trkpt>
      <trkpt lat="34.686578" lon="32.760721"></trkpt>
      <trkpt lat="34.683681" lon="32.760687"></trkpt>
      <trkpt lat="34.68228" lon="32.760403"></trkpt>
      <trkpt lat="34.682287" lon="32.759728"></trkpt>
      <trkpt lat="34.683089" lon="32.758387"></trkpt>
      <trkpt lat="34.683368" lon="32.757302"></trkpt>
      <trkpt lat="34.68471" lon="32.748219"></trkpt>
      <trkpt lat="34.684985" lon="32.74407"></trkpt>
      <trkpt lat="34.684903" lon="32.737449"></trkpt>
      <trkpt lat="34.684707" lon="32.734558"></trkpt>
      <trkpt lat="34.683955" lon="32.731683"></trkpt>
      <trkpt lat="34.683354" lon="32.730366"></trkpt>
      <trkpt lat="34.682501" lon="32.729036"></trkpt>
      <trkpt lat="34.681135" lon="32.727622"></trkpt>
      <trkpt lat="34.679502" lon="32.726365"></trkpt>
      <trkpt lat="34.678256" lon="32.724945"></trkpt>
      <trkpt lat="34.677881" lon="32.724677"></trkpt>
      <trkpt lat="34.67721" lon="32.724519"></trkpt>
      <trkpt lat="34.677225" lon="32.723395"></trkpt>
      <trkpt lat="34.677063" lon="32.723303"></trkpt>
      <trkpt lat="34.676358" lon="32.722205"></trkpt>
      <trkpt lat="34.675638" lon="32.721845"></trkpt>
      <trkpt lat="34.675362" lon="32.721364"></trkpt>
      <trkpt lat="34.675208" lon="32.72131"></trkpt>
      <trkpt lat="34.673267" lon="32.721215"></trkpt>
      <trkpt lat="34.672631" lon="32.721352"></trkpt>
      <trkpt lat="34.671793" lon="32.722098"></trkpt>
      <trkpt lat="34.671393" lon="32.72268"></trkpt>
      <trkpt lat="34.670951" lon="32.7238"></trkpt>
      <trkpt lat="34.670182" lon="32.724943"></trkpt>
      <trkpt lat="34.66903" lon="32.726183"></trkpt>
      <trkpt lat="34.662722" lon="32.728066"></trkpt>
      <trkpt lat="34.661726" lon="32.728214"></trkpt>
      <trkpt lat="34.658956" lon="32.72836"></trkpt>
      <trkpt lat="34.656509" lon="32.727981"></trkpt>
      <trkpt lat="34.653308" lon="32.726644"></trkpt>
      <trkpt lat="34.652842" lon="32.726279"></trkpt>
      <trkpt lat="34.652138" lon="32.725102"></trkpt>
      <trkpt lat="34.651144" lon="32.723906"></trkpt>
      <trkpt lat="34.650912" lon="32.723133"></trkpt>
      <trkpt lat="34.651196" lon="32.723047"></trkpt>
      <trkpt lat="34.652241" lon="32.723151"></trkpt>
      <trkpt lat="34.652468" lon="32.722997"></trkpt>
      <trkpt lat="34.652502" lon="32.721435"></trkpt>
      <trkpt lat="34.652685" lon="32.720187"></trkpt>
      <trkpt lat="34.652649" lon="32.719486"></trkpt>
      <trkpt lat="34.65242" lon="32.719471"></trkpt>
      <trkpt lat="34.652269" lon="32.719583"></trkpt>
      <trkpt lat="34.65165" lon="32.720332"></trkpt>
      <trkpt lat="34.651329" lon="32.720559"></trkpt>
      <trkpt lat="34.651122" lon="32.720424"></trkpt>
      <trkpt lat="34.651049" lon="32.71975"></trkpt>
      <trkpt lat="34.650918" lon="32.719584"></trkpt>
      <trkpt lat="34.650164" lon="32.719738"></trkpt>
      <trkpt lat="34.648882" lon="32.71926"></trkpt>
      <trkpt lat="34.64848" lon="32.718482"></trkpt>
      <trkpt lat="34.648299" lon="32.718338"></trkpt>
      <trkpt lat="34.648406" lon="32.717969"></trkpt>
      <trkpt lat="34.648032" lon="32.717719"></trkpt>
      <trkpt lat="34.648406" lon="32.717969"></trkpt>
      <trkpt lat="34.648299" lon="32.718338"></trkpt>
      <trkpt lat="34.64848" lon="32.718482"></trkpt>
      <trkpt lat="34.648882" lon="32.71926"></trkpt>
      <trkpt lat="34.650164" lon="32.719738"></trkpt>
      <trkpt lat="34.650918" lon="32.719584"></trkpt>
      <trkpt lat="34.651049" lon="32.71975"></trkpt>
      <trkpt lat="34.651122" lon="32.720424"></trkpt>
      <trkpt lat="34.651329" lon="32.720559"></trkpt>
      <trkpt lat="34.65165" lon="32.720332"></trkpt>
      <trkpt lat="34.652269" lon="32.719583"></trkpt>
      <trkpt lat="34.65242" lon="32.719471"></trkpt>
      <trkpt lat="34.652649" lon="32.719486"></trkpt>
      <trkpt lat="34.652685" lon="32.720187"></trkpt>
      <trkpt lat="34.652502" lon="32.721435"></trkpt>
      <trkpt lat="34.652468" lon="32.722997"></trkpt>
      <trkpt lat="34.652241" lon="32.723151"></trkpt>
      <trkpt lat="34.651196" lon="32.723047"></trkpt>
      <trkpt lat="34.650912" lon="32.723133"></trkpt>
      <trkpt lat="34.651144" lon="32.723906"></trkpt>
      <trkpt lat="34.652138" lon="32.725102"></trkpt>
      <trkpt lat="34.652842" lon="32.726279"></trkpt>
      <trkpt lat="34.653689" lon="32.726873"></trkpt>
      <trkpt lat="34.65532" lon="32.727545"></trkpt>
      <trkpt lat="34.656509" lon="32.727981"></trkpt>
      <trkpt lat="34.657705" lon="32.728218"></trkpt>
      <trkpt lat="34.658956" lon="32.72836"></trkpt>
      <trkpt lat="34.660166" lon="32.728333"></trkpt>
      <trkpt lat="34.662722" lon="32.728066"></trkpt>
      <trkpt lat="34.66903" lon="32.726183"></trkpt>
      <trkpt lat="34.670182" lon="32.724943"></trkpt>
      <trkpt lat="34.670951" lon="32.7238"></trkpt>
      <trkpt lat="34.671393" lon="32.72268"></trkpt>
      <trkpt lat="34.671793" lon="32.722098"></trkpt>
      <trkpt lat="34.672242" lon="32.721613"></trkpt>
      <trkpt lat="34.673038" lon="32.721224"></trkpt>
      <trkpt lat="34.675362" lon="32.721364"></trkpt>
      <trkpt lat="34.675638" lon="32.721845"></trkpt>
      <trkpt lat="34.676358" lon="32.722205"></trkpt>
      <trkpt lat="34.677063" lon="32.723303"></trkpt>
      <trkpt lat="34.677225" lon="32.723395"></trkpt>
      <trkpt lat="34.677176" lon="32.728879"></trkpt>
      <trkpt lat="34.677273" lon="32.729599"></trkpt>
      <trkpt lat="34.677569" lon="32.730427"></trkpt>
      <trkpt lat="34.680555" lon="32.736082"></trkpt>
      <trkpt lat="34.681197" lon="32.737595"></trkpt>
      <trkpt lat="34.681316" lon="32.739117"></trkpt>
      <trkpt lat="34.681077" lon="32.741387"></trkpt>
      <trkpt lat="34.68115" lon="32.742634"></trkpt>
      <trkpt lat="34.682961" lon="32.748399"></trkpt>
      <trkpt lat="34.681708" lon="32.749"></trkpt>
      <trkpt lat="34.680624" lon="32.749859"></trkpt>
      <trkpt lat="34.67967" lon="32.751054"></trkpt>
      <trkpt lat="34.679112" lon="32.752131"></trkpt>
      <trkpt lat="34.678585" lon="32.753929"></trkpt>
      <trkpt lat="34.678378" lon="32.756686"></trkpt>
      <trkpt lat="34.67788" lon="32.759032"></trkpt>
      <trkpt lat="34.677904" lon="32.759923"></trkpt>
      <trkpt lat="34.678063" lon="32.760333"></trkpt>
      <trkpt lat="34.679036" lon="32.760102"></trkpt>
      <trkpt lat="34.681738" lon="32.760258"></trkpt>
      <trkpt lat="34.683848" lon="32.760698"></trkpt>
      <trkpt lat="34.683977" lon="32.760906"></trkpt>
      <trkpt lat="34.683907" lon="32.761324"></trkpt>
      <trkpt lat="34.682966" lon="32.763054"></trkpt>
      <trkpt lat="34.682564" lon="32.76406"></trkpt>
      <trkpt lat="34.682299" lon="32.765982"></trkpt>
      <trkpt lat="34.682327" lon="32.767891"></trkpt>
      <trkpt lat="34.682822" lon="32.770363"></trkpt>
      <trkpt lat="34.686012" lon="32.781505"></trkpt>
      <trkpt lat="34.686243" lon="32.783391"></trkpt>
      <trkpt lat="34.686025" lon="32.785631"></trkpt>
      <trkpt lat="34.685547" lon="32.787109"></trkpt>
      <trkpt lat="34.684982" lon="32.788237"></trkpt>
      <trkpt lat="34.684395" lon="32.789049"></trkpt>
      <trkpt lat="34.683447" lon="32.79"></trkpt>
      <trkpt lat="34.681096" lon="32.791652"></trkpt>
      <trkpt lat="34.680147" lon="32.792551"></trkpt>
      <trkpt lat="34.679132" lon="32.794031"></trkpt>
      <trkpt lat="34.678692" lon="32.794998"></trkpt>
      <trkpt lat="34.678277" lon="32.796644"></trkpt>
      <trkpt lat="34.67816" lon="32.798248"></trkpt>
      <trkpt lat="34.678275" lon="32.799583"></trkpt>
      <trkpt lat="34.678703" lon="32.801206"></trkpt>
      <trkpt lat="34.679159" lon="32.802213"></trkpt>
      <trkpt lat="34.679644" lon="32.802976"></trkpt>
      <trkpt lat="34.680537" lon="32.803971"></trkpt>
      <trkpt lat="34.681405" lon="32.804671"></trkpt>
      <trkpt lat="34.682106" lon="32.805078"></trkpt>
      <trkpt lat="34.685558" lon="32.806383"></trkpt>
      <trkpt lat="34.686394" lon="32.806909"></trkpt>
      <trkpt lat="34.687474" lon="32.807933"></trkpt>
      <trkpt lat="34.688372" lon="32.809282"></trkpt>
      <trkpt lat="34.689281" lon="32.811651"></trkpt>
      <trkpt lat="34.690375" lon="32.817961"></trkpt>
      <trkpt lat="34.690775" lon="32.819291"></trkpt>
      <trkpt lat="34.691687" lon="32.821002"></trkpt>
      <trkpt lat="34.693916" lon="32.823803"></trkpt>
      <trkpt lat="34.694649" lon="32.825047"></trkpt>
      <trkpt lat="34.695385" lon="32.827177"></trkpt>
      <trkpt lat="34.695745" lon="32.831082"></trkpt>
      <trkpt lat="34.695999" lon="32.832342"></trkpt>
      <trkpt lat="34.696517" lon="32.833982"></trkpt>
      <trkpt lat="34.696926" lon="32.834999"></trkpt>
      <trkpt lat="34.70216" lon="32.845649"></trkpt>
      <trkpt lat="34.702978" lon="32.847563"></trkpt>
      <trkpt lat="34.703619" lon="32.84962"></trkpt>
      <trkpt lat="34.703771" lon="32.851525"></trkpt>
      <trkpt lat="34.703656" lon="32.853145"></trkpt>
      <trkpt lat="34.703154" lon="32.855187"></trkpt>
      <trkpt lat="34.702466" lon="32.856687"></trkpt>
      <trkpt lat="34.701857" lon="32.85764"></trkpt>
      <trkpt lat="34.700662" lon="32.859036"></trkpt>
      <trkpt lat="34.699217" lon="32.860053"></trkpt>
      <trkpt lat="34.69561" lon="32.862263"></trkpt>
      <trkpt lat="34.6947" lon="32.863017"></trkpt>
      <trkpt lat="34.693963" lon="32.86389"></trkpt>
      <trkpt lat="34.693228" lon="32.865108"></trkpt>
      <trkpt lat="34.691596" lon="32.868862"></trkpt>
      <trkpt lat="34.69075" lon="32.870296"></trkpt>
      <trkpt lat="34.686805" lon="32.875112"></trkpt>
      <trkpt lat="34.684719" lon="32.878093"></trkpt>
      <trkpt lat="34.684195" lon="32.879001"></trkpt>
      <trkpt lat="34.6837" lon="32.879942"></trkpt>
      <trkpt lat="34.682485" lon="32.882918"></trkpt>
      <trkpt lat="34.681872" lon="32.884992"></trkpt>
      <trkpt lat="34.681493" lon="32.886825"></trkpt>
      <trkpt lat="34.681203" lon="32.888923"></trkpt>
      <trkpt lat="34.68109" lon="32.892324"></trkpt>
      <trkpt lat="34.681243" lon="32.894655"></trkpt>
      <trkpt lat="34.681698" lon="32.897416"></trkpt>
      <trkpt lat="34.684416" lon="32.907253"></trkpt>
      <trkpt lat="34.686274" lon="32.913483"></trkpt>
      <trkpt lat="34.687756" lon="32.917901"></trkpt>
      <trkpt lat="34.689666" lon="32.92293"></trkpt>
      <trkpt lat="34.690188" lon="32.924914"></trkpt>
      <trkpt lat="34.690292" lon="32.92632"></trkpt>
      <trkpt lat="34.68993" lon="32.938481"></trkpt>
      <trkpt lat="34.690016" lon="32.940018"></trkpt>
      <trkpt lat="34.690227" lon="32.94114"></trkpt>
      <trkpt lat="34.690602" lon="32.942199"></trkpt>
      <trkpt lat="34.691117" lon="32.943191"></trkpt>
      <trkpt lat="34.694075" lon="32.94708"></trkpt>
      <trkpt lat="34.695677" lon="32.950178"></trkpt>
      <trkpt lat="34.696476" lon="32.952686"></trkpt>
      <trkpt lat="34.696906" lon="32.954659"></trkpt>
      <trkpt lat="34.697119" lon="32.956829"></trkpt>
      <trkpt lat="34.697097" lon="32.9595"></trkpt>
      <trkpt lat="34.696795" lon="32.961901"></trkpt>
      <trkpt lat="34.696201" lon="32.964213"></trkpt>
      <trkpt lat="34.688756" lon="32.985065"></trkpt>
      <trkpt lat="34.688129" lon="32.987326"></trkpt>
      <trkpt lat="34.687632" lon="32.989862"></trkpt>
      <trkpt lat="34.687208" lon="32.994304"></trkpt>
      <trkpt lat="34.687246" lon="32.997027"></trkpt>
      <trkpt lat="34.687527" lon="33.00021"></trkpt>
      <trkpt lat="34.688924" lon="33.007094"></trkpt>
      <trkpt lat="34.689274" lon="33.008098"></trkpt>
      <trkpt lat="34.689691" lon="33.008396"></trkpt>
      <trkpt lat="34.689745" lon="33.008723"></trkpt>
      <trkpt lat="34.68939" lon="33.0093"></trkpt>
      <trkpt lat="34.689032" lon="33.009386"></trkpt>
      <trkpt lat="34.688815" lon="33.009585"></trkpt>
      <trkpt lat="34.686112" lon="33.014338"></trkpt>
      <trkpt lat="34.685036" lon="33.016636"></trkpt>
      <trkpt lat="34.684188" lon="33.017596"></trkpt>
      <trkpt lat="34.683705" lon="33.01836"></trkpt>
      <trkpt lat="34.683047" lon="33.019021"></trkpt>
      <trkpt lat="34.68269" lon="33.019858"></trkpt>
      <trkpt lat="34.682112" lon="33.022127"></trkpt>
      <trkpt lat="34.681707" lon="33.023181"></trkpt>
      <trkpt lat="34.680385" lon="33.025169"></trkpt>
      <trkpt lat="34.679262" lon="33.027223"></trkpt>
      <trkpt lat="34.678371" lon="33.028504"></trkpt>
      <trkpt lat="34.677909" lon="33.028807"></trkpt>
      <trkpt lat="34.6743" lon="33.028758"></trkpt>
      <trkpt lat="34.67411" lon="33.031127"></trkpt>
      <trkpt lat="34.673491" lon="33.03334"></trkpt>
      <trkpt lat="34.673505" lon="33.033697"></trkpt>
      <trkpt lat="34.672888" lon="33.033538"></trkpt>
      <trkpt lat="34.67196" lon="33.034013"></trkpt>
      <trkpt lat="34.671783" lon="33.037045"></trkpt>
      <trkpt lat="34.671598" lon="33.037048"></trkpt>
      <trkpt lat="34.670438" lon="33.03769"></trkpt>
      <trkpt lat="34.670322" lon="33.037814"></trkpt>
      <trkpt lat="34.670342" lon="33.038057"></trkpt>
      <trkpt lat="34.670196" lon="33.038018"></trkpt>
      <trkpt lat="34.669972" lon="33.038145"></trkpt>
      <trkpt lat="34.670017" lon="33.038367"></trkpt>
      <trkpt lat="34.669842" lon="33.038676"></trkpt>
      <trkpt lat="34.669984" lon="33.039378"></trkpt>
      <trkpt lat="34.669842" lon="33.038676"></trkpt>
      <trkpt lat="34.670017" lon="33.038367"></trkpt>
      <trkpt lat="34.669972" lon="33.038145"></trkpt>
      <trkpt lat="34.670438" lon="33.03769"></trkpt>
      <trkpt lat="34.671598" lon="33.037048"></trkpt>
      <trkpt lat="34.671783" lon="33.037045"></trkpt>
      <trkpt lat="34.67193" lon="33.038448"></trkpt>
      <trkpt lat="34.67148" lon="33.040502"></trkpt>
      <trkpt lat="34.671722" lon="33.041365"></trkpt>
      <trkpt lat="34.671676" lon="33.042481"></trkpt>
      <trkpt lat="34.672372" lon="33.04381"></trkpt>
      <trkpt lat="34.673331" lon="33.045175"></trkpt>
      <trkpt lat="34.679839" lon="33.05273"></trkpt>
      <trkpt lat="34.681379" lon="33.054942"></trkpt>
      <trkpt lat="34.683791" lon="33.058906"></trkpt>
      <trkpt lat="34.685315" lon="33.06173"></trkpt>
      <trkpt lat="34.687639" lon="33.066595"></trkpt>
      <trkpt lat="34.689469" lon="33.071816"></trkpt>
      <trkpt lat="34.69243" lon="33.079687"></trkpt>
      <trkpt lat="34.693184" lon="33.082193"></trkpt>
      <trkpt lat="34.694185" lon="33.084551"></trkpt>
      <trkpt lat="34.694675" lon="33.086098"></trkpt>
      <trkpt lat="34.696078" lon="33.088653"></trkpt>
      <trkpt lat="34.698079" lon="33.0883"></trkpt>
      <trkpt lat="34.698827" lon="33.088001"></trkpt>
      <trkpt lat="34.699283" lon="33.087969"></trkpt>
      <trkpt lat="34.699359" lon="33.087854"></trkpt>
      <trkpt lat="34.701739" lon="33.087931"></trkpt>
      <trkpt lat="34.702895" lon="33.087437"></trkpt>
      <trkpt lat="34.703819" lon="33.087224"></trkpt>
      <trkpt lat="34.704799" lon="33.086581"></trkpt>
      <trkpt lat="34.706112" lon="33.086245"></trkpt>
      <trkpt lat="34.706678" lon="33.085916"></trkpt>
      <trkpt lat="34.707631" lon="33.086412"></trkpt>
      <trkpt lat="34.708046" lon="33.086238"></trkpt>
      <trkpt lat="34.70825" lon="33.086275"></trkpt>
      <trkpt lat="34.708457" lon="33.086601"></trkpt>
      <trkpt lat="34.708426" lon="33.086901"></trkpt>
      <trkpt lat="34.707983" lon="33.087592"></trkpt>
      <trkpt lat="34.707068" lon="33.090716"></trkpt>
      <trkpt lat="34.706383" lon="33.094253"></trkpt>
      <trkpt lat="34.70624" lon="33.097383"></trkpt>
      <trkpt lat="34.706455" lon="33.100802"></trkpt>
      <trkpt lat="34.709934" lon="33.120086"></trkpt>
      <trkpt lat="34.710491" lon="33.122542"></trkpt>
      <trkpt lat="34.711272" lon="33.125026"></trkpt>
      <trkpt lat="34.713294" lon="33.130124"></trkpt>
      <trkpt lat="34.715207" lon="33.135578"></trkpt>
      <trkpt lat="34.717673" lon="33.144179"></trkpt>
      <trkpt lat="34.718139" lon="33.146336"></trkpt>
      <trkpt lat="34.718402" lon="33.149337"></trkpt>
      <trkpt lat="34.718309" lon="33.151549"></trkpt>
      <trkpt lat="34.717915" lon="33.154079"></trkpt>
      <trkpt lat="34.716627" lon="33.158774"></trkpt>
      <trkpt lat="34.716063" lon="33.161707"></trkpt>
      <trkpt lat="34.715879" lon="33.163641"></trkpt>
      <trkpt lat="34.715923" lon="33.167113"></trkpt>
      <trkpt lat="34.716438" lon="33.170562"></trkpt>
      <trkpt lat="34.72185" lon="33.194089"></trkpt>
      <trkpt lat="34.722068" lon="33.195841"></trkpt>
      <trkpt lat="34.722056" lon="33.200604"></trkpt>
      <trkpt lat="34.72227" lon="33.202564"></trkpt>
      <trkpt lat="34.722975" lon="33.204508"></trkpt>
      <trkpt lat="34.723602" lon="33.205499"></trkpt>
      <trkpt lat="34.724394" lon="33.206385"></trkpt>
      <trkpt lat="34.725607" lon="33.207271"></trkpt>
      <trkpt lat="34.728461" lon="33.208706"></trkpt>
      <trkpt lat="34.729324" lon="33.209253"></trkpt>
      <trkpt lat="34.730603" lon="33.210351"></trkpt>
      <trkpt lat="34.731243" lon="33.211075"></trkpt>
      <trkpt lat="34.732155" lon="33.212414"></trkpt>
      <trkpt lat="34.733005" lon="33.21423"></trkpt>
      <trkpt lat="34.733578" lon="33.216269"></trkpt>
      <trkpt lat="34.733729" lon="33.217315"></trkpt>
      <trkpt lat="34.733747" lon="33.219857"></trkpt>
      <trkpt lat="34.733036" lon="33.227299"></trkpt>
      <trkpt lat="34.732784" lon="33.228926"></trkpt>
      <trkpt lat="34.732195" lon="33.231156"></trkpt>
      <trkpt lat="34.731101" lon="33.233777"></trkpt>
      <trkpt lat="34.726983" lon="33.242045"></trkpt>
      <trkpt lat="34.725456" lon="33.245455"></trkpt>
      <trkpt lat="34.721281" lon="33.256931"></trkpt>
      <trkpt lat="34.720766" lon="33.258611"></trkpt>
      <trkpt lat="34.720502" lon="33.260178"></trkpt>
      <trkpt lat="34.720463" lon="33.262488"></trkpt>
      <trkpt lat="34.720663" lon="33.264008"></trkpt>
      <trkpt lat="34.721192" lon="33.265946"></trkpt>
      <trkpt lat="34.72172" lon="33.267154"></trkpt>
      <trkpt lat="34.72254" lon="33.268554"></trkpt>
      <trkpt lat="34.730394" lon="33.279695"></trkpt>
      <trkpt lat="34.731265" lon="33.280721"></trkpt>
      <trkpt lat="34.732987" lon="33.282332"></trkpt>
      <trkpt lat="34.734831" lon="33.283531"></trkpt>
      <trkpt lat="34.739561" lon="33.285781"></trkpt>
      <trkpt lat="34.741293" lon="33.28672"></trkpt>
      <trkpt lat="34.742713" lon="33.287872"></trkpt>
      <trkpt lat="34.744425" lon="33.289946"></trkpt>
      <trkpt lat="34.745595" lon="33.292152"></trkpt>
      <trkpt lat="34.755834" lon="33.318371"></trkpt>
      <trkpt lat="34.757059" lon="33.320951"></trkpt>
      <trkpt lat="34.759278" lon="33.324381"></trkpt>
      <trkpt lat="34.760511" lon="33.32588"></trkpt>
      <trkpt lat="34.768506" lon="33.334501"></trkpt>
      <trkpt lat="34.769174" lon="33.335114"></trkpt>
      <trkpt lat="34.770705" lon="33.336167"></trkpt>
      <trkpt lat="34.77437" lon="33.338066"></trkpt>
      <trkpt lat="34.775635" lon="33.338997"></trkpt>
      <trkpt lat="34.776571" lon="33.339879"></trkpt>
      <trkpt lat="34.779091" lon="33.342669"></trkpt>
      <trkpt lat="34.780354" lon="33.343531"></trkpt>
      <trkpt lat="34.780964" lon="33.343792"></trkpt>
      <trkpt lat="34.782549" lon="33.344158"></trkpt>
      <trkpt lat="34.788077" lon="33.343894"></trkpt>
      <trkpt lat="34.790135" lon="33.344023"></trkpt>
      <trkpt lat="34.792268" lon="33.34472"></trkpt>
      <trkpt lat="34.796571" lon="33.347127"></trkpt>
      <trkpt lat="34.79887" lon="33.34804"></trkpt>
      <trkpt lat="34.80041" lon="33.34834"></trkpt>
      <trkpt lat="34.805174" lon="33.348734"></trkpt>
      <trkpt lat="34.806138" lon="33.348925"></trkpt>
      <trkpt lat="34.808056" lon="33.349661"></trkpt>
      <trkpt lat="34.809474" lon="33.350511"></trkpt>
      <trkpt lat="34.811187" lon="33.35206"></trkpt>
      <trkpt lat="34.81274" lon="33.354214"></trkpt>
      <trkpt lat="34.818408" lon="33.364885"></trkpt>
      <trkpt lat="34.821775" lon="33.37108"></trkpt>
      <trkpt lat="34.822811" lon="33.372762"></trkpt>
      <trkpt lat="34.823794" lon="33.374033"></trkpt>
      <trkpt lat="34.825088" lon="33.375422"></trkpt>
      <trkpt lat="34.830239" lon="33.380354"></trkpt>
      <trkpt lat="34.832465" lon="33.38335"></trkpt>
      <trkpt lat="34.833537" lon="33.385117"></trkpt>
      <trkpt lat="34.834542" lon="33.387278"></trkpt>
      <trkpt lat="34.8354" lon="33.388799"></trkpt>
      <trkpt lat="34.837584" lon="33.391507"></trkpt>
      <trkpt lat="34.837903" lon="33.392316"></trkpt>
      <trkpt lat="34.837946" lon="33.393028"></trkpt>
      <trkpt lat="34.837691" lon="33.394068"></trkpt>
      <trkpt lat="34.837143" lon="33.394806"></trkpt>
      <trkpt lat="34.832867" lon="33.398444"></trkpt>
      <trkpt lat="34.83177" lon="33.39961"></trkpt>
      <trkpt lat="34.831254" lon="33.400636"></trkpt>
      <trkpt lat="34.830929" lon="33.402273"></trkpt>
      <trkpt lat="34.831061" lon="33.403446"></trkpt>
      <trkpt lat="34.831332" lon="33.404304"></trkpt>
      <trkpt lat="34.841064" lon="33.425999"></trkpt>
      <trkpt lat="34.843492" lon="33.431097"></trkpt>
      <trkpt lat="34.852506" lon="33.447476"></trkpt>
      <trkpt lat="34.856396" lon="33.453723"></trkpt>
      <trkpt lat="34.857508" lon="33.455801"></trkpt>
      <trkpt lat="34.858294" lon="33.458013"></trkpt>
      <trkpt lat="34.858557" lon="33.459285"></trkpt>
      <trkpt lat="34.860054" lon="33.470147"></trkpt>
      <trkpt lat="34.861056" lon="33.473756"></trkpt>
      <trkpt lat="34.873403" lon="33.502629"></trkpt>
      <trkpt lat="34.874519" lon="33.5048"></trkpt>
      <trkpt lat="34.875794" lon="33.506729"></trkpt>
      <trkpt lat="34.887954" lon="33.5222"></trkpt>
      <trkpt lat="34.890249" lon="33.526435"></trkpt>
      <trkpt lat="34.895219" lon="33.536127"></trkpt>
      <trkpt lat="34.89943" lon="33.543318"></trkpt>
      <trkpt lat="34.903194" lon="33.552186"></trkpt>
      <trkpt lat="34.905509" lon="33.556244"></trkpt>
      <trkpt lat="34.906427" lon="33.558131"></trkpt>
      <trkpt lat="34.90683" lon="33.559386"></trkpt>
      <trkpt lat="34.907087" lon="33.560659"></trkpt>
      <trkpt lat="34.907518" lon="33.566015"></trkpt>
      <trkpt lat="34.907692" lon="33.566666"></trkpt>
      <trkpt lat="34.907931" lon="33.566984"></trkpt>
      <trkpt lat="34.908174" lon="33.566973"></trkpt>
      <trkpt lat="34.908408" lon="33.567144"></trkpt>
      <trkpt lat="34.910172" lon="33.567456"></trkpt>
      <trkpt lat="34.915293" lon="33.569076"></trkpt>
      <trkpt lat="34.917592" lon="33.56941"></trkpt>
      <trkpt lat="34.91916" lon="33.569353"></trkpt>
      <trkpt lat="34.920762" lon="33.569071"></trkpt>
      <trkpt lat="34.921727" lon="33.568776"></trkpt>
      <trkpt lat="34.938792" lon="33.563091"></trkpt>
      <trkpt lat="34.940079" lon="33.562882"></trkpt>
      <trkpt lat="34.94137" lon="33.562822"></trkpt>
      <trkpt lat="34.943981" lon="33.563177"></trkpt>
      <trkpt lat="34.945228" lon="33.563557"></trkpt>
      <trkpt lat="34.947172" lon="33.564457"></trkpt>
      <trkpt lat="34.94966" lon="33.566136"></trkpt>
      <trkpt lat="34.950328" lon="33.566726"></trkpt>
      <trkpt lat="34.950949" lon="33.567608"></trkpt>
      <trkpt lat="34.951406" lon="33.568683"></trkpt>
      <trkpt lat="34.952297" lon="33.57125"></trkpt>
      <trkpt lat="34.953124" lon="33.574201"></trkpt>
      <trkpt lat="34.95372" lon="33.575483"></trkpt>
      <trkpt lat="34.954663" lon="33.576462"></trkpt>
      <trkpt lat="34.959042" lon="33.579336"></trkpt>
      <trkpt lat="34.96006" lon="33.58031"></trkpt>
      <trkpt lat="34.960694" lon="33.581098"></trkpt>
      <trkpt lat="34.961356" lon="33.582161"></trkpt>
      <trkpt lat="34.96199" lon="33.583623"></trkpt>
      <trkpt lat="34.962412" lon="33.58528"></trkpt>
      <trkpt lat="34.96258" lon="33.58674"></trkpt>
      <trkpt lat="34.96346" lon="33.607056"></trkpt>
      <trkpt lat="34.963533" lon="33.617579"></trkpt>
      <trkpt lat="34.964607" lon="33.634955"></trkpt>
      <trkpt lat="34.964909" lon="33.637114"></trkpt>
      <trkpt lat="34.965208" lon="33.638409"></trkpt>
      <trkpt lat="34.965912" lon="33.6405"></trkpt>
      <trkpt lat="34.969893" lon="33.64859"></trkpt>
      <trkpt lat="34.970687" lon="33.650468"></trkpt>
      <trkpt lat="34.973706" lon="33.659469"></trkpt>
      <trkpt lat="34.975104" lon="33.662487"></trkpt>
      <trkpt lat="34.977224" lon="33.6663"></trkpt>
      <trkpt lat="34.978495" lon="33.669291"></trkpt>
      <trkpt lat="34.979391" lon="33.67262"></trkpt>
      <trkpt lat="34.980593" lon="33.680638"></trkpt>
      <trkpt lat="34.98142" lon="33.68371"></trkpt>
      <trkpt lat="34.982392" lon="33.685739"></trkpt>
      <trkpt lat="34.983694" lon="33.687631"></trkpt>
      <trkpt lat="34.984371" lon="33.688376"></trkpt>
      <trkpt lat="34.995466" lon="33.698776"></trkpt>
      <trkpt lat="34.99667" lon="33.699745"></trkpt>
      <trkpt lat="34.997852" lon="33.700399"></trkpt>
      <trkpt lat="34.99955" lon="33.70077"></trkpt>
      <trkpt lat="35.001162" lon="33.700691"></trkpt>
      <trkpt lat="35.00228" lon="33.700773"></trkpt>
      <trkpt lat="35.003803" lon="33.701275"></trkpt>
      <trkpt lat="35.004732" lon="33.7018"></trkpt>
      <trkpt lat="35.005707" lon="33.702655"></trkpt>
      <trkpt lat="35.006289" lon="33.703345"></trkpt>
      <trkpt lat="35.007223" lon="33.70493"></trkpt>
      <trkpt lat="35.007657" lon="33.706202"></trkpt>
      <trkpt lat="35.007898" lon="33.707559"></trkpt>
      <trkpt lat="35.00798" lon="33.708941"></trkpt>
      <trkpt lat="35.006697" lon="33.726622"></trkpt>
      <trkpt lat="35.006726" lon="33.736505"></trkpt>
      <trkpt lat="35.006529" lon="33.739181"></trkpt>
      <trkpt lat="35.006284" lon="33.74092"></trkpt>
      <trkpt lat="35.005548" lon="33.744333"></trkpt>
      <trkpt lat="35.004697" lon="33.74702"></trkpt>
      <trkpt lat="35.003572" lon="33.749706"></trkpt>
      <trkpt lat="35.00263" lon="33.751438"></trkpt>
      <trkpt lat="35.000679" lon="33.754271"></trkpt>
      <trkpt lat="34.999963" lon="33.755095"></trkpt>
      <trkpt lat="34.998821" lon="33.756076"></trkpt>
      <trkpt lat="34.997569" lon="33.756727"></trkpt>
      <trkpt lat="34.994585" lon="33.757647"></trkpt>
      <trkpt lat="34.993556" lon="33.758236"></trkpt>
      <trkpt lat="34.992557" lon="33.759315"></trkpt>
      <trkpt lat="34.991958" lon="33.760349"></trkpt>
      <trkpt lat="34.988517" lon="33.768664"></trkpt>
      <trkpt lat="34.987118" lon="33.771778"></trkpt>
      <trkpt lat="34.986069" lon="33.773291"></trkpt>
      <trkpt lat="34.983325" lon="33.776456"></trkpt>
      <trkpt lat="34.981569" lon="33.779252"></trkpt>
      <trkpt lat="34.980375" lon="33.781728"></trkpt>
      <trkpt lat="34.979782" lon="33.784177"></trkpt>
      <trkpt lat="34.979681" lon="33.785389"></trkpt>
      <trkpt lat="34.979718" lon="33.786829"></trkpt>
      <trkpt lat="34.980191" lon="33.789374"></trkpt>
      <trkpt lat="34.981091" lon="33.792186"></trkpt>
      <trkpt lat="34.981474" lon="33.794476"></trkpt>
      <trkpt lat="34.98152" lon="33.796842"></trkpt>
      <trkpt lat="34.981243" lon="33.799154"></trkpt>
      <trkpt lat="34.977916" lon="33.810234"></trkpt>
      <trkpt lat="34.977004" lon="33.812157"></trkpt>
      <trkpt lat="34.975687" lon="33.81407"></trkpt>
      <trkpt lat="34.974827" lon="33.815615"></trkpt>
      <trkpt lat="34.973799" lon="33.818507"></trkpt>
      <trkpt lat="34.973244" lon="33.820707"></trkpt>
      <trkpt lat="34.972616" lon="33.82439"></trkpt>
      <trkpt lat="34.972261" lon="33.830743"></trkpt>
      <trkpt lat="34.971936" lon="33.832912"></trkpt>
      <trkpt lat="34.971081" lon="33.836036"></trkpt>
      <trkpt lat="34.969508" lon="33.839719"></trkpt>
      <trkpt lat="34.968838" lon="33.841752"></trkpt>
      <trkpt lat="34.968344" lon="33.844036"></trkpt>
      <trkpt lat="34.967645" lon="33.849647"></trkpt>
      <trkpt lat="34.967441" lon="33.854"></trkpt>
      <trkpt lat="34.967508" lon="33.858374"></trkpt>
      <trkpt lat="34.967715" lon="33.861266"></trkpt>
      <trkpt lat="34.968308" lon="33.865624"></trkpt>
      <trkpt lat="34.968894" lon="33.86762"></trkpt>
      <trkpt lat="34.969931" lon="33.869648"></trkpt>
      <trkpt lat="34.971212" lon="33.871284"></trkpt>
      <trkpt lat="34.972742" lon="33.8727"></trkpt>
      <trkpt lat="34.974078" lon="33.874259"></trkpt>
      <trkpt lat="34.975206" lon="33.87616"></trkpt>
      <trkpt lat="34.975919" lon="33.878114"></trkpt>
      <trkpt lat="34.976271" lon="33.879732"></trkpt>
      <trkpt lat="34.976622" lon="33.884606"></trkpt>
      <trkpt lat="34.977853" lon="33.893838"></trkpt>
      <trkpt lat="34.978061" lon="33.904115"></trkpt>
      <trkpt lat="34.978256" lon="33.905549"></trkpt>
      <trkpt lat="34.980134" lon="33.911428"></trkpt>
      <trkpt lat="34.983631" lon="33.923714"></trkpt>
      <trkpt lat="34.986265" lon="33.93194"></trkpt>
      <trkpt lat="34.988166" lon="33.941235"></trkpt>
      <trkpt lat="34.990605" lon="33.949286"></trkpt>
      <trkpt lat="34.991289" lon="33.954914"></trkpt>
      <trkpt lat="34.991699" lon="33.957273"></trkpt>
      <trkpt lat="34.992371" lon="33.959326"></trkpt>
      <trkpt lat="34.992529" lon="33.959505"></trkpt>
      <trkpt lat="34.992986" lon="33.959613"></trkpt>
      <trkpt lat="34.993191" lon="33.959891"></trkpt>
      <trkpt lat="34.993075" lon="33.960373"></trkpt>
      <trkpt lat="34.992105" lon="33.961155"></trkpt>
      <trkpt lat="34.991933" lon="33.961512"></trkpt>
      <trkpt lat="34.990859" lon="33.965625"></trkpt>
      <trkpt lat="34.990788" lon="33.966513"></trkpt>
      <trkpt lat="34.991086" lon="33.96886"></trkpt>
      <trkpt lat="34.991" lon="33.969965"></trkpt>
      <trkpt lat="34.990666" lon="33.971616"></trkpt>
      <trkpt lat="34.990304" lon="33.971979"></trkpt>
      <trkpt lat="34.990173" lon="33.97394"></trkpt>
      <trkpt lat="34.989508" lon="33.976366"></trkpt>
      <trkpt lat="34.989355" lon="33.979264"></trkpt>
      <trkpt lat="34.988866" lon="33.981324"></trkpt>
      <trkpt lat="34.988596" lon="33.985059"></trkpt>
      <trkpt lat="34.988119" lon="33.987855"></trkpt>
      <trkpt lat="34.987931" lon="33.9901"></trkpt>
      <trkpt lat="34.987422" lon="33.993102"></trkpt>
      <trkpt lat="34.987387" lon="33.994846"></trkpt>
      <trkpt lat="34.985959" lon="33.994582"></trkpt>
  </trkseg></trk>
</gpx>
