<?xml version="1.0" encoding="UTF-8"?>
<gpx version="1.1" creator="yatutbuv" xmlns="http://www.topografix.com/GPX/1/1">
  <trk><name>GraphHopper Track</name><trkseg>
      <trkpt lat="49.124163" lon="20.246332"></trkpt>
      <trkpt lat="49.124058" lon="20.245838"></trkpt>
      <trkpt lat="49.138257" lon="20.227126"></trkpt>
      <trkpt lat="49.138841" lon="20.226596"></trkpt>
      <trkpt lat="49.140176" lon="20.226122"></trkpt>
      <trkpt lat="49.139866" lon="20.226761"></trkpt>
      <trkpt lat="49.139132" lon="20.227129"></trkpt>
      <trkpt lat="49.138913" lon="20.227389"></trkpt>
      <trkpt lat="49.138471" lon="20.229664"></trkpt>
      <trkpt lat="49.138619" lon="20.2312"></trkpt>
      <trkpt lat="49.139495" lon="20.232468"></trkpt>
      <trkpt lat="49.140082" lon="20.23603"></trkpt>
      <trkpt lat="49.1404" lon="20.236671"></trkpt>
      <trkpt lat="49.142101" lon="20.238881"></trkpt>
      <trkpt lat="49.142376" lon="20.239492"></trkpt>
      <trkpt lat="49.142788" lon="20.241074"></trkpt>
      <trkpt lat="49.144071" lon="20.242876"></trkpt>
      <trkpt lat="49.144391" lon="20.243699"></trkpt>
      <trkpt lat="49.145166" lon="20.24677"></trkpt>
      <trkpt lat="49.145861" lon="20.248084"></trkpt>
      <trkpt lat="49.14831" lon="20.251852"></trkpt>
      <trkpt lat="49.148881" lon="20.252139"></trkpt>
      <trkpt lat="49.149833" lon="20.252013"></trkpt>
      <trkpt lat="49.150282" lon="20.252427"></trkpt>
      <trkpt lat="49.150419" lon="20.253105"></trkpt>
      <trkpt lat="49.150329" lon="20.255583"></trkpt>
      <trkpt lat="49.150095" lon="20.257447"></trkpt>
      <trkpt lat="49.150134" lon="20.258564"></trkpt>
      <trkpt lat="49.150325" lon="20.259286"></trkpt>
      <trkpt lat="49.150549" lon="20.259687"></trkpt>
      <trkpt lat="49.151556" lon="20.260305"></trkpt>
      <trkpt lat="49.15194" lon="20.260949"></trkpt>
      <trkpt lat="49.152015" lon="20.261689"></trkpt>
      <trkpt lat="49.151833" lon="20.263136"></trkpt>
      <trkpt lat="49.152099" lon="20.26408"></trkpt>
      <trkpt lat="49.153889" lon="20.267395"></trkpt>
      <trkpt lat="49.155172" lon="20.27067"></trkpt>
      <trkpt lat="49.155618" lon="20.2714"></trkpt>
      <trkpt lat="49.156281" lon="20.272101"></trkpt>
      <trkpt lat="49.157318" lon="20.27268"></trkpt>
      <trkpt lat="49.15848" lon="20.272829"></trkpt>
      <trkpt lat="49.159755" lon="20.272637"></trkpt>
      <trkpt lat="49.161277" lon="20.27196"></trkpt>
      <trkpt lat="49.161866" lon="20.27192"></trkpt>
      <trkpt lat="49.162405" lon="20.272157"></trkpt>
      <trkpt lat="49.162942" lon="20.272875"></trkpt>
      <trkpt lat="49.163244" lon="20.273791"></trkpt>
      <trkpt lat="49.163529" lon="20.275743"></trkpt>
      <trkpt lat="49.163739" lon="20.276465"></trkpt>
      <trkpt lat="49.164317" lon="20.27734"></trkpt>
      <trkpt lat="49.165335" lon="20.278106"></trkpt>
      <trkpt lat="49.165581" lon="20.278411"></trkpt>
      <trkpt lat="49.166531" lon="20.282427"></trkpt>
      <trkpt lat="49.167331" lon="20.284425"></trkpt>
      <trkpt lat="49.168203" lon="20.285935"></trkpt>
      <trkpt lat="49.168457" lon="20.286179"></trkpt>
      <trkpt lat="49.169768" lon="20.286855"></trkpt>
      <trkpt lat="49.170257" lon="20.287427"></trkpt>
      <trkpt lat="49.17063" lon="20.288123"></trkpt>
      <trkpt lat="49.171004" lon="20.289735"></trkpt>
      <trkpt lat="49.170939" lon="20.292324"></trkpt>
      <trkpt lat="49.171138" lon="20.293094"></trkpt>
      <trkpt lat="49.171423" lon="20.293573"></trkpt>
      <trkpt lat="49.171926" lon="20.293954"></trkpt>
      <trkpt lat="49.172564" lon="20.294065"></trkpt>
      <trkpt lat="49.174193" lon="20.293946"></trkpt>
      <trkpt lat="49.177345" lon="20.294048"></trkpt>
      <trkpt lat="49.17785" lon="20.293979"></trkpt>
      <trkpt lat="49.178424" lon="20.29361"></trkpt>
      <trkpt lat="49.181808" lon="20.290075"></trkpt>
      <trkpt lat="49.182297" lon="20.28975"></trkpt>
      <trkpt lat="49.18283" lon="20.289616"></trkpt>
      <trkpt lat="49.183273" lon="20.289636"></trkpt>
      <trkpt lat="49.183791" lon="20.289846"></trkpt>
      <trkpt lat="49.188756" lon="20.293384"></trkpt>
      <trkpt lat="49.194149" lon="20.300737"></trkpt>
      <trkpt lat="49.194886" lon="20.301596"></trkpt>
      <trkpt lat="49.197534" lon="20.303451"></trkpt>
      <trkpt lat="49.200726" lon="20.306265"></trkpt>
      <trkpt lat="49.206041" lon="20.309046"></trkpt>
      <trkpt lat="49.2067" lon="20.30963"></trkpt>
      <trkpt lat="49.207304" lon="20.310656"></trkpt>
      <trkpt lat="49.215353" lon="20.329184"></trkpt>
      <trkpt lat="49.216192" lon="20.330213"></trkpt>
      <trkpt lat="49.219135" lon="20.331734"></trkpt>
      <trkpt lat="49.21962" lon="20.332089"></trkpt>
      <trkpt lat="49.220185" lon="20.33277"></trkpt>
      <trkpt lat="49.220275" lon="20.332802"></trkpt>
      <trkpt lat="49.220507" lon="20.332341"></trkpt>
      <trkpt lat="49.221979" lon="20.32897"></trkpt>
      <trkpt lat="49.224751" lon="20.324464"></trkpt>
      <trkpt lat="49.230047" lon="20.316612"></trkpt>
      <trkpt lat="49.231447" lon="20.315386"></trkpt>
      <trkpt lat="49.232006" lon="20.313929"></trkpt>
      <trkpt lat="49.232315" lon="20.313458"></trkpt>
      <trkpt lat="49.232804" lon="20.313282"></trkpt>
      <trkpt lat="49.233821" lon="20.31353"></trkpt>
      <trkpt lat="49.236308" lon="20.313193"></trkpt>
      <trkpt lat="49.236987" lon="20.312672"></trkpt>
      <trkpt lat="49.238428" lon="20.311016"></trkpt>
      <trkpt lat="49.238798" lon="20.310742"></trkpt>
      <trkpt lat="49.240312" lon="20.310578"></trkpt>
      <trkpt lat="49.243761" lon="20.309258"></trkpt>
      <trkpt lat="49.244699" lon="20.309391"></trkpt>
      <trkpt lat="49.246469" lon="20.310392"></trkpt>
      <trkpt lat="49.248365" lon="20.310604"></trkpt>
      <trkpt lat="49.248781" lon="20.31051"></trkpt>
      <trkpt lat="49.249049" lon="20.310274"></trkpt>
      <trkpt lat="49.254031" lon="20.303338"></trkpt>
      <trkpt lat="49.254604" lon="20.302768"></trkpt>
      <trkpt lat="49.255188" lon="20.302382"></trkpt>
      <trkpt lat="49.257299" lon="20.301886"></trkpt>
      <trkpt lat="49.258229" lon="20.302392"></trkpt>
      <trkpt lat="49.258682" lon="20.302425"></trkpt>
      <trkpt lat="49.259535" lon="20.302024"></trkpt>
      <trkpt lat="49.260485" lon="20.301083"></trkpt>
      <trkpt lat="49.261244" lon="20.300507"></trkpt>
      <trkpt lat="49.261515" lon="20.300506"></trkpt>
      <trkpt lat="49.26235" lon="20.300855"></trkpt>
      <trkpt lat="49.262871" lon="20.300738"></trkpt>
      <trkpt lat="49.263268" lon="20.300369"></trkpt>
      <trkpt lat="49.263582" lon="20.299755"></trkpt>
      <trkpt lat="49.265167" lon="20.301037"></trkpt>
      <trkpt lat="49.266057" lon="20.30216"></trkpt>
      <trkpt lat="49.266459" lon="20.303109"></trkpt>
      <trkpt lat="49.267084" lon="20.305181"></trkpt>
      <trkpt lat="49.268407" lon="20.30605"></trkpt>
      <trkpt lat="49.268845" lon="20.306932"></trkpt>
      <trkpt lat="49.269755" lon="20.307679"></trkpt>
      <trkpt lat="49.270677" lon="20.308773"></trkpt>
      <trkpt lat="49.270629" lon="20.308511"></trkpt>
      <trkpt lat="49.269782" lon="20.307558"></trkpt>
      <trkpt lat="49.269569" lon="20.307524"></trkpt>
      <trkpt lat="49.268845" lon="20.306932"></trkpt>
      <trkpt lat="49.268407" lon="20.30605"></trkpt>
      <trkpt lat="49.267084" lon="20.305181"></trkpt>
      <trkpt lat="49.266459" lon="20.303109"></trkpt>
      <trkpt lat="49.266057" lon="20.30216"></trkpt>
      <trkpt lat="49.265167" lon="20.301037"></trkpt>
      <trkpt lat="49.263582" lon="20.299755"></trkpt>
      <trkpt lat="49.263268" lon="20.300369"></trkpt>
      <trkpt lat="49.262871" lon="20.300738"></trkpt>
      <trkpt lat="49.26235" lon="20.300855"></trkpt>
      <trkpt lat="49.261515" lon="20.300506"></trkpt>
      <trkpt lat="49.261244" lon="20.300507"></trkpt>
      <trkpt lat="49.260485" lon="20.301083"></trkpt>
      <trkpt lat="49.259535" lon="20.302024"></trkpt>
      <trkpt lat="49.258682" lon="20.302425"></trkpt>
      <trkpt lat="49.258229" lon="20.302392"></trkpt>
      <trkpt lat="49.257299" lon="20.301886"></trkpt>
      <trkpt lat="49.255188" lon="20.302382"></trkpt>
      <trkpt lat="49.254604" lon="20.302768"></trkpt>
      <trkpt lat="49.254031" lon="20.303338"></trkpt>
      <trkpt lat="49.249049" lon="20.310274"></trkpt>
      <trkpt lat="49.248781" lon="20.31051"></trkpt>
      <trkpt lat="49.248365" lon="20.310604"></trkpt>
      <trkpt lat="49.246469" lon="20.310392"></trkpt>
      <trkpt lat="49.244699" lon="20.309391"></trkpt>
      <trkpt lat="49.243761" lon="20.309258"></trkpt>
      <trkpt lat="49.240312" lon="20.310578"></trkpt>
      <trkpt lat="49.238798" lon="20.310742"></trkpt>
      <trkpt lat="49.238428" lon="20.311016"></trkpt>
      <trkpt lat="49.236987" lon="20.312672"></trkpt>
      <trkpt lat="49.236308" lon="20.313193"></trkpt>
      <trkpt lat="49.233821" lon="20.31353"></trkpt>
      <trkpt lat="49.232804" lon="20.313282"></trkpt>
      <trkpt lat="49.232315" lon="20.313458"></trkpt>
      <trkpt lat="49.232006" lon="20.313929"></trkpt>
      <trkpt lat="49.231447" lon="20.315386"></trkpt>
      <trkpt lat="49.230047" lon="20.316612"></trkpt>
      <trkpt lat="49.225777" lon="20.322839"></trkpt>
      <trkpt lat="49.221979" lon="20.32897"></trkpt>
      <trkpt lat="49.220507" lon="20.332341"></trkpt>
      <trkpt lat="49.220101" lon="20.332528"></trkpt>
      <trkpt lat="49.219135" lon="20.331734"></trkpt>
      <trkpt lat="49.216472" lon="20.330419"></trkpt>
      <trkpt lat="49.215854" lon="20.329889"></trkpt>
      <trkpt lat="49.215353" lon="20.329184"></trkpt>
      <trkpt lat="49.207304" lon="20.310656"></trkpt>
      <trkpt lat="49.2067" lon="20.30963"></trkpt>
      <trkpt lat="49.206041" lon="20.309046"></trkpt>
      <trkpt lat="49.200726" lon="20.306265"></trkpt>
      <trkpt lat="49.197534" lon="20.303451"></trkpt>
      <trkpt lat="49.194886" lon="20.301596"></trkpt>
      <trkpt lat="49.194149" lon="20.300737"></trkpt>
      <trkpt lat="49.188756" lon="20.293384"></trkpt>
      <trkpt lat="49.183791" lon="20.289846"></trkpt>
      <trkpt lat="49.183273" lon="20.289636"></trkpt>
      <trkpt lat="49.18283" lon="20.289616"></trkpt>
      <trkpt lat="49.182297" lon="20.28975"></trkpt>
      <trkpt lat="49.181808" lon="20.290075"></trkpt>
      <trkpt lat="49.178424" lon="20.29361"></trkpt>
      <trkpt lat="49.17785" lon="20.293979"></trkpt>
      <trkpt lat="49.177345" lon="20.294048"></trkpt>
      <trkpt lat="49.174193" lon="20.293946"></trkpt>
      <trkpt lat="49.172564" lon="20.294065"></trkpt>
      <trkpt lat="49.171926" lon="20.293954"></trkpt>
      <trkpt lat="49.171423" lon="20.293573"></trkpt>
      <trkpt lat="49.171138" lon="20.293094"></trkpt>
      <trkpt lat="49.170939" lon="20.292324"></trkpt>
      <trkpt lat="49.171004" lon="20.289735"></trkpt>
      <trkpt lat="49.17063" lon="20.288123"></trkpt>
      <trkpt lat="49.170257" lon="20.287427"></trkpt>
      <trkpt lat="49.169768" lon="20.286855"></trkpt>
      <trkpt lat="49.168457" lon="20.286179"></trkpt>
      <trkpt lat="49.168203" lon="20.285935"></trkpt>
      <trkpt lat="49.167331" lon="20.284425"></trkpt>
      <trkpt lat="49.166531" lon="20.282427"></trkpt>
      <trkpt lat="49.165581" lon="20.278411"></trkpt>
      <trkpt lat="49.165335" lon="20.278106"></trkpt>
      <trkpt lat="49.164317" lon="20.27734"></trkpt>
      <trkpt lat="49.163739" lon="20.276465"></trkpt>
      <trkpt lat="49.163529" lon="20.275743"></trkpt>
      <trkpt lat="49.163244" lon="20.273791"></trkpt>
      <trkpt lat="49.162812" lon="20.272368"></trkpt>
      <trkpt lat="49.162048" lon="20.27197"></trkpt>
      <trkpt lat="49.161563" lon="20.271903"></trkpt>
      <trkpt lat="49.159395" lon="20.272731"></trkpt>
      <trkpt lat="49.15848" lon="20.272829"></trkpt>
      <trkpt lat="49.15756" lon="20.272742"></trkpt>
      <trkpt lat="49.15689" lon="20.272506"></trkpt>
      <trkpt lat="49.156281" lon="20.272101"></trkpt>
      <trkpt lat="49.155291" lon="20.270893"></trkpt>
      <trkpt lat="49.153889" lon="20.267395"></trkpt>
      <trkpt lat="49.151926" lon="20.263672"></trkpt>
      <trkpt lat="49.151835" lon="20.262896"></trkpt>
      <trkpt lat="49.152017" lon="20.261412"></trkpt>
      <trkpt lat="49.151895" lon="20.260824"></trkpt>
      <trkpt lat="49.151556" lon="20.260305"></trkpt>
      <trkpt lat="49.150549" lon="20.259687"></trkpt>
      <trkpt lat="49.150193" lon="20.258862"></trkpt>
      <trkpt lat="49.150081" lon="20.25773"></trkpt>
      <trkpt lat="49.150329" lon="20.255583"></trkpt>
      <trkpt lat="49.150419" lon="20.253105"></trkpt>
      <trkpt lat="49.150282" lon="20.252427"></trkpt>
      <trkpt lat="49.149833" lon="20.252013"></trkpt>
      <trkpt lat="49.14905" lon="20.252134"></trkpt>
      <trkpt lat="49.148644" lon="20.252086"></trkpt>
      <trkpt lat="49.148094" lon="20.251587"></trkpt>
      <trkpt lat="49.145379" lon="20.247284"></trkpt>
      <trkpt lat="49.145074" lon="20.246459"></trkpt>
      <trkpt lat="49.144391" lon="20.243699"></trkpt>
      <trkpt lat="49.143939" lon="20.242626"></trkpt>
      <trkpt lat="49.142917" lon="20.241308"></trkpt>
      <trkpt lat="49.142683" lon="20.241319"></trkpt>
      <trkpt lat="49.141895" lon="20.240608"></trkpt>
      <trkpt lat="49.140774" lon="20.238787"></trkpt>
      <trkpt lat="49.140371" lon="20.238428"></trkpt>
      <trkpt lat="49.138895" lon="20.238426"></trkpt>
      <trkpt lat="49.136937" lon="20.237915"></trkpt>
      <trkpt lat="49.136289" lon="20.237918"></trkpt>
      <trkpt lat="49.13574" lon="20.238164"></trkpt>
      <trkpt lat="49.134789" lon="20.239591"></trkpt>
      <trkpt lat="49.133637" lon="20.240517"></trkpt>
      <trkpt lat="49.133046" lon="20.241321"></trkpt>
      <trkpt lat="49.132345" lon="20.241768"></trkpt>
      <trkpt lat="49.132087" lon="20.242316"></trkpt>
      <trkpt lat="49.130662" lon="20.244306"></trkpt>
      <trkpt lat="49.129723" lon="20.24653"></trkpt>
      <trkpt lat="49.128396" lon="20.248391"></trkpt>
      <trkpt lat="49.127853" lon="20.249891"></trkpt>
      <trkpt lat="49.127606" lon="20.250215"></trkpt>
      <trkpt lat="49.126249" lon="20.251196"></trkpt>
      <trkpt lat="49.126031" lon="20.251231"></trkpt>
      <trkpt lat="49.125812" lon="20.250984"></trkpt>
      <trkpt lat="49.124721" lon="20.248901"></trkpt>
      <trkpt lat="49.124238" lon="20.247445"></trkpt>
      <trkpt lat="49.124058" lon="20.245838"></trkpt>
      <trkpt lat="49.119078" lon="20.25245"></trkpt>
      <trkpt lat="49.118462" lon="20.253402"></trkpt>
      <trkpt lat="49.11714" lon="20.256225"></trkpt>
      <trkpt lat="49.116044" lon="20.260192"></trkpt>
      <trkpt lat="49.115635" lon="20.261286"></trkpt>
      <trkpt lat="49.114719" lon="20.2627"></trkpt>
      <trkpt lat="49.113984" lon="20.26338"></trkpt>
      <trkpt lat="49.113364" lon="20.263743"></trkpt>
      <trkpt lat="49.112793" lon="20.263931"></trkpt>
      <trkpt lat="49.112045" lon="20.264"></trkpt>
      <trkpt lat="49.110987" lon="20.263759"></trkpt>
      <trkpt lat="49.110318" lon="20.26337"></trkpt>
      <trkpt lat="49.107194" lon="20.260806"></trkpt>
      <trkpt lat="49.10562" lon="20.260039"></trkpt>
      <trkpt lat="49.104609" lon="20.259787"></trkpt>
      <trkpt lat="49.103222" lon="20.259717"></trkpt>
      <trkpt lat="49.09992" lon="20.26009"></trkpt>
      <trkpt lat="49.096387" lon="20.259978"></trkpt>
      <trkpt lat="49.09473" lon="20.260176"></trkpt>
      <trkpt lat="49.092451" lon="20.260726"></trkpt>
      <trkpt lat="49.089542" lon="20.261997"></trkpt>
      <trkpt lat="49.086751" lon="20.263872"></trkpt>
      <trkpt lat="49.085364" lon="20.26508"></trkpt>
      <trkpt lat="49.082927" lon="20.267559"></trkpt>
      <trkpt lat="49.081959" lon="20.268269"></trkpt>
      <trkpt lat="49.079498" lon="20.269679"></trkpt>
      <trkpt lat="49.077768" lon="20.271045"></trkpt>
      <trkpt lat="49.076561" lon="20.272288"></trkpt>
      <trkpt lat="49.074465" lon="20.274937"></trkpt>
      <trkpt lat="49.073618" lon="20.275489"></trkpt>
      <trkpt lat="49.0727" lon="20.275719"></trkpt>
      <trkpt lat="49.071737" lon="20.275549"></trkpt>
      <trkpt lat="49.070646" lon="20.274811"></trkpt>
      <trkpt lat="49.0682" lon="20.27129"></trkpt>
      <trkpt lat="49.067316" lon="20.270399"></trkpt>
      <trkpt lat="49.066278" lon="20.269657"></trkpt>
      <trkpt lat="49.0657" lon="20.269333"></trkpt>
      <trkpt lat="49.064099" lon="20.268859"></trkpt>
      <trkpt lat="49.062942" lon="20.268807"></trkpt>
      <trkpt lat="49.061553" lon="20.269086"></trkpt>
      <trkpt lat="49.061224" lon="20.268939"></trkpt>
      <trkpt lat="49.060503" lon="20.268035"></trkpt>
      <trkpt lat="49.06029" lon="20.267396"></trkpt>
      <trkpt lat="49.060623" lon="20.265207"></trkpt>
      <trkpt lat="49.059802" lon="20.264835"></trkpt>
      <trkpt lat="49.059374" lon="20.264805"></trkpt>
      <trkpt lat="49.059005" lon="20.265003"></trkpt>
      <trkpt lat="49.058885" lon="20.264932"></trkpt>
      <trkpt lat="49.058735" lon="20.265373"></trkpt>
      <trkpt lat="49.057755" lon="20.266833"></trkpt>
      <trkpt lat="49.058376" lon="20.267824"></trkpt>
      <trkpt lat="49.057755" lon="20.266833"></trkpt>
      <trkpt lat="49.058868" lon="20.265095"></trkpt>
      <trkpt lat="49.05895" lon="20.265139"></trkpt>
      <trkpt lat="49.059005" lon="20.265003"></trkpt>
      <trkpt lat="49.059539" lon="20.264787"></trkpt>
      <trkpt lat="49.060179" lon="20.264993"></trkpt>
      <trkpt lat="49.060392" lon="20.265196"></trkpt>
      <trkpt lat="49.060536" lon="20.265668"></trkpt>
      <trkpt lat="49.059175" lon="20.27272"></trkpt>
      <trkpt lat="49.059298" lon="20.272664"></trkpt>
      <trkpt lat="49.06117" lon="20.269233"></trkpt>
      <trkpt lat="49.062004" lon="20.268956"></trkpt>
      <trkpt lat="49.062942" lon="20.268807"></trkpt>
      <trkpt lat="49.06377" lon="20.268813"></trkpt>
      <trkpt lat="49.064687" lon="20.268981"></trkpt>
      <trkpt lat="49.0657" lon="20.269333"></trkpt>
      <trkpt lat="49.066278" lon="20.269657"></trkpt>
      <trkpt lat="49.066895" lon="20.27005"></trkpt>
      <trkpt lat="49.067748" lon="20.270807"></trkpt>
      <trkpt lat="49.068783" lon="20.272029"></trkpt>
      <trkpt lat="49.070244" lon="20.274349"></trkpt>
      <trkpt lat="49.07082" lon="20.274971"></trkpt>
      <trkpt lat="49.071568" lon="20.275469"></trkpt>
      <trkpt lat="49.072066" lon="20.275662"></trkpt>
      <trkpt lat="49.073233" lon="20.275644"></trkpt>
      <trkpt lat="49.073977" lon="20.275305"></trkpt>
      <trkpt lat="49.074465" lon="20.274937"></trkpt>
      <trkpt lat="49.076561" lon="20.272288"></trkpt>
      <trkpt lat="49.078223" lon="20.270639"></trkpt>
      <trkpt lat="49.079498" lon="20.269679"></trkpt>
      <trkpt lat="49.081959" lon="20.268269"></trkpt>
      <trkpt lat="49.082927" lon="20.267559"></trkpt>
      <trkpt lat="49.085364" lon="20.26508"></trkpt>
      <trkpt lat="49.087562" lon="20.263258"></trkpt>
      <trkpt lat="49.089542" lon="20.261997"></trkpt>
      <trkpt lat="49.09112" lon="20.261232"></trkpt>
      <trkpt lat="49.092451" lon="20.260726"></trkpt>
      <trkpt lat="49.09473" lon="20.260176"></trkpt>
      <trkpt lat="49.096387" lon="20.259978"></trkpt>
      <trkpt lat="49.09992" lon="20.26009"></trkpt>
      <trkpt lat="49.103222" lon="20.259717"></trkpt>
      <trkpt lat="49.104609" lon="20.259787"></trkpt>
      <trkpt lat="49.10562" lon="20.260039"></trkpt>
      <trkpt lat="49.107194" lon="20.260806"></trkpt>
      <trkpt lat="49.110318" lon="20.26337"></trkpt>
      <trkpt lat="49.110987" lon="20.263759"></trkpt>
      <trkpt lat="49.112045" lon="20.264"></trkpt>
      <trkpt lat="49.112793" lon="20.263931"></trkpt>
      <trkpt lat="49.113364" lon="20.263743"></trkpt>
      <trkpt lat="49.113984" lon="20.26338"></trkpt>
      <trkpt lat="49.114719" lon="20.2627"></trkpt>
      <trkpt lat="49.115635" lon="20.261286"></trkpt>
      <trkpt lat="49.116044" lon="20.260192"></trkpt>
      <trkpt lat="49.11714" lon="20.256225"></trkpt>
      <trkpt lat="49.117918" lon="20.254417"></trkpt>
      <trkpt lat="49.118757" lon="20.25292"></trkpt>
      <trkpt lat="49.124058" lon="20.245838"></trkpt>
      <trkpt lat="49.124163" lon="20.246332"></trkpt>
  </trkseg></trk>
</gpx>
