<?xml version="1.0" encoding="UTF-8"?>
<gpx version="1.1" creator="yatutbuv" xmlns="http://www.topografix.com/GPX/1/1">
  <trk><name>GraphHopper Track</name><trkseg>
      <trkpt lat="52.211531" lon="20.957096"></trkpt>
      <trkpt lat="52.211662" lon="20.956575"></trkpt>
      <trkpt lat="52.211779" lon="20.956654"></trkpt>
      <trkpt lat="52.211972" lon="20.955694"></trkpt>
      <trkpt lat="52.211886" lon="20.95302"></trkpt>
      <trkpt lat="52.209714" lon="20.94972"></trkpt>
      <trkpt lat="52.209434" lon="20.949801"></trkpt>
      <trkpt lat="52.209366" lon="20.949656"></trkpt>
      <trkpt lat="52.209335" lon="20.949517"></trkpt>
      <trkpt lat="52.209921" lon="20.94946"></trkpt>
      <trkpt lat="52.210175" lon="20.94929"></trkpt>
      <trkpt lat="52.202556" lon="20.938087"></trkpt>
      <trkpt lat="52.197333" lon="20.930182"></trkpt>
      <trkpt lat="52.195269" lon="20.927454"></trkpt>
      <trkpt lat="52.190509" lon="20.919818"></trkpt>
      <trkpt lat="52.18963" lon="20.918639"></trkpt>
      <trkpt lat="52.189034" lon="20.918062"></trkpt>
      <trkpt lat="52.188" lon="20.917553"></trkpt>
      <trkpt lat="52.17667" lon="20.913622"></trkpt>
      <trkpt lat="52.176" lon="20.91318"></trkpt>
      <trkpt lat="52.174529" lon="20.912559"></trkpt>
      <trkpt lat="52.172746" lon="20.911611"></trkpt>
      <trkpt lat="52.172361" lon="20.911257"></trkpt>
      <trkpt lat="52.172225" lon="20.910498"></trkpt>
      <trkpt lat="52.172346" lon="20.910102"></trkpt>
      <trkpt lat="52.172574" lon="20.909865"></trkpt>
      <trkpt lat="52.173026" lon="20.909816"></trkpt>
      <trkpt lat="52.173295" lon="20.910157"></trkpt>
      <trkpt lat="52.173372" lon="20.910732"></trkpt>
      <trkpt lat="52.173221" lon="20.911565"></trkpt>
      <trkpt lat="52.163147" lon="20.944583"></trkpt>
      <trkpt lat="52.161399" lon="20.948504"></trkpt>
      <trkpt lat="52.159958" lon="20.951117"></trkpt>
      <trkpt lat="52.158672" lon="20.953119"></trkpt>
      <trkpt lat="52.157081" lon="20.955223"></trkpt>
      <trkpt lat="52.155514" lon="20.956993"></trkpt>
      <trkpt lat="52.153651" lon="20.958751"></trkpt>
      <trkpt lat="52.152585" lon="20.959605"></trkpt>
      <trkpt lat="52.146303" lon="20.963966"></trkpt>
      <trkpt lat="52.144411" lon="20.965816"></trkpt>
      <trkpt lat="52.143285" lon="20.967286"></trkpt>
      <trkpt lat="52.142084" lon="20.969266"></trkpt>
      <trkpt lat="52.141254" lon="20.970987"></trkpt>
      <trkpt lat="52.140272" lon="20.97362"></trkpt>
      <trkpt lat="52.139643" lon="20.975931"></trkpt>
      <trkpt lat="52.139182" lon="20.978305"></trkpt>
      <trkpt lat="52.138791" lon="20.982336"></trkpt>
      <trkpt lat="52.139014" lon="20.998808"></trkpt>
      <trkpt lat="52.139377" lon="21.00715"></trkpt>
      <trkpt lat="52.139386" lon="21.010675"></trkpt>
      <trkpt lat="52.139195" lon="21.013421"></trkpt>
      <trkpt lat="52.139268" lon="21.01745"></trkpt>
      <trkpt lat="52.139133" lon="21.017547"></trkpt>
      <trkpt lat="52.137424" lon="21.017756"></trkpt>
      <trkpt lat="52.123009" lon="21.018093"></trkpt>
      <trkpt lat="52.123088" lon="21.019776"></trkpt>
      <trkpt lat="52.123419" lon="21.019694"></trkpt>
      <trkpt lat="52.12341" lon="21.018985"></trkpt>
      <trkpt lat="52.123234" lon="21.01904"></trkpt>
      <trkpt lat="52.123226" lon="21.019372"></trkpt>
  </trkseg></trk>
</gpx>
