<?xml version="1.0" encoding="UTF-8"?>
<gpx version="1.1" creator="yatutbuv" xmlns="http://www.topografix.com/GPX/1/1">
  <trk><name>GraphHopper Track</name><trkseg>
      <trkpt lat="50.540919" lon="30.272335"></trkpt>
      <trkpt lat="50.541145" lon="30.272512"></trkpt>
      <trkpt lat="50.54342" lon="30.264173"></trkpt>
      <trkpt lat="50.544611" lon="30.264164"></trkpt>
      <trkpt lat="50.544825" lon="30.264249"></trkpt>
      <trkpt lat="50.545317" lon="30.264074"></trkpt>
      <trkpt lat="50.547925" lon="30.264179"></trkpt>
      <trkpt lat="50.548467" lon="30.264323"></trkpt>
      <trkpt lat="50.549347" lon="30.264862"></trkpt>
      <trkpt lat="50.549775" lon="30.265851"></trkpt>
      <trkpt lat="50.55339" lon="30.278666"></trkpt>
      <trkpt lat="50.553476" lon="30.279893"></trkpt>
      <trkpt lat="50.553166" lon="30.281388"></trkpt>
      <trkpt lat="50.553154" lon="30.282589"></trkpt>
      <trkpt lat="50.553836" lon="30.291952"></trkpt>
      <trkpt lat="50.553722" lon="30.293147"></trkpt>
      <trkpt lat="50.553309" lon="30.29485"></trkpt>
      <trkpt lat="50.552924" lon="30.295788"></trkpt>
      <trkpt lat="50.551239" lon="30.297729"></trkpt>
      <trkpt lat="50.548587" lon="30.301494"></trkpt>
      <trkpt lat="50.520936" lon="30.349388"></trkpt>
      <trkpt lat="50.518866" lon="30.352727"></trkpt>
      <trkpt lat="50.517872" lon="30.355035"></trkpt>
      <trkpt lat="50.515901" lon="30.361396"></trkpt>
      <trkpt lat="50.515508" lon="30.3632"></trkpt>
      <trkpt lat="50.515461" lon="30.364815"></trkpt>
      <trkpt lat="50.515579" lon="30.365963"></trkpt>
      <trkpt lat="50.5158" lon="30.367014"></trkpt>
      <trkpt lat="50.516819" lon="30.370309"></trkpt>
      <trkpt lat="50.517127" lon="30.372024"></trkpt>
      <trkpt lat="50.521145" lon="30.425008"></trkpt>
      <trkpt lat="50.521408" lon="30.426478"></trkpt>
      <trkpt lat="50.52213" lon="30.428555"></trkpt>
      <trkpt lat="50.522711" lon="30.429597"></trkpt>
      <trkpt lat="50.524434" lon="30.432129"></trkpt>
      <trkpt lat="50.524907" lon="30.433148"></trkpt>
      <trkpt lat="50.525445" lon="30.43493"></trkpt>
      <trkpt lat="50.525697" lon="30.436692"></trkpt>
      <trkpt lat="50.52621" lon="30.443183"></trkpt>
      <trkpt lat="50.527152" lon="30.452662"></trkpt>
      <trkpt lat="50.526894" lon="30.452933"></trkpt>
      <trkpt lat="50.526413" lon="30.45268"></trkpt>
      <trkpt lat="50.521216" lon="30.449723"></trkpt>
      <trkpt lat="50.520961" lon="30.449226"></trkpt>
      <trkpt lat="50.520781" lon="30.449175"></trkpt>
      <trkpt lat="50.520617" lon="30.449471"></trkpt>
      <trkpt lat="50.52069" lon="30.450002"></trkpt>
      <trkpt lat="50.520257" lon="30.452915"></trkpt>
      <trkpt lat="50.519946" lon="30.45343"></trkpt>
      <trkpt lat="50.500982" lon="30.460265"></trkpt>
      <trkpt lat="50.497622" lon="30.463229"></trkpt>
      <trkpt lat="50.489861" lon="30.471458"></trkpt>
      <trkpt lat="50.48908" lon="30.472439"></trkpt>
      <trkpt lat="50.488741" lon="30.473266"></trkpt>
      <trkpt lat="50.487772" lon="30.479873"></trkpt>
      <trkpt lat="50.487367" lon="30.481242"></trkpt>
      <trkpt lat="50.487052" lon="30.48176"></trkpt>
      <trkpt lat="50.481461" lon="30.488369"></trkpt>
      <trkpt lat="50.477245" lon="30.495192"></trkpt>
      <trkpt lat="50.477109" lon="30.49611"></trkpt>
      <trkpt lat="50.477438" lon="30.497536"></trkpt>
      <trkpt lat="50.477404" lon="30.498202"></trkpt>
      <trkpt lat="50.475472" lon="30.501378"></trkpt>
      <trkpt lat="50.47518" lon="30.502117"></trkpt>
      <trkpt lat="50.475023" lon="30.504744"></trkpt>
      <trkpt lat="50.475234" lon="30.507827"></trkpt>
      <trkpt lat="50.475232" lon="30.510477"></trkpt>
      <trkpt lat="50.47459" lon="30.510476"></trkpt>
  </trkseg></trk>
</gpx>
