<?xml version="1.0" encoding="UTF-8"?>
<gpx version="1.1" creator="yatutbuv" xmlns="http://www.topografix.com/GPX/1/1">
  <trk><name>GraphHopper Track</name><trkseg>
      <trkpt lat="50.20988" lon="24.381612"></trkpt>
      <trkpt lat="50.210048" lon="24.38653"></trkpt>
      <trkpt lat="50.201642" lon="24.387513"></trkpt>
      <trkpt lat="50.201523" lon="24.38535"></trkpt>
      <trkpt lat="50.195713" lon="24.386112"></trkpt>
      <trkpt lat="50.195007" lon="24.386368"></trkpt>
      <trkpt lat="50.194406" lon="24.386743"></trkpt>
      <trkpt lat="50.190861" lon="24.389613"></trkpt>
      <trkpt lat="50.189615" lon="24.390313"></trkpt>
      <trkpt lat="50.188464" lon="24.390883"></trkpt>
      <trkpt lat="50.183728" lon="24.392295"></trkpt>
      <trkpt lat="50.183326" lon="24.392275"></trkpt>
      <trkpt lat="50.182878" lon="24.39203"></trkpt>
      <trkpt lat="50.177571" lon="24.387669"></trkpt>
      <trkpt lat="50.176944" lon="24.387507"></trkpt>
      <trkpt lat="50.173959" lon="24.388171"></trkpt>
      <trkpt lat="50.168388" lon="24.388412"></trkpt>
      <trkpt lat="50.158617" lon="24.390298"></trkpt>
      <trkpt lat="50.156108" lon="24.390666"></trkpt>
      <trkpt lat="50.154744" lon="24.391015"></trkpt>
      <trkpt lat="50.142383" lon="24.391106"></trkpt>
      <trkpt lat="50.142183" lon="24.391033"></trkpt>
      <trkpt lat="50.125348" lon="24.350978"></trkpt>
      <trkpt lat="50.12485" lon="24.350034"></trkpt>
      <trkpt lat="50.123845" lon="24.34889"></trkpt>
      <trkpt lat="50.12294" lon="24.348319"></trkpt>
      <trkpt lat="50.122481" lon="24.348232"></trkpt>
      <trkpt lat="50.118866" lon="24.348296"></trkpt>
      <trkpt lat="50.117758" lon="24.347775"></trkpt>
      <trkpt lat="50.117341" lon="24.347413"></trkpt>
      <trkpt lat="50.116951" lon="24.346855"></trkpt>
      <trkpt lat="50.115766" lon="24.344353"></trkpt>
      <trkpt lat="50.114681" lon="24.342397"></trkpt>
      <trkpt lat="50.113691" lon="24.341776"></trkpt>
      <trkpt lat="50.112272" lon="24.340578"></trkpt>
      <trkpt lat="50.10957" lon="24.338687"></trkpt>
      <trkpt lat="50.108885" lon="24.337733"></trkpt>
      <trkpt lat="50.108418" lon="24.337581"></trkpt>
      <trkpt lat="50.107627" lon="24.337698"></trkpt>
      <trkpt lat="50.106412" lon="24.338445"></trkpt>
      <trkpt lat="50.105352" lon="24.338461"></trkpt>
      <trkpt lat="50.104986" lon="24.338597"></trkpt>
      <trkpt lat="50.104052" lon="24.339336"></trkpt>
      <trkpt lat="50.103363" lon="24.340897"></trkpt>
      <trkpt lat="50.10267" lon="24.341612"></trkpt>
      <trkpt lat="50.101169" lon="24.342262"></trkpt>
      <trkpt lat="50.099506" lon="24.342706"></trkpt>
      <trkpt lat="50.099522" lon="24.343916"></trkpt>
      <trkpt lat="50.099319" lon="24.344149"></trkpt>
      <trkpt lat="50.098742" lon="24.343846"></trkpt>
      <trkpt lat="50.097996" lon="24.343062"></trkpt>
      <trkpt lat="50.092035" lon="24.336351"></trkpt>
      <trkpt lat="50.079382" lon="24.33212"></trkpt>
      <trkpt lat="50.078765" lon="24.331926"></trkpt>
      <trkpt lat="50.078136" lon="24.331934"></trkpt>
      <trkpt lat="50.070556" lon="24.333953"></trkpt>
      <trkpt lat="50.070025" lon="24.334007"></trkpt>
      <trkpt lat="50.055623" lon="24.330429"></trkpt>
      <trkpt lat="50.055255" lon="24.330404"></trkpt>
      <trkpt lat="50.045929" lon="24.332035"></trkpt>
      <trkpt lat="50.044833" lon="24.33204"></trkpt>
      <trkpt lat="50.043686" lon="24.331302"></trkpt>
      <trkpt lat="50.034051" lon="24.323578"></trkpt>
      <trkpt lat="50.033439" lon="24.322931"></trkpt>
      <trkpt lat="50.032839" lon="24.322021"></trkpt>
      <trkpt lat="50.021449" lon="24.300548"></trkpt>
      <trkpt lat="49.991986" lon="24.245681"></trkpt>
      <trkpt lat="49.991729" lon="24.245301"></trkpt>
      <trkpt lat="49.989859" lon="24.24343"></trkpt>
      <trkpt lat="49.988091" lon="24.241133"></trkpt>
      <trkpt lat="49.989205" lon="24.221404"></trkpt>
      <trkpt lat="49.988735" lon="24.212"></trkpt>
      <trkpt lat="49.987821" lon="24.19808"></trkpt>
      <trkpt lat="49.987787" lon="24.194078"></trkpt>
      <trkpt lat="49.98802" lon="24.191568"></trkpt>
      <trkpt lat="49.989049" lon="24.185318"></trkpt>
      <trkpt lat="49.991222" lon="24.175005"></trkpt>
      <trkpt lat="49.989129" lon="24.174358"></trkpt>
      <trkpt lat="49.987182" lon="24.172835"></trkpt>
      <trkpt lat="49.986851" lon="24.172872"></trkpt>
      <trkpt lat="49.985961" lon="24.17343"></trkpt>
      <trkpt lat="49.985699" lon="24.173422"></trkpt>
      <trkpt lat="49.981282" lon="24.170504"></trkpt>
      <trkpt lat="49.979577" lon="24.169727"></trkpt>
      <trkpt lat="49.97886" lon="24.169536"></trkpt>
      <trkpt lat="49.973571" lon="24.170676"></trkpt>
      <trkpt lat="49.972398" lon="24.17044"></trkpt>
      <trkpt lat="49.971013" lon="24.169552"></trkpt>
      <trkpt lat="49.970247" lon="24.169436"></trkpt>
      <trkpt lat="49.969196" lon="24.168755"></trkpt>
      <trkpt lat="49.967285" lon="24.16605"></trkpt>
      <trkpt lat="49.966807" lon="24.164836"></trkpt>
      <trkpt lat="49.966289" lon="24.164495"></trkpt>
      <trkpt lat="49.965702" lon="24.164302"></trkpt>
      <trkpt lat="49.965463" lon="24.164411"></trkpt>
  </trkseg></trk>
</gpx>
