<?xml version="1.0" encoding="UTF-8"?>
<gpx version="1.1" creator="yatutbuv" xmlns="http://www.topografix.com/GPX/1/1">
  <trk><name>GraphHopper Track</name><trkseg>
      <trkpt lat="49.834496" lon="24.009278"></trkpt>
      <trkpt lat="49.834742" lon="24.009518"></trkpt>
      <trkpt lat="49.834803" lon="24.007279"></trkpt>
      <trkpt lat="49.83544" lon="24.005279"></trkpt>
      <trkpt lat="49.83598" lon="24.004625"></trkpt>
      <trkpt lat="49.837121" lon="24.003881"></trkpt>
      <trkpt lat="49.838187" lon="24.006947"></trkpt>
      <trkpt lat="49.842614" lon="24.018201"></trkpt>
      <trkpt lat="49.843209" lon="24.022765"></trkpt>
      <trkpt lat="49.844253" lon="24.024745"></trkpt>
      <trkpt lat="49.844682" lon="24.0268"></trkpt>
      <trkpt lat="49.844758" lon="24.029252"></trkpt>
      <trkpt lat="49.846357" lon="24.029104"></trkpt>
      <trkpt lat="49.847216" lon="24.028537"></trkpt>
      <trkpt lat="49.848043" lon="24.027805"></trkpt>
      <trkpt lat="49.850435" lon="24.026753"></trkpt>
      <trkpt lat="49.850952" lon="24.026836"></trkpt>
      <trkpt lat="49.850716" lon="24.029013"></trkpt>
      <trkpt lat="49.851397" lon="24.030163"></trkpt>
      <trkpt lat="49.853058" lon="24.035284"></trkpt>
      <trkpt lat="49.85401" lon="24.043929"></trkpt>
      <trkpt lat="49.864194" lon="24.052527"></trkpt>
      <trkpt lat="49.864847" lon="24.053601"></trkpt>
      <trkpt lat="49.865576" lon="24.053576"></trkpt>
      <trkpt lat="49.876081" lon="24.062649"></trkpt>
      <trkpt lat="49.877284" lon="24.064063"></trkpt>
      <trkpt lat="49.878672" lon="24.065974"></trkpt>
      <trkpt lat="49.879406" lon="24.067188"></trkpt>
      <trkpt lat="49.881923" lon="24.073586"></trkpt>
      <trkpt lat="49.882189" lon="24.074054"></trkpt>
      <trkpt lat="49.884605" lon="24.076108"></trkpt>
      <trkpt lat="49.885986" lon="24.078232"></trkpt>
      <trkpt lat="49.886307" lon="24.07902"></trkpt>
      <trkpt lat="49.892116" lon="24.098373"></trkpt>
      <trkpt lat="49.892219" lon="24.099845"></trkpt>
      <trkpt lat="49.891305" lon="24.113135"></trkpt>
      <trkpt lat="49.891388" lon="24.115541"></trkpt>
      <trkpt lat="49.893597" lon="24.129324"></trkpt>
      <trkpt lat="49.893952" lon="24.130475"></trkpt>
      <trkpt lat="49.897121" lon="24.138286"></trkpt>
      <trkpt lat="49.902489" lon="24.15115"></trkpt>
      <trkpt lat="49.902946" lon="24.15185"></trkpt>
      <trkpt lat="49.903461" lon="24.152218"></trkpt>
      <trkpt lat="49.920072" lon="24.160848"></trkpt>
      <trkpt lat="49.920271" lon="24.161262"></trkpt>
      <trkpt lat="49.920244" lon="24.162066"></trkpt>
      <trkpt lat="49.919877" lon="24.164072"></trkpt>
      <trkpt lat="49.919752" lon="24.165881"></trkpt>
      <trkpt lat="49.919917" lon="24.175408"></trkpt>
      <trkpt lat="49.918566" lon="24.187292"></trkpt>
      <trkpt lat="49.918463" lon="24.190562"></trkpt>
      <trkpt lat="49.917631" lon="24.194043"></trkpt>
      <trkpt lat="49.917786" lon="24.196557"></trkpt>
      <trkpt lat="49.917337" lon="24.199173"></trkpt>
      <trkpt lat="49.917142" lon="24.2017"></trkpt>
      <trkpt lat="49.917174" lon="24.205203"></trkpt>
      <trkpt lat="49.917455" lon="24.207405"></trkpt>
      <trkpt lat="49.917492" lon="24.208911"></trkpt>
      <trkpt lat="49.917328" lon="24.210134"></trkpt>
      <trkpt lat="49.916893" lon="24.217601"></trkpt>
      <trkpt lat="49.915066" lon="24.256694"></trkpt>
      <trkpt lat="49.915168" lon="24.259011"></trkpt>
      <trkpt lat="49.91551" lon="24.260909"></trkpt>
      <trkpt lat="49.919436" lon="24.273049"></trkpt>
      <trkpt lat="49.920095" lon="24.27589"></trkpt>
      <trkpt lat="49.920598" lon="24.279093"></trkpt>
      <trkpt lat="49.92085" lon="24.28245"></trkpt>
      <trkpt lat="49.921363" lon="24.310583"></trkpt>
      <trkpt lat="49.921881" lon="24.31351"></trkpt>
      <trkpt lat="49.923011" lon="24.317088"></trkpt>
      <trkpt lat="49.923347" lon="24.318495"></trkpt>
      <trkpt lat="49.9241" lon="24.323467"></trkpt>
      <trkpt lat="49.924038" lon="24.325707"></trkpt>
      <trkpt lat="49.919397" lon="24.349285"></trkpt>
      <trkpt lat="49.919258" lon="24.350765"></trkpt>
      <trkpt lat="49.919247" lon="24.353568"></trkpt>
      <trkpt lat="49.91943" lon="24.355491"></trkpt>
      <trkpt lat="49.920166" lon="24.359501"></trkpt>
      <trkpt lat="49.920583" lon="24.36055"></trkpt>
      <trkpt lat="49.921154" lon="24.36141"></trkpt>
      <trkpt lat="49.921822" lon="24.36204"></trkpt>
      <trkpt lat="49.922269" lon="24.362303"></trkpt>
      <trkpt lat="49.929412" lon="24.364498"></trkpt>
      <trkpt lat="49.933743" lon="24.366022"></trkpt>
      <trkpt lat="49.934917" lon="24.366203"></trkpt>
      <trkpt lat="49.937278" lon="24.36719"></trkpt>
      <trkpt lat="49.938093" lon="24.368213"></trkpt>
      <trkpt lat="49.947795" lon="24.382123"></trkpt>
      <trkpt lat="49.948441" lon="24.382828"></trkpt>
      <trkpt lat="49.949109" lon="24.383299"></trkpt>
      <trkpt lat="49.953363" lon="24.385524"></trkpt>
      <trkpt lat="49.95465" lon="24.386465"></trkpt>
      <trkpt lat="49.958031" lon="24.389678"></trkpt>
      <trkpt lat="49.958525" lon="24.390559"></trkpt>
      <trkpt lat="49.959214" lon="24.392536"></trkpt>
      <trkpt lat="49.959802" lon="24.393307"></trkpt>
      <trkpt lat="49.964331" lon="24.39583"></trkpt>
      <trkpt lat="49.965991" lon="24.397401"></trkpt>
      <trkpt lat="49.966472" lon="24.398063"></trkpt>
      <trkpt lat="49.967016" lon="24.399208"></trkpt>
      <trkpt lat="49.970708" lon="24.408767"></trkpt>
      <trkpt lat="49.978555" lon="24.4229"></trkpt>
      <trkpt lat="49.978838" lon="24.423648"></trkpt>
      <trkpt lat="49.979029" lon="24.424848"></trkpt>
      <trkpt lat="49.979491" lon="24.430448"></trkpt>
      <trkpt lat="49.979404" lon="24.437032"></trkpt>
      <trkpt lat="49.977813" lon="24.442799"></trkpt>
      <trkpt lat="49.977117" lon="24.448741"></trkpt>
      <trkpt lat="49.97661" lon="24.454413"></trkpt>
      <trkpt lat="49.97605" lon="24.457717"></trkpt>
      <trkpt lat="49.975574" lon="24.459839"></trkpt>
      <trkpt lat="49.974434" lon="24.463831"></trkpt>
      <trkpt lat="49.969298" lon="24.489652"></trkpt>
      <trkpt lat="49.968971" lon="24.493422"></trkpt>
      <trkpt lat="49.96902" lon="24.495602"></trkpt>
      <trkpt lat="49.969343" lon="24.498225"></trkpt>
      <trkpt lat="49.969335" lon="24.498981"></trkpt>
      <trkpt lat="49.967374" lon="24.512991"></trkpt>
      <trkpt lat="49.965967" lon="24.518872"></trkpt>
      <trkpt lat="49.962958" lon="24.523695"></trkpt>
      <trkpt lat="49.961318" lon="24.527326"></trkpt>
      <trkpt lat="49.961189" lon="24.528008"></trkpt>
      <trkpt lat="49.961013" lon="24.531213"></trkpt>
      <trkpt lat="49.961627" lon="24.539029"></trkpt>
      <trkpt lat="49.961882" lon="24.544"></trkpt>
      <trkpt lat="49.964038" lon="24.553596"></trkpt>
      <trkpt lat="49.964187" lon="24.554704"></trkpt>
      <trkpt lat="49.962101" lon="24.575425"></trkpt>
      <trkpt lat="49.962123" lon="24.577615"></trkpt>
      <trkpt lat="49.962659" lon="24.580737"></trkpt>
      <trkpt lat="49.963211" lon="24.582766"></trkpt>
      <trkpt lat="49.964041" lon="24.584514"></trkpt>
      <trkpt lat="49.968834" lon="24.592479"></trkpt>
      <trkpt lat="49.971763" lon="24.597057"></trkpt>
      <trkpt lat="49.974363" lon="24.60086"></trkpt>
      <trkpt lat="49.974922" lon="24.601461"></trkpt>
      <trkpt lat="49.975633" lon="24.601942"></trkpt>
      <trkpt lat="49.977208" lon="24.60274"></trkpt>
      <trkpt lat="49.978043" lon="24.60346"></trkpt>
      <trkpt lat="49.978978" lon="24.604861"></trkpt>
      <trkpt lat="49.97962" lon="24.606484"></trkpt>
      <trkpt lat="49.979997" lon="24.60879"></trkpt>
      <trkpt lat="49.981907" lon="24.632738"></trkpt>
      <trkpt lat="49.982351" lon="24.635076"></trkpt>
      <trkpt lat="49.985933" lon="24.650278"></trkpt>
      <trkpt lat="49.986362" lon="24.65368"></trkpt>
      <trkpt lat="49.986376" lon="24.656163"></trkpt>
      <trkpt lat="49.986148" lon="24.65976"></trkpt>
      <trkpt lat="49.983042" lon="24.704224"></trkpt>
      <trkpt lat="49.982935" lon="24.714198"></trkpt>
      <trkpt lat="49.982852" lon="24.759557"></trkpt>
      <trkpt lat="49.982691" lon="24.762003"></trkpt>
      <trkpt lat="49.982309" lon="24.76432"></trkpt>
      <trkpt lat="49.981527" lon="24.767026"></trkpt>
      <trkpt lat="49.980874" lon="24.768678"></trkpt>
      <trkpt lat="49.976207" lon="24.779009"></trkpt>
      <trkpt lat="49.97485" lon="24.782951"></trkpt>
      <trkpt lat="49.969825" lon="24.804011"></trkpt>
      <trkpt lat="49.964342" lon="24.827908"></trkpt>
      <trkpt lat="49.963615" lon="24.83151"></trkpt>
      <trkpt lat="49.963387" lon="24.834164"></trkpt>
      <trkpt lat="49.963897" lon="24.841394"></trkpt>
      <trkpt lat="49.965075" lon="24.849551"></trkpt>
      <trkpt lat="49.965033" lon="24.852154"></trkpt>
      <trkpt lat="49.964235" lon="24.861971"></trkpt>
      <trkpt lat="49.964421" lon="24.865314"></trkpt>
      <trkpt lat="49.964673" lon="24.867339"></trkpt>
      <trkpt lat="49.964988" lon="24.86879"></trkpt>
      <trkpt lat="49.965573" lon="24.870525"></trkpt>
      <trkpt lat="49.966318" lon="24.872283"></trkpt>
      <trkpt lat="49.967756" lon="24.874772"></trkpt>
      <trkpt lat="49.977964" lon="24.887469"></trkpt>
      <trkpt lat="49.978985" lon="24.889153"></trkpt>
      <trkpt lat="49.979926" lon="24.891215"></trkpt>
      <trkpt lat="49.980527" lon="24.893255"></trkpt>
      <trkpt lat="49.981009" lon="24.896605"></trkpt>
      <trkpt lat="49.981034" lon="24.898577"></trkpt>
      <trkpt lat="49.980815" lon="24.901133"></trkpt>
      <trkpt lat="49.979406" lon="24.910542"></trkpt>
      <trkpt lat="49.978856" lon="24.912693"></trkpt>
      <trkpt lat="49.978086" lon="24.914673"></trkpt>
      <trkpt lat="49.976926" lon="24.916681"></trkpt>
      <trkpt lat="49.975572" lon="24.918244"></trkpt>
      <trkpt lat="49.968788" lon="24.923523"></trkpt>
      <trkpt lat="49.967786" lon="24.924429"></trkpt>
      <trkpt lat="49.966904" lon="24.925548"></trkpt>
      <trkpt lat="49.965871" lon="24.927506"></trkpt>
      <trkpt lat="49.965407" lon="24.928747"></trkpt>
      <trkpt lat="49.965034" lon="24.930189"></trkpt>
      <trkpt lat="49.96438" lon="24.934275"></trkpt>
      <trkpt lat="49.964278" lon="24.935523"></trkpt>
      <trkpt lat="49.964348" lon="24.937295"></trkpt>
      <trkpt lat="49.965042" lon="24.941739"></trkpt>
      <trkpt lat="49.964972" lon="24.944149"></trkpt>
      <trkpt lat="49.964722" lon="24.946896"></trkpt>
      <trkpt lat="49.964728" lon="24.94824"></trkpt>
      <trkpt lat="49.967985" lon="24.970586"></trkpt>
      <trkpt lat="49.96812" lon="24.97212"></trkpt>
      <trkpt lat="49.968076" lon="24.973383"></trkpt>
      <trkpt lat="49.967629" lon="24.975508"></trkpt>
      <trkpt lat="49.963477" lon="24.988866"></trkpt>
      <trkpt lat="49.963153" lon="24.990951"></trkpt>
      <trkpt lat="49.961979" lon="25.002072"></trkpt>
      <trkpt lat="49.958518" lon="25.021931"></trkpt>
      <trkpt lat="49.958491" lon="25.024116"></trkpt>
      <trkpt lat="49.958727" lon="25.025543"></trkpt>
      <trkpt lat="49.97075" lon="25.069969"></trkpt>
      <trkpt lat="49.974499" lon="25.083453"></trkpt>
      <trkpt lat="49.974865" lon="25.08419"></trkpt>
      <trkpt lat="49.976842" lon="25.087211"></trkpt>
      <trkpt lat="49.990424" lon="25.107695"></trkpt>
      <trkpt lat="49.991176" lon="25.108368"></trkpt>
      <trkpt lat="50.005878" lon="25.117271"></trkpt>
      <trkpt lat="50.006721" lon="25.117975"></trkpt>
      <trkpt lat="50.057959" lon="25.148966"></trkpt>
      <trkpt lat="50.05923" lon="25.149722"></trkpt>
      <trkpt lat="50.060058" lon="25.150023"></trkpt>
      <trkpt lat="50.06382" lon="25.152301"></trkpt>
      <trkpt lat="50.064785" lon="25.153324"></trkpt>
      <trkpt lat="50.065366" lon="25.154129"></trkpt>
      <trkpt lat="50.066059" lon="25.155558"></trkpt>
      <trkpt lat="50.067959" lon="25.162447"></trkpt>
      <trkpt lat="50.069379" lon="25.165768"></trkpt>
      <trkpt lat="50.070317" lon="25.167201"></trkpt>
      <trkpt lat="50.071094" lon="25.167804"></trkpt>
      <trkpt lat="50.073671" lon="25.168702"></trkpt>
      <trkpt lat="50.08676" lon="25.172803"></trkpt>
      <trkpt lat="50.093618" lon="25.174407"></trkpt>
      <trkpt lat="50.094645" lon="25.174928"></trkpt>
      <trkpt lat="50.09552" lon="25.175684"></trkpt>
      <trkpt lat="50.105713" lon="25.188431"></trkpt>
      <trkpt lat="50.109598" lon="25.192687"></trkpt>
      <trkpt lat="50.116997" lon="25.204544"></trkpt>
      <trkpt lat="50.117778" lon="25.205899"></trkpt>
      <trkpt lat="50.118419" lon="25.207418"></trkpt>
      <trkpt lat="50.11905" lon="25.208562"></trkpt>
      <trkpt lat="50.120593" lon="25.210584"></trkpt>
      <trkpt lat="50.121732" lon="25.211611"></trkpt>
      <trkpt lat="50.121563" lon="25.212074"></trkpt>
      <trkpt lat="50.121594" lon="25.212378"></trkpt>
      <trkpt lat="50.122856" lon="25.214466"></trkpt>
      <trkpt lat="50.122958" lon="25.21368"></trkpt>
      <trkpt lat="50.122856" lon="25.214466"></trkpt>
      <trkpt lat="50.123743" lon="25.215867"></trkpt>
      <trkpt lat="50.124049" lon="25.216661"></trkpt>
      <trkpt lat="50.12893" lon="25.23502"></trkpt>
      <trkpt lat="50.129345" lon="25.236798"></trkpt>
      <trkpt lat="50.129459" lon="25.240035"></trkpt>
      <trkpt lat="50.12966" lon="25.24041"></trkpt>
      <trkpt lat="50.131282" lon="25.242374"></trkpt>
      <trkpt lat="50.131542" lon="25.242888"></trkpt>
      <trkpt lat="50.131666" lon="25.24346"></trkpt>
      <trkpt lat="50.131501" lon="25.244128"></trkpt>
      <trkpt lat="50.130252" lon="25.245884"></trkpt>
      <trkpt lat="50.12294" lon="25.251845"></trkpt>
      <trkpt lat="50.11943" lon="25.254481"></trkpt>
      <trkpt lat="50.118208" lon="25.25644"></trkpt>
      <trkpt lat="50.117083" lon="25.257435"></trkpt>
      <trkpt lat="50.115668" lon="25.259634"></trkpt>
      <trkpt lat="50.114425" lon="25.261199"></trkpt>
      <trkpt lat="50.111953" lon="25.263526"></trkpt>
      <trkpt lat="50.109651" lon="25.266214"></trkpt>
      <trkpt lat="50.107667" lon="25.269134"></trkpt>
      <trkpt lat="50.106896" lon="25.270864"></trkpt>
      <trkpt lat="50.105797" lon="25.277759"></trkpt>
      <trkpt lat="50.105284" lon="25.284649"></trkpt>
      <trkpt lat="50.103272" lon="25.297932"></trkpt>
      <trkpt lat="50.102843" lon="25.303242"></trkpt>
      <trkpt lat="50.103061" lon="25.304094"></trkpt>
      <trkpt lat="50.105898" lon="25.308493"></trkpt>
      <trkpt lat="50.106357" lon="25.309596"></trkpt>
      <trkpt lat="50.106616" lon="25.310967"></trkpt>
      <trkpt lat="50.105685" lon="25.355888"></trkpt>
      <trkpt lat="50.105334" lon="25.358067"></trkpt>
      <trkpt lat="50.104953" lon="25.358512"></trkpt>
      <trkpt lat="50.101243" lon="25.360223"></trkpt>
      <trkpt lat="50.100453" lon="25.361235"></trkpt>
      <trkpt lat="50.097842" lon="25.365421"></trkpt>
      <trkpt lat="50.096298" lon="25.367076"></trkpt>
      <trkpt lat="50.095684" lon="25.367553"></trkpt>
      <trkpt lat="50.093391" lon="25.368523"></trkpt>
      <trkpt lat="50.09131" lon="25.370983"></trkpt>
      <trkpt lat="50.090907" lon="25.371609"></trkpt>
      <trkpt lat="50.087367" lon="25.380704"></trkpt>
      <trkpt lat="50.079164" lon="25.389427"></trkpt>
      <trkpt lat="50.075441" lon="25.39317"></trkpt>
      <trkpt lat="50.073242" lon="25.395276"></trkpt>
      <trkpt lat="50.071079" lon="25.396949"></trkpt>
      <trkpt lat="50.070812" lon="25.397276"></trkpt>
      <trkpt lat="50.070687" lon="25.398094"></trkpt>
      <trkpt lat="50.070883" lon="25.408915"></trkpt>
      <trkpt lat="50.071123" lon="25.411599"></trkpt>
      <trkpt lat="50.071046" lon="25.412702"></trkpt>
      <trkpt lat="50.070672" lon="25.413552"></trkpt>
      <trkpt lat="50.067457" lon="25.417384"></trkpt>
      <trkpt lat="50.066526" lon="25.418204"></trkpt>
      <trkpt lat="50.063707" lon="25.419747"></trkpt>
      <trkpt lat="50.051327" lon="25.424517"></trkpt>
      <trkpt lat="50.049411" lon="25.426509"></trkpt>
      <trkpt lat="50.046313" lon="25.430218"></trkpt>
      <trkpt lat="50.045777" lon="25.430614"></trkpt>
      <trkpt lat="50.045287" lon="25.430674"></trkpt>
      <trkpt lat="50.042924" lon="25.430274"></trkpt>
      <trkpt lat="50.041687" lon="25.430185"></trkpt>
      <trkpt lat="50.03715" lon="25.430419"></trkpt>
      <trkpt lat="50.032406" lon="25.431457"></trkpt>
      <trkpt lat="50.031131" lon="25.431978"></trkpt>
      <trkpt lat="50.03037" lon="25.432711"></trkpt>
      <trkpt lat="50.022759" lon="25.441956"></trkpt>
      <trkpt lat="50.019976" lon="25.446362"></trkpt>
      <trkpt lat="50.014414" lon="25.454079"></trkpt>
      <trkpt lat="50.013896" lon="25.455127"></trkpt>
      <trkpt lat="50.013308" lon="25.458087"></trkpt>
      <trkpt lat="50.01221" lon="25.461301"></trkpt>
      <trkpt lat="50.011349" lon="25.464739"></trkpt>
      <trkpt lat="50.011371" lon="25.470439"></trkpt>
      <trkpt lat="50.010999" lon="25.473358"></trkpt>
      <trkpt lat="50.009708" lon="25.477751"></trkpt>
      <trkpt lat="50.009345" lon="25.480823"></trkpt>
      <trkpt lat="50.007838" lon="25.484724"></trkpt>
      <trkpt lat="50.007632" lon="25.490726"></trkpt>
      <trkpt lat="50.007395" lon="25.493093"></trkpt>
      <trkpt lat="50.006709" lon="25.495389"></trkpt>
      <trkpt lat="50.006121" lon="25.496561"></trkpt>
      <trkpt lat="50.005416" lon="25.498391"></trkpt>
      <trkpt lat="50.003724" lon="25.505522"></trkpt>
      <trkpt lat="50.003576" lon="25.506329"></trkpt>
      <trkpt lat="50.003655" lon="25.507467"></trkpt>
      <trkpt lat="50.00401" lon="25.509466"></trkpt>
      <trkpt lat="50.00484" lon="25.509514"></trkpt>
      <trkpt lat="50.005007" lon="25.507708"></trkpt>
      <trkpt lat="50.005437" lon="25.507728"></trkpt>
  </trkseg></trk>
</gpx>
