<?xml version="1.0" encoding="UTF-8"?>
<gpx version="1.1" creator="yatutbuv" xmlns="http://www.topografix.com/GPX/1/1">
  <trk><name>GraphHopper Track</name><trkseg>
      <trkpt lat="50.404591" lon="30.62224"></trkpt>
      <trkpt lat="50.402546" lon="30.623502"></trkpt>
      <trkpt lat="50.402703" lon="30.624701"></trkpt>
      <trkpt lat="50.402336" lon="30.626318"></trkpt>
      <trkpt lat="50.402238" lon="30.627279"></trkpt>
      <trkpt lat="50.403166" lon="30.631262"></trkpt>
      <trkpt lat="50.401927" lon="30.632011"></trkpt>
      <trkpt lat="50.401902" lon="30.633014"></trkpt>
      <trkpt lat="50.401276" lon="30.63316"></trkpt>
      <trkpt lat="50.397602" lon="30.634592"></trkpt>
      <trkpt lat="50.397207" lon="30.63418"></trkpt>
      <trkpt lat="50.397042" lon="30.633383"></trkpt>
      <trkpt lat="50.397301" lon="30.632673"></trkpt>
      <trkpt lat="50.397585" lon="30.632442"></trkpt>
      <trkpt lat="50.397851" lon="30.632489"></trkpt>
      <trkpt lat="50.39795" lon="30.632644"></trkpt>
      <trkpt lat="50.3987" lon="30.637469"></trkpt>
      <trkpt lat="50.39886" lon="30.637791"></trkpt>
      <trkpt lat="50.403016" lon="30.664855"></trkpt>
      <trkpt lat="50.403308" lon="30.667773"></trkpt>
      <trkpt lat="50.40335" lon="30.67246"></trkpt>
      <trkpt lat="50.402346" lon="30.682997"></trkpt>
      <trkpt lat="50.401861" lon="30.694729"></trkpt>
      <trkpt lat="50.397717" lon="30.734741"></trkpt>
      <trkpt lat="50.396827" lon="30.742264"></trkpt>
      <trkpt lat="50.388441" lon="30.780127"></trkpt>
      <trkpt lat="50.387832" lon="30.780936"></trkpt>
      <trkpt lat="50.386863" lon="30.781739"></trkpt>
      <trkpt lat="50.386475" lon="30.782527"></trkpt>
      <trkpt lat="50.386783" lon="30.783134"></trkpt>
      <trkpt lat="50.388625" lon="30.785204"></trkpt>
      <trkpt lat="50.389568" lon="30.786931"></trkpt>
      <trkpt lat="50.389742" lon="30.788611"></trkpt>
      <trkpt lat="50.3904" lon="30.790574"></trkpt>
      <trkpt lat="50.390459" lon="30.791605"></trkpt>
      <trkpt lat="50.390316" lon="30.795226"></trkpt>
      <trkpt lat="50.390436" lon="30.796419"></trkpt>
      <trkpt lat="50.390807" lon="30.7979"></trkpt>
      <trkpt lat="50.392197" lon="30.800346"></trkpt>
      <trkpt lat="50.392629" lon="30.801699"></trkpt>
      <trkpt lat="50.392783" lon="30.803437"></trkpt>
      <trkpt lat="50.392594" lon="30.805058"></trkpt>
      <trkpt lat="50.392642" lon="30.806582"></trkpt>
      <trkpt lat="50.392978" lon="30.807979"></trkpt>
      <trkpt lat="50.393363" lon="30.808853"></trkpt>
      <trkpt lat="50.406403" lon="30.828734"></trkpt>
      <trkpt lat="50.419788" lon="30.847704"></trkpt>
      <trkpt lat="50.420818" lon="30.845043"></trkpt>
      <trkpt lat="50.421658" lon="30.843498"></trkpt>
      <trkpt lat="50.429409" lon="30.832331"></trkpt>
      <trkpt lat="50.43018" lon="30.831293"></trkpt>
      <trkpt lat="50.431421" lon="30.82994"></trkpt>
      <trkpt lat="50.432345" lon="30.82922"></trkpt>
      <trkpt lat="50.433464" lon="30.828732"></trkpt>
      <trkpt lat="50.435173" lon="30.828507"></trkpt>
      <trkpt lat="50.437702" lon="30.828594"></trkpt>
      <trkpt lat="50.488829" lon="30.830985"></trkpt>
      <trkpt lat="50.493354" lon="30.831344"></trkpt>
      <trkpt lat="50.494996" lon="30.831831"></trkpt>
      <trkpt lat="50.496429" lon="30.832656"></trkpt>
      <trkpt lat="50.498003" lon="30.834186"></trkpt>
      <trkpt lat="50.501332" lon="30.838471"></trkpt>
      <trkpt lat="50.503829" lon="30.840207"></trkpt>
      <trkpt lat="50.507099" lon="30.842094"></trkpt>
      <trkpt lat="50.50793" lon="30.842677"></trkpt>
      <trkpt lat="50.509011" lon="30.843699"></trkpt>
      <trkpt lat="50.510135" lon="30.845376"></trkpt>
      <trkpt lat="50.515606" lon="30.856403"></trkpt>
      <trkpt lat="50.51722" lon="30.859345"></trkpt>
      <trkpt lat="50.520912" lon="30.864366"></trkpt>
      <trkpt lat="50.522241" lon="30.865817"></trkpt>
      <trkpt lat="50.523597" lon="30.866926"></trkpt>
      <trkpt lat="50.525365" lon="30.867824"></trkpt>
      <trkpt lat="50.526291" lon="30.868011"></trkpt>
      <trkpt lat="50.527454" lon="30.868012"></trkpt>
      <trkpt lat="50.529425" lon="30.867515"></trkpt>
      <trkpt lat="50.530194" lon="30.867446"></trkpt>
      <trkpt lat="50.530628" lon="30.867664"></trkpt>
      <trkpt lat="50.53097" lon="30.868049"></trkpt>
      <trkpt lat="50.531268" lon="30.868614"></trkpt>
      <trkpt lat="50.531476" lon="30.869453"></trkpt>
      <trkpt lat="50.531478" lon="30.870859"></trkpt>
      <trkpt lat="50.531055" lon="30.874017"></trkpt>
      <trkpt lat="50.528461" lon="30.883899"></trkpt>
      <trkpt lat="50.527535" lon="30.890969"></trkpt>
      <trkpt lat="50.526505" lon="30.896232"></trkpt>
      <trkpt lat="50.526406" lon="30.898085"></trkpt>
      <trkpt lat="50.526514" lon="30.902532"></trkpt>
      <trkpt lat="50.525071" lon="30.918604"></trkpt>
      <trkpt lat="50.524738" lon="30.927192"></trkpt>
      <trkpt lat="50.524506" lon="30.930632"></trkpt>
      <trkpt lat="50.52191" lon="30.94357"></trkpt>
      <trkpt lat="50.521792" lon="30.944862"></trkpt>
      <trkpt lat="50.521846" lon="30.951024"></trkpt>
      <trkpt lat="50.521733" lon="30.953241"></trkpt>
      <trkpt lat="50.519626" lon="30.969393"></trkpt>
      <trkpt lat="50.519087" lon="30.971181"></trkpt>
      <trkpt lat="50.513896" lon="30.981789"></trkpt>
      <trkpt lat="50.513546" lon="30.982613"></trkpt>
      <trkpt lat="50.51335" lon="30.98355"></trkpt>
      <trkpt lat="50.513417" lon="30.985495"></trkpt>
      <trkpt lat="50.514243" lon="30.994725"></trkpt>
      <trkpt lat="50.516829" lon="31.016079"></trkpt>
      <trkpt lat="50.517041" lon="31.021176"></trkpt>
      <trkpt lat="50.51685" lon="31.024078"></trkpt>
      <trkpt lat="50.516532" lon="31.025505"></trkpt>
      <trkpt lat="50.515929" lon="31.027409"></trkpt>
      <trkpt lat="50.511286" lon="31.037141"></trkpt>
      <trkpt lat="50.510544" lon="31.039197"></trkpt>
      <trkpt lat="50.510113" lon="31.041184"></trkpt>
      <trkpt lat="50.508087" lon="31.055534"></trkpt>
      <trkpt lat="50.507289" lon="31.059817"></trkpt>
      <trkpt lat="50.503476" lon="31.074546"></trkpt>
      <trkpt lat="50.499065" lon="31.084649"></trkpt>
      <trkpt lat="50.49693" lon="31.094741"></trkpt>
      <trkpt lat="50.496672" lon="31.096547"></trkpt>
      <trkpt lat="50.496637" lon="31.097952"></trkpt>
      <trkpt lat="50.496991" lon="31.106821"></trkpt>
      <trkpt lat="50.496556" lon="31.112989"></trkpt>
      <trkpt lat="50.497143" lon="31.121353"></trkpt>
      <trkpt lat="50.497014" lon="31.127608"></trkpt>
      <trkpt lat="50.496781" lon="31.129906"></trkpt>
      <trkpt lat="50.495195" lon="31.137525"></trkpt>
      <trkpt lat="50.494517" lon="31.143053"></trkpt>
      <trkpt lat="50.494426" lon="31.147626"></trkpt>
      <trkpt lat="50.494551" lon="31.152335"></trkpt>
      <trkpt lat="50.494404" lon="31.154358"></trkpt>
      <trkpt lat="50.493858" lon="31.158121"></trkpt>
      <trkpt lat="50.494276" lon="31.161404"></trkpt>
      <trkpt lat="50.494287" lon="31.166264"></trkpt>
      <trkpt lat="50.494476" lon="31.171599"></trkpt>
      <trkpt lat="50.494586" lon="31.172348"></trkpt>
      <trkpt lat="50.495345" lon="31.174922"></trkpt>
      <trkpt lat="50.495491" lon="31.176014"></trkpt>
      <trkpt lat="50.495296" lon="31.178504"></trkpt>
      <trkpt lat="50.494414" lon="31.182598"></trkpt>
      <trkpt lat="50.494312" lon="31.183547"></trkpt>
      <trkpt lat="50.49441" lon="31.185025"></trkpt>
      <trkpt lat="50.495105" lon="31.188363"></trkpt>
      <trkpt lat="50.495238" lon="31.189701"></trkpt>
      <trkpt lat="50.495417" lon="31.22289"></trkpt>
      <trkpt lat="50.49559" lon="31.225355"></trkpt>
      <trkpt lat="50.498002" lon="31.246237"></trkpt>
      <trkpt lat="50.49819" lon="31.251213"></trkpt>
      <trkpt lat="50.497912" lon="31.253372"></trkpt>
      <trkpt lat="50.496801" lon="31.257072"></trkpt>
      <trkpt lat="50.496334" lon="31.259388"></trkpt>
      <trkpt lat="50.49624" lon="31.260721"></trkpt>
      <trkpt lat="50.496249" lon="31.266246"></trkpt>
      <trkpt lat="50.494623" lon="31.275776"></trkpt>
      <trkpt lat="50.494522" lon="31.276889"></trkpt>
      <trkpt lat="50.498305" lon="31.314947"></trkpt>
      <trkpt lat="50.49874" lon="31.317291"></trkpt>
      <trkpt lat="50.499499" lon="31.31944"></trkpt>
      <trkpt lat="50.500274" lon="31.320888"></trkpt>
      <trkpt lat="50.505569" lon="31.32873"></trkpt>
      <trkpt lat="50.509242" lon="31.33321"></trkpt>
      <trkpt lat="50.5107" lon="31.335235"></trkpt>
      <trkpt lat="50.511807" lon="31.337104"></trkpt>
      <trkpt lat="50.515295" lon="31.344874"></trkpt>
      <trkpt lat="50.517127" lon="31.349628"></trkpt>
      <trkpt lat="50.519059" lon="31.355808"></trkpt>
      <trkpt lat="50.52134" lon="31.36391"></trkpt>
      <trkpt lat="50.522819" lon="31.367457"></trkpt>
      <trkpt lat="50.53045" lon="31.380188"></trkpt>
      <trkpt lat="50.533461" lon="31.385565"></trkpt>
      <trkpt lat="50.561473" lon="31.485869"></trkpt>
      <trkpt lat="50.563546" lon="31.49355"></trkpt>
      <trkpt lat="50.564202" lon="31.497539"></trkpt>
      <trkpt lat="50.564621" lon="31.498486"></trkpt>
      <trkpt lat="50.566632" lon="31.501581"></trkpt>
      <trkpt lat="50.567266" lon="31.503185"></trkpt>
      <trkpt lat="50.567361" lon="31.503962"></trkpt>
      <trkpt lat="50.567463" lon="31.509685"></trkpt>
      <trkpt lat="50.56761" lon="31.510618"></trkpt>
      <trkpt lat="50.568441" lon="31.512603"></trkpt>
      <trkpt lat="50.572453" lon="31.517516"></trkpt>
      <trkpt lat="50.573714" lon="31.519491"></trkpt>
      <trkpt lat="50.57415" lon="31.520553"></trkpt>
      <trkpt lat="50.576403" lon="31.535057"></trkpt>
      <trkpt lat="50.577692" lon="31.541867"></trkpt>
      <trkpt lat="50.586359" lon="31.590999"></trkpt>
      <trkpt lat="50.58646" lon="31.59231"></trkpt>
      <trkpt lat="50.586532" lon="31.62671"></trkpt>
      <trkpt lat="50.586844" lon="31.628548"></trkpt>
      <trkpt lat="50.587314" lon="31.630366"></trkpt>
      <trkpt lat="50.590001" lon="31.639456"></trkpt>
      <trkpt lat="50.590443" lon="31.644673"></trkpt>
      <trkpt lat="50.591285" lon="31.647686"></trkpt>
      <trkpt lat="50.59246" lon="31.65104"></trkpt>
      <trkpt lat="50.593194" lon="31.657958"></trkpt>
      <trkpt lat="50.594123" lon="31.661399"></trkpt>
      <trkpt lat="50.594676" lon="31.664116"></trkpt>
      <trkpt lat="50.595432" lon="31.670353"></trkpt>
      <trkpt lat="50.598604" lon="31.671247"></trkpt>
      <trkpt lat="50.599883" lon="31.671737"></trkpt>
      <trkpt lat="50.601032" lon="31.67578"></trkpt>
      <trkpt lat="50.60162" lon="31.679838"></trkpt>
      <trkpt lat="50.601947" lon="31.680825"></trkpt>
      <trkpt lat="50.603826" lon="31.682585"></trkpt>
      <trkpt lat="50.607155" lon="31.688"></trkpt>
      <trkpt lat="50.618015" lon="31.71314"></trkpt>
      <trkpt lat="50.619022" lon="31.714814"></trkpt>
      <trkpt lat="50.640658" lon="31.742676"></trkpt>
      <trkpt lat="50.645917" lon="31.749833"></trkpt>
      <trkpt lat="50.654461" lon="31.767214"></trkpt>
      <trkpt lat="50.655359" lon="31.769402"></trkpt>
      <trkpt lat="50.656583" lon="31.782964"></trkpt>
      <trkpt lat="50.656876" lon="31.785122"></trkpt>
      <trkpt lat="50.66265" lon="31.809872"></trkpt>
      <trkpt lat="50.663955" lon="31.816051"></trkpt>
      <trkpt lat="50.664148" lon="31.817856"></trkpt>
      <trkpt lat="50.664336" lon="31.821802"></trkpt>
      <trkpt lat="50.664933" lon="31.827272"></trkpt>
      <trkpt lat="50.665083" lon="31.82744"></trkpt>
      <trkpt lat="50.666761" lon="31.827753"></trkpt>
      <trkpt lat="50.671125" lon="31.827957"></trkpt>
      <trkpt lat="50.673846" lon="31.82833"></trkpt>
      <trkpt lat="50.674528" lon="31.82845"></trkpt>
      <trkpt lat="50.675489" lon="31.828837"></trkpt>
      <trkpt lat="50.675861" lon="31.829138"></trkpt>
      <trkpt lat="50.70379" lon="31.877334"></trkpt>
      <trkpt lat="50.706243" lon="31.881804"></trkpt>
      <trkpt lat="50.711998" lon="31.901785"></trkpt>
      <trkpt lat="50.716835" lon="31.924455"></trkpt>
      <trkpt lat="50.717068" lon="31.926193"></trkpt>
      <trkpt lat="50.716977" lon="31.927862"></trkpt>
      <trkpt lat="50.711726" lon="31.950805"></trkpt>
      <trkpt lat="50.71159" lon="31.952265"></trkpt>
      <trkpt lat="50.71496" lon="31.96883"></trkpt>
      <trkpt lat="50.718085" lon="31.977241"></trkpt>
      <trkpt lat="50.729425" lon="32.005901"></trkpt>
      <trkpt lat="50.729703" lon="32.006878"></trkpt>
      <trkpt lat="50.729733" lon="32.008131"></trkpt>
      <trkpt lat="50.729241" lon="32.012412"></trkpt>
      <trkpt lat="50.727003" lon="32.028659"></trkpt>
      <trkpt lat="50.730332" lon="32.029893"></trkpt>
      <trkpt lat="50.732049" lon="32.030671"></trkpt>
      <trkpt lat="50.733189" lon="32.030885"></trkpt>
      <trkpt lat="50.73615" lon="32.02977"></trkpt>
      <trkpt lat="50.738625" lon="32.026359"></trkpt>
      <trkpt lat="50.739531" lon="32.025345"></trkpt>
      <trkpt lat="50.739952" lon="32.025049"></trkpt>
      <trkpt lat="50.740325" lon="32.025066"></trkpt>
      <trkpt lat="50.740791" lon="32.025297"></trkpt>
      <trkpt lat="50.743605" lon="32.026911"></trkpt>
      <trkpt lat="50.745024" lon="32.028371"></trkpt>
      <trkpt lat="50.747587" lon="32.02911"></trkpt>
      <trkpt lat="50.748186" lon="32.029477"></trkpt>
      <trkpt lat="50.748653" lon="32.030161"></trkpt>
      <trkpt lat="50.749232" lon="32.031748"></trkpt>
      <trkpt lat="50.752054" lon="32.040134"></trkpt>
      <trkpt lat="50.752423" lon="32.041003"></trkpt>
      <trkpt lat="50.753276" lon="32.042019"></trkpt>
      <trkpt lat="50.761494" lon="32.050434"></trkpt>
      <trkpt lat="50.769522" lon="32.059189"></trkpt>
      <trkpt lat="50.771456" lon="32.061099"></trkpt>
      <trkpt lat="50.774556" lon="32.063904"></trkpt>
      <trkpt lat="50.777947" lon="32.066356"></trkpt>
      <trkpt lat="50.781289" lon="32.070122"></trkpt>
      <trkpt lat="50.786767" lon="32.073968"></trkpt>
      <trkpt lat="50.787296" lon="32.074472"></trkpt>
      <trkpt lat="50.789883" lon="32.08021"></trkpt>
      <trkpt lat="50.795" lon="32.09054"></trkpt>
      <trkpt lat="50.811255" lon="32.149727"></trkpt>
      <trkpt lat="50.812865" lon="32.157559"></trkpt>
      <trkpt lat="50.815667" lon="32.161543"></trkpt>
      <trkpt lat="50.817165" lon="32.165026"></trkpt>
      <trkpt lat="50.817673" lon="32.166501"></trkpt>
      <trkpt lat="50.81809" lon="32.169471"></trkpt>
      <trkpt lat="50.818797" lon="32.172507"></trkpt>
      <trkpt lat="50.819271" lon="32.174406"></trkpt>
      <trkpt lat="50.820272" lon="32.177585"></trkpt>
      <trkpt lat="50.82459" lon="32.187946"></trkpt>
      <trkpt lat="50.827393" lon="32.19421"></trkpt>
      <trkpt lat="50.826895" lon="32.201785"></trkpt>
      <trkpt lat="50.827157" lon="32.205157"></trkpt>
      <trkpt lat="50.827531" lon="32.206812"></trkpt>
      <trkpt lat="50.831387" lon="32.215765"></trkpt>
      <trkpt lat="50.842659" lon="32.237169"></trkpt>
      <trkpt lat="50.842991" lon="32.238002"></trkpt>
      <trkpt lat="50.843303" lon="32.239855"></trkpt>
      <trkpt lat="50.843377" lon="32.24143"></trkpt>
      <trkpt lat="50.842337" lon="32.251556"></trkpt>
      <trkpt lat="50.841785" lon="32.262834"></trkpt>
      <trkpt lat="50.842748" lon="32.268598"></trkpt>
      <trkpt lat="50.842778" lon="32.274134"></trkpt>
      <trkpt lat="50.843044" lon="32.274936"></trkpt>
      <trkpt lat="50.843367" lon="32.275298"></trkpt>
      <trkpt lat="50.846085" lon="32.276528"></trkpt>
      <trkpt lat="50.846371" lon="32.276711"></trkpt>
      <trkpt lat="50.846757" lon="32.277355"></trkpt>
      <trkpt lat="50.848897" lon="32.283549"></trkpt>
      <trkpt lat="50.849522" lon="32.288568"></trkpt>
      <trkpt lat="50.852529" lon="32.300807"></trkpt>
      <trkpt lat="50.852931" lon="32.301358"></trkpt>
      <trkpt lat="50.855081" lon="32.303636"></trkpt>
      <trkpt lat="50.856045" lon="32.305949"></trkpt>
      <trkpt lat="50.856479" lon="32.308486"></trkpt>
      <trkpt lat="50.859125" lon="32.328333"></trkpt>
      <trkpt lat="50.859255" lon="32.330182"></trkpt>
      <trkpt lat="50.859268" lon="32.339639"></trkpt>
      <trkpt lat="50.859368" lon="32.340796"></trkpt>
      <trkpt lat="50.859716" lon="32.34257"></trkpt>
      <trkpt lat="50.860019" lon="32.343434"></trkpt>
      <trkpt lat="50.861101" lon="32.345406"></trkpt>
      <trkpt lat="50.862176" lon="32.346609"></trkpt>
      <trkpt lat="50.862474" lon="32.347206"></trkpt>
      <trkpt lat="50.864156" lon="32.354998"></trkpt>
      <trkpt lat="50.867632" lon="32.354771"></trkpt>
      <trkpt lat="50.86956" lon="32.354527"></trkpt>
      <trkpt lat="50.874679" lon="32.354956"></trkpt>
      <trkpt lat="50.871732" lon="32.370541"></trkpt>
      <trkpt lat="50.87175" lon="32.37198"></trkpt>
      <trkpt lat="50.872065" lon="32.375434"></trkpt>
      <trkpt lat="50.871836" lon="32.378367"></trkpt>
      <trkpt lat="50.869864" lon="32.387234"></trkpt>
      <trkpt lat="50.869982" lon="32.389584"></trkpt>
      <trkpt lat="50.87072" lon="32.394485"></trkpt>
      <trkpt lat="50.870632" lon="32.399529"></trkpt>
      <trkpt lat="50.870465" lon="32.401125"></trkpt>
      <trkpt lat="50.86978" lon="32.404634"></trkpt>
      <trkpt lat="50.869504" lon="32.405941"></trkpt>
      <trkpt lat="50.869286" lon="32.406321"></trkpt>
      <trkpt lat="50.871051" lon="32.409936"></trkpt>
      <trkpt lat="50.871551" lon="32.410693"></trkpt>
      <trkpt lat="50.885134" lon="32.425837"></trkpt>
      <trkpt lat="50.886302" lon="32.427276"></trkpt>
      <trkpt lat="50.892615" lon="32.44308"></trkpt>
      <trkpt lat="50.892967" lon="32.4447"></trkpt>
      <trkpt lat="50.893249" lon="32.447953"></trkpt>
      <trkpt lat="50.893387" lon="32.44861"></trkpt>
      <trkpt lat="50.894149" lon="32.450714"></trkpt>
      <trkpt lat="50.89443" lon="32.452045"></trkpt>
      <trkpt lat="50.89482" lon="32.45579"></trkpt>
      <trkpt lat="50.894301" lon="32.458468"></trkpt>
      <trkpt lat="50.893692" lon="32.459459"></trkpt>
      <trkpt lat="50.8928" lon="32.460377"></trkpt>
      <trkpt lat="50.892379" lon="32.460971"></trkpt>
      <trkpt lat="50.892073" lon="32.461656"></trkpt>
      <trkpt lat="50.891957" lon="32.462293"></trkpt>
      <trkpt lat="50.892022" lon="32.463818"></trkpt>
      <trkpt lat="50.891789" lon="32.466634"></trkpt>
      <trkpt lat="50.891988" lon="32.469745"></trkpt>
      <trkpt lat="50.891037" lon="32.480292"></trkpt>
      <trkpt lat="50.890355" lon="32.48958"></trkpt>
      <trkpt lat="50.88602" lon="32.525775"></trkpt>
      <trkpt lat="50.885509" lon="32.527862"></trkpt>
      <trkpt lat="50.879834" lon="32.544019"></trkpt>
      <trkpt lat="50.878672" lon="32.551399"></trkpt>
      <trkpt lat="50.878638" lon="32.552848"></trkpt>
      <trkpt lat="50.878903" lon="32.556724"></trkpt>
      <trkpt lat="50.879848" lon="32.560721"></trkpt>
      <trkpt lat="50.87993" lon="32.562728"></trkpt>
      <trkpt lat="50.879899" lon="32.565307"></trkpt>
      <trkpt lat="50.879336" lon="32.568062"></trkpt>
      <trkpt lat="50.879284" lon="32.569802"></trkpt>
      <trkpt lat="50.87932" lon="32.60116"></trkpt>
      <trkpt lat="50.881408" lon="32.618631"></trkpt>
      <trkpt lat="50.880633" lon="32.622254"></trkpt>
      <trkpt lat="50.879688" lon="32.624545"></trkpt>
      <trkpt lat="50.879563" lon="32.625138"></trkpt>
      <trkpt lat="50.879065" lon="32.63088"></trkpt>
      <trkpt lat="50.881052" lon="32.636725"></trkpt>
      <trkpt lat="50.883043" lon="32.640409"></trkpt>
      <trkpt lat="50.883769" lon="32.642052"></trkpt>
      <trkpt lat="50.881191" lon="32.644585"></trkpt>
      <trkpt lat="50.880982" lon="32.644908"></trkpt>
      <trkpt lat="50.880817" lon="32.646972"></trkpt>
      <trkpt lat="50.88027" lon="32.647802"></trkpt>
      <trkpt lat="50.88032" lon="32.649345"></trkpt>
      <trkpt lat="50.88023" lon="32.64959"></trkpt>
      <trkpt lat="50.878117" lon="32.650494"></trkpt>
      <trkpt lat="50.876859" lon="32.651203"></trkpt>
      <trkpt lat="50.874046" lon="32.655772"></trkpt>
      <trkpt lat="50.871277" lon="32.656925"></trkpt>
      <trkpt lat="50.871351" lon="32.65718"></trkpt>
      <trkpt lat="50.862624" lon="32.660735"></trkpt>
      <trkpt lat="50.861953" lon="32.66097"></trkpt>
      <trkpt lat="50.86076" lon="32.66096"></trkpt>
      <trkpt lat="50.843822" lon="32.657763"></trkpt>
      <trkpt lat="50.843524" lon="32.657823"></trkpt>
      <trkpt lat="50.842353" lon="32.658451"></trkpt>
      <trkpt lat="50.842008" lon="32.659114"></trkpt>
      <trkpt lat="50.84188" lon="32.660036"></trkpt>
      <trkpt lat="50.841695" lon="32.660018"></trkpt>
      <trkpt lat="50.841172" lon="32.660314"></trkpt>
      <trkpt lat="50.840721" lon="32.660202"></trkpt>
      <trkpt lat="50.838124" lon="32.660696"></trkpt>
      <trkpt lat="50.837984" lon="32.659435"></trkpt>
      <trkpt lat="50.837423" lon="32.65931"></trkpt>
  </trkseg></trk>
</gpx>
