<?xml version="1.0" encoding="UTF-8"?>
<gpx version="1.1" creator="yatutbuv" xmlns="http://www.topografix.com/GPX/1/1">
  <trk><name>GraphHopper Track</name><trkseg>
      <trkpt lat="50.512373" lon="30.503046"></trkpt>
      <trkpt lat="50.512422" lon="30.499794"></trkpt>
      <trkpt lat="50.512567" lon="30.499299"></trkpt>
      <trkpt lat="50.512935" lon="30.499026"></trkpt>
      <trkpt lat="50.521702" lon="30.49919"></trkpt>
      <trkpt lat="50.522204" lon="30.499254"></trkpt>
      <trkpt lat="50.522651" lon="30.49953"></trkpt>
      <trkpt lat="50.523152" lon="30.499331"></trkpt>
      <trkpt lat="50.527631" lon="30.499494"></trkpt>
      <trkpt lat="50.528914" lon="30.499468"></trkpt>
      <trkpt lat="50.529317" lon="30.499366"></trkpt>
      <trkpt lat="50.529564" lon="30.49883"></trkpt>
      <trkpt lat="50.52945" lon="30.487263"></trkpt>
      <trkpt lat="50.529747" lon="30.486256"></trkpt>
      <trkpt lat="50.530717" lon="30.484741"></trkpt>
      <trkpt lat="50.531014" lon="30.484443"></trkpt>
      <trkpt lat="50.531554" lon="30.484305"></trkpt>
      <trkpt lat="50.536151" lon="30.484883"></trkpt>
      <trkpt lat="50.541728" lon="30.485204"></trkpt>
      <trkpt lat="50.543691" lon="30.485164"></trkpt>
      <trkpt lat="50.545049" lon="30.484854"></trkpt>
      <trkpt lat="50.54668" lon="30.484041"></trkpt>
      <trkpt lat="50.547907" lon="30.483066"></trkpt>
      <trkpt lat="50.549124" lon="30.481637"></trkpt>
      <trkpt lat="50.551938" lon="30.477636"></trkpt>
      <trkpt lat="50.553224" lon="30.476122"></trkpt>
      <trkpt lat="50.555437" lon="30.474163"></trkpt>
      <trkpt lat="50.556936" lon="30.47315"></trkpt>
      <trkpt lat="50.558509" lon="30.472365"></trkpt>
      <trkpt lat="50.559863" lon="30.471873"></trkpt>
      <trkpt lat="50.560745" lon="30.471617"></trkpt>
      <trkpt lat="50.562923" lon="30.471312"></trkpt>
      <trkpt lat="50.564454" lon="30.471427"></trkpt>
      <trkpt lat="50.56523" lon="30.471622"></trkpt>
      <trkpt lat="50.566899" lon="30.472361"></trkpt>
      <trkpt lat="50.567128" lon="30.472627"></trkpt>
      <trkpt lat="50.567217" lon="30.47297"></trkpt>
      <trkpt lat="50.567765" lon="30.485407"></trkpt>
      <trkpt lat="50.56797" lon="30.486382"></trkpt>
      <trkpt lat="50.568184" lon="30.486875"></trkpt>
      <trkpt lat="50.568894" lon="30.487889"></trkpt>
      <trkpt lat="50.571287" lon="30.49036"></trkpt>
      <trkpt lat="50.572024" lon="30.490816"></trkpt>
      <trkpt lat="50.585348" lon="30.496242"></trkpt>
      <trkpt lat="50.588746" lon="30.497797"></trkpt>
      <trkpt lat="50.589209" lon="30.498138"></trkpt>
      <trkpt lat="50.589684" lon="30.498701"></trkpt>
      <trkpt lat="50.590273" lon="30.499971"></trkpt>
      <trkpt lat="50.590529" lon="30.50163"></trkpt>
      <trkpt lat="50.590383" lon="30.503074"></trkpt>
      <trkpt lat="50.586553" lon="30.519542"></trkpt>
      <trkpt lat="50.585759" lon="30.523656"></trkpt>
      <trkpt lat="50.58397" lon="30.545453"></trkpt>
      <trkpt lat="50.58395" lon="30.546955"></trkpt>
      <trkpt lat="50.584269" lon="30.548626"></trkpt>
      <trkpt lat="50.584723" lon="30.549396"></trkpt>
      <trkpt lat="50.589277" lon="30.553029"></trkpt>
      <trkpt lat="50.590325" lon="30.554283"></trkpt>
      <trkpt lat="50.590786" lon="30.555318"></trkpt>
      <trkpt lat="50.591598" lon="30.558663"></trkpt>
      <trkpt lat="50.592023" lon="30.559657"></trkpt>
      <trkpt lat="50.595799" lon="30.565444"></trkpt>
      <trkpt lat="50.596217" lon="30.56626"></trkpt>
      <trkpt lat="50.596278" lon="30.567096"></trkpt>
      <trkpt lat="50.596024" lon="30.572722"></trkpt>
      <trkpt lat="50.596042" lon="30.57444"></trkpt>
      <trkpt lat="50.597269" lon="30.581211"></trkpt>
      <trkpt lat="50.597803" lon="30.582712"></trkpt>
      <trkpt lat="50.598493" lon="30.5841"></trkpt>
      <trkpt lat="50.614201" lon="30.602984"></trkpt>
      <trkpt lat="50.62613" lon="30.617866"></trkpt>
      <trkpt lat="50.629165" lon="30.621812"></trkpt>
      <trkpt lat="50.630707" lon="30.62299"></trkpt>
      <trkpt lat="50.632382" lon="30.623722"></trkpt>
      <trkpt lat="50.649707" lon="30.625801"></trkpt>
      <trkpt lat="50.654294" lon="30.626221"></trkpt>
      <trkpt lat="50.656445" lon="30.626581"></trkpt>
      <trkpt lat="50.663565" lon="30.630009"></trkpt>
      <trkpt lat="50.665549" lon="30.630746"></trkpt>
      <trkpt lat="50.666504" lon="30.630591"></trkpt>
      <trkpt lat="50.67236" lon="30.62897"></trkpt>
      <trkpt lat="50.677639" lon="30.627866"></trkpt>
      <trkpt lat="50.681547" lon="30.627509"></trkpt>
      <trkpt lat="50.682767" lon="30.627138"></trkpt>
      <trkpt lat="50.684156" lon="30.627666"></trkpt>
      <trkpt lat="50.686494" lon="30.62694"></trkpt>
      <trkpt lat="50.686901" lon="30.627028"></trkpt>
      <trkpt lat="50.688147" lon="30.627619"></trkpt>
      <trkpt lat="50.693963" lon="30.630583"></trkpt>
      <trkpt lat="50.695025" lon="30.630876"></trkpt>
      <trkpt lat="50.695659" lon="30.630839"></trkpt>
      <trkpt lat="50.696438" lon="30.630621"></trkpt>
      <trkpt lat="50.712544" lon="30.624024"></trkpt>
      <trkpt lat="50.713402" lon="30.62388"></trkpt>
      <trkpt lat="50.714235" lon="30.623982"></trkpt>
      <trkpt lat="50.716788" lon="30.625573"></trkpt>
      <trkpt lat="50.718087" lon="30.627069"></trkpt>
      <trkpt lat="50.73198" lon="30.648975"></trkpt>
      <trkpt lat="50.735026" lon="30.653147"></trkpt>
      <trkpt lat="50.735858" lon="30.65385"></trkpt>
      <trkpt lat="50.736545" lon="30.654139"></trkpt>
      <trkpt lat="50.73974" lon="30.654483"></trkpt>
      <trkpt lat="50.74094" lon="30.654769"></trkpt>
      <trkpt lat="50.741896" lon="30.655307"></trkpt>
      <trkpt lat="50.743026" lon="30.656312"></trkpt>
      <trkpt lat="50.743721" lon="30.657195"></trkpt>
      <trkpt lat="50.744501" lon="30.658505"></trkpt>
      <trkpt lat="50.750765" lon="30.669472"></trkpt>
      <trkpt lat="50.751313" lon="30.669398"></trkpt>
      <trkpt lat="50.752123" lon="30.668938"></trkpt>
      <trkpt lat="50.762448" lon="30.658559"></trkpt>
      <trkpt lat="50.763286" lon="30.658037"></trkpt>
      <trkpt lat="50.764567" lon="30.657451"></trkpt>
      <trkpt lat="50.76518" lon="30.657474"></trkpt>
      <trkpt lat="50.76715" lon="30.658009"></trkpt>
      <trkpt lat="50.768887" lon="30.657857"></trkpt>
      <trkpt lat="50.769414" lon="30.658082"></trkpt>
      <trkpt lat="50.771798" lon="30.661057"></trkpt>
      <trkpt lat="50.773111" lon="30.664117"></trkpt>
      <trkpt lat="50.771798" lon="30.661057"></trkpt>
      <trkpt lat="50.769414" lon="30.658082"></trkpt>
      <trkpt lat="50.768887" lon="30.657857"></trkpt>
      <trkpt lat="50.76715" lon="30.658009"></trkpt>
      <trkpt lat="50.76518" lon="30.657474"></trkpt>
      <trkpt lat="50.764567" lon="30.657451"></trkpt>
      <trkpt lat="50.763286" lon="30.658037"></trkpt>
      <trkpt lat="50.762448" lon="30.658559"></trkpt>
      <trkpt lat="50.752123" lon="30.668938"></trkpt>
      <trkpt lat="50.751313" lon="30.669398"></trkpt>
      <trkpt lat="50.750765" lon="30.669472"></trkpt>
      <trkpt lat="50.743721" lon="30.657195"></trkpt>
      <trkpt lat="50.742673" lon="30.655936"></trkpt>
      <trkpt lat="50.741896" lon="30.655307"></trkpt>
      <trkpt lat="50.74094" lon="30.654769"></trkpt>
      <trkpt lat="50.73974" lon="30.654483"></trkpt>
      <trkpt lat="50.736969" lon="30.654219"></trkpt>
      <trkpt lat="50.736257" lon="30.654046"></trkpt>
      <trkpt lat="50.735436" lon="30.653544"></trkpt>
      <trkpt lat="50.73476" lon="30.652812"></trkpt>
      <trkpt lat="50.73198" lon="30.648975"></trkpt>
      <trkpt lat="50.720295" lon="30.630562"></trkpt>
      <trkpt lat="50.720973" lon="30.627474"></trkpt>
      <trkpt lat="50.721373" lon="30.625038"></trkpt>
      <trkpt lat="50.721567" lon="30.622383"></trkpt>
      <trkpt lat="50.720895" lon="30.587063"></trkpt>
      <trkpt lat="50.720651" lon="30.584774"></trkpt>
      <trkpt lat="50.719224" lon="30.574959"></trkpt>
      <trkpt lat="50.717051" lon="30.561137"></trkpt>
      <trkpt lat="50.714734" lon="30.547181"></trkpt>
      <trkpt lat="50.713266" lon="30.539906"></trkpt>
      <trkpt lat="50.713355" lon="30.535695"></trkpt>
      <trkpt lat="50.713084" lon="30.535297"></trkpt>
      <trkpt lat="50.711814" lon="30.534266"></trkpt>
      <trkpt lat="50.711562" lon="30.533814"></trkpt>
      <trkpt lat="50.711557" lon="30.533259"></trkpt>
      <trkpt lat="50.711894" lon="30.532267"></trkpt>
      <trkpt lat="50.711955" lon="30.531091"></trkpt>
      <trkpt lat="50.711973" lon="30.530514"></trkpt>
      <trkpt lat="50.711746" lon="30.529164"></trkpt>
      <trkpt lat="50.711928" lon="30.523873"></trkpt>
      <trkpt lat="50.648549" lon="30.517879"></trkpt>
      <trkpt lat="50.634675" lon="30.519779"></trkpt>
      <trkpt lat="50.633532" lon="30.52016"></trkpt>
      <trkpt lat="50.632775" lon="30.520653"></trkpt>
      <trkpt lat="50.630085" lon="30.52283"></trkpt>
      <trkpt lat="50.628085" lon="30.525432"></trkpt>
      <trkpt lat="50.621967" lon="30.530383"></trkpt>
      <trkpt lat="50.6205" lon="30.53133"></trkpt>
      <trkpt lat="50.596138" lon="30.53728"></trkpt>
      <trkpt lat="50.594829" lon="30.537336"></trkpt>
      <trkpt lat="50.594131" lon="30.537232"></trkpt>
      <trkpt lat="50.592594" lon="30.536705"></trkpt>
      <trkpt lat="50.591184" lon="30.535824"></trkpt>
      <trkpt lat="50.589595" lon="30.534183"></trkpt>
      <trkpt lat="50.588626" lon="30.532752"></trkpt>
      <trkpt lat="50.587567" lon="30.53053"></trkpt>
      <trkpt lat="50.586996" lon="30.528763"></trkpt>
      <trkpt lat="50.586493" lon="30.526403"></trkpt>
      <trkpt lat="50.586288" lon="30.524336"></trkpt>
      <trkpt lat="50.586322" lon="30.5216"></trkpt>
      <trkpt lat="50.586553" lon="30.519542"></trkpt>
      <trkpt lat="50.590383" lon="30.503074"></trkpt>
      <trkpt lat="50.590529" lon="30.50163"></trkpt>
      <trkpt lat="50.590418" lon="30.500129"></trkpt>
      <trkpt lat="50.590549" lon="30.499952"></trkpt>
      <trkpt lat="50.590747" lon="30.499923"></trkpt>
      <trkpt lat="50.59207" lon="30.500359"></trkpt>
      <trkpt lat="50.592129" lon="30.50007"></trkpt>
  </trkseg></trk>
</gpx>
