<?xml version="1.0" encoding="UTF-8"?>
<gpx version="1.1" creator="yatutbuv" xmlns="http://www.topografix.com/GPX/1/1">
  <trk><name>GraphHopper Track</name><trkseg>
      <trkpt lat="49.019356" lon="19.577019"></trkpt>
      <trkpt lat="49.019574" lon="19.576767"></trkpt>
      <trkpt lat="49.019646" lon="19.576898"></trkpt>
      <trkpt lat="49.021745" lon="19.574309"></trkpt>
      <trkpt lat="49.022192" lon="19.573911"></trkpt>
      <trkpt lat="49.02293" lon="19.573594"></trkpt>
      <trkpt lat="49.02669" lon="19.572608"></trkpt>
      <trkpt lat="49.031802" lon="19.572913"></trkpt>
      <trkpt lat="49.03269" lon="19.573054"></trkpt>
      <trkpt lat="49.033031" lon="19.573244"></trkpt>
      <trkpt lat="49.037238" lon="19.577239"></trkpt>
      <trkpt lat="49.040833" lon="19.578496"></trkpt>
      <trkpt lat="49.047355" lon="19.578539"></trkpt>
      <trkpt lat="49.053139" lon="19.577651"></trkpt>
      <trkpt lat="49.053537" lon="19.577714"></trkpt>
      <trkpt lat="49.054077" lon="19.578083"></trkpt>
      <trkpt lat="49.058571" lon="19.583529"></trkpt>
      <trkpt lat="49.060662" lon="19.585089"></trkpt>
      <trkpt lat="49.062463" lon="19.585615"></trkpt>
      <trkpt lat="49.065523" lon="19.587789"></trkpt>
      <trkpt lat="49.068056" lon="19.59008"></trkpt>
      <trkpt lat="49.071047" lon="19.59231"></trkpt>
      <trkpt lat="49.071703" lon="19.593182"></trkpt>
      <trkpt lat="49.072158" lon="19.594087"></trkpt>
      <trkpt lat="49.073155" lon="19.597952"></trkpt>
      <trkpt lat="49.073526" lon="19.600273"></trkpt>
      <trkpt lat="49.073589" lon="19.601515"></trkpt>
      <trkpt lat="49.073098" lon="19.607956"></trkpt>
      <trkpt lat="49.072906" lon="19.612551"></trkpt>
      <trkpt lat="49.072625" lon="19.615451"></trkpt>
      <trkpt lat="49.07213" lon="19.618186"></trkpt>
      <trkpt lat="49.071488" lon="19.620653"></trkpt>
      <trkpt lat="49.069691" lon="19.625887"></trkpt>
      <trkpt lat="49.068851" lon="19.628687"></trkpt>
      <trkpt lat="49.06829" lon="19.63121"></trkpt>
      <trkpt lat="49.066865" lon="19.639283"></trkpt>
      <trkpt lat="49.065673" lon="19.643833"></trkpt>
      <trkpt lat="49.064049" lon="19.648356"></trkpt>
      <trkpt lat="49.060495" lon="19.656746"></trkpt>
      <trkpt lat="49.059434" lon="19.659992"></trkpt>
      <trkpt lat="49.058754" lon="19.662884"></trkpt>
      <trkpt lat="49.057953" lon="19.668009"></trkpt>
      <trkpt lat="49.056582" lon="19.678977"></trkpt>
      <trkpt lat="49.056344" lon="19.681619"></trkpt>
      <trkpt lat="49.05639" lon="19.684451"></trkpt>
      <trkpt lat="49.057334" lon="19.692988"></trkpt>
      <trkpt lat="49.057342" lon="19.695184"></trkpt>
      <trkpt lat="49.057188" lon="19.697128"></trkpt>
      <trkpt lat="49.056493" lon="19.700651"></trkpt>
      <trkpt lat="49.0542" lon="19.708046"></trkpt>
      <trkpt lat="49.053782" lon="19.71007"></trkpt>
      <trkpt lat="49.053423" lon="19.712781"></trkpt>
      <trkpt lat="49.053294" lon="19.714875"></trkpt>
      <trkpt lat="49.053307" lon="19.71751"></trkpt>
      <trkpt lat="49.053455" lon="19.719612"></trkpt>
      <trkpt lat="49.053819" lon="19.722211"></trkpt>
      <trkpt lat="49.054944" lon="19.726873"></trkpt>
      <trkpt lat="49.057446" lon="19.734766"></trkpt>
      <trkpt lat="49.058382" lon="19.7384"></trkpt>
      <trkpt lat="49.058549" lon="19.740377"></trkpt>
      <trkpt lat="49.058341" lon="19.743494"></trkpt>
      <trkpt lat="49.058513" lon="19.744853"></trkpt>
      <trkpt lat="49.058999" lon="19.746295"></trkpt>
      <trkpt lat="49.059604" lon="19.747222"></trkpt>
      <trkpt lat="49.062653" lon="19.750948"></trkpt>
      <trkpt lat="49.064895" lon="19.754172"></trkpt>
      <trkpt lat="49.070061" lon="19.76358"></trkpt>
      <trkpt lat="49.071023" lon="19.765037"></trkpt>
      <trkpt lat="49.072057" lon="19.76624"></trkpt>
      <trkpt lat="49.075821" lon="19.76993"></trkpt>
      <trkpt lat="49.077112" lon="19.771608"></trkpt>
      <trkpt lat="49.07996" lon="19.777324"></trkpt>
      <trkpt lat="49.080706" lon="19.778602"></trkpt>
      <trkpt lat="49.081434" lon="19.779583"></trkpt>
      <trkpt lat="49.086098" lon="19.784226"></trkpt>
      <trkpt lat="49.091113" lon="19.789612"></trkpt>
      <trkpt lat="49.092184" lon="19.790604"></trkpt>
      <trkpt lat="49.093106" lon="19.79131"></trkpt>
      <trkpt lat="49.094616" lon="19.792183"></trkpt>
      <trkpt lat="49.100081" lon="19.794366"></trkpt>
      <trkpt lat="49.101056" lon="19.795313"></trkpt>
      <trkpt lat="49.101595" lon="19.796106"></trkpt>
      <trkpt lat="49.102128" lon="19.797246"></trkpt>
      <trkpt lat="49.102529" lon="19.798533"></trkpt>
      <trkpt lat="49.106971" lon="19.814319"></trkpt>
      <trkpt lat="49.110242" lon="19.822972"></trkpt>
      <trkpt lat="49.111547" lon="19.829049"></trkpt>
      <trkpt lat="49.112659" lon="19.832015"></trkpt>
      <trkpt lat="49.11346" lon="19.83366"></trkpt>
      <trkpt lat="49.113719" lon="19.834435"></trkpt>
      <trkpt lat="49.114385" lon="19.837188"></trkpt>
      <trkpt lat="49.114991" lon="19.840447"></trkpt>
      <trkpt lat="49.116306" lon="19.843769"></trkpt>
      <trkpt lat="49.116662" lon="19.845191"></trkpt>
      <trkpt lat="49.117372" lon="19.851354"></trkpt>
      <trkpt lat="49.119483" lon="19.857369"></trkpt>
      <trkpt lat="49.120709" lon="19.85972"></trkpt>
      <trkpt lat="49.121102" lon="19.860689"></trkpt>
      <trkpt lat="49.121681" lon="19.862972"></trkpt>
      <trkpt lat="49.122068" lon="19.865943"></trkpt>
      <trkpt lat="49.123222" lon="19.868108"></trkpt>
      <trkpt lat="49.123577" lon="19.869071"></trkpt>
      <trkpt lat="49.124322" lon="19.872448"></trkpt>
      <trkpt lat="49.124283" lon="19.875635"></trkpt>
      <trkpt lat="49.124396" lon="19.876589"></trkpt>
      <trkpt lat="49.125231" lon="19.879228"></trkpt>
      <trkpt lat="49.126274" lon="19.884525"></trkpt>
      <trkpt lat="49.127057" lon="19.887168"></trkpt>
      <trkpt lat="49.127441" lon="19.88786"></trkpt>
      <trkpt lat="49.129854" lon="19.89073"></trkpt>
      <trkpt lat="49.13064" lon="19.891329"></trkpt>
      <trkpt lat="49.133073" lon="19.892731"></trkpt>
      <trkpt lat="49.134569" lon="19.894038"></trkpt>
      <trkpt lat="49.139743" lon="19.89982"></trkpt>
      <trkpt lat="49.141756" lon="19.902638"></trkpt>
      <trkpt lat="49.142066" lon="19.903451"></trkpt>
      <trkpt lat="49.142096" lon="19.904136"></trkpt>
      <trkpt lat="49.141937" lon="19.904778"></trkpt>
      <trkpt lat="49.141617" lon="19.905278"></trkpt>
      <trkpt lat="49.141254" lon="19.905509"></trkpt>
      <trkpt lat="49.140933" lon="19.905538"></trkpt>
      <trkpt lat="49.140598" lon="19.90541"></trkpt>
      <trkpt lat="49.139645" lon="19.904664"></trkpt>
      <trkpt lat="49.139013" lon="19.904387"></trkpt>
      <trkpt lat="49.138265" lon="19.904422"></trkpt>
      <trkpt lat="49.137516" lon="19.904861"></trkpt>
      <trkpt lat="49.136997" lon="19.905535"></trkpt>
      <trkpt lat="49.136675" lon="19.906281"></trkpt>
      <trkpt lat="49.136275" lon="19.908641"></trkpt>
      <trkpt lat="49.136408" lon="19.911141"></trkpt>
      <trkpt lat="49.136792" lon="19.913548"></trkpt>
      <trkpt lat="49.137251" lon="19.914928"></trkpt>
      <trkpt lat="49.138914" lon="19.918658"></trkpt>
      <trkpt lat="49.139695" lon="19.921345"></trkpt>
      <trkpt lat="49.140848" lon="19.929844"></trkpt>
      <trkpt lat="49.140809" lon="19.931168"></trkpt>
      <trkpt lat="49.140455" lon="19.932752"></trkpt>
      <trkpt lat="49.139471" lon="19.936521"></trkpt>
      <trkpt lat="49.138095" lon="19.940472"></trkpt>
      <trkpt lat="49.137901" lon="19.941603"></trkpt>
      <trkpt lat="49.138027" lon="19.942981"></trkpt>
      <trkpt lat="49.138814" lon="19.945461"></trkpt>
      <trkpt lat="49.13896" lon="19.946699"></trkpt>
      <trkpt lat="49.139187" lon="19.95158"></trkpt>
      <trkpt lat="49.138828" lon="19.955002"></trkpt>
      <trkpt lat="49.139316" lon="19.963165"></trkpt>
      <trkpt lat="49.13924" lon="19.964915"></trkpt>
      <trkpt lat="49.138914" lon="19.966031"></trkpt>
      <trkpt lat="49.138377" lon="19.966976"></trkpt>
      <trkpt lat="49.13794" lon="19.967428"></trkpt>
      <trkpt lat="49.137257" lon="19.96783"></trkpt>
      <trkpt lat="49.128352" lon="19.970074"></trkpt>
      <trkpt lat="49.127366" lon="19.97034"></trkpt>
      <trkpt lat="49.126688" lon="19.97065"></trkpt>
      <trkpt lat="49.125985" lon="19.971224"></trkpt>
      <trkpt lat="49.125341" lon="19.972032"></trkpt>
      <trkpt lat="49.124868" lon="19.972865"></trkpt>
      <trkpt lat="49.124492" lon="19.973957"></trkpt>
      <trkpt lat="49.124171" lon="19.976195"></trkpt>
      <trkpt lat="49.124268" lon="19.97768"></trkpt>
      <trkpt lat="49.124465" lon="19.978669"></trkpt>
      <trkpt lat="49.12565" lon="19.981964"></trkpt>
      <trkpt lat="49.12771" lon="19.98682"></trkpt>
      <trkpt lat="49.12794" lon="19.987794"></trkpt>
      <trkpt lat="49.127949" lon="19.988781"></trkpt>
      <trkpt lat="49.127557" lon="19.990649"></trkpt>
      <trkpt lat="49.127279" lon="19.991335"></trkpt>
      <trkpt lat="49.126962" lon="19.991549"></trkpt>
      <trkpt lat="49.125833" lon="19.991498"></trkpt>
      <trkpt lat="49.125357" lon="19.991679"></trkpt>
      <trkpt lat="49.124809" lon="19.99211"></trkpt>
      <trkpt lat="49.124516" lon="19.992762"></trkpt>
      <trkpt lat="49.12451" lon="19.993683"></trkpt>
      <trkpt lat="49.125476" lon="20.00053"></trkpt>
      <trkpt lat="49.1254" lon="20.00178"></trkpt>
      <trkpt lat="49.124792" lon="20.005199"></trkpt>
      <trkpt lat="49.12472" lon="20.009014"></trkpt>
      <trkpt lat="49.124221" lon="20.010516"></trkpt>
      <trkpt lat="49.12148" lon="20.014038"></trkpt>
      <trkpt lat="49.121031" lon="20.0149"></trkpt>
      <trkpt lat="49.120735" lon="20.015794"></trkpt>
      <trkpt lat="49.12042" lon="20.017595"></trkpt>
      <trkpt lat="49.120416" lon="20.021224"></trkpt>
      <trkpt lat="49.119783" lon="20.023232"></trkpt>
      <trkpt lat="49.119564" lon="20.024591"></trkpt>
      <trkpt lat="49.119596" lon="20.025148"></trkpt>
      <trkpt lat="49.119998" lon="20.026771"></trkpt>
      <trkpt lat="49.119969" lon="20.027788"></trkpt>
      <trkpt lat="49.117855" lon="20.034973"></trkpt>
      <trkpt lat="49.117352" lon="20.037229"></trkpt>
      <trkpt lat="49.117268" lon="20.039311"></trkpt>
      <trkpt lat="49.117819" lon="20.042752"></trkpt>
      <trkpt lat="49.118003" lon="20.046813"></trkpt>
      <trkpt lat="49.118268" lon="20.048024"></trkpt>
      <trkpt lat="49.118869" lon="20.049729"></trkpt>
      <trkpt lat="49.118908" lon="20.050691"></trkpt>
      <trkpt lat="49.11871" lon="20.051236"></trkpt>
      <trkpt lat="49.117915" lon="20.052274"></trkpt>
      <trkpt lat="49.116358" lon="20.056441"></trkpt>
      <trkpt lat="49.115382" lon="20.057548"></trkpt>
      <trkpt lat="49.114487" lon="20.05969"></trkpt>
      <trkpt lat="49.112821" lon="20.062001"></trkpt>
      <trkpt lat="49.112232" lon="20.063215"></trkpt>
      <trkpt lat="49.111756" lon="20.065"></trkpt>
      <trkpt lat="49.111319" lon="20.068698"></trkpt>
      <trkpt lat="49.110905" lon="20.069964"></trkpt>
      <trkpt lat="49.110919" lon="20.070615"></trkpt>
      <trkpt lat="49.111256" lon="20.071191"></trkpt>
      <trkpt lat="49.11137" lon="20.071298"></trkpt>
      <trkpt lat="49.111519" lon="20.071032"></trkpt>
      <trkpt lat="49.112166" lon="20.068627"></trkpt>
      <trkpt lat="49.112437" lon="20.068018"></trkpt>
      <trkpt lat="49.112844" lon="20.067734"></trkpt>
      <trkpt lat="49.113554" lon="20.067652"></trkpt>
      <trkpt lat="49.114033" lon="20.067091"></trkpt>
      <trkpt lat="49.11413" lon="20.067121"></trkpt>
      <trkpt lat="49.114176" lon="20.067349"></trkpt>
      <trkpt lat="49.11377" lon="20.068498"></trkpt>
      <trkpt lat="49.113978" lon="20.068922"></trkpt>
      <trkpt lat="49.114256" lon="20.068803"></trkpt>
      <trkpt lat="49.11508" lon="20.067928"></trkpt>
      <trkpt lat="49.116607" lon="20.067598"></trkpt>
      <trkpt lat="49.117375" lon="20.067991"></trkpt>
      <trkpt lat="49.117894" lon="20.068973"></trkpt>
      <trkpt lat="49.118193" lon="20.06889"></trkpt>
      <trkpt lat="49.118879" lon="20.067649"></trkpt>
      <trkpt lat="49.119596" lon="20.067148"></trkpt>
      <trkpt lat="49.119881" lon="20.066762"></trkpt>
      <trkpt lat="49.119369" lon="20.063347"></trkpt>
      <trkpt lat="49.119066" lon="20.063468"></trkpt>
      <trkpt lat="49.119112" lon="20.063985"></trkpt>
  </trkseg></trk>
</gpx>
