<?xml version="1.0" encoding="UTF-8"?>
<gpx version="1.1" creator="yatutbuv" xmlns="http://www.topografix.com/GPX/1/1">
  <trk><name>GraphHopper Track</name><trkseg>
      <trkpt lat="50.505431" lon="30.50552"></trkpt>
      <trkpt lat="50.504956" lon="30.505585"></trkpt>
      <trkpt lat="50.504972" lon="30.506371"></trkpt>
      <trkpt lat="50.504673" lon="30.507076"></trkpt>
      <trkpt lat="50.501774" lon="30.504309"></trkpt>
      <trkpt lat="50.501586" lon="30.504055"></trkpt>
      <trkpt lat="50.501466" lon="30.503583"></trkpt>
      <trkpt lat="50.501637" lon="30.493245"></trkpt>
      <trkpt lat="50.501812" lon="30.492522"></trkpt>
      <trkpt lat="50.502087" lon="30.491975"></trkpt>
      <trkpt lat="50.502626" lon="30.491502"></trkpt>
      <trkpt lat="50.506279" lon="30.489592"></trkpt>
      <trkpt lat="50.507187" lon="30.489551"></trkpt>
      <trkpt lat="50.507357" lon="30.489416"></trkpt>
      <trkpt lat="50.507451" lon="30.489138"></trkpt>
      <trkpt lat="50.507196" lon="30.487472"></trkpt>
      <trkpt lat="50.50727" lon="30.480236"></trkpt>
      <trkpt lat="50.507192" lon="30.478502"></trkpt>
      <trkpt lat="50.50573" lon="30.46819"></trkpt>
      <trkpt lat="50.505683" lon="30.464341"></trkpt>
      <trkpt lat="50.504934" lon="30.4591"></trkpt>
      <trkpt lat="50.519878" lon="30.453751"></trkpt>
      <trkpt lat="50.520184" lon="30.453516"></trkpt>
      <trkpt lat="50.520369" lon="30.452953"></trkpt>
      <trkpt lat="50.520848" lon="30.449862"></trkpt>
      <trkpt lat="50.521216" lon="30.449723"></trkpt>
      <trkpt lat="50.533569" lon="30.456639"></trkpt>
      <trkpt lat="50.534066" lon="30.45682"></trkpt>
      <trkpt lat="50.545412" lon="30.456118"></trkpt>
      <trkpt lat="50.552166" lon="30.453872"></trkpt>
      <trkpt lat="50.55514" lon="30.453824"></trkpt>
      <trkpt lat="50.556364" lon="30.453623"></trkpt>
      <trkpt lat="50.558642" lon="30.452975"></trkpt>
      <trkpt lat="50.568647" lon="30.452976"></trkpt>
      <trkpt lat="50.569125" lon="30.452813"></trkpt>
      <trkpt lat="50.573142" lon="30.450347"></trkpt>
      <trkpt lat="50.582588" lon="30.447822"></trkpt>
      <trkpt lat="50.586516" lon="30.446962"></trkpt>
      <trkpt lat="50.588173" lon="30.447397"></trkpt>
      <trkpt lat="50.592719" lon="30.449097"></trkpt>
      <trkpt lat="50.592918" lon="30.449284"></trkpt>
      <trkpt lat="50.593068" lon="30.449959"></trkpt>
      <trkpt lat="50.593243" lon="30.450157"></trkpt>
      <trkpt lat="50.594277" lon="30.449884"></trkpt>
      <trkpt lat="50.59508" lon="30.449974"></trkpt>
      <trkpt lat="50.606597" lon="30.454328"></trkpt>
      <trkpt lat="50.607291" lon="30.454343"></trkpt>
      <trkpt lat="50.608304" lon="30.453611"></trkpt>
      <trkpt lat="50.611018" lon="30.451248"></trkpt>
      <trkpt lat="50.612948" lon="30.449032"></trkpt>
      <trkpt lat="50.615406" lon="30.447135"></trkpt>
      <trkpt lat="50.617915" lon="30.445964"></trkpt>
      <trkpt lat="50.623061" lon="30.444758"></trkpt>
      <trkpt lat="50.624369" lon="30.444304"></trkpt>
      <trkpt lat="50.625561" lon="30.443667"></trkpt>
      <trkpt lat="50.627072" lon="30.442655"></trkpt>
      <trkpt lat="50.628462" lon="30.44148"></trkpt>
      <trkpt lat="50.629576" lon="30.439992"></trkpt>
      <trkpt lat="50.631498" lon="30.438148"></trkpt>
      <trkpt lat="50.633643" lon="30.435532"></trkpt>
      <trkpt lat="50.63646" lon="30.431259"></trkpt>
      <trkpt lat="50.637428" lon="30.430037"></trkpt>
      <trkpt lat="50.642922" lon="30.425318"></trkpt>
      <trkpt lat="50.644088" lon="30.424152"></trkpt>
      <trkpt lat="50.647417" lon="30.418206"></trkpt>
      <trkpt lat="50.64973" lon="30.410891"></trkpt>
      <trkpt lat="50.651135" lon="30.409218"></trkpt>
      <trkpt lat="50.654271" lon="30.408042"></trkpt>
      <trkpt lat="50.655136" lon="30.407621"></trkpt>
      <trkpt lat="50.657331" lon="30.405452"></trkpt>
      <trkpt lat="50.659046" lon="30.403992"></trkpt>
      <trkpt lat="50.659345" lon="30.403857"></trkpt>
      <trkpt lat="50.661035" lon="30.403941"></trkpt>
      <trkpt lat="50.66152" lon="30.403844"></trkpt>
      <trkpt lat="50.667154" lon="30.400285"></trkpt>
      <trkpt lat="50.680567" lon="30.395709"></trkpt>
      <trkpt lat="50.682696" lon="30.395498"></trkpt>
      <trkpt lat="50.683738" lon="30.394963"></trkpt>
      <trkpt lat="50.686568" lon="30.393079"></trkpt>
      <trkpt lat="50.688528" lon="30.390418"></trkpt>
      <trkpt lat="50.701247" lon="30.377451"></trkpt>
      <trkpt lat="50.701906" lon="30.376666"></trkpt>
      <trkpt lat="50.702263" lon="30.376015"></trkpt>
      <trkpt lat="50.702764" lon="30.37409"></trkpt>
      <trkpt lat="50.707637" lon="30.344301"></trkpt>
      <trkpt lat="50.707938" lon="30.34301"></trkpt>
      <trkpt lat="50.708399" lon="30.342196"></trkpt>
      <trkpt lat="50.713668" lon="30.338693"></trkpt>
      <trkpt lat="50.714408" lon="30.338311"></trkpt>
      <trkpt lat="50.715675" lon="30.338215"></trkpt>
      <trkpt lat="50.717308" lon="30.338343"></trkpt>
      <trkpt lat="50.720171" lon="30.337693"></trkpt>
      <trkpt lat="50.72162" lon="30.338051"></trkpt>
      <trkpt lat="50.722555" lon="30.337907"></trkpt>
      <trkpt lat="50.723323" lon="30.337476"></trkpt>
      <trkpt lat="50.724661" lon="30.336367"></trkpt>
      <trkpt lat="50.725903" lon="30.335743"></trkpt>
      <trkpt lat="50.732201" lon="30.33062"></trkpt>
      <trkpt lat="50.732876" lon="30.33023"></trkpt>
      <trkpt lat="50.734728" lon="30.329883"></trkpt>
      <trkpt lat="50.736242" lon="30.321567"></trkpt>
      <trkpt lat="50.737128" lon="30.319046"></trkpt>
      <trkpt lat="50.737861" lon="30.315004"></trkpt>
      <trkpt lat="50.737982" lon="30.308809"></trkpt>
      <trkpt lat="50.737944" lon="30.301305"></trkpt>
      <trkpt lat="50.738249" lon="30.29463"></trkpt>
      <trkpt lat="50.737435" lon="30.294413"></trkpt>
      <trkpt lat="50.736324" lon="30.294558"></trkpt>
      <trkpt lat="50.736153" lon="30.295145"></trkpt>
      <trkpt lat="50.735772" lon="30.295057"></trkpt>
  </trkseg></trk>
</gpx>
