<?xml version="1.0" encoding="UTF-8"?>
<gpx version="1.1" creator="yatutbuv" xmlns="http://www.topografix.com/GPX/1/1">
  <trk><name>GraphHopper Track</name><trkseg>
      <trkpt lat="50.119172" lon="21.970322"></trkpt>
      <trkpt lat="50.119137" lon="21.970679"></trkpt>
      <trkpt lat="50.119275" lon="21.971318"></trkpt>
      <trkpt lat="50.112956" lon="21.973653"></trkpt>
      <trkpt lat="50.111921" lon="21.973948"></trkpt>
      <trkpt lat="50.10888" lon="21.975129"></trkpt>
      <trkpt lat="50.10812" lon="21.975624"></trkpt>
      <trkpt lat="50.106867" lon="21.976081"></trkpt>
      <trkpt lat="50.106583" lon="21.976003"></trkpt>
      <trkpt lat="50.106454" lon="21.976158"></trkpt>
      <trkpt lat="50.106629" lon="21.976942"></trkpt>
      <trkpt lat="50.106676" lon="21.978636"></trkpt>
      <trkpt lat="50.106919" lon="21.979069"></trkpt>
      <trkpt lat="50.107362" lon="21.979303"></trkpt>
      <trkpt lat="50.107579" lon="21.979574"></trkpt>
      <trkpt lat="50.107796" lon="21.980604"></trkpt>
      <trkpt lat="50.107495" lon="21.985975"></trkpt>
      <trkpt lat="50.106834" lon="21.990366"></trkpt>
      <trkpt lat="50.105602" lon="21.995459"></trkpt>
      <trkpt lat="50.095983" lon="22.030135"></trkpt>
      <trkpt lat="50.095067" lon="22.034538"></trkpt>
      <trkpt lat="50.094496" lon="22.039192"></trkpt>
      <trkpt lat="50.092621" lon="22.072438"></trkpt>
      <trkpt lat="50.092396" lon="22.079642"></trkpt>
      <trkpt lat="50.09269" lon="22.085046"></trkpt>
      <trkpt lat="50.095599" lon="22.112798"></trkpt>
      <trkpt lat="50.095835" lon="22.116792"></trkpt>
      <trkpt lat="50.095804" lon="22.12152"></trkpt>
      <trkpt lat="50.095529" lon="22.125192"></trkpt>
      <trkpt lat="50.095038" lon="22.129195"></trkpt>
      <trkpt lat="50.090406" lon="22.163455"></trkpt>
      <trkpt lat="50.089929" lon="22.168783"></trkpt>
      <trkpt lat="50.089807" lon="22.175243"></trkpt>
      <trkpt lat="50.089967" lon="22.179368"></trkpt>
      <trkpt lat="50.090568" lon="22.185396"></trkpt>
      <trkpt lat="50.091329" lon="22.190054"></trkpt>
      <trkpt lat="50.093125" lon="22.199265"></trkpt>
      <trkpt lat="50.093736" lon="22.201818"></trkpt>
      <trkpt lat="50.094454" lon="22.204081"></trkpt>
      <trkpt lat="50.096677" lon="22.209531"></trkpt>
      <trkpt lat="50.097575" lon="22.212127"></trkpt>
      <trkpt lat="50.098275" lon="22.214811"></trkpt>
      <trkpt lat="50.098906" lon="22.218357"></trkpt>
      <trkpt lat="50.099175" lon="22.221104"></trkpt>
      <trkpt lat="50.099122" lon="22.221976"></trkpt>
      <trkpt lat="50.09897" lon="22.222661"></trkpt>
      <trkpt lat="50.098331" lon="22.224181"></trkpt>
      <trkpt lat="50.09804" lon="22.225191"></trkpt>
      <trkpt lat="50.098336" lon="22.230831"></trkpt>
      <trkpt lat="50.098182" lon="22.231604"></trkpt>
      <trkpt lat="50.098246" lon="22.232305"></trkpt>
      <trkpt lat="50.097636" lon="22.237051"></trkpt>
      <trkpt lat="50.097393" lon="22.237561"></trkpt>
      <trkpt lat="50.09745" lon="22.238179"></trkpt>
      <trkpt lat="50.096817" lon="22.240704"></trkpt>
      <trkpt lat="50.09533" lon="22.244735"></trkpt>
      <trkpt lat="50.093295" lon="22.251774"></trkpt>
      <trkpt lat="50.092931" lon="22.25235"></trkpt>
      <trkpt lat="50.079854" lon="22.26044"></trkpt>
      <trkpt lat="50.078501" lon="22.260968"></trkpt>
      <trkpt lat="50.077658" lon="22.261017"></trkpt>
      <trkpt lat="50.077514" lon="22.260979"></trkpt>
      <trkpt lat="50.077163" lon="22.260172"></trkpt>
      <trkpt lat="50.07398" lon="22.251302"></trkpt>
      <trkpt lat="50.073332" lon="22.249865"></trkpt>
      <trkpt lat="50.073238" lon="22.24895"></trkpt>
      <trkpt lat="50.070971" lon="22.239239"></trkpt>
      <trkpt lat="50.070174" lon="22.234768"></trkpt>
      <trkpt lat="50.069416" lon="22.23252"></trkpt>
      <trkpt lat="50.068714" lon="22.231925"></trkpt>
      <trkpt lat="50.068231" lon="22.22974"></trkpt>
      <trkpt lat="50.068067" lon="22.229672"></trkpt>
      <trkpt lat="50.066963" lon="22.230197"></trkpt>
      <trkpt lat="50.06678" lon="22.23004"></trkpt>
      <trkpt lat="50.066381" lon="22.229054"></trkpt>
      <trkpt lat="50.065348" lon="22.229641"></trkpt>
      <trkpt lat="50.064141" lon="22.229167"></trkpt>
      <trkpt lat="50.062742" lon="22.228045"></trkpt>
      <trkpt lat="50.062489" lon="22.227415"></trkpt>
      <trkpt lat="50.062306" lon="22.227496"></trkpt>
      <trkpt lat="50.062012" lon="22.227361"></trkpt>
      <trkpt lat="50.059011" lon="22.224454"></trkpt>
      <trkpt lat="50.058427" lon="22.224172"></trkpt>
      <trkpt lat="50.056113" lon="22.224067"></trkpt>
      <trkpt lat="50.054065" lon="22.224355"></trkpt>
      <trkpt lat="50.051934" lon="22.224509"></trkpt>
      <trkpt lat="50.049298" lon="22.225854"></trkpt>
      <trkpt lat="50.04525" lon="22.226997"></trkpt>
      <trkpt lat="50.041814" lon="22.228847"></trkpt>
      <trkpt lat="50.040341" lon="22.23007"></trkpt>
      <trkpt lat="50.039861" lon="22.230264"></trkpt>
      <trkpt lat="50.039203" lon="22.230317"></trkpt>
      <trkpt lat="50.038216" lon="22.230317"></trkpt>
      <trkpt lat="50.037308" lon="22.230113"></trkpt>
      <trkpt lat="50.035226" lon="22.229245"></trkpt>
      <trkpt lat="50.034176" lon="22.228396"></trkpt>
      <trkpt lat="50.033801" lon="22.228289"></trkpt>
      <trkpt lat="50.031803" lon="22.228603"></trkpt>
      <trkpt lat="50.030229" lon="22.228219"></trkpt>
      <trkpt lat="50.028622" lon="22.227359"></trkpt>
      <trkpt lat="50.02504" lon="22.224803"></trkpt>
      <trkpt lat="50.023877" lon="22.224312"></trkpt>
      <trkpt lat="50.02206" lon="22.224052"></trkpt>
      <trkpt lat="50.021559" lon="22.224081"></trkpt>
      <trkpt lat="50.021058" lon="22.224271"></trkpt>
      <trkpt lat="50.020223" lon="22.224819"></trkpt>
      <trkpt lat="50.019724" lon="22.224891"></trkpt>
      <trkpt lat="50.017762" lon="22.224807"></trkpt>
      <trkpt lat="50.016688" lon="22.224891"></trkpt>
      <trkpt lat="50.014986" lon="22.224642"></trkpt>
      <trkpt lat="50.014265" lon="22.223973"></trkpt>
      <trkpt lat="50.012799" lon="22.223314"></trkpt>
      <trkpt lat="50.012196" lon="22.22277"></trkpt>
      <trkpt lat="50.011443" lon="22.221782"></trkpt>
      <trkpt lat="50.011034" lon="22.220931"></trkpt>
      <trkpt lat="50.010438" lon="22.219246"></trkpt>
      <trkpt lat="50.009929" lon="22.218452"></trkpt>
      <trkpt lat="50.009105" lon="22.215956"></trkpt>
      <trkpt lat="50.006845" lon="22.214066"></trkpt>
      <trkpt lat="50.005763" lon="22.213481"></trkpt>
      <trkpt lat="50.005098" lon="22.212485"></trkpt>
      <trkpt lat="50.004663" lon="22.211313"></trkpt>
      <trkpt lat="50.003654" lon="22.209525"></trkpt>
      <trkpt lat="50.003405" lon="22.207985"></trkpt>
      <trkpt lat="50.00338" lon="22.206023"></trkpt>
      <trkpt lat="50.003228" lon="22.205067"></trkpt>
      <trkpt lat="50.001232" lon="22.199788"></trkpt>
      <trkpt lat="50.000252" lon="22.198962"></trkpt>
      <trkpt lat="49.998637" lon="22.19833"></trkpt>
      <trkpt lat="49.997731" lon="22.197666"></trkpt>
      <trkpt lat="49.996784" lon="22.196281"></trkpt>
      <trkpt lat="49.996217" lon="22.195053"></trkpt>
      <trkpt lat="49.995731" lon="22.194397"></trkpt>
      <trkpt lat="49.994703" lon="22.193476"></trkpt>
      <trkpt lat="49.993704" lon="22.192291"></trkpt>
      <trkpt lat="49.992549" lon="22.19151"></trkpt>
      <trkpt lat="49.991048" lon="22.189466"></trkpt>
      <trkpt lat="49.990799" lon="22.189311"></trkpt>
      <trkpt lat="49.989833" lon="22.189069"></trkpt>
      <trkpt lat="49.9886" lon="22.189091"></trkpt>
      <trkpt lat="49.987177" lon="22.189785"></trkpt>
      <trkpt lat="49.985712" lon="22.190841"></trkpt>
      <trkpt lat="49.984989" lon="22.191973"></trkpt>
      <trkpt lat="49.982426" lon="22.192501"></trkpt>
      <trkpt lat="49.981244" lon="22.192084"></trkpt>
      <trkpt lat="49.980507" lon="22.192185"></trkpt>
      <trkpt lat="49.978874" lon="22.192014"></trkpt>
      <trkpt lat="49.977989" lon="22.191384"></trkpt>
      <trkpt lat="49.977181" lon="22.191134"></trkpt>
      <trkpt lat="49.97674" lon="22.190764"></trkpt>
      <trkpt lat="49.975181" lon="22.19057"></trkpt>
      <trkpt lat="49.974486" lon="22.190376"></trkpt>
      <trkpt lat="49.973319" lon="22.190652"></trkpt>
      <trkpt lat="49.97266" lon="22.191015"></trkpt>
      <trkpt lat="49.971219" lon="22.191486"></trkpt>
      <trkpt lat="49.970444" lon="22.191091"></trkpt>
      <trkpt lat="49.969284" lon="22.190815"></trkpt>
      <trkpt lat="49.967015" lon="22.191103"></trkpt>
      <trkpt lat="49.965447" lon="22.191735"></trkpt>
      <trkpt lat="49.964321" lon="22.192873"></trkpt>
      <trkpt lat="49.963651" lon="22.193165"></trkpt>
      <trkpt lat="49.963011" lon="22.193829"></trkpt>
      <trkpt lat="49.962022" lon="22.195244"></trkpt>
      <trkpt lat="49.961039" lon="22.196369"></trkpt>
      <trkpt lat="49.959591" lon="22.197714"></trkpt>
      <trkpt lat="49.958033" lon="22.198864"></trkpt>
      <trkpt lat="49.956563" lon="22.200586"></trkpt>
      <trkpt lat="49.955552" lon="22.201433"></trkpt>
      <trkpt lat="49.954862" lon="22.201733"></trkpt>
      <trkpt lat="49.953582" lon="22.202688"></trkpt>
      <trkpt lat="49.953232" lon="22.2028"></trkpt>
      <trkpt lat="49.951334" lon="22.202497"></trkpt>
      <trkpt lat="49.949846" lon="22.201391"></trkpt>
      <trkpt lat="49.948578" lon="22.198343"></trkpt>
      <trkpt lat="49.946764" lon="22.192926"></trkpt>
      <trkpt lat="49.946279" lon="22.192324"></trkpt>
      <trkpt lat="49.944302" lon="22.190984"></trkpt>
      <trkpt lat="49.943357" lon="22.190083"></trkpt>
      <trkpt lat="49.943006" lon="22.189931"></trkpt>
      <trkpt lat="49.940965" lon="22.189953"></trkpt>
      <trkpt lat="49.940022" lon="22.189762"></trkpt>
      <trkpt lat="49.938632" lon="22.189188"></trkpt>
      <trkpt lat="49.936362" lon="22.189729"></trkpt>
      <trkpt lat="49.935668" lon="22.190153"></trkpt>
      <trkpt lat="49.93537" lon="22.190103"></trkpt>
      <trkpt lat="49.933924" lon="22.188153"></trkpt>
      <trkpt lat="49.933203" lon="22.186532"></trkpt>
      <trkpt lat="49.932394" lon="22.185795"></trkpt>
      <trkpt lat="49.932157" lon="22.185711"></trkpt>
      <trkpt lat="49.929805" lon="22.187261"></trkpt>
      <trkpt lat="49.929474" lon="22.187619"></trkpt>
      <trkpt lat="49.923724" lon="22.196616"></trkpt>
      <trkpt lat="49.923532" lon="22.196764"></trkpt>
      <trkpt lat="49.919735" lon="22.195472"></trkpt>
      <trkpt lat="49.919246" lon="22.195946"></trkpt>
      <trkpt lat="49.917295" lon="22.198445"></trkpt>
      <trkpt lat="49.916493" lon="22.198141"></trkpt>
      <trkpt lat="49.912508" lon="22.199612"></trkpt>
      <trkpt lat="49.911227" lon="22.199842"></trkpt>
      <trkpt lat="49.909608" lon="22.199359"></trkpt>
      <trkpt lat="49.908405" lon="22.198436"></trkpt>
      <trkpt lat="49.908143" lon="22.198108"></trkpt>
      <trkpt lat="49.908049" lon="22.197366"></trkpt>
      <trkpt lat="49.907667" lon="22.196995"></trkpt>
      <trkpt lat="49.906665" lon="22.197058"></trkpt>
      <trkpt lat="49.904906" lon="22.196658"></trkpt>
      <trkpt lat="49.903785" lon="22.196212"></trkpt>
      <trkpt lat="49.902264" lon="22.196017"></trkpt>
      <trkpt lat="49.901998" lon="22.195866"></trkpt>
      <trkpt lat="49.901895" lon="22.195529"></trkpt>
      <trkpt lat="49.901827" lon="22.193785"></trkpt>
      <trkpt lat="49.901954" lon="22.191033"></trkpt>
      <trkpt lat="49.903269" lon="22.184513"></trkpt>
      <trkpt lat="49.903225" lon="22.180784"></trkpt>
      <trkpt lat="49.903403" lon="22.178363"></trkpt>
      <trkpt lat="49.903218" lon="22.175113"></trkpt>
      <trkpt lat="49.903264" lon="22.173923"></trkpt>
      <trkpt lat="49.903136" lon="22.173617"></trkpt>
      <trkpt lat="49.901913" lon="22.172683"></trkpt>
      <trkpt lat="49.901776" lon="22.172264"></trkpt>
      <trkpt lat="49.90166" lon="22.170983"></trkpt>
      <trkpt lat="49.901431" lon="22.170563"></trkpt>
      <trkpt lat="49.900766" lon="22.170127"></trkpt>
      <trkpt lat="49.90007" lon="22.170094"></trkpt>
      <trkpt lat="49.89947" lon="22.170206"></trkpt>
      <trkpt lat="49.898936" lon="22.16985"></trkpt>
      <trkpt lat="49.898733" lon="22.169467"></trkpt>
      <trkpt lat="49.898316" lon="22.167806"></trkpt>
      <trkpt lat="49.898278" lon="22.166821"></trkpt>
      <trkpt lat="49.89771" lon="22.164508"></trkpt>
      <trkpt lat="49.896535" lon="22.163204"></trkpt>
      <trkpt lat="49.896322" lon="22.162745"></trkpt>
      <trkpt lat="49.896456" lon="22.158688"></trkpt>
      <trkpt lat="49.896386" lon="22.157945"></trkpt>
      <trkpt lat="49.894296" lon="22.15277"></trkpt>
      <trkpt lat="49.893372" lon="22.149349"></trkpt>
      <trkpt lat="49.892568" lon="22.14805"></trkpt>
      <trkpt lat="49.891658" lon="22.147225"></trkpt>
      <trkpt lat="49.891443" lon="22.147202"></trkpt>
      <trkpt lat="49.89107" lon="22.147588"></trkpt>
      <trkpt lat="49.890494" lon="22.147255"></trkpt>
      <trkpt lat="49.889439" lon="22.144781"></trkpt>
      <trkpt lat="49.888853" lon="22.139645"></trkpt>
      <trkpt lat="49.889033" lon="22.136327"></trkpt>
      <trkpt lat="49.887589" lon="22.136324"></trkpt>
      <trkpt lat="49.88543" lon="22.136945"></trkpt>
      <trkpt lat="49.884181" lon="22.137152"></trkpt>
      <trkpt lat="49.882471" lon="22.138006"></trkpt>
      <trkpt lat="49.882044" lon="22.138382"></trkpt>
      <trkpt lat="49.881686" lon="22.138955"></trkpt>
      <trkpt lat="49.881515" lon="22.139672"></trkpt>
      <trkpt lat="49.880985" lon="22.140241"></trkpt>
      <trkpt lat="49.88054" lon="22.141169"></trkpt>
      <trkpt lat="49.880112" lon="22.14232"></trkpt>
      <trkpt lat="49.879669" lon="22.144417"></trkpt>
      <trkpt lat="49.877468" lon="22.149561"></trkpt>
      <trkpt lat="49.876985" lon="22.149527"></trkpt>
      <trkpt lat="49.876615" lon="22.147265"></trkpt>
      <trkpt lat="49.87616" lon="22.145804"></trkpt>
      <trkpt lat="49.876172" lon="22.144615"></trkpt>
      <trkpt lat="49.875689" lon="22.141177"></trkpt>
      <trkpt lat="49.875629" lon="22.139282"></trkpt>
      <trkpt lat="49.876016" lon="22.13694"></trkpt>
      <trkpt lat="49.8767" lon="22.135627"></trkpt>
      <trkpt lat="49.877583" lon="22.134624"></trkpt>
      <trkpt lat="49.877759" lon="22.134228"></trkpt>
      <trkpt lat="49.877779" lon="22.13223"></trkpt>
      <trkpt lat="49.877497" lon="22.130173"></trkpt>
      <trkpt lat="49.875367" lon="22.123078"></trkpt>
      <trkpt lat="49.87468" lon="22.11944"></trkpt>
      <trkpt lat="49.874808" lon="22.114246"></trkpt>
      <trkpt lat="49.874611" lon="22.109629"></trkpt>
      <trkpt lat="49.874874" lon="22.10312"></trkpt>
      <trkpt lat="49.874673" lon="22.101779"></trkpt>
      <trkpt lat="49.874272" lon="22.101955"></trkpt>
      <trkpt lat="49.873865" lon="22.101789"></trkpt>
      <trkpt lat="49.872854" lon="22.101003"></trkpt>
      <trkpt lat="49.87198" lon="22.100066"></trkpt>
      <trkpt lat="49.870637" lon="22.099716"></trkpt>
      <trkpt lat="49.868926" lon="22.09869"></trkpt>
      <trkpt lat="49.866191" lon="22.098339"></trkpt>
      <trkpt lat="49.86395" lon="22.097714"></trkpt>
      <trkpt lat="49.862845" lon="22.097546"></trkpt>
      <trkpt lat="49.861661" lon="22.097521"></trkpt>
      <trkpt lat="49.859645" lon="22.096624"></trkpt>
      <trkpt lat="49.859083" lon="22.096612"></trkpt>
      <trkpt lat="49.857416" lon="22.097411"></trkpt>
      <trkpt lat="49.856553" lon="22.097665"></trkpt>
      <trkpt lat="49.855711" lon="22.097696"></trkpt>
      <trkpt lat="49.854733" lon="22.097562"></trkpt>
      <trkpt lat="49.854497" lon="22.096795"></trkpt>
      <trkpt lat="49.854057" lon="22.0937"></trkpt>
      <trkpt lat="49.853353" lon="22.092126"></trkpt>
      <trkpt lat="49.852498" lon="22.091002"></trkpt>
      <trkpt lat="49.849984" lon="22.087088"></trkpt>
      <trkpt lat="49.849734" lon="22.086866"></trkpt>
      <trkpt lat="49.848964" lon="22.086984"></trkpt>
      <trkpt lat="49.847213" lon="22.087562"></trkpt>
      <trkpt lat="49.8415" lon="22.089639"></trkpt>
      <trkpt lat="49.838532" lon="22.090228"></trkpt>
      <trkpt lat="49.83385" lon="22.088874"></trkpt>
      <trkpt lat="49.832864" lon="22.08897"></trkpt>
      <trkpt lat="49.831988" lon="22.088561"></trkpt>
      <trkpt lat="49.831796" lon="22.088619"></trkpt>
      <trkpt lat="49.831447" lon="22.089047"></trkpt>
      <trkpt lat="49.831146" lon="22.089212"></trkpt>
      <trkpt lat="49.830268" lon="22.089272"></trkpt>
      <trkpt lat="49.829495" lon="22.089065"></trkpt>
      <trkpt lat="49.829063" lon="22.086847"></trkpt>
      <trkpt lat="49.827193" lon="22.083249"></trkpt>
      <trkpt lat="49.825714" lon="22.074737"></trkpt>
      <trkpt lat="49.825545" lon="22.0742"></trkpt>
      <trkpt lat="49.824598" lon="22.072601"></trkpt>
      <trkpt lat="49.824483" lon="22.07222"></trkpt>
      <trkpt lat="49.822288" lon="22.054739"></trkpt>
      <trkpt lat="49.822051" lon="22.054402"></trkpt>
      <trkpt lat="49.814581" lon="22.04956"></trkpt>
      <trkpt lat="49.814399" lon="22.048973"></trkpt>
      <trkpt lat="49.814801" lon="22.047248"></trkpt>
      <trkpt lat="49.814828" lon="22.046677"></trkpt>
      <trkpt lat="49.814765" lon="22.043822"></trkpt>
      <trkpt lat="49.814525" lon="22.042987"></trkpt>
      <trkpt lat="49.813358" lon="22.041401"></trkpt>
      <trkpt lat="49.812419" lon="22.040782"></trkpt>
      <trkpt lat="49.810264" lon="22.039977"></trkpt>
      <trkpt lat="49.809888" lon="22.039601"></trkpt>
      <trkpt lat="49.809609" lon="22.038924"></trkpt>
      <trkpt lat="49.809727" lon="22.031422"></trkpt>
      <trkpt lat="49.808282" lon="22.024115"></trkpt>
      <trkpt lat="49.808568" lon="22.021378"></trkpt>
      <trkpt lat="49.808223" lon="22.018013"></trkpt>
      <trkpt lat="49.811467" lon="22.001442"></trkpt>
      <trkpt lat="49.814806" lon="21.994848"></trkpt>
      <trkpt lat="49.815701" lon="21.988876"></trkpt>
      <trkpt lat="49.815739" lon="21.986459"></trkpt>
      <trkpt lat="49.813919" lon="21.981821"></trkpt>
      <trkpt lat="49.813352" lon="21.978962"></trkpt>
      <trkpt lat="49.812017" lon="21.975764"></trkpt>
      <trkpt lat="49.811274" lon="21.974436"></trkpt>
      <trkpt lat="49.810834" lon="21.97329"></trkpt>
      <trkpt lat="49.807902" lon="21.967519"></trkpt>
      <trkpt lat="49.807543" lon="21.967158"></trkpt>
      <trkpt lat="49.806094" lon="21.966277"></trkpt>
      <trkpt lat="49.805813" lon="21.965887"></trkpt>
      <trkpt lat="49.805787" lon="21.965172"></trkpt>
      <trkpt lat="49.806289" lon="21.963553"></trkpt>
      <trkpt lat="49.806253" lon="21.962424"></trkpt>
      <trkpt lat="49.805667" lon="21.960133"></trkpt>
      <trkpt lat="49.804511" lon="21.957526"></trkpt>
      <trkpt lat="49.803938" lon="21.954078"></trkpt>
      <trkpt lat="49.802836" lon="21.951328"></trkpt>
      <trkpt lat="49.800585" lon="21.949164"></trkpt>
      <trkpt lat="49.800071" lon="21.948974"></trkpt>
      <trkpt lat="49.799743" lon="21.94918"></trkpt>
      <trkpt lat="49.799279" lon="21.950105"></trkpt>
      <trkpt lat="49.798984" lon="21.950233"></trkpt>
      <trkpt lat="49.798387" lon="21.950089"></trkpt>
      <trkpt lat="49.79774" lon="21.94939"></trkpt>
      <trkpt lat="49.797489" lon="21.949365"></trkpt>
      <trkpt lat="49.797415" lon="21.949774"></trkpt>
      <trkpt lat="49.797793" lon="21.951076"></trkpt>
      <trkpt lat="49.79772" lon="21.951291"></trkpt>
      <trkpt lat="49.797558" lon="21.951332"></trkpt>
      <trkpt lat="49.794425" lon="21.948768"></trkpt>
      <trkpt lat="49.794132" lon="21.947963"></trkpt>
      <trkpt lat="49.793722" lon="21.94805"></trkpt>
      <trkpt lat="49.79333" lon="21.947865"></trkpt>
      <trkpt lat="49.789935" lon="21.945022"></trkpt>
      <trkpt lat="49.789203" lon="21.944605"></trkpt>
      <trkpt lat="49.788177" lon="21.944661"></trkpt>
      <trkpt lat="49.787282" lon="21.945136"></trkpt>
      <trkpt lat="49.784372" lon="21.948027"></trkpt>
      <trkpt lat="49.783387" lon="21.949394"></trkpt>
      <trkpt lat="49.783004" lon="21.949564"></trkpt>
      <trkpt lat="49.782657" lon="21.949497"></trkpt>
      <trkpt lat="49.782246" lon="21.949142"></trkpt>
      <trkpt lat="49.779121" lon="21.94532"></trkpt>
      <trkpt lat="49.778619" lon="21.944949"></trkpt>
      <trkpt lat="49.771433" lon="21.943774"></trkpt>
      <trkpt lat="49.770191" lon="21.943457"></trkpt>
      <trkpt lat="49.769893" lon="21.942974"></trkpt>
      <trkpt lat="49.769065" lon="21.939804"></trkpt>
      <trkpt lat="49.769035" lon="21.939287"></trkpt>
      <trkpt lat="49.769255" lon="21.937736"></trkpt>
      <trkpt lat="49.769157" lon="21.937138"></trkpt>
      <trkpt lat="49.768635" lon="21.936407"></trkpt>
      <trkpt lat="49.767192" lon="21.935825"></trkpt>
      <trkpt lat="49.765905" lon="21.934516"></trkpt>
      <trkpt lat="49.763891" lon="21.930685"></trkpt>
      <trkpt lat="49.763312" lon="21.930025"></trkpt>
      <trkpt lat="49.762621" lon="21.92967"></trkpt>
      <trkpt lat="49.759039" lon="21.928517"></trkpt>
      <trkpt lat="49.755285" lon="21.927119"></trkpt>
      <trkpt lat="49.753219" lon="21.925811"></trkpt>
      <trkpt lat="49.749406" lon="21.925608"></trkpt>
      <trkpt lat="49.748228" lon="21.925068"></trkpt>
      <trkpt lat="49.746191" lon="21.925053"></trkpt>
      <trkpt lat="49.745631" lon="21.924809"></trkpt>
      <trkpt lat="49.744355" lon="21.923306"></trkpt>
      <trkpt lat="49.741278" lon="21.920698"></trkpt>
      <trkpt lat="49.740526" lon="21.919897"></trkpt>
      <trkpt lat="49.740194" lon="21.919224"></trkpt>
      <trkpt lat="49.739678" lon="21.917308"></trkpt>
      <trkpt lat="49.739374" lon="21.914975"></trkpt>
      <trkpt lat="49.738912" lon="21.913476"></trkpt>
      <trkpt lat="49.738514" lon="21.912918"></trkpt>
      <trkpt lat="49.737365" lon="21.911849"></trkpt>
      <trkpt lat="49.736305" lon="21.911079"></trkpt>
      <trkpt lat="49.73463" lon="21.908612"></trkpt>
      <trkpt lat="49.734193" lon="21.908344"></trkpt>
      <trkpt lat="49.732585" lon="21.907975"></trkpt>
      <trkpt lat="49.732137" lon="21.907701"></trkpt>
      <trkpt lat="49.731221" lon="21.906853"></trkpt>
      <trkpt lat="49.730982" lon="21.906771"></trkpt>
      <trkpt lat="49.730031" lon="21.907251"></trkpt>
      <trkpt lat="49.728915" lon="21.907203"></trkpt>
      <trkpt lat="49.72707" lon="21.907411"></trkpt>
      <trkpt lat="49.725495" lon="21.909228"></trkpt>
      <trkpt lat="49.725241" lon="21.909374"></trkpt>
      <trkpt lat="49.72493" lon="21.90937"></trkpt>
      <trkpt lat="49.724486" lon="21.908916"></trkpt>
      <trkpt lat="49.723842" lon="21.907153"></trkpt>
      <trkpt lat="49.723004" lon="21.901821"></trkpt>
      <trkpt lat="49.722698" lon="21.901204"></trkpt>
      <trkpt lat="49.722345" lon="21.900956"></trkpt>
      <trkpt lat="49.721831" lon="21.900906"></trkpt>
      <trkpt lat="49.719961" lon="21.901213"></trkpt>
      <trkpt lat="49.71853" lon="21.900748"></trkpt>
      <trkpt lat="49.718174" lon="21.896375"></trkpt>
      <trkpt lat="49.718176" lon="21.893529"></trkpt>
      <trkpt lat="49.718777" lon="21.89103"></trkpt>
      <trkpt lat="49.719003" lon="21.889537"></trkpt>
      <trkpt lat="49.71941" lon="21.888215"></trkpt>
      <trkpt lat="49.71944" lon="21.886485"></trkpt>
      <trkpt lat="49.720134" lon="21.883654"></trkpt>
      <trkpt lat="49.720271" lon="21.882702"></trkpt>
      <trkpt lat="49.720134" lon="21.882365"></trkpt>
      <trkpt lat="49.719346" lon="21.881937"></trkpt>
      <trkpt lat="49.718802" lon="21.881423"></trkpt>
      <trkpt lat="49.717414" lon="21.880909"></trkpt>
      <trkpt lat="49.716586" lon="21.880253"></trkpt>
      <trkpt lat="49.717072" lon="21.878823"></trkpt>
      <trkpt lat="49.717444" lon="21.87815"></trkpt>
      <trkpt lat="49.717851" lon="21.876903"></trkpt>
      <trkpt lat="49.718617" lon="21.875215"></trkpt>
      <trkpt lat="49.718951" lon="21.873124"></trkpt>
      <trkpt lat="49.71947" lon="21.87239"></trkpt>
      <trkpt lat="49.720092" lon="21.871796"></trkpt>
      <trkpt lat="49.721027" lon="21.869753"></trkpt>
      <trkpt lat="49.721242" lon="21.868973"></trkpt>
      <trkpt lat="49.721103" lon="21.865553"></trkpt>
      <trkpt lat="49.721723" lon="21.862924"></trkpt>
      <trkpt lat="49.721135" lon="21.860967"></trkpt>
      <trkpt lat="49.721056" lon="21.858517"></trkpt>
      <trkpt lat="49.720792" lon="21.856571"></trkpt>
      <trkpt lat="49.720989" lon="21.849194"></trkpt>
      <trkpt lat="49.72095" lon="21.84834"></trkpt>
      <trkpt lat="49.720531" lon="21.846045"></trkpt>
      <trkpt lat="49.720701" lon="21.8439"></trkpt>
      <trkpt lat="49.7205" lon="21.842596"></trkpt>
      <trkpt lat="49.719572" lon="21.840913"></trkpt>
      <trkpt lat="49.718304" lon="21.839971"></trkpt>
      <trkpt lat="49.717726" lon="21.840132"></trkpt>
      <trkpt lat="49.71712" lon="21.83999"></trkpt>
      <trkpt lat="49.716953" lon="21.839824"></trkpt>
      <trkpt lat="49.71694" lon="21.8361"></trkpt>
      <trkpt lat="49.716794" lon="21.833436"></trkpt>
      <trkpt lat="49.71614" lon="21.82985"></trkpt>
      <trkpt lat="49.716157" lon="21.82637"></trkpt>
      <trkpt lat="49.715784" lon="21.824202"></trkpt>
      <trkpt lat="49.715762" lon="21.822075"></trkpt>
      <trkpt lat="49.715465" lon="21.819255"></trkpt>
      <trkpt lat="49.715312" lon="21.815155"></trkpt>
      <trkpt lat="49.714164" lon="21.815177"></trkpt>
      <trkpt lat="49.713638" lon="21.815055"></trkpt>
      <trkpt lat="49.713224" lon="21.814733"></trkpt>
      <trkpt lat="49.713027" lon="21.814083"></trkpt>
      <trkpt lat="49.713203" lon="21.812813"></trkpt>
      <trkpt lat="49.713872" lon="21.811617"></trkpt>
      <trkpt lat="49.71506" lon="21.810273"></trkpt>
      <trkpt lat="49.715305" lon="21.809624"></trkpt>
      <trkpt lat="49.715254" lon="21.805393"></trkpt>
      <trkpt lat="49.71662" lon="21.801221"></trkpt>
      <trkpt lat="49.717115" lon="21.798528"></trkpt>
      <trkpt lat="49.717107" lon="21.797972"></trkpt>
      <trkpt lat="49.716828" lon="21.797243"></trkpt>
      <trkpt lat="49.710531" lon="21.792036"></trkpt>
      <trkpt lat="49.707695" lon="21.789366"></trkpt>
      <trkpt lat="49.706031" lon="21.788215"></trkpt>
      <trkpt lat="49.704133" lon="21.787097"></trkpt>
      <trkpt lat="49.702943" lon="21.786608"></trkpt>
      <trkpt lat="49.700958" lon="21.786037"></trkpt>
      <trkpt lat="49.699496" lon="21.78582"></trkpt>
      <trkpt lat="49.698864" lon="21.785499"></trkpt>
      <trkpt lat="49.698372" lon="21.784991"></trkpt>
      <trkpt lat="49.696945" lon="21.78224"></trkpt>
      <trkpt lat="49.696764" lon="21.780076"></trkpt>
      <trkpt lat="49.696602" lon="21.779695"></trkpt>
      <trkpt lat="49.695889" lon="21.778804"></trkpt>
      <trkpt lat="49.695907" lon="21.776532"></trkpt>
      <trkpt lat="49.696219" lon="21.77504"></trkpt>
      <trkpt lat="49.692096" lon="21.773073"></trkpt>
      <trkpt lat="49.691984" lon="21.772829"></trkpt>
      <trkpt lat="49.691857" lon="21.772956"></trkpt>
      <trkpt lat="49.691265" lon="21.772928"></trkpt>
      <trkpt lat="49.690564" lon="21.773286"></trkpt>
      <trkpt lat="49.689885" lon="21.773448"></trkpt>
      <trkpt lat="49.687888" lon="21.773007"></trkpt>
      <trkpt lat="49.68745" lon="21.772516"></trkpt>
      <trkpt lat="49.687467" lon="21.772348"></trkpt>
      <trkpt lat="49.687186" lon="21.771758"></trkpt>
      <trkpt lat="49.687184" lon="21.771238"></trkpt>
      <trkpt lat="49.687394" lon="21.770423"></trkpt>
      <trkpt lat="49.680472" lon="21.772707"></trkpt>
      <trkpt lat="49.680384" lon="21.772011"></trkpt>
      <trkpt lat="49.680472" lon="21.772707"></trkpt>
      <trkpt lat="49.680127" lon="21.772833"></trkpt>
      <trkpt lat="49.679629" lon="21.772743"></trkpt>
      <trkpt lat="49.679352" lon="21.77222"></trkpt>
      <trkpt lat="49.678431" lon="21.773162"></trkpt>
      <trkpt lat="49.67756" lon="21.773645"></trkpt>
      <trkpt lat="49.675119" lon="21.774105"></trkpt>
      <trkpt lat="49.672763" lon="21.774985"></trkpt>
      <trkpt lat="49.671847" lon="21.775566"></trkpt>
      <trkpt lat="49.657628" lon="21.780294"></trkpt>
      <trkpt lat="49.635041" lon="21.786797"></trkpt>
      <trkpt lat="49.634642" lon="21.786823"></trkpt>
      <trkpt lat="49.62645" lon="21.792026"></trkpt>
      <trkpt lat="49.625137" lon="21.793263"></trkpt>
      <trkpt lat="49.62449" lon="21.793475"></trkpt>
      <trkpt lat="49.624104" lon="21.793424"></trkpt>
      <trkpt lat="49.623823" lon="21.793309"></trkpt>
      <trkpt lat="49.623667" lon="21.793079"></trkpt>
      <trkpt lat="49.623504" lon="21.793073"></trkpt>
      <trkpt lat="49.623361" lon="21.793549"></trkpt>
      <trkpt lat="49.62309" lon="21.793967"></trkpt>
      <trkpt lat="49.622181" lon="21.794796"></trkpt>
      <trkpt lat="49.609614" lon="21.803209"></trkpt>
      <trkpt lat="49.60543" lon="21.80645"></trkpt>
      <trkpt lat="49.590243" lon="21.82837"></trkpt>
      <trkpt lat="49.587511" lon="21.83695"></trkpt>
      <trkpt lat="49.577233" lon="21.863911"></trkpt>
      <trkpt lat="49.576881" lon="21.866181"></trkpt>
      <trkpt lat="49.57292" lon="21.883585"></trkpt>
      <trkpt lat="49.572915" lon="21.884825"></trkpt>
      <trkpt lat="49.573736" lon="21.889724"></trkpt>
      <trkpt lat="49.575816" lon="21.899623"></trkpt>
      <trkpt lat="49.579131" lon="21.906686"></trkpt>
      <trkpt lat="49.580632" lon="21.910883"></trkpt>
      <trkpt lat="49.580854" lon="21.911677"></trkpt>
      <trkpt lat="49.581592" lon="21.915989"></trkpt>
      <trkpt lat="49.581568" lon="21.917153"></trkpt>
      <trkpt lat="49.580439" lon="21.92437"></trkpt>
      <trkpt lat="49.580137" lon="21.931042"></trkpt>
      <trkpt lat="49.580224" lon="21.932224"></trkpt>
      <trkpt lat="49.580913" lon="21.934038"></trkpt>
      <trkpt lat="49.584005" lon="21.940462"></trkpt>
      <trkpt lat="49.587469" lon="21.946116"></trkpt>
      <trkpt lat="49.58797" lon="21.947557"></trkpt>
      <trkpt lat="49.58814" lon="21.94915"></trkpt>
      <trkpt lat="49.587909" lon="21.950938"></trkpt>
      <trkpt lat="49.586593" lon="21.954838"></trkpt>
      <trkpt lat="49.586016" lon="21.957634"></trkpt>
      <trkpt lat="49.581705" lon="22.003003"></trkpt>
      <trkpt lat="49.581694" lon="22.004068"></trkpt>
      <trkpt lat="49.582055" lon="22.007171"></trkpt>
      <trkpt lat="49.581009" lon="22.012665"></trkpt>
      <trkpt lat="49.581054" lon="22.01407"></trkpt>
      <trkpt lat="49.581305" lon="22.014688"></trkpt>
      <trkpt lat="49.581722" lon="22.014925"></trkpt>
      <trkpt lat="49.583316" lon="22.015277"></trkpt>
      <trkpt lat="49.583653" lon="22.015463"></trkpt>
      <trkpt lat="49.583886" lon="22.015784"></trkpt>
      <trkpt lat="49.58402" lon="22.016484"></trkpt>
      <trkpt lat="49.583962" lon="22.01824"></trkpt>
      <trkpt lat="49.57747" lon="22.045775"></trkpt>
      <trkpt lat="49.57678" lon="22.047857"></trkpt>
      <trkpt lat="49.572265" lon="22.063413"></trkpt>
      <trkpt lat="49.571979" lon="22.064075"></trkpt>
      <trkpt lat="49.5664" lon="22.072513"></trkpt>
      <trkpt lat="49.565986" lon="22.073284"></trkpt>
      <trkpt lat="49.562162" lon="22.084717"></trkpt>
      <trkpt lat="49.560867" lon="22.089562"></trkpt>
      <trkpt lat="49.560144" lon="22.091852"></trkpt>
      <trkpt lat="49.558503" lon="22.094814"></trkpt>
      <trkpt lat="49.557826" lon="22.097922"></trkpt>
      <trkpt lat="49.558" lon="22.102754"></trkpt>
      <trkpt lat="49.558274" lon="22.10467"></trkpt>
      <trkpt lat="49.558148" lon="22.108794"></trkpt>
      <trkpt lat="49.558279" lon="22.109779"></trkpt>
      <trkpt lat="49.558526" lon="22.110384"></trkpt>
      <trkpt lat="49.559221" lon="22.111074"></trkpt>
      <trkpt lat="49.562902" lon="22.117271"></trkpt>
      <trkpt lat="49.564239" lon="22.120817"></trkpt>
      <trkpt lat="49.564459" lon="22.128713"></trkpt>
      <trkpt lat="49.569337" lon="22.147418"></trkpt>
      <trkpt lat="49.569406" lon="22.14946"></trkpt>
      <trkpt lat="49.56786" lon="22.151436"></trkpt>
      <trkpt lat="49.565495" lon="22.153"></trkpt>
      <trkpt lat="49.564759" lon="22.15368"></trkpt>
      <trkpt lat="49.563698" lon="22.15521"></trkpt>
      <trkpt lat="49.562955" lon="22.156984"></trkpt>
      <trkpt lat="49.560232" lon="22.16523"></trkpt>
      <trkpt lat="49.558674" lon="22.169515"></trkpt>
      <trkpt lat="49.556979" lon="22.173066"></trkpt>
      <trkpt lat="49.555438" lon="22.175621"></trkpt>
      <trkpt lat="49.553848" lon="22.177787"></trkpt>
      <trkpt lat="49.552703" lon="22.179111"></trkpt>
      <trkpt lat="49.551316" lon="22.180549"></trkpt>
      <trkpt lat="49.551146" lon="22.180678"></trkpt>
      <trkpt lat="49.550925" lon="22.180597"></trkpt>
      <trkpt lat="49.550653" lon="22.181128"></trkpt>
      <trkpt lat="49.544239" lon="22.187257"></trkpt>
      <trkpt lat="49.543185" lon="22.188722"></trkpt>
      <trkpt lat="49.542443" lon="22.190213"></trkpt>
      <trkpt lat="49.541747" lon="22.19237"></trkpt>
      <trkpt lat="49.541403" lon="22.194355"></trkpt>
      <trkpt lat="49.54032" lon="22.209401"></trkpt>
      <trkpt lat="49.54001" lon="22.211986"></trkpt>
      <trkpt lat="49.539332" lon="22.215503"></trkpt>
      <trkpt lat="49.538324" lon="22.219311"></trkpt>
      <trkpt lat="49.537834" lon="22.221678"></trkpt>
      <trkpt lat="49.537638" lon="22.221949"></trkpt>
      <trkpt lat="49.53761" lon="22.222267"></trkpt>
      <trkpt lat="49.530303" lon="22.231933"></trkpt>
      <trkpt lat="49.527618" lon="22.23872"></trkpt>
      <trkpt lat="49.527058" lon="22.241131"></trkpt>
      <trkpt lat="49.524007" lon="22.248078"></trkpt>
      <trkpt lat="49.521664" lon="22.254318"></trkpt>
      <trkpt lat="49.516393" lon="22.264534"></trkpt>
      <trkpt lat="49.515892" lon="22.265244"></trkpt>
      <trkpt lat="49.514727" lon="22.266388"></trkpt>
      <trkpt lat="49.514349" lon="22.26694"></trkpt>
      <trkpt lat="49.512379" lon="22.271283"></trkpt>
      <trkpt lat="49.511961" lon="22.271531"></trkpt>
      <trkpt lat="49.510427" lon="22.271154"></trkpt>
      <trkpt lat="49.510276" lon="22.271323"></trkpt>
      <trkpt lat="49.509889" lon="22.272377"></trkpt>
      <trkpt lat="49.509126" lon="22.272865"></trkpt>
      <trkpt lat="49.508979" lon="22.273116"></trkpt>
      <trkpt lat="49.508948" lon="22.273867"></trkpt>
      <trkpt lat="49.509165" lon="22.274334"></trkpt>
      <trkpt lat="49.509431" lon="22.274372"></trkpt>
      <trkpt lat="49.509857" lon="22.274122"></trkpt>
      <trkpt lat="49.510178" lon="22.274117"></trkpt>
      <trkpt lat="49.510906" lon="22.274986"></trkpt>
      <trkpt lat="49.51174" lon="22.279251"></trkpt>
      <trkpt lat="49.510943" lon="22.284635"></trkpt>
      <trkpt lat="49.509763" lon="22.286706"></trkpt>
      <trkpt lat="49.509496" lon="22.287422"></trkpt>
      <trkpt lat="49.509455" lon="22.288564"></trkpt>
      <trkpt lat="49.509694" lon="22.28983"></trkpt>
      <trkpt lat="49.509745" lon="22.290755"></trkpt>
      <trkpt lat="49.509585" lon="22.29228"></trkpt>
      <trkpt lat="49.509362" lon="22.29289"></trkpt>
      <trkpt lat="49.508894" lon="22.29346"></trkpt>
      <trkpt lat="49.507636" lon="22.293771"></trkpt>
      <trkpt lat="49.506533" lon="22.294583"></trkpt>
      <trkpt lat="49.503444" lon="22.298391"></trkpt>
      <trkpt lat="49.503059" lon="22.299047"></trkpt>
      <trkpt lat="49.502874" lon="22.299179"></trkpt>
      <trkpt lat="49.502356" lon="22.299253"></trkpt>
      <trkpt lat="49.499812" lon="22.30125"></trkpt>
      <trkpt lat="49.499205" lon="22.301994"></trkpt>
      <trkpt lat="49.497655" lon="22.305624"></trkpt>
      <trkpt lat="49.494027" lon="22.311651"></trkpt>
      <trkpt lat="49.491938" lon="22.318686"></trkpt>
      <trkpt lat="49.491581" lon="22.319471"></trkpt>
      <trkpt lat="49.491009" lon="22.320288"></trkpt>
      <trkpt lat="49.48733" lon="22.322908"></trkpt>
      <trkpt lat="49.486721" lon="22.323218"></trkpt>
      <trkpt lat="49.480457" lon="22.323391"></trkpt>
      <trkpt lat="49.474341" lon="22.325223"></trkpt>
      <trkpt lat="49.473933" lon="22.325164"></trkpt>
      <trkpt lat="49.473805" lon="22.32503"></trkpt>
      <trkpt lat="49.473663" lon="22.325304"></trkpt>
      <trkpt lat="49.473381" lon="22.325508"></trkpt>
      <trkpt lat="49.472415" lon="22.325791"></trkpt>
      <trkpt lat="49.471012" lon="22.325622"></trkpt>
      <trkpt lat="49.470692" lon="22.325699"></trkpt>
      <trkpt lat="49.470309" lon="22.326121"></trkpt>
      <trkpt lat="49.469707" lon="22.327234"></trkpt>
      <trkpt lat="49.469706" lon="22.327497"></trkpt>
      <trkpt lat="49.470121" lon="22.328357"></trkpt>
      <trkpt lat="49.470097" lon="22.328595"></trkpt>
      <trkpt lat="49.468761" lon="22.331003"></trkpt>
      <trkpt lat="49.467207" lon="22.332093"></trkpt>
      <trkpt lat="49.466935" lon="22.33239"></trkpt>
      <trkpt lat="49.466097" lon="22.335067"></trkpt>
      <trkpt lat="49.464292" lon="22.338241"></trkpt>
      <trkpt lat="49.463964" lon="22.340007"></trkpt>
      <trkpt lat="49.464084" lon="22.340785"></trkpt>
      <trkpt lat="49.464318" lon="22.341213"></trkpt>
      <trkpt lat="49.465498" lon="22.342413"></trkpt>
      <trkpt lat="49.465907" lon="22.343126"></trkpt>
      <trkpt lat="49.467268" lon="22.347287"></trkpt>
      <trkpt lat="49.469098" lon="22.350588"></trkpt>
      <trkpt lat="49.469564" lon="22.351702"></trkpt>
      <trkpt lat="49.469672" lon="22.352439"></trkpt>
      <trkpt lat="49.46961" lon="22.353112"></trkpt>
      <trkpt lat="49.469066" lon="22.354746"></trkpt>
      <trkpt lat="49.469007" lon="22.356627"></trkpt>
      <trkpt lat="49.468612" lon="22.358477"></trkpt>
      <trkpt lat="49.468429" lon="22.361504"></trkpt>
      <trkpt lat="49.468288" lon="22.362349"></trkpt>
      <trkpt lat="49.467979" lon="22.362971"></trkpt>
      <trkpt lat="49.465803" lon="22.365853"></trkpt>
      <trkpt lat="49.465588" lon="22.366687"></trkpt>
      <trkpt lat="49.466462" lon="22.375579"></trkpt>
      <trkpt lat="49.467414" lon="22.377962"></trkpt>
      <trkpt lat="49.468335" lon="22.379343"></trkpt>
      <trkpt lat="49.468487" lon="22.38039"></trkpt>
      <trkpt lat="49.467542" lon="22.383845"></trkpt>
      <trkpt lat="49.466192" lon="22.387369"></trkpt>
      <trkpt lat="49.466066" lon="22.38815"></trkpt>
      <trkpt lat="49.466042" lon="22.389819"></trkpt>
      <trkpt lat="49.465745" lon="22.392126"></trkpt>
      <trkpt lat="49.4644" lon="22.396258"></trkpt>
      <trkpt lat="49.464306" lon="22.397174"></trkpt>
      <trkpt lat="49.463772" lon="22.397077"></trkpt>
      <trkpt lat="49.462988" lon="22.398012"></trkpt>
      <trkpt lat="49.462588" lon="22.397698"></trkpt>
      <trkpt lat="49.462181" lon="22.396883"></trkpt>
      <trkpt lat="49.461972" lon="22.396724"></trkpt>
      <trkpt lat="49.46104" lon="22.396575"></trkpt>
      <trkpt lat="49.460494" lon="22.39635"></trkpt>
      <trkpt lat="49.459126" lon="22.396291"></trkpt>
      <trkpt lat="49.458677" lon="22.396139"></trkpt>
      <trkpt lat="49.458383" lon="22.395763"></trkpt>
      <trkpt lat="49.457503" lon="22.392997"></trkpt>
      <trkpt lat="49.457235" lon="22.3925"></trkpt>
      <trkpt lat="49.453174" lon="22.390312"></trkpt>
      <trkpt lat="49.451757" lon="22.390091"></trkpt>
      <trkpt lat="49.451735" lon="22.389545"></trkpt>
      <trkpt lat="49.448524" lon="22.384549"></trkpt>
      <trkpt lat="49.44714" lon="22.382034"></trkpt>
      <trkpt lat="49.446373" lon="22.383464"></trkpt>
      <trkpt lat="49.448085" lon="22.386456"></trkpt>
  </trkseg></trk>
</gpx>
