<?xml version="1.0" encoding="UTF-8"?>
<gpx version="1.1" creator="yatutbuv" xmlns="http://www.topografix.com/GPX/1/1">
  <trk><name>GraphHopper Track</name><trkseg>
      <trkpt lat="35.334335" lon="25.324704"></trkpt>
      <trkpt lat="35.334197" lon="25.324479"></trkpt>
      <trkpt lat="35.333794" lon="25.324212"></trkpt>
      <trkpt lat="35.333223" lon="25.32422"></trkpt>
      <trkpt lat="35.33239" lon="25.324494"></trkpt>
      <trkpt lat="35.331335" lon="25.32465"></trkpt>
      <trkpt lat="35.329667" lon="25.323787"></trkpt>
      <trkpt lat="35.327772" lon="25.323117"></trkpt>
      <trkpt lat="35.328738" lon="25.316411"></trkpt>
      <trkpt lat="35.329117" lon="25.310857"></trkpt>
      <trkpt lat="35.329054" lon="25.309409"></trkpt>
      <trkpt lat="35.328953" lon="25.308938"></trkpt>
      <trkpt lat="35.328135" lon="25.306973"></trkpt>
      <trkpt lat="35.327156" lon="25.305735"></trkpt>
      <trkpt lat="35.32674" lon="25.304047"></trkpt>
      <trkpt lat="35.326781" lon="25.303281"></trkpt>
      <trkpt lat="35.327254" lon="25.302252"></trkpt>
      <trkpt lat="35.327397" lon="25.301648"></trkpt>
      <trkpt lat="35.327361" lon="25.298796"></trkpt>
      <trkpt lat="35.327185" lon="25.297198"></trkpt>
      <trkpt lat="35.326766" lon="25.29603"></trkpt>
      <trkpt lat="35.325002" lon="25.292694"></trkpt>
      <trkpt lat="35.32449" lon="25.2915"></trkpt>
      <trkpt lat="35.324135" lon="25.290003"></trkpt>
      <trkpt lat="35.324004" lon="25.288505"></trkpt>
      <trkpt lat="35.324111" lon="25.281077"></trkpt>
      <trkpt lat="35.324385" lon="25.279018"></trkpt>
      <trkpt lat="35.32482" lon="25.277592"></trkpt>
      <trkpt lat="35.325262" lon="25.27659"></trkpt>
      <trkpt lat="35.327267" lon="25.27333"></trkpt>
      <trkpt lat="35.327967" lon="25.271787"></trkpt>
      <trkpt lat="35.3284" lon="25.270243"></trkpt>
      <trkpt lat="35.329045" lon="25.266444"></trkpt>
      <trkpt lat="35.328933" lon="25.26497"></trkpt>
      <trkpt lat="35.328463" lon="25.263709"></trkpt>
      <trkpt lat="35.327964" lon="25.262965"></trkpt>
      <trkpt lat="35.326508" lon="25.261412"></trkpt>
      <trkpt lat="35.325856" lon="25.260277"></trkpt>
      <trkpt lat="35.325541" lon="25.259032"></trkpt>
      <trkpt lat="35.325556" lon="25.257693"></trkpt>
      <trkpt lat="35.327008" lon="25.252284"></trkpt>
      <trkpt lat="35.330114" lon="25.245303"></trkpt>
      <trkpt lat="35.330377" lon="25.244344"></trkpt>
      <trkpt lat="35.330474" lon="25.243259"></trkpt>
      <trkpt lat="35.330359" lon="25.242177"></trkpt>
      <trkpt lat="35.328973" lon="25.238451"></trkpt>
      <trkpt lat="35.328832" lon="25.237562"></trkpt>
      <trkpt lat="35.328845" lon="25.236708"></trkpt>
      <trkpt lat="35.328967" lon="25.235942"></trkpt>
      <trkpt lat="35.329325" lon="25.234937"></trkpt>
      <trkpt lat="35.331262" lon="25.231612"></trkpt>
      <trkpt lat="35.331638" lon="25.230691"></trkpt>
      <trkpt lat="35.331698" lon="25.229639"></trkpt>
      <trkpt lat="35.331093" lon="25.227355"></trkpt>
      <trkpt lat="35.331208" lon="25.2264"></trkpt>
      <trkpt lat="35.331678" lon="25.225633"></trkpt>
      <trkpt lat="35.333096" lon="25.224517"></trkpt>
      <trkpt lat="35.333583" lon="25.223572"></trkpt>
      <trkpt lat="35.333681" lon="25.222976"></trkpt>
      <trkpt lat="35.33364" lon="25.222354"></trkpt>
      <trkpt lat="35.332788" lon="25.21968"></trkpt>
      <trkpt lat="35.332728" lon="25.219165"></trkpt>
      <trkpt lat="35.332809" lon="25.218361"></trkpt>
      <trkpt lat="35.333381" lon="25.21685"></trkpt>
      <trkpt lat="35.333414" lon="25.215787"></trkpt>
      <trkpt lat="35.333221" lon="25.215139"></trkpt>
      <trkpt lat="35.322373" lon="25.193615"></trkpt>
      <trkpt lat="35.321746" lon="25.192138"></trkpt>
      <trkpt lat="35.321374" lon="25.190864"></trkpt>
      <trkpt lat="35.321135" lon="25.188604"></trkpt>
      <trkpt lat="35.321295" lon="25.186822"></trkpt>
      <trkpt lat="35.321568" lon="25.185667"></trkpt>
      <trkpt lat="35.321854" lon="25.184834"></trkpt>
      <trkpt lat="35.32251" lon="25.183505"></trkpt>
      <trkpt lat="35.323764" lon="25.181822"></trkpt>
      <trkpt lat="35.328626" lon="25.176353"></trkpt>
      <trkpt lat="35.329502" lon="25.174886"></trkpt>
      <trkpt lat="35.329945" lon="25.173849"></trkpt>
      <trkpt lat="35.331148" lon="25.170055"></trkpt>
      <trkpt lat="35.332578" lon="25.16496"></trkpt>
      <trkpt lat="35.33288" lon="25.162667"></trkpt>
      <trkpt lat="35.332851" lon="25.160802"></trkpt>
      <trkpt lat="35.332481" lon="25.158693"></trkpt>
      <trkpt lat="35.331988" lon="25.157251"></trkpt>
      <trkpt lat="35.331352" lon="25.155892"></trkpt>
      <trkpt lat="35.330384" lon="25.154458"></trkpt>
      <trkpt lat="35.329259" lon="25.153274"></trkpt>
      <trkpt lat="35.32831" lon="25.152531"></trkpt>
      <trkpt lat="35.323368" lon="25.149566"></trkpt>
      <trkpt lat="35.322465" lon="25.148573"></trkpt>
      <trkpt lat="35.321731" lon="25.147344"></trkpt>
      <trkpt lat="35.32106" lon="25.145147"></trkpt>
      <trkpt lat="35.317511" lon="25.130625"></trkpt>
      <trkpt lat="35.31731" lon="25.129142"></trkpt>
      <trkpt lat="35.31727" lon="25.127606"></trkpt>
      <trkpt lat="35.317375" lon="25.126319"></trkpt>
      <trkpt lat="35.31785" lon="25.12419"></trkpt>
      <trkpt lat="35.318493" lon="25.122532"></trkpt>
      <trkpt lat="35.324303" lon="25.11131"></trkpt>
      <trkpt lat="35.325018" lon="25.108927"></trkpt>
      <trkpt lat="35.325246" lon="25.107497"></trkpt>
      <trkpt lat="35.325311" lon="25.106114"></trkpt>
      <trkpt lat="35.325219" lon="25.104666"></trkpt>
      <trkpt lat="35.324949" lon="25.103083"></trkpt>
      <trkpt lat="35.322797" lon="25.096105"></trkpt>
      <trkpt lat="35.321325" lon="25.091577"></trkpt>
      <trkpt lat="35.318549" lon="25.084384"></trkpt>
      <trkpt lat="35.317806" lon="25.082042"></trkpt>
      <trkpt lat="35.317533" lon="25.080779"></trkpt>
      <trkpt lat="35.31726" lon="25.078627"></trkpt>
      <trkpt lat="35.31723" lon="25.076306"></trkpt>
      <trkpt lat="35.317405" lon="25.074418"></trkpt>
      <trkpt lat="35.317723" lon="25.072724"></trkpt>
      <trkpt lat="35.318456" lon="25.070318"></trkpt>
      <trkpt lat="35.322488" lon="25.061589"></trkpt>
      <trkpt lat="35.324004" lon="25.058695"></trkpt>
      <trkpt lat="35.324969" lon="25.057294"></trkpt>
      <trkpt lat="35.326123" lon="25.055963"></trkpt>
      <trkpt lat="35.328" lon="25.054348"></trkpt>
      <trkpt lat="35.329845" lon="25.053245"></trkpt>
      <trkpt lat="35.331686" lon="25.052532"></trkpt>
      <trkpt lat="35.33492" lon="25.051739"></trkpt>
      <trkpt lat="35.336571" lon="25.051198"></trkpt>
      <trkpt lat="35.339574" lon="25.049752"></trkpt>
      <trkpt lat="35.341702" lon="25.048375"></trkpt>
      <trkpt lat="35.342955" lon="25.047303"></trkpt>
      <trkpt lat="35.34804" lon="25.043404"></trkpt>
      <trkpt lat="35.349004" lon="25.043012"></trkpt>
      <trkpt lat="35.352199" lon="25.042316"></trkpt>
      <trkpt lat="35.354536" lon="25.040415"></trkpt>
      <trkpt lat="35.357824" lon="25.039452"></trkpt>
      <trkpt lat="35.359732" lon="25.03863"></trkpt>
      <trkpt lat="35.360518" lon="25.03849"></trkpt>
      <trkpt lat="35.362802" lon="25.038384"></trkpt>
      <trkpt lat="35.36376" lon="25.0384"></trkpt>
      <trkpt lat="35.365274" lon="25.038609"></trkpt>
      <trkpt lat="35.370034" lon="25.037914"></trkpt>
      <trkpt lat="35.370898" lon="25.037531"></trkpt>
      <trkpt lat="35.372064" lon="25.03632"></trkpt>
      <trkpt lat="35.372392" lon="25.036114"></trkpt>
      <trkpt lat="35.373029" lon="25.036146"></trkpt>
      <trkpt lat="35.374558" lon="25.036487"></trkpt>
      <trkpt lat="35.374997" lon="25.036293"></trkpt>
      <trkpt lat="35.375804" lon="25.035564"></trkpt>
      <trkpt lat="35.376144" lon="25.035498"></trkpt>
      <trkpt lat="35.376853" lon="25.036106"></trkpt>
      <trkpt lat="35.377275" lon="25.036213"></trkpt>
      <trkpt lat="35.378983" lon="25.035188"></trkpt>
      <trkpt lat="35.379665" lon="25.035327"></trkpt>
      <trkpt lat="35.380396" lon="25.035234"></trkpt>
      <trkpt lat="35.382141" lon="25.035813"></trkpt>
      <trkpt lat="35.383235" lon="25.035813"></trkpt>
      <trkpt lat="35.384265" lon="25.036221"></trkpt>
      <trkpt lat="35.385209" lon="25.036774"></trkpt>
      <trkpt lat="35.385997" lon="25.037872"></trkpt>
      <trkpt lat="35.386244" lon="25.038006"></trkpt>
      <trkpt lat="35.386854" lon="25.037703"></trkpt>
      <trkpt lat="35.387814" lon="25.036858"></trkpt>
      <trkpt lat="35.388426" lon="25.036577"></trkpt>
      <trkpt lat="35.389216" lon="25.035901"></trkpt>
      <trkpt lat="35.390501" lon="25.035058"></trkpt>
      <trkpt lat="35.390956" lon="25.034358"></trkpt>
      <trkpt lat="35.391166" lon="25.03365"></trkpt>
      <trkpt lat="35.391118" lon="25.032851"></trkpt>
      <trkpt lat="35.390609" lon="25.030792"></trkpt>
      <trkpt lat="35.390775" lon="25.029839"></trkpt>
      <trkpt lat="35.391571" lon="25.027241"></trkpt>
      <trkpt lat="35.391658" lon="25.024386"></trkpt>
      <trkpt lat="35.391754" lon="25.023919"></trkpt>
      <trkpt lat="35.391966" lon="25.023616"></trkpt>
      <trkpt lat="35.392312" lon="25.023453"></trkpt>
      <trkpt lat="35.393475" lon="25.023691"></trkpt>
      <trkpt lat="35.393864" lon="25.023662"></trkpt>
      <trkpt lat="35.394269" lon="25.023442"></trkpt>
      <trkpt lat="35.394621" lon="25.023023"></trkpt>
      <trkpt lat="35.395728" lon="25.019331"></trkpt>
      <trkpt lat="35.397012" lon="25.017219"></trkpt>
      <trkpt lat="35.397995" lon="25.014333"></trkpt>
      <trkpt lat="35.398595" lon="25.012934"></trkpt>
      <trkpt lat="35.39987" lon="25.010931"></trkpt>
      <trkpt lat="35.399964" lon="25.010216"></trkpt>
      <trkpt lat="35.399637" lon="25.008795"></trkpt>
      <trkpt lat="35.399672" lon="25.008323"></trkpt>
      <trkpt lat="35.400743" lon="25.006247"></trkpt>
      <trkpt lat="35.401002" lon="25.004975"></trkpt>
      <trkpt lat="35.400874" lon="24.998999"></trkpt>
      <trkpt lat="35.401014" lon="24.997891"></trkpt>
      <trkpt lat="35.401497" lon="24.99699"></trkpt>
      <trkpt lat="35.406141" lon="24.991581"></trkpt>
      <trkpt lat="35.406611" lon="24.990475"></trkpt>
      <trkpt lat="35.406775" lon="24.987413"></trkpt>
      <trkpt lat="35.40665" lon="24.986574"></trkpt>
      <trkpt lat="35.406457" lon="24.986089"></trkpt>
      <trkpt lat="35.40503" lon="24.984368"></trkpt>
      <trkpt lat="35.404091" lon="24.982818"></trkpt>
      <trkpt lat="35.403483" lon="24.98207"></trkpt>
      <trkpt lat="35.402911" lon="24.981703"></trkpt>
      <trkpt lat="35.401355" lon="24.981554"></trkpt>
      <trkpt lat="35.400885" lon="24.981414"></trkpt>
      <trkpt lat="35.400408" lon="24.981037"></trkpt>
      <trkpt lat="35.399716" lon="24.980064"></trkpt>
      <trkpt lat="35.399448" lon="24.97926"></trkpt>
      <trkpt lat="35.398483" lon="24.973652"></trkpt>
      <trkpt lat="35.398569" lon="24.972691"></trkpt>
      <trkpt lat="35.39879" lon="24.972124"></trkpt>
      <trkpt lat="35.402916" lon="24.966962"></trkpt>
      <trkpt lat="35.403486" lon="24.965732"></trkpt>
      <trkpt lat="35.403607" lon="24.964736"></trkpt>
      <trkpt lat="35.403264" lon="24.960044"></trkpt>
      <trkpt lat="35.402781" lon="24.958193"></trkpt>
      <trkpt lat="35.402234" lon="24.957077"></trkpt>
      <trkpt lat="35.399227" lon="24.952506"></trkpt>
      <trkpt lat="35.398655" lon="24.951447"></trkpt>
      <trkpt lat="35.398041" lon="24.949885"></trkpt>
      <trkpt lat="35.397686" lon="24.949331"></trkpt>
      <trkpt lat="35.397172" lon="24.948926"></trkpt>
      <trkpt lat="35.396551" lon="24.948745"></trkpt>
      <trkpt lat="35.394354" lon="24.949226"></trkpt>
      <trkpt lat="35.393644" lon="24.94914"></trkpt>
      <trkpt lat="35.392993" lon="24.94851"></trkpt>
      <trkpt lat="35.392267" lon="24.946621"></trkpt>
      <trkpt lat="35.391961" lon="24.94639"></trkpt>
      <trkpt lat="35.390562" lon="24.945928"></trkpt>
      <trkpt lat="35.390135" lon="24.94558"></trkpt>
      <trkpt lat="35.388087" lon="24.938062"></trkpt>
      <trkpt lat="35.387992" lon="24.937282"></trkpt>
      <trkpt lat="35.3882" lon="24.936315"></trkpt>
      <trkpt lat="35.389716" lon="24.933837"></trkpt>
      <trkpt lat="35.390012" lon="24.933122"></trkpt>
      <trkpt lat="35.390085" lon="24.932574"></trkpt>
      <trkpt lat="35.389993" lon="24.930528"></trkpt>
      <trkpt lat="35.39025" lon="24.929565"></trkpt>
      <trkpt lat="35.390564" lon="24.92913"></trkpt>
      <trkpt lat="35.392535" lon="24.927401"></trkpt>
      <trkpt lat="35.393062" lon="24.926781"></trkpt>
      <trkpt lat="35.394172" lon="24.923916"></trkpt>
      <trkpt lat="35.394216" lon="24.923069"></trkpt>
      <trkpt lat="35.394013" lon="24.922659"></trkpt>
      <trkpt lat="35.391707" lon="24.920763"></trkpt>
      <trkpt lat="35.39099" lon="24.920591"></trkpt>
      <trkpt lat="35.38926" lon="24.92081"></trkpt>
      <trkpt lat="35.38864" lon="24.92074"></trkpt>
      <trkpt lat="35.387942" lon="24.920313"></trkpt>
      <trkpt lat="35.387054" lon="24.91955"></trkpt>
      <trkpt lat="35.386297" lon="24.91917"></trkpt>
      <trkpt lat="35.38271" lon="24.918505"></trkpt>
      <trkpt lat="35.382432" lon="24.918313"></trkpt>
      <trkpt lat="35.382143" lon="24.917897"></trkpt>
      <trkpt lat="35.382031" lon="24.917232"></trkpt>
      <trkpt lat="35.382115" lon="24.916805"></trkpt>
      <trkpt lat="35.382369" lon="24.916356"></trkpt>
      <trkpt lat="35.382664" lon="24.91611"></trkpt>
      <trkpt lat="35.383098" lon="24.915986"></trkpt>
      <trkpt lat="35.383537" lon="24.916085"></trkpt>
      <trkpt lat="35.385454" lon="24.917227"></trkpt>
      <trkpt lat="35.386143" lon="24.917145"></trkpt>
      <trkpt lat="35.386608" lon="24.916756"></trkpt>
      <trkpt lat="35.388807" lon="24.91285"></trkpt>
      <trkpt lat="35.389017" lon="24.91228"></trkpt>
      <trkpt lat="35.389017" lon="24.911556"></trkpt>
      <trkpt lat="35.388497" lon="24.909689"></trkpt>
      <trkpt lat="35.388499" lon="24.907541"></trkpt>
      <trkpt lat="35.38865" lon="24.906885"></trkpt>
      <trkpt lat="35.389054" lon="24.906343"></trkpt>
      <trkpt lat="35.389884" lon="24.905669"></trkpt>
      <trkpt lat="35.390272" lon="24.905105"></trkpt>
      <trkpt lat="35.390482" lon="24.90312"></trkpt>
      <trkpt lat="35.391191" lon="24.901789"></trkpt>
      <trkpt lat="35.391825" lon="24.901396"></trkpt>
      <trkpt lat="35.392933" lon="24.901459"></trkpt>
      <trkpt lat="35.393332" lon="24.901352"></trkpt>
      <trkpt lat="35.393695" lon="24.901021"></trkpt>
      <trkpt lat="35.39389" lon="24.900623"></trkpt>
      <trkpt lat="35.393936" lon="24.89972"></trkpt>
      <trkpt lat="35.392999" lon="24.897445"></trkpt>
      <trkpt lat="35.393265" lon="24.896323"></trkpt>
      <trkpt lat="35.393247" lon="24.895789"></trkpt>
      <trkpt lat="35.392628" lon="24.894226"></trkpt>
      <trkpt lat="35.392732" lon="24.8936"></trkpt>
      <trkpt lat="35.393438" lon="24.892283"></trkpt>
      <trkpt lat="35.393576" lon="24.89161"></trkpt>
      <trkpt lat="35.393388" lon="24.888852"></trkpt>
      <trkpt lat="35.392816" lon="24.888955"></trkpt>
      <trkpt lat="35.39266" lon="24.888868"></trkpt>
      <trkpt lat="35.393405" lon="24.887748"></trkpt>
      <trkpt lat="35.393541" lon="24.887284"></trkpt>
      <trkpt lat="35.393552" lon="24.886584"></trkpt>
      <trkpt lat="35.393849" lon="24.886461"></trkpt>
      <trkpt lat="35.394277" lon="24.885935"></trkpt>
      <trkpt lat="35.394479" lon="24.885312"></trkpt>
      <trkpt lat="35.394673" lon="24.883667"></trkpt>
      <trkpt lat="35.394539" lon="24.88266"></trkpt>
      <trkpt lat="35.394229" lon="24.882234"></trkpt>
      <trkpt lat="35.39364" lon="24.881811"></trkpt>
      <trkpt lat="35.393528" lon="24.880932"></trkpt>
      <trkpt lat="35.393684" lon="24.880789"></trkpt>
      <trkpt lat="35.39455" lon="24.881008"></trkpt>
      <trkpt lat="35.394957" lon="24.881426"></trkpt>
      <trkpt lat="35.395912" lon="24.881639"></trkpt>
      <trkpt lat="35.395958" lon="24.881426"></trkpt>
      <trkpt lat="35.395147" lon="24.881004"></trkpt>
      <trkpt lat="35.395076" lon="24.880561"></trkpt>
      <trkpt lat="35.394886" lon="24.880241"></trkpt>
      <trkpt lat="35.395124" lon="24.880299"></trkpt>
      <trkpt lat="35.395407" lon="24.880754"></trkpt>
      <trkpt lat="35.395761" lon="24.880778"></trkpt>
      <trkpt lat="35.396061" lon="24.880603"></trkpt>
      <trkpt lat="35.396437" lon="24.880018"></trkpt>
      <trkpt lat="35.396812" lon="24.879894"></trkpt>
      <trkpt lat="35.397206" lon="24.880033"></trkpt>
      <trkpt lat="35.397643" lon="24.880413"></trkpt>
      <trkpt lat="35.397789" lon="24.880645"></trkpt>
      <trkpt lat="35.397822" lon="24.880996"></trkpt>
      <trkpt lat="35.397933" lon="24.880998"></trkpt>
      <trkpt lat="35.397898" lon="24.880387"></trkpt>
      <trkpt lat="35.39759" lon="24.879715"></trkpt>
      <trkpt lat="35.397156" lon="24.879317"></trkpt>
      <trkpt lat="35.397163" lon="24.879093"></trkpt>
      <trkpt lat="35.397351" lon="24.878926"></trkpt>
      <trkpt lat="35.39865" lon="24.878896"></trkpt>
      <trkpt lat="35.399038" lon="24.878417"></trkpt>
      <trkpt lat="35.39912" lon="24.878022"></trkpt>
      <trkpt lat="35.399062" lon="24.877393"></trkpt>
      <trkpt lat="35.400019" lon="24.873138"></trkpt>
      <trkpt lat="35.400637" lon="24.869597"></trkpt>
      <trkpt lat="35.401069" lon="24.868681"></trkpt>
      <trkpt lat="35.402529" lon="24.867001"></trkpt>
      <trkpt lat="35.402885" lon="24.866259"></trkpt>
      <trkpt lat="35.403052" lon="24.865595"></trkpt>
      <trkpt lat="35.40301" lon="24.864105"></trkpt>
      <trkpt lat="35.401555" lon="24.860501"></trkpt>
      <trkpt lat="35.401452" lon="24.859776"></trkpt>
      <trkpt lat="35.401525" lon="24.859137"></trkpt>
      <trkpt lat="35.401732" lon="24.858575"></trkpt>
      <trkpt lat="35.40217" lon="24.858015"></trkpt>
      <trkpt lat="35.402651" lon="24.857701"></trkpt>
      <trkpt lat="35.403814" lon="24.857225"></trkpt>
      <trkpt lat="35.404404" lon="24.856747"></trkpt>
      <trkpt lat="35.40476" lon="24.8561"></trkpt>
      <trkpt lat="35.404919" lon="24.855414"></trkpt>
      <trkpt lat="35.405044" lon="24.852343"></trkpt>
      <trkpt lat="35.405412" lon="24.849691"></trkpt>
      <trkpt lat="35.404743" lon="24.845238"></trkpt>
      <trkpt lat="35.404689" lon="24.844166"></trkpt>
      <trkpt lat="35.405453" lon="24.834916"></trkpt>
      <trkpt lat="35.405975" lon="24.832556"></trkpt>
      <trkpt lat="35.408469" lon="24.825522"></trkpt>
      <trkpt lat="35.408751" lon="24.823827"></trkpt>
      <trkpt lat="35.408678" lon="24.822683"></trkpt>
      <trkpt lat="35.408398" lon="24.821637"></trkpt>
      <trkpt lat="35.405796" lon="24.816772"></trkpt>
      <trkpt lat="35.405576" lon="24.816193"></trkpt>
      <trkpt lat="35.405498" lon="24.815241"></trkpt>
      <trkpt lat="35.405701" lon="24.81443"></trkpt>
      <trkpt lat="35.406024" lon="24.813936"></trkpt>
      <trkpt lat="35.407691" lon="24.812382"></trkpt>
      <trkpt lat="35.408223" lon="24.811741"></trkpt>
      <trkpt lat="35.409211" lon="24.809501"></trkpt>
      <trkpt lat="35.409347" lon="24.808032"></trkpt>
      <trkpt lat="35.408951" lon="24.805462"></trkpt>
      <trkpt lat="35.409083" lon="24.802017"></trkpt>
      <trkpt lat="35.4089" lon="24.800687"></trkpt>
      <trkpt lat="35.406829" lon="24.79306"></trkpt>
      <trkpt lat="35.406423" lon="24.790547"></trkpt>
      <trkpt lat="35.406187" lon="24.789853"></trkpt>
      <trkpt lat="35.405846" lon="24.789281"></trkpt>
      <trkpt lat="35.405261" lon="24.788673"></trkpt>
      <trkpt lat="35.401886" lon="24.786461"></trkpt>
      <trkpt lat="35.40134" lon="24.785532"></trkpt>
      <trkpt lat="35.401235" lon="24.784544"></trkpt>
      <trkpt lat="35.401441" lon="24.783713"></trkpt>
      <trkpt lat="35.40179" lon="24.783166"></trkpt>
      <trkpt lat="35.404468" lon="24.780453"></trkpt>
      <trkpt lat="35.404817" lon="24.779939"></trkpt>
      <trkpt lat="35.404994" lon="24.779363"></trkpt>
      <trkpt lat="35.405126" lon="24.777318"></trkpt>
      <trkpt lat="35.405391" lon="24.7767"></trkpt>
      <trkpt lat="35.405828" lon="24.776267"></trkpt>
      <trkpt lat="35.407749" lon="24.77525"></trkpt>
      <trkpt lat="35.40858" lon="24.774269"></trkpt>
      <trkpt lat="35.408855" lon="24.773683"></trkpt>
      <trkpt lat="35.409897" lon="24.770283"></trkpt>
      <trkpt lat="35.409839" lon="24.769302"></trkpt>
      <trkpt lat="35.409584" lon="24.768661"></trkpt>
      <trkpt lat="35.409071" lon="24.768069"></trkpt>
      <trkpt lat="35.408054" lon="24.767219"></trkpt>
      <trkpt lat="35.407762" lon="24.76682"></trkpt>
      <trkpt lat="35.407514" lon="24.766203"></trkpt>
      <trkpt lat="35.40741" lon="24.765294"></trkpt>
      <trkpt lat="35.407372" lon="24.761867"></trkpt>
      <trkpt lat="35.406665" lon="24.758727"></trkpt>
      <trkpt lat="35.406697" lon="24.757737"></trkpt>
      <trkpt lat="35.407069" lon="24.756589"></trkpt>
      <trkpt lat="35.407451" lon="24.756025"></trkpt>
      <trkpt lat="35.408893" lon="24.754686"></trkpt>
      <trkpt lat="35.409389" lon="24.75377"></trkpt>
      <trkpt lat="35.409579" lon="24.752759"></trkpt>
      <trkpt lat="35.409733" lon="24.748993"></trkpt>
      <trkpt lat="35.409716" lon="24.74815"></trkpt>
      <trkpt lat="35.409458" lon="24.746797"></trkpt>
      <trkpt lat="35.408261" lon="24.744109"></trkpt>
      <trkpt lat="35.407924" lon="24.742838"></trkpt>
      <trkpt lat="35.407419" lon="24.738722"></trkpt>
      <trkpt lat="35.40746" lon="24.737992"></trkpt>
      <trkpt lat="35.407898" lon="24.735931"></trkpt>
      <trkpt lat="35.407887" lon="24.735451"></trkpt>
      <trkpt lat="35.407767" lon="24.734888"></trkpt>
      <trkpt lat="35.406893" lon="24.732773"></trkpt>
      <trkpt lat="35.406733" lon="24.731926"></trkpt>
      <trkpt lat="35.406714" lon="24.730968"></trkpt>
      <trkpt lat="35.408009" lon="24.725455"></trkpt>
      <trkpt lat="35.408557" lon="24.724183"></trkpt>
      <trkpt lat="35.408983" lon="24.723612"></trkpt>
      <trkpt lat="35.409597" lon="24.723065"></trkpt>
      <trkpt lat="35.411794" lon="24.72209"></trkpt>
      <trkpt lat="35.412443" lon="24.72167"></trkpt>
      <trkpt lat="35.413299" lon="24.720595"></trkpt>
      <trkpt lat="35.413736" lon="24.719228"></trkpt>
      <trkpt lat="35.41488" lon="24.699231"></trkpt>
      <trkpt lat="35.41586" lon="24.68715"></trkpt>
      <trkpt lat="35.416087" lon="24.681647"></trkpt>
      <trkpt lat="35.416502" lon="24.680013"></trkpt>
      <trkpt lat="35.417713" lon="24.677672"></trkpt>
      <trkpt lat="35.418014" lon="24.676329"></trkpt>
      <trkpt lat="35.417819" lon="24.672273"></trkpt>
      <trkpt lat="35.41832" lon="24.661272"></trkpt>
      <trkpt lat="35.418141" lon="24.658679"></trkpt>
      <trkpt lat="35.417413" lon="24.653504"></trkpt>
      <trkpt lat="35.417062" lon="24.651984"></trkpt>
      <trkpt lat="35.416464" lon="24.650545"></trkpt>
      <trkpt lat="35.415275" lon="24.648786"></trkpt>
      <trkpt lat="35.41044" lon="24.64336"></trkpt>
      <trkpt lat="35.409004" lon="24.64143"></trkpt>
      <trkpt lat="35.405893" lon="24.636532"></trkpt>
      <trkpt lat="35.401682" lon="24.629422"></trkpt>
      <trkpt lat="35.400726" lon="24.627394"></trkpt>
      <trkpt lat="35.399997" lon="24.625232"></trkpt>
      <trkpt lat="35.39961" lon="24.623508"></trkpt>
      <trkpt lat="35.39922" lon="24.620235"></trkpt>
      <trkpt lat="35.399003" lon="24.61954"></trkpt>
      <trkpt lat="35.398651" lon="24.618929"></trkpt>
      <trkpt lat="35.398099" lon="24.618343"></trkpt>
      <trkpt lat="35.397548" lon="24.61799"></trkpt>
      <trkpt lat="35.396715" lon="24.6178"></trkpt>
      <trkpt lat="35.395051" lon="24.617749"></trkpt>
      <trkpt lat="35.394117" lon="24.617363"></trkpt>
      <trkpt lat="35.393693" lon="24.616997"></trkpt>
      <trkpt lat="35.393288" lon="24.616474"></trkpt>
      <trkpt lat="35.392961" lon="24.615783"></trkpt>
      <trkpt lat="35.39245" lon="24.613681"></trkpt>
      <trkpt lat="35.392045" lon="24.612719"></trkpt>
      <trkpt lat="35.390013" lon="24.610184"></trkpt>
      <trkpt lat="35.38897" lon="24.608399"></trkpt>
      <trkpt lat="35.388256" lon="24.606421"></trkpt>
      <trkpt lat="35.382827" lon="24.587359"></trkpt>
      <trkpt lat="35.379704" lon="24.579752"></trkpt>
      <trkpt lat="35.378979" lon="24.577579"></trkpt>
      <trkpt lat="35.378567" lon="24.575697"></trkpt>
      <trkpt lat="35.377795" lon="24.570711"></trkpt>
      <trkpt lat="35.377091" lon="24.567904"></trkpt>
      <trkpt lat="35.376495" lon="24.566192"></trkpt>
      <trkpt lat="35.374264" lon="24.561158"></trkpt>
      <trkpt lat="35.373591" lon="24.559101"></trkpt>
      <trkpt lat="35.37317" lon="24.557385"></trkpt>
      <trkpt lat="35.372751" lon="24.554597"></trkpt>
      <trkpt lat="35.372338" lon="24.547027"></trkpt>
      <trkpt lat="35.371978" lon="24.544471"></trkpt>
      <trkpt lat="35.371617" lon="24.542833"></trkpt>
      <trkpt lat="35.370982" lon="24.540762"></trkpt>
      <trkpt lat="35.36793" lon="24.533025"></trkpt>
      <trkpt lat="35.367357" lon="24.531236"></trkpt>
      <trkpt lat="35.366976" lon="24.529243"></trkpt>
      <trkpt lat="35.365545" lon="24.516919"></trkpt>
      <trkpt lat="35.365489" lon="24.515638"></trkpt>
      <trkpt lat="35.365628" lon="24.515432"></trkpt>
      <trkpt lat="35.366132" lon="24.515407"></trkpt>
      <trkpt lat="35.366028" lon="24.513574"></trkpt>
      <trkpt lat="35.366012" lon="24.507265"></trkpt>
      <trkpt lat="35.366852" lon="24.505012"></trkpt>
      <trkpt lat="35.366931" lon="24.504326"></trkpt>
      <trkpt lat="35.366743" lon="24.502579"></trkpt>
      <trkpt lat="35.366441" lon="24.502036"></trkpt>
      <trkpt lat="35.366205" lon="24.501136"></trkpt>
      <trkpt lat="35.365674" lon="24.49824"></trkpt>
      <trkpt lat="35.365663" lon="24.497348"></trkpt>
      <trkpt lat="35.365839" lon="24.496479"></trkpt>
      <trkpt lat="35.365724" lon="24.495423"></trkpt>
      <trkpt lat="35.366075" lon="24.493759"></trkpt>
      <trkpt lat="35.365981" lon="24.492179"></trkpt>
      <trkpt lat="35.365895" lon="24.491999"></trkpt>
      <trkpt lat="35.365503" lon="24.491966"></trkpt>
      <trkpt lat="35.365158" lon="24.49139"></trkpt>
      <trkpt lat="35.36438" lon="24.487312"></trkpt>
      <trkpt lat="35.364372" lon="24.485261"></trkpt>
      <trkpt lat="35.365357" lon="24.482895"></trkpt>
      <trkpt lat="35.365447" lon="24.481906"></trkpt>
      <trkpt lat="35.365275" lon="24.480605"></trkpt>
      <trkpt lat="35.366489" lon="24.475936"></trkpt>
      <trkpt lat="35.367264" lon="24.472301"></trkpt>
      <trkpt lat="35.367656" lon="24.472306"></trkpt>
      <trkpt lat="35.367452" lon="24.473073"></trkpt>
      <trkpt lat="35.36956" lon="24.47274"></trkpt>
      <trkpt lat="35.367547" lon="24.473086"></trkpt>
      <trkpt lat="35.36716" lon="24.472974"></trkpt>
      <trkpt lat="35.367264" lon="24.472301"></trkpt>
      <trkpt lat="35.36617" lon="24.468564"></trkpt>
      <trkpt lat="35.365774" lon="24.466144"></trkpt>
      <trkpt lat="35.364848" lon="24.463677"></trkpt>
      <trkpt lat="35.364618" lon="24.462028"></trkpt>
      <trkpt lat="35.364091" lon="24.459905"></trkpt>
      <trkpt lat="35.363794" lon="24.458046"></trkpt>
      <trkpt lat="35.363775" lon="24.456587"></trkpt>
      <trkpt lat="35.364465" lon="24.451961"></trkpt>
      <trkpt lat="35.364464" lon="24.450667"></trkpt>
      <trkpt lat="35.364255" lon="24.45012"></trkpt>
      <trkpt lat="35.363822" lon="24.449527"></trkpt>
      <trkpt lat="35.362459" lon="24.448519"></trkpt>
      <trkpt lat="35.362064" lon="24.448073"></trkpt>
      <trkpt lat="35.361806" lon="24.447478"></trkpt>
      <trkpt lat="35.361672" lon="24.446667"></trkpt>
      <trkpt lat="35.361766" lon="24.445979"></trkpt>
      <trkpt lat="35.362509" lon="24.444587"></trkpt>
      <trkpt lat="35.362351" lon="24.444395"></trkpt>
      <trkpt lat="35.363853" lon="24.441749"></trkpt>
      <trkpt lat="35.364914" lon="24.439546"></trkpt>
      <trkpt lat="35.366129" lon="24.435057"></trkpt>
      <trkpt lat="35.366346" lon="24.432879"></trkpt>
      <trkpt lat="35.365858" lon="24.426444"></trkpt>
      <trkpt lat="35.365571" lon="24.42483"></trkpt>
      <trkpt lat="35.364992" lon="24.423392"></trkpt>
      <trkpt lat="35.364282" lon="24.422307"></trkpt>
      <trkpt lat="35.362712" lon="24.420591"></trkpt>
      <trkpt lat="35.362264" lon="24.419782"></trkpt>
      <trkpt lat="35.362073" lon="24.419084"></trkpt>
      <trkpt lat="35.362012" lon="24.418227"></trkpt>
      <trkpt lat="35.362125" lon="24.415097"></trkpt>
      <trkpt lat="35.361758" lon="24.413796"></trkpt>
      <trkpt lat="35.358993" lon="24.410002"></trkpt>
      <trkpt lat="35.358617" lon="24.409275"></trkpt>
      <trkpt lat="35.358468" lon="24.408615"></trkpt>
      <trkpt lat="35.358446" lon="24.407971"></trkpt>
      <trkpt lat="35.35858" lon="24.407248"></trkpt>
      <trkpt lat="35.359038" lon="24.406367"></trkpt>
      <trkpt lat="35.359711" lon="24.405789"></trkpt>
      <trkpt lat="35.361631" lon="24.405092"></trkpt>
      <trkpt lat="35.362422" lon="24.404309"></trkpt>
      <trkpt lat="35.362827" lon="24.403362"></trkpt>
      <trkpt lat="35.363291" lon="24.401348"></trkpt>
      <trkpt lat="35.363195" lon="24.400136"></trkpt>
      <trkpt lat="35.362283" lon="24.396022"></trkpt>
      <trkpt lat="35.361602" lon="24.394403"></trkpt>
      <trkpt lat="35.359992" lon="24.391737"></trkpt>
      <trkpt lat="35.359547" lon="24.390142"></trkpt>
      <trkpt lat="35.359496" lon="24.388879"></trkpt>
      <trkpt lat="35.359903" lon="24.385934"></trkpt>
      <trkpt lat="35.35996" lon="24.384191"></trkpt>
      <trkpt lat="35.360525" lon="24.382164"></trkpt>
      <trkpt lat="35.360531" lon="24.381556"></trkpt>
      <trkpt lat="35.360171" lon="24.38008"></trkpt>
      <trkpt lat="35.360144" lon="24.37954"></trkpt>
      <trkpt lat="35.360805" lon="24.375886"></trkpt>
      <trkpt lat="35.36078" lon="24.374639"></trkpt>
      <trkpt lat="35.360478" lon="24.373752"></trkpt>
      <trkpt lat="35.359872" lon="24.372884"></trkpt>
      <trkpt lat="35.359366" lon="24.372499"></trkpt>
      <trkpt lat="35.35799" lon="24.371894"></trkpt>
      <trkpt lat="35.357424" lon="24.37142"></trkpt>
      <trkpt lat="35.355495" lon="24.367937"></trkpt>
      <trkpt lat="35.352568" lon="24.363776"></trkpt>
      <trkpt lat="35.35214" lon="24.362811"></trkpt>
      <trkpt lat="35.351807" lon="24.361644"></trkpt>
      <trkpt lat="35.350747" lon="24.356515"></trkpt>
      <trkpt lat="35.350488" lon="24.347728"></trkpt>
      <trkpt lat="35.350095" lon="24.339164"></trkpt>
      <trkpt lat="35.350337" lon="24.333861"></trkpt>
      <trkpt lat="35.351507" lon="24.32368"></trkpt>
      <trkpt lat="35.351573" lon="24.322169"></trkpt>
      <trkpt lat="35.350475" lon="24.312722"></trkpt>
      <trkpt lat="35.35045" lon="24.310876"></trkpt>
      <trkpt lat="35.350637" lon="24.307999"></trkpt>
      <trkpt lat="35.350179" lon="24.308061"></trkpt>
      <trkpt lat="35.35032" lon="24.306035"></trkpt>
      <trkpt lat="35.34998" lon="24.305878"></trkpt>
      <trkpt lat="35.349295" lon="24.305856"></trkpt>
      <trkpt lat="35.348211" lon="24.305596"></trkpt>
      <trkpt lat="35.348302" lon="24.303609"></trkpt>
      <trkpt lat="35.34779" lon="24.297871"></trkpt>
      <trkpt lat="35.347276" lon="24.296229"></trkpt>
      <trkpt lat="35.347234" lon="24.294433"></trkpt>
      <trkpt lat="35.34699" lon="24.29217"></trkpt>
      <trkpt lat="35.34653" lon="24.291991"></trkpt>
      <trkpt lat="35.346113" lon="24.29255"></trkpt>
      <trkpt lat="35.345868" lon="24.29312"></trkpt>
      <trkpt lat="35.344917" lon="24.293679"></trkpt>
      <trkpt lat="35.342997" lon="24.293894"></trkpt>
      <trkpt lat="35.341408" lon="24.294261"></trkpt>
      <trkpt lat="35.341198" lon="24.29374"></trkpt>
      <trkpt lat="35.340465" lon="24.292897"></trkpt>
      <trkpt lat="35.340231" lon="24.292158"></trkpt>
      <trkpt lat="35.339586" lon="24.291429"></trkpt>
      <trkpt lat="35.339066" lon="24.290391"></trkpt>
      <trkpt lat="35.338757" lon="24.289489"></trkpt>
      <trkpt lat="35.338249" lon="24.28864"></trkpt>
      <trkpt lat="35.338094" lon="24.287125"></trkpt>
      <trkpt lat="35.338113" lon="24.286199"></trkpt>
      <trkpt lat="35.338444" lon="24.285605"></trkpt>
      <trkpt lat="35.338603" lon="24.285024"></trkpt>
      <trkpt lat="35.338588" lon="24.284218"></trkpt>
      <trkpt lat="35.338995" lon="24.281173"></trkpt>
      <trkpt lat="35.338944" lon="24.280987"></trkpt>
      <trkpt lat="35.338411" lon="24.280452"></trkpt>
      <trkpt lat="35.338181" lon="24.279855"></trkpt>
      <trkpt lat="35.337667" lon="24.279096"></trkpt>
      <trkpt lat="35.33318" lon="24.28148"></trkpt>
      <trkpt lat="35.332585" lon="24.279864"></trkpt>
      <trkpt lat="35.331033" lon="24.280624"></trkpt>
      <trkpt lat="35.329977" lon="24.280574"></trkpt>
      <trkpt lat="35.329109" lon="24.280085"></trkpt>
  </trkseg></trk>
</gpx>
