<?xml version="1.0" encoding="UTF-8"?>
<gpx version="1.1" creator="yatutbuv" xmlns="http://www.topografix.com/GPX/1/1">
  <trk><name>GraphHopper Track</name><trkseg>
      <trkpt lat="52.211531" lon="20.957096"></trkpt>
      <trkpt lat="52.211662" lon="20.956575"></trkpt>
      <trkpt lat="52.211779" lon="20.956654"></trkpt>
      <trkpt lat="52.211972" lon="20.955694"></trkpt>
      <trkpt lat="52.211886" lon="20.95302"></trkpt>
      <trkpt lat="52.209714" lon="20.94972"></trkpt>
      <trkpt lat="52.209434" lon="20.949801"></trkpt>
      <trkpt lat="52.209366" lon="20.949656"></trkpt>
      <trkpt lat="52.209335" lon="20.949517"></trkpt>
      <trkpt lat="52.209921" lon="20.94946"></trkpt>
      <trkpt lat="52.210175" lon="20.94929"></trkpt>
      <trkpt lat="52.202556" lon="20.938087"></trkpt>
      <trkpt lat="52.197333" lon="20.930182"></trkpt>
      <trkpt lat="52.195269" lon="20.927454"></trkpt>
      <trkpt lat="52.190509" lon="20.919818"></trkpt>
      <trkpt lat="52.189819" lon="20.918878"></trkpt>
      <trkpt lat="52.189246" lon="20.918236"></trkpt>
      <trkpt lat="52.188551" lon="20.917781"></trkpt>
      <trkpt lat="52.180435" lon="20.914908"></trkpt>
      <trkpt lat="52.178992" lon="20.91421"></trkpt>
      <trkpt lat="52.176784" lon="20.913412"></trkpt>
      <trkpt lat="52.176131" lon="20.91286"></trkpt>
      <trkpt lat="52.175686" lon="20.912131"></trkpt>
      <trkpt lat="52.174929" lon="20.909447"></trkpt>
      <trkpt lat="52.174845" lon="20.908059"></trkpt>
      <trkpt lat="52.175027" lon="20.906488"></trkpt>
      <trkpt lat="52.17705" lon="20.896321"></trkpt>
      <trkpt lat="52.178208" lon="20.891377"></trkpt>
      <trkpt lat="52.179917" lon="20.885879"></trkpt>
      <trkpt lat="52.182415" lon="20.879356"></trkpt>
      <trkpt lat="52.189123" lon="20.863469"></trkpt>
      <trkpt lat="52.190429" lon="20.860702"></trkpt>
      <trkpt lat="52.192461" lon="20.857395"></trkpt>
      <trkpt lat="52.197546" lon="20.851397"></trkpt>
      <trkpt lat="52.198333" lon="20.850183"></trkpt>
      <trkpt lat="52.198933" lon="20.848981"></trkpt>
      <trkpt lat="52.199739" lon="20.846507"></trkpt>
      <trkpt lat="52.200238" lon="20.843657"></trkpt>
      <trkpt lat="52.200329" lon="20.841227"></trkpt>
      <trkpt lat="52.200098" lon="20.838596"></trkpt>
      <trkpt lat="52.199553" lon="20.836182"></trkpt>
      <trkpt lat="52.194869" lon="20.821927"></trkpt>
      <trkpt lat="52.193736" lon="20.817596"></trkpt>
      <trkpt lat="52.193085" lon="20.813463"></trkpt>
      <trkpt lat="52.192567" lon="20.805111"></trkpt>
      <trkpt lat="52.191974" lon="20.799458"></trkpt>
      <trkpt lat="52.18968" lon="20.783841"></trkpt>
      <trkpt lat="52.188889" lon="20.780503"></trkpt>
      <trkpt lat="52.187776" lon="20.777794"></trkpt>
      <trkpt lat="52.187005" lon="20.776484"></trkpt>
      <trkpt lat="52.186136" lon="20.775306"></trkpt>
      <trkpt lat="52.184659" lon="20.773926"></trkpt>
      <trkpt lat="52.181354" lon="20.771811"></trkpt>
      <trkpt lat="52.179599" lon="20.770376"></trkpt>
      <trkpt lat="52.178209" lon="20.768766"></trkpt>
      <trkpt lat="52.176679" lon="20.766259"></trkpt>
      <trkpt lat="52.175455" lon="20.763582"></trkpt>
      <trkpt lat="52.172116" lon="20.75528"></trkpt>
      <trkpt lat="52.168477" lon="20.745657"></trkpt>
      <trkpt lat="52.165672" lon="20.736965"></trkpt>
      <trkpt lat="52.163118" lon="20.727427"></trkpt>
      <trkpt lat="52.162018" lon="20.72257"></trkpt>
      <trkpt lat="52.160501" lon="20.714953"></trkpt>
      <trkpt lat="52.155334" lon="20.686394"></trkpt>
      <trkpt lat="52.153984" lon="20.678254"></trkpt>
      <trkpt lat="52.149692" lon="20.648488"></trkpt>
      <trkpt lat="52.147778" lon="20.628896"></trkpt>
      <trkpt lat="52.146541" lon="20.618943"></trkpt>
      <trkpt lat="52.144548" lon="20.606374"></trkpt>
      <trkpt lat="52.142134" lon="20.594158"></trkpt>
      <trkpt lat="52.139441" lon="20.582364"></trkpt>
      <trkpt lat="52.130529" lon="20.545349"></trkpt>
      <trkpt lat="52.129032" lon="20.54013"></trkpt>
      <trkpt lat="52.124931" lon="20.527846"></trkpt>
      <trkpt lat="52.122859" lon="20.521096"></trkpt>
      <trkpt lat="52.120805" lon="20.51362"></trkpt>
      <trkpt lat="52.118817" lon="20.505386"></trkpt>
      <trkpt lat="52.116744" lon="20.495353"></trkpt>
      <trkpt lat="52.111918" lon="20.469384"></trkpt>
      <trkpt lat="52.110329" lon="20.461594"></trkpt>
      <trkpt lat="52.108542" lon="20.453977"></trkpt>
      <trkpt lat="52.103488" lon="20.43421"></trkpt>
      <trkpt lat="52.101709" lon="20.426415"></trkpt>
      <trkpt lat="52.100743" lon="20.421675"></trkpt>
      <trkpt lat="52.098743" lon="20.410238"></trkpt>
      <trkpt lat="52.095332" lon="20.386494"></trkpt>
      <trkpt lat="52.094394" lon="20.381355"></trkpt>
      <trkpt lat="52.093203" lon="20.376169"></trkpt>
      <trkpt lat="52.091521" lon="20.370091"></trkpt>
      <trkpt lat="52.089727" lon="20.364773"></trkpt>
      <trkpt lat="52.087921" lon="20.360171"></trkpt>
      <trkpt lat="52.083062" lon="20.348937"></trkpt>
      <trkpt lat="52.080703" lon="20.342651"></trkpt>
      <trkpt lat="52.079176" lon="20.337894"></trkpt>
      <trkpt lat="52.077637" lon="20.332449"></trkpt>
      <trkpt lat="52.075683" lon="20.323863"></trkpt>
      <trkpt lat="52.07439" lon="20.316302"></trkpt>
      <trkpt lat="52.073537" lon="20.309415"></trkpt>
      <trkpt lat="52.072979" lon="20.302432"></trkpt>
      <trkpt lat="52.072775" lon="20.296608"></trkpt>
      <trkpt lat="52.072744" lon="20.290679"></trkpt>
      <trkpt lat="52.072982" lon="20.28356"></trkpt>
      <trkpt lat="52.074955" lon="20.252463"></trkpt>
      <trkpt lat="52.075306" lon="20.240235"></trkpt>
      <trkpt lat="52.075212" lon="20.233289"></trkpt>
      <trkpt lat="52.074852" lon="20.22552"></trkpt>
      <trkpt lat="52.074313" lon="20.218741"></trkpt>
      <trkpt lat="52.073306" lon="20.210034"></trkpt>
      <trkpt lat="52.071825" lon="20.200764"></trkpt>
      <trkpt lat="52.070334" lon="20.193391"></trkpt>
      <trkpt lat="52.068756" lon="20.186755"></trkpt>
      <trkpt lat="52.063437" lon="20.16616"></trkpt>
      <trkpt lat="52.060087" lon="20.152606"></trkpt>
      <trkpt lat="52.05744" lon="20.140771"></trkpt>
      <trkpt lat="52.054735" lon="20.126937"></trkpt>
      <trkpt lat="52.052861" lon="20.115919"></trkpt>
      <trkpt lat="52.05141" lon="20.105865"></trkpt>
      <trkpt lat="52.049776" lon="20.092961"></trkpt>
      <trkpt lat="52.046486" lon="20.064221"></trkpt>
      <trkpt lat="52.045691" lon="20.058557"></trkpt>
      <trkpt lat="52.044425" lon="20.051426"></trkpt>
      <trkpt lat="52.042647" lon="20.043358"></trkpt>
      <trkpt lat="52.040694" lon="20.036075"></trkpt>
      <trkpt lat="52.038316" lon="20.02847"></trkpt>
      <trkpt lat="52.034487" lon="20.017069"></trkpt>
      <trkpt lat="52.033012" lon="20.013227"></trkpt>
      <trkpt lat="52.031658" lon="20.010139"></trkpt>
      <trkpt lat="52.026025" lon="19.99931"></trkpt>
      <trkpt lat="52.023345" lon="19.99324"></trkpt>
      <trkpt lat="52.021076" lon="19.986796"></trkpt>
      <trkpt lat="52.017013" lon="19.973187"></trkpt>
      <trkpt lat="52.015012" lon="19.967764"></trkpt>
      <trkpt lat="52.013542" lon="19.964529"></trkpt>
      <trkpt lat="52.012206" lon="19.961919"></trkpt>
      <trkpt lat="52.006518" lon="19.951623"></trkpt>
      <trkpt lat="52.005077" lon="19.948597"></trkpt>
      <trkpt lat="52.003129" lon="19.943899"></trkpt>
      <trkpt lat="52.001971" lon="19.94069"></trkpt>
      <trkpt lat="52.000792" lon="19.936977"></trkpt>
      <trkpt lat="51.993285" lon="19.910338"></trkpt>
      <trkpt lat="51.992072" lon="19.906337"></trkpt>
      <trkpt lat="51.990736" lon="19.902487"></trkpt>
      <trkpt lat="51.989189" lon="19.8986"></trkpt>
      <trkpt lat="51.987004" lon="19.893922"></trkpt>
      <trkpt lat="51.984431" lon="19.889251"></trkpt>
      <trkpt lat="51.982215" lon="19.885803"></trkpt>
      <trkpt lat="51.973145" lon="19.87281"></trkpt>
      <trkpt lat="51.970669" lon="19.868844"></trkpt>
      <trkpt lat="51.968796" lon="19.865442"></trkpt>
      <trkpt lat="51.963835" lon="19.855802"></trkpt>
      <trkpt lat="51.961654" lon="19.852229"></trkpt>
      <trkpt lat="51.959432" lon="19.849149"></trkpt>
      <trkpt lat="51.958215" lon="19.847666"></trkpt>
      <trkpt lat="51.953649" lon="19.842795"></trkpt>
      <trkpt lat="51.950539" lon="19.839195"></trkpt>
      <trkpt lat="51.9479" lon="19.835435"></trkpt>
      <trkpt lat="51.94533" lon="19.830958"></trkpt>
      <trkpt lat="51.942926" lon="19.825809"></trkpt>
      <trkpt lat="51.932464" lon="19.801556"></trkpt>
      <trkpt lat="51.930311" lon="19.796322"></trkpt>
      <trkpt lat="51.928187" lon="19.790493"></trkpt>
      <trkpt lat="51.922263" lon="19.771848"></trkpt>
      <trkpt lat="51.919257" lon="19.763721"></trkpt>
      <trkpt lat="51.915628" lon="19.755328"></trkpt>
      <trkpt lat="51.9087" lon="19.740434"></trkpt>
      <trkpt lat="51.905786" lon="19.733214"></trkpt>
      <trkpt lat="51.904523" lon="19.729619"></trkpt>
      <trkpt lat="51.903128" lon="19.725175"></trkpt>
      <trkpt lat="51.9012" lon="19.71796"></trkpt>
      <trkpt lat="51.899514" lon="19.710048"></trkpt>
      <trkpt lat="51.898289" lon="19.702054"></trkpt>
      <trkpt lat="51.897737" lon="19.697181"></trkpt>
      <trkpt lat="51.897208" lon="19.690401"></trkpt>
      <trkpt lat="51.896601" lon="19.674043"></trkpt>
      <trkpt lat="51.896283" lon="19.669467"></trkpt>
      <trkpt lat="51.895534" lon="19.663583"></trkpt>
      <trkpt lat="51.893308" lon="19.651398"></trkpt>
      <trkpt lat="51.892527" lon="19.643756"></trkpt>
      <trkpt lat="51.892183" lon="19.638241"></trkpt>
      <trkpt lat="51.892391" lon="19.637258"></trkpt>
      <trkpt lat="51.893126" lon="19.635434"></trkpt>
      <trkpt lat="51.893305" lon="19.634154"></trkpt>
      <trkpt lat="51.893111" lon="19.632798"></trkpt>
      <trkpt lat="51.892524" lon="19.631667"></trkpt>
      <trkpt lat="51.892055" lon="19.631272"></trkpt>
      <trkpt lat="51.891395" lon="19.631091"></trkpt>
      <trkpt lat="51.890885" lon="19.631218"></trkpt>
      <trkpt lat="51.890246" lon="19.631748"></trkpt>
      <trkpt lat="51.889788" lon="19.632594"></trkpt>
      <trkpt lat="51.888926" lon="19.635224"></trkpt>
      <trkpt lat="51.8879" lon="19.637082"></trkpt>
      <trkpt lat="51.885849" lon="19.63983"></trkpt>
      <trkpt lat="51.884061" lon="19.641732"></trkpt>
      <trkpt lat="51.875409" lon="19.649585"></trkpt>
      <trkpt lat="51.872899" lon="19.651642"></trkpt>
      <trkpt lat="51.870689" lon="19.653217"></trkpt>
      <trkpt lat="51.86641" lon="19.655775"></trkpt>
      <trkpt lat="51.863895" lon="19.656972"></trkpt>
      <trkpt lat="51.861153" lon="19.658002"></trkpt>
      <trkpt lat="51.859115" lon="19.658619"></trkpt>
      <trkpt lat="51.855164" lon="19.659524"></trkpt>
      <trkpt lat="51.851793" lon="19.659888"></trkpt>
      <trkpt lat="51.848245" lon="19.659901"></trkpt>
      <trkpt lat="51.844318" lon="19.659455"></trkpt>
      <trkpt lat="51.841612" lon="19.658892"></trkpt>
      <trkpt lat="51.837464" lon="19.657573"></trkpt>
      <trkpt lat="51.833907" lon="19.655999"></trkpt>
      <trkpt lat="51.829343" lon="19.653358"></trkpt>
      <trkpt lat="51.825536" lon="19.650502"></trkpt>
      <trkpt lat="51.822007" lon="19.647335"></trkpt>
      <trkpt lat="51.818607" lon="19.643689"></trkpt>
      <trkpt lat="51.816837" lon="19.641585"></trkpt>
      <trkpt lat="51.805286" lon="19.626825"></trkpt>
      <trkpt lat="51.801627" lon="19.623168"></trkpt>
      <trkpt lat="51.798978" lon="19.621072"></trkpt>
      <trkpt lat="51.79673" lon="19.619616"></trkpt>
      <trkpt lat="51.788649" lon="19.615558"></trkpt>
      <trkpt lat="51.785631" lon="19.613613"></trkpt>
      <trkpt lat="51.784053" lon="19.612391"></trkpt>
      <trkpt lat="51.781506" lon="19.610069"></trkpt>
      <trkpt lat="51.776175" lon="19.604388"></trkpt>
      <trkpt lat="51.773275" lon="19.601663"></trkpt>
      <trkpt lat="51.770001" lon="19.599241"></trkpt>
      <trkpt lat="51.768155" lon="19.598138"></trkpt>
      <trkpt lat="51.766122" lon="19.597142"></trkpt>
      <trkpt lat="51.762791" lon="19.595941"></trkpt>
      <trkpt lat="51.760815" lon="19.595474"></trkpt>
      <trkpt lat="51.758998" lon="19.595204"></trkpt>
      <trkpt lat="51.756149" lon="19.595081"></trkpt>
      <trkpt lat="51.7525" lon="19.595444"></trkpt>
      <trkpt lat="51.749888" lon="19.596091"></trkpt>
      <trkpt lat="51.74791" lon="19.596787"></trkpt>
      <trkpt lat="51.727345" lon="19.60571"></trkpt>
      <trkpt lat="51.723816" lon="19.607055"></trkpt>
      <trkpt lat="51.7213" lon="19.607702"></trkpt>
      <trkpt lat="51.718076" lon="19.608098"></trkpt>
      <trkpt lat="51.71472" lon="19.608012"></trkpt>
      <trkpt lat="51.712269" lon="19.60763"></trkpt>
      <trkpt lat="51.710057" lon="19.607048"></trkpt>
      <trkpt lat="51.708679" lon="19.606566"></trkpt>
      <trkpt lat="51.70571" lon="19.605241"></trkpt>
      <trkpt lat="51.645494" lon="19.574364"></trkpt>
      <trkpt lat="51.644096" lon="19.573329"></trkpt>
      <trkpt lat="51.642509" lon="19.572437"></trkpt>
      <trkpt lat="51.641933" lon="19.571989"></trkpt>
      <trkpt lat="51.64123" lon="19.571147"></trkpt>
      <trkpt lat="51.640607" lon="19.569942"></trkpt>
      <trkpt lat="51.640322" lon="19.569088"></trkpt>
      <trkpt lat="51.640061" lon="19.567735"></trkpt>
      <trkpt lat="51.640061" lon="19.564907"></trkpt>
      <trkpt lat="51.642653" lon="19.541456"></trkpt>
      <trkpt lat="51.643289" lon="19.537264"></trkpt>
      <trkpt lat="51.643816" lon="19.528838"></trkpt>
      <trkpt lat="51.643843" lon="19.525349"></trkpt>
      <trkpt lat="51.643676" lon="19.521644"></trkpt>
      <trkpt lat="51.643095" lon="19.516553"></trkpt>
      <trkpt lat="51.642149" lon="19.511631"></trkpt>
      <trkpt lat="51.640677" lon="19.506224"></trkpt>
      <trkpt lat="51.638912" lon="19.501218"></trkpt>
      <trkpt lat="51.637828" lon="19.497418"></trkpt>
      <trkpt lat="51.636934" lon="19.493209"></trkpt>
      <trkpt lat="51.636224" lon="19.488193"></trkpt>
      <trkpt lat="51.633711" lon="19.467548"></trkpt>
      <trkpt lat="51.633079" lon="19.459957"></trkpt>
      <trkpt lat="51.632938" lon="19.454781"></trkpt>
      <trkpt lat="51.632978" lon="19.45111"></trkpt>
      <trkpt lat="51.633569" lon="19.439319"></trkpt>
      <trkpt lat="51.633371" lon="19.433616"></trkpt>
      <trkpt lat="51.63295" lon="19.429648"></trkpt>
      <trkpt lat="51.629698" lon="19.407525"></trkpt>
      <trkpt lat="51.628725" lon="19.403228"></trkpt>
      <trkpt lat="51.627873" lon="19.400297"></trkpt>
      <trkpt lat="51.625128" lon="19.391733"></trkpt>
      <trkpt lat="51.624127" lon="19.38904"></trkpt>
      <trkpt lat="51.622237" lon="19.384676"></trkpt>
      <trkpt lat="51.61745" lon="19.375376"></trkpt>
      <trkpt lat="51.615877" lon="19.371724"></trkpt>
      <trkpt lat="51.614494" lon="19.368042"></trkpt>
      <trkpt lat="51.612419" lon="19.361418"></trkpt>
      <trkpt lat="51.61133" lon="19.357049"></trkpt>
      <trkpt lat="51.610579" lon="19.353436"></trkpt>
      <trkpt lat="51.60975" lon="19.348387"></trkpt>
      <trkpt lat="51.609018" lon="19.341778"></trkpt>
      <trkpt lat="51.607216" lon="19.309541"></trkpt>
      <trkpt lat="51.606637" lon="19.303931"></trkpt>
      <trkpt lat="51.605937" lon="19.29988"></trkpt>
      <trkpt lat="51.605092" lon="19.296254"></trkpt>
      <trkpt lat="51.604234" lon="19.29329"></trkpt>
      <trkpt lat="51.601837" lon="19.285967"></trkpt>
      <trkpt lat="51.600978" lon="19.282614"></trkpt>
      <trkpt lat="51.600195" lon="19.278731"></trkpt>
      <trkpt lat="51.599594" lon="19.274642"></trkpt>
      <trkpt lat="51.594074" lon="19.228473"></trkpt>
      <trkpt lat="51.593372" lon="19.22425"></trkpt>
      <trkpt lat="51.592449" lon="19.220044"></trkpt>
      <trkpt lat="51.590982" lon="19.214501"></trkpt>
      <trkpt lat="51.58974" lon="19.210494"></trkpt>
      <trkpt lat="51.588324" lon="19.206468"></trkpt>
      <trkpt lat="51.586424" lon="19.201746"></trkpt>
      <trkpt lat="51.583868" lon="19.196298"></trkpt>
      <trkpt lat="51.571512" lon="19.172471"></trkpt>
      <trkpt lat="51.569603" lon="19.168039"></trkpt>
      <trkpt lat="51.568011" lon="19.163417"></trkpt>
      <trkpt lat="51.567094" lon="19.160234"></trkpt>
      <trkpt lat="51.566099" lon="19.156027"></trkpt>
      <trkpt lat="51.560466" lon="19.126937"></trkpt>
      <trkpt lat="51.558877" lon="19.120576"></trkpt>
      <trkpt lat="51.556195" lon="19.111426"></trkpt>
      <trkpt lat="51.555279" lon="19.107541"></trkpt>
      <trkpt lat="51.554621" lon="19.104111"></trkpt>
      <trkpt lat="51.554135" lon="19.100851"></trkpt>
      <trkpt lat="51.553586" lon="19.095304"></trkpt>
      <trkpt lat="51.553395" lon="19.091183"></trkpt>
      <trkpt lat="51.553393" lon="19.086896"></trkpt>
      <trkpt lat="51.553578" lon="19.082796"></trkpt>
      <trkpt lat="51.554029" lon="19.078042"></trkpt>
      <trkpt lat="51.554821" lon="19.07278"></trkpt>
      <trkpt lat="51.559218" lon="19.050048"></trkpt>
      <trkpt lat="51.559807" lon="19.045963"></trkpt>
      <trkpt lat="51.560146" lon="19.042509"></trkpt>
      <trkpt lat="51.560383" lon="19.037606"></trkpt>
      <trkpt lat="51.560335" lon="19.032565"></trkpt>
      <trkpt lat="51.560096" lon="19.028738"></trkpt>
      <trkpt lat="51.559428" lon="19.022251"></trkpt>
      <trkpt lat="51.559245" lon="19.016753"></trkpt>
      <trkpt lat="51.55954" lon="19.011196"></trkpt>
      <trkpt lat="51.560333" lon="19.005622"></trkpt>
      <trkpt lat="51.561119" lon="19.002111"></trkpt>
      <trkpt lat="51.566805" lon="18.981208"></trkpt>
      <trkpt lat="51.573814" lon="18.950872"></trkpt>
      <trkpt lat="51.574384" lon="18.947757"></trkpt>
      <trkpt lat="51.574949" lon="18.943634"></trkpt>
      <trkpt lat="51.576405" lon="18.927302"></trkpt>
      <trkpt lat="51.576759" lon="18.924365"></trkpt>
      <trkpt lat="51.577607" lon="18.919461"></trkpt>
      <trkpt lat="51.578624" lon="18.915225"></trkpt>
      <trkpt lat="51.579338" lon="18.912769"></trkpt>
      <trkpt lat="51.580481" lon="18.909447"></trkpt>
      <trkpt lat="51.581498" lon="18.906902"></trkpt>
      <trkpt lat="51.583374" lon="18.902938"></trkpt>
      <trkpt lat="51.585727" lon="18.898913"></trkpt>
      <trkpt lat="51.591552" lon="18.890242"></trkpt>
      <trkpt lat="51.593011" lon="18.887598"></trkpt>
      <trkpt lat="51.594316" lon="18.884753"></trkpt>
      <trkpt lat="51.595585" lon="18.881407"></trkpt>
      <trkpt lat="51.596526" lon="18.878328"></trkpt>
      <trkpt lat="51.597268" lon="18.875251"></trkpt>
      <trkpt lat="51.598046" lon="18.870721"></trkpt>
      <trkpt lat="51.598419" lon="18.867182"></trkpt>
      <trkpt lat="51.598611" lon="18.863115"></trkpt>
      <trkpt lat="51.598558" lon="18.859188"></trkpt>
      <trkpt lat="51.59817" lon="18.854427"></trkpt>
      <trkpt lat="51.59724" lon="18.848495"></trkpt>
      <trkpt lat="51.592821" lon="18.823037"></trkpt>
      <trkpt lat="51.591922" lon="18.819126"></trkpt>
      <trkpt lat="51.591327" lon="18.817036"></trkpt>
      <trkpt lat="51.590044" lon="18.813288"></trkpt>
      <trkpt lat="51.589025" lon="18.810816"></trkpt>
      <trkpt lat="51.587557" lon="18.807846"></trkpt>
      <trkpt lat="51.586138" lon="18.805346"></trkpt>
      <trkpt lat="51.584767" lon="18.803265"></trkpt>
      <trkpt lat="51.583364" lon="18.801433"></trkpt>
      <trkpt lat="51.576968" lon="18.793825"></trkpt>
      <trkpt lat="51.574373" lon="18.790267"></trkpt>
      <trkpt lat="51.572503" lon="18.787276"></trkpt>
      <trkpt lat="51.57036" lon="18.783293"></trkpt>
      <trkpt lat="51.568643" lon="18.779578"></trkpt>
      <trkpt lat="51.567384" lon="18.776463"></trkpt>
      <trkpt lat="51.565921" lon="18.772252"></trkpt>
      <trkpt lat="51.565079" lon="18.769431"></trkpt>
      <trkpt lat="51.563986" lon="18.765119"></trkpt>
      <trkpt lat="51.563032" lon="18.760425"></trkpt>
      <trkpt lat="51.562015" lon="18.752983"></trkpt>
      <trkpt lat="51.560534" lon="18.733858"></trkpt>
      <trkpt lat="51.559882" lon="18.729499"></trkpt>
      <trkpt lat="51.559001" lon="18.725367"></trkpt>
      <trkpt lat="51.557996" lon="18.721766"></trkpt>
      <trkpt lat="51.556995" lon="18.718801"></trkpt>
      <trkpt lat="51.555363" lon="18.714868"></trkpt>
      <trkpt lat="51.553058" lon="18.710476"></trkpt>
      <trkpt lat="51.550631" lon="18.706836"></trkpt>
      <trkpt lat="51.548113" lon="18.703826"></trkpt>
      <trkpt lat="51.546292" lon="18.702042"></trkpt>
      <trkpt lat="51.545085" lon="18.701022"></trkpt>
      <trkpt lat="51.54248" lon="18.699186"></trkpt>
      <trkpt lat="51.540323" lon="18.698022"></trkpt>
      <trkpt lat="51.538931" lon="18.697424"></trkpt>
      <trkpt lat="51.53693" lon="18.696773"></trkpt>
      <trkpt lat="51.534839" lon="18.696338"></trkpt>
      <trkpt lat="51.51657" lon="18.693881"></trkpt>
      <trkpt lat="51.512476" lon="18.693092"></trkpt>
      <trkpt lat="51.509468" lon="18.69225"></trkpt>
      <trkpt lat="51.505316" lon="18.690713"></trkpt>
      <trkpt lat="51.502027" lon="18.689168"></trkpt>
      <trkpt lat="51.498984" lon="18.687476"></trkpt>
      <trkpt lat="51.495424" lon="18.685163"></trkpt>
      <trkpt lat="51.492399" lon="18.68288"></trkpt>
      <trkpt lat="51.474285" lon="18.667519"></trkpt>
      <trkpt lat="51.471631" lon="18.664998"></trkpt>
      <trkpt lat="51.469829" lon="18.663113"></trkpt>
      <trkpt lat="51.464084" lon="18.656467"></trkpt>
      <trkpt lat="51.461742" lon="18.654007"></trkpt>
      <trkpt lat="51.459664" lon="18.652149"></trkpt>
      <trkpt lat="51.45757" lon="18.650556"></trkpt>
      <trkpt lat="51.455357" lon="18.649133"></trkpt>
      <trkpt lat="51.453748" lon="18.648288"></trkpt>
      <trkpt lat="51.451993" lon="18.6475"></trkpt>
      <trkpt lat="51.449683" lon="18.646691"></trkpt>
      <trkpt lat="51.447561" lon="18.646169"></trkpt>
      <trkpt lat="51.445856" lon="18.645897"></trkpt>
      <trkpt lat="51.443232" lon="18.645733"></trkpt>
      <trkpt lat="51.428564" lon="18.645704"></trkpt>
      <trkpt lat="51.426665" lon="18.645545"></trkpt>
      <trkpt lat="51.42364" lon="18.644939"></trkpt>
      <trkpt lat="51.420259" lon="18.643737"></trkpt>
      <trkpt lat="51.417135" lon="18.642083"></trkpt>
      <trkpt lat="51.414122" lon="18.639955"></trkpt>
      <trkpt lat="51.411161" lon="18.637293"></trkpt>
      <trkpt lat="51.409144" lon="18.635094"></trkpt>
      <trkpt lat="51.407378" lon="18.632856"></trkpt>
      <trkpt lat="51.406008" lon="18.630911"></trkpt>
      <trkpt lat="51.404145" lon="18.627872"></trkpt>
      <trkpt lat="51.402404" lon="18.624579"></trkpt>
      <trkpt lat="51.401259" lon="18.62204"></trkpt>
      <trkpt lat="51.400139" lon="18.619247"></trkpt>
      <trkpt lat="51.398993" lon="18.615945"></trkpt>
      <trkpt lat="51.397639" lon="18.611184"></trkpt>
      <trkpt lat="51.396778" lon="18.607194"></trkpt>
      <trkpt lat="51.391873" lon="18.578949"></trkpt>
      <trkpt lat="51.39081" lon="18.57388"></trkpt>
      <trkpt lat="51.389476" lon="18.569045"></trkpt>
      <trkpt lat="51.388485" lon="18.566085"></trkpt>
      <trkpt lat="51.387374" lon="18.563177"></trkpt>
      <trkpt lat="51.385565" lon="18.559153"></trkpt>
      <trkpt lat="51.384366" lon="18.556834"></trkpt>
      <trkpt lat="51.382624" lon="18.553861"></trkpt>
      <trkpt lat="51.381209" lon="18.551733"></trkpt>
      <trkpt lat="51.379372" lon="18.549271"></trkpt>
      <trkpt lat="51.377931" lon="18.547577"></trkpt>
      <trkpt lat="51.362095" lon="18.530233"></trkpt>
      <trkpt lat="51.358559" lon="18.525686"></trkpt>
      <trkpt lat="51.347002" lon="18.507915"></trkpt>
      <trkpt lat="51.345126" lon="18.504792"></trkpt>
      <trkpt lat="51.343478" lon="18.501699"></trkpt>
      <trkpt lat="51.341968" lon="18.498547"></trkpt>
      <trkpt lat="51.340187" lon="18.494262"></trkpt>
      <trkpt lat="51.338785" lon="18.490343"></trkpt>
      <trkpt lat="51.336945" lon="18.484071"></trkpt>
      <trkpt lat="51.335745" lon="18.47885"></trkpt>
      <trkpt lat="51.335017" lon="18.474885"></trkpt>
      <trkpt lat="51.332349" lon="18.45802"></trkpt>
      <trkpt lat="51.331723" lon="18.455102"></trkpt>
      <trkpt lat="51.330916" lon="18.452092"></trkpt>
      <trkpt lat="51.32952" lon="18.448042"></trkpt>
      <trkpt lat="51.327671" lon="18.443943"></trkpt>
      <trkpt lat="51.326128" lon="18.441213"></trkpt>
      <trkpt lat="51.323148" lon="18.436843"></trkpt>
      <trkpt lat="51.321708" lon="18.434464"></trkpt>
      <trkpt lat="51.320565" lon="18.432271"></trkpt>
      <trkpt lat="51.319316" lon="18.429485"></trkpt>
      <trkpt lat="51.317884" lon="18.425597"></trkpt>
      <trkpt lat="51.316991" lon="18.422565"></trkpt>
      <trkpt lat="51.3159" lon="18.417684"></trkpt>
      <trkpt lat="51.315397" lon="18.414373"></trkpt>
      <trkpt lat="51.31491" lon="18.408532"></trkpt>
      <trkpt lat="51.31493" lon="18.402621"></trkpt>
      <trkpt lat="51.318336" lon="18.360112"></trkpt>
      <trkpt lat="51.318721" lon="18.356701"></trkpt>
      <trkpt lat="51.319403" lon="18.352398"></trkpt>
      <trkpt lat="51.322459" lon="18.338318"></trkpt>
      <trkpt lat="51.323185" lon="18.334111"></trkpt>
      <trkpt lat="51.323452" lon="18.331892"></trkpt>
      <trkpt lat="51.323718" lon="18.328058"></trkpt>
      <trkpt lat="51.323717" lon="18.322933"></trkpt>
      <trkpt lat="51.323216" lon="18.317117"></trkpt>
      <trkpt lat="51.315449" lon="18.262319"></trkpt>
      <trkpt lat="51.314298" lon="18.256262"></trkpt>
      <trkpt lat="51.306616" lon="18.221266"></trkpt>
      <trkpt lat="51.305741" lon="18.215395"></trkpt>
      <trkpt lat="51.305302" lon="18.209434"></trkpt>
      <trkpt lat="51.305249" lon="18.205809"></trkpt>
      <trkpt lat="51.305364" lon="18.202042"></trkpt>
      <trkpt lat="51.305695" lon="18.197888"></trkpt>
      <trkpt lat="51.306128" lon="18.194474"></trkpt>
      <trkpt lat="51.306725" lon="18.191013"></trkpt>
      <trkpt lat="51.307515" lon="18.18746"></trkpt>
      <trkpt lat="51.308745" lon="18.183112"></trkpt>
      <trkpt lat="51.309822" lon="18.179997"></trkpt>
      <trkpt lat="51.311084" lon="18.176898"></trkpt>
      <trkpt lat="51.312281" lon="18.17434"></trkpt>
      <trkpt lat="51.314838" lon="18.169792"></trkpt>
      <trkpt lat="51.329623" lon="18.148579"></trkpt>
      <trkpt lat="51.331602" lon="18.145428"></trkpt>
      <trkpt lat="51.332902" lon="18.142936"></trkpt>
      <trkpt lat="51.333968" lon="18.14053"></trkpt>
      <trkpt lat="51.334959" lon="18.137917"></trkpt>
      <trkpt lat="51.336435" lon="18.132867"></trkpt>
      <trkpt lat="51.337416" lon="18.127841"></trkpt>
      <trkpt lat="51.337757" lon="18.125194"></trkpt>
      <trkpt lat="51.338035" lon="18.121702"></trkpt>
      <trkpt lat="51.33809" lon="18.116463"></trkpt>
      <trkpt lat="51.337724" lon="18.11128"></trkpt>
      <trkpt lat="51.337025" lon="18.106647"></trkpt>
      <trkpt lat="51.335819" lon="18.101579"></trkpt>
      <trkpt lat="51.335037" lon="18.099094"></trkpt>
      <trkpt lat="51.333775" lon="18.095771"></trkpt>
      <trkpt lat="51.323877" lon="18.072833"></trkpt>
      <trkpt lat="51.322002" lon="18.067297"></trkpt>
      <trkpt lat="51.32104" lon="18.063578"></trkpt>
      <trkpt lat="51.320387" lon="18.060462"></trkpt>
      <trkpt lat="51.319781" lon="18.056603"></trkpt>
      <trkpt lat="51.319334" lon="18.052664"></trkpt>
      <trkpt lat="51.316129" lon="18.019457"></trkpt>
      <trkpt lat="51.315926" lon="18.012175"></trkpt>
      <trkpt lat="51.316064" lon="18.007497"></trkpt>
      <trkpt lat="51.316195" lon="18.006506"></trkpt>
      <trkpt lat="51.31649" lon="18.005985"></trkpt>
      <trkpt lat="51.316906" lon="18.005872"></trkpt>
      <trkpt lat="51.317314" lon="18.006257"></trkpt>
      <trkpt lat="51.317446" lon="18.006776"></trkpt>
      <trkpt lat="51.317416" lon="18.007207"></trkpt>
      <trkpt lat="51.316976" lon="18.007997"></trkpt>
      <trkpt lat="51.311352" lon="18.012987"></trkpt>
      <trkpt lat="51.310459" lon="18.013966"></trkpt>
      <trkpt lat="51.308808" lon="18.015166"></trkpt>
      <trkpt lat="51.307646" lon="18.015862"></trkpt>
      <trkpt lat="51.306164" lon="18.016605"></trkpt>
      <trkpt lat="51.304596" lon="18.017221"></trkpt>
      <trkpt lat="51.302907" lon="18.017698"></trkpt>
      <trkpt lat="51.298505" lon="18.01855"></trkpt>
      <trkpt lat="51.296696" lon="18.019132"></trkpt>
      <trkpt lat="51.295286" lon="18.019739"></trkpt>
      <trkpt lat="51.293965" lon="18.020439"></trkpt>
      <trkpt lat="51.284078" lon="18.026444"></trkpt>
      <trkpt lat="51.281466" lon="18.02782"></trkpt>
      <trkpt lat="51.279939" lon="18.028297"></trkpt>
      <trkpt lat="51.278906" lon="18.028459"></trkpt>
      <trkpt lat="51.277745" lon="18.028492"></trkpt>
      <trkpt lat="51.276073" lon="18.028263"></trkpt>
      <trkpt lat="51.274494" lon="18.027737"></trkpt>
      <trkpt lat="51.272951" lon="18.026913"></trkpt>
      <trkpt lat="51.259412" lon="18.017082"></trkpt>
      <trkpt lat="51.258137" lon="18.016264"></trkpt>
      <trkpt lat="51.256838" lon="18.015667"></trkpt>
      <trkpt lat="51.256018" lon="18.015416"></trkpt>
      <trkpt lat="51.25554" lon="18.015027"></trkpt>
      <trkpt lat="51.255326" lon="18.014204"></trkpt>
      <trkpt lat="51.255546" lon="18.012916"></trkpt>
      <trkpt lat="51.255921" lon="18.011939"></trkpt>
      <trkpt lat="51.256443" lon="18.011108"></trkpt>
      <trkpt lat="51.256702" lon="18.010987"></trkpt>
      <trkpt lat="51.256715" lon="18.010496"></trkpt>
      <trkpt lat="51.256995" lon="18.009739"></trkpt>
      <trkpt lat="51.261478" lon="18.005932"></trkpt>
      <trkpt lat="51.262687" lon="18.004653"></trkpt>
      <trkpt lat="51.262866" lon="18.004642"></trkpt>
      <trkpt lat="51.262969" lon="18.004492"></trkpt>
      <trkpt lat="51.262921" lon="18.004148"></trkpt>
      <trkpt lat="51.262428" lon="18.003857"></trkpt>
      <trkpt lat="51.260677" lon="18.001493"></trkpt>
      <trkpt lat="51.260152" lon="18.000987"></trkpt>
      <trkpt lat="51.242029" lon="17.992457"></trkpt>
      <trkpt lat="51.24119" lon="17.992273"></trkpt>
      <trkpt lat="51.239506" lon="17.992164"></trkpt>
      <trkpt lat="51.238982" lon="17.991985"></trkpt>
      <trkpt lat="51.236947" lon="17.990271"></trkpt>
      <trkpt lat="51.236419" lon="17.99031"></trkpt>
      <trkpt lat="51.23517" lon="17.991599"></trkpt>
      <trkpt lat="51.234349" lon="17.99189"></trkpt>
      <trkpt lat="51.227759" lon="17.990642"></trkpt>
      <trkpt lat="51.22721" lon="17.990422"></trkpt>
      <trkpt lat="51.226615" lon="17.990014"></trkpt>
      <trkpt lat="51.222236" lon="17.986227"></trkpt>
      <trkpt lat="51.221867" lon="17.986013"></trkpt>
      <trkpt lat="51.212767" lon="17.984626"></trkpt>
      <trkpt lat="51.212293" lon="17.984434"></trkpt>
      <trkpt lat="51.211868" lon="17.984083"></trkpt>
      <trkpt lat="51.211507" lon="17.983528"></trkpt>
      <trkpt lat="51.200997" lon="17.961102"></trkpt>
      <trkpt lat="51.175649" lon="17.927602"></trkpt>
      <trkpt lat="51.171263" lon="17.920852"></trkpt>
      <trkpt lat="51.166969" lon="17.910952"></trkpt>
      <trkpt lat="51.165245" lon="17.90458"></trkpt>
      <trkpt lat="51.165128" lon="17.90353"></trkpt>
      <trkpt lat="51.165185" lon="17.901106"></trkpt>
      <trkpt lat="51.164911" lon="17.896901"></trkpt>
      <trkpt lat="51.164078" lon="17.891589"></trkpt>
      <trkpt lat="51.16376" lon="17.890306"></trkpt>
      <trkpt lat="51.162122" lon="17.886715"></trkpt>
      <trkpt lat="51.155523" lon="17.875587"></trkpt>
      <trkpt lat="51.153061" lon="17.871867"></trkpt>
      <trkpt lat="51.15261" lon="17.870751"></trkpt>
      <trkpt lat="51.150603" lon="17.864546"></trkpt>
      <trkpt lat="51.149607" lon="17.862677"></trkpt>
      <trkpt lat="51.146992" lon="17.858339"></trkpt>
      <trkpt lat="51.145506" lon="17.851063"></trkpt>
      <trkpt lat="51.145607" lon="17.850477"></trkpt>
      <trkpt lat="51.146097" lon="17.85009"></trkpt>
      <trkpt lat="51.14631" lon="17.849578"></trkpt>
      <trkpt lat="51.146127" lon="17.847673"></trkpt>
      <trkpt lat="51.145888" lon="17.846862"></trkpt>
      <trkpt lat="51.145603" lon="17.846667"></trkpt>
      <trkpt lat="51.14375" lon="17.847127"></trkpt>
      <trkpt lat="51.142501" lon="17.846718"></trkpt>
      <trkpt lat="51.14129" lon="17.846781"></trkpt>
      <trkpt lat="51.135968" lon="17.844953"></trkpt>
      <trkpt lat="51.135298" lon="17.844495"></trkpt>
      <trkpt lat="51.123896" lon="17.835021"></trkpt>
      <trkpt lat="51.123318" lon="17.834748"></trkpt>
      <trkpt lat="51.122818" lon="17.83465"></trkpt>
      <trkpt lat="51.121277" lon="17.834804"></trkpt>
      <trkpt lat="51.120642" lon="17.834733"></trkpt>
      <trkpt lat="51.120018" lon="17.834482"></trkpt>
      <trkpt lat="51.11941" lon="17.83398"></trkpt>
      <trkpt lat="51.114671" lon="17.828246"></trkpt>
      <trkpt lat="51.114187" lon="17.826549"></trkpt>
      <trkpt lat="51.113905" lon="17.826051"></trkpt>
      <trkpt lat="51.112744" lon="17.825151"></trkpt>
      <trkpt lat="51.111052" lon="17.824313"></trkpt>
      <trkpt lat="51.110856" lon="17.824122"></trkpt>
      <trkpt lat="51.109783" lon="17.820891"></trkpt>
      <trkpt lat="51.107906" lon="17.816614"></trkpt>
      <trkpt lat="51.107206" lon="17.81555"></trkpt>
      <trkpt lat="51.102559" lon="17.810222"></trkpt>
      <trkpt lat="51.101582" lon="17.808883"></trkpt>
      <trkpt lat="51.079167" lon="17.772058"></trkpt>
      <trkpt lat="51.078569" lon="17.770473"></trkpt>
      <trkpt lat="51.076883" lon="17.76295"></trkpt>
      <trkpt lat="51.076529" lon="17.762238"></trkpt>
      <trkpt lat="51.073876" lon="17.758609"></trkpt>
      <trkpt lat="51.073606" lon="17.757426"></trkpt>
      <trkpt lat="51.073647" lon="17.756869"></trkpt>
      <trkpt lat="51.076235" lon="17.748445"></trkpt>
      <trkpt lat="51.07678" lon="17.743543"></trkpt>
      <trkpt lat="51.076812" lon="17.741452"></trkpt>
      <trkpt lat="51.076072" lon="17.738181"></trkpt>
      <trkpt lat="51.075666" lon="17.735033"></trkpt>
      <trkpt lat="51.075698" lon="17.732121"></trkpt>
      <trkpt lat="51.075475" lon="17.727209"></trkpt>
      <trkpt lat="51.075929" lon="17.722514"></trkpt>
      <trkpt lat="51.075499" lon="17.722605"></trkpt>
      <trkpt lat="51.074647" lon="17.722342"></trkpt>
      <trkpt lat="51.072243" lon="17.722063"></trkpt>
      <trkpt lat="51.071819" lon="17.721902"></trkpt>
      <trkpt lat="51.071247" lon="17.721338"></trkpt>
      <trkpt lat="51.071099" lon="17.721324"></trkpt>
      <trkpt lat="51.070884" lon="17.721003"></trkpt>
      <trkpt lat="51.070084" lon="17.719363"></trkpt>
      <trkpt lat="51.070131" lon="17.718802"></trkpt>
      <trkpt lat="51.070008" lon="17.718606"></trkpt>
      <trkpt lat="51.066414" lon="17.717753"></trkpt>
      <trkpt lat="51.063441" lon="17.716303"></trkpt>
      <trkpt lat="51.06219" lon="17.715944"></trkpt>
      <trkpt lat="51.061646" lon="17.715953"></trkpt>
      <trkpt lat="51.060257" lon="17.716405"></trkpt>
      <trkpt lat="51.059906" lon="17.716416"></trkpt>
      <trkpt lat="51.059734" lon="17.71626"></trkpt>
      <trkpt lat="51.058958" lon="17.713103"></trkpt>
      <trkpt lat="51.054322" lon="17.701246"></trkpt>
      <trkpt lat="51.053049" lon="17.698832"></trkpt>
      <trkpt lat="51.050768" lon="17.690748"></trkpt>
      <trkpt lat="51.050392" lon="17.690218"></trkpt>
      <trkpt lat="51.049797" lon="17.689959"></trkpt>
      <trkpt lat="51.0477" lon="17.689457"></trkpt>
      <trkpt lat="51.045333" lon="17.688477"></trkpt>
      <trkpt lat="51.044873" lon="17.688557"></trkpt>
      <trkpt lat="51.043963" lon="17.689007"></trkpt>
      <trkpt lat="51.043562" lon="17.688998"></trkpt>
      <trkpt lat="51.040085" lon="17.687196"></trkpt>
      <trkpt lat="51.035058" lon="17.685019"></trkpt>
      <trkpt lat="51.033729" lon="17.684473"></trkpt>
      <trkpt lat="51.03166" lon="17.683911"></trkpt>
      <trkpt lat="51.029984" lon="17.683194"></trkpt>
      <trkpt lat="51.025487" lon="17.680141"></trkpt>
      <trkpt lat="51.025057" lon="17.679891"></trkpt>
      <trkpt lat="51.024167" lon="17.679616"></trkpt>
      <trkpt lat="51.022926" lon="17.678507"></trkpt>
      <trkpt lat="51.021259" lon="17.677432"></trkpt>
      <trkpt lat="51.01823" lon="17.675944"></trkpt>
      <trkpt lat="51.015619" lon="17.674854"></trkpt>
      <trkpt lat="51.007503" lon="17.669326"></trkpt>
      <trkpt lat="51.007004" lon="17.66919"></trkpt>
      <trkpt lat="51.005305" lon="17.669326"></trkpt>
      <trkpt lat="51.004709" lon="17.669221"></trkpt>
      <trkpt lat="50.999753" lon="17.666578"></trkpt>
      <trkpt lat="50.997679" lon="17.664822"></trkpt>
      <trkpt lat="50.997412" lon="17.664488"></trkpt>
      <trkpt lat="50.993738" lon="17.65756"></trkpt>
      <trkpt lat="50.993577" lon="17.653637"></trkpt>
      <trkpt lat="50.992187" lon="17.648843"></trkpt>
      <trkpt lat="50.991611" lon="17.647831"></trkpt>
      <trkpt lat="50.98878" lon="17.643795"></trkpt>
      <trkpt lat="50.977745" lon="17.637258"></trkpt>
      <trkpt lat="50.97492" lon="17.634776"></trkpt>
      <trkpt lat="50.972925" lon="17.631703"></trkpt>
      <trkpt lat="50.971835" lon="17.63036"></trkpt>
      <trkpt lat="50.970665" lon="17.629339"></trkpt>
      <trkpt lat="50.968267" lon="17.627786"></trkpt>
      <trkpt lat="50.967964" lon="17.62748"></trkpt>
      <trkpt lat="50.96755" lon="17.626585"></trkpt>
      <trkpt lat="50.963747" lon="17.612044"></trkpt>
      <trkpt lat="50.963407" lon="17.61158"></trkpt>
      <trkpt lat="50.961958" lon="17.610511"></trkpt>
      <trkpt lat="50.961841" lon="17.610091"></trkpt>
      <trkpt lat="50.962006" lon="17.608819"></trkpt>
      <trkpt lat="50.961914" lon="17.608538"></trkpt>
      <trkpt lat="50.96099" lon="17.607892"></trkpt>
      <trkpt lat="50.958638" lon="17.605411"></trkpt>
      <trkpt lat="50.957718" lon="17.604355"></trkpt>
      <trkpt lat="50.956831" lon="17.603001"></trkpt>
      <trkpt lat="50.954258" lon="17.602125"></trkpt>
      <trkpt lat="50.946007" lon="17.603104"></trkpt>
      <trkpt lat="50.942146" lon="17.603385"></trkpt>
      <trkpt lat="50.941157" lon="17.603215"></trkpt>
      <trkpt lat="50.940517" lon="17.602816"></trkpt>
      <trkpt lat="50.940129" lon="17.60241"></trkpt>
      <trkpt lat="50.939294" lon="17.601029"></trkpt>
      <trkpt lat="50.929872" lon="17.5778"></trkpt>
      <trkpt lat="50.928706" lon="17.573219"></trkpt>
      <trkpt lat="50.927809" lon="17.567322"></trkpt>
      <trkpt lat="50.927349" lon="17.565422"></trkpt>
      <trkpt lat="50.926189" lon="17.561406"></trkpt>
      <trkpt lat="50.922586" lon="17.551706"></trkpt>
      <trkpt lat="50.921978" lon="17.549821"></trkpt>
      <trkpt lat="50.919809" lon="17.540019"></trkpt>
      <trkpt lat="50.919401" lon="17.53534"></trkpt>
      <trkpt lat="50.919151" lon="17.533781"></trkpt>
      <trkpt lat="50.916848" lon="17.523157"></trkpt>
      <trkpt lat="50.916485" lon="17.5222"></trkpt>
      <trkpt lat="50.915845" lon="17.521656"></trkpt>
      <trkpt lat="50.914134" lon="17.519812"></trkpt>
      <trkpt lat="50.89962" lon="17.497545"></trkpt>
      <trkpt lat="50.897788" lon="17.494131"></trkpt>
      <trkpt lat="50.897066" lon="17.492233"></trkpt>
      <trkpt lat="50.895554" lon="17.488945"></trkpt>
      <trkpt lat="50.894503" lon="17.486361"></trkpt>
      <trkpt lat="50.892854" lon="17.483277"></trkpt>
      <trkpt lat="50.890712" lon="17.482599"></trkpt>
      <trkpt lat="50.889957" lon="17.482036"></trkpt>
      <trkpt lat="50.888494" lon="17.480371"></trkpt>
      <trkpt lat="50.887621" lon="17.479714"></trkpt>
      <trkpt lat="50.886756" lon="17.479407"></trkpt>
      <trkpt lat="50.886083" lon="17.479435"></trkpt>
      <trkpt lat="50.885282" lon="17.479728"></trkpt>
      <trkpt lat="50.88049" lon="17.481918"></trkpt>
      <trkpt lat="50.880136" lon="17.481962"></trkpt>
      <trkpt lat="50.879697" lon="17.481801"></trkpt>
      <trkpt lat="50.878402" lon="17.48079"></trkpt>
      <trkpt lat="50.874372" lon="17.476805"></trkpt>
      <trkpt lat="50.866889" lon="17.47158"></trkpt>
      <trkpt lat="50.865501" lon="17.470708"></trkpt>
      <trkpt lat="50.864086" lon="17.470198"></trkpt>
      <trkpt lat="50.861818" lon="17.468253"></trkpt>
      <trkpt lat="50.861386" lon="17.467676"></trkpt>
      <trkpt lat="50.862248" lon="17.466539"></trkpt>
      <trkpt lat="50.862569" lon="17.466274"></trkpt>
      <trkpt lat="50.862477" lon="17.466717"></trkpt>
      <trkpt lat="50.862685" lon="17.46692"></trkpt>
      <trkpt lat="50.862359" lon="17.467839"></trkpt>
      <trkpt lat="50.86254" lon="17.467841"></trkpt>
      <trkpt lat="50.862838" lon="17.467069"></trkpt>
      <trkpt lat="50.862477" lon="17.466717"></trkpt>
      <trkpt lat="50.861886" lon="17.468314"></trkpt>
      <trkpt lat="50.861386" lon="17.467676"></trkpt>
      <trkpt lat="50.862248" lon="17.466539"></trkpt>
      <trkpt lat="50.863069" lon="17.46599"></trkpt>
      <trkpt lat="50.863127" lon="17.465397"></trkpt>
      <trkpt lat="50.863408" lon="17.465031"></trkpt>
      <trkpt lat="50.865147" lon="17.455649"></trkpt>
      <trkpt lat="50.873835" lon="17.419704"></trkpt>
      <trkpt lat="50.87425" lon="17.418715"></trkpt>
      <trkpt lat="50.874236" lon="17.418086"></trkpt>
      <trkpt lat="50.874747" lon="17.415843"></trkpt>
      <trkpt lat="50.874524" lon="17.414872"></trkpt>
      <trkpt lat="50.875155" lon="17.413901"></trkpt>
      <trkpt lat="50.875837" lon="17.41149"></trkpt>
      <trkpt lat="50.885277" lon="17.372406"></trkpt>
      <trkpt lat="50.885937" lon="17.368811"></trkpt>
      <trkpt lat="50.888406" lon="17.361971"></trkpt>
      <trkpt lat="50.888908" lon="17.359947"></trkpt>
      <trkpt lat="50.889512" lon="17.358339"></trkpt>
      <trkpt lat="50.891643" lon="17.353414"></trkpt>
      <trkpt lat="50.906959" lon="17.315741"></trkpt>
      <trkpt lat="50.907875" lon="17.314169"></trkpt>
      <trkpt lat="50.909484" lon="17.312274"></trkpt>
      <trkpt lat="50.910492" lon="17.310724"></trkpt>
      <trkpt lat="50.912984" lon="17.308437"></trkpt>
      <trkpt lat="50.920306" lon="17.301322"></trkpt>
      <trkpt lat="50.921022" lon="17.300776"></trkpt>
      <trkpt lat="50.923321" lon="17.299642"></trkpt>
      <trkpt lat="50.924258" lon="17.299395"></trkpt>
      <trkpt lat="50.934595" lon="17.298175"></trkpt>
      <trkpt lat="50.934744" lon="17.298941"></trkpt>
  </trkseg></trk>
</gpx>
