<?xml version="1.0" encoding="UTF-8"?>
<gpx version="1.1" creator="yatutbuv" xmlns="http://www.topografix.com/GPX/1/1">
  <trk><name>GraphHopper Track</name><trkseg>
      <trkpt lat="49.834496" lon="24.009278"></trkpt>
      <trkpt lat="49.834742" lon="24.009518"></trkpt>
      <trkpt lat="49.834708" lon="24.017072"></trkpt>
      <trkpt lat="49.834233" lon="24.017152"></trkpt>
      <trkpt lat="49.833271" lon="24.018826"></trkpt>
      <trkpt lat="49.832704" lon="24.018552"></trkpt>
      <trkpt lat="49.832401" lon="24.018097"></trkpt>
      <trkpt lat="49.832225" lon="24.018511"></trkpt>
      <trkpt lat="49.829012" lon="24.018355"></trkpt>
      <trkpt lat="49.828049" lon="24.019124"></trkpt>
      <trkpt lat="49.827852" lon="24.019136"></trkpt>
      <trkpt lat="49.826613" lon="24.018027"></trkpt>
      <trkpt lat="49.8251" lon="24.021029"></trkpt>
      <trkpt lat="49.824846" lon="24.020841"></trkpt>
      <trkpt lat="49.805914" lon="24.018893"></trkpt>
      <trkpt lat="49.801921" lon="24.017998"></trkpt>
      <trkpt lat="49.801694" lon="24.017781"></trkpt>
      <trkpt lat="49.787685" lon="24.014701"></trkpt>
      <trkpt lat="49.785323" lon="24.014203"></trkpt>
      <trkpt lat="49.783109" lon="24.013915"></trkpt>
      <trkpt lat="49.778744" lon="24.013902"></trkpt>
      <trkpt lat="49.764434" lon="24.014307"></trkpt>
      <trkpt lat="49.759565" lon="24.014779"></trkpt>
      <trkpt lat="49.755026" lon="24.014923"></trkpt>
      <trkpt lat="49.750514" lon="24.014739"></trkpt>
      <trkpt lat="49.742698" lon="24.014934"></trkpt>
      <trkpt lat="49.742115" lon="24.014861"></trkpt>
      <trkpt lat="49.741348" lon="24.0146"></trkpt>
      <trkpt lat="49.737722" lon="24.012867"></trkpt>
      <trkpt lat="49.7158" lon="24.00211"></trkpt>
      <trkpt lat="49.708942" lon="23.99879"></trkpt>
      <trkpt lat="49.707647" lon="23.998256"></trkpt>
      <trkpt lat="49.707207" lon="23.998279"></trkpt>
      <trkpt lat="49.706746" lon="23.998491"></trkpt>
      <trkpt lat="49.700127" lon="24.002662"></trkpt>
      <trkpt lat="49.692104" lon="24.004025"></trkpt>
      <trkpt lat="49.679862" lon="24.00511"></trkpt>
      <trkpt lat="49.679286" lon="24.004865"></trkpt>
      <trkpt lat="49.67724" lon="24.00305"></trkpt>
      <trkpt lat="49.676073" lon="24.002577"></trkpt>
      <trkpt lat="49.674741" lon="24.002641"></trkpt>
      <trkpt lat="49.67157" lon="24.003558"></trkpt>
      <trkpt lat="49.670292" lon="24.00367"></trkpt>
      <trkpt lat="49.661162" lon="24.002476"></trkpt>
      <trkpt lat="49.630718" lon="23.995388"></trkpt>
      <trkpt lat="49.626927" lon="23.995207"></trkpt>
      <trkpt lat="49.615327" lon="23.99506"></trkpt>
      <trkpt lat="49.614488" lon="23.99514"></trkpt>
      <trkpt lat="49.612983" lon="23.995574"></trkpt>
      <trkpt lat="49.601692" lon="24.000154"></trkpt>
      <trkpt lat="49.600198" lon="24.000864"></trkpt>
      <trkpt lat="49.597509" lon="24.002469"></trkpt>
      <trkpt lat="49.596826" lon="24.002761"></trkpt>
      <trkpt lat="49.595589" lon="24.002966"></trkpt>
      <trkpt lat="49.59442" lon="24.002761"></trkpt>
      <trkpt lat="49.593395" lon="24.002315"></trkpt>
      <trkpt lat="49.578749" lon="23.994311"></trkpt>
      <trkpt lat="49.576589" lon="23.993195"></trkpt>
      <trkpt lat="49.57269" lon="23.99141"></trkpt>
      <trkpt lat="49.571124" lon="23.990913"></trkpt>
      <trkpt lat="49.567367" lon="23.990684"></trkpt>
      <trkpt lat="49.563818" lon="23.989556"></trkpt>
      <trkpt lat="49.55765" lon="23.98838"></trkpt>
      <trkpt lat="49.556852" lon="23.98811"></trkpt>
      <trkpt lat="49.555623" lon="23.987291"></trkpt>
      <trkpt lat="49.554202" lon="23.985778"></trkpt>
      <trkpt lat="49.553576" lon="23.984729"></trkpt>
      <trkpt lat="49.550632" lon="23.97794"></trkpt>
      <trkpt lat="49.547422" lon="23.971708"></trkpt>
      <trkpt lat="49.544822" lon="23.965535"></trkpt>
      <trkpt lat="49.544294" lon="23.963689"></trkpt>
      <trkpt lat="49.5432" lon="23.958367"></trkpt>
      <trkpt lat="49.542495" lon="23.956499"></trkpt>
      <trkpt lat="49.541824" lon="23.955361"></trkpt>
      <trkpt lat="49.541072" lon="23.954525"></trkpt>
      <trkpt lat="49.540261" lon="23.953937"></trkpt>
      <trkpt lat="49.536944" lon="23.952383"></trkpt>
      <trkpt lat="49.533812" lon="23.950446"></trkpt>
      <trkpt lat="49.533063" lon="23.950097"></trkpt>
      <trkpt lat="49.531604" lon="23.949683"></trkpt>
      <trkpt lat="49.529448" lon="23.949317"></trkpt>
      <trkpt lat="49.52815" lon="23.949249"></trkpt>
      <trkpt lat="49.527506" lon="23.949411"></trkpt>
      <trkpt lat="49.527341" lon="23.949259"></trkpt>
      <trkpt lat="49.527281" lon="23.949084"></trkpt>
      <trkpt lat="49.527937" lon="23.946061"></trkpt>
      <trkpt lat="49.528517" lon="23.944531"></trkpt>
      <trkpt lat="49.528937" lon="23.942639"></trkpt>
      <trkpt lat="49.529368" lon="23.939281"></trkpt>
      <trkpt lat="49.529338" lon="23.935291"></trkpt>
      <trkpt lat="49.529699" lon="23.931523"></trkpt>
      <trkpt lat="49.530166" lon="23.930002"></trkpt>
      <trkpt lat="49.53329" lon="23.928309"></trkpt>
      <trkpt lat="49.535314" lon="23.928169"></trkpt>
      <trkpt lat="49.537684" lon="23.926788"></trkpt>
      <trkpt lat="49.541011" lon="23.925042"></trkpt>
      <trkpt lat="49.541638" lon="23.92452"></trkpt>
      <trkpt lat="49.544279" lon="23.923088"></trkpt>
      <trkpt lat="49.544278" lon="23.921892"></trkpt>
      <trkpt lat="49.544388" lon="23.921717"></trkpt>
      <trkpt lat="49.549785" lon="23.918591"></trkpt>
      <trkpt lat="49.550215" lon="23.918471"></trkpt>
      <trkpt lat="49.550815" lon="23.919327"></trkpt>
      <trkpt lat="49.552259" lon="23.917777"></trkpt>
      <trkpt lat="49.55237" lon="23.917941"></trkpt>
      <trkpt lat="49.552258" lon="23.918109"></trkpt>
  </trkseg></trk>
</gpx>
