<?xml version="1.0" encoding="UTF-8"?>
<gpx version="1.1" creator="yatutbuv" xmlns="http://www.topografix.com/GPX/1/1">
  <trk><name>GraphHopper Track</name><trkseg>
      <trkpt lat="49.830668" lon="23.98253"></trkpt>
      <trkpt lat="49.830595" lon="23.982297"></trkpt>
      <trkpt lat="49.828181" lon="23.985321"></trkpt>
      <trkpt lat="49.827437" lon="23.983594"></trkpt>
      <trkpt lat="49.82711" lon="23.98305"></trkpt>
      <trkpt lat="49.826939" lon="23.983005"></trkpt>
      <trkpt lat="49.826456" lon="23.984175"></trkpt>
      <trkpt lat="49.824946" lon="23.989662"></trkpt>
      <trkpt lat="49.820793" lon="23.988469"></trkpt>
      <trkpt lat="49.819006" lon="23.987836"></trkpt>
      <trkpt lat="49.81277" lon="23.984403"></trkpt>
      <trkpt lat="49.812161" lon="23.983424"></trkpt>
      <trkpt lat="49.81191" lon="23.98342"></trkpt>
      <trkpt lat="49.811667" lon="23.983612"></trkpt>
      <trkpt lat="49.811258" lon="23.983575"></trkpt>
      <trkpt lat="49.809091" lon="23.98243"></trkpt>
      <trkpt lat="49.807514" lon="23.981808"></trkpt>
      <trkpt lat="49.806258" lon="23.981529"></trkpt>
      <trkpt lat="49.805725" lon="23.980922"></trkpt>
      <trkpt lat="49.80557" lon="23.980921"></trkpt>
      <trkpt lat="49.805106" lon="23.98125"></trkpt>
      <trkpt lat="49.801153" lon="23.980247"></trkpt>
      <trkpt lat="49.793921" lon="23.979031"></trkpt>
      <trkpt lat="49.791251" lon="23.978651"></trkpt>
      <trkpt lat="49.788617" lon="23.978437"></trkpt>
      <trkpt lat="49.78755" lon="23.977715"></trkpt>
      <trkpt lat="49.787072" lon="23.977281"></trkpt>
      <trkpt lat="49.786437" lon="23.97626"></trkpt>
      <trkpt lat="49.784845" lon="23.97321"></trkpt>
      <trkpt lat="49.783618" lon="23.970071"></trkpt>
      <trkpt lat="49.782709" lon="23.96876"></trkpt>
      <trkpt lat="49.781801" lon="23.968054"></trkpt>
      <trkpt lat="49.777974" lon="23.96622"></trkpt>
      <trkpt lat="49.772897" lon="23.96332"></trkpt>
      <trkpt lat="49.769806" lon="23.96144"></trkpt>
      <trkpt lat="49.767819" lon="23.960052"></trkpt>
      <trkpt lat="49.766895" lon="23.95887"></trkpt>
      <trkpt lat="49.76511" lon="23.955807"></trkpt>
      <trkpt lat="49.763916" lon="23.954447"></trkpt>
      <trkpt lat="49.762557" lon="23.95314"></trkpt>
      <trkpt lat="49.759086" lon="23.950563"></trkpt>
      <trkpt lat="49.757365" lon="23.948705"></trkpt>
      <trkpt lat="49.753084" lon="23.941616"></trkpt>
      <trkpt lat="49.750698" lon="23.936598"></trkpt>
      <trkpt lat="49.749783" lon="23.934419"></trkpt>
      <trkpt lat="49.74951" lon="23.93323"></trkpt>
      <trkpt lat="49.749202" lon="23.929804"></trkpt>
      <trkpt lat="49.748077" lon="23.921303"></trkpt>
      <trkpt lat="49.74761" lon="23.918854"></trkpt>
      <trkpt lat="49.747197" lon="23.917622"></trkpt>
      <trkpt lat="49.746743" lon="23.916727"></trkpt>
      <trkpt lat="49.74429" lon="23.912873"></trkpt>
      <trkpt lat="49.742619" lon="23.910671"></trkpt>
      <trkpt lat="49.740745" lon="23.908711"></trkpt>
      <trkpt lat="49.739935" lon="23.908001"></trkpt>
      <trkpt lat="49.739054" lon="23.907501"></trkpt>
      <trkpt lat="49.735468" lon="23.906445"></trkpt>
      <trkpt lat="49.732585" lon="23.906166"></trkpt>
      <trkpt lat="49.730665" lon="23.905325"></trkpt>
      <trkpt lat="49.72971" lon="23.904571"></trkpt>
      <trkpt lat="49.729315" lon="23.904124"></trkpt>
      <trkpt lat="49.726676" lon="23.900365"></trkpt>
      <trkpt lat="49.726244" lon="23.899693"></trkpt>
      <trkpt lat="49.726092" lon="23.899204"></trkpt>
      <trkpt lat="49.725077" lon="23.899813"></trkpt>
      <trkpt lat="49.724432" lon="23.900651"></trkpt>
      <trkpt lat="49.722051" lon="23.902475"></trkpt>
      <trkpt lat="49.718756" lon="23.904525"></trkpt>
      <trkpt lat="49.71693" lon="23.906603"></trkpt>
      <trkpt lat="49.715693" lon="23.908314"></trkpt>
      <trkpt lat="49.715108" lon="23.908826"></trkpt>
      <trkpt lat="49.710469" lon="23.910742"></trkpt>
      <trkpt lat="49.708168" lon="23.912043"></trkpt>
      <trkpt lat="49.706713" lon="23.913151"></trkpt>
      <trkpt lat="49.706226" lon="23.913225"></trkpt>
      <trkpt lat="49.705919" lon="23.913044"></trkpt>
      <trkpt lat="49.70445" lon="23.911146"></trkpt>
      <trkpt lat="49.703406" lon="23.908949"></trkpt>
      <trkpt lat="49.702489" lon="23.906208"></trkpt>
      <trkpt lat="49.701584" lon="23.904834"></trkpt>
      <trkpt lat="49.698754" lon="23.902018"></trkpt>
      <trkpt lat="49.688013" lon="23.891911"></trkpt>
      <trkpt lat="49.686906" lon="23.89131"></trkpt>
      <trkpt lat="49.67855" lon="23.888578"></trkpt>
      <trkpt lat="49.676244" lon="23.887417"></trkpt>
      <trkpt lat="49.674776" lon="23.886434"></trkpt>
      <trkpt lat="49.664944" lon="23.878586"></trkpt>
      <trkpt lat="49.663569" lon="23.87792"></trkpt>
      <trkpt lat="49.660794" lon="23.877248"></trkpt>
      <trkpt lat="49.65988" lon="23.876588"></trkpt>
      <trkpt lat="49.659064" lon="23.875599"></trkpt>
      <trkpt lat="49.656541" lon="23.870457"></trkpt>
      <trkpt lat="49.65646" lon="23.869841"></trkpt>
      <trkpt lat="49.656532" lon="23.863248"></trkpt>
      <trkpt lat="49.656451" lon="23.862454"></trkpt>
      <trkpt lat="49.656112" lon="23.861692"></trkpt>
      <trkpt lat="49.65447" lon="23.859493"></trkpt>
      <trkpt lat="49.651202" lon="23.856773"></trkpt>
      <trkpt lat="49.650509" lon="23.856336"></trkpt>
      <trkpt lat="49.649867" lon="23.856096"></trkpt>
      <trkpt lat="49.649143" lon="23.856085"></trkpt>
      <trkpt lat="49.648917" lon="23.856798"></trkpt>
      <trkpt lat="49.648572" lon="23.857099"></trkpt>
      <trkpt lat="49.647478" lon="23.856707"></trkpt>
      <trkpt lat="49.646923" lon="23.85662"></trkpt>
      <trkpt lat="49.645982" lon="23.857361"></trkpt>
      <trkpt lat="49.644961" lon="23.857556"></trkpt>
      <trkpt lat="49.643805" lon="23.857142"></trkpt>
      <trkpt lat="49.642283" lon="23.857203"></trkpt>
      <trkpt lat="49.641778" lon="23.857006"></trkpt>
      <trkpt lat="49.641289" lon="23.855988"></trkpt>
      <trkpt lat="49.640173" lon="23.854998"></trkpt>
      <trkpt lat="49.639797" lon="23.854286"></trkpt>
      <trkpt lat="49.637732" lon="23.844591"></trkpt>
      <trkpt lat="49.636948" lon="23.842566"></trkpt>
      <trkpt lat="49.63565" lon="23.839891"></trkpt>
      <trkpt lat="49.634731" lon="23.838315"></trkpt>
      <trkpt lat="49.632904" lon="23.83605"></trkpt>
      <trkpt lat="49.632204" lon="23.834957"></trkpt>
      <trkpt lat="49.628785" lon="23.82742"></trkpt>
      <trkpt lat="49.627544" lon="23.825136"></trkpt>
      <trkpt lat="49.624086" lon="23.82055"></trkpt>
      <trkpt lat="49.623435" lon="23.819939"></trkpt>
      <trkpt lat="49.622399" lon="23.819245"></trkpt>
      <trkpt lat="49.611331" lon="23.813531"></trkpt>
      <trkpt lat="49.610378" lon="23.813151"></trkpt>
      <trkpt lat="49.609097" lon="23.812961"></trkpt>
      <trkpt lat="49.602892" lon="23.813865"></trkpt>
      <trkpt lat="49.601546" lon="23.81374"></trkpt>
      <trkpt lat="49.583439" lon="23.808818"></trkpt>
      <trkpt lat="49.578248" lon="23.807031"></trkpt>
      <trkpt lat="49.577256" lon="23.80713"></trkpt>
      <trkpt lat="49.57336" lon="23.808563"></trkpt>
      <trkpt lat="49.57289" lon="23.808188"></trkpt>
      <trkpt lat="49.572306" lon="23.808811"></trkpt>
      <trkpt lat="49.571645" lon="23.809188"></trkpt>
      <trkpt lat="49.570949" lon="23.809406"></trkpt>
      <trkpt lat="49.549656" lon="23.809311"></trkpt>
      <trkpt lat="49.548159" lon="23.809048"></trkpt>
      <trkpt lat="49.544487" lon="23.807939"></trkpt>
      <trkpt lat="49.541753" lon="23.806331"></trkpt>
      <trkpt lat="49.538152" lon="23.804958"></trkpt>
      <trkpt lat="49.535534" lon="23.804463"></trkpt>
      <trkpt lat="49.53272" lon="23.802564"></trkpt>
      <trkpt lat="49.531467" lon="23.801883"></trkpt>
      <trkpt lat="49.530701" lon="23.801809"></trkpt>
      <trkpt lat="49.525342" lon="23.802385"></trkpt>
      <trkpt lat="49.523858" lon="23.802342"></trkpt>
      <trkpt lat="49.523029" lon="23.802137"></trkpt>
      <trkpt lat="49.52142" lon="23.801563"></trkpt>
      <trkpt lat="49.516004" lon="23.799201"></trkpt>
      <trkpt lat="49.514106" lon="23.798162"></trkpt>
      <trkpt lat="49.509642" lon="23.794375"></trkpt>
      <trkpt lat="49.508723" lon="23.793807"></trkpt>
      <trkpt lat="49.506823" lon="23.792994"></trkpt>
      <trkpt lat="49.506343" lon="23.792679"></trkpt>
      <trkpt lat="49.50452" lon="23.790883"></trkpt>
      <trkpt lat="49.495543" lon="23.782737"></trkpt>
      <trkpt lat="49.493589" lon="23.781559"></trkpt>
      <trkpt lat="49.480253" lon="23.775286"></trkpt>
      <trkpt lat="49.478046" lon="23.774283"></trkpt>
      <trkpt lat="49.477107" lon="23.773998"></trkpt>
      <trkpt lat="49.476281" lon="23.773795"></trkpt>
      <trkpt lat="49.474825" lon="23.773665"></trkpt>
      <trkpt lat="49.461669" lon="23.77346"></trkpt>
      <trkpt lat="49.460682" lon="23.77325"></trkpt>
      <trkpt lat="49.45978" lon="23.772752"></trkpt>
      <trkpt lat="49.450515" lon="23.765216"></trkpt>
      <trkpt lat="49.445623" lon="23.760265"></trkpt>
      <trkpt lat="49.44468" lon="23.759443"></trkpt>
      <trkpt lat="49.437193" lon="23.753813"></trkpt>
      <trkpt lat="49.43472" lon="23.753593"></trkpt>
      <trkpt lat="49.433287" lon="23.752439"></trkpt>
      <trkpt lat="49.432819" lon="23.751282"></trkpt>
      <trkpt lat="49.432562" lon="23.751045"></trkpt>
      <trkpt lat="49.432266" lon="23.751041"></trkpt>
      <trkpt lat="49.430753" lon="23.751673"></trkpt>
      <trkpt lat="49.4301" lon="23.751738"></trkpt>
      <trkpt lat="49.429976" lon="23.751596"></trkpt>
      <trkpt lat="49.428858" lon="23.751189"></trkpt>
      <trkpt lat="49.427317" lon="23.751221"></trkpt>
      <trkpt lat="49.426991" lon="23.751132"></trkpt>
      <trkpt lat="49.426721" lon="23.749613"></trkpt>
      <trkpt lat="49.425714" lon="23.748597"></trkpt>
      <trkpt lat="49.425499" lon="23.74797"></trkpt>
      <trkpt lat="49.4256" lon="23.746837"></trkpt>
      <trkpt lat="49.426743" lon="23.743523"></trkpt>
      <trkpt lat="49.426797" lon="23.742703"></trkpt>
      <trkpt lat="49.42387" lon="23.726744"></trkpt>
      <trkpt lat="49.422345" lon="23.720164"></trkpt>
      <trkpt lat="49.421902" lon="23.718848"></trkpt>
      <trkpt lat="49.418367" lon="23.711133"></trkpt>
      <trkpt lat="49.414977" lon="23.701989"></trkpt>
      <trkpt lat="49.415037" lon="23.70156"></trkpt>
      <trkpt lat="49.415263" lon="23.701288"></trkpt>
      <trkpt lat="49.417448" lon="23.699512"></trkpt>
      <trkpt lat="49.416833" lon="23.697455"></trkpt>
      <trkpt lat="49.416776" lon="23.696694"></trkpt>
      <trkpt lat="49.41689" lon="23.695324"></trkpt>
      <trkpt lat="49.416775" lon="23.694428"></trkpt>
      <trkpt lat="49.416265" lon="23.692626"></trkpt>
      <trkpt lat="49.415608" lon="23.690908"></trkpt>
      <trkpt lat="49.40749" lon="23.679951"></trkpt>
      <trkpt lat="49.402121" lon="23.674802"></trkpt>
      <trkpt lat="49.39938" lon="23.672346"></trkpt>
      <trkpt lat="49.392681" lon="23.664039"></trkpt>
      <trkpt lat="49.392117" lon="23.663473"></trkpt>
      <trkpt lat="49.390696" lon="23.662389"></trkpt>
      <trkpt lat="49.39017" lon="23.661743"></trkpt>
      <trkpt lat="49.386721" lon="23.652501"></trkpt>
      <trkpt lat="49.386525" lon="23.651201"></trkpt>
      <trkpt lat="49.386474" lon="23.64818"></trkpt>
      <trkpt lat="49.386202" lon="23.647042"></trkpt>
      <trkpt lat="49.385693" lon="23.645832"></trkpt>
      <trkpt lat="49.381659" lon="23.637868"></trkpt>
      <trkpt lat="49.375217" lon="23.626181"></trkpt>
      <trkpt lat="49.372325" lon="23.621037"></trkpt>
      <trkpt lat="49.366594" lon="23.612254"></trkpt>
      <trkpt lat="49.365833" lon="23.609867"></trkpt>
      <trkpt lat="49.365374" lon="23.608891"></trkpt>
      <trkpt lat="49.360504" lon="23.600756"></trkpt>
      <trkpt lat="49.358109" lon="23.594888"></trkpt>
      <trkpt lat="49.357766" lon="23.593806"></trkpt>
      <trkpt lat="49.357671" lon="23.592481"></trkpt>
      <trkpt lat="49.357837" lon="23.589963"></trkpt>
      <trkpt lat="49.357625" lon="23.588667"></trkpt>
      <trkpt lat="49.35726" lon="23.587812"></trkpt>
      <trkpt lat="49.356361" lon="23.586325"></trkpt>
      <trkpt lat="49.353884" lon="23.582871"></trkpt>
      <trkpt lat="49.353548" lon="23.582231"></trkpt>
      <trkpt lat="49.353088" lon="23.582035"></trkpt>
      <trkpt lat="49.339936" lon="23.573029"></trkpt>
      <trkpt lat="49.339474" lon="23.572378"></trkpt>
      <trkpt lat="49.338995" lon="23.572013"></trkpt>
      <trkpt lat="49.338435" lon="23.571989"></trkpt>
      <trkpt lat="49.33599" lon="23.570328"></trkpt>
      <trkpt lat="49.331068" lon="23.567687"></trkpt>
      <trkpt lat="49.328348" lon="23.565812"></trkpt>
      <trkpt lat="49.326464" lon="23.564063"></trkpt>
      <trkpt lat="49.32525" lon="23.562448"></trkpt>
      <trkpt lat="49.32369" lon="23.559921"></trkpt>
      <trkpt lat="49.323161" lon="23.558434"></trkpt>
      <trkpt lat="49.322903" lon="23.557113"></trkpt>
      <trkpt lat="49.318923" lon="23.528961"></trkpt>
      <trkpt lat="49.314521" lon="23.512991"></trkpt>
      <trkpt lat="49.313668" lon="23.510105"></trkpt>
      <trkpt lat="49.312561" lon="23.506913"></trkpt>
      <trkpt lat="49.309586" lon="23.508427"></trkpt>
      <trkpt lat="49.304641" lon="23.51053"></trkpt>
      <trkpt lat="49.297767" lon="23.51008"></trkpt>
      <trkpt lat="49.286834" lon="23.505311"></trkpt>
      <trkpt lat="49.286386" lon="23.505433"></trkpt>
      <trkpt lat="49.283975" lon="23.505265"></trkpt>
      <trkpt lat="49.282707" lon="23.503729"></trkpt>
      <trkpt lat="49.282484" lon="23.503607"></trkpt>
      <trkpt lat="49.281314" lon="23.503467"></trkpt>
      <trkpt lat="49.280673" lon="23.503615"></trkpt>
      <trkpt lat="49.280466" lon="23.500737"></trkpt>
      <trkpt lat="49.280915" lon="23.499178"></trkpt>
      <trkpt lat="49.280485" lon="23.49902"></trkpt>
      <trkpt lat="49.278824" lon="23.499163"></trkpt>
      <trkpt lat="49.27776" lon="23.499803"></trkpt>
      <trkpt lat="49.278466" lon="23.502667"></trkpt>
      <trkpt lat="49.278834" lon="23.503334"></trkpt>
      <trkpt lat="49.279229" lon="23.504587"></trkpt>
  </trkseg></trk>
</gpx>
