<?xml version="1.0" encoding="UTF-8"?>
<gpx version="1.1" creator="yatutbuv" xmlns="http://www.topografix.com/GPX/1/1">
  <trk><name>GraphHopper Track</name><trkseg>
      <trkpt lat="50.404591" lon="30.62224"></trkpt>
      <trkpt lat="50.406838" lon="30.620795"></trkpt>
      <trkpt lat="50.405113" lon="30.61391"></trkpt>
      <trkpt lat="50.405855" lon="30.612799"></trkpt>
      <trkpt lat="50.406289" lon="30.611742"></trkpt>
      <trkpt lat="50.408642" lon="30.60384"></trkpt>
      <trkpt lat="50.409155" lon="30.602494"></trkpt>
      <trkpt lat="50.410064" lon="30.600691"></trkpt>
      <trkpt lat="50.411867" lon="30.597633"></trkpt>
      <trkpt lat="50.412794" lon="30.59635"></trkpt>
      <trkpt lat="50.413779" lon="30.595552"></trkpt>
      <trkpt lat="50.417528" lon="30.593391"></trkpt>
      <trkpt lat="50.418492" lon="30.592884"></trkpt>
      <trkpt lat="50.41932" lon="30.592667"></trkpt>
      <trkpt lat="50.427656" lon="30.592535"></trkpt>
      <trkpt lat="50.429718" lon="30.592763"></trkpt>
      <trkpt lat="50.430885" lon="30.592654"></trkpt>
      <trkpt lat="50.431334" lon="30.592756"></trkpt>
      <trkpt lat="50.431453" lon="30.593298"></trkpt>
      <trkpt lat="50.431236" lon="30.59366"></trkpt>
      <trkpt lat="50.430863" lon="30.593516"></trkpt>
      <trkpt lat="50.430686" lon="30.593296"></trkpt>
      <trkpt lat="50.430262" lon="30.592086"></trkpt>
      <trkpt lat="50.423841" lon="30.570131"></trkpt>
      <trkpt lat="50.423683" lon="30.567429"></trkpt>
      <trkpt lat="50.424512" lon="30.56329"></trkpt>
      <trkpt lat="50.424596" lon="30.561337"></trkpt>
      <trkpt lat="50.422643" lon="30.553852"></trkpt>
      <trkpt lat="50.421852" lon="30.551819"></trkpt>
      <trkpt lat="50.420828" lon="30.549808"></trkpt>
      <trkpt lat="50.420827" lon="30.549329"></trkpt>
      <trkpt lat="50.421078" lon="30.548392"></trkpt>
      <trkpt lat="50.421099" lon="30.547657"></trkpt>
      <trkpt lat="50.42082" lon="30.546714"></trkpt>
      <trkpt lat="50.423583" lon="30.543187"></trkpt>
      <trkpt lat="50.425204" lon="30.542008"></trkpt>
      <trkpt lat="50.429722" lon="30.536614"></trkpt>
      <trkpt lat="50.435642" lon="30.529308"></trkpt>
      <trkpt lat="50.438341" lon="30.525704"></trkpt>
      <trkpt lat="50.438961" lon="30.5252"></trkpt>
      <trkpt lat="50.440397" lon="30.522838"></trkpt>
      <trkpt lat="50.44066" lon="30.522658"></trkpt>
      <trkpt lat="50.4425" lon="30.522231"></trkpt>
      <trkpt lat="50.442705" lon="30.521934"></trkpt>
      <trkpt lat="50.442826" lon="30.521132"></trkpt>
      <trkpt lat="50.442492" lon="30.520049"></trkpt>
      <trkpt lat="50.452201" lon="30.46032"></trkpt>
      <trkpt lat="50.459023" lon="30.418893"></trkpt>
      <trkpt lat="50.459484" lon="30.416738"></trkpt>
      <trkpt lat="50.459593" lon="30.415379"></trkpt>
      <trkpt lat="50.458933" lon="30.409817"></trkpt>
      <trkpt lat="50.452691" lon="30.314656"></trkpt>
      <trkpt lat="50.445138" lon="30.209142"></trkpt>
      <trkpt lat="50.443349" lon="30.18804"></trkpt>
      <trkpt lat="50.434618" lon="30.078932"></trkpt>
      <trkpt lat="50.427948" lon="29.993753"></trkpt>
      <trkpt lat="50.418707" lon="29.838228"></trkpt>
      <trkpt lat="50.416254" lon="29.760881"></trkpt>
      <trkpt lat="50.416275" lon="29.757286"></trkpt>
      <trkpt lat="50.416539" lon="29.753287"></trkpt>
      <trkpt lat="50.417244" lon="29.748218"></trkpt>
      <trkpt lat="50.422845" lon="29.723576"></trkpt>
      <trkpt lat="50.423353" lon="29.720348"></trkpt>
      <trkpt lat="50.423656" lon="29.706849"></trkpt>
      <trkpt lat="50.424127" lon="29.675218"></trkpt>
      <trkpt lat="50.424059" lon="29.672417"></trkpt>
      <trkpt lat="50.422251" lon="29.659513"></trkpt>
      <trkpt lat="50.396366" lon="29.526266"></trkpt>
      <trkpt lat="50.38294" lon="29.454744"></trkpt>
      <trkpt lat="50.365567" lon="29.363188"></trkpt>
      <trkpt lat="50.338429" lon="29.201393"></trkpt>
      <trkpt lat="50.322524" lon="29.110562"></trkpt>
      <trkpt lat="50.322346" lon="29.107817"></trkpt>
      <trkpt lat="50.322637" lon="29.103993"></trkpt>
      <trkpt lat="50.323349" lon="29.101067"></trkpt>
      <trkpt lat="50.324111" lon="29.099232"></trkpt>
      <trkpt lat="50.325048" lon="29.097631"></trkpt>
      <trkpt lat="50.326219" lon="29.096169"></trkpt>
      <trkpt lat="50.338012" lon="29.084716"></trkpt>
      <trkpt lat="50.339372" lon="29.083082"></trkpt>
      <trkpt lat="50.340136" lon="29.081343"></trkpt>
      <trkpt lat="50.344947" lon="29.064405"></trkpt>
      <trkpt lat="50.345444" lon="29.062273"></trkpt>
      <trkpt lat="50.345854" lon="29.059187"></trkpt>
      <trkpt lat="50.345911" lon="29.05776"></trkpt>
      <trkpt lat="50.345784" lon="29.054989"></trkpt>
      <trkpt lat="50.342508" lon="29.033443"></trkpt>
      <trkpt lat="50.341104" lon="29.025324"></trkpt>
      <trkpt lat="50.330745" lon="28.96949"></trkpt>
      <trkpt lat="50.330034" lon="28.966278"></trkpt>
      <trkpt lat="50.32907" lon="28.963518"></trkpt>
      <trkpt lat="50.328034" lon="28.961487"></trkpt>
      <trkpt lat="50.327467" lon="28.960618"></trkpt>
      <trkpt lat="50.326765" lon="28.959701"></trkpt>
      <trkpt lat="50.325546" lon="28.958405"></trkpt>
      <trkpt lat="50.323743" lon="28.957079"></trkpt>
      <trkpt lat="50.312515" lon="28.949581"></trkpt>
      <trkpt lat="50.310137" lon="28.947609"></trkpt>
      <trkpt lat="50.307972" lon="28.94549"></trkpt>
      <trkpt lat="50.292614" lon="28.927901"></trkpt>
      <trkpt lat="50.291744" lon="28.926567"></trkpt>
      <trkpt lat="50.291072" lon="28.925244"></trkpt>
      <trkpt lat="50.290448" lon="28.9236"></trkpt>
      <trkpt lat="50.289972" lon="28.921886"></trkpt>
      <trkpt lat="50.288581" lon="28.914004"></trkpt>
      <trkpt lat="50.288366" lon="28.911885"></trkpt>
      <trkpt lat="50.286484" lon="28.811023"></trkpt>
      <trkpt lat="50.286772" lon="28.808177"></trkpt>
      <trkpt lat="50.287453" lon="28.805132"></trkpt>
      <trkpt lat="50.288397" lon="28.802523"></trkpt>
      <trkpt lat="50.289841" lon="28.799881"></trkpt>
      <trkpt lat="50.290686" lon="28.79876"></trkpt>
      <trkpt lat="50.296531" lon="28.79206"></trkpt>
      <trkpt lat="50.297913" lon="28.79087"></trkpt>
      <trkpt lat="50.311981" lon="28.777503"></trkpt>
      <trkpt lat="50.313991" lon="28.775721"></trkpt>
      <trkpt lat="50.315296" lon="28.774253"></trkpt>
      <trkpt lat="50.317167" lon="28.771219"></trkpt>
      <trkpt lat="50.318238" lon="28.768668"></trkpt>
      <trkpt lat="50.318818" lon="28.76696"></trkpt>
      <trkpt lat="50.319256" lon="28.765132"></trkpt>
      <trkpt lat="50.319638" lon="28.762642"></trkpt>
      <trkpt lat="50.319832" lon="28.759839"></trkpt>
      <trkpt lat="50.319975" lon="28.754208"></trkpt>
      <trkpt lat="50.320282" lon="28.730748"></trkpt>
      <trkpt lat="50.320005" lon="28.726489"></trkpt>
      <trkpt lat="50.318194" lon="28.705753"></trkpt>
      <trkpt lat="50.318108" lon="28.702544"></trkpt>
      <trkpt lat="50.318181" lon="28.700054"></trkpt>
      <trkpt lat="50.318526" lon="28.696965"></trkpt>
      <trkpt lat="50.319148" lon="28.693531"></trkpt>
      <trkpt lat="50.327363" lon="28.652179"></trkpt>
      <trkpt lat="50.327725" lon="28.648365"></trkpt>
      <trkpt lat="50.326676" lon="28.616843"></trkpt>
      <trkpt lat="50.326578" lon="28.616639"></trkpt>
      <trkpt lat="50.32645" lon="28.612877"></trkpt>
      <trkpt lat="50.326126" lon="28.608605"></trkpt>
      <trkpt lat="50.326063" lon="28.603946"></trkpt>
      <trkpt lat="50.326248" lon="28.601508"></trkpt>
      <trkpt lat="50.325719" lon="28.585928"></trkpt>
      <trkpt lat="50.325443" lon="28.582765"></trkpt>
      <trkpt lat="50.324719" lon="28.578365"></trkpt>
      <trkpt lat="50.316177" lon="28.538749"></trkpt>
      <trkpt lat="50.315232" lon="28.534808"></trkpt>
      <trkpt lat="50.314116" lon="28.531199"></trkpt>
      <trkpt lat="50.312318" lon="28.526804"></trkpt>
      <trkpt lat="50.30558" lon="28.513758"></trkpt>
      <trkpt lat="50.304387" lon="28.510995"></trkpt>
      <trkpt lat="50.303448" lon="28.50738"></trkpt>
      <trkpt lat="50.303155" lon="28.505123"></trkpt>
      <trkpt lat="50.30305" lon="28.502756"></trkpt>
      <trkpt lat="50.30321" lon="28.499961"></trkpt>
      <trkpt lat="50.303463" lon="28.498231"></trkpt>
      <trkpt lat="50.307298" lon="28.477254"></trkpt>
      <trkpt lat="50.328864" lon="28.36185"></trkpt>
      <trkpt lat="50.329381" lon="28.360472"></trkpt>
      <trkpt lat="50.329958" lon="28.359437"></trkpt>
      <trkpt lat="50.43423" lon="28.190487"></trkpt>
      <trkpt lat="50.438446" lon="28.183613"></trkpt>
      <trkpt lat="50.439303" lon="28.181819"></trkpt>
      <trkpt lat="50.458164" lon="28.119042"></trkpt>
      <trkpt lat="50.485393" lon="28.027502"></trkpt>
      <trkpt lat="50.514591" lon="27.928697"></trkpt>
      <trkpt lat="50.552079" lon="27.800991"></trkpt>
      <trkpt lat="50.553273" lon="27.797839"></trkpt>
      <trkpt lat="50.567081" lon="27.768194"></trkpt>
      <trkpt lat="50.567773" lon="27.766208"></trkpt>
      <trkpt lat="50.582138" lon="27.685032"></trkpt>
      <trkpt lat="50.582995" lon="27.680706"></trkpt>
      <trkpt lat="50.583711" lon="27.67832"></trkpt>
      <trkpt lat="50.584517" lon="27.676394"></trkpt>
      <trkpt lat="50.585175" lon="27.675151"></trkpt>
      <trkpt lat="50.585932" lon="27.674056"></trkpt>
      <trkpt lat="50.587255" lon="27.672513"></trkpt>
      <trkpt lat="50.590634" lon="27.669664"></trkpt>
      <trkpt lat="50.591857" lon="27.668432"></trkpt>
      <trkpt lat="50.596309" lon="27.662492"></trkpt>
      <trkpt lat="50.596984" lon="27.661728"></trkpt>
      <trkpt lat="50.59823" lon="27.660645"></trkpt>
      <trkpt lat="50.600976" lon="27.658958"></trkpt>
      <trkpt lat="50.602279" lon="27.658393"></trkpt>
      <trkpt lat="50.603369" lon="27.658128"></trkpt>
      <trkpt lat="50.604689" lon="27.658049"></trkpt>
      <trkpt lat="50.605501" lon="27.658115"></trkpt>
      <trkpt lat="50.606941" lon="27.658483"></trkpt>
      <trkpt lat="50.617451" lon="27.661922"></trkpt>
      <trkpt lat="50.618639" lon="27.662095"></trkpt>
      <trkpt lat="50.620067" lon="27.661912"></trkpt>
      <trkpt lat="50.62152" lon="27.661267"></trkpt>
      <trkpt lat="50.622231" lon="27.660747"></trkpt>
      <trkpt lat="50.622999" lon="27.660034"></trkpt>
      <trkpt lat="50.623656" lon="27.659194"></trkpt>
      <trkpt lat="50.624271" lon="27.658236"></trkpt>
      <trkpt lat="50.625112" lon="27.656545"></trkpt>
      <trkpt lat="50.625438" lon="27.655643"></trkpt>
      <trkpt lat="50.625992" lon="27.653304"></trkpt>
      <trkpt lat="50.626198" lon="27.650567"></trkpt>
      <trkpt lat="50.626009" lon="27.647714"></trkpt>
      <trkpt lat="50.619082" lon="27.610622"></trkpt>
      <trkpt lat="50.617897" lon="27.60541"></trkpt>
      <trkpt lat="50.616387" lon="27.601242"></trkpt>
      <trkpt lat="50.612024" lon="27.590391"></trkpt>
      <trkpt lat="50.611333" lon="27.588942"></trkpt>
      <trkpt lat="50.61003" lon="27.586844"></trkpt>
      <trkpt lat="50.608937" lon="27.585593"></trkpt>
      <trkpt lat="50.60699" lon="27.583671"></trkpt>
      <trkpt lat="50.606089" lon="27.582591"></trkpt>
      <trkpt lat="50.604554" lon="27.580195"></trkpt>
      <trkpt lat="50.603511" lon="27.578025"></trkpt>
      <trkpt lat="50.596081" lon="27.560236"></trkpt>
      <trkpt lat="50.595451" lon="27.557991"></trkpt>
      <trkpt lat="50.595109" lon="27.55622"></trkpt>
      <trkpt lat="50.594906" lon="27.55285"></trkpt>
      <trkpt lat="50.595126" lon="27.548988"></trkpt>
      <trkpt lat="50.596892" lon="27.53566"></trkpt>
      <trkpt lat="50.603223" lon="27.484921"></trkpt>
      <trkpt lat="50.607864" lon="27.364422"></trkpt>
      <trkpt lat="50.613012" lon="27.289393"></trkpt>
      <trkpt lat="50.617233" lon="27.225055"></trkpt>
      <trkpt lat="50.617125" lon="27.222588"></trkpt>
      <trkpt lat="50.61679" lon="27.220169"></trkpt>
      <trkpt lat="50.616186" lon="27.217682"></trkpt>
      <trkpt lat="50.615317" lon="27.215315"></trkpt>
      <trkpt lat="50.61439" lon="27.213498"></trkpt>
      <trkpt lat="50.605333" lon="27.198136"></trkpt>
      <trkpt lat="50.60383" lon="27.194583"></trkpt>
      <trkpt lat="50.60295" lon="27.191449"></trkpt>
      <trkpt lat="50.602478" lon="27.18896"></trkpt>
      <trkpt lat="50.602192" lon="27.186484"></trkpt>
      <trkpt lat="50.599039" lon="27.143955"></trkpt>
      <trkpt lat="50.599013" lon="27.141775"></trkpt>
      <trkpt lat="50.599141" lon="27.139342"></trkpt>
      <trkpt lat="50.599558" lon="27.136165"></trkpt>
      <trkpt lat="50.599941" lon="27.134401"></trkpt>
      <trkpt lat="50.60062" lon="27.131842"></trkpt>
      <trkpt lat="50.610125" lon="27.100249"></trkpt>
      <trkpt lat="50.610652" lon="27.098146"></trkpt>
      <trkpt lat="50.610944" lon="27.096399"></trkpt>
      <trkpt lat="50.611165" lon="27.092588"></trkpt>
      <trkpt lat="50.611004" lon="27.090051"></trkpt>
      <trkpt lat="50.603824" lon="27.035653"></trkpt>
      <trkpt lat="50.60273" lon="27.026335"></trkpt>
      <trkpt lat="50.594809" lon="26.875139"></trkpt>
      <trkpt lat="50.594905" lon="26.873003"></trkpt>
      <trkpt lat="50.608582" lon="26.730192"></trkpt>
      <trkpt lat="50.613789" lon="26.674212"></trkpt>
      <trkpt lat="50.614942" lon="26.663102"></trkpt>
      <trkpt lat="50.615349" lon="26.657572"></trkpt>
      <trkpt lat="50.615178" lon="26.655274"></trkpt>
      <trkpt lat="50.614782" lon="26.653404"></trkpt>
      <trkpt lat="50.614678" lon="26.653378"></trkpt>
      <trkpt lat="50.614536" lon="26.653565"></trkpt>
      <trkpt lat="50.614899" lon="26.654722"></trkpt>
      <trkpt lat="50.615143" lon="26.656476"></trkpt>
      <trkpt lat="50.614593" lon="26.656749"></trkpt>
      <trkpt lat="50.607632" lon="26.664705"></trkpt>
      <trkpt lat="50.606978" lon="26.664956"></trkpt>
      <trkpt lat="50.603751" lon="26.665186"></trkpt>
      <trkpt lat="50.602869" lon="26.664845"></trkpt>
      <trkpt lat="50.602523" lon="26.664815"></trkpt>
      <trkpt lat="50.601373" lon="26.666023"></trkpt>
      <trkpt lat="50.599898" lon="26.666569"></trkpt>
      <trkpt lat="50.598409" lon="26.66947"></trkpt>
      <trkpt lat="50.596668" lon="26.669537"></trkpt>
      <trkpt lat="50.595802" lon="26.669374"></trkpt>
      <trkpt lat="50.59518" lon="26.669381"></trkpt>
      <trkpt lat="50.594927" lon="26.669549"></trkpt>
      <trkpt lat="50.594738" lon="26.670004"></trkpt>
      <trkpt lat="50.594085" lon="26.669509"></trkpt>
      <trkpt lat="50.593042" lon="26.6665"></trkpt>
      <trkpt lat="50.592656" lon="26.665947"></trkpt>
      <trkpt lat="50.588511" lon="26.665936"></trkpt>
      <trkpt lat="50.572428" lon="26.662963"></trkpt>
      <trkpt lat="50.522987" lon="26.641393"></trkpt>
      <trkpt lat="50.51535" lon="26.638153"></trkpt>
      <trkpt lat="50.510116" lon="26.638769"></trkpt>
      <trkpt lat="50.509594" lon="26.639153"></trkpt>
      <trkpt lat="50.508941" lon="26.640104"></trkpt>
      <trkpt lat="50.508705" lon="26.640221"></trkpt>
      <trkpt lat="50.505234" lon="26.637663"></trkpt>
      <trkpt lat="50.501548" lon="26.636389"></trkpt>
      <trkpt lat="50.497381" lon="26.635138"></trkpt>
      <trkpt lat="50.485705" lon="26.633824"></trkpt>
      <trkpt lat="50.483935" lon="26.633754"></trkpt>
      <trkpt lat="50.481424" lon="26.633742"></trkpt>
      <trkpt lat="50.466134" lon="26.634395"></trkpt>
      <trkpt lat="50.451441" lon="26.631859"></trkpt>
      <trkpt lat="50.451196" lon="26.63213"></trkpt>
      <trkpt lat="50.450244" lon="26.635422"></trkpt>
      <trkpt lat="50.44997" lon="26.635977"></trkpt>
      <trkpt lat="50.449487" lon="26.63625"></trkpt>
      <trkpt lat="50.445462" lon="26.635979"></trkpt>
      <trkpt lat="50.432627" lon="26.632922"></trkpt>
      <trkpt lat="50.427746" lon="26.631631"></trkpt>
      <trkpt lat="50.427348" lon="26.631772"></trkpt>
      <trkpt lat="50.42288" lon="26.634739"></trkpt>
      <trkpt lat="50.415032" lon="26.632833"></trkpt>
      <trkpt lat="50.412538" lon="26.633742"></trkpt>
      <trkpt lat="50.410221" lon="26.634735"></trkpt>
      <trkpt lat="50.409323" lon="26.634701"></trkpt>
      <trkpt lat="50.4079" lon="26.634902"></trkpt>
      <trkpt lat="50.404202" lon="26.635608"></trkpt>
      <trkpt lat="50.40254" lon="26.636008"></trkpt>
      <trkpt lat="50.40148" lon="26.636617"></trkpt>
      <trkpt lat="50.401088" lon="26.636657"></trkpt>
      <trkpt lat="50.400325" lon="26.636236"></trkpt>
      <trkpt lat="50.399958" lon="26.635647"></trkpt>
      <trkpt lat="50.384097" lon="26.60266"></trkpt>
      <trkpt lat="50.382992" lon="26.601117"></trkpt>
      <trkpt lat="50.382312" lon="26.600383"></trkpt>
      <trkpt lat="50.381551" lon="26.599776"></trkpt>
      <trkpt lat="50.372986" lon="26.59326"></trkpt>
      <trkpt lat="50.367423" lon="26.589371"></trkpt>
      <trkpt lat="50.365489" lon="26.587505"></trkpt>
      <trkpt lat="50.360168" lon="26.583528"></trkpt>
      <trkpt lat="50.352617" lon="26.577651"></trkpt>
      <trkpt lat="50.352147" lon="26.577387"></trkpt>
      <trkpt lat="50.348061" lon="26.575857"></trkpt>
      <trkpt lat="50.345764" lon="26.574827"></trkpt>
      <trkpt lat="50.345128" lon="26.57264"></trkpt>
      <trkpt lat="50.343748" lon="26.569441"></trkpt>
      <trkpt lat="50.328857" lon="26.532236"></trkpt>
      <trkpt lat="50.328689" lon="26.529504"></trkpt>
      <trkpt lat="50.328703" lon="26.526067"></trkpt>
      <trkpt lat="50.329053" lon="26.524953"></trkpt>
      <trkpt lat="50.328016" lon="26.523914"></trkpt>
      <trkpt lat="50.329235" lon="26.520596"></trkpt>
      <trkpt lat="50.328957" lon="26.521223"></trkpt>
      <trkpt lat="50.327423" lon="26.517527"></trkpt>
      <trkpt lat="50.326482" lon="26.515788"></trkpt>
      <trkpt lat="50.32485" lon="26.511414"></trkpt>
      <trkpt lat="50.322402" lon="26.506062"></trkpt>
      <trkpt lat="50.318467" lon="26.498317"></trkpt>
      <trkpt lat="50.316466" lon="26.495247"></trkpt>
      <trkpt lat="50.315072" lon="26.493639"></trkpt>
      <trkpt lat="50.312946" lon="26.489746"></trkpt>
      <trkpt lat="50.312561" lon="26.48853"></trkpt>
      <trkpt lat="50.312272" lon="26.486381"></trkpt>
      <trkpt lat="50.311626" lon="26.483382"></trkpt>
      <trkpt lat="50.310017" lon="26.478946"></trkpt>
      <trkpt lat="50.309745" lon="26.478805"></trkpt>
      <trkpt lat="50.309481" lon="26.478932"></trkpt>
      <trkpt lat="50.306992" lon="26.48089"></trkpt>
      <trkpt lat="50.306777" lon="26.480908"></trkpt>
      <trkpt lat="50.306269" lon="26.480625"></trkpt>
      <trkpt lat="50.305077" lon="26.481339"></trkpt>
      <trkpt lat="50.304787" lon="26.481321"></trkpt>
      <trkpt lat="50.3039" lon="26.480197"></trkpt>
      <trkpt lat="50.297813" lon="26.474098"></trkpt>
      <trkpt lat="50.286483" lon="26.46301"></trkpt>
      <trkpt lat="50.286068" lon="26.462841"></trkpt>
      <trkpt lat="50.278304" lon="26.461484"></trkpt>
      <trkpt lat="50.277848" lon="26.461251"></trkpt>
      <trkpt lat="50.274072" lon="26.455805"></trkpt>
      <trkpt lat="50.271527" lon="26.451782"></trkpt>
      <trkpt lat="50.265688" lon="26.44317"></trkpt>
      <trkpt lat="50.265281" lon="26.442806"></trkpt>
      <trkpt lat="50.264855" lon="26.442717"></trkpt>
      <trkpt lat="50.262599" lon="26.44346"></trkpt>
      <trkpt lat="50.262077" lon="26.443241"></trkpt>
      <trkpt lat="50.260288" lon="26.441191"></trkpt>
      <trkpt lat="50.258632" lon="26.438689"></trkpt>
      <trkpt lat="50.256679" lon="26.436009"></trkpt>
      <trkpt lat="50.25639" lon="26.4352"></trkpt>
      <trkpt lat="50.256328" lon="26.43447"></trkpt>
      <trkpt lat="50.257294" lon="26.431476"></trkpt>
      <trkpt lat="50.257361" lon="26.430714"></trkpt>
      <trkpt lat="50.25728" lon="26.430143"></trkpt>
      <trkpt lat="50.244629" lon="26.383972"></trkpt>
      <trkpt lat="50.244347" lon="26.37722"></trkpt>
      <trkpt lat="50.244722" lon="26.370774"></trkpt>
      <trkpt lat="50.245155" lon="26.369083"></trkpt>
      <trkpt lat="50.24501" lon="26.367882"></trkpt>
      <trkpt lat="50.244633" lon="26.366537"></trkpt>
      <trkpt lat="50.244354" lon="26.365946"></trkpt>
      <trkpt lat="50.243537" lon="26.365171"></trkpt>
      <trkpt lat="50.243124" lon="26.365017"></trkpt>
      <trkpt lat="50.242786" lon="26.365322"></trkpt>
      <trkpt lat="50.241455" lon="26.367306"></trkpt>
      <trkpt lat="50.241116" lon="26.367619"></trkpt>
      <trkpt lat="50.2379" lon="26.368504"></trkpt>
      <trkpt lat="50.237418" lon="26.368396"></trkpt>
      <trkpt lat="50.237185" lon="26.368102"></trkpt>
      <trkpt lat="50.229527" lon="26.350873"></trkpt>
      <trkpt lat="50.225635" lon="26.345934"></trkpt>
      <trkpt lat="50.216785" lon="26.331242"></trkpt>
      <trkpt lat="50.215687" lon="26.329495"></trkpt>
      <trkpt lat="50.215294" lon="26.329075"></trkpt>
      <trkpt lat="50.211111" lon="26.326188"></trkpt>
      <trkpt lat="50.203517" lon="26.321318"></trkpt>
      <trkpt lat="50.199711" lon="26.319081"></trkpt>
      <trkpt lat="50.19026" lon="26.313068"></trkpt>
      <trkpt lat="50.185253" lon="26.310238"></trkpt>
      <trkpt lat="50.184275" lon="26.309948"></trkpt>
      <trkpt lat="50.182636" lon="26.310287"></trkpt>
      <trkpt lat="50.181929" lon="26.309949"></trkpt>
      <trkpt lat="50.181397" lon="26.309319"></trkpt>
      <trkpt lat="50.178683" lon="26.303582"></trkpt>
      <trkpt lat="50.178178" lon="26.30098"></trkpt>
      <trkpt lat="50.174801" lon="26.287134"></trkpt>
      <trkpt lat="50.171882" lon="26.275832"></trkpt>
      <trkpt lat="50.171494" lon="26.274681"></trkpt>
      <trkpt lat="50.171039" lon="26.273656"></trkpt>
      <trkpt lat="50.170507" lon="26.273002"></trkpt>
      <trkpt lat="50.166436" lon="26.270081"></trkpt>
      <trkpt lat="50.164963" lon="26.26893"></trkpt>
      <trkpt lat="50.163193" lon="26.267327"></trkpt>
      <trkpt lat="50.16085" lon="26.257472"></trkpt>
      <trkpt lat="50.159874" lon="26.247526"></trkpt>
      <trkpt lat="50.159573" lon="26.237953"></trkpt>
      <trkpt lat="50.158671" lon="26.229668"></trkpt>
      <trkpt lat="50.158111" lon="26.227801"></trkpt>
      <trkpt lat="50.156846" lon="26.211008"></trkpt>
      <trkpt lat="50.155428" lon="26.206018"></trkpt>
      <trkpt lat="50.154339" lon="26.198113"></trkpt>
      <trkpt lat="50.154531" lon="26.188056"></trkpt>
      <trkpt lat="50.154352" lon="26.187076"></trkpt>
      <trkpt lat="50.154051" lon="26.186263"></trkpt>
      <trkpt lat="50.153789" lon="26.185827"></trkpt>
      <trkpt lat="50.151697" lon="26.183365"></trkpt>
      <trkpt lat="50.151113" lon="26.182096"></trkpt>
      <trkpt lat="50.150518" lon="26.180211"></trkpt>
      <trkpt lat="50.149032" lon="26.178671"></trkpt>
      <trkpt lat="50.148905" lon="26.178336"></trkpt>
      <trkpt lat="50.148991" lon="26.177845"></trkpt>
      <trkpt lat="50.149855" lon="26.176429"></trkpt>
      <trkpt lat="50.15074" lon="26.17424"></trkpt>
      <trkpt lat="50.151949" lon="26.169251"></trkpt>
      <trkpt lat="50.151921" lon="26.168707"></trkpt>
      <trkpt lat="50.151342" lon="26.166923"></trkpt>
      <trkpt lat="50.150917" lon="26.164651"></trkpt>
      <trkpt lat="50.150568" lon="26.161113"></trkpt>
      <trkpt lat="50.150317" lon="26.159743"></trkpt>
      <trkpt lat="50.149993" lon="26.158793"></trkpt>
      <trkpt lat="50.149518" lon="26.157995"></trkpt>
      <trkpt lat="50.147576" lon="26.155685"></trkpt>
      <trkpt lat="50.143932" lon="26.148171"></trkpt>
      <trkpt lat="50.141872" lon="26.136641"></trkpt>
      <trkpt lat="50.141275" lon="26.134638"></trkpt>
      <trkpt lat="50.138466" lon="26.128407"></trkpt>
      <trkpt lat="50.134584" lon="26.122306"></trkpt>
      <trkpt lat="50.134329" lon="26.121712"></trkpt>
      <trkpt lat="50.133011" lon="26.117615"></trkpt>
      <trkpt lat="50.130835" lon="26.108693"></trkpt>
      <trkpt lat="50.129964" lon="26.107417"></trkpt>
      <trkpt lat="50.129715" lon="26.107424"></trkpt>
      <trkpt lat="50.12911" lon="26.107934"></trkpt>
      <trkpt lat="50.126716" lon="26.109467"></trkpt>
      <trkpt lat="50.125036" lon="26.11035"></trkpt>
      <trkpt lat="50.124645" lon="26.110368"></trkpt>
      <trkpt lat="50.123544" lon="26.109632"></trkpt>
      <trkpt lat="50.120667" lon="26.109544"></trkpt>
      <trkpt lat="50.119966" lon="26.109783"></trkpt>
      <trkpt lat="50.118144" lon="26.110807"></trkpt>
      <trkpt lat="50.116898" lon="26.111682"></trkpt>
      <trkpt lat="50.1127" lon="26.115767"></trkpt>
      <trkpt lat="50.112498" lon="26.116444"></trkpt>
      <trkpt lat="50.112336" lon="26.11883"></trkpt>
      <trkpt lat="50.112182" lon="26.119139"></trkpt>
      <trkpt lat="50.110042" lon="26.120183"></trkpt>
      <trkpt lat="50.109368" lon="26.120156"></trkpt>
      <trkpt lat="50.103667" lon="26.11841"></trkpt>
      <trkpt lat="50.101955" lon="26.118168"></trkpt>
      <trkpt lat="50.101457" lon="26.117906"></trkpt>
      <trkpt lat="50.100813" lon="26.11717"></trkpt>
      <trkpt lat="50.096522" lon="26.110828"></trkpt>
      <trkpt lat="50.0924" lon="26.106999"></trkpt>
      <trkpt lat="50.086314" lon="26.099873"></trkpt>
      <trkpt lat="50.065614" lon="26.0768"></trkpt>
      <trkpt lat="50.055598" lon="26.078481"></trkpt>
      <trkpt lat="50.04663" lon="26.079519"></trkpt>
      <trkpt lat="50.04498" lon="26.07985"></trkpt>
      <trkpt lat="50.0445" lon="26.08145"></trkpt>
      <trkpt lat="50.044354" lon="26.08277"></trkpt>
      <trkpt lat="50.044172" lon="26.101423"></trkpt>
      <trkpt lat="50.043331" lon="26.108732"></trkpt>
      <trkpt lat="50.043018" lon="26.110924"></trkpt>
      <trkpt lat="50.042794" lon="26.111511"></trkpt>
      <trkpt lat="50.034856" lon="26.122286"></trkpt>
      <trkpt lat="50.03463" lon="26.122409"></trkpt>
      <trkpt lat="50.033817" lon="26.122482"></trkpt>
      <trkpt lat="50.032936" lon="26.122447"></trkpt>
      <trkpt lat="50.031265" lon="26.122149"></trkpt>
      <trkpt lat="50.02977" lon="26.122375"></trkpt>
      <trkpt lat="50.02805" lon="26.121642"></trkpt>
      <trkpt lat="50.027009" lon="26.122036"></trkpt>
      <trkpt lat="50.026439" lon="26.122503"></trkpt>
      <trkpt lat="50.025232" lon="26.124098"></trkpt>
      <trkpt lat="50.023742" lon="26.129075"></trkpt>
      <trkpt lat="50.023346" lon="26.129649"></trkpt>
      <trkpt lat="50.022055" lon="26.130909"></trkpt>
      <trkpt lat="50.021215" lon="26.131518"></trkpt>
      <trkpt lat="50.020767" lon="26.13168"></trkpt>
      <trkpt lat="50.016477" lon="26.132394"></trkpt>
      <trkpt lat="50.014286" lon="26.132948"></trkpt>
      <trkpt lat="50.013783" lon="26.133224"></trkpt>
      <trkpt lat="50.01336" lon="26.132407"></trkpt>
      <trkpt lat="50.004302" lon="26.105103"></trkpt>
      <trkpt lat="50.003866" lon="26.104229"></trkpt>
      <trkpt lat="49.999292" lon="26.099954"></trkpt>
      <trkpt lat="49.995223" lon="26.096418"></trkpt>
      <trkpt lat="49.991365" lon="26.096091"></trkpt>
      <trkpt lat="49.989629" lon="26.09529"></trkpt>
      <trkpt lat="49.98228" lon="26.09404"></trkpt>
      <trkpt lat="49.981675" lon="26.093835"></trkpt>
      <trkpt lat="49.981448" lon="26.093469"></trkpt>
      <trkpt lat="49.98102" lon="26.091919"></trkpt>
      <trkpt lat="49.979622" lon="26.089836"></trkpt>
      <trkpt lat="49.976674" lon="26.088733"></trkpt>
      <trkpt lat="49.976158" lon="26.088206"></trkpt>
      <trkpt lat="49.975192" lon="26.08532"></trkpt>
      <trkpt lat="49.974269" lon="26.081419"></trkpt>
      <trkpt lat="49.9716" lon="26.077104"></trkpt>
      <trkpt lat="49.966043" lon="26.070885"></trkpt>
      <trkpt lat="49.962762" lon="26.065823"></trkpt>
      <trkpt lat="49.956177" lon="26.059291"></trkpt>
      <trkpt lat="49.95389" lon="26.057689"></trkpt>
      <trkpt lat="49.938678" lon="26.047801"></trkpt>
      <trkpt lat="49.937328" lon="26.047219"></trkpt>
      <trkpt lat="49.936653" lon="26.047163"></trkpt>
      <trkpt lat="49.935811" lon="26.046909"></trkpt>
      <trkpt lat="49.930979" lon="26.04484"></trkpt>
      <trkpt lat="49.930265" lon="26.044816"></trkpt>
      <trkpt lat="49.912397" lon="26.046874"></trkpt>
      <trkpt lat="49.911293" lon="26.047326"></trkpt>
      <trkpt lat="49.910682" lon="26.047995"></trkpt>
      <trkpt lat="49.910112" lon="26.048902"></trkpt>
      <trkpt lat="49.904191" lon="26.061166"></trkpt>
      <trkpt lat="49.903475" lon="26.062131"></trkpt>
      <trkpt lat="49.902836" lon="26.062668"></trkpt>
      <trkpt lat="49.902007" lon="26.063011"></trkpt>
      <trkpt lat="49.898485" lon="26.064034"></trkpt>
      <trkpt lat="49.897793" lon="26.064109"></trkpt>
      <trkpt lat="49.896601" lon="26.063972"></trkpt>
      <trkpt lat="49.895033" lon="26.063348"></trkpt>
      <trkpt lat="49.889062" lon="26.063082"></trkpt>
      <trkpt lat="49.888587" lon="26.06314"></trkpt>
      <trkpt lat="49.887838" lon="26.063477"></trkpt>
      <trkpt lat="49.887465" lon="26.063785"></trkpt>
      <trkpt lat="49.885664" lon="26.066236"></trkpt>
      <trkpt lat="49.885421" lon="26.066402"></trkpt>
      <trkpt lat="49.884944" lon="26.066496"></trkpt>
      <trkpt lat="49.877208" lon="26.063087"></trkpt>
      <trkpt lat="49.873927" lon="26.075676"></trkpt>
      <trkpt lat="49.873539" lon="26.076604"></trkpt>
      <trkpt lat="49.872785" lon="26.077034"></trkpt>
      <trkpt lat="49.872354" lon="26.077728"></trkpt>
      <trkpt lat="49.872096" lon="26.078447"></trkpt>
      <trkpt lat="49.872075" lon="26.079303"></trkpt>
      <trkpt lat="49.872795" lon="26.083366"></trkpt>
      <trkpt lat="49.872614" lon="26.084369"></trkpt>
      <trkpt lat="49.87222" lon="26.085088"></trkpt>
      <trkpt lat="49.871369" lon="26.085762"></trkpt>
      <trkpt lat="49.869496" lon="26.086644"></trkpt>
      <trkpt lat="49.868332" lon="26.08677"></trkpt>
      <trkpt lat="49.867531" lon="26.086644"></trkpt>
      <trkpt lat="49.865447" lon="26.085374"></trkpt>
      <trkpt lat="49.863845" lon="26.084587"></trkpt>
      <trkpt lat="49.861779" lon="26.082873"></trkpt>
      <trkpt lat="49.860735" lon="26.082171"></trkpt>
      <trkpt lat="49.856008" lon="26.079876"></trkpt>
      <trkpt lat="49.824936" lon="26.076975"></trkpt>
      <trkpt lat="49.824041" lon="26.076674"></trkpt>
      <trkpt lat="49.823502" lon="26.07624"></trkpt>
      <trkpt lat="49.822608" lon="26.074775"></trkpt>
      <trkpt lat="49.816605" lon="26.061689"></trkpt>
      <trkpt lat="49.815127" lon="26.059642"></trkpt>
      <trkpt lat="49.809016" lon="26.052653"></trkpt>
      <trkpt lat="49.802293" lon="26.045629"></trkpt>
      <trkpt lat="49.800438" lon="26.044133"></trkpt>
      <trkpt lat="49.793745" lon="26.03998"></trkpt>
      <trkpt lat="49.790179" lon="26.036554"></trkpt>
      <trkpt lat="49.788431" lon="26.033988"></trkpt>
      <trkpt lat="49.770752" lon="25.996449"></trkpt>
      <trkpt lat="49.769893" lon="25.994089"></trkpt>
      <trkpt lat="49.766581" lon="25.981719"></trkpt>
      <trkpt lat="49.766624" lon="25.980315"></trkpt>
      <trkpt lat="49.767246" lon="25.977835"></trkpt>
      <trkpt lat="49.767293" lon="25.976451"></trkpt>
      <trkpt lat="49.767089" lon="25.974011"></trkpt>
      <trkpt lat="49.767552" lon="25.971635"></trkpt>
      <trkpt lat="49.767704" lon="25.970278"></trkpt>
      <trkpt lat="49.767648" lon="25.96879"></trkpt>
      <trkpt lat="49.767196" lon="25.965981"></trkpt>
      <trkpt lat="49.766683" lon="25.965086"></trkpt>
      <trkpt lat="49.760791" lon="25.956703"></trkpt>
      <trkpt lat="49.755238" lon="25.945438"></trkpt>
      <trkpt lat="49.753802" lon="25.942692"></trkpt>
      <trkpt lat="49.752839" lon="25.941132"></trkpt>
      <trkpt lat="49.751931" lon="25.939893"></trkpt>
      <trkpt lat="49.749466" lon="25.937127"></trkpt>
      <trkpt lat="49.735707" lon="25.922749"></trkpt>
      <trkpt lat="49.727476" lon="25.91644"></trkpt>
      <trkpt lat="49.726148" lon="25.915833"></trkpt>
      <trkpt lat="49.721367" lon="25.914659"></trkpt>
      <trkpt lat="49.719702" lon="25.913828"></trkpt>
      <trkpt lat="49.718554" lon="25.912773"></trkpt>
      <trkpt lat="49.709464" lon="25.902869"></trkpt>
      <trkpt lat="49.708439" lon="25.901505"></trkpt>
      <trkpt lat="49.698312" lon="25.884681"></trkpt>
      <trkpt lat="49.697688" lon="25.883792"></trkpt>
      <trkpt lat="49.695897" lon="25.881742"></trkpt>
      <trkpt lat="49.690147" lon="25.875809"></trkpt>
      <trkpt lat="49.689429" lon="25.874854"></trkpt>
      <trkpt lat="49.68416" lon="25.866341"></trkpt>
      <trkpt lat="49.681788" lon="25.859896"></trkpt>
      <trkpt lat="49.681155" lon="25.85867"></trkpt>
      <trkpt lat="49.673179" lon="25.846466"></trkpt>
      <trkpt lat="49.672108" lon="25.844105"></trkpt>
      <trkpt lat="49.670774" lon="25.840655"></trkpt>
      <trkpt lat="49.67003" lon="25.837876"></trkpt>
      <trkpt lat="49.66925" lon="25.837103"></trkpt>
      <trkpt lat="49.668536" lon="25.836768"></trkpt>
      <trkpt lat="49.668275" lon="25.836391"></trkpt>
      <trkpt lat="49.668258" lon="25.834742"></trkpt>
      <trkpt lat="49.668605" lon="25.832571"></trkpt>
      <trkpt lat="49.668449" lon="25.828499"></trkpt>
      <trkpt lat="49.666284" lon="25.822228"></trkpt>
      <trkpt lat="49.666062" lon="25.818137"></trkpt>
      <trkpt lat="49.665695" lon="25.815344"></trkpt>
      <trkpt lat="49.665436" lon="25.809983"></trkpt>
      <trkpt lat="49.665034" lon="25.807665"></trkpt>
      <trkpt lat="49.663566" lon="25.805995"></trkpt>
      <trkpt lat="49.648757" lon="25.791497"></trkpt>
      <trkpt lat="49.647803" lon="25.790136"></trkpt>
      <trkpt lat="49.647561" lon="25.789587"></trkpt>
      <trkpt lat="49.646964" lon="25.787097"></trkpt>
      <trkpt lat="49.646908" lon="25.786014"></trkpt>
      <trkpt lat="49.647624" lon="25.778831"></trkpt>
      <trkpt lat="49.648717" lon="25.770516"></trkpt>
      <trkpt lat="49.648712" lon="25.769926"></trkpt>
      <trkpt lat="49.647872" lon="25.76886"></trkpt>
      <trkpt lat="49.645079" lon="25.767157"></trkpt>
      <trkpt lat="49.636396" lon="25.765204"></trkpt>
      <trkpt lat="49.635676" lon="25.764795"></trkpt>
      <trkpt lat="49.635256" lon="25.764336"></trkpt>
      <trkpt lat="49.634759" lon="25.763327"></trkpt>
      <trkpt lat="49.63267" lon="25.752742"></trkpt>
      <trkpt lat="49.632405" lon="25.751959"></trkpt>
      <trkpt lat="49.631504" lon="25.750486"></trkpt>
      <trkpt lat="49.628677" lon="25.747456"></trkpt>
      <trkpt lat="49.628064" lon="25.746165"></trkpt>
      <trkpt lat="49.627886" lon="25.744862"></trkpt>
      <trkpt lat="49.62817" lon="25.741122"></trkpt>
      <trkpt lat="49.62727" lon="25.735667"></trkpt>
      <trkpt lat="49.626676" lon="25.724212"></trkpt>
      <trkpt lat="49.628589" lon="25.713665"></trkpt>
      <trkpt lat="49.628641" lon="25.71293"></trkpt>
      <trkpt lat="49.626553" lon="25.700464"></trkpt>
      <trkpt lat="49.626555" lon="25.699764"></trkpt>
      <trkpt lat="49.608058" lon="25.690837"></trkpt>
      <trkpt lat="49.606933" lon="25.690635"></trkpt>
      <trkpt lat="49.604244" lon="25.691043"></trkpt>
      <trkpt lat="49.603432" lon="25.690995"></trkpt>
      <trkpt lat="49.596317" lon="25.689239"></trkpt>
      <trkpt lat="49.595518" lon="25.688936"></trkpt>
      <trkpt lat="49.59416" lon="25.688122"></trkpt>
      <trkpt lat="49.592885" lon="25.686945"></trkpt>
      <trkpt lat="49.59175" lon="25.685481"></trkpt>
      <trkpt lat="49.586565" lon="25.676744"></trkpt>
      <trkpt lat="49.584881" lon="25.674534"></trkpt>
      <trkpt lat="49.583751" lon="25.673529"></trkpt>
      <trkpt lat="49.582706" lon="25.672873"></trkpt>
      <trkpt lat="49.578922" lon="25.671165"></trkpt>
      <trkpt lat="49.57794" lon="25.670427"></trkpt>
      <trkpt lat="49.576507" lon="25.669012"></trkpt>
      <trkpt lat="49.575353" lon="25.667214"></trkpt>
      <trkpt lat="49.574114" lon="25.66478"></trkpt>
      <trkpt lat="49.569056" lon="25.654303"></trkpt>
      <trkpt lat="49.567984" lon="25.652648"></trkpt>
      <trkpt lat="49.566891" lon="25.65137"></trkpt>
      <trkpt lat="49.566742" lon="25.650814"></trkpt>
      <trkpt lat="49.566268" lon="25.65079"></trkpt>
      <trkpt lat="49.551552" lon="25.636515"></trkpt>
      <trkpt lat="49.550263" lon="25.635775"></trkpt>
      <trkpt lat="49.549591" lon="25.635603"></trkpt>
      <trkpt lat="49.548233" lon="25.635562"></trkpt>
      <trkpt lat="49.547768" lon="25.635455"></trkpt>
      <trkpt lat="49.547456" lon="25.635132"></trkpt>
      <trkpt lat="49.547462" lon="25.634266"></trkpt>
      <trkpt lat="49.551971" lon="25.613539"></trkpt>
      <trkpt lat="49.55214" lon="25.612033"></trkpt>
      <trkpt lat="49.551587" lon="25.602622"></trkpt>
      <trkpt lat="49.550547" lon="25.58894"></trkpt>
      <trkpt lat="49.550431" lon="25.585522"></trkpt>
      <trkpt lat="49.551337" lon="25.572713"></trkpt>
      <trkpt lat="49.550735" lon="25.565335"></trkpt>
      <trkpt lat="49.550637" lon="25.559769"></trkpt>
      <trkpt lat="49.550374" lon="25.556841"></trkpt>
      <trkpt lat="49.549661" lon="25.553821"></trkpt>
      <trkpt lat="49.549226" lon="25.55277"></trkpt>
      <trkpt lat="49.546109" lon="25.541095"></trkpt>
      <trkpt lat="49.544536" lon="25.536545"></trkpt>
      <trkpt lat="49.543429" lon="25.533968"></trkpt>
      <trkpt lat="49.540241" lon="25.529795"></trkpt>
      <trkpt lat="49.539632" lon="25.528636"></trkpt>
      <trkpt lat="49.539194" lon="25.527361"></trkpt>
      <trkpt lat="49.537966" lon="25.519838"></trkpt>
      <trkpt lat="49.53504" lon="25.51217"></trkpt>
      <trkpt lat="49.534876" lon="25.511012"></trkpt>
      <trkpt lat="49.53465" lon="25.506186"></trkpt>
      <trkpt lat="49.534311" lon="25.504018"></trkpt>
      <trkpt lat="49.533096" lon="25.500436"></trkpt>
      <trkpt lat="49.530879" lon="25.494486"></trkpt>
      <trkpt lat="49.53015" lon="25.492833"></trkpt>
      <trkpt lat="49.520774" lon="25.475473"></trkpt>
      <trkpt lat="49.519938" lon="25.472786"></trkpt>
      <trkpt lat="49.519299" lon="25.471536"></trkpt>
      <trkpt lat="49.51882" lon="25.471089"></trkpt>
      <trkpt lat="49.51536" lon="25.468957"></trkpt>
      <trkpt lat="49.510818" lon="25.466765"></trkpt>
      <trkpt lat="49.508793" lon="25.465542"></trkpt>
      <trkpt lat="49.501593" lon="25.458131"></trkpt>
      <trkpt lat="49.500763" lon="25.457106"></trkpt>
      <trkpt lat="49.500222" lon="25.455985"></trkpt>
      <trkpt lat="49.495387" lon="25.443952"></trkpt>
      <trkpt lat="49.49269" lon="25.438382"></trkpt>
      <trkpt lat="49.492264" lon="25.437303"></trkpt>
      <trkpt lat="49.492131" lon="25.436161"></trkpt>
      <trkpt lat="49.491889" lon="25.407871"></trkpt>
      <trkpt lat="49.492652" lon="25.3955"></trkpt>
      <trkpt lat="49.493905" lon="25.388045"></trkpt>
      <trkpt lat="49.494114" lon="25.385479"></trkpt>
      <trkpt lat="49.494889" lon="25.371608"></trkpt>
      <trkpt lat="49.495275" lon="25.361591"></trkpt>
      <trkpt lat="49.494958" lon="25.361532"></trkpt>
      <trkpt lat="49.493989" lon="25.36051"></trkpt>
      <trkpt lat="49.493641" lon="25.360339"></trkpt>
      <trkpt lat="49.492599" lon="25.360415"></trkpt>
      <trkpt lat="49.489872" lon="25.360938"></trkpt>
      <trkpt lat="49.488804" lon="25.361341"></trkpt>
      <trkpt lat="49.485015" lon="25.36336"></trkpt>
      <trkpt lat="49.484127" lon="25.363714"></trkpt>
      <trkpt lat="49.482071" lon="25.363773"></trkpt>
      <trkpt lat="49.480487" lon="25.363457"></trkpt>
      <trkpt lat="49.477144" lon="25.362518"></trkpt>
      <trkpt lat="49.4705" lon="25.361149"></trkpt>
      <trkpt lat="49.468167" lon="25.360814"></trkpt>
      <trkpt lat="49.465372" lon="25.360574"></trkpt>
      <trkpt lat="49.459449" lon="25.35894"></trkpt>
      <trkpt lat="49.457654" lon="25.359088"></trkpt>
      <trkpt lat="49.454051" lon="25.356857"></trkpt>
      <trkpt lat="49.453452" lon="25.356689"></trkpt>
      <trkpt lat="49.452066" lon="25.356767"></trkpt>
      <trkpt lat="49.451553" lon="25.356544"></trkpt>
      <trkpt lat="49.451277" lon="25.356284"></trkpt>
      <trkpt lat="49.451091" lon="25.35574"></trkpt>
      <trkpt lat="49.450569" lon="25.351023"></trkpt>
      <trkpt lat="49.450563" lon="25.348923"></trkpt>
      <trkpt lat="49.450393" lon="25.347944"></trkpt>
      <trkpt lat="49.449705" lon="25.347131"></trkpt>
      <trkpt lat="49.448681" lon="25.344662"></trkpt>
      <trkpt lat="49.448385" lon="25.344221"></trkpt>
      <trkpt lat="49.44762" lon="25.343716"></trkpt>
      <trkpt lat="49.446005" lon="25.342923"></trkpt>
      <trkpt lat="49.444896" lon="25.342995"></trkpt>
      <trkpt lat="49.443694" lon="25.34359"></trkpt>
      <trkpt lat="49.44217" lon="25.345364"></trkpt>
      <trkpt lat="49.440165" lon="25.346841"></trkpt>
      <trkpt lat="49.438653" lon="25.346912"></trkpt>
      <trkpt lat="49.436718" lon="25.346112"></trkpt>
      <trkpt lat="49.435165" lon="25.346025"></trkpt>
      <trkpt lat="49.432318" lon="25.346919"></trkpt>
      <trkpt lat="49.430076" lon="25.347072"></trkpt>
      <trkpt lat="49.426791" lon="25.348362"></trkpt>
      <trkpt lat="49.425864" lon="25.348563"></trkpt>
      <trkpt lat="49.425464" lon="25.348509"></trkpt>
      <trkpt lat="49.425088" lon="25.34826"></trkpt>
      <trkpt lat="49.424735" lon="25.347595"></trkpt>
      <trkpt lat="49.424041" lon="25.343266"></trkpt>
      <trkpt lat="49.42194" lon="25.337409"></trkpt>
      <trkpt lat="49.421346" lon="25.336383"></trkpt>
      <trkpt lat="49.420219" lon="25.335338"></trkpt>
      <trkpt lat="49.419481" lon="25.334931"></trkpt>
      <trkpt lat="49.418864" lon="25.334826"></trkpt>
      <trkpt lat="49.418214" lon="25.334941"></trkpt>
      <trkpt lat="49.406949" lon="25.341027"></trkpt>
      <trkpt lat="49.387954" lon="25.357693"></trkpt>
      <trkpt lat="49.385213" lon="25.360741"></trkpt>
      <trkpt lat="49.382812" lon="25.364765"></trkpt>
      <trkpt lat="49.382391" lon="25.365153"></trkpt>
      <trkpt lat="49.381798" lon="25.365414"></trkpt>
      <trkpt lat="49.381333" lon="25.365446"></trkpt>
      <trkpt lat="49.380643" lon="25.365208"></trkpt>
      <trkpt lat="49.378053" lon="25.364132"></trkpt>
      <trkpt lat="49.377261" lon="25.363694"></trkpt>
      <trkpt lat="49.370015" lon="25.359317"></trkpt>
      <trkpt lat="49.369347" lon="25.358783"></trkpt>
      <trkpt lat="49.368042" lon="25.357454"></trkpt>
      <trkpt lat="49.367367" lon="25.356971"></trkpt>
      <trkpt lat="49.366601" lon="25.356601"></trkpt>
      <trkpt lat="49.358593" lon="25.354274"></trkpt>
      <trkpt lat="49.352697" lon="25.352986"></trkpt>
      <trkpt lat="49.35153" lon="25.352891"></trkpt>
      <trkpt lat="49.348179" lon="25.353678"></trkpt>
      <trkpt lat="49.34654" lon="25.354448"></trkpt>
      <trkpt lat="49.345849" lon="25.354636"></trkpt>
      <trkpt lat="49.335908" lon="25.356042"></trkpt>
      <trkpt lat="49.335616" lon="25.355883"></trkpt>
      <trkpt lat="49.335382" lon="25.355532"></trkpt>
      <trkpt lat="49.333828" lon="25.350198"></trkpt>
      <trkpt lat="49.33354" lon="25.349537"></trkpt>
      <trkpt lat="49.333285" lon="25.349233"></trkpt>
      <trkpt lat="49.332876" lon="25.348997"></trkpt>
      <trkpt lat="49.330596" lon="25.34886"></trkpt>
      <trkpt lat="49.330089" lon="25.348999"></trkpt>
      <trkpt lat="49.329295" lon="25.349532"></trkpt>
      <trkpt lat="49.326911" lon="25.352037"></trkpt>
      <trkpt lat="49.325049" lon="25.354227"></trkpt>
      <trkpt lat="49.323391" lon="25.35674"></trkpt>
      <trkpt lat="49.321468" lon="25.35856"></trkpt>
      <trkpt lat="49.320388" lon="25.359815"></trkpt>
      <trkpt lat="49.31925" lon="25.360869"></trkpt>
      <trkpt lat="49.317717" lon="25.361955"></trkpt>
      <trkpt lat="49.315968" lon="25.363531"></trkpt>
      <trkpt lat="49.315089" lon="25.364667"></trkpt>
      <trkpt lat="49.314219" lon="25.367428"></trkpt>
      <trkpt lat="49.313429" lon="25.368324"></trkpt>
      <trkpt lat="49.313079" lon="25.368474"></trkpt>
      <trkpt lat="49.311874" lon="25.368145"></trkpt>
      <trkpt lat="49.310704" lon="25.3682"></trkpt>
      <trkpt lat="49.309081" lon="25.369131"></trkpt>
      <trkpt lat="49.309201" lon="25.368128"></trkpt>
      <trkpt lat="49.309104" lon="25.366544"></trkpt>
      <trkpt lat="49.307574" lon="25.35041"></trkpt>
      <trkpt lat="49.30784" lon="25.344311"></trkpt>
      <trkpt lat="49.306948" lon="25.326891"></trkpt>
      <trkpt lat="49.305911" lon="25.299974"></trkpt>
      <trkpt lat="49.304601" lon="25.294172"></trkpt>
      <trkpt lat="49.286324" lon="25.218556"></trkpt>
      <trkpt lat="49.286154" lon="25.217025"></trkpt>
      <trkpt lat="49.286209" lon="25.213742"></trkpt>
      <trkpt lat="49.287435" lon="25.208513"></trkpt>
      <trkpt lat="49.287951" lon="25.207513"></trkpt>
      <trkpt lat="49.288867" lon="25.206152"></trkpt>
      <trkpt lat="49.289142" lon="25.205171"></trkpt>
      <trkpt lat="49.288081" lon="25.195958"></trkpt>
      <trkpt lat="49.287258" lon="25.193319"></trkpt>
      <trkpt lat="49.286485" lon="25.191797"></trkpt>
      <trkpt lat="49.283838" lon="25.188679"></trkpt>
      <trkpt lat="49.282471" lon="25.186295"></trkpt>
      <trkpt lat="49.279219" lon="25.181674"></trkpt>
      <trkpt lat="49.277494" lon="25.179944"></trkpt>
      <trkpt lat="49.276795" lon="25.179063"></trkpt>
      <trkpt lat="49.276452" lon="25.177526"></trkpt>
      <trkpt lat="49.27634" lon="25.175086"></trkpt>
      <trkpt lat="49.276803" lon="25.169071"></trkpt>
      <trkpt lat="49.276396" lon="25.16618"></trkpt>
      <trkpt lat="49.274739" lon="25.161924"></trkpt>
      <trkpt lat="49.27435" lon="25.160299"></trkpt>
      <trkpt lat="49.274349" lon="25.158783"></trkpt>
      <trkpt lat="49.274884" lon="25.154507"></trkpt>
      <trkpt lat="49.274845" lon="25.152571"></trkpt>
      <trkpt lat="49.274705" lon="25.152034"></trkpt>
      <trkpt lat="49.274144" lon="25.15106"></trkpt>
      <trkpt lat="49.271854" lon="25.148152"></trkpt>
      <trkpt lat="49.270736" lon="25.147246"></trkpt>
      <trkpt lat="49.270079" lon="25.146337"></trkpt>
      <trkpt lat="49.269188" lon="25.145997"></trkpt>
      <trkpt lat="49.268738" lon="25.145417"></trkpt>
      <trkpt lat="49.269771" lon="25.14199"></trkpt>
      <trkpt lat="49.269542" lon="25.141773"></trkpt>
      <trkpt lat="49.268223" lon="25.139523"></trkpt>
      <trkpt lat="49.268178" lon="25.137075"></trkpt>
      <trkpt lat="49.268819" lon="25.133279"></trkpt>
      <trkpt lat="49.268878" lon="25.132206"></trkpt>
      <trkpt lat="49.268471" lon="25.131003"></trkpt>
      <trkpt lat="49.267594" lon="25.123131"></trkpt>
      <trkpt lat="49.264745" lon="25.104111"></trkpt>
      <trkpt lat="49.26373" lon="25.099136"></trkpt>
      <trkpt lat="49.262521" lon="25.095104"></trkpt>
      <trkpt lat="49.262487" lon="25.093587"></trkpt>
      <trkpt lat="49.262762" lon="25.088576"></trkpt>
      <trkpt lat="49.260765" lon="25.083536"></trkpt>
      <trkpt lat="49.25966" lon="25.081941"></trkpt>
      <trkpt lat="49.259116" lon="25.082117"></trkpt>
      <trkpt lat="49.254551" lon="25.084972"></trkpt>
      <trkpt lat="49.253894" lon="25.085718"></trkpt>
      <trkpt lat="49.252559" lon="25.085585"></trkpt>
      <trkpt lat="49.250543" lon="25.084894"></trkpt>
      <trkpt lat="49.24893" lon="25.084166"></trkpt>
      <trkpt lat="49.242859" lon="25.083463"></trkpt>
      <trkpt lat="49.24227" lon="25.083172"></trkpt>
      <trkpt lat="49.236769" lon="25.079148"></trkpt>
      <trkpt lat="49.233949" lon="25.075108"></trkpt>
      <trkpt lat="49.230553" lon="25.069841"></trkpt>
      <trkpt lat="49.22959" lon="25.068896"></trkpt>
      <trkpt lat="49.227548" lon="25.066564"></trkpt>
      <trkpt lat="49.221903" lon="25.057696"></trkpt>
      <trkpt lat="49.221005" lon="25.056542"></trkpt>
      <trkpt lat="49.219489" lon="25.055276"></trkpt>
      <trkpt lat="49.216665" lon="25.053667"></trkpt>
      <trkpt lat="49.21545" lon="25.052362"></trkpt>
      <trkpt lat="49.214982" lon="25.052153"></trkpt>
      <trkpt lat="49.213924" lon="25.051965"></trkpt>
      <trkpt lat="49.213288" lon="25.051566"></trkpt>
      <trkpt lat="49.21272" lon="25.050996"></trkpt>
      <trkpt lat="49.212409" lon="25.050286"></trkpt>
      <trkpt lat="49.212372" lon="25.048435"></trkpt>
      <trkpt lat="49.212203" lon="25.047893"></trkpt>
      <trkpt lat="49.208793" lon="25.043013"></trkpt>
      <trkpt lat="49.207737" lon="25.040612"></trkpt>
      <trkpt lat="49.207633" lon="25.03953"></trkpt>
      <trkpt lat="49.208169" lon="25.037842"></trkpt>
      <trkpt lat="49.208018" lon="25.036636"></trkpt>
      <trkpt lat="49.207188" lon="25.034532"></trkpt>
      <trkpt lat="49.206902" lon="25.034159"></trkpt>
      <trkpt lat="49.206094" lon="25.033588"></trkpt>
      <trkpt lat="49.204912" lon="25.031196"></trkpt>
      <trkpt lat="49.204782" lon="25.030675"></trkpt>
      <trkpt lat="49.204774" lon="25.028726"></trkpt>
      <trkpt lat="49.204591" lon="25.028559"></trkpt>
      <trkpt lat="49.204371" lon="25.028611"></trkpt>
      <trkpt lat="49.203418" lon="25.029446"></trkpt>
      <trkpt lat="49.203104" lon="25.029568"></trkpt>
      <trkpt lat="49.202517" lon="25.029535"></trkpt>
      <trkpt lat="49.201878" lon="25.029122"></trkpt>
      <trkpt lat="49.201647" lon="25.028603"></trkpt>
      <trkpt lat="49.200718" lon="25.024512"></trkpt>
      <trkpt lat="49.200384" lon="25.02167"></trkpt>
      <trkpt lat="49.198595" lon="25.017607"></trkpt>
      <trkpt lat="49.197017" lon="25.015376"></trkpt>
      <trkpt lat="49.196566" lon="25.014927"></trkpt>
      <trkpt lat="49.195802" lon="25.014606"></trkpt>
      <trkpt lat="49.194652" lon="25.014635"></trkpt>
      <trkpt lat="49.192959" lon="25.014086"></trkpt>
      <trkpt lat="49.192334" lon="25.013626"></trkpt>
      <trkpt lat="49.191816" lon="25.012763"></trkpt>
      <trkpt lat="49.190463" lon="25.008685"></trkpt>
      <trkpt lat="49.190274" lon="25.007719"></trkpt>
      <trkpt lat="49.190476" lon="25.002753"></trkpt>
      <trkpt lat="49.191166" lon="24.997451"></trkpt>
      <trkpt lat="49.191153" lon="24.995695"></trkpt>
      <trkpt lat="49.190889" lon="24.994771"></trkpt>
      <trkpt lat="49.189281" lon="24.991157"></trkpt>
      <trkpt lat="49.186834" lon="24.98494"></trkpt>
      <trkpt lat="49.186487" lon="24.984377"></trkpt>
      <trkpt lat="49.183192" lon="24.981569"></trkpt>
      <trkpt lat="49.181904" lon="24.97901"></trkpt>
      <trkpt lat="49.179334" lon="24.977517"></trkpt>
      <trkpt lat="49.177962" lon="24.975352"></trkpt>
      <trkpt lat="49.177641" lon="24.974212"></trkpt>
      <trkpt lat="49.177941" lon="24.969837"></trkpt>
      <trkpt lat="49.177636" lon="24.965401"></trkpt>
      <trkpt lat="49.177713" lon="24.964875"></trkpt>
      <trkpt lat="49.178607" lon="24.962627"></trkpt>
      <trkpt lat="49.179207" lon="24.960181"></trkpt>
      <trkpt lat="49.179236" lon="24.959058"></trkpt>
      <trkpt lat="49.178904" lon="24.956069"></trkpt>
      <trkpt lat="49.178662" lon="24.954135"></trkpt>
      <trkpt lat="49.177904" lon="24.950351"></trkpt>
      <trkpt lat="49.177401" lon="24.948594"></trkpt>
      <trkpt lat="49.176561" lon="24.946707"></trkpt>
      <trkpt lat="49.175553" lon="24.943627"></trkpt>
      <trkpt lat="49.174676" lon="24.940006"></trkpt>
      <trkpt lat="49.173354" lon="24.935972"></trkpt>
      <trkpt lat="49.173242" lon="24.935368"></trkpt>
      <trkpt lat="49.173306" lon="24.934638"></trkpt>
      <trkpt lat="49.177744" lon="24.91857"></trkpt>
      <trkpt lat="49.178777" lon="24.912832"></trkpt>
      <trkpt lat="49.179975" lon="24.908645"></trkpt>
      <trkpt lat="49.179966" lon="24.907937"></trkpt>
      <trkpt lat="49.1789" lon="24.903265"></trkpt>
      <trkpt lat="49.178667" lon="24.902881"></trkpt>
      <trkpt lat="49.178234" lon="24.902951"></trkpt>
      <trkpt lat="49.175795" lon="24.905512"></trkpt>
      <trkpt lat="49.174025" lon="24.905612"></trkpt>
      <trkpt lat="49.173441" lon="24.905368"></trkpt>
      <trkpt lat="49.17161" lon="24.90238"></trkpt>
      <trkpt lat="49.171525" lon="24.901965"></trkpt>
      <trkpt lat="49.171672" lon="24.901424"></trkpt>
      <trkpt lat="49.174579" lon="24.895627"></trkpt>
      <trkpt lat="49.174817" lon="24.894207"></trkpt>
      <trkpt lat="49.174381" lon="24.892393"></trkpt>
      <trkpt lat="49.174348" lon="24.88837"></trkpt>
      <trkpt lat="49.173325" lon="24.884682"></trkpt>
      <trkpt lat="49.173156" lon="24.880954"></trkpt>
      <trkpt lat="49.172818" lon="24.87903"></trkpt>
      <trkpt lat="49.172245" lon="24.878263"></trkpt>
      <trkpt lat="49.171407" lon="24.87767"></trkpt>
      <trkpt lat="49.168195" lon="24.875914"></trkpt>
      <trkpt lat="49.167891" lon="24.875654"></trkpt>
      <trkpt lat="49.165785" lon="24.873197"></trkpt>
      <trkpt lat="49.16375" lon="24.871169"></trkpt>
      <trkpt lat="49.162208" lon="24.869402"></trkpt>
      <trkpt lat="49.162028" lon="24.869001"></trkpt>
      <trkpt lat="49.161765" lon="24.866254"></trkpt>
      <trkpt lat="49.160498" lon="24.863777"></trkpt>
      <trkpt lat="49.159686" lon="24.861467"></trkpt>
      <trkpt lat="49.159233" lon="24.857831"></trkpt>
      <trkpt lat="49.157406" lon="24.846059"></trkpt>
      <trkpt lat="49.157545" lon="24.84353"></trkpt>
      <trkpt lat="49.158572" lon="24.84039"></trkpt>
      <trkpt lat="49.158607" lon="24.840023"></trkpt>
      <trkpt lat="49.158144" lon="24.831519"></trkpt>
      <trkpt lat="49.157428" lon="24.82909"></trkpt>
      <trkpt lat="49.156312" lon="24.827328"></trkpt>
      <trkpt lat="49.155831" lon="24.825733"></trkpt>
      <trkpt lat="49.155504" lon="24.824147"></trkpt>
      <trkpt lat="49.155193" lon="24.821533"></trkpt>
      <trkpt lat="49.155286" lon="24.819187"></trkpt>
      <trkpt lat="49.155198" lon="24.818625"></trkpt>
      <trkpt lat="49.154811" lon="24.818056"></trkpt>
      <trkpt lat="49.153993" lon="24.817265"></trkpt>
      <trkpt lat="49.153077" lon="24.815747"></trkpt>
      <trkpt lat="49.152536" lon="24.815597"></trkpt>
      <trkpt lat="49.151508" lon="24.815597"></trkpt>
      <trkpt lat="49.150459" lon="24.814909"></trkpt>
      <trkpt lat="49.149752" lon="24.813882"></trkpt>
      <trkpt lat="49.149595" lon="24.813203"></trkpt>
      <trkpt lat="49.149269" lon="24.808543"></trkpt>
      <trkpt lat="49.148809" lon="24.807254"></trkpt>
      <trkpt lat="49.147702" lon="24.804873"></trkpt>
      <trkpt lat="49.147203" lon="24.803375"></trkpt>
      <trkpt lat="49.147064" lon="24.802605"></trkpt>
      <trkpt lat="49.146811" lon="24.79803"></trkpt>
      <trkpt lat="49.147094" lon="24.797338"></trkpt>
      <trkpt lat="49.148015" lon="24.796435"></trkpt>
      <trkpt lat="49.148217" lon="24.79555"></trkpt>
      <trkpt lat="49.147832" lon="24.789801"></trkpt>
      <trkpt lat="49.147748" lon="24.786209"></trkpt>
      <trkpt lat="49.148256" lon="24.784023"></trkpt>
      <trkpt lat="49.149423" lon="24.780447"></trkpt>
      <trkpt lat="49.149413" lon="24.779856"></trkpt>
      <trkpt lat="49.148286" lon="24.777813"></trkpt>
      <trkpt lat="49.14707" lon="24.776759"></trkpt>
      <trkpt lat="49.146124" lon="24.776155"></trkpt>
      <trkpt lat="49.142037" lon="24.77506"></trkpt>
      <trkpt lat="49.135269" lon="24.77388"></trkpt>
      <trkpt lat="49.134501" lon="24.77338"></trkpt>
      <trkpt lat="49.133606" lon="24.772409"></trkpt>
      <trkpt lat="49.132853" lon="24.771194"></trkpt>
      <trkpt lat="49.131124" lon="24.767266"></trkpt>
      <trkpt lat="49.130884" lon="24.765541"></trkpt>
      <trkpt lat="49.130004" lon="24.763795"></trkpt>
      <trkpt lat="49.128413" lon="24.762194"></trkpt>
      <trkpt lat="49.127209" lon="24.760197"></trkpt>
      <trkpt lat="49.126953" lon="24.759362"></trkpt>
      <trkpt lat="49.126927" lon="24.758005"></trkpt>
      <trkpt lat="49.127423" lon="24.75357"></trkpt>
      <trkpt lat="49.128205" lon="24.748773"></trkpt>
      <trkpt lat="49.128592" lon="24.747187"></trkpt>
      <trkpt lat="49.130136" lon="24.743684"></trkpt>
      <trkpt lat="49.134289" lon="24.735097"></trkpt>
      <trkpt lat="49.136884" lon="24.73049"></trkpt>
      <trkpt lat="49.136904" lon="24.730036"></trkpt>
      <trkpt lat="49.136336" lon="24.730178"></trkpt>
      <trkpt lat="49.130998" lon="24.730005"></trkpt>
      <trkpt lat="49.130689" lon="24.729739"></trkpt>
      <trkpt lat="49.130001" lon="24.728102"></trkpt>
      <trkpt lat="49.129509" lon="24.727475"></trkpt>
      <trkpt lat="49.122791" lon="24.725103"></trkpt>
      <trkpt lat="49.12221" lon="24.724284"></trkpt>
      <trkpt lat="49.121632" lon="24.723814"></trkpt>
      <trkpt lat="49.12001" lon="24.720102"></trkpt>
      <trkpt lat="49.11908" lon="24.718395"></trkpt>
      <trkpt lat="49.116189" lon="24.714284"></trkpt>
      <trkpt lat="49.115642" lon="24.713822"></trkpt>
      <trkpt lat="49.115186" lon="24.713649"></trkpt>
      <trkpt lat="49.110967" lon="24.713495"></trkpt>
      <trkpt lat="49.110216" lon="24.713325"></trkpt>
      <trkpt lat="49.109707" lon="24.713029"></trkpt>
      <trkpt lat="49.108776" lon="24.712254"></trkpt>
      <trkpt lat="49.108094" lon="24.711504"></trkpt>
      <trkpt lat="49.105068" lon="24.707097"></trkpt>
      <trkpt lat="49.103095" lon="24.703948"></trkpt>
      <trkpt lat="49.102579" lon="24.703373"></trkpt>
      <trkpt lat="49.101891" lon="24.702856"></trkpt>
      <trkpt lat="49.101192" lon="24.702622"></trkpt>
      <trkpt lat="49.100798" lon="24.702628"></trkpt>
      <trkpt lat="49.100415" lon="24.702711"></trkpt>
      <trkpt lat="49.099542" lon="24.703226"></trkpt>
      <trkpt lat="49.098094" lon="24.704655"></trkpt>
      <trkpt lat="49.094086" lon="24.710343"></trkpt>
      <trkpt lat="49.093231" lon="24.71101"></trkpt>
      <trkpt lat="49.09211" lon="24.711499"></trkpt>
      <trkpt lat="49.091513" lon="24.7116"></trkpt>
      <trkpt lat="49.090959" lon="24.711543"></trkpt>
      <trkpt lat="49.089973" lon="24.711228"></trkpt>
      <trkpt lat="49.085111" lon="24.708961"></trkpt>
      <trkpt lat="49.082133" lon="24.70674"></trkpt>
      <trkpt lat="49.078999" lon="24.703432"></trkpt>
      <trkpt lat="49.076346" lon="24.702365"></trkpt>
      <trkpt lat="49.074875" lon="24.702074"></trkpt>
      <trkpt lat="49.074296" lon="24.701761"></trkpt>
      <trkpt lat="49.073582" lon="24.701057"></trkpt>
      <trkpt lat="49.072139" lon="24.698454"></trkpt>
      <trkpt lat="49.07145" lon="24.697555"></trkpt>
      <trkpt lat="49.07071" lon="24.697051"></trkpt>
      <trkpt lat="49.068229" lon="24.696382"></trkpt>
      <trkpt lat="49.067513" lon="24.696547"></trkpt>
      <trkpt lat="49.064094" lon="24.699502"></trkpt>
      <trkpt lat="49.063215" lon="24.699789"></trkpt>
      <trkpt lat="49.05726" lon="24.699812"></trkpt>
      <trkpt lat="49.052288" lon="24.698154"></trkpt>
      <trkpt lat="49.051115" lon="24.697982"></trkpt>
      <trkpt lat="49.050544" lon="24.698189"></trkpt>
      <trkpt lat="49.049043" lon="24.69926"></trkpt>
      <trkpt lat="49.044679" lon="24.699932"></trkpt>
      <trkpt lat="49.039911" lon="24.701802"></trkpt>
      <trkpt lat="49.035323" lon="24.701797"></trkpt>
      <trkpt lat="49.031957" lon="24.701538"></trkpt>
      <trkpt lat="49.030566" lon="24.700989"></trkpt>
      <trkpt lat="49.027064" lon="24.698457"></trkpt>
      <trkpt lat="49.022418" lon="24.693948"></trkpt>
      <trkpt lat="49.020814" lon="24.691735"></trkpt>
      <trkpt lat="49.020124" lon="24.691157"></trkpt>
      <trkpt lat="49.019466" lon="24.691089"></trkpt>
      <trkpt lat="49.018105" lon="24.691802"></trkpt>
      <trkpt lat="49.015391" lon="24.69432"></trkpt>
      <trkpt lat="49.014706" lon="24.694726"></trkpt>
      <trkpt lat="48.994436" lon="24.705444"></trkpt>
      <trkpt lat="48.994157" lon="24.702009"></trkpt>
      <trkpt lat="48.994265" lon="24.701258"></trkpt>
      <trkpt lat="48.999597" lon="24.685099"></trkpt>
      <trkpt lat="48.998812" lon="24.682505"></trkpt>
      <trkpt lat="48.99848" lon="24.682031"></trkpt>
      <trkpt lat="48.997406" lon="24.6812"></trkpt>
      <trkpt lat="48.996676" lon="24.679991"></trkpt>
      <trkpt lat="48.996484" lon="24.679379"></trkpt>
      <trkpt lat="48.995354" lon="24.669161"></trkpt>
      <trkpt lat="48.995596" lon="24.666538"></trkpt>
      <trkpt lat="48.995943" lon="24.665237"></trkpt>
      <trkpt lat="48.995685" lon="24.663311"></trkpt>
      <trkpt lat="48.995083" lon="24.661969"></trkpt>
      <trkpt lat="48.995233" lon="24.659736"></trkpt>
      <trkpt lat="48.994404" lon="24.658302"></trkpt>
      <trkpt lat="48.994132" lon="24.657621"></trkpt>
      <trkpt lat="48.992989" lon="24.653513"></trkpt>
      <trkpt lat="48.990926" lon="24.652015"></trkpt>
      <trkpt lat="48.989993" lon="24.65108"></trkpt>
      <trkpt lat="48.989389" lon="24.649915"></trkpt>
      <trkpt lat="48.986958" lon="24.646247"></trkpt>
      <trkpt lat="48.986662" lon="24.646123"></trkpt>
      <trkpt lat="48.986126" lon="24.646302"></trkpt>
      <trkpt lat="48.985748" lon="24.646248"></trkpt>
      <trkpt lat="48.984855" lon="24.645276"></trkpt>
      <trkpt lat="48.984272" lon="24.645588"></trkpt>
      <trkpt lat="48.984097" lon="24.645544"></trkpt>
      <trkpt lat="48.983721" lon="24.644874"></trkpt>
      <trkpt lat="48.983999" lon="24.643937"></trkpt>
      <trkpt lat="48.983984" lon="24.643533"></trkpt>
      <trkpt lat="48.983094" lon="24.64209"></trkpt>
      <trkpt lat="48.982633" lon="24.640245"></trkpt>
      <trkpt lat="48.981958" lon="24.638738"></trkpt>
      <trkpt lat="48.981576" lon="24.639283"></trkpt>
      <trkpt lat="48.980935" lon="24.639805"></trkpt>
      <trkpt lat="48.968787" lon="24.645199"></trkpt>
      <trkpt lat="48.968566" lon="24.645237"></trkpt>
      <trkpt lat="48.968311" lon="24.645105"></trkpt>
      <trkpt lat="48.967324" lon="24.642852"></trkpt>
      <trkpt lat="48.966879" lon="24.642204"></trkpt>
      <trkpt lat="48.965746" lon="24.640978"></trkpt>
      <trkpt lat="48.960957" lon="24.637163"></trkpt>
      <trkpt lat="48.95781" lon="24.634167"></trkpt>
      <trkpt lat="48.95708" lon="24.633099"></trkpt>
      <trkpt lat="48.954242" lon="24.628248"></trkpt>
      <trkpt lat="48.949005" lon="24.622847"></trkpt>
      <trkpt lat="48.944519" lon="24.616958"></trkpt>
      <trkpt lat="48.94398" lon="24.616429"></trkpt>
      <trkpt lat="48.943269" lon="24.616019"></trkpt>
      <trkpt lat="48.942022" lon="24.615734"></trkpt>
      <trkpt lat="48.935172" lon="24.61549"></trkpt>
      <trkpt lat="48.929959" lon="24.614879"></trkpt>
      <trkpt lat="48.929463" lon="24.614866"></trkpt>
      <trkpt lat="48.928568" lon="24.615041"></trkpt>
      <trkpt lat="48.927546" lon="24.615551"></trkpt>
      <trkpt lat="48.926546" lon="24.616467"></trkpt>
      <trkpt lat="48.922519" lon="24.621627"></trkpt>
      <trkpt lat="48.920961" lon="24.623097"></trkpt>
      <trkpt lat="48.91894" lon="24.624002"></trkpt>
      <trkpt lat="48.917651" lon="24.624354"></trkpt>
      <trkpt lat="48.915421" lon="24.624681"></trkpt>
      <trkpt lat="48.914004" lon="24.624491"></trkpt>
      <trkpt lat="48.912639" lon="24.623992"></trkpt>
      <trkpt lat="48.903306" lon="24.618228"></trkpt>
      <trkpt lat="48.901666" lon="24.616996"></trkpt>
      <trkpt lat="48.899055" lon="24.614088"></trkpt>
      <trkpt lat="48.898348" lon="24.613573"></trkpt>
      <trkpt lat="48.896958" lon="24.613255"></trkpt>
      <trkpt lat="48.894046" lon="24.613496"></trkpt>
      <trkpt lat="48.893065" lon="24.614007"></trkpt>
      <trkpt lat="48.892438" lon="24.614516"></trkpt>
      <trkpt lat="48.889529" lon="24.617857"></trkpt>
      <trkpt lat="48.888509" lon="24.619531"></trkpt>
      <trkpt lat="48.881279" lon="24.632904"></trkpt>
      <trkpt lat="48.87049" lon="24.611764"></trkpt>
      <trkpt lat="48.86814" lon="24.6046"></trkpt>
      <trkpt lat="48.867723" lon="24.603831"></trkpt>
      <trkpt lat="48.846724" lon="24.58011"></trkpt>
      <trkpt lat="48.8193" lon="24.549831"></trkpt>
      <trkpt lat="48.819171" lon="24.549858"></trkpt>
      <trkpt lat="48.818994" lon="24.550197"></trkpt>
      <trkpt lat="48.807671" lon="24.555205"></trkpt>
      <trkpt lat="48.806964" lon="24.55547"></trkpt>
      <trkpt lat="48.806341" lon="24.555548"></trkpt>
      <trkpt lat="48.805387" lon="24.555379"></trkpt>
      <trkpt lat="48.801618" lon="24.553818"></trkpt>
      <trkpt lat="48.797" lon="24.551689"></trkpt>
      <trkpt lat="48.796465" lon="24.551225"></trkpt>
      <trkpt lat="48.796081" lon="24.550627"></trkpt>
      <trkpt lat="48.795694" lon="24.549293"></trkpt>
      <trkpt lat="48.794611" lon="24.54007"></trkpt>
      <trkpt lat="48.794613" lon="24.539268"></trkpt>
      <trkpt lat="48.794942" lon="24.53695"></trkpt>
      <trkpt lat="48.79692" lon="24.529738"></trkpt>
      <trkpt lat="48.785762" lon="24.521675"></trkpt>
      <trkpt lat="48.785448" lon="24.521198"></trkpt>
      <trkpt lat="48.785105" lon="24.521397"></trkpt>
      <trkpt lat="48.752284" lon="24.51809"></trkpt>
      <trkpt lat="48.752369" lon="24.516942"></trkpt>
      <trkpt lat="48.752298" lon="24.516452"></trkpt>
      <trkpt lat="48.751483" lon="24.514627"></trkpt>
      <trkpt lat="48.750882" lon="24.512067"></trkpt>
      <trkpt lat="48.750961" lon="24.509522"></trkpt>
      <trkpt lat="48.750034" lon="24.507037"></trkpt>
      <trkpt lat="48.750426" lon="24.505202"></trkpt>
      <trkpt lat="48.750339" lon="24.50478"></trkpt>
      <trkpt lat="48.748757" lon="24.503898"></trkpt>
      <trkpt lat="48.746974" lon="24.50233"></trkpt>
      <trkpt lat="48.745753" lon="24.499211"></trkpt>
      <trkpt lat="48.74424" lon="24.49722"></trkpt>
      <trkpt lat="48.742919" lon="24.495781"></trkpt>
      <trkpt lat="48.742223" lon="24.494831"></trkpt>
      <trkpt lat="48.74042" lon="24.490655"></trkpt>
      <trkpt lat="48.738881" lon="24.488606"></trkpt>
      <trkpt lat="48.738156" lon="24.487052"></trkpt>
      <trkpt lat="48.737913" lon="24.487045"></trkpt>
      <trkpt lat="48.737249" lon="24.48763"></trkpt>
      <trkpt lat="48.736159" lon="24.486586"></trkpt>
      <trkpt lat="48.734428" lon="24.485707"></trkpt>
      <trkpt lat="48.7342" lon="24.485484"></trkpt>
      <trkpt lat="48.733953" lon="24.484916"></trkpt>
      <trkpt lat="48.733656" lon="24.483107"></trkpt>
      <trkpt lat="48.731809" lon="24.477488"></trkpt>
      <trkpt lat="48.729058" lon="24.475307"></trkpt>
      <trkpt lat="48.728295" lon="24.47453"></trkpt>
      <trkpt lat="48.727155" lon="24.472587"></trkpt>
      <trkpt lat="48.726637" lon="24.472028"></trkpt>
      <trkpt lat="48.725967" lon="24.471887"></trkpt>
      <trkpt lat="48.723458" lon="24.472184"></trkpt>
      <trkpt lat="48.721672" lon="24.471079"></trkpt>
      <trkpt lat="48.721189" lon="24.470321"></trkpt>
      <trkpt lat="48.720729" lon="24.470172"></trkpt>
      <trkpt lat="48.71974" lon="24.469363"></trkpt>
      <trkpt lat="48.718678" lon="24.468066"></trkpt>
      <trkpt lat="48.71887" lon="24.467502"></trkpt>
      <trkpt lat="48.718827" lon="24.467022"></trkpt>
      <trkpt lat="48.717871" lon="24.465561"></trkpt>
      <trkpt lat="48.717373" lon="24.462932"></trkpt>
      <trkpt lat="48.716307" lon="24.460555"></trkpt>
      <trkpt lat="48.716084" lon="24.460267"></trkpt>
      <trkpt lat="48.714307" lon="24.458944"></trkpt>
      <trkpt lat="48.714157" lon="24.458693"></trkpt>
      <trkpt lat="48.713885" lon="24.456922"></trkpt>
      <trkpt lat="48.713437" lon="24.456261"></trkpt>
      <trkpt lat="48.707387" lon="24.449076"></trkpt>
      <trkpt lat="48.707851" lon="24.442656"></trkpt>
      <trkpt lat="48.708578" lon="24.439249"></trkpt>
      <trkpt lat="48.708635" lon="24.438573"></trkpt>
      <trkpt lat="48.709093" lon="24.436807"></trkpt>
      <trkpt lat="48.708641" lon="24.430601"></trkpt>
      <trkpt lat="48.708132" lon="24.42782"></trkpt>
      <trkpt lat="48.707619" lon="24.426094"></trkpt>
      <trkpt lat="48.707081" lon="24.424995"></trkpt>
      <trkpt lat="48.706924" lon="24.424321"></trkpt>
      <trkpt lat="48.706095" lon="24.423651"></trkpt>
      <trkpt lat="48.705543" lon="24.422573"></trkpt>
      <trkpt lat="48.705321" lon="24.422873"></trkpt>
      <trkpt lat="48.704902" lon="24.423151"></trkpt>
      <trkpt lat="48.704312" lon="24.423383"></trkpt>
      <trkpt lat="48.704081" lon="24.423343"></trkpt>
      <trkpt lat="48.703268" lon="24.422779"></trkpt>
      <trkpt lat="48.702527" lon="24.42306"></trkpt>
      <trkpt lat="48.701645" lon="24.423004"></trkpt>
      <trkpt lat="48.699884" lon="24.423158"></trkpt>
      <trkpt lat="48.692" lon="24.425936"></trkpt>
      <trkpt lat="48.690947" lon="24.426184"></trkpt>
      <trkpt lat="48.688701" lon="24.427236"></trkpt>
      <trkpt lat="48.688035" lon="24.427232"></trkpt>
      <trkpt lat="48.687529" lon="24.426928"></trkpt>
      <trkpt lat="48.663422" lon="24.393304"></trkpt>
      <trkpt lat="48.663032" lon="24.392484"></trkpt>
      <trkpt lat="48.659394" lon="24.379794"></trkpt>
      <trkpt lat="48.658986" lon="24.379359"></trkpt>
      <trkpt lat="48.657422" lon="24.375604"></trkpt>
      <trkpt lat="48.657315" lon="24.374995"></trkpt>
      <trkpt lat="48.65646" lon="24.374782"></trkpt>
      <trkpt lat="48.656324" lon="24.374599"></trkpt>
  </trkseg></trk>
</gpx>
