<?xml version="1.0" encoding="UTF-8"?>
<gpx version="1.1" creator="yatutbuv" xmlns="http://www.topografix.com/GPX/1/1">
  <trk><name>GraphHopper Track</name><trkseg>
      <trkpt lat="52.211531" lon="20.957096"></trkpt>
      <trkpt lat="52.211662" lon="20.956575"></trkpt>
      <trkpt lat="52.211779" lon="20.956654"></trkpt>
      <trkpt lat="52.211972" lon="20.955694"></trkpt>
      <trkpt lat="52.211886" lon="20.95302"></trkpt>
      <trkpt lat="52.209714" lon="20.94972"></trkpt>
      <trkpt lat="52.209434" lon="20.949801"></trkpt>
      <trkpt lat="52.209366" lon="20.949656"></trkpt>
      <trkpt lat="52.209335" lon="20.949517"></trkpt>
      <trkpt lat="52.209921" lon="20.94946"></trkpt>
      <trkpt lat="52.210175" lon="20.94929"></trkpt>
      <trkpt lat="52.202556" lon="20.938087"></trkpt>
      <trkpt lat="52.197333" lon="20.930182"></trkpt>
      <trkpt lat="52.195269" lon="20.927454"></trkpt>
      <trkpt lat="52.190509" lon="20.919818"></trkpt>
      <trkpt lat="52.18963" lon="20.918639"></trkpt>
      <trkpt lat="52.189034" lon="20.918062"></trkpt>
      <trkpt lat="52.188" lon="20.917553"></trkpt>
      <trkpt lat="52.17667" lon="20.913622"></trkpt>
      <trkpt lat="52.176" lon="20.91318"></trkpt>
      <trkpt lat="52.173677" lon="20.912118"></trkpt>
      <trkpt lat="52.172746" lon="20.911611"></trkpt>
      <trkpt lat="52.172308" lon="20.911151"></trkpt>
      <trkpt lat="52.172218" lon="20.910754"></trkpt>
      <trkpt lat="52.172273" lon="20.910278"></trkpt>
      <trkpt lat="52.172446" lon="20.909968"></trkpt>
      <trkpt lat="52.17271" lon="20.909798"></trkpt>
      <trkpt lat="52.173096" lon="20.909867"></trkpt>
      <trkpt lat="52.173338" lon="20.910291"></trkpt>
      <trkpt lat="52.173372" lon="20.910732"></trkpt>
      <trkpt lat="52.173221" lon="20.911565"></trkpt>
      <trkpt lat="52.163147" lon="20.944583"></trkpt>
      <trkpt lat="52.161827" lon="20.94764"></trkpt>
      <trkpt lat="52.16073" lon="20.94977"></trkpt>
      <trkpt lat="52.159273" lon="20.952219"></trkpt>
      <trkpt lat="52.157855" lon="20.95424"></trkpt>
      <trkpt lat="52.156419" lon="20.956021"></trkpt>
      <trkpt lat="52.154607" lon="20.957892"></trkpt>
      <trkpt lat="52.153053" lon="20.959245"></trkpt>
      <trkpt lat="52.147281" lon="20.96323"></trkpt>
      <trkpt lat="52.145661" lon="20.964515"></trkpt>
      <trkpt lat="52.143813" lon="20.966555"></trkpt>
      <trkpt lat="52.142607" lon="20.968324"></trkpt>
      <trkpt lat="52.141254" lon="20.970987"></trkpt>
      <trkpt lat="52.140009" lon="20.97451"></trkpt>
      <trkpt lat="52.139353" lon="20.977306"></trkpt>
      <trkpt lat="52.138675" lon="20.982037"></trkpt>
      <trkpt lat="52.138354" lon="20.983343"></trkpt>
      <trkpt lat="52.13774" lon="20.984635"></trkpt>
      <trkpt lat="52.135394" lon="20.988471"></trkpt>
      <trkpt lat="52.134908" lon="20.988858"></trkpt>
      <trkpt lat="52.131417" lon="20.989171"></trkpt>
      <trkpt lat="52.129952" lon="20.989106"></trkpt>
      <trkpt lat="52.128222" lon="20.988851"></trkpt>
      <trkpt lat="52.120492" lon="20.987023"></trkpt>
      <trkpt lat="52.118591" lon="20.986311"></trkpt>
      <trkpt lat="52.117439" lon="20.985668"></trkpt>
      <trkpt lat="52.11549" lon="20.984456"></trkpt>
      <trkpt lat="52.114004" lon="20.982929"></trkpt>
      <trkpt lat="52.111693" lon="20.979907"></trkpt>
      <trkpt lat="52.107901" lon="20.97397"></trkpt>
      <trkpt lat="52.107166" lon="20.972974"></trkpt>
      <trkpt lat="52.105707" lon="20.971536"></trkpt>
      <trkpt lat="52.104058" lon="20.97054"></trkpt>
      <trkpt lat="52.102942" lon="20.970184"></trkpt>
      <trkpt lat="52.101477" lon="20.970062"></trkpt>
      <trkpt lat="52.100567" lon="20.970179"></trkpt>
      <trkpt lat="52.097921" lon="20.970991"></trkpt>
      <trkpt lat="52.096757" lon="20.971198"></trkpt>
      <trkpt lat="52.095278" lon="20.971168"></trkpt>
      <trkpt lat="52.09349" lon="20.970761"></trkpt>
      <trkpt lat="52.087433" lon="20.968141"></trkpt>
      <trkpt lat="52.087155" lon="20.967683"></trkpt>
      <trkpt lat="52.087172" lon="20.966851"></trkpt>
      <trkpt lat="52.087456" lon="20.966432"></trkpt>
      <trkpt lat="52.088404" lon="20.965911"></trkpt>
      <trkpt lat="52.088622" lon="20.965938"></trkpt>
      <trkpt lat="52.08882" lon="20.966128"></trkpt>
      <trkpt lat="52.088996" lon="20.966902"></trkpt>
      <trkpt lat="52.088637" lon="20.97003"></trkpt>
      <trkpt lat="52.088506" lon="20.973305"></trkpt>
      <trkpt lat="52.088296" lon="20.973446"></trkpt>
      <trkpt lat="52.088129" lon="20.97324"></trkpt>
      <trkpt lat="52.088046" lon="20.972863"></trkpt>
      <trkpt lat="52.088091" lon="20.970823"></trkpt>
      <trkpt lat="52.088235" lon="20.970266"></trkpt>
      <trkpt lat="52.088145" lon="20.970024"></trkpt>
      <trkpt lat="52.087693" lon="20.970053"></trkpt>
      <trkpt lat="52.082621" lon="20.9682"></trkpt>
      <trkpt lat="52.08058" lon="20.967575"></trkpt>
      <trkpt lat="52.074679" lon="20.966139"></trkpt>
      <trkpt lat="52.074376" lon="20.966313"></trkpt>
      <trkpt lat="52.07198" lon="20.966651"></trkpt>
      <trkpt lat="52.071428" lon="20.966478"></trkpt>
      <trkpt lat="52.07111" lon="20.966138"></trkpt>
      <trkpt lat="52.06796" lon="20.960529"></trkpt>
      <trkpt lat="52.062261" lon="20.964889"></trkpt>
      <trkpt lat="52.056873" lon="20.969192"></trkpt>
      <trkpt lat="52.056808" lon="20.969607"></trkpt>
      <trkpt lat="52.060147" lon="20.979629"></trkpt>
      <trkpt lat="52.056112" lon="20.983407"></trkpt>
      <trkpt lat="52.049528" lon="20.989029"></trkpt>
      <trkpt lat="52.049029" lon="20.988884"></trkpt>
      <trkpt lat="52.047977" lon="20.989053"></trkpt>
      <trkpt lat="52.046933" lon="20.990448"></trkpt>
      <trkpt lat="52.046422" lon="20.990597"></trkpt>
      <trkpt lat="52.045571" lon="20.990597"></trkpt>
      <trkpt lat="52.044533" lon="20.991007"></trkpt>
      <trkpt lat="52.043819" lon="20.991834"></trkpt>
      <trkpt lat="52.043128" lon="20.99335"></trkpt>
      <trkpt lat="52.042749" lon="20.993931"></trkpt>
      <trkpt lat="52.040365" lon="20.995594"></trkpt>
      <trkpt lat="52.039766" lon="20.995836"></trkpt>
      <trkpt lat="52.039382" lon="20.995782"></trkpt>
      <trkpt lat="52.039281" lon="20.995859"></trkpt>
      <trkpt lat="52.040114" lon="20.999007"></trkpt>
      <trkpt lat="52.040894" lon="21.000852"></trkpt>
      <trkpt lat="52.041005" lon="21.001933"></trkpt>
      <trkpt lat="52.040446" lon="21.004718"></trkpt>
      <trkpt lat="52.039114" lon="21.013152"></trkpt>
      <trkpt lat="52.03874" lon="21.014026"></trkpt>
      <trkpt lat="52.032572" lon="21.01878"></trkpt>
      <trkpt lat="52.030996" lon="21.021729"></trkpt>
      <trkpt lat="52.029347" lon="21.025407"></trkpt>
      <trkpt lat="52.028137" lon="21.029642"></trkpt>
      <trkpt lat="52.02736" lon="21.035074"></trkpt>
      <trkpt lat="52.027537" lon="21.040646"></trkpt>
      <trkpt lat="52.027673" lon="21.041389"></trkpt>
      <trkpt lat="52.027881" lon="21.041477"></trkpt>
      <trkpt lat="52.02865" lon="21.043042"></trkpt>
  </trkseg></trk>
</gpx>
