<?xml version="1.0" encoding="UTF-8"?>
<gpx version="1.1" creator="yatutbuv" xmlns="http://www.topografix.com/GPX/1/1">
  <trk><name>GraphHopper Track</name><trkseg>
      <trkpt lat="37.603018" lon="-0.984334"></trkpt>
      <trkpt lat="37.603177" lon="-0.983983"></trkpt>
      <trkpt lat="37.604199" lon="-0.984839"></trkpt>
      <trkpt lat="37.604314" lon="-0.984656"></trkpt>
      <trkpt lat="37.604626" lon="-0.984895"></trkpt>
      <trkpt lat="37.605735" lon="-0.984943"></trkpt>
      <trkpt lat="37.60586" lon="-0.98482"></trkpt>
      <trkpt lat="37.606516" lon="-0.984945"></trkpt>
      <trkpt lat="37.606766" lon="-0.984805"></trkpt>
      <trkpt lat="37.60697" lon="-0.978336"></trkpt>
      <trkpt lat="37.606841" lon="-0.977856"></trkpt>
      <trkpt lat="37.60698" lon="-0.977477"></trkpt>
      <trkpt lat="37.607201" lon="-0.971111"></trkpt>
      <trkpt lat="37.607496" lon="-0.970338"></trkpt>
      <trkpt lat="37.608555" lon="-0.968756"></trkpt>
      <trkpt lat="37.608962" lon="-0.967856"></trkpt>
      <trkpt lat="37.609303" lon="-0.966604"></trkpt>
      <trkpt lat="37.609596" lon="-0.963779"></trkpt>
      <trkpt lat="37.609937" lon="-0.962771"></trkpt>
      <trkpt lat="37.610317" lon="-0.962077"></trkpt>
      <trkpt lat="37.615196" lon="-0.956216"></trkpt>
      <trkpt lat="37.616355" lon="-0.954562"></trkpt>
      <trkpt lat="37.619862" lon="-0.949031"></trkpt>
      <trkpt lat="37.621167" lon="-0.947705"></trkpt>
      <trkpt lat="37.624577" lon="-0.944905"></trkpt>
      <trkpt lat="37.628478" lon="-0.940677"></trkpt>
      <trkpt lat="37.629438" lon="-0.938975"></trkpt>
      <trkpt lat="37.631865" lon="-0.933508"></trkpt>
      <trkpt lat="37.634227" lon="-0.928788"></trkpt>
      <trkpt lat="37.63769" lon="-0.921969"></trkpt>
      <trkpt lat="37.63871" lon="-0.920425"></trkpt>
      <trkpt lat="37.640359" lon="-0.918805"></trkpt>
      <trkpt lat="37.642377" lon="-0.917422"></trkpt>
      <trkpt lat="37.644494" lon="-0.916514"></trkpt>
      <trkpt lat="37.646913" lon="-0.915958"></trkpt>
      <trkpt lat="37.64818" lon="-0.915479"></trkpt>
      <trkpt lat="37.649423" lon="-0.914691"></trkpt>
      <trkpt lat="37.650899" lon="-0.913377"></trkpt>
      <trkpt lat="37.652796" lon="-0.911095"></trkpt>
      <trkpt lat="37.654252" lon="-0.908813"></trkpt>
      <trkpt lat="37.657748" lon="-0.902795"></trkpt>
      <trkpt lat="37.658257" lon="-0.901227"></trkpt>
      <trkpt lat="37.658288" lon="-0.89985"></trkpt>
      <trkpt lat="37.657876" lon="-0.898185"></trkpt>
      <trkpt lat="37.656468" lon="-0.895708"></trkpt>
      <trkpt lat="37.654621" lon="-0.890251"></trkpt>
      <trkpt lat="37.652967" lon="-0.886494"></trkpt>
      <trkpt lat="37.652092" lon="-0.884897"></trkpt>
      <trkpt lat="37.651084" lon="-0.883781"></trkpt>
      <trkpt lat="37.649979" lon="-0.883037"></trkpt>
      <trkpt lat="37.643728" lon="-0.880799"></trkpt>
      <trkpt lat="37.642234" lon="-0.880026"></trkpt>
      <trkpt lat="37.64121" lon="-0.879147"></trkpt>
      <trkpt lat="37.640417" lon="-0.878185"></trkpt>
      <trkpt lat="37.639788" lon="-0.877141"></trkpt>
      <trkpt lat="37.639149" lon="-0.875525"></trkpt>
      <trkpt lat="37.638736" lon="-0.873239"></trkpt>
      <trkpt lat="37.638798" lon="-0.871136"></trkpt>
      <trkpt lat="37.639694" lon="-0.865294"></trkpt>
      <trkpt lat="37.640694" lon="-0.861757"></trkpt>
      <trkpt lat="37.640983" lon="-0.860212"></trkpt>
      <trkpt lat="37.641532" lon="-0.852853"></trkpt>
      <trkpt lat="37.641685" lon="-0.845959"></trkpt>
      <trkpt lat="37.642043" lon="-0.843485"></trkpt>
      <trkpt lat="37.643589" lon="-0.83546"></trkpt>
      <trkpt lat="37.643642" lon="-0.834553"></trkpt>
      <trkpt lat="37.643531" lon="-0.833416"></trkpt>
      <trkpt lat="37.642369" lon="-0.827339"></trkpt>
      <trkpt lat="37.642004" lon="-0.826071"></trkpt>
      <trkpt lat="37.64037" lon="-0.823276"></trkpt>
      <trkpt lat="37.640067" lon="-0.822366"></trkpt>
      <trkpt lat="37.639717" lon="-0.82064"></trkpt>
      <trkpt lat="37.639359" lon="-0.819618"></trkpt>
      <trkpt lat="37.630147" lon="-0.799587"></trkpt>
      <trkpt lat="37.625228" lon="-0.786578"></trkpt>
      <trkpt lat="37.62474" lon="-0.785861"></trkpt>
      <trkpt lat="37.624202" lon="-0.785455"></trkpt>
      <trkpt lat="37.62315" lon="-0.78518"></trkpt>
      <trkpt lat="37.622802" lon="-0.785262"></trkpt>
      <trkpt lat="37.622648" lon="-0.785103"></trkpt>
      <trkpt lat="37.622716" lon="-0.784847"></trkpt>
      <trkpt lat="37.623119" lon="-0.784696"></trkpt>
      <trkpt lat="37.624628" lon="-0.782993"></trkpt>
      <trkpt lat="37.625177" lon="-0.783119"></trkpt>
      <trkpt lat="37.628607" lon="-0.782024"></trkpt>
      <trkpt lat="37.629045" lon="-0.781709"></trkpt>
      <trkpt lat="37.629302" lon="-0.781152"></trkpt>
      <trkpt lat="37.629325" lon="-0.780773"></trkpt>
      <trkpt lat="37.628776" lon="-0.777385"></trkpt>
      <trkpt lat="37.629018" lon="-0.776749"></trkpt>
      <trkpt lat="37.636635" lon="-0.774308"></trkpt>
      <trkpt lat="37.636772" lon="-0.774011"></trkpt>
      <trkpt lat="37.636996" lon="-0.774206"></trkpt>
      <trkpt lat="37.638933" lon="-0.773574"></trkpt>
      <trkpt lat="37.638294" lon="-0.769529"></trkpt>
      <trkpt lat="37.639403" lon="-0.769246"></trkpt>
      <trkpt lat="37.639312" lon="-0.768653"></trkpt>
  </trkseg></trk>
</gpx>
