<?xml version="1.0" encoding="UTF-8"?>
<gpx version="1.1" creator="yatutbuv" xmlns="http://www.topografix.com/GPX/1/1">
  <trk><name>GraphHopper Track</name><trkseg>
      <trkpt lat="49.834496" lon="24.009278"></trkpt>
      <trkpt lat="49.834742" lon="24.009518"></trkpt>
      <trkpt lat="49.834708" lon="24.017072"></trkpt>
      <trkpt lat="49.834233" lon="24.017152"></trkpt>
      <trkpt lat="49.833271" lon="24.018826"></trkpt>
      <trkpt lat="49.832704" lon="24.018552"></trkpt>
      <trkpt lat="49.832401" lon="24.018097"></trkpt>
      <trkpt lat="49.832225" lon="24.018511"></trkpt>
      <trkpt lat="49.829012" lon="24.018355"></trkpt>
      <trkpt lat="49.828049" lon="24.019124"></trkpt>
      <trkpt lat="49.827852" lon="24.019136"></trkpt>
      <trkpt lat="49.826613" lon="24.018027"></trkpt>
      <trkpt lat="49.8251" lon="24.021029"></trkpt>
      <trkpt lat="49.824846" lon="24.020841"></trkpt>
      <trkpt lat="49.805914" lon="24.018893"></trkpt>
      <trkpt lat="49.801921" lon="24.017998"></trkpt>
      <trkpt lat="49.801694" lon="24.017781"></trkpt>
      <trkpt lat="49.787685" lon="24.014701"></trkpt>
      <trkpt lat="49.785323" lon="24.014203"></trkpt>
      <trkpt lat="49.783109" lon="24.013915"></trkpt>
      <trkpt lat="49.778744" lon="24.013902"></trkpt>
      <trkpt lat="49.764434" lon="24.014307"></trkpt>
      <trkpt lat="49.759565" lon="24.014779"></trkpt>
      <trkpt lat="49.755026" lon="24.014923"></trkpt>
      <trkpt lat="49.750514" lon="24.014739"></trkpt>
      <trkpt lat="49.742698" lon="24.014934"></trkpt>
      <trkpt lat="49.742115" lon="24.014861"></trkpt>
      <trkpt lat="49.741348" lon="24.0146"></trkpt>
      <trkpt lat="49.737722" lon="24.012867"></trkpt>
      <trkpt lat="49.7158" lon="24.00211"></trkpt>
      <trkpt lat="49.708942" lon="23.99879"></trkpt>
      <trkpt lat="49.707647" lon="23.998256"></trkpt>
      <trkpt lat="49.707207" lon="23.998279"></trkpt>
      <trkpt lat="49.706746" lon="23.998491"></trkpt>
      <trkpt lat="49.700127" lon="24.002662"></trkpt>
      <trkpt lat="49.692104" lon="24.004025"></trkpt>
      <trkpt lat="49.679862" lon="24.00511"></trkpt>
      <trkpt lat="49.679286" lon="24.004865"></trkpt>
      <trkpt lat="49.67724" lon="24.00305"></trkpt>
      <trkpt lat="49.676073" lon="24.002577"></trkpt>
      <trkpt lat="49.674741" lon="24.002641"></trkpt>
      <trkpt lat="49.67157" lon="24.003558"></trkpt>
      <trkpt lat="49.670292" lon="24.00367"></trkpt>
      <trkpt lat="49.661162" lon="24.002476"></trkpt>
      <trkpt lat="49.630718" lon="23.995388"></trkpt>
      <trkpt lat="49.626927" lon="23.995207"></trkpt>
      <trkpt lat="49.615327" lon="23.99506"></trkpt>
      <trkpt lat="49.614488" lon="23.99514"></trkpt>
      <trkpt lat="49.612983" lon="23.995574"></trkpt>
      <trkpt lat="49.601692" lon="24.000154"></trkpt>
      <trkpt lat="49.600198" lon="24.000864"></trkpt>
      <trkpt lat="49.597509" lon="24.002469"></trkpt>
      <trkpt lat="49.596826" lon="24.002761"></trkpt>
      <trkpt lat="49.595981" lon="24.002946"></trkpt>
      <trkpt lat="49.594858" lon="24.002883"></trkpt>
      <trkpt lat="49.593395" lon="24.002315"></trkpt>
      <trkpt lat="49.578749" lon="23.994311"></trkpt>
      <trkpt lat="49.576589" lon="23.993195"></trkpt>
      <trkpt lat="49.57269" lon="23.99141"></trkpt>
      <trkpt lat="49.571124" lon="23.990913"></trkpt>
      <trkpt lat="49.567367" lon="23.990684"></trkpt>
      <trkpt lat="49.563818" lon="23.989556"></trkpt>
      <trkpt lat="49.55765" lon="23.98838"></trkpt>
      <trkpt lat="49.556852" lon="23.98811"></trkpt>
      <trkpt lat="49.555623" lon="23.987291"></trkpt>
      <trkpt lat="49.554202" lon="23.985778"></trkpt>
      <trkpt lat="49.553576" lon="23.984729"></trkpt>
      <trkpt lat="49.550632" lon="23.97794"></trkpt>
      <trkpt lat="49.547422" lon="23.971708"></trkpt>
      <trkpt lat="49.544646" lon="23.965021"></trkpt>
      <trkpt lat="49.5432" lon="23.958367"></trkpt>
      <trkpt lat="49.542343" lon="23.956187"></trkpt>
      <trkpt lat="49.541485" lon="23.954953"></trkpt>
      <trkpt lat="49.54048" lon="23.95407"></trkpt>
      <trkpt lat="49.536944" lon="23.952383"></trkpt>
      <trkpt lat="49.533812" lon="23.950446"></trkpt>
      <trkpt lat="49.533063" lon="23.950097"></trkpt>
      <trkpt lat="49.531604" lon="23.949683"></trkpt>
      <trkpt lat="49.528911" lon="23.949256"></trkpt>
      <trkpt lat="49.52815" lon="23.949249"></trkpt>
      <trkpt lat="49.527179" lon="23.949511"></trkpt>
      <trkpt lat="49.525102" lon="23.950622"></trkpt>
      <trkpt lat="49.523846" lon="23.95151"></trkpt>
      <trkpt lat="49.52145" lon="23.954169"></trkpt>
      <trkpt lat="49.520917" lon="23.954691"></trkpt>
      <trkpt lat="49.52009" lon="23.955258"></trkpt>
      <trkpt lat="49.518727" lon="23.95569"></trkpt>
      <trkpt lat="49.515611" lon="23.955636"></trkpt>
      <trkpt lat="49.514778" lon="23.95581"></trkpt>
      <trkpt lat="49.514139" lon="23.9561"></trkpt>
      <trkpt lat="49.513394" lon="23.956598"></trkpt>
      <trkpt lat="49.512391" lon="23.957713"></trkpt>
      <trkpt lat="49.509174" lon="23.962575"></trkpt>
      <trkpt lat="49.507306" lon="23.964734"></trkpt>
      <trkpt lat="49.502599" lon="23.968096"></trkpt>
      <trkpt lat="49.501875" lon="23.968868"></trkpt>
      <trkpt lat="49.500231" lon="23.971127"></trkpt>
      <trkpt lat="49.499398" lon="23.971975"></trkpt>
      <trkpt lat="49.498323" lon="23.972607"></trkpt>
      <trkpt lat="49.496648" lon="23.972817"></trkpt>
      <trkpt lat="49.495537" lon="23.972607"></trkpt>
      <trkpt lat="49.494569" lon="23.972099"></trkpt>
      <trkpt lat="49.492191" lon="23.969755"></trkpt>
      <trkpt lat="49.491166" lon="23.968508"></trkpt>
      <trkpt lat="49.490417" lon="23.967092"></trkpt>
      <trkpt lat="49.489942" lon="23.965724"></trkpt>
      <trkpt lat="49.489092" lon="23.960832"></trkpt>
      <trkpt lat="49.488623" lon="23.959264"></trkpt>
      <trkpt lat="49.488139" lon="23.95838"></trkpt>
      <trkpt lat="49.487571" lon="23.957712"></trkpt>
      <trkpt lat="49.486947" lon="23.957249"></trkpt>
      <trkpt lat="49.486278" lon="23.956975"></trkpt>
      <trkpt lat="49.485424" lon="23.956835"></trkpt>
      <trkpt lat="49.479507" lon="23.956563"></trkpt>
      <trkpt lat="49.476441" lon="23.956297"></trkpt>
      <trkpt lat="49.473185" lon="23.956273"></trkpt>
      <trkpt lat="49.453608" lon="23.955288"></trkpt>
      <trkpt lat="49.451805" lon="23.954785"></trkpt>
      <trkpt lat="49.425529" lon="23.94618"></trkpt>
      <trkpt lat="49.411953" lon="23.94185"></trkpt>
      <trkpt lat="49.410881" lon="23.941602"></trkpt>
      <trkpt lat="49.410143" lon="23.941624"></trkpt>
      <trkpt lat="49.408469" lon="23.941921"></trkpt>
      <trkpt lat="49.400363" lon="23.943505"></trkpt>
      <trkpt lat="49.396468" lon="23.944719"></trkpt>
      <trkpt lat="49.393493" lon="23.945856"></trkpt>
      <trkpt lat="49.392399" lon="23.945909"></trkpt>
      <trkpt lat="49.391624" lon="23.945606"></trkpt>
      <trkpt lat="49.391123" lon="23.945245"></trkpt>
      <trkpt lat="49.390495" lon="23.944562"></trkpt>
      <trkpt lat="49.389479" lon="23.943145"></trkpt>
      <trkpt lat="49.388622" lon="23.942405"></trkpt>
      <trkpt lat="49.33662" lon="23.910702"></trkpt>
      <trkpt lat="49.296422" lon="23.886034"></trkpt>
      <trkpt lat="49.273454" lon="23.871544"></trkpt>
      <trkpt lat="49.271461" lon="23.875493"></trkpt>
      <trkpt lat="49.271265" lon="23.875487"></trkpt>
      <trkpt lat="49.270949" lon="23.875153"></trkpt>
      <trkpt lat="49.268961" lon="23.872686"></trkpt>
      <trkpt lat="49.268728" lon="23.872836"></trkpt>
      <trkpt lat="49.267268" lon="23.875849"></trkpt>
      <trkpt lat="49.266781" lon="23.875936"></trkpt>
      <trkpt lat="49.265885" lon="23.875531"></trkpt>
      <trkpt lat="49.265327" lon="23.874995"></trkpt>
      <trkpt lat="49.260727" lon="23.868211"></trkpt>
      <trkpt lat="49.249576" lon="23.859324"></trkpt>
      <trkpt lat="49.247307" lon="23.856499"></trkpt>
      <trkpt lat="49.246865" lon="23.85444"></trkpt>
      <trkpt lat="49.246611" lon="23.854324"></trkpt>
      <trkpt lat="49.246236" lon="23.854624"></trkpt>
      <trkpt lat="49.246022" lon="23.854589"></trkpt>
      <trkpt lat="49.245009" lon="23.853144"></trkpt>
      <trkpt lat="49.242861" lon="23.849236"></trkpt>
      <trkpt lat="49.241774" lon="23.845347"></trkpt>
      <trkpt lat="49.241399" lon="23.844633"></trkpt>
      <trkpt lat="49.239956" lon="23.842564"></trkpt>
      <trkpt lat="49.2384" lon="23.838705"></trkpt>
      <trkpt lat="49.236632" lon="23.836028"></trkpt>
      <trkpt lat="49.235197" lon="23.832135"></trkpt>
      <trkpt lat="49.232763" lon="23.828579"></trkpt>
      <trkpt lat="49.231232" lon="23.826026"></trkpt>
      <trkpt lat="49.230836" lon="23.824923"></trkpt>
      <trkpt lat="49.23033" lon="23.821966"></trkpt>
      <trkpt lat="49.229835" lon="23.820584"></trkpt>
      <trkpt lat="49.223652" lon="23.811844"></trkpt>
      <trkpt lat="49.222537" lon="23.809746"></trkpt>
      <trkpt lat="49.222156" lon="23.808671"></trkpt>
      <trkpt lat="49.221969" lon="23.807542"></trkpt>
      <trkpt lat="49.221919" lon="23.804281"></trkpt>
      <trkpt lat="49.221753" lon="23.802567"></trkpt>
      <trkpt lat="49.221277" lon="23.800677"></trkpt>
      <trkpt lat="49.220694" lon="23.799311"></trkpt>
      <trkpt lat="49.214005" lon="23.788471"></trkpt>
      <trkpt lat="49.198763" lon="23.764495"></trkpt>
      <trkpt lat="49.196646" lon="23.760748"></trkpt>
      <trkpt lat="49.192053" lon="23.753967"></trkpt>
      <trkpt lat="49.163783" lon="23.717358"></trkpt>
      <trkpt lat="49.150336" lon="23.703641"></trkpt>
      <trkpt lat="49.140742" lon="23.693548"></trkpt>
      <trkpt lat="49.133424" lon="23.685749"></trkpt>
      <trkpt lat="49.128099" lon="23.679375"></trkpt>
      <trkpt lat="49.121336" lon="23.672977"></trkpt>
      <trkpt lat="49.12085" lon="23.672289"></trkpt>
      <trkpt lat="49.119888" lon="23.670514"></trkpt>
      <trkpt lat="49.119544" lon="23.670103"></trkpt>
      <trkpt lat="49.118896" lon="23.66971"></trkpt>
      <trkpt lat="49.11779" lon="23.669597"></trkpt>
      <trkpt lat="49.11713" lon="23.669228"></trkpt>
      <trkpt lat="49.116233" lon="23.668401"></trkpt>
      <trkpt lat="49.115476" lon="23.667328"></trkpt>
      <trkpt lat="49.113517" lon="23.663"></trkpt>
      <trkpt lat="49.113144" lon="23.661859"></trkpt>
      <trkpt lat="49.105571" lon="23.635342"></trkpt>
      <trkpt lat="49.104373" lon="23.630112"></trkpt>
      <trkpt lat="49.102737" lon="23.615662"></trkpt>
      <trkpt lat="49.102708" lon="23.614916"></trkpt>
      <trkpt lat="49.102852" lon="23.613727"></trkpt>
      <trkpt lat="49.103322" lon="23.611458"></trkpt>
      <trkpt lat="49.103658" lon="23.610564"></trkpt>
      <trkpt lat="49.104256" lon="23.609791"></trkpt>
      <trkpt lat="49.107878" lon="23.607267"></trkpt>
      <trkpt lat="49.109259" lon="23.604208"></trkpt>
      <trkpt lat="49.109974" lon="23.602157"></trkpt>
      <trkpt lat="49.110218" lon="23.600531"></trkpt>
      <trkpt lat="49.110119" lon="23.598746"></trkpt>
      <trkpt lat="49.109396" lon="23.594222"></trkpt>
      <trkpt lat="49.108888" lon="23.592507"></trkpt>
      <trkpt lat="49.108437" lon="23.591868"></trkpt>
      <trkpt lat="49.107843" lon="23.591514"></trkpt>
      <trkpt lat="49.106851" lon="23.591271"></trkpt>
      <trkpt lat="49.102192" lon="23.59058"></trkpt>
      <trkpt lat="49.101451" lon="23.590336"></trkpt>
      <trkpt lat="49.088827" lon="23.583702"></trkpt>
      <trkpt lat="49.087438" lon="23.582867"></trkpt>
      <trkpt lat="49.072663" lon="23.564873"></trkpt>
      <trkpt lat="49.06328" lon="23.553642"></trkpt>
      <trkpt lat="49.062581" lon="23.552583"></trkpt>
      <trkpt lat="49.055311" lon="23.538307"></trkpt>
      <trkpt lat="49.053269" lon="23.533862"></trkpt>
      <trkpt lat="49.052814" lon="23.532298"></trkpt>
      <trkpt lat="49.052634" lon="23.532119"></trkpt>
      <trkpt lat="49.052171" lon="23.530396"></trkpt>
      <trkpt lat="49.051457" lon="23.528684"></trkpt>
      <trkpt lat="49.049013" lon="23.525445"></trkpt>
      <trkpt lat="49.048037" lon="23.523276"></trkpt>
      <trkpt lat="49.047764" lon="23.523025"></trkpt>
      <trkpt lat="49.046898" lon="23.52261"></trkpt>
      <trkpt lat="49.046124" lon="23.521993"></trkpt>
      <trkpt lat="49.046551" lon="23.521794"></trkpt>
      <trkpt lat="49.047235" lon="23.520944"></trkpt>
      <trkpt lat="49.04732" lon="23.520926"></trkpt>
      <trkpt lat="49.047496" lon="23.521268"></trkpt>
      <trkpt lat="49.047303" lon="23.521477"></trkpt>
      <trkpt lat="49.045858" lon="23.515767"></trkpt>
      <trkpt lat="49.04529" lon="23.514329"></trkpt>
      <trkpt lat="49.043957" lon="23.512543"></trkpt>
      <trkpt lat="49.043691" lon="23.512015"></trkpt>
      <trkpt lat="49.041504" lon="23.506189"></trkpt>
      <trkpt lat="49.040725" lon="23.504424"></trkpt>
      <trkpt lat="49.040309" lon="23.503749"></trkpt>
      <trkpt lat="49.039751" lon="23.503134"></trkpt>
      <trkpt lat="49.039129" lon="23.502654"></trkpt>
      <trkpt lat="49.037624" lon="23.50201"></trkpt>
      <trkpt lat="49.036653" lon="23.501763"></trkpt>
      <trkpt lat="49.034737" lon="23.501713"></trkpt>
      <trkpt lat="49.029366" lon="23.501889"></trkpt>
      <trkpt lat="49.02901" lon="23.501822"></trkpt>
      <trkpt lat="49.028585" lon="23.501567"></trkpt>
      <trkpt lat="49.026193" lon="23.498508"></trkpt>
      <trkpt lat="49.025532" lon="23.497386"></trkpt>
      <trkpt lat="49.019262" lon="23.479274"></trkpt>
      <trkpt lat="49.018039" lon="23.476708"></trkpt>
      <trkpt lat="49.017586" lon="23.476194"></trkpt>
      <trkpt lat="49.016143" lon="23.475221"></trkpt>
      <trkpt lat="49.010596" lon="23.473483"></trkpt>
      <trkpt lat="49.009856" lon="23.473128"></trkpt>
      <trkpt lat="49.009198" lon="23.47244"></trkpt>
      <trkpt lat="49.007644" lon="23.469353"></trkpt>
      <trkpt lat="49.006813" lon="23.468895"></trkpt>
      <trkpt lat="49.004603" lon="23.468398"></trkpt>
      <trkpt lat="49.004211" lon="23.46805"></trkpt>
      <trkpt lat="49.003242" lon="23.465653"></trkpt>
      <trkpt lat="49.003079" lon="23.464646"></trkpt>
      <trkpt lat="49.005459" lon="23.454731"></trkpt>
      <trkpt lat="49.006765" lon="23.438389"></trkpt>
      <trkpt lat="49.00711" lon="23.436662"></trkpt>
      <trkpt lat="49.009146" lon="23.429658"></trkpt>
      <trkpt lat="49.009339" lon="23.428293"></trkpt>
      <trkpt lat="49.009325" lon="23.426943"></trkpt>
      <trkpt lat="49.008939" lon="23.425645"></trkpt>
      <trkpt lat="49.0062" lon="23.419166"></trkpt>
      <trkpt lat="49.003817" lon="23.415182"></trkpt>
      <trkpt lat="49.003103" lon="23.414106"></trkpt>
      <trkpt lat="49.000123" lon="23.411932"></trkpt>
      <trkpt lat="48.999466" lon="23.411146"></trkpt>
      <trkpt lat="48.998696" lon="23.408856"></trkpt>
      <trkpt lat="48.998206" lon="23.406148"></trkpt>
      <trkpt lat="48.997812" lon="23.40502"></trkpt>
      <trkpt lat="48.997242" lon="23.404285"></trkpt>
      <trkpt lat="48.996325" lon="23.403797"></trkpt>
      <trkpt lat="48.995454" lon="23.403732"></trkpt>
      <trkpt lat="48.994356" lon="23.40391"></trkpt>
      <trkpt lat="48.993628" lon="23.403657"></trkpt>
      <trkpt lat="48.991584" lon="23.402344"></trkpt>
      <trkpt lat="48.990062" lon="23.400172"></trkpt>
      <trkpt lat="48.987977" lon="23.398904"></trkpt>
      <trkpt lat="48.986833" lon="23.397967"></trkpt>
      <trkpt lat="48.986262" lon="23.397633"></trkpt>
      <trkpt lat="48.98451" lon="23.397003"></trkpt>
      <trkpt lat="48.984154" lon="23.396737"></trkpt>
      <trkpt lat="48.983568" lon="23.395848"></trkpt>
      <trkpt lat="48.981747" lon="23.392093"></trkpt>
      <trkpt lat="48.981257" lon="23.392032"></trkpt>
      <trkpt lat="48.97877" lon="23.392541"></trkpt>
      <trkpt lat="48.977268" lon="23.392059"></trkpt>
      <trkpt lat="48.974934" lon="23.392199"></trkpt>
      <trkpt lat="48.974406" lon="23.392124"></trkpt>
      <trkpt lat="48.974107" lon="23.391937"></trkpt>
      <trkpt lat="48.971728" lon="23.389619"></trkpt>
      <trkpt lat="48.970791" lon="23.388273"></trkpt>
      <trkpt lat="48.96964" lon="23.387573"></trkpt>
      <trkpt lat="48.967464" lon="23.385439"></trkpt>
      <trkpt lat="48.966336" lon="23.384045"></trkpt>
      <trkpt lat="48.964688" lon="23.382498"></trkpt>
      <trkpt lat="48.963991" lon="23.381894"></trkpt>
      <trkpt lat="48.962527" lon="23.381165"></trkpt>
      <trkpt lat="48.96223" lon="23.380567"></trkpt>
      <trkpt lat="48.960919" lon="23.374357"></trkpt>
      <trkpt lat="48.95968" lon="23.367363"></trkpt>
      <trkpt lat="48.958125" lon="23.364699"></trkpt>
      <trkpt lat="48.956964" lon="23.361402"></trkpt>
      <trkpt lat="48.954757" lon="23.358626"></trkpt>
      <trkpt lat="48.953634" lon="23.35669"></trkpt>
      <trkpt lat="48.951628" lon="23.354401"></trkpt>
      <trkpt lat="48.951325" lon="23.353806"></trkpt>
      <trkpt lat="48.950685" lon="23.35013"></trkpt>
      <trkpt lat="48.950253" lon="23.345613"></trkpt>
      <trkpt lat="48.949409" lon="23.34127"></trkpt>
      <trkpt lat="48.949283" lon="23.339667"></trkpt>
      <trkpt lat="48.947557" lon="23.335662"></trkpt>
      <trkpt lat="48.947116" lon="23.335381"></trkpt>
      <trkpt lat="48.945408" lon="23.335219"></trkpt>
      <trkpt lat="48.944778" lon="23.335051"></trkpt>
      <trkpt lat="48.944258" lon="23.334592"></trkpt>
      <trkpt lat="48.943108" lon="23.33323"></trkpt>
      <trkpt lat="48.941762" lon="23.332402"></trkpt>
      <trkpt lat="48.939376" lon="23.330449"></trkpt>
      <trkpt lat="48.937168" lon="23.326642"></trkpt>
      <trkpt lat="48.935428" lon="23.325103"></trkpt>
      <trkpt lat="48.934482" lon="23.322881"></trkpt>
      <trkpt lat="48.932671" lon="23.321455"></trkpt>
      <trkpt lat="48.930287" lon="23.31881"></trkpt>
      <trkpt lat="48.927857" lon="23.317299"></trkpt>
      <trkpt lat="48.926905" lon="23.315746"></trkpt>
      <trkpt lat="48.925231" lon="23.314209"></trkpt>
      <trkpt lat="48.924469" lon="23.312942"></trkpt>
      <trkpt lat="48.924044" lon="23.3112"></trkpt>
      <trkpt lat="48.92355" lon="23.310257"></trkpt>
      <trkpt lat="48.921426" lon="23.308724"></trkpt>
      <trkpt lat="48.918982" lon="23.307159"></trkpt>
      <trkpt lat="48.918639" lon="23.306802"></trkpt>
      <trkpt lat="48.918234" lon="23.306012"></trkpt>
      <trkpt lat="48.917233" lon="23.303147"></trkpt>
      <trkpt lat="48.916649" lon="23.302112"></trkpt>
      <trkpt lat="48.914936" lon="23.300092"></trkpt>
      <trkpt lat="48.913772" lon="23.29805"></trkpt>
      <trkpt lat="48.911786" lon="23.296358"></trkpt>
      <trkpt lat="48.909556" lon="23.293477"></trkpt>
      <trkpt lat="48.909087" lon="23.293107"></trkpt>
      <trkpt lat="48.908063" lon="23.292601"></trkpt>
      <trkpt lat="48.907145" lon="23.292588"></trkpt>
      <trkpt lat="48.906599" lon="23.292779"></trkpt>
      <trkpt lat="48.905956" lon="23.293156"></trkpt>
      <trkpt lat="48.905309" lon="23.293799"></trkpt>
      <trkpt lat="48.90476" lon="23.294629"></trkpt>
      <trkpt lat="48.904351" lon="23.295544"></trkpt>
      <trkpt lat="48.904097" lon="23.295199"></trkpt>
      <trkpt lat="48.904605" lon="23.294306"></trkpt>
      <trkpt lat="48.904644" lon="23.294038"></trkpt>
      <trkpt lat="48.904072" lon="23.292607"></trkpt>
      <trkpt lat="48.903207" lon="23.293497"></trkpt>
      <trkpt lat="48.902893" lon="23.292086"></trkpt>
      <trkpt lat="48.902706" lon="23.291759"></trkpt>
      <trkpt lat="48.902551" lon="23.291791"></trkpt>
      <trkpt lat="48.901682" lon="23.292581"></trkpt>
      <trkpt lat="48.901678" lon="23.292243"></trkpt>
      <trkpt lat="48.900479" lon="23.288654"></trkpt>
      <trkpt lat="48.900098" lon="23.287994"></trkpt>
      <trkpt lat="48.899823" lon="23.287192"></trkpt>
      <trkpt lat="48.899432" lon="23.287099"></trkpt>
  </trkseg></trk>
</gpx>
