<?xml version="1.0" encoding="UTF-8"?>
<gpx version="1.1" creator="yatutbuv" xmlns="http://www.topografix.com/GPX/1/1">
  <trk><name>GraphHopper Track</name><trkseg>
      <trkpt lat="49.124163" lon="20.246332"></trkpt>
      <trkpt lat="49.124058" lon="20.245838"></trkpt>
      <trkpt lat="49.138257" lon="20.227126"></trkpt>
      <trkpt lat="49.138841" lon="20.226596"></trkpt>
      <trkpt lat="49.140176" lon="20.226122"></trkpt>
      <trkpt lat="49.139866" lon="20.226761"></trkpt>
      <trkpt lat="49.139132" lon="20.227129"></trkpt>
      <trkpt lat="49.138913" lon="20.227389"></trkpt>
      <trkpt lat="49.138471" lon="20.229664"></trkpt>
      <trkpt lat="49.138619" lon="20.2312"></trkpt>
      <trkpt lat="49.139495" lon="20.232468"></trkpt>
      <trkpt lat="49.140082" lon="20.23603"></trkpt>
      <trkpt lat="49.1404" lon="20.236671"></trkpt>
      <trkpt lat="49.142101" lon="20.238881"></trkpt>
      <trkpt lat="49.142376" lon="20.239492"></trkpt>
      <trkpt lat="49.142788" lon="20.241074"></trkpt>
      <trkpt lat="49.144071" lon="20.242876"></trkpt>
      <trkpt lat="49.144391" lon="20.243699"></trkpt>
      <trkpt lat="49.145166" lon="20.24677"></trkpt>
      <trkpt lat="49.145861" lon="20.248084"></trkpt>
      <trkpt lat="49.14831" lon="20.251852"></trkpt>
      <trkpt lat="49.148881" lon="20.252139"></trkpt>
      <trkpt lat="49.149833" lon="20.252013"></trkpt>
      <trkpt lat="49.150282" lon="20.252427"></trkpt>
      <trkpt lat="49.150419" lon="20.253105"></trkpt>
      <trkpt lat="49.150329" lon="20.255583"></trkpt>
      <trkpt lat="49.150095" lon="20.257447"></trkpt>
      <trkpt lat="49.150134" lon="20.258564"></trkpt>
      <trkpt lat="49.150325" lon="20.259286"></trkpt>
      <trkpt lat="49.150549" lon="20.259687"></trkpt>
      <trkpt lat="49.151556" lon="20.260305"></trkpt>
      <trkpt lat="49.15194" lon="20.260949"></trkpt>
      <trkpt lat="49.152015" lon="20.261689"></trkpt>
      <trkpt lat="49.151833" lon="20.263136"></trkpt>
      <trkpt lat="49.152099" lon="20.26408"></trkpt>
      <trkpt lat="49.153889" lon="20.267395"></trkpt>
      <trkpt lat="49.155172" lon="20.27067"></trkpt>
      <trkpt lat="49.155618" lon="20.2714"></trkpt>
      <trkpt lat="49.156281" lon="20.272101"></trkpt>
      <trkpt lat="49.157318" lon="20.27268"></trkpt>
      <trkpt lat="49.15848" lon="20.272829"></trkpt>
      <trkpt lat="49.159755" lon="20.272637"></trkpt>
      <trkpt lat="49.161277" lon="20.27196"></trkpt>
      <trkpt lat="49.161866" lon="20.27192"></trkpt>
      <trkpt lat="49.162405" lon="20.272157"></trkpt>
      <trkpt lat="49.162942" lon="20.272875"></trkpt>
      <trkpt lat="49.163244" lon="20.273791"></trkpt>
      <trkpt lat="49.163529" lon="20.275743"></trkpt>
      <trkpt lat="49.163739" lon="20.276465"></trkpt>
      <trkpt lat="49.164317" lon="20.27734"></trkpt>
      <trkpt lat="49.165335" lon="20.278106"></trkpt>
      <trkpt lat="49.165581" lon="20.278411"></trkpt>
      <trkpt lat="49.166531" lon="20.282427"></trkpt>
      <trkpt lat="49.167331" lon="20.284425"></trkpt>
      <trkpt lat="49.168203" lon="20.285935"></trkpt>
      <trkpt lat="49.168457" lon="20.286179"></trkpt>
      <trkpt lat="49.169768" lon="20.286855"></trkpt>
      <trkpt lat="49.170257" lon="20.287427"></trkpt>
      <trkpt lat="49.17063" lon="20.288123"></trkpt>
      <trkpt lat="49.171004" lon="20.289735"></trkpt>
      <trkpt lat="49.170939" lon="20.292324"></trkpt>
      <trkpt lat="49.171138" lon="20.293094"></trkpt>
      <trkpt lat="49.171423" lon="20.293573"></trkpt>
      <trkpt lat="49.171926" lon="20.293954"></trkpt>
      <trkpt lat="49.172564" lon="20.294065"></trkpt>
      <trkpt lat="49.174193" lon="20.293946"></trkpt>
      <trkpt lat="49.177345" lon="20.294048"></trkpt>
      <trkpt lat="49.17785" lon="20.293979"></trkpt>
      <trkpt lat="49.178424" lon="20.29361"></trkpt>
      <trkpt lat="49.181808" lon="20.290075"></trkpt>
      <trkpt lat="49.182297" lon="20.28975"></trkpt>
      <trkpt lat="49.18283" lon="20.289616"></trkpt>
      <trkpt lat="49.183273" lon="20.289636"></trkpt>
      <trkpt lat="49.183791" lon="20.289846"></trkpt>
      <trkpt lat="49.188756" lon="20.293384"></trkpt>
      <trkpt lat="49.194149" lon="20.300737"></trkpt>
      <trkpt lat="49.194886" lon="20.301596"></trkpt>
      <trkpt lat="49.197534" lon="20.303451"></trkpt>
      <trkpt lat="49.200726" lon="20.306265"></trkpt>
      <trkpt lat="49.206041" lon="20.309046"></trkpt>
      <trkpt lat="49.2067" lon="20.30963"></trkpt>
      <trkpt lat="49.207304" lon="20.310656"></trkpt>
      <trkpt lat="49.215353" lon="20.329184"></trkpt>
      <trkpt lat="49.215854" lon="20.329889"></trkpt>
      <trkpt lat="49.216472" lon="20.330419"></trkpt>
      <trkpt lat="49.219135" lon="20.331734"></trkpt>
      <trkpt lat="49.21962" lon="20.332089"></trkpt>
      <trkpt lat="49.220275" lon="20.332802"></trkpt>
      <trkpt lat="49.221979" lon="20.32897"></trkpt>
      <trkpt lat="49.224751" lon="20.324464"></trkpt>
      <trkpt lat="49.230047" lon="20.316612"></trkpt>
      <trkpt lat="49.231447" lon="20.315386"></trkpt>
      <trkpt lat="49.232006" lon="20.313929"></trkpt>
      <trkpt lat="49.232315" lon="20.313458"></trkpt>
      <trkpt lat="49.232804" lon="20.313282"></trkpt>
      <trkpt lat="49.233821" lon="20.31353"></trkpt>
      <trkpt lat="49.236308" lon="20.313193"></trkpt>
      <trkpt lat="49.236987" lon="20.312672"></trkpt>
      <trkpt lat="49.238428" lon="20.311016"></trkpt>
      <trkpt lat="49.238798" lon="20.310742"></trkpt>
      <trkpt lat="49.240312" lon="20.310578"></trkpt>
      <trkpt lat="49.243761" lon="20.309258"></trkpt>
      <trkpt lat="49.244699" lon="20.309391"></trkpt>
      <trkpt lat="49.246469" lon="20.310392"></trkpt>
      <trkpt lat="49.248365" lon="20.310604"></trkpt>
      <trkpt lat="49.248781" lon="20.31051"></trkpt>
      <trkpt lat="49.249049" lon="20.310274"></trkpt>
      <trkpt lat="49.254031" lon="20.303338"></trkpt>
      <trkpt lat="49.254911" lon="20.302543"></trkpt>
      <trkpt lat="49.255731" lon="20.302189"></trkpt>
      <trkpt lat="49.257299" lon="20.301886"></trkpt>
      <trkpt lat="49.258229" lon="20.302392"></trkpt>
      <trkpt lat="49.258682" lon="20.302425"></trkpt>
      <trkpt lat="49.259535" lon="20.302024"></trkpt>
      <trkpt lat="49.260485" lon="20.301083"></trkpt>
      <trkpt lat="49.261244" lon="20.300507"></trkpt>
      <trkpt lat="49.261515" lon="20.300506"></trkpt>
      <trkpt lat="49.26247" lon="20.300859"></trkpt>
      <trkpt lat="49.262871" lon="20.300738"></trkpt>
      <trkpt lat="49.263148" lon="20.300515"></trkpt>
      <trkpt lat="49.263518" lon="20.299913"></trkpt>
      <trkpt lat="49.264399" lon="20.297313"></trkpt>
      <trkpt lat="49.265849" lon="20.294035"></trkpt>
      <trkpt lat="49.266359" lon="20.292321"></trkpt>
      <trkpt lat="49.266639" lon="20.290623"></trkpt>
      <trkpt lat="49.266738" lon="20.286204"></trkpt>
      <trkpt lat="49.268329" lon="20.282983"></trkpt>
      <trkpt lat="49.268683" lon="20.282566"></trkpt>
      <trkpt lat="49.269594" lon="20.281897"></trkpt>
      <trkpt lat="49.270575" lon="20.280473"></trkpt>
      <trkpt lat="49.270773" lon="20.279764"></trkpt>
      <trkpt lat="49.271312" lon="20.27396"></trkpt>
      <trkpt lat="49.271318" lon="20.27298"></trkpt>
      <trkpt lat="49.270973" lon="20.271534"></trkpt>
      <trkpt lat="49.270181" lon="20.269933"></trkpt>
      <trkpt lat="49.269848" lon="20.268988"></trkpt>
      <trkpt lat="49.269599" lon="20.267624"></trkpt>
      <trkpt lat="49.269579" lon="20.26625"></trkpt>
      <trkpt lat="49.270268" lon="20.259971"></trkpt>
      <trkpt lat="49.271739" lon="20.254237"></trkpt>
      <trkpt lat="49.27285" lon="20.25152"></trkpt>
      <trkpt lat="49.273177" lon="20.249927"></trkpt>
      <trkpt lat="49.273485" lon="20.245837"></trkpt>
      <trkpt lat="49.272839" lon="20.234728"></trkpt>
      <trkpt lat="49.273019" lon="20.232244"></trkpt>
      <trkpt lat="49.274451" lon="20.226992"></trkpt>
      <trkpt lat="49.275989" lon="20.223075"></trkpt>
      <trkpt lat="49.277547" lon="20.219797"></trkpt>
      <trkpt lat="49.28015" lon="20.210703"></trkpt>
      <trkpt lat="49.280426" lon="20.209025"></trkpt>
      <trkpt lat="49.280339" lon="20.208156"></trkpt>
      <trkpt lat="49.279981" lon="20.207584"></trkpt>
      <trkpt lat="49.279612" lon="20.207418"></trkpt>
      <trkpt lat="49.278512" lon="20.207301"></trkpt>
      <trkpt lat="49.278112" lon="20.207026"></trkpt>
      <trkpt lat="49.277682" lon="20.206404"></trkpt>
      <trkpt lat="49.276261" lon="20.200778"></trkpt>
      <trkpt lat="49.276201" lon="20.199645"></trkpt>
      <trkpt lat="49.276346" lon="20.198306"></trkpt>
      <trkpt lat="49.277389" lon="20.194779"></trkpt>
      <trkpt lat="49.278152" lon="20.191171"></trkpt>
      <trkpt lat="49.278244" lon="20.189612"></trkpt>
      <trkpt lat="49.278018" lon="20.188254"></trkpt>
      <trkpt lat="49.277608" lon="20.187543"></trkpt>
      <trkpt lat="49.277035" lon="20.187298"></trkpt>
      <trkpt lat="49.276459" lon="20.187561"></trkpt>
      <trkpt lat="49.275048" lon="20.189017"></trkpt>
      <trkpt lat="49.274845" lon="20.189075"></trkpt>
      <trkpt lat="49.274608" lon="20.188959"></trkpt>
      <trkpt lat="49.274432" lon="20.188342"></trkpt>
      <trkpt lat="49.274548" lon="20.18795"></trkpt>
      <trkpt lat="49.275944" lon="20.186293"></trkpt>
      <trkpt lat="49.27748" lon="20.183783"></trkpt>
      <trkpt lat="49.278877" lon="20.178982"></trkpt>
      <trkpt lat="49.279634" lon="20.177254"></trkpt>
      <trkpt lat="49.279827" lon="20.17708"></trkpt>
      <trkpt lat="49.280169" lon="20.176032"></trkpt>
      <trkpt lat="49.280738" lon="20.175302"></trkpt>
      <trkpt lat="49.281485" lon="20.174797"></trkpt>
      <trkpt lat="49.282719" lon="20.174363"></trkpt>
      <trkpt lat="49.283378" lon="20.174397"></trkpt>
      <trkpt lat="49.286219" lon="20.175118"></trkpt>
      <trkpt lat="49.286902" lon="20.175091"></trkpt>
      <trkpt lat="49.288035" lon="20.17467"></trkpt>
      <trkpt lat="49.288743" lon="20.174141"></trkpt>
      <trkpt lat="49.289313" lon="20.173542"></trkpt>
      <trkpt lat="49.294366" lon="20.166511"></trkpt>
      <trkpt lat="49.294973" lon="20.165759"></trkpt>
      <trkpt lat="49.295708" lon="20.165115"></trkpt>
      <trkpt lat="49.296727" lon="20.164615"></trkpt>
      <trkpt lat="49.299223" lon="20.163885"></trkpt>
      <trkpt lat="49.306073" lon="20.159598"></trkpt>
      <trkpt lat="49.307253" lon="20.15926"></trkpt>
      <trkpt lat="49.308137" lon="20.158844"></trkpt>
      <trkpt lat="49.309134" lon="20.158019"></trkpt>
      <trkpt lat="49.314367" lon="20.155671"></trkpt>
      <trkpt lat="49.316804" lon="20.155268"></trkpt>
      <trkpt lat="49.321637" lon="20.154819"></trkpt>
      <trkpt lat="49.323712" lon="20.154988"></trkpt>
      <trkpt lat="49.324368" lon="20.154761"></trkpt>
      <trkpt lat="49.328893" lon="20.151643"></trkpt>
      <trkpt lat="49.33196" lon="20.148264"></trkpt>
      <trkpt lat="49.333632" lon="20.146808"></trkpt>
      <trkpt lat="49.33398" lon="20.146606"></trkpt>
      <trkpt lat="49.336306" lon="20.145852"></trkpt>
      <trkpt lat="49.339076" lon="20.143892"></trkpt>
      <trkpt lat="49.346793" lon="20.135505"></trkpt>
      <trkpt lat="49.347434" lon="20.135237"></trkpt>
      <trkpt lat="49.34907" lon="20.13491"></trkpt>
      <trkpt lat="49.352008" lon="20.13497"></trkpt>
      <trkpt lat="49.355427" lon="20.133881"></trkpt>
      <trkpt lat="49.357057" lon="20.132053"></trkpt>
      <trkpt lat="49.358563" lon="20.131019"></trkpt>
      <trkpt lat="49.358816" lon="20.13049"></trkpt>
      <trkpt lat="49.358908" lon="20.129779"></trkpt>
      <trkpt lat="49.359263" lon="20.129332"></trkpt>
      <trkpt lat="49.359748" lon="20.128362"></trkpt>
      <trkpt lat="49.36049" lon="20.127554"></trkpt>
      <trkpt lat="49.360733" lon="20.127084"></trkpt>
      <trkpt lat="49.362364" lon="20.125955"></trkpt>
      <trkpt lat="49.363963" lon="20.123649"></trkpt>
      <trkpt lat="49.365368" lon="20.122431"></trkpt>
      <trkpt lat="49.365662" lon="20.122318"></trkpt>
      <trkpt lat="49.366035" lon="20.122259"></trkpt>
      <trkpt lat="49.366716" lon="20.12251"></trkpt>
      <trkpt lat="49.367612" lon="20.122344"></trkpt>
      <trkpt lat="49.368115" lon="20.122403"></trkpt>
      <trkpt lat="49.368665" lon="20.122837"></trkpt>
      <trkpt lat="49.369226" lon="20.122923"></trkpt>
      <trkpt lat="49.36979" lon="20.123684"></trkpt>
      <trkpt lat="49.371201" lon="20.12469"></trkpt>
      <trkpt lat="49.371416" lon="20.125224"></trkpt>
      <trkpt lat="49.371417" lon="20.125707"></trkpt>
      <trkpt lat="49.370711" lon="20.129531"></trkpt>
      <trkpt lat="49.370822" lon="20.129862"></trkpt>
      <trkpt lat="49.372482" lon="20.128843"></trkpt>
      <trkpt lat="49.37509" lon="20.130103"></trkpt>
      <trkpt lat="49.376459" lon="20.130249"></trkpt>
      <trkpt lat="49.377322" lon="20.131128"></trkpt>
      <trkpt lat="49.379278" lon="20.131722"></trkpt>
      <trkpt lat="49.380051" lon="20.132158"></trkpt>
      <trkpt lat="49.380468" lon="20.132527"></trkpt>
      <trkpt lat="49.382255" lon="20.132767"></trkpt>
      <trkpt lat="49.383506" lon="20.132468"></trkpt>
      <trkpt lat="49.385744" lon="20.132297"></trkpt>
      <trkpt lat="49.38725" lon="20.133323"></trkpt>
      <trkpt lat="49.388744" lon="20.133666"></trkpt>
      <trkpt lat="49.390422" lon="20.134823"></trkpt>
      <trkpt lat="49.391413" lon="20.134843"></trkpt>
      <trkpt lat="49.39236" lon="20.13458"></trkpt>
      <trkpt lat="49.392781" lon="20.134653"></trkpt>
      <trkpt lat="49.394403" lon="20.135964"></trkpt>
      <trkpt lat="49.395323" lon="20.13586"></trkpt>
      <trkpt lat="49.397177" lon="20.135322"></trkpt>
      <trkpt lat="49.399065" lon="20.135469"></trkpt>
      <trkpt lat="49.400142" lon="20.134942"></trkpt>
      <trkpt lat="49.402324" lon="20.135151"></trkpt>
      <trkpt lat="49.403661" lon="20.135592"></trkpt>
      <trkpt lat="49.404517" lon="20.135503"></trkpt>
      <trkpt lat="49.407328" lon="20.134783"></trkpt>
      <trkpt lat="49.407843" lon="20.134953"></trkpt>
      <trkpt lat="49.408651" lon="20.135751"></trkpt>
      <trkpt lat="49.408922" lon="20.134175"></trkpt>
      <trkpt lat="49.40962" lon="20.13194"></trkpt>
      <trkpt lat="49.409946" lon="20.128114"></trkpt>
      <trkpt lat="49.410163" lon="20.127414"></trkpt>
      <trkpt lat="49.410484" lon="20.127159"></trkpt>
      <trkpt lat="49.414194" lon="20.126143"></trkpt>
      <trkpt lat="49.414448" lon="20.12594"></trkpt>
      <trkpt lat="49.415109" lon="20.124963"></trkpt>
      <trkpt lat="49.417275" lon="20.11977"></trkpt>
      <trkpt lat="49.42024" lon="20.11792"></trkpt>
      <trkpt lat="49.420555" lon="20.117311"></trkpt>
      <trkpt lat="49.421099" lon="20.096269"></trkpt>
      <trkpt lat="49.421053" lon="20.095606"></trkpt>
      <trkpt lat="49.420348" lon="20.092453"></trkpt>
      <trkpt lat="49.426166" lon="20.08755"></trkpt>
      <trkpt lat="49.432489" lon="20.086293"></trkpt>
      <trkpt lat="49.43309" lon="20.086083"></trkpt>
      <trkpt lat="49.433913" lon="20.085417"></trkpt>
      <trkpt lat="49.435126" lon="20.083522"></trkpt>
      <trkpt lat="49.435806" lon="20.08291"></trkpt>
      <trkpt lat="49.438209" lon="20.082205"></trkpt>
      <trkpt lat="49.442389" lon="20.079816"></trkpt>
      <trkpt lat="49.44568" lon="20.079222"></trkpt>
      <trkpt lat="49.44657" lon="20.0788"></trkpt>
      <trkpt lat="49.447777" lon="20.077626"></trkpt>
      <trkpt lat="49.449377" lon="20.076379"></trkpt>
      <trkpt lat="49.454846" lon="20.071023"></trkpt>
      <trkpt lat="49.455347" lon="20.070695"></trkpt>
      <trkpt lat="49.456884" lon="20.070024"></trkpt>
      <trkpt lat="49.457659" lon="20.069407"></trkpt>
      <trkpt lat="49.45956" lon="20.067158"></trkpt>
      <trkpt lat="49.459781" lon="20.066937"></trkpt>
      <trkpt lat="49.460061" lon="20.066872"></trkpt>
      <trkpt lat="49.460327" lon="20.065956"></trkpt>
      <trkpt lat="49.461401" lon="20.064088"></trkpt>
      <trkpt lat="49.461963" lon="20.06343"></trkpt>
      <trkpt lat="49.464574" lon="20.061665"></trkpt>
      <trkpt lat="49.46593" lon="20.060308"></trkpt>
      <trkpt lat="49.467322" lon="20.059443"></trkpt>
      <trkpt lat="49.470355" lon="20.056586"></trkpt>
      <trkpt lat="49.472681" lon="20.05513"></trkpt>
      <trkpt lat="49.474061" lon="20.054526"></trkpt>
      <trkpt lat="49.474571" lon="20.054073"></trkpt>
      <trkpt lat="49.475487" lon="20.052662"></trkpt>
      <trkpt lat="49.476267" lon="20.051089"></trkpt>
      <trkpt lat="49.476724" lon="20.050622"></trkpt>
      <trkpt lat="49.476392" lon="20.049902"></trkpt>
      <trkpt lat="49.475726" lon="20.047534"></trkpt>
      <trkpt lat="49.475567" lon="20.046138"></trkpt>
      <trkpt lat="49.475594" lon="20.044748"></trkpt>
      <trkpt lat="49.475912" lon="20.042953"></trkpt>
      <trkpt lat="49.477349" lon="20.03777"></trkpt>
      <trkpt lat="49.47761" lon="20.037296"></trkpt>
      <trkpt lat="49.4774" lon="20.024269"></trkpt>
      <trkpt lat="49.476603" lon="20.02428"></trkpt>
      <trkpt lat="49.476393" lon="20.024026"></trkpt>
      <trkpt lat="49.476267" lon="20.023311"></trkpt>
      <trkpt lat="49.476479" lon="20.022725"></trkpt>
      <trkpt lat="49.476966" lon="20.0224"></trkpt>
      <trkpt lat="49.478878" lon="20.021999"></trkpt>
      <trkpt lat="49.482438" lon="20.020628"></trkpt>
      <trkpt lat="49.482619" lon="20.020652"></trkpt>
      <trkpt lat="49.482753" lon="20.020519"></trkpt>
      <trkpt lat="49.48918" lon="20.018004"></trkpt>
      <trkpt lat="49.489943" lon="20.017438"></trkpt>
      <trkpt lat="49.490345" lon="20.016822"></trkpt>
      <trkpt lat="49.492107" lon="20.012961"></trkpt>
      <trkpt lat="49.496313" lon="20.004502"></trkpt>
      <trkpt lat="49.502677" lon="19.99746"></trkpt>
      <trkpt lat="49.506801" lon="19.992109"></trkpt>
      <trkpt lat="49.508389" lon="19.990733"></trkpt>
      <trkpt lat="49.508748" lon="19.990081"></trkpt>
      <trkpt lat="49.508991" lon="19.989918"></trkpt>
      <trkpt lat="49.508981" lon="19.989608"></trkpt>
      <trkpt lat="49.50972" lon="19.987939"></trkpt>
      <trkpt lat="49.511285" lon="19.986177"></trkpt>
      <trkpt lat="49.512056" lon="19.985142"></trkpt>
      <trkpt lat="49.518037" lon="19.975841"></trkpt>
      <trkpt lat="49.519039" lon="19.974612"></trkpt>
      <trkpt lat="49.519748" lon="19.973938"></trkpt>
      <trkpt lat="49.521467" lon="19.972816"></trkpt>
      <trkpt lat="49.522412" lon="19.972445"></trkpt>
      <trkpt lat="49.523629" lon="19.972231"></trkpt>
      <trkpt lat="49.524363" lon="19.972222"></trkpt>
      <trkpt lat="49.52779" lon="19.972599"></trkpt>
      <trkpt lat="49.529049" lon="19.972603"></trkpt>
      <trkpt lat="49.53703" lon="19.972159"></trkpt>
      <trkpt lat="49.538111" lon="19.971877"></trkpt>
      <trkpt lat="49.538946" lon="19.971457"></trkpt>
      <trkpt lat="49.539594" lon="19.971007"></trkpt>
      <trkpt lat="49.540609" lon="19.970053"></trkpt>
      <trkpt lat="49.543909" lon="19.966397"></trkpt>
      <trkpt lat="49.544806" lon="19.96501"></trkpt>
      <trkpt lat="49.545298" lon="19.963979"></trkpt>
      <trkpt lat="49.546993" lon="19.958405"></trkpt>
      <trkpt lat="49.548215" lon="19.955363"></trkpt>
      <trkpt lat="49.548675" lon="19.953884"></trkpt>
      <trkpt lat="49.549001" lon="19.952239"></trkpt>
      <trkpt lat="49.549621" lon="19.947529"></trkpt>
      <trkpt lat="49.550177" lon="19.945284"></trkpt>
      <trkpt lat="49.551182" lon="19.943018"></trkpt>
      <trkpt lat="49.551985" lon="19.941825"></trkpt>
      <trkpt lat="49.552711" lon="19.941023"></trkpt>
      <trkpt lat="49.554113" lon="19.93998"></trkpt>
      <trkpt lat="49.555407" lon="19.939469"></trkpt>
      <trkpt lat="49.556521" lon="19.93932"></trkpt>
      <trkpt lat="49.558075" lon="19.939578"></trkpt>
      <trkpt lat="49.558933" lon="19.939958"></trkpt>
      <trkpt lat="49.559673" lon="19.940442"></trkpt>
      <trkpt lat="49.563762" lon="19.943925"></trkpt>
      <trkpt lat="49.566421" lon="19.94561"></trkpt>
      <trkpt lat="49.568113" lon="19.946423"></trkpt>
      <trkpt lat="49.570149" lon="19.947164"></trkpt>
      <trkpt lat="49.572333" lon="19.947666"></trkpt>
      <trkpt lat="49.573205" lon="19.947665"></trkpt>
      <trkpt lat="49.573692" lon="19.947274"></trkpt>
      <trkpt lat="49.573964" lon="19.946801"></trkpt>
      <trkpt lat="49.575806" lon="19.942476"></trkpt>
      <trkpt lat="49.57656" lon="19.939367"></trkpt>
      <trkpt lat="49.576935" lon="19.938686"></trkpt>
      <trkpt lat="49.57733" lon="19.938301"></trkpt>
      <trkpt lat="49.582367" lon="19.935975"></trkpt>
      <trkpt lat="49.582887" lon="19.93589"></trkpt>
      <trkpt lat="49.583503" lon="19.936112"></trkpt>
      <trkpt lat="49.584326" lon="19.936891"></trkpt>
      <trkpt lat="49.584794" lon="19.937403"></trkpt>
      <trkpt lat="49.585272" lon="19.938345"></trkpt>
      <trkpt lat="49.585537" lon="19.938624"></trkpt>
      <trkpt lat="49.585948" lon="19.938695"></trkpt>
      <trkpt lat="49.58628" lon="19.938481"></trkpt>
      <trkpt lat="49.586532" lon="19.938005"></trkpt>
      <trkpt lat="49.586591" lon="19.937328"></trkpt>
      <trkpt lat="49.585916" lon="19.935453"></trkpt>
      <trkpt lat="49.585647" lon="19.933826"></trkpt>
      <trkpt lat="49.585753" lon="19.933017"></trkpt>
      <trkpt lat="49.586176" lon="19.932428"></trkpt>
      <trkpt lat="49.586459" lon="19.932317"></trkpt>
      <trkpt lat="49.586773" lon="19.932351"></trkpt>
      <trkpt lat="49.592128" lon="19.933867"></trkpt>
      <trkpt lat="49.592616" lon="19.933895"></trkpt>
      <trkpt lat="49.593057" lon="19.933632"></trkpt>
      <trkpt lat="49.593302" lon="19.933312"></trkpt>
      <trkpt lat="49.59388" lon="19.931447"></trkpt>
      <trkpt lat="49.594256" lon="19.930901"></trkpt>
      <trkpt lat="49.594732" lon="19.930654"></trkpt>
      <trkpt lat="49.59773" lon="19.930069"></trkpt>
      <trkpt lat="49.598316" lon="19.929843"></trkpt>
      <trkpt lat="49.599099" lon="19.92929"></trkpt>
      <trkpt lat="49.603836" lon="19.925273"></trkpt>
      <trkpt lat="49.604508" lon="19.924889"></trkpt>
      <trkpt lat="49.605148" lon="19.924715"></trkpt>
      <trkpt lat="49.605907" lon="19.924734"></trkpt>
      <trkpt lat="49.608823" lon="19.925882"></trkpt>
      <trkpt lat="49.609829" lon="19.926104"></trkpt>
      <trkpt lat="49.611054" lon="19.926217"></trkpt>
      <trkpt lat="49.612987" lon="19.926053"></trkpt>
      <trkpt lat="49.614137" lon="19.925747"></trkpt>
      <trkpt lat="49.615562" lon="19.925161"></trkpt>
      <trkpt lat="49.617165" lon="19.924172"></trkpt>
      <trkpt lat="49.62203" lon="19.920646"></trkpt>
      <trkpt lat="49.623557" lon="19.91968"></trkpt>
      <trkpt lat="49.625318" lon="19.918757"></trkpt>
      <trkpt lat="49.62884" lon="19.917335"></trkpt>
      <trkpt lat="49.631326" lon="19.916134"></trkpt>
      <trkpt lat="49.633108" lon="19.915023"></trkpt>
      <trkpt lat="49.637313" lon="19.911864"></trkpt>
      <trkpt lat="49.639028" lon="19.910727"></trkpt>
      <trkpt lat="49.651282" lon="19.904259"></trkpt>
      <trkpt lat="49.653387" lon="19.903032"></trkpt>
      <trkpt lat="49.655892" lon="19.901113"></trkpt>
      <trkpt lat="49.667537" lon="19.890201"></trkpt>
      <trkpt lat="49.66989" lon="19.88878"></trkpt>
      <trkpt lat="49.671847" lon="19.888147"></trkpt>
      <trkpt lat="49.673904" lon="19.887938"></trkpt>
      <trkpt lat="49.675982" lon="19.888229"></trkpt>
      <trkpt lat="49.677877" lon="19.888939"></trkpt>
      <trkpt lat="49.679449" lon="19.889893"></trkpt>
      <trkpt lat="49.690236" lon="19.898786"></trkpt>
      <trkpt lat="49.691951" lon="19.900906"></trkpt>
      <trkpt lat="49.693303" lon="19.90338"></trkpt>
      <trkpt lat="49.694057" lon="19.905381"></trkpt>
      <trkpt lat="49.694545" lon="19.907087"></trkpt>
      <trkpt lat="49.695002" lon="19.909555"></trkpt>
      <trkpt lat="49.695184" lon="19.911695"></trkpt>
      <trkpt lat="49.695101" lon="19.915296"></trkpt>
      <trkpt lat="49.694339" lon="19.921013"></trkpt>
      <trkpt lat="49.694143" lon="19.923915"></trkpt>
      <trkpt lat="49.69419" lon="19.927791"></trkpt>
      <trkpt lat="49.694545" lon="19.931353"></trkpt>
      <trkpt lat="49.695262" lon="19.935079"></trkpt>
      <trkpt lat="49.695899" lon="19.937501"></trkpt>
      <trkpt lat="49.696466" lon="19.939172"></trkpt>
      <trkpt lat="49.697514" lon="19.941663"></trkpt>
      <trkpt lat="49.700755" lon="19.948533"></trkpt>
      <trkpt lat="49.70127" lon="19.94996"></trkpt>
      <trkpt lat="49.701626" lon="19.951365"></trkpt>
      <trkpt lat="49.701894" lon="19.95321"></trkpt>
      <trkpt lat="49.701964" lon="19.954892"></trkpt>
      <trkpt lat="49.701804" lon="19.957148"></trkpt>
      <trkpt lat="49.701138" lon="19.960678"></trkpt>
      <trkpt lat="49.701152" lon="19.961759"></trkpt>
      <trkpt lat="49.701353" lon="19.962838"></trkpt>
      <trkpt lat="49.701832" lon="19.964052"></trkpt>
      <trkpt lat="49.70306" lon="19.966294"></trkpt>
      <trkpt lat="49.707319" lon="19.972412"></trkpt>
      <trkpt lat="49.708514" lon="19.973653"></trkpt>
      <trkpt lat="49.710774" lon="19.975078"></trkpt>
      <trkpt lat="49.711801" lon="19.976004"></trkpt>
      <trkpt lat="49.712793" lon="19.977377"></trkpt>
      <trkpt lat="49.714211" lon="19.979952"></trkpt>
      <trkpt lat="49.715085" lon="19.980896"></trkpt>
      <trkpt lat="49.715802" lon="19.981366"></trkpt>
      <trkpt lat="49.716775" lon="19.981686"></trkpt>
      <trkpt lat="49.71775" lon="19.981672"></trkpt>
      <trkpt lat="49.718549" lon="19.981417"></trkpt>
      <trkpt lat="49.720952" lon="19.979943"></trkpt>
      <trkpt lat="49.721798" lon="19.979535"></trkpt>
      <trkpt lat="49.722667" lon="19.97937"></trkpt>
      <trkpt lat="49.72573" lon="19.979303"></trkpt>
      <trkpt lat="49.726248" lon="19.979209"></trkpt>
      <trkpt lat="49.734118" lon="19.975112"></trkpt>
      <trkpt lat="49.734984" lon="19.974799"></trkpt>
      <trkpt lat="49.736012" lon="19.974808"></trkpt>
      <trkpt lat="49.736758" lon="19.975073"></trkpt>
      <trkpt lat="49.737541" lon="19.975626"></trkpt>
      <trkpt lat="49.738853" lon="19.976937"></trkpt>
      <trkpt lat="49.739659" lon="19.977453"></trkpt>
      <trkpt lat="49.740633" lon="19.977705"></trkpt>
      <trkpt lat="49.741829" lon="19.977516"></trkpt>
      <trkpt lat="49.746108" lon="19.974958"></trkpt>
      <trkpt lat="49.749997" lon="19.971947"></trkpt>
      <trkpt lat="49.753999" lon="19.970419"></trkpt>
      <trkpt lat="49.754823" lon="19.969765"></trkpt>
      <trkpt lat="49.756101" lon="19.968384"></trkpt>
      <trkpt lat="49.756806" lon="19.967848"></trkpt>
      <trkpt lat="49.757568" lon="19.967511"></trkpt>
      <trkpt lat="49.762437" lon="19.966012"></trkpt>
      <trkpt lat="49.763062" lon="19.965707"></trkpt>
      <trkpt lat="49.769269" lon="19.960632"></trkpt>
      <trkpt lat="49.775666" lon="19.957786"></trkpt>
      <trkpt lat="49.776525" lon="19.957277"></trkpt>
      <trkpt lat="49.784025" lon="19.949742"></trkpt>
      <trkpt lat="49.784475" lon="19.94901"></trkpt>
      <trkpt lat="49.784905" lon="19.947823"></trkpt>
      <trkpt lat="49.785269" lon="19.944843"></trkpt>
      <trkpt lat="49.785536" lon="19.94369"></trkpt>
      <trkpt lat="49.787299" lon="19.940216"></trkpt>
      <trkpt lat="49.788333" lon="19.936919"></trkpt>
      <trkpt lat="49.788637" lon="19.935381"></trkpt>
      <trkpt lat="49.788983" lon="19.932203"></trkpt>
      <trkpt lat="49.789379" lon="19.930672"></trkpt>
      <trkpt lat="49.790518" lon="19.927875"></trkpt>
      <trkpt lat="49.791613" lon="19.926032"></trkpt>
      <trkpt lat="49.79236" lon="19.925154"></trkpt>
      <trkpt lat="49.79399" lon="19.923974"></trkpt>
      <trkpt lat="49.794523" lon="19.923732"></trkpt>
      <trkpt lat="49.795391" lon="19.923585"></trkpt>
      <trkpt lat="49.7963" lon="19.923744"></trkpt>
      <trkpt lat="49.798615" lon="19.924696"></trkpt>
      <trkpt lat="49.801015" lon="19.92503"></trkpt>
      <trkpt lat="49.802804" lon="19.925436"></trkpt>
      <trkpt lat="49.803725" lon="19.92549"></trkpt>
      <trkpt lat="49.805216" lon="19.92529"></trkpt>
      <trkpt lat="49.806597" lon="19.924843"></trkpt>
      <trkpt lat="49.81021" lon="19.922291"></trkpt>
      <trkpt lat="49.810753" lon="19.922081"></trkpt>
      <trkpt lat="49.811668" lon="19.922114"></trkpt>
      <trkpt lat="49.812899" lon="19.922577"></trkpt>
      <trkpt lat="49.813632" lon="19.923156"></trkpt>
      <trkpt lat="49.816236" lon="19.927226"></trkpt>
      <trkpt lat="49.817111" lon="19.928996"></trkpt>
      <trkpt lat="49.819457" lon="19.935548"></trkpt>
      <trkpt lat="49.821428" lon="19.938921"></trkpt>
      <trkpt lat="49.822011" lon="19.939679"></trkpt>
      <trkpt lat="49.823589" lon="19.941249"></trkpt>
      <trkpt lat="49.824827" lon="19.942129"></trkpt>
      <trkpt lat="49.825321" lon="19.942707"></trkpt>
      <trkpt lat="49.825677" lon="19.943607"></trkpt>
      <trkpt lat="49.825926" lon="19.945019"></trkpt>
      <trkpt lat="49.826273" lon="19.94621"></trkpt>
      <trkpt lat="49.827944" lon="19.950115"></trkpt>
      <trkpt lat="49.828629" lon="19.951208"></trkpt>
      <trkpt lat="49.829326" lon="19.951703"></trkpt>
      <trkpt lat="49.830066" lon="19.951808"></trkpt>
      <trkpt lat="49.833849" lon="19.950615"></trkpt>
      <trkpt lat="49.834382" lon="19.952333"></trkpt>
      <trkpt lat="49.834811" lon="19.952894"></trkpt>
      <trkpt lat="49.837013" lon="19.959733"></trkpt>
      <trkpt lat="49.83776" lon="19.960835"></trkpt>
      <trkpt lat="49.838653" lon="19.96151"></trkpt>
      <trkpt lat="49.838808" lon="19.961992"></trkpt>
      <trkpt lat="49.839299" lon="19.961882"></trkpt>
      <trkpt lat="49.845265" lon="19.965407"></trkpt>
      <trkpt lat="49.847636" lon="19.966937"></trkpt>
      <trkpt lat="49.850909" lon="19.968674"></trkpt>
      <trkpt lat="49.851915" lon="19.968944"></trkpt>
      <trkpt lat="49.853765" lon="19.968861"></trkpt>
      <trkpt lat="49.854286" lon="19.968963"></trkpt>
      <trkpt lat="49.855083" lon="19.969325"></trkpt>
      <trkpt lat="49.855844" lon="19.969937"></trkpt>
      <trkpt lat="49.857682" lon="19.972331"></trkpt>
      <trkpt lat="49.859383" lon="19.974693"></trkpt>
      <trkpt lat="49.860874" lon="19.977089"></trkpt>
      <trkpt lat="49.862029" lon="19.979595"></trkpt>
      <trkpt lat="49.863012" lon="19.983506"></trkpt>
      <trkpt lat="49.863098" lon="19.98554"></trkpt>
      <trkpt lat="49.862817" lon="19.989787"></trkpt>
      <trkpt lat="49.863075" lon="19.991697"></trkpt>
      <trkpt lat="49.863523" lon="19.992832"></trkpt>
      <trkpt lat="49.865127" lon="19.995682"></trkpt>
      <trkpt lat="49.865401" lon="19.9967"></trkpt>
      <trkpt lat="49.865759" lon="19.999687"></trkpt>
      <trkpt lat="49.866016" lon="20.000499"></trkpt>
      <trkpt lat="49.866467" lon="20.001168"></trkpt>
      <trkpt lat="49.867585" lon="20.00207"></trkpt>
      <trkpt lat="49.868118" lon="20.002971"></trkpt>
      <trkpt lat="49.869398" lon="20.008008"></trkpt>
      <trkpt lat="49.870276" lon="20.009943"></trkpt>
      <trkpt lat="49.870521" lon="20.010717"></trkpt>
      <trkpt lat="49.870869" lon="20.013249"></trkpt>
      <trkpt lat="49.871666" lon="20.017159"></trkpt>
      <trkpt lat="49.871931" lon="20.017836"></trkpt>
      <trkpt lat="49.873681" lon="20.021121"></trkpt>
      <trkpt lat="49.873984" lon="20.022103"></trkpt>
      <trkpt lat="49.874153" lon="20.023533"></trkpt>
      <trkpt lat="49.874096" lon="20.024667"></trkpt>
      <trkpt lat="49.873834" lon="20.02706"></trkpt>
      <trkpt lat="49.873292" lon="20.030332"></trkpt>
      <trkpt lat="49.873325" lon="20.031656"></trkpt>
      <trkpt lat="49.873543" lon="20.03279"></trkpt>
      <trkpt lat="49.874535" lon="20.035601"></trkpt>
      <trkpt lat="49.875388" lon="20.038687"></trkpt>
      <trkpt lat="49.87583" lon="20.03973"></trkpt>
      <trkpt lat="49.87649" lon="20.040691"></trkpt>
      <trkpt lat="49.880101" lon="20.044142"></trkpt>
      <trkpt lat="49.880716" lon="20.045183"></trkpt>
      <trkpt lat="49.882607" lon="20.049094"></trkpt>
      <trkpt lat="49.882612" lon="20.047925"></trkpt>
      <trkpt lat="49.882607" lon="20.049094"></trkpt>
      <trkpt lat="49.884228" lon="20.052474"></trkpt>
      <trkpt lat="49.884627" lon="20.054059"></trkpt>
      <trkpt lat="49.885822" lon="20.052744"></trkpt>
      <trkpt lat="49.886571" lon="20.052094"></trkpt>
      <trkpt lat="49.889377" lon="20.050591"></trkpt>
      <trkpt lat="49.890084" lon="20.049917"></trkpt>
      <trkpt lat="49.890437" lon="20.049254"></trkpt>
      <trkpt lat="49.891395" lon="20.046733"></trkpt>
      <trkpt lat="49.892215" lon="20.045579"></trkpt>
      <trkpt lat="49.89391" lon="20.041994"></trkpt>
      <trkpt lat="49.896076" lon="20.039569"></trkpt>
      <trkpt lat="49.896837" lon="20.038863"></trkpt>
      <trkpt lat="49.897801" lon="20.038452"></trkpt>
      <trkpt lat="49.898428" lon="20.037594"></trkpt>
      <trkpt lat="49.898859" lon="20.037263"></trkpt>
      <trkpt lat="49.899717" lon="20.037034"></trkpt>
      <trkpt lat="49.901041" lon="20.036215"></trkpt>
      <trkpt lat="49.90187" lon="20.036069"></trkpt>
      <trkpt lat="49.9027" lon="20.035646"></trkpt>
      <trkpt lat="49.904426" lon="20.035548"></trkpt>
      <trkpt lat="49.907103" lon="20.034708"></trkpt>
      <trkpt lat="49.908716" lon="20.033016"></trkpt>
      <trkpt lat="49.909914" lon="20.032591"></trkpt>
      <trkpt lat="49.910571" lon="20.03158"></trkpt>
      <trkpt lat="49.91098" lon="20.031248"></trkpt>
      <trkpt lat="49.91131" lon="20.031167"></trkpt>
      <trkpt lat="49.913442" lon="20.03137"></trkpt>
      <trkpt lat="49.916307" lon="20.030672"></trkpt>
      <trkpt lat="49.918089" lon="20.029695"></trkpt>
      <trkpt lat="49.91844" lon="20.029191"></trkpt>
      <trkpt lat="49.918596" lon="20.028572"></trkpt>
      <trkpt lat="49.919112" lon="20.028763"></trkpt>
      <trkpt lat="49.921343" lon="20.028487"></trkpt>
      <trkpt lat="49.922391" lon="20.028793"></trkpt>
      <trkpt lat="49.924451" lon="20.028992"></trkpt>
      <trkpt lat="49.925654" lon="20.028475"></trkpt>
      <trkpt lat="49.926293" lon="20.028724"></trkpt>
      <trkpt lat="49.927495" lon="20.02876"></trkpt>
      <trkpt lat="49.928197" lon="20.029088"></trkpt>
      <trkpt lat="49.928831" lon="20.029156"></trkpt>
      <trkpt lat="49.929959" lon="20.028766"></trkpt>
      <trkpt lat="49.930713" lon="20.02917"></trkpt>
      <trkpt lat="49.932112" lon="20.029149"></trkpt>
      <trkpt lat="49.932827" lon="20.029302"></trkpt>
      <trkpt lat="49.93496" lon="20.03008"></trkpt>
      <trkpt lat="49.937246" lon="20.031917"></trkpt>
      <trkpt lat="49.939441" lon="20.034555"></trkpt>
      <trkpt lat="49.941082" lon="20.036139"></trkpt>
      <trkpt lat="49.941854" lon="20.036697"></trkpt>
      <trkpt lat="49.942659" lon="20.037103"></trkpt>
      <trkpt lat="49.943921" lon="20.037523"></trkpt>
      <trkpt lat="49.945375" lon="20.037284"></trkpt>
      <trkpt lat="49.946253" lon="20.03692"></trkpt>
      <trkpt lat="49.946916" lon="20.036793"></trkpt>
      <trkpt lat="49.948175" lon="20.037201"></trkpt>
      <trkpt lat="49.948802" lon="20.037535"></trkpt>
      <trkpt lat="49.949223" lon="20.037195"></trkpt>
      <trkpt lat="49.949714" lon="20.036269"></trkpt>
      <trkpt lat="49.949979" lon="20.036045"></trkpt>
      <trkpt lat="49.951633" lon="20.037106"></trkpt>
      <trkpt lat="49.953083" lon="20.035804"></trkpt>
      <trkpt lat="49.953297" lon="20.03591"></trkpt>
      <trkpt lat="49.953497" lon="20.036671"></trkpt>
      <trkpt lat="49.953717" lon="20.036775"></trkpt>
      <trkpt lat="49.953865" lon="20.036546"></trkpt>
      <trkpt lat="49.954136" lon="20.034712"></trkpt>
      <trkpt lat="49.954314" lon="20.034568"></trkpt>
      <trkpt lat="49.954976" lon="20.034497"></trkpt>
      <trkpt lat="49.955396" lon="20.034665"></trkpt>
      <trkpt lat="49.959448" lon="20.037482"></trkpt>
      <trkpt lat="49.961007" lon="20.039095"></trkpt>
      <trkpt lat="49.961904" lon="20.039698"></trkpt>
      <trkpt lat="49.962822" lon="20.040554"></trkpt>
      <trkpt lat="49.9648" lon="20.041991"></trkpt>
      <trkpt lat="49.965666" lon="20.042492"></trkpt>
      <trkpt lat="49.966479" lon="20.042784"></trkpt>
      <trkpt lat="49.966331" lon="20.043468"></trkpt>
      <trkpt lat="49.966031" lon="20.043754"></trkpt>
      <trkpt lat="49.966009" lon="20.043951"></trkpt>
      <trkpt lat="49.967025" lon="20.048352"></trkpt>
      <trkpt lat="49.967174" lon="20.05143"></trkpt>
      <trkpt lat="49.966923" lon="20.052404"></trkpt>
      <trkpt lat="49.966223" lon="20.053971"></trkpt>
      <trkpt lat="49.966139" lon="20.055982"></trkpt>
      <trkpt lat="49.965779" lon="20.057864"></trkpt>
      <trkpt lat="49.969802" lon="20.05925"></trkpt>
      <trkpt lat="49.970798" lon="20.059693"></trkpt>
      <trkpt lat="49.971248" lon="20.060096"></trkpt>
      <trkpt lat="49.972058" lon="20.061362"></trkpt>
      <trkpt lat="49.975048" lon="20.064139"></trkpt>
      <trkpt lat="49.975391" lon="20.065058"></trkpt>
      <trkpt lat="49.975645" lon="20.068063"></trkpt>
      <trkpt lat="49.976016" lon="20.069486"></trkpt>
      <trkpt lat="49.976198" lon="20.069738"></trkpt>
      <trkpt lat="49.981115" lon="20.069361"></trkpt>
      <trkpt lat="49.981587" lon="20.069641"></trkpt>
      <trkpt lat="49.981748" lon="20.069872"></trkpt>
      <trkpt lat="49.981865" lon="20.069747"></trkpt>
      <trkpt lat="49.982296" lon="20.069654"></trkpt>
      <trkpt lat="49.983097" lon="20.069986"></trkpt>
      <trkpt lat="49.983952" lon="20.070593"></trkpt>
      <trkpt lat="49.985138" lon="20.070834"></trkpt>
      <trkpt lat="49.986621" lon="20.071312"></trkpt>
      <trkpt lat="49.986742" lon="20.071117"></trkpt>
      <trkpt lat="49.987166" lon="20.067702"></trkpt>
      <trkpt lat="49.98738" lon="20.063147"></trkpt>
      <trkpt lat="49.987741" lon="20.059371"></trkpt>
      <trkpt lat="49.988336" lon="20.056443"></trkpt>
      <trkpt lat="49.98853" lon="20.054258"></trkpt>
      <trkpt lat="49.989248" lon="20.054575"></trkpt>
      <trkpt lat="49.990233" lon="20.054791"></trkpt>
      <trkpt lat="49.99126" lon="20.054709"></trkpt>
      <trkpt lat="49.99271" lon="20.055044"></trkpt>
      <trkpt lat="49.99406" lon="20.055028"></trkpt>
      <trkpt lat="49.993978" lon="20.05448"></trkpt>
      <trkpt lat="49.994386" lon="20.053809"></trkpt>
      <trkpt lat="49.9944" lon="20.054132"></trkpt>
      <trkpt lat="49.994167" lon="20.054377"></trkpt>
      <trkpt lat="49.994177" lon="20.054751"></trkpt>
      <trkpt lat="49.994398" lon="20.054772"></trkpt>
      <trkpt lat="49.994383" lon="20.054146"></trkpt>
      <trkpt lat="49.994181" lon="20.054318"></trkpt>
      <trkpt lat="49.994177" lon="20.054751"></trkpt>
      <trkpt lat="49.99428" lon="20.054831"></trkpt>
      <trkpt lat="49.994414" lon="20.054762"></trkpt>
      <trkpt lat="49.994386" lon="20.053809"></trkpt>
      <trkpt lat="49.993978" lon="20.05448"></trkpt>
      <trkpt lat="49.99406" lon="20.055028"></trkpt>
      <trkpt lat="49.994706" lon="20.055018"></trkpt>
      <trkpt lat="49.994457" lon="20.043948"></trkpt>
      <trkpt lat="49.994295" lon="20.043229"></trkpt>
      <trkpt lat="49.994009" lon="20.042952"></trkpt>
      <trkpt lat="49.993931" lon="20.042513"></trkpt>
      <trkpt lat="49.993603" lon="20.042137"></trkpt>
      <trkpt lat="49.993364" lon="20.042592"></trkpt>
      <trkpt lat="49.993274" lon="20.042488"></trkpt>
      <trkpt lat="49.991498" lon="20.046821"></trkpt>
      <trkpt lat="49.989421" lon="20.047816"></trkpt>
      <trkpt lat="49.987856" lon="20.048888"></trkpt>
      <trkpt lat="49.987508" lon="20.049318"></trkpt>
      <trkpt lat="49.986493" lon="20.051202"></trkpt>
      <trkpt lat="49.98679" lon="20.051439"></trkpt>
      <trkpt lat="49.986493" lon="20.051202"></trkpt>
      <trkpt lat="49.986592" lon="20.050948"></trkpt>
      <trkpt lat="49.987508" lon="20.049318"></trkpt>
      <trkpt lat="49.987856" lon="20.048888"></trkpt>
      <trkpt lat="49.990149" lon="20.047406"></trkpt>
      <trkpt lat="49.991383" lon="20.046926"></trkpt>
      <trkpt lat="49.99194" lon="20.046306"></trkpt>
      <trkpt lat="49.992091" lon="20.045335"></trkpt>
      <trkpt lat="49.993397" lon="20.042192"></trkpt>
      <trkpt lat="49.993694" lon="20.041847"></trkpt>
      <trkpt lat="49.995021" lon="20.037505"></trkpt>
      <trkpt lat="49.995174" lon="20.037484"></trkpt>
      <trkpt lat="49.995937" lon="20.035442"></trkpt>
      <trkpt lat="49.997387" lon="20.033233"></trkpt>
      <trkpt lat="49.997685" lon="20.032403"></trkpt>
      <trkpt lat="49.998075" lon="20.030555"></trkpt>
      <trkpt lat="49.998448" lon="20.029639"></trkpt>
      <trkpt lat="50.002938" lon="20.024212"></trkpt>
      <trkpt lat="50.003692" lon="20.023573"></trkpt>
      <trkpt lat="50.004439" lon="20.02365"></trkpt>
      <trkpt lat="50.00495" lon="20.023971"></trkpt>
      <trkpt lat="50.005259" lon="20.024645"></trkpt>
      <trkpt lat="50.005938" lon="20.029412"></trkpt>
      <trkpt lat="50.00603" lon="20.034518"></trkpt>
      <trkpt lat="50.006011" lon="20.046463"></trkpt>
      <trkpt lat="50.006109" lon="20.048356"></trkpt>
      <trkpt lat="50.006379" lon="20.050449"></trkpt>
      <trkpt lat="50.007045" lon="20.0533"></trkpt>
      <trkpt lat="50.007916" lon="20.055658"></trkpt>
      <trkpt lat="50.008953" lon="20.057664"></trkpt>
      <trkpt lat="50.010643" lon="20.060319"></trkpt>
      <trkpt lat="50.010807" lon="20.061269"></trkpt>
      <trkpt lat="50.010706" lon="20.062903"></trkpt>
      <trkpt lat="50.010934" lon="20.063898"></trkpt>
      <trkpt lat="50.011391" lon="20.064544"></trkpt>
      <trkpt lat="50.012107" lon="20.065085"></trkpt>
      <trkpt lat="50.012803" lon="20.065404"></trkpt>
      <trkpt lat="50.013248" lon="20.065433"></trkpt>
      <trkpt lat="50.014138" lon="20.065106"></trkpt>
      <trkpt lat="50.014808" lon="20.064408"></trkpt>
      <trkpt lat="50.015909" lon="20.062313"></trkpt>
      <trkpt lat="50.016219" lon="20.062031"></trkpt>
      <trkpt lat="50.016904" lon="20.061805"></trkpt>
      <trkpt lat="50.031153" lon="20.063123"></trkpt>
      <trkpt lat="50.035365" lon="20.063409"></trkpt>
      <trkpt lat="50.037175" lon="20.064018"></trkpt>
      <trkpt lat="50.038877" lon="20.064996"></trkpt>
      <trkpt lat="50.040054" lon="20.065957"></trkpt>
      <trkpt lat="50.042253" lon="20.068183"></trkpt>
      <trkpt lat="50.043792" lon="20.069374"></trkpt>
      <trkpt lat="50.052123" lon="20.073486"></trkpt>
      <trkpt lat="50.054163" lon="20.074272"></trkpt>
      <trkpt lat="50.057473" lon="20.075088"></trkpt>
      <trkpt lat="50.058761" lon="20.075289"></trkpt>
      <trkpt lat="50.06011" lon="20.075239"></trkpt>
      <trkpt lat="50.060853" lon="20.075101"></trkpt>
      <trkpt lat="50.062516" lon="20.074414"></trkpt>
      <trkpt lat="50.06425" lon="20.073232"></trkpt>
      <trkpt lat="50.065751" lon="20.071675"></trkpt>
      <trkpt lat="50.068072" lon="20.068581"></trkpt>
      <trkpt lat="50.069407" lon="20.067023"></trkpt>
      <trkpt lat="50.073165" lon="20.06346"></trkpt>
      <trkpt lat="50.074294" lon="20.062579"></trkpt>
      <trkpt lat="50.075113" lon="20.062211"></trkpt>
      <trkpt lat="50.075949" lon="20.062038"></trkpt>
      <trkpt lat="50.079062" lon="20.062416"></trkpt>
      <trkpt lat="50.080373" lon="20.062433"></trkpt>
      <trkpt lat="50.083626" lon="20.062137"></trkpt>
      <trkpt lat="50.085277" lon="20.061776"></trkpt>
      <trkpt lat="50.086278" lon="20.061209"></trkpt>
      <trkpt lat="50.087364" lon="20.060198"></trkpt>
      <trkpt lat="50.088271" lon="20.058961"></trkpt>
      <trkpt lat="50.089204" lon="20.05712"></trkpt>
      <trkpt lat="50.089893" lon="20.056827"></trkpt>
      <trkpt lat="50.090353" lon="20.057098"></trkpt>
      <trkpt lat="50.090755" lon="20.057508"></trkpt>
      <trkpt lat="50.092134" lon="20.060904"></trkpt>
      <trkpt lat="50.094269" lon="20.064254"></trkpt>
      <trkpt lat="50.096127" lon="20.065886"></trkpt>
      <trkpt lat="50.096533" lon="20.065979"></trkpt>
      <trkpt lat="50.098057" lon="20.065973"></trkpt>
      <trkpt lat="50.098469" lon="20.066251"></trkpt>
      <trkpt lat="50.106071" lon="20.074759"></trkpt>
      <trkpt lat="50.106944" lon="20.076312"></trkpt>
      <trkpt lat="50.108229" lon="20.07968"></trkpt>
      <trkpt lat="50.110483" lon="20.081863"></trkpt>
      <trkpt lat="50.110766" lon="20.082278"></trkpt>
      <trkpt lat="50.110927" lon="20.083879"></trkpt>
      <trkpt lat="50.111472" lon="20.085284"></trkpt>
      <trkpt lat="50.112153" lon="20.085893"></trkpt>
      <trkpt lat="50.114314" lon="20.086434"></trkpt>
      <trkpt lat="50.114854" lon="20.086741"></trkpt>
      <trkpt lat="50.115296" lon="20.087449"></trkpt>
      <trkpt lat="50.115857" lon="20.089038"></trkpt>
      <trkpt lat="50.116682" lon="20.090222"></trkpt>
      <trkpt lat="50.11726" lon="20.090798"></trkpt>
      <trkpt lat="50.118239" lon="20.091396"></trkpt>
      <trkpt lat="50.119695" lon="20.092563"></trkpt>
      <trkpt lat="50.121739" lon="20.096427"></trkpt>
      <trkpt lat="50.125872" lon="20.100843"></trkpt>
      <trkpt lat="50.126148" lon="20.101365"></trkpt>
      <trkpt lat="50.126924" lon="20.102244"></trkpt>
      <trkpt lat="50.13005" lon="20.106578"></trkpt>
      <trkpt lat="50.132589" lon="20.109533"></trkpt>
      <trkpt lat="50.133017" lon="20.110445"></trkpt>
      <trkpt lat="50.133363" lon="20.112494"></trkpt>
      <trkpt lat="50.13403" lon="20.113982"></trkpt>
      <trkpt lat="50.134863" lon="20.115088"></trkpt>
      <trkpt lat="50.135457" lon="20.115375"></trkpt>
      <trkpt lat="50.13617" lon="20.115273"></trkpt>
      <trkpt lat="50.13667" lon="20.114977"></trkpt>
      <trkpt lat="50.1367" lon="20.11465"></trkpt>
      <trkpt lat="50.136317" lon="20.11434"></trkpt>
      <trkpt lat="50.137983" lon="20.111767"></trkpt>
      <trkpt lat="50.13812" lon="20.111658"></trkpt>
      <trkpt lat="50.140096" lon="20.111323"></trkpt>
      <trkpt lat="50.14332" lon="20.108676"></trkpt>
      <trkpt lat="50.144405" lon="20.108046"></trkpt>
      <trkpt lat="50.14475" lon="20.108026"></trkpt>
      <trkpt lat="50.145564" lon="20.108555"></trkpt>
      <trkpt lat="50.146406" lon="20.107693"></trkpt>
      <trkpt lat="50.147315" lon="20.107264"></trkpt>
      <trkpt lat="50.147753" lon="20.107243"></trkpt>
      <trkpt lat="50.149826" lon="20.107587"></trkpt>
      <trkpt lat="50.15025" lon="20.107357"></trkpt>
      <trkpt lat="50.151664" lon="20.105387"></trkpt>
      <trkpt lat="50.152771" lon="20.102044"></trkpt>
      <trkpt lat="50.155008" lon="20.099576"></trkpt>
      <trkpt lat="50.158973" lon="20.094452"></trkpt>
      <trkpt lat="50.159138" lon="20.094072"></trkpt>
      <trkpt lat="50.159246" lon="20.093255"></trkpt>
      <trkpt lat="50.159049" lon="20.08854"></trkpt>
      <trkpt lat="50.159244" lon="20.087626"></trkpt>
      <trkpt lat="50.160821" lon="20.083303"></trkpt>
      <trkpt lat="50.161371" lon="20.082327"></trkpt>
      <trkpt lat="50.16234" lon="20.081133"></trkpt>
      <trkpt lat="50.163623" lon="20.07765"></trkpt>
      <trkpt lat="50.164123" lon="20.07685"></trkpt>
      <trkpt lat="50.16466" lon="20.076297"></trkpt>
      <trkpt lat="50.164728" lon="20.076049"></trkpt>
      <trkpt lat="50.164659" lon="20.073956"></trkpt>
      <trkpt lat="50.164256" lon="20.072582"></trkpt>
      <trkpt lat="50.161796" lon="20.061768"></trkpt>
      <trkpt lat="50.161582" lon="20.060594"></trkpt>
      <trkpt lat="50.161625" lon="20.059886"></trkpt>
      <trkpt lat="50.161779" lon="20.059638"></trkpt>
      <trkpt lat="50.162299" lon="20.059417"></trkpt>
      <trkpt lat="50.164314" lon="20.05886"></trkpt>
      <trkpt lat="50.172089" lon="20.058528"></trkpt>
      <trkpt lat="50.173523" lon="20.058297"></trkpt>
      <trkpt lat="50.174805" lon="20.057862"></trkpt>
      <trkpt lat="50.176101" lon="20.05723"></trkpt>
      <trkpt lat="50.177608" lon="20.056121"></trkpt>
      <trkpt lat="50.178892" lon="20.054877"></trkpt>
      <trkpt lat="50.180138" lon="20.053367"></trkpt>
      <trkpt lat="50.180873" lon="20.052269"></trkpt>
      <trkpt lat="50.181956" lon="20.050265"></trkpt>
      <trkpt lat="50.18265" lon="20.04865"></trkpt>
      <trkpt lat="50.183652" lon="20.045344"></trkpt>
      <trkpt lat="50.184558" lon="20.03952"></trkpt>
      <trkpt lat="50.185287" lon="20.033089"></trkpt>
      <trkpt lat="50.18582" lon="20.03037"></trkpt>
      <trkpt lat="50.18617" lon="20.02914"></trkpt>
      <trkpt lat="50.186749" lon="20.027637"></trkpt>
      <trkpt lat="50.187494" lon="20.026128"></trkpt>
      <trkpt lat="50.188253" lon="20.024936"></trkpt>
      <trkpt lat="50.18961" lon="20.02332"></trkpt>
      <trkpt lat="50.191352" lon="20.021951"></trkpt>
      <trkpt lat="50.192909" lon="20.021253"></trkpt>
      <trkpt lat="50.194336" lon="20.020939"></trkpt>
      <trkpt lat="50.196921" lon="20.020721"></trkpt>
      <trkpt lat="50.200028" lon="20.020212"></trkpt>
      <trkpt lat="50.219399" lon="20.014497"></trkpt>
      <trkpt lat="50.221655" lon="20.014049"></trkpt>
      <trkpt lat="50.233751" lon="20.012275"></trkpt>
      <trkpt lat="50.236886" lon="20.01219"></trkpt>
      <trkpt lat="50.240006" lon="20.012618"></trkpt>
      <trkpt lat="50.245618" lon="20.013952"></trkpt>
      <trkpt lat="50.24787" lon="20.014618"></trkpt>
      <trkpt lat="50.25014" lon="20.01559"></trkpt>
      <trkpt lat="50.255908" lon="20.018551"></trkpt>
      <trkpt lat="50.259181" lon="20.019658"></trkpt>
      <trkpt lat="50.261918" lon="20.020151"></trkpt>
      <trkpt lat="50.273238" lon="20.020666"></trkpt>
      <trkpt lat="50.275142" lon="20.020878"></trkpt>
      <trkpt lat="50.29283" lon="20.025516"></trkpt>
      <trkpt lat="50.299945" lon="20.027705"></trkpt>
      <trkpt lat="50.302302" lon="20.028601"></trkpt>
      <trkpt lat="50.304681" lon="20.029898"></trkpt>
      <trkpt lat="50.316771" lon="20.038617"></trkpt>
      <trkpt lat="50.319521" lon="20.040215"></trkpt>
      <trkpt lat="50.320839" lon="20.040774"></trkpt>
      <trkpt lat="50.323475" lon="20.04155"></trkpt>
      <trkpt lat="50.324897" lon="20.041788"></trkpt>
      <trkpt lat="50.328202" lon="20.041954"></trkpt>
      <trkpt lat="50.330122" lon="20.042209"></trkpt>
      <trkpt lat="50.331122" lon="20.042548"></trkpt>
      <trkpt lat="50.332307" lon="20.043145"></trkpt>
      <trkpt lat="50.3338" lon="20.044263"></trkpt>
      <trkpt lat="50.335404" lon="20.046006"></trkpt>
      <trkpt lat="50.336374" lon="20.047417"></trkpt>
      <trkpt lat="50.337076" lon="20.048689"></trkpt>
      <trkpt lat="50.338248" lon="20.051362"></trkpt>
      <trkpt lat="50.345564" lon="20.06956"></trkpt>
      <trkpt lat="50.347628" lon="20.073496"></trkpt>
      <trkpt lat="50.349283" lon="20.076073"></trkpt>
      <trkpt lat="50.350398" lon="20.07757"></trkpt>
      <trkpt lat="50.352157" lon="20.079635"></trkpt>
      <trkpt lat="50.35345" lon="20.080948"></trkpt>
      <trkpt lat="50.355946" lon="20.08303"></trkpt>
      <trkpt lat="50.358554" lon="20.084717"></trkpt>
      <trkpt lat="50.364036" lon="20.087407"></trkpt>
      <trkpt lat="50.366003" lon="20.088579"></trkpt>
      <trkpt lat="50.369223" lon="20.090851"></trkpt>
      <trkpt lat="50.373145" lon="20.094294"></trkpt>
      <trkpt lat="50.375465" lon="20.096741"></trkpt>
      <trkpt lat="50.378087" lon="20.099945"></trkpt>
      <trkpt lat="50.391846" lon="20.117857"></trkpt>
      <trkpt lat="50.392914" lon="20.11952"></trkpt>
      <trkpt lat="50.394073" lon="20.121615"></trkpt>
      <trkpt lat="50.395666" lon="20.125183"></trkpt>
      <trkpt lat="50.396931" lon="20.128813"></trkpt>
      <trkpt lat="50.400605" lon="20.141319"></trkpt>
      <trkpt lat="50.401607" lon="20.143907"></trkpt>
      <trkpt lat="50.402727" lon="20.145965"></trkpt>
      <trkpt lat="50.406205" lon="20.150424"></trkpt>
      <trkpt lat="50.407682" lon="20.152792"></trkpt>
      <trkpt lat="50.409265" lon="20.155964"></trkpt>
      <trkpt lat="50.412306" lon="20.163334"></trkpt>
      <trkpt lat="50.414168" lon="20.166869"></trkpt>
      <trkpt lat="50.415397" lon="20.16878"></trkpt>
      <trkpt lat="50.422912" lon="20.17894"></trkpt>
      <trkpt lat="50.424218" lon="20.180536"></trkpt>
      <trkpt lat="50.427132" lon="20.183472"></trkpt>
      <trkpt lat="50.428781" lon="20.184788"></trkpt>
      <trkpt lat="50.430658" lon="20.186024"></trkpt>
      <trkpt lat="50.432879" lon="20.18717"></trkpt>
      <trkpt lat="50.436211" lon="20.188255"></trkpt>
      <trkpt lat="50.444491" lon="20.189537"></trkpt>
      <trkpt lat="50.44741" lon="20.18979"></trkpt>
      <trkpt lat="50.44912" lon="20.189817"></trkpt>
      <trkpt lat="50.459635" lon="20.189824"></trkpt>
      <trkpt lat="50.461342" lon="20.189709"></trkpt>
      <trkpt lat="50.463303" lon="20.18911"></trkpt>
      <trkpt lat="50.464585" lon="20.188389"></trkpt>
      <trkpt lat="50.465301" lon="20.18785"></trkpt>
      <trkpt lat="50.466469" lon="20.18679"></trkpt>
      <trkpt lat="50.469774" lon="20.182945"></trkpt>
      <trkpt lat="50.471103" lon="20.181664"></trkpt>
      <trkpt lat="50.472093" lon="20.180925"></trkpt>
      <trkpt lat="50.473921" lon="20.179936"></trkpt>
      <trkpt lat="50.475094" lon="20.179554"></trkpt>
      <trkpt lat="50.47639" lon="20.179294"></trkpt>
      <trkpt lat="50.478275" lon="20.179259"></trkpt>
      <trkpt lat="50.479983" lon="20.179585"></trkpt>
      <trkpt lat="50.48488" lon="20.181053"></trkpt>
      <trkpt lat="50.503674" lon="20.186801"></trkpt>
      <trkpt lat="50.505534" lon="20.187565"></trkpt>
      <trkpt lat="50.507038" lon="20.188654"></trkpt>
      <trkpt lat="50.508189" lon="20.189911"></trkpt>
      <trkpt lat="50.511928" lon="20.194969"></trkpt>
      <trkpt lat="50.513664" lon="20.197086"></trkpt>
      <trkpt lat="50.515154" lon="20.198381"></trkpt>
      <trkpt lat="50.516847" lon="20.199232"></trkpt>
      <trkpt lat="50.518511" lon="20.199548"></trkpt>
      <trkpt lat="50.519534" lon="20.199508"></trkpt>
      <trkpt lat="50.520723" lon="20.199227"></trkpt>
      <trkpt lat="50.522164" lon="20.19854"></trkpt>
      <trkpt lat="50.526052" lon="20.195941"></trkpt>
      <trkpt lat="50.52693" lon="20.19547"></trkpt>
      <trkpt lat="50.528584" lon="20.194921"></trkpt>
      <trkpt lat="50.530109" lon="20.19488"></trkpt>
      <trkpt lat="50.531056" lon="20.195027"></trkpt>
      <trkpt lat="50.533189" lon="20.195619"></trkpt>
      <trkpt lat="50.553246" lon="20.201768"></trkpt>
      <trkpt lat="50.554792" lon="20.202475"></trkpt>
      <trkpt lat="50.556071" lon="20.203435"></trkpt>
      <trkpt lat="50.55756" lon="20.205008"></trkpt>
      <trkpt lat="50.560327" lon="20.208326"></trkpt>
      <trkpt lat="50.619328" lon="20.280029"></trkpt>
      <trkpt lat="50.621939" lon="20.283344"></trkpt>
      <trkpt lat="50.62306" lon="20.285356"></trkpt>
      <trkpt lat="50.623453" lon="20.286387"></trkpt>
      <trkpt lat="50.623938" lon="20.288311"></trkpt>
      <trkpt lat="50.624294" lon="20.291112"></trkpt>
      <trkpt lat="50.625377" lon="20.304404"></trkpt>
      <trkpt lat="50.625832" lon="20.307421"></trkpt>
      <trkpt lat="50.626337" lon="20.309268"></trkpt>
      <trkpt lat="50.627118" lon="20.311208"></trkpt>
      <trkpt lat="50.627942" lon="20.3127"></trkpt>
      <trkpt lat="50.628721" lon="20.313802"></trkpt>
      <trkpt lat="50.629633" lon="20.314803"></trkpt>
      <trkpt lat="50.630487" lon="20.315533"></trkpt>
      <trkpt lat="50.632218" lon="20.31647"></trkpt>
      <trkpt lat="50.650922" lon="20.322228"></trkpt>
      <trkpt lat="50.653093" lon="20.323183"></trkpt>
      <trkpt lat="50.654775" lon="20.324377"></trkpt>
      <trkpt lat="50.655993" lon="20.32557"></trkpt>
      <trkpt lat="50.657498" lon="20.327322"></trkpt>
      <trkpt lat="50.674088" lon="20.347284"></trkpt>
      <trkpt lat="50.676494" lon="20.349679"></trkpt>
      <trkpt lat="50.68266" lon="20.35496"></trkpt>
      <trkpt lat="50.684929" lon="20.357535"></trkpt>
      <trkpt lat="50.686877" lon="20.360642"></trkpt>
      <trkpt lat="50.68804" lon="20.363161"></trkpt>
      <trkpt lat="50.688586" lon="20.364608"></trkpt>
      <trkpt lat="50.689659" lon="20.368309"></trkpt>
      <trkpt lat="50.693087" lon="20.382203"></trkpt>
      <trkpt lat="50.694088" lon="20.385394"></trkpt>
      <trkpt lat="50.695008" lon="20.387827"></trkpt>
      <trkpt lat="50.696035" lon="20.390198"></trkpt>
      <trkpt lat="50.697837" lon="20.393667"></trkpt>
      <trkpt lat="50.70003" lon="20.397038"></trkpt>
      <trkpt lat="50.70204" lon="20.399551"></trkpt>
      <trkpt lat="50.704566" lon="20.402106"></trkpt>
      <trkpt lat="50.70633" lon="20.403534"></trkpt>
      <trkpt lat="50.707952" lon="20.404636"></trkpt>
      <trkpt lat="50.70953" lon="20.405559"></trkpt>
      <trkpt lat="50.716216" lon="20.408718"></trkpt>
      <trkpt lat="50.717939" lon="20.409412"></trkpt>
      <trkpt lat="50.719467" lon="20.409778"></trkpt>
      <trkpt lat="50.721139" lon="20.409857"></trkpt>
      <trkpt lat="50.731461" lon="20.408312"></trkpt>
      <trkpt lat="50.732907" lon="20.408372"></trkpt>
      <trkpt lat="50.735073" lon="20.40892"></trkpt>
      <trkpt lat="50.736437" lon="20.409578"></trkpt>
      <trkpt lat="50.7381" lon="20.410763"></trkpt>
      <trkpt lat="50.742571" lon="20.414527"></trkpt>
      <trkpt lat="50.743758" lon="20.415608"></trkpt>
      <trkpt lat="50.744919" lon="20.416909"></trkpt>
      <trkpt lat="50.746103" lon="20.418715"></trkpt>
      <trkpt lat="50.747291" lon="20.421154"></trkpt>
      <trkpt lat="50.747767" lon="20.422477"></trkpt>
      <trkpt lat="50.748629" lon="20.426044"></trkpt>
      <trkpt lat="50.748973" lon="20.429628"></trkpt>
      <trkpt lat="50.748666" lon="20.439286"></trkpt>
      <trkpt lat="50.748701" lon="20.442344"></trkpt>
      <trkpt lat="50.749004" lon="20.445"></trkpt>
      <trkpt lat="50.749703" lon="20.448053"></trkpt>
      <trkpt lat="50.750396" lon="20.450004"></trkpt>
      <trkpt lat="50.751108" lon="20.45159"></trkpt>
      <trkpt lat="50.752354" lon="20.453677"></trkpt>
      <trkpt lat="50.757216" lon="20.459507"></trkpt>
      <trkpt lat="50.758843" lon="20.461285"></trkpt>
      <trkpt lat="50.759639" lon="20.461983"></trkpt>
      <trkpt lat="50.761291" lon="20.463098"></trkpt>
      <trkpt lat="50.762354" lon="20.463625"></trkpt>
      <trkpt lat="50.764232" lon="20.464178"></trkpt>
      <trkpt lat="50.766353" lon="20.464338"></trkpt>
      <trkpt lat="50.774242" lon="20.464161"></trkpt>
      <trkpt lat="50.77638" lon="20.464538"></trkpt>
      <trkpt lat="50.777634" lon="20.46502"></trkpt>
      <trkpt lat="50.779349" lon="20.465987"></trkpt>
      <trkpt lat="50.780981" lon="20.46726"></trkpt>
      <trkpt lat="50.79158" lon="20.47769"></trkpt>
      <trkpt lat="50.793883" lon="20.479596"></trkpt>
      <trkpt lat="50.796283" lon="20.481121"></trkpt>
      <trkpt lat="50.802708" lon="20.48446"></trkpt>
      <trkpt lat="50.804431" lon="20.485206"></trkpt>
      <trkpt lat="50.80621" lon="20.485569"></trkpt>
      <trkpt lat="50.808273" lon="20.485511"></trkpt>
      <trkpt lat="50.810466" lon="20.484845"></trkpt>
      <trkpt lat="50.812124" lon="20.483898"></trkpt>
      <trkpt lat="50.813056" lon="20.483179"></trkpt>
      <trkpt lat="50.814119" lon="20.482152"></trkpt>
      <trkpt lat="50.815643" lon="20.480241"></trkpt>
      <trkpt lat="50.816742" lon="20.478399"></trkpt>
      <trkpt lat="50.819986" lon="20.471861"></trkpt>
      <trkpt lat="50.820817" lon="20.470604"></trkpt>
      <trkpt lat="50.822386" lon="20.468963"></trkpt>
      <trkpt lat="50.82405" lon="20.467911"></trkpt>
      <trkpt lat="50.824938" lon="20.467552"></trkpt>
      <trkpt lat="50.825761" lon="20.46738"></trkpt>
      <trkpt lat="50.827487" lon="20.46739"></trkpt>
      <trkpt lat="50.82853" lon="20.467656"></trkpt>
      <trkpt lat="50.829315" lon="20.467994"></trkpt>
      <trkpt lat="50.831053" lon="20.469205"></trkpt>
      <trkpt lat="50.831997" lon="20.470184"></trkpt>
      <trkpt lat="50.845815" lon="20.489219"></trkpt>
      <trkpt lat="50.847654" lon="20.491374"></trkpt>
      <trkpt lat="50.850244" lon="20.493797"></trkpt>
      <trkpt lat="50.851363" lon="20.495055"></trkpt>
      <trkpt lat="50.85222" lon="20.496349"></trkpt>
      <trkpt lat="50.853" lon="20.497877"></trkpt>
      <trkpt lat="50.854961" lon="20.503322"></trkpt>
      <trkpt lat="50.855975" lon="20.50558"></trkpt>
      <trkpt lat="50.85738" lon="20.507925"></trkpt>
      <trkpt lat="50.859016" lon="20.509937"></trkpt>
      <trkpt lat="50.860316" lon="20.51113"></trkpt>
      <trkpt lat="50.861978" lon="20.512272"></trkpt>
      <trkpt lat="50.886855" lon="20.524297"></trkpt>
      <trkpt lat="50.888502" lon="20.52519"></trkpt>
      <trkpt lat="50.890288" lon="20.526402"></trkpt>
      <trkpt lat="50.892081" lon="20.527913"></trkpt>
      <trkpt lat="50.893605" lon="20.529485"></trkpt>
      <trkpt lat="50.895124" lon="20.531341"></trkpt>
      <trkpt lat="50.896726" lon="20.533683"></trkpt>
      <trkpt lat="50.898169" lon="20.536239"></trkpt>
      <trkpt lat="50.899847" lon="20.539987"></trkpt>
      <trkpt lat="50.900899" lon="20.542994"></trkpt>
      <trkpt lat="50.902229" lon="20.548256"></trkpt>
      <trkpt lat="50.909529" lon="20.585181"></trkpt>
      <trkpt lat="50.911106" lon="20.591597"></trkpt>
      <trkpt lat="50.912422" lon="20.595878"></trkpt>
      <trkpt lat="50.913742" lon="20.599565"></trkpt>
      <trkpt lat="50.91865" lon="20.611283"></trkpt>
      <trkpt lat="50.921149" lon="20.617931"></trkpt>
      <trkpt lat="50.922595" lon="20.622539"></trkpt>
      <trkpt lat="50.929979" lon="20.648781"></trkpt>
      <trkpt lat="50.933352" lon="20.659356"></trkpt>
      <trkpt lat="50.934719" lon="20.662991"></trkpt>
      <trkpt lat="50.937006" lon="20.668073"></trkpt>
      <trkpt lat="50.939082" lon="20.672032"></trkpt>
      <trkpt lat="50.941261" lon="20.675639"></trkpt>
      <trkpt lat="50.946998" lon="20.684299"></trkpt>
      <trkpt lat="50.947902" lon="20.685915"></trkpt>
      <trkpt lat="50.948479" lon="20.687408"></trkpt>
      <trkpt lat="50.948883" lon="20.688995"></trkpt>
      <trkpt lat="50.949729" lon="20.695973"></trkpt>
      <trkpt lat="50.950058" lon="20.69787"></trkpt>
      <trkpt lat="50.950673" lon="20.700053"></trkpt>
      <trkpt lat="50.951525" lon="20.702081"></trkpt>
      <trkpt lat="50.974592" lon="20.742665"></trkpt>
      <trkpt lat="50.976946" lon="20.746175"></trkpt>
      <trkpt lat="50.980916" lon="20.750806"></trkpt>
      <trkpt lat="50.982693" lon="20.753501"></trkpt>
      <trkpt lat="50.984017" lon="20.756354"></trkpt>
      <trkpt lat="50.99029" lon="20.772485"></trkpt>
      <trkpt lat="50.992016" lon="20.776261"></trkpt>
      <trkpt lat="51.00339" lon="20.796434"></trkpt>
      <trkpt lat="51.009635" lon="20.807946"></trkpt>
      <trkpt lat="51.010493" lon="20.809278"></trkpt>
      <trkpt lat="51.01157" lon="20.81057"></trkpt>
      <trkpt lat="51.012892" lon="20.811726"></trkpt>
      <trkpt lat="51.014581" lon="20.812671"></trkpt>
      <trkpt lat="51.028958" lon="20.817195"></trkpt>
      <trkpt lat="51.034257" lon="20.819372"></trkpt>
      <trkpt lat="51.035199" lon="20.819518"></trkpt>
      <trkpt lat="51.036395" lon="20.819482"></trkpt>
      <trkpt lat="51.039974" lon="20.81855"></trkpt>
      <trkpt lat="51.041173" lon="20.81837"></trkpt>
      <trkpt lat="51.042429" lon="20.818453"></trkpt>
      <trkpt lat="51.04355" lon="20.818767"></trkpt>
      <trkpt lat="51.044999" lon="20.81952"></trkpt>
      <trkpt lat="51.059517" lon="20.829306"></trkpt>
      <trkpt lat="51.069264" lon="20.835439"></trkpt>
      <trkpt lat="51.070348" lon="20.836047"></trkpt>
      <trkpt lat="51.071214" lon="20.836391"></trkpt>
      <trkpt lat="51.072108" lon="20.836613"></trkpt>
      <trkpt lat="51.073106" lon="20.836708"></trkpt>
      <trkpt lat="51.084442" lon="20.836339"></trkpt>
      <trkpt lat="51.094825" lon="20.835862"></trkpt>
      <trkpt lat="51.098766" lon="20.835213"></trkpt>
      <trkpt lat="51.099758" lon="20.835361"></trkpt>
      <trkpt lat="51.100868" lon="20.835978"></trkpt>
      <trkpt lat="51.106735" lon="20.840753"></trkpt>
      <trkpt lat="51.107513" lon="20.841676"></trkpt>
      <trkpt lat="51.108751" lon="20.843702"></trkpt>
      <trkpt lat="51.109665" lon="20.844728"></trkpt>
      <trkpt lat="51.112724" lon="20.846747"></trkpt>
      <trkpt lat="51.113994" lon="20.847339"></trkpt>
      <trkpt lat="51.115261" lon="20.847685"></trkpt>
      <trkpt lat="51.117385" lon="20.847836"></trkpt>
      <trkpt lat="51.118811" lon="20.847637"></trkpt>
      <trkpt lat="51.120624" lon="20.84703"></trkpt>
      <trkpt lat="51.12243" lon="20.845993"></trkpt>
      <trkpt lat="51.123596" lon="20.84506"></trkpt>
      <trkpt lat="51.124869" lon="20.843763"></trkpt>
      <trkpt lat="51.131284" lon="20.836026"></trkpt>
      <trkpt lat="51.132802" lon="20.834642"></trkpt>
      <trkpt lat="51.134064" lon="20.833782"></trkpt>
      <trkpt lat="51.135618" lon="20.833037"></trkpt>
      <trkpt lat="51.137586" lon="20.832541"></trkpt>
      <trkpt lat="51.139182" lon="20.832481"></trkpt>
      <trkpt lat="51.141068" lon="20.832803"></trkpt>
      <trkpt lat="51.142546" lon="20.833363"></trkpt>
      <trkpt lat="51.143982" lon="20.834194"></trkpt>
      <trkpt lat="51.145205" lon="20.835146"></trkpt>
      <trkpt lat="51.146682" lon="20.836662"></trkpt>
      <trkpt lat="51.14794" lon="20.838303"></trkpt>
      <trkpt lat="51.156261" lon="20.850102"></trkpt>
      <trkpt lat="51.158799" lon="20.853179"></trkpt>
      <trkpt lat="51.160601" lon="20.854877"></trkpt>
      <trkpt lat="51.162225" lon="20.856122"></trkpt>
      <trkpt lat="51.163978" lon="20.857196"></trkpt>
      <trkpt lat="51.165394" lon="20.857875"></trkpt>
      <trkpt lat="51.167347" lon="20.858574"></trkpt>
      <trkpt lat="51.170404" lon="20.859069"></trkpt>
      <trkpt lat="51.196723" lon="20.860265"></trkpt>
      <trkpt lat="51.198763" lon="20.860562"></trkpt>
      <trkpt lat="51.200047" lon="20.860937"></trkpt>
      <trkpt lat="51.201395" lon="20.861498"></trkpt>
      <trkpt lat="51.20579" lon="20.864123"></trkpt>
      <trkpt lat="51.207884" lon="20.865243"></trkpt>
      <trkpt lat="51.223512" lon="20.872285"></trkpt>
      <trkpt lat="51.224807" lon="20.872708"></trkpt>
      <trkpt lat="51.226715" lon="20.873042"></trkpt>
      <trkpt lat="51.232294" lon="20.873185"></trkpt>
      <trkpt lat="51.233684" lon="20.87332"></trkpt>
      <trkpt lat="51.235352" lon="20.873767"></trkpt>
      <trkpt lat="51.237346" lon="20.874775"></trkpt>
      <trkpt lat="51.238918" lon="20.87599"></trkpt>
      <trkpt lat="51.240658" lon="20.877868"></trkpt>
      <trkpt lat="51.241694" lon="20.879328"></trkpt>
      <trkpt lat="51.242973" lon="20.881649"></trkpt>
      <trkpt lat="51.253199" lon="20.906816"></trkpt>
      <trkpt lat="51.285446" lon="20.973531"></trkpt>
      <trkpt lat="51.287102" lon="20.976684"></trkpt>
      <trkpt lat="51.288486" lon="20.979"></trkpt>
      <trkpt lat="51.290061" lon="20.981349"></trkpt>
      <trkpt lat="51.309316" lon="21.007879"></trkpt>
      <trkpt lat="51.312654" lon="21.012114"></trkpt>
      <trkpt lat="51.314023" lon="21.013626"></trkpt>
      <trkpt lat="51.315621" lon="21.014978"></trkpt>
      <trkpt lat="51.317202" lon="21.015943"></trkpt>
      <trkpt lat="51.318835" lon="21.016607"></trkpt>
      <trkpt lat="51.320626" lon="21.016976"></trkpt>
      <trkpt lat="51.327402" lon="21.017098"></trkpt>
      <trkpt lat="51.329412" lon="21.016679"></trkpt>
      <trkpt lat="51.333522" lon="21.014826"></trkpt>
      <trkpt lat="51.335558" lon="21.014336"></trkpt>
      <trkpt lat="51.337688" lon="21.014373"></trkpt>
      <trkpt lat="51.341757" lon="21.015411"></trkpt>
      <trkpt lat="51.342858" lon="21.015567"></trkpt>
      <trkpt lat="51.344237" lon="21.015594"></trkpt>
      <trkpt lat="51.358706" lon="21.013786"></trkpt>
      <trkpt lat="51.361265" lon="21.013775"></trkpt>
      <trkpt lat="51.363281" lon="21.013959"></trkpt>
      <trkpt lat="51.364783" lon="21.014213"></trkpt>
      <trkpt lat="51.36758" lon="21.014978"></trkpt>
      <trkpt lat="51.378049" lon="21.019026"></trkpt>
      <trkpt lat="51.381964" lon="21.020221"></trkpt>
      <trkpt lat="51.386376" lon="21.021045"></trkpt>
      <trkpt lat="51.390711" lon="21.02142"></trkpt>
      <trkpt lat="51.392449" lon="21.021743"></trkpt>
      <trkpt lat="51.393832" lon="21.022147"></trkpt>
      <trkpt lat="51.396609" lon="21.023347"></trkpt>
      <trkpt lat="51.400516" lon="21.025568"></trkpt>
      <trkpt lat="51.402025" lon="21.02622"></trkpt>
      <trkpt lat="51.404118" lon="21.026866"></trkpt>
      <trkpt lat="51.411689" lon="21.028556"></trkpt>
      <trkpt lat="51.421912" lon="21.031388"></trkpt>
      <trkpt lat="51.425194" lon="21.032126"></trkpt>
      <trkpt lat="51.427661" lon="21.032518"></trkpt>
      <trkpt lat="51.442434" lon="21.034213"></trkpt>
      <trkpt lat="51.443787" lon="21.034445"></trkpt>
      <trkpt lat="51.445471" lon="21.034907"></trkpt>
      <trkpt lat="51.447239" lon="21.0356"></trkpt>
      <trkpt lat="51.449893" lon="21.037058"></trkpt>
      <trkpt lat="51.467216" lon="21.049493"></trkpt>
      <trkpt lat="51.470496" lon="21.052421"></trkpt>
      <trkpt lat="51.475119" lon="21.057694"></trkpt>
      <trkpt lat="51.476948" lon="21.059535"></trkpt>
      <trkpt lat="51.482423" lon="21.064075"></trkpt>
      <trkpt lat="51.493808" lon="21.074487"></trkpt>
      <trkpt lat="51.495551" lon="21.07586"></trkpt>
      <trkpt lat="51.496899" lon="21.076754"></trkpt>
      <trkpt lat="51.504967" lon="21.080943"></trkpt>
      <trkpt lat="51.507183" lon="21.081872"></trkpt>
      <trkpt lat="51.509902" lon="21.082762"></trkpt>
      <trkpt lat="51.516553" lon="21.084704"></trkpt>
      <trkpt lat="51.518407" lon="21.085147"></trkpt>
      <trkpt lat="51.519923" lon="21.085318"></trkpt>
      <trkpt lat="51.521206" lon="21.085308"></trkpt>
      <trkpt lat="51.522764" lon="21.085113"></trkpt>
      <trkpt lat="51.524009" lon="21.08482"></trkpt>
      <trkpt lat="51.526529" lon="21.083828"></trkpt>
      <trkpt lat="51.529036" lon="21.082224"></trkpt>
      <trkpt lat="51.531363" lon="21.080115"></trkpt>
      <trkpt lat="51.53362" lon="21.07735"></trkpt>
      <trkpt lat="51.53499" lon="21.075202"></trkpt>
      <trkpt lat="51.536051" lon="21.073222"></trkpt>
      <trkpt lat="51.557466" lon="21.029973"></trkpt>
      <trkpt lat="51.558634" lon="21.028404"></trkpt>
      <trkpt lat="51.559883" lon="21.027353"></trkpt>
      <trkpt lat="51.561026" lon="21.026818"></trkpt>
      <trkpt lat="51.564183" lon="21.026309"></trkpt>
      <trkpt lat="51.565326" lon="21.025915"></trkpt>
      <trkpt lat="51.566713" lon="21.025113"></trkpt>
      <trkpt lat="51.56818" lon="21.023679"></trkpt>
      <trkpt lat="51.569218" lon="21.02226"></trkpt>
      <trkpt lat="51.570036" lon="21.020854"></trkpt>
      <trkpt lat="51.578291" lon="21.005538"></trkpt>
      <trkpt lat="51.579476" lon="21.003705"></trkpt>
      <trkpt lat="51.580549" lon="21.002512"></trkpt>
      <trkpt lat="51.581674" lon="21.001591"></trkpt>
      <trkpt lat="51.592329" lon="20.994427"></trkpt>
      <trkpt lat="51.606595" lon="20.984328"></trkpt>
      <trkpt lat="51.623563" lon="20.97255"></trkpt>
      <trkpt lat="51.627302" lon="20.970072"></trkpt>
      <trkpt lat="51.628502" lon="20.969509"></trkpt>
      <trkpt lat="51.629793" lon="20.969145"></trkpt>
      <trkpt lat="51.630695" lon="20.969032"></trkpt>
      <trkpt lat="51.632149" lon="20.969083"></trkpt>
      <trkpt lat="51.633281" lon="20.96933"></trkpt>
      <trkpt lat="51.635317" lon="20.970183"></trkpt>
      <trkpt lat="51.642521" lon="20.974101"></trkpt>
      <trkpt lat="51.643812" lon="20.974596"></trkpt>
      <trkpt lat="51.644894" lon="20.974724"></trkpt>
      <trkpt lat="51.645479" lon="20.974677"></trkpt>
      <trkpt lat="51.646558" lon="20.974401"></trkpt>
      <trkpt lat="51.647482" lon="20.973952"></trkpt>
      <trkpt lat="51.648279" lon="20.973358"></trkpt>
      <trkpt lat="51.653564" lon="20.968544"></trkpt>
      <trkpt lat="51.657862" lon="20.964448"></trkpt>
      <trkpt lat="51.678461" lon="20.941373"></trkpt>
      <trkpt lat="51.681588" lon="20.938616"></trkpt>
      <trkpt lat="51.684476" lon="20.936672"></trkpt>
      <trkpt lat="51.68621" lon="20.935764"></trkpt>
      <trkpt lat="51.688742" lon="20.93467"></trkpt>
      <trkpt lat="51.77516" lon="20.897955"></trkpt>
      <trkpt lat="51.843483" lon="20.874195"></trkpt>
      <trkpt lat="51.844633" lon="20.87347"></trkpt>
      <trkpt lat="51.853578" lon="20.866763"></trkpt>
      <trkpt lat="51.854764" lon="20.865703"></trkpt>
      <trkpt lat="51.855695" lon="20.864525"></trkpt>
      <trkpt lat="51.856242" lon="20.863615"></trkpt>
      <trkpt lat="51.859847" lon="20.85613"></trkpt>
      <trkpt lat="51.860753" lon="20.854488"></trkpt>
      <trkpt lat="51.861692" lon="20.853218"></trkpt>
      <trkpt lat="51.86247" lon="20.852412"></trkpt>
      <trkpt lat="51.863504" lon="20.851625"></trkpt>
      <trkpt lat="51.864662" lon="20.851061"></trkpt>
      <trkpt lat="51.865533" lon="20.85084"></trkpt>
      <trkpt lat="51.866566" lon="20.850766"></trkpt>
      <trkpt lat="51.868328" lon="20.85114"></trkpt>
      <trkpt lat="51.870228" lon="20.851978"></trkpt>
      <trkpt lat="51.877056" lon="20.855371"></trkpt>
      <trkpt lat="51.8781" lon="20.855738"></trkpt>
      <trkpt lat="51.878948" lon="20.855855"></trkpt>
      <trkpt lat="51.888331" lon="20.856177"></trkpt>
      <trkpt lat="51.889741" lon="20.856402"></trkpt>
      <trkpt lat="51.891206" lon="20.857126"></trkpt>
      <trkpt lat="51.894109" lon="20.859432"></trkpt>
      <trkpt lat="51.895198" lon="20.860171"></trkpt>
      <trkpt lat="51.896461" lon="20.860652"></trkpt>
      <trkpt lat="51.89782" lon="20.860735"></trkpt>
      <trkpt lat="51.899014" lon="20.860459"></trkpt>
      <trkpt lat="51.905652" lon="20.858034"></trkpt>
      <trkpt lat="51.934744" lon="20.847878"></trkpt>
      <trkpt lat="51.936124" lon="20.847541"></trkpt>
      <trkpt lat="51.939468" lon="20.847003"></trkpt>
      <trkpt lat="51.940892" lon="20.846463"></trkpt>
      <trkpt lat="51.943999" lon="20.844645"></trkpt>
      <trkpt lat="51.945026" lon="20.844245"></trkpt>
      <trkpt lat="51.94676" lon="20.843866"></trkpt>
      <trkpt lat="51.94773" lon="20.84386"></trkpt>
      <trkpt lat="51.949285" lon="20.844158"></trkpt>
      <trkpt lat="51.95036" lon="20.844579"></trkpt>
      <trkpt lat="51.951911" lon="20.845601"></trkpt>
      <trkpt lat="51.95378" lon="20.847419"></trkpt>
      <trkpt lat="51.956634" lon="20.851034"></trkpt>
      <trkpt lat="51.958955" lon="20.853442"></trkpt>
      <trkpt lat="51.96865" lon="20.86115"></trkpt>
      <trkpt lat="51.970937" lon="20.862824"></trkpt>
      <trkpt lat="51.972103" lon="20.863456"></trkpt>
      <trkpt lat="51.973207" lon="20.863903"></trkpt>
      <trkpt lat="51.974292" lon="20.864177"></trkpt>
      <trkpt lat="51.977253" lon="20.864612"></trkpt>
      <trkpt lat="51.979051" lon="20.865109"></trkpt>
      <trkpt lat="51.9804" lon="20.865799"></trkpt>
      <trkpt lat="51.981366" lon="20.866496"></trkpt>
      <trkpt lat="51.98268" lon="20.867789"></trkpt>
      <trkpt lat="51.98368" lon="20.869067"></trkpt>
      <trkpt lat="51.984871" lon="20.870984"></trkpt>
      <trkpt lat="51.98835" lon="20.877319"></trkpt>
      <trkpt lat="51.989296" lon="20.878724"></trkpt>
      <trkpt lat="51.990795" lon="20.880402"></trkpt>
      <trkpt lat="51.992565" lon="20.881701"></trkpt>
      <trkpt lat="51.993531" lon="20.882191"></trkpt>
      <trkpt lat="51.995166" lon="20.882677"></trkpt>
      <trkpt lat="51.996498" lon="20.88277"></trkpt>
      <trkpt lat="51.997467" lon="20.882631"></trkpt>
      <trkpt lat="51.998761" lon="20.882282"></trkpt>
      <trkpt lat="51.999561" lon="20.881907"></trkpt>
      <trkpt lat="52.004311" lon="20.879094"></trkpt>
      <trkpt lat="52.005598" lon="20.878581"></trkpt>
      <trkpt lat="52.006519" lon="20.87845"></trkpt>
      <trkpt lat="52.007949" lon="20.878482"></trkpt>
      <trkpt lat="52.009019" lon="20.878784"></trkpt>
      <trkpt lat="52.011" lon="20.879919"></trkpt>
      <trkpt lat="52.011968" lon="20.880791"></trkpt>
      <trkpt lat="52.01277" lon="20.881724"></trkpt>
      <trkpt lat="52.013815" lon="20.883443"></trkpt>
      <trkpt lat="52.014772" lon="20.885482"></trkpt>
      <trkpt lat="52.017049" lon="20.891821"></trkpt>
      <trkpt lat="52.018192" lon="20.894421"></trkpt>
      <trkpt lat="52.019612" lon="20.896806"></trkpt>
      <trkpt lat="52.021421" lon="20.899005"></trkpt>
      <trkpt lat="52.02243" lon="20.899941"></trkpt>
      <trkpt lat="52.024395" lon="20.901292"></trkpt>
      <trkpt lat="52.036516" lon="20.907177"></trkpt>
      <trkpt lat="52.038614" lon="20.908461"></trkpt>
      <trkpt lat="52.041058" lon="20.910188"></trkpt>
      <trkpt lat="52.043199" lon="20.911977"></trkpt>
      <trkpt lat="52.045659" lon="20.914283"></trkpt>
      <trkpt lat="52.047446" lon="20.916207"></trkpt>
      <trkpt lat="52.054649" lon="20.924679"></trkpt>
      <trkpt lat="52.057624" lon="20.928982"></trkpt>
      <trkpt lat="52.060156" lon="20.933526"></trkpt>
      <trkpt lat="52.064537" lon="20.942885"></trkpt>
      <trkpt lat="52.067506" lon="20.949947"></trkpt>
      <trkpt lat="52.069462" lon="20.953778"></trkpt>
      <trkpt lat="52.071528" lon="20.957365"></trkpt>
      <trkpt lat="52.073035" lon="20.959636"></trkpt>
      <trkpt lat="52.0746" lon="20.961516"></trkpt>
      <trkpt lat="52.075803" lon="20.962736"></trkpt>
      <trkpt lat="52.077735" lon="20.964317"></trkpt>
      <trkpt lat="52.078908" lon="20.965099"></trkpt>
      <trkpt lat="52.080398" lon="20.965858"></trkpt>
      <trkpt lat="52.093939" lon="20.971165"></trkpt>
      <trkpt lat="52.09523" lon="20.971465"></trkpt>
      <trkpt lat="52.096913" lon="20.971481"></trkpt>
      <trkpt lat="52.097846" lon="20.971312"></trkpt>
      <trkpt lat="52.100567" lon="20.970503"></trkpt>
      <trkpt lat="52.101511" lon="20.970384"></trkpt>
      <trkpt lat="52.102391" lon="20.970414"></trkpt>
      <trkpt lat="52.103263" lon="20.970593"></trkpt>
      <trkpt lat="52.104828" lon="20.971279"></trkpt>
      <trkpt lat="52.106428" lon="20.97255"></trkpt>
      <trkpt lat="52.107768" lon="20.974141"></trkpt>
      <trkpt lat="52.112187" lon="20.981042"></trkpt>
      <trkpt lat="52.114409" lon="20.983777"></trkpt>
      <trkpt lat="52.116039" lon="20.985278"></trkpt>
      <trkpt lat="52.117699" lon="20.986319"></trkpt>
      <trkpt lat="52.119372" lon="20.987117"></trkpt>
      <trkpt lat="52.12088" lon="20.987586"></trkpt>
      <trkpt lat="52.126924" lon="20.989023"></trkpt>
      <trkpt lat="52.129588" lon="20.989468"></trkpt>
      <trkpt lat="52.13328" lon="20.989532"></trkpt>
      <trkpt lat="52.135378" lon="20.989392"></trkpt>
      <trkpt lat="52.136901" lon="20.98951"></trkpt>
      <trkpt lat="52.13819" lon="20.989303"></trkpt>
      <trkpt lat="52.140871" lon="20.989305"></trkpt>
      <trkpt lat="52.141208" lon="20.989132"></trkpt>
      <trkpt lat="52.14138" lon="20.988728"></trkpt>
      <trkpt lat="52.141298" lon="20.987864"></trkpt>
      <trkpt lat="52.139922" lon="20.985922"></trkpt>
      <trkpt lat="52.13924" lon="20.984127"></trkpt>
      <trkpt lat="52.139061" lon="20.98316"></trkpt>
      <trkpt lat="52.139013" lon="20.981511"></trkpt>
      <trkpt lat="52.139298" lon="20.978686"></trkpt>
      <trkpt lat="52.139788" lon="20.975931"></trkpt>
      <trkpt lat="52.140569" lon="20.973186"></trkpt>
      <trkpt lat="52.141578" lon="20.970642"></trkpt>
      <trkpt lat="52.142413" lon="20.968998"></trkpt>
      <trkpt lat="52.143299" lon="20.96757"></trkpt>
      <trkpt lat="52.145017" lon="20.965413"></trkpt>
      <trkpt lat="52.147073" lon="20.963622"></trkpt>
      <trkpt lat="52.151732" lon="20.960475"></trkpt>
      <trkpt lat="52.154717" lon="20.958055"></trkpt>
      <trkpt lat="52.156018" lon="20.956733"></trkpt>
      <trkpt lat="52.15752" lon="20.954981"></trkpt>
      <trkpt lat="52.159189" lon="20.952656"></trkpt>
      <trkpt lat="52.160248" lon="20.95097"></trkpt>
      <trkpt lat="52.161958" lon="20.947735"></trkpt>
      <trkpt lat="52.1641" lon="20.942904"></trkpt>
      <trkpt lat="52.171823" lon="20.917744"></trkpt>
      <trkpt lat="52.172288" lon="20.916705"></trkpt>
      <trkpt lat="52.172955" lon="20.915807"></trkpt>
      <trkpt lat="52.174299" lon="20.91497"></trkpt>
      <trkpt lat="52.176055" lon="20.914111"></trkpt>
      <trkpt lat="52.176955" lon="20.914088"></trkpt>
      <trkpt lat="52.178854" lon="20.914663"></trkpt>
      <trkpt lat="52.187596" lon="20.917685"></trkpt>
      <trkpt lat="52.188811" lon="20.918214"></trkpt>
      <trkpt lat="52.189564" lon="20.918886"></trkpt>
      <trkpt lat="52.19131" lon="20.921438"></trkpt>
      <trkpt lat="52.195516" lon="20.928105"></trkpt>
      <trkpt lat="52.196931" lon="20.929904"></trkpt>
      <trkpt lat="52.198667" lon="20.932424"></trkpt>
      <trkpt lat="52.207619" lon="20.94585"></trkpt>
      <trkpt lat="52.211012" lon="20.951121"></trkpt>
      <trkpt lat="52.211979" lon="20.952418"></trkpt>
      <trkpt lat="52.211966" lon="20.952783"></trkpt>
      <trkpt lat="52.21187" lon="20.952939"></trkpt>
      <trkpt lat="52.211741" lon="20.952863"></trkpt>
      <trkpt lat="52.211669" lon="20.953061"></trkpt>
      <trkpt lat="52.211822" lon="20.953193"></trkpt>
      <trkpt lat="52.211974" lon="20.953904"></trkpt>
      <trkpt lat="52.211972" lon="20.955694"></trkpt>
      <trkpt lat="52.211779" lon="20.956654"></trkpt>
      <trkpt lat="52.211662" lon="20.956575"></trkpt>
      <trkpt lat="52.211531" lon="20.957096"></trkpt>
  </trkseg></trk>
</gpx>
