<?xml version="1.0" encoding="UTF-8"?>
<gpx version="1.1" creator="yatutbuv" xmlns="http://www.topografix.com/GPX/1/1">
  <trk><name>GraphHopper Track</name><trkseg>
      <trkpt lat="47.741252" lon="9.257902"></trkpt>
      <trkpt lat="47.741754" lon="9.25591"></trkpt>
      <trkpt lat="47.740736" lon="9.255175"></trkpt>
      <trkpt lat="47.741042" lon="9.253761"></trkpt>
      <trkpt lat="47.74236" lon="9.250619"></trkpt>
      <trkpt lat="47.742325" lon="9.250462"></trkpt>
      <trkpt lat="47.74188" lon="9.249504"></trkpt>
      <trkpt lat="47.741006" lon="9.248227"></trkpt>
      <trkpt lat="47.740334" lon="9.24759"></trkpt>
      <trkpt lat="47.739874" lon="9.247369"></trkpt>
      <trkpt lat="47.738839" lon="9.246006"></trkpt>
      <trkpt lat="47.738113" lon="9.244023"></trkpt>
      <trkpt lat="47.737963" lon="9.243031"></trkpt>
      <trkpt lat="47.737825" lon="9.242922"></trkpt>
      <trkpt lat="47.737453" lon="9.242899"></trkpt>
      <trkpt lat="47.736277" lon="9.243026"></trkpt>
      <trkpt lat="47.73585" lon="9.242808"></trkpt>
      <trkpt lat="47.735288" lon="9.242805"></trkpt>
      <trkpt lat="47.735495" lon="9.24091"></trkpt>
      <trkpt lat="47.735756" lon="9.24068"></trkpt>
      <trkpt lat="47.736293" lon="9.240619"></trkpt>
      <trkpt lat="47.736591" lon="9.240192"></trkpt>
      <trkpt lat="47.736635" lon="9.239292"></trkpt>
      <trkpt lat="47.736376" lon="9.238716"></trkpt>
      <trkpt lat="47.735589" lon="9.238465"></trkpt>
      <trkpt lat="47.735475" lon="9.239217"></trkpt>
      <trkpt lat="47.735125" lon="9.239596"></trkpt>
      <trkpt lat="47.730412" lon="9.238708"></trkpt>
      <trkpt lat="47.726578" lon="9.237189"></trkpt>
      <trkpt lat="47.725814" lon="9.23705"></trkpt>
      <trkpt lat="47.725171" lon="9.237053"></trkpt>
      <trkpt lat="47.72434" lon="9.237226"></trkpt>
      <trkpt lat="47.723584" lon="9.237577"></trkpt>
      <trkpt lat="47.722759" lon="9.23817"></trkpt>
      <trkpt lat="47.721901" lon="9.239111"></trkpt>
      <trkpt lat="47.720913" lon="9.240832"></trkpt>
      <trkpt lat="47.717366" lon="9.249737"></trkpt>
      <trkpt lat="47.716263" lon="9.25208"></trkpt>
      <trkpt lat="47.71522" lon="9.253851"></trkpt>
      <trkpt lat="47.713818" lon="9.255743"></trkpt>
      <trkpt lat="47.712559" lon="9.257124"></trkpt>
      <trkpt lat="47.707996" lon="9.260839"></trkpt>
      <trkpt lat="47.707042" lon="9.261808"></trkpt>
      <trkpt lat="47.706119" lon="9.263008"></trkpt>
      <trkpt lat="47.705414" lon="9.264148"></trkpt>
      <trkpt lat="47.703961" lon="9.26708"></trkpt>
      <trkpt lat="47.70287" lon="9.269855"></trkpt>
      <trkpt lat="47.701679" lon="9.274587"></trkpt>
      <trkpt lat="47.701205" lon="9.276053"></trkpt>
      <trkpt lat="47.699609" lon="9.279662"></trkpt>
      <trkpt lat="47.698126" lon="9.282354"></trkpt>
      <trkpt lat="47.697451" lon="9.283268"></trkpt>
      <trkpt lat="47.696358" lon="9.284236"></trkpt>
      <trkpt lat="47.69535" lon="9.284675"></trkpt>
      <trkpt lat="47.693874" lon="9.285029"></trkpt>
      <trkpt lat="47.692792" lon="9.285578"></trkpt>
      <trkpt lat="47.691556" lon="9.28699"></trkpt>
      <trkpt lat="47.69081" lon="9.288149"></trkpt>
      <trkpt lat="47.689929" lon="9.290148"></trkpt>
      <trkpt lat="47.689535" lon="9.291566"></trkpt>
      <trkpt lat="47.689335" lon="9.292939"></trkpt>
      <trkpt lat="47.689202" lon="9.296165"></trkpt>
      <trkpt lat="47.688998" lon="9.297309"></trkpt>
      <trkpt lat="47.68849" lon="9.298774"></trkpt>
      <trkpt lat="47.687424" lon="9.300616"></trkpt>
      <trkpt lat="47.684839" lon="9.304101"></trkpt>
      <trkpt lat="47.682911" lon="9.308305"></trkpt>
      <trkpt lat="47.681491" lon="9.310569"></trkpt>
      <trkpt lat="47.680465" lon="9.311633"></trkpt>
      <trkpt lat="47.679324" lon="9.312367"></trkpt>
      <trkpt lat="47.678532" lon="9.31303"></trkpt>
      <trkpt lat="47.67754" lon="9.314471"></trkpt>
      <trkpt lat="47.677066" lon="9.315802"></trkpt>
      <trkpt lat="47.676172" lon="9.320294"></trkpt>
      <trkpt lat="47.675095" lon="9.323474"></trkpt>
      <trkpt lat="47.673803" lon="9.326531"></trkpt>
      <trkpt lat="47.671372" lon="9.330001"></trkpt>
      <trkpt lat="47.66976" lon="9.333575"></trkpt>
      <trkpt lat="47.669167" lon="9.335417"></trkpt>
      <trkpt lat="47.667862" lon="9.340707"></trkpt>
      <trkpt lat="47.666099" lon="9.346357"></trkpt>
      <trkpt lat="47.665641" lon="9.349172"></trkpt>
      <trkpt lat="47.665156" lon="9.354052"></trkpt>
      <trkpt lat="47.665155" lon="9.355561"></trkpt>
      <trkpt lat="47.66531" lon="9.357115"></trkpt>
      <trkpt lat="47.666033" lon="9.359577"></trkpt>
      <trkpt lat="47.66658" lon="9.360693"></trkpt>
      <trkpt lat="47.667186" lon="9.361607"></trkpt>
      <trkpt lat="47.669221" lon="9.363636"></trkpt>
      <trkpt lat="47.669811" lon="9.364473"></trkpt>
      <trkpt lat="47.670531" lon="9.366128"></trkpt>
      <trkpt lat="47.670882" lon="9.367985"></trkpt>
      <trkpt lat="47.670876" lon="9.369706"></trkpt>
      <trkpt lat="47.670454" lon="9.371759"></trkpt>
      <trkpt lat="47.669817" lon="9.373179"></trkpt>
      <trkpt lat="47.668241" lon="9.37588"></trkpt>
      <trkpt lat="47.66767" lon="9.377423"></trkpt>
      <trkpt lat="47.66737" lon="9.379316"></trkpt>
      <trkpt lat="47.667421" lon="9.38121"></trkpt>
      <trkpt lat="47.667623" lon="9.382379"></trkpt>
      <trkpt lat="47.66813" lon="9.383882"></trkpt>
      <trkpt lat="47.669757" lon="9.38668"></trkpt>
      <trkpt lat="47.6702" lon="9.387648"></trkpt>
      <trkpt lat="47.671723" lon="9.392722"></trkpt>
      <trkpt lat="47.672062" lon="9.393237"></trkpt>
      <trkpt lat="47.673267" lon="9.394161"></trkpt>
      <trkpt lat="47.673883" lon="9.39524"></trkpt>
      <trkpt lat="47.674962" lon="9.401706"></trkpt>
      <trkpt lat="47.675512" lon="9.403356"></trkpt>
      <trkpt lat="47.677015" lon="9.40651"></trkpt>
      <trkpt lat="47.677547" lon="9.407979"></trkpt>
      <trkpt lat="47.677955" lon="9.409792"></trkpt>
      <trkpt lat="47.678421" lon="9.412817"></trkpt>
      <trkpt lat="47.678869" lon="9.414293"></trkpt>
      <trkpt lat="47.679527" lon="9.415589"></trkpt>
      <trkpt lat="47.681365" lon="9.418045"></trkpt>
      <trkpt lat="47.681849" lon="9.41887"></trkpt>
      <trkpt lat="47.682425" lon="9.420286"></trkpt>
      <trkpt lat="47.682675" lon="9.421242"></trkpt>
      <trkpt lat="47.682953" lon="9.423802"></trkpt>
      <trkpt lat="47.682719" lon="9.428338"></trkpt>
      <trkpt lat="47.682041" lon="9.433332"></trkpt>
      <trkpt lat="47.680977" lon="9.438143"></trkpt>
      <trkpt lat="47.679364" lon="9.443216"></trkpt>
      <trkpt lat="47.678449" lon="9.445464"></trkpt>
      <trkpt lat="47.677656" lon="9.446989"></trkpt>
      <trkpt lat="47.676047" lon="9.449139"></trkpt>
      <trkpt lat="47.671884" lon="9.45344"></trkpt>
      <trkpt lat="47.670992" lon="9.454839"></trkpt>
      <trkpt lat="47.670325" lon="9.456914"></trkpt>
      <trkpt lat="47.669918" lon="9.46093"></trkpt>
      <trkpt lat="47.669696" lon="9.461953"></trkpt>
      <trkpt lat="47.669109" lon="9.463555"></trkpt>
      <trkpt lat="47.666641" lon="9.469114"></trkpt>
      <trkpt lat="47.665888" lon="9.471348"></trkpt>
      <trkpt lat="47.66524" lon="9.474087"></trkpt>
      <trkpt lat="47.665047" lon="9.476433"></trkpt>
      <trkpt lat="47.665009" lon="9.479153"></trkpt>
      <trkpt lat="47.66506" lon="9.480021"></trkpt>
      <trkpt lat="47.665296" lon="9.481105"></trkpt>
      <trkpt lat="47.666423" lon="9.484562"></trkpt>
      <trkpt lat="47.666662" lon="9.486186"></trkpt>
      <trkpt lat="47.666682" lon="9.487539"></trkpt>
      <trkpt lat="47.66635" lon="9.489854"></trkpt>
      <trkpt lat="47.665302" lon="9.492501"></trkpt>
      <trkpt lat="47.664218" lon="9.494111"></trkpt>
      <trkpt lat="47.662149" lon="9.496027"></trkpt>
      <trkpt lat="47.656935" lon="9.4994"></trkpt>
      <trkpt lat="47.655761" lon="9.500292"></trkpt>
      <trkpt lat="47.65494" lon="9.501077"></trkpt>
      <trkpt lat="47.653433" lon="9.502686"></trkpt>
      <trkpt lat="47.650226" lon="9.507182"></trkpt>
      <trkpt lat="47.648396" lon="9.509086"></trkpt>
      <trkpt lat="47.647252" lon="9.509949"></trkpt>
      <trkpt lat="47.644613" lon="9.511532"></trkpt>
      <trkpt lat="47.643409" lon="9.512465"></trkpt>
      <trkpt lat="47.642254" lon="9.513577"></trkpt>
      <trkpt lat="47.64008" lon="9.516372"></trkpt>
      <trkpt lat="47.634571" lon="9.524133"></trkpt>
      <trkpt lat="47.633883" lon="9.525523"></trkpt>
      <trkpt lat="47.633188" lon="9.527785"></trkpt>
      <trkpt lat="47.630838" lon="9.538108"></trkpt>
      <trkpt lat="47.629892" lon="9.541212"></trkpt>
      <trkpt lat="47.623778" lon="9.5545"></trkpt>
      <trkpt lat="47.620894" lon="9.560144"></trkpt>
      <trkpt lat="47.619274" lon="9.562825"></trkpt>
      <trkpt lat="47.61732" lon="9.565522"></trkpt>
      <trkpt lat="47.611687" lon="9.572268"></trkpt>
      <trkpt lat="47.610225" lon="9.57446"></trkpt>
      <trkpt lat="47.609181" lon="9.576604"></trkpt>
      <trkpt lat="47.608646" lon="9.578166"></trkpt>
      <trkpt lat="47.608313" lon="9.579607"></trkpt>
      <trkpt lat="47.608042" lon="9.582208"></trkpt>
      <trkpt lat="47.608121" lon="9.584888"></trkpt>
      <trkpt lat="47.608631" lon="9.589975"></trkpt>
      <trkpt lat="47.60851" lon="9.592901"></trkpt>
      <trkpt lat="47.608222" lon="9.59459"></trkpt>
      <trkpt lat="47.607832" lon="9.596085"></trkpt>
      <trkpt lat="47.605416" lon="9.602053"></trkpt>
      <trkpt lat="47.604944" lon="9.603708"></trkpt>
      <trkpt lat="47.604648" lon="9.605324"></trkpt>
      <trkpt lat="47.604462" lon="9.608109"></trkpt>
      <trkpt lat="47.604821" lon="9.613745"></trkpt>
      <trkpt lat="47.604782" lon="9.616812"></trkpt>
      <trkpt lat="47.604507" lon="9.619295"></trkpt>
      <trkpt lat="47.603693" lon="9.622901"></trkpt>
      <trkpt lat="47.602706" lon="9.625575"></trkpt>
      <trkpt lat="47.601692" lon="9.627362"></trkpt>
      <trkpt lat="47.600285" lon="9.628972"></trkpt>
      <trkpt lat="47.597384" lon="9.631382"></trkpt>
      <trkpt lat="47.596709" lon="9.632213"></trkpt>
      <trkpt lat="47.596117" lon="9.633222"></trkpt>
      <trkpt lat="47.595577" lon="9.634436"></trkpt>
      <trkpt lat="47.594217" lon="9.638823"></trkpt>
      <trkpt lat="47.593482" lon="9.64058"></trkpt>
      <trkpt lat="47.589776" lon="9.64769"></trkpt>
      <trkpt lat="47.587645" lon="9.652218"></trkpt>
      <trkpt lat="47.584235" lon="9.6612"></trkpt>
      <trkpt lat="47.583671" lon="9.662987"></trkpt>
      <trkpt lat="47.582998" lon="9.665904"></trkpt>
      <trkpt lat="47.58222" lon="9.670809"></trkpt>
      <trkpt lat="47.579908" lon="9.67843"></trkpt>
      <trkpt lat="47.578771" lon="9.683751"></trkpt>
      <trkpt lat="47.578016" lon="9.685776"></trkpt>
      <trkpt lat="47.576188" lon="9.689292"></trkpt>
      <trkpt lat="47.575735" lon="9.690726"></trkpt>
      <trkpt lat="47.575399" lon="9.692437"></trkpt>
      <trkpt lat="47.575257" lon="9.694165"></trkpt>
      <trkpt lat="47.575327" lon="9.696135"></trkpt>
      <trkpt lat="47.576351" lon="9.703714"></trkpt>
      <trkpt lat="47.576432" lon="9.70631"></trkpt>
      <trkpt lat="47.576171" lon="9.708542"></trkpt>
      <trkpt lat="47.57444" lon="9.718109"></trkpt>
      <trkpt lat="47.574118" lon="9.720925"></trkpt>
      <trkpt lat="47.574125" lon="9.722314"></trkpt>
      <trkpt lat="47.574479" lon="9.724963"></trkpt>
      <trkpt lat="47.575021" lon="9.726654"></trkpt>
      <trkpt lat="47.57572" lon="9.727978"></trkpt>
      <trkpt lat="47.577778" lon="9.730949"></trkpt>
      <trkpt lat="47.578339" lon="9.732157"></trkpt>
      <trkpt lat="47.578923" lon="9.734028"></trkpt>
      <trkpt lat="47.579267" lon="9.735653"></trkpt>
      <trkpt lat="47.579173" lon="9.736134"></trkpt>
      <trkpt lat="47.578917" lon="9.736369"></trkpt>
      <trkpt lat="47.578476" lon="9.736427"></trkpt>
      <trkpt lat="47.578058" lon="9.736262"></trkpt>
      <trkpt lat="47.577838" lon="9.73602"></trkpt>
      <trkpt lat="47.577767" lon="9.735633"></trkpt>
      <trkpt lat="47.577846" lon="9.735343"></trkpt>
      <trkpt lat="47.57824" lon="9.735035"></trkpt>
      <trkpt lat="47.58312" lon="9.736072"></trkpt>
      <trkpt lat="47.585748" lon="9.736352"></trkpt>
      <trkpt lat="47.588595" lon="9.736171"></trkpt>
      <trkpt lat="47.590109" lon="9.73585"></trkpt>
      <trkpt lat="47.592131" lon="9.735251"></trkpt>
      <trkpt lat="47.592547" lon="9.735266"></trkpt>
      <trkpt lat="47.593318" lon="9.735699"></trkpt>
      <trkpt lat="47.593778" lon="9.735758"></trkpt>
      <trkpt lat="47.594523" lon="9.735284"></trkpt>
      <trkpt lat="47.596748" lon="9.737721"></trkpt>
      <trkpt lat="47.597439" lon="9.738664"></trkpt>
      <trkpt lat="47.597607" lon="9.739202"></trkpt>
      <trkpt lat="47.59795" lon="9.742589"></trkpt>
      <trkpt lat="47.598267" lon="9.743639"></trkpt>
      <trkpt lat="47.598556" lon="9.744077"></trkpt>
      <trkpt lat="47.599775" lon="9.745186"></trkpt>
      <trkpt lat="47.601116" lon="9.747049"></trkpt>
      <trkpt lat="47.605787" lon="9.75282"></trkpt>
      <trkpt lat="47.606988" lon="9.754576"></trkpt>
      <trkpt lat="47.608098" lon="9.756673"></trkpt>
      <trkpt lat="47.611157" lon="9.764916"></trkpt>
      <trkpt lat="47.613284" lon="9.769943"></trkpt>
      <trkpt lat="47.613413" lon="9.770464"></trkpt>
      <trkpt lat="47.61372" lon="9.770843"></trkpt>
      <trkpt lat="47.614247" lon="9.772298"></trkpt>
      <trkpt lat="47.615316" lon="9.774546"></trkpt>
      <trkpt lat="47.615406" lon="9.775013"></trkpt>
      <trkpt lat="47.615682" lon="9.775327"></trkpt>
      <trkpt lat="47.616127" lon="9.776498"></trkpt>
      <trkpt lat="47.616578" lon="9.778559"></trkpt>
      <trkpt lat="47.616663" lon="9.781451"></trkpt>
      <trkpt lat="47.616897" lon="9.782855"></trkpt>
      <trkpt lat="47.617278" lon="9.783806"></trkpt>
      <trkpt lat="47.618421" lon="9.78583"></trkpt>
      <trkpt lat="47.619388" lon="9.788596"></trkpt>
      <trkpt lat="47.619827" lon="9.790536"></trkpt>
      <trkpt lat="47.622321" lon="9.793657"></trkpt>
      <trkpt lat="47.623617" lon="9.795606"></trkpt>
      <trkpt lat="47.624882" lon="9.797851"></trkpt>
      <trkpt lat="47.625382" lon="9.798481"></trkpt>
      <trkpt lat="47.626402" lon="9.799279"></trkpt>
      <trkpt lat="47.628018" lon="9.799834"></trkpt>
      <trkpt lat="47.628938" lon="9.800364"></trkpt>
      <trkpt lat="47.629938" lon="9.801398"></trkpt>
      <trkpt lat="47.638593" lon="9.814937"></trkpt>
      <trkpt lat="47.639353" lon="9.816687"></trkpt>
      <trkpt lat="47.640219" lon="9.819787"></trkpt>
      <trkpt lat="47.64078" lon="9.821289"></trkpt>
      <trkpt lat="47.642308" lon="9.824449"></trkpt>
      <trkpt lat="47.64427" lon="9.827974"></trkpt>
      <trkpt lat="47.646061" lon="9.830811"></trkpt>
      <trkpt lat="47.647905" lon="9.833458"></trkpt>
      <trkpt lat="47.64867" lon="9.834108"></trkpt>
      <trkpt lat="47.649799" lon="9.834546"></trkpt>
      <trkpt lat="47.65002" lon="9.834882"></trkpt>
      <trkpt lat="47.650499" lon="9.836946"></trkpt>
      <trkpt lat="47.65109" lon="9.83854"></trkpt>
      <trkpt lat="47.65516" lon="9.845941"></trkpt>
      <trkpt lat="47.657318" lon="9.851497"></trkpt>
      <trkpt lat="47.657802" lon="9.852292"></trkpt>
      <trkpt lat="47.657849" lon="9.852825"></trkpt>
      <trkpt lat="47.65767" lon="9.854538"></trkpt>
      <trkpt lat="47.658014" lon="9.855809"></trkpt>
      <trkpt lat="47.663605" lon="9.865146"></trkpt>
      <trkpt lat="47.664778" lon="9.867985"></trkpt>
      <trkpt lat="47.665554" lon="9.871085"></trkpt>
      <trkpt lat="47.665728" lon="9.873285"></trkpt>
      <trkpt lat="47.665584" lon="9.874746"></trkpt>
      <trkpt lat="47.66533" lon="9.875792"></trkpt>
      <trkpt lat="47.664682" lon="9.87748"></trkpt>
      <trkpt lat="47.664273" lon="9.878918"></trkpt>
      <trkpt lat="47.664101" lon="9.880625"></trkpt>
      <trkpt lat="47.664001" lon="9.884282"></trkpt>
      <trkpt lat="47.663835" lon="9.885748"></trkpt>
      <trkpt lat="47.662098" lon="9.893421"></trkpt>
      <trkpt lat="47.661885" lon="9.896533"></trkpt>
      <trkpt lat="47.661297" lon="9.898785"></trkpt>
      <trkpt lat="47.661067" lon="9.90064"></trkpt>
      <trkpt lat="47.660476" lon="9.903361"></trkpt>
      <trkpt lat="47.660685" lon="9.906542"></trkpt>
      <trkpt lat="47.660716" lon="9.912016"></trkpt>
      <trkpt lat="47.660598" lon="9.912793"></trkpt>
      <trkpt lat="47.660202" lon="9.914096"></trkpt>
      <trkpt lat="47.659724" lon="9.917937"></trkpt>
      <trkpt lat="47.659912" lon="9.924561"></trkpt>
      <trkpt lat="47.659804" lon="9.925594"></trkpt>
      <trkpt lat="47.659193" lon="9.92821"></trkpt>
      <trkpt lat="47.659039" lon="9.929418"></trkpt>
      <trkpt lat="47.659425" lon="9.933534"></trkpt>
      <trkpt lat="47.659126" lon="9.93596"></trkpt>
      <trkpt lat="47.659151" lon="9.936609"></trkpt>
      <trkpt lat="47.659313" lon="9.937265"></trkpt>
      <trkpt lat="47.659692" lon="9.938043"></trkpt>
      <trkpt lat="47.66102" lon="9.940084"></trkpt>
      <trkpt lat="47.66125" lon="9.941066"></trkpt>
      <trkpt lat="47.661405" lon="9.941036"></trkpt>
      <trkpt lat="47.661679" lon="9.940513"></trkpt>
      <trkpt lat="47.662079" lon="9.940509"></trkpt>
      <trkpt lat="47.663991" lon="9.941395"></trkpt>
      <trkpt lat="47.664603" lon="9.94208"></trkpt>
      <trkpt lat="47.664959" lon="9.943242"></trkpt>
      <trkpt lat="47.664775" lon="9.945545"></trkpt>
      <trkpt lat="47.664907" lon="9.946549"></trkpt>
      <trkpt lat="47.665293" lon="9.947407"></trkpt>
      <trkpt lat="47.666896" lon="9.949625"></trkpt>
      <trkpt lat="47.667598" lon="9.950246"></trkpt>
      <trkpt lat="47.668089" lon="9.950499"></trkpt>
      <trkpt lat="47.670419" lon="9.95093"></trkpt>
      <trkpt lat="47.671316" lon="9.951316"></trkpt>
      <trkpt lat="47.67232" lon="9.952154"></trkpt>
      <trkpt lat="47.67326" lon="9.953553"></trkpt>
      <trkpt lat="47.673913" lon="9.95529"></trkpt>
      <trkpt lat="47.674378" lon="9.957099"></trkpt>
      <trkpt lat="47.675414" lon="9.964293"></trkpt>
      <trkpt lat="47.678054" lon="9.973396"></trkpt>
      <trkpt lat="47.6783" lon="9.975212"></trkpt>
      <trkpt lat="47.67841" lon="9.979049"></trkpt>
      <trkpt lat="47.678641" lon="9.980353"></trkpt>
      <trkpt lat="47.678337" lon="9.982383"></trkpt>
      <trkpt lat="47.678526" lon="9.984504"></trkpt>
      <trkpt lat="47.678484" lon="9.986301"></trkpt>
      <trkpt lat="47.679395" lon="9.990085"></trkpt>
      <trkpt lat="47.679773" lon="9.994617"></trkpt>
      <trkpt lat="47.680014" lon="9.995733"></trkpt>
      <trkpt lat="47.680462" lon="9.996812"></trkpt>
      <trkpt lat="47.681523" lon="9.998606"></trkpt>
      <trkpt lat="47.682823" lon="10.000163"></trkpt>
      <trkpt lat="47.683245" lon="10.001038"></trkpt>
      <trkpt lat="47.683553" lon="10.002069"></trkpt>
      <trkpt lat="47.683729" lon="10.003797"></trkpt>
      <trkpt lat="47.683634" lon="10.007848"></trkpt>
      <trkpt lat="47.683887" lon="10.009287"></trkpt>
      <trkpt lat="47.684476" lon="10.011335"></trkpt>
      <trkpt lat="47.684801" lon="10.013175"></trkpt>
      <trkpt lat="47.685023" lon="10.01531"></trkpt>
      <trkpt lat="47.685452" lon="10.017895"></trkpt>
      <trkpt lat="47.685583" lon="10.021638"></trkpt>
      <trkpt lat="47.685467" lon="10.023758"></trkpt>
      <trkpt lat="47.685307" lon="10.024775"></trkpt>
      <trkpt lat="47.684872" lon="10.02646"></trkpt>
      <trkpt lat="47.684454" lon="10.027567"></trkpt>
      <trkpt lat="47.683726" lon="10.028973"></trkpt>
      <trkpt lat="47.683017" lon="10.029966"></trkpt>
      <trkpt lat="47.68221" lon="10.030904"></trkpt>
      <trkpt lat="47.680336" lon="10.032523"></trkpt>
      <trkpt lat="47.679676" lon="10.033376"></trkpt>
      <trkpt lat="47.679298" lon="10.034213"></trkpt>
      <trkpt lat="47.679026" lon="10.035194"></trkpt>
      <trkpt lat="47.678925" lon="10.037029"></trkpt>
      <trkpt lat="47.679224" lon="10.038555"></trkpt>
      <trkpt lat="47.679824" lon="10.039809"></trkpt>
      <trkpt lat="47.680557" lon="10.040597"></trkpt>
      <trkpt lat="47.682086" lon="10.041655"></trkpt>
      <trkpt lat="47.682868" lon="10.042737"></trkpt>
      <trkpt lat="47.683281" lon="10.043733"></trkpt>
      <trkpt lat="47.684406" lon="10.04754"></trkpt>
      <trkpt lat="47.686083" lon="10.050872"></trkpt>
      <trkpt lat="47.686768" lon="10.052765"></trkpt>
      <trkpt lat="47.687211" lon="10.055445"></trkpt>
      <trkpt lat="47.68725" lon="10.059123"></trkpt>
      <trkpt lat="47.687654" lon="10.062405"></trkpt>
      <trkpt lat="47.687513" lon="10.065853"></trkpt>
      <trkpt lat="47.687811" lon="10.068815"></trkpt>
      <trkpt lat="47.6877" lon="10.071835"></trkpt>
      <trkpt lat="47.687008" lon="10.075926"></trkpt>
      <trkpt lat="47.686385" lon="10.077343"></trkpt>
      <trkpt lat="47.685856" lon="10.077937"></trkpt>
      <trkpt lat="47.68538" lon="10.078248"></trkpt>
      <trkpt lat="47.685" lon="10.078415"></trkpt>
      <trkpt lat="47.683173" lon="10.07868"></trkpt>
      <trkpt lat="47.682631" lon="10.078901"></trkpt>
      <trkpt lat="47.682215" lon="10.079236"></trkpt>
      <trkpt lat="47.681535" lon="10.080316"></trkpt>
      <trkpt lat="47.679949" lon="10.085111"></trkpt>
      <trkpt lat="47.679574" lon="10.085764"></trkpt>
      <trkpt lat="47.676567" lon="10.08961"></trkpt>
      <trkpt lat="47.675968" lon="10.090149"></trkpt>
      <trkpt lat="47.674771" lon="10.090677"></trkpt>
      <trkpt lat="47.674402" lon="10.090952"></trkpt>
      <trkpt lat="47.671678" lon="10.094299"></trkpt>
      <trkpt lat="47.670927" lon="10.094908"></trkpt>
      <trkpt lat="47.67008" lon="10.095314"></trkpt>
      <trkpt lat="47.669259" lon="10.095437"></trkpt>
      <trkpt lat="47.668655" lon="10.095397"></trkpt>
      <trkpt lat="47.666815" lon="10.09483"></trkpt>
      <trkpt lat="47.663818" lon="10.095067"></trkpt>
      <trkpt lat="47.662792" lon="10.094854"></trkpt>
      <trkpt lat="47.662023" lon="10.094204"></trkpt>
      <trkpt lat="47.659401" lon="10.09068"></trkpt>
      <trkpt lat="47.658736" lon="10.090202"></trkpt>
      <trkpt lat="47.656009" lon="10.089033"></trkpt>
      <trkpt lat="47.655271" lon="10.088607"></trkpt>
      <trkpt lat="47.654755" lon="10.088081"></trkpt>
      <trkpt lat="47.653046" lon="10.085565"></trkpt>
      <trkpt lat="47.652658" lon="10.085178"></trkpt>
      <trkpt lat="47.652095" lon="10.084871"></trkpt>
      <trkpt lat="47.649178" lon="10.084958"></trkpt>
      <trkpt lat="47.648613" lon="10.085226"></trkpt>
      <trkpt lat="47.647739" lon="10.086066"></trkpt>
      <trkpt lat="47.647327" lon="10.086285"></trkpt>
      <trkpt lat="47.646868" lon="10.086361"></trkpt>
      <trkpt lat="47.645617" lon="10.086264"></trkpt>
      <trkpt lat="47.644824" lon="10.08651"></trkpt>
      <trkpt lat="47.644224" lon="10.086981"></trkpt>
      <trkpt lat="47.643636" lon="10.087832"></trkpt>
      <trkpt lat="47.642398" lon="10.090981"></trkpt>
      <trkpt lat="47.642064" lon="10.092316"></trkpt>
      <trkpt lat="47.641834" lon="10.096468"></trkpt>
      <trkpt lat="47.641864" lon="10.102818"></trkpt>
      <trkpt lat="47.642154" lon="10.106665"></trkpt>
      <trkpt lat="47.64282" lon="10.110732"></trkpt>
      <trkpt lat="47.645023" lon="10.119363"></trkpt>
      <trkpt lat="47.6459" lon="10.123316"></trkpt>
      <trkpt lat="47.647916" lon="10.134757"></trkpt>
      <trkpt lat="47.649542" lon="10.1429"></trkpt>
      <trkpt lat="47.651317" lon="10.150518"></trkpt>
      <trkpt lat="47.653111" lon="10.157288"></trkpt>
      <trkpt lat="47.65702" lon="10.1709"></trkpt>
      <trkpt lat="47.657849" lon="10.17331"></trkpt>
      <trkpt lat="47.658762" lon="10.175363"></trkpt>
      <trkpt lat="47.659917" lon="10.177433"></trkpt>
      <trkpt lat="47.663359" lon="10.182121"></trkpt>
      <trkpt lat="47.66446" lon="10.183925"></trkpt>
      <trkpt lat="47.6652" lon="10.185477"></trkpt>
      <trkpt lat="47.666008" lon="10.187679"></trkpt>
      <trkpt lat="47.66678" lon="10.191043"></trkpt>
      <trkpt lat="47.667075" lon="10.193355"></trkpt>
      <trkpt lat="47.667147" lon="10.19583"></trkpt>
      <trkpt lat="47.666484" lon="10.204769"></trkpt>
      <trkpt lat="47.66646" lon="10.206933"></trkpt>
      <trkpt lat="47.66664" lon="10.210053"></trkpt>
      <trkpt lat="47.667312" lon="10.214348"></trkpt>
      <trkpt lat="47.669151" lon="10.221758"></trkpt>
      <trkpt lat="47.669762" lon="10.224779"></trkpt>
      <trkpt lat="47.670442" lon="10.22958"></trkpt>
      <trkpt lat="47.670765" lon="10.234513"></trkpt>
      <trkpt lat="47.6707" lon="10.237359"></trkpt>
      <trkpt lat="47.670383" lon="10.240506"></trkpt>
      <trkpt lat="47.668766" lon="10.248576"></trkpt>
      <trkpt lat="47.668398" lon="10.250936"></trkpt>
      <trkpt lat="47.668097" lon="10.253925"></trkpt>
      <trkpt lat="47.66806" lon="10.25866"></trkpt>
      <trkpt lat="47.6684" lon="10.262938"></trkpt>
      <trkpt lat="47.668777" lon="10.265341"></trkpt>
      <trkpt lat="47.669366" lon="10.268045"></trkpt>
      <trkpt lat="47.670663" lon="10.272043"></trkpt>
      <trkpt lat="47.672131" lon="10.275185"></trkpt>
      <trkpt lat="47.675768" lon="10.280997"></trkpt>
      <trkpt lat="47.677443" lon="10.28415"></trkpt>
      <trkpt lat="47.678886" lon="10.287948"></trkpt>
      <trkpt lat="47.679786" lon="10.2915"></trkpt>
      <trkpt lat="47.680218" lon="10.294174"></trkpt>
      <trkpt lat="47.680497" lon="10.297891"></trkpt>
      <trkpt lat="47.680534" lon="10.309333"></trkpt>
      <trkpt lat="47.680822" lon="10.313254"></trkpt>
      <trkpt lat="47.683175" lon="10.329147"></trkpt>
      <trkpt lat="47.685813" lon="10.343738"></trkpt>
      <trkpt lat="47.686331" lon="10.347116"></trkpt>
      <trkpt lat="47.687049" lon="10.353727"></trkpt>
      <trkpt lat="47.687286" lon="10.357514"></trkpt>
      <trkpt lat="47.687376" lon="10.361421"></trkpt>
      <trkpt lat="47.687231" lon="10.363971"></trkpt>
      <trkpt lat="47.687003" lon="10.365011"></trkpt>
      <trkpt lat="47.68518" lon="10.368261"></trkpt>
      <trkpt lat="47.684609" lon="10.368947"></trkpt>
      <trkpt lat="47.6832" lon="10.36987"></trkpt>
      <trkpt lat="47.679609" lon="10.372842"></trkpt>
      <trkpt lat="47.677785" lon="10.374763"></trkpt>
      <trkpt lat="47.676957" lon="10.375917"></trkpt>
      <trkpt lat="47.676048" lon="10.377561"></trkpt>
      <trkpt lat="47.675415" lon="10.37914"></trkpt>
      <trkpt lat="47.674986" lon="10.380603"></trkpt>
      <trkpt lat="47.674491" lon="10.383742"></trkpt>
      <trkpt lat="47.674458" lon="10.385882"></trkpt>
      <trkpt lat="47.674556" lon="10.387311"></trkpt>
      <trkpt lat="47.674935" lon="10.389554"></trkpt>
      <trkpt lat="47.6764" lon="10.394782"></trkpt>
      <trkpt lat="47.676715" lon="10.396991"></trkpt>
      <trkpt lat="47.676773" lon="10.398887"></trkpt>
      <trkpt lat="47.676604" lon="10.40159"></trkpt>
      <trkpt lat="47.676356" lon="10.403008"></trkpt>
      <trkpt lat="47.675681" lon="10.405424"></trkpt>
      <trkpt lat="47.675033" lon="10.40706"></trkpt>
      <trkpt lat="47.674043" lon="10.408837"></trkpt>
      <trkpt lat="47.672657" lon="10.410596"></trkpt>
      <trkpt lat="47.671463" lon="10.411676"></trkpt>
      <trkpt lat="47.665814" lon="10.41552"></trkpt>
      <trkpt lat="47.663887" lon="10.417275"></trkpt>
      <trkpt lat="47.662722" lon="10.418531"></trkpt>
      <trkpt lat="47.661408" lon="10.420192"></trkpt>
      <trkpt lat="47.659101" lon="10.423822"></trkpt>
      <trkpt lat="47.657572" lon="10.426998"></trkpt>
      <trkpt lat="47.656283" lon="10.430443"></trkpt>
      <trkpt lat="47.655239" lon="10.434251"></trkpt>
      <trkpt lat="47.654482" lon="10.438552"></trkpt>
      <trkpt lat="47.65413" lon="10.442494"></trkpt>
      <trkpt lat="47.654022" lon="10.446918"></trkpt>
      <trkpt lat="47.654088" lon="10.457442"></trkpt>
      <trkpt lat="47.65392" lon="10.460895"></trkpt>
      <trkpt lat="47.6533" lon="10.466222"></trkpt>
      <trkpt lat="47.652537" lon="10.470328"></trkpt>
      <trkpt lat="47.651561" lon="10.474113"></trkpt>
      <trkpt lat="47.650141" lon="10.478429"></trkpt>
      <trkpt lat="47.642668" lon="10.49776"></trkpt>
      <trkpt lat="47.641459" lon="10.50231"></trkpt>
      <trkpt lat="47.640718" lon="10.506833"></trkpt>
      <trkpt lat="47.640413" lon="10.510958"></trkpt>
      <trkpt lat="47.640422" lon="10.514828"></trkpt>
      <trkpt lat="47.641603" lon="10.539913"></trkpt>
      <trkpt lat="47.641502" lon="10.544573"></trkpt>
      <trkpt lat="47.64121" lon="10.547716"></trkpt>
      <trkpt lat="47.640864" lon="10.550076"></trkpt>
      <trkpt lat="47.640296" lon="10.552718"></trkpt>
      <trkpt lat="47.639191" lon="10.55683"></trkpt>
      <trkpt lat="47.637317" lon="10.561741"></trkpt>
      <trkpt lat="47.635536" lon="10.565226"></trkpt>
      <trkpt lat="47.632335" lon="10.570164"></trkpt>
      <trkpt lat="47.631009" lon="10.572438"></trkpt>
      <trkpt lat="47.630326" lon="10.573907"></trkpt>
      <trkpt lat="47.629519" lon="10.576175"></trkpt>
      <trkpt lat="47.628636" lon="10.580359"></trkpt>
      <trkpt lat="47.628374" lon="10.583099"></trkpt>
      <trkpt lat="47.628398" lon="10.586294"></trkpt>
      <trkpt lat="47.629465" lon="10.594859"></trkpt>
      <trkpt lat="47.629616" lon="10.598982"></trkpt>
      <trkpt lat="47.629376" lon="10.602188"></trkpt>
      <trkpt lat="47.629016" lon="10.604265"></trkpt>
      <trkpt lat="47.626557" lon="10.613076"></trkpt>
      <trkpt lat="47.626089" lon="10.615401"></trkpt>
      <trkpt lat="47.625823" lon="10.618442"></trkpt>
      <trkpt lat="47.625816" lon="10.621267"></trkpt>
      <trkpt lat="47.626367" lon="10.6278"></trkpt>
      <trkpt lat="47.626422" lon="10.629517"></trkpt>
      <trkpt lat="47.626066" lon="10.638545"></trkpt>
      <trkpt lat="47.626291" lon="10.64165"></trkpt>
      <trkpt lat="47.626865" lon="10.645058"></trkpt>
      <trkpt lat="47.627104" lon="10.647556"></trkpt>
      <trkpt lat="47.627084" lon="10.649328"></trkpt>
      <trkpt lat="47.626922" lon="10.650919"></trkpt>
      <trkpt lat="47.626531" lon="10.652945"></trkpt>
      <trkpt lat="47.626172" lon="10.654127"></trkpt>
      <trkpt lat="47.625079" lon="10.656623"></trkpt>
      <trkpt lat="47.623927" lon="10.658338"></trkpt>
      <trkpt lat="47.623428" lon="10.658908"></trkpt>
      <trkpt lat="47.622344" lon="10.659907"></trkpt>
      <trkpt lat="47.621197" lon="10.660654"></trkpt>
      <trkpt lat="47.619783" lon="10.661218"></trkpt>
      <trkpt lat="47.618608" lon="10.661417"></trkpt>
      <trkpt lat="47.616998" lon="10.661327"></trkpt>
      <trkpt lat="47.616118" lon="10.661088"></trkpt>
      <trkpt lat="47.614956" lon="10.660569"></trkpt>
      <trkpt lat="47.61344" lon="10.65945"></trkpt>
      <trkpt lat="47.611299" lon="10.657488"></trkpt>
      <trkpt lat="47.610179" lon="10.65667"></trkpt>
      <trkpt lat="47.608387" lon="10.655802"></trkpt>
      <trkpt lat="47.606687" lon="10.65543"></trkpt>
      <trkpt lat="47.605402" lon="10.655406"></trkpt>
      <trkpt lat="47.604585" lon="10.655512"></trkpt>
      <trkpt lat="47.600544" lon="10.656536"></trkpt>
      <trkpt lat="47.598974" lon="10.656642"></trkpt>
      <trkpt lat="47.595157" lon="10.656075"></trkpt>
      <trkpt lat="47.593631" lon="10.656157"></trkpt>
      <trkpt lat="47.592356" lon="10.656408"></trkpt>
      <trkpt lat="47.59041" lon="10.657189"></trkpt>
      <trkpt lat="47.586832" lon="10.659612"></trkpt>
      <trkpt lat="47.584306" lon="10.661026"></trkpt>
      <trkpt lat="47.582293" lon="10.661755"></trkpt>
      <trkpt lat="47.580268" lon="10.662119"></trkpt>
      <trkpt lat="47.57777" lon="10.66211"></trkpt>
      <trkpt lat="47.576888" lon="10.661625"></trkpt>
      <trkpt lat="47.57611" lon="10.660576"></trkpt>
      <trkpt lat="47.575562" lon="10.660125"></trkpt>
      <trkpt lat="47.574497" lon="10.659663"></trkpt>
      <trkpt lat="47.57364" lon="10.65949"></trkpt>
      <trkpt lat="47.574025" lon="10.662851"></trkpt>
      <trkpt lat="47.573933" lon="10.663443"></trkpt>
      <trkpt lat="47.57078" lon="10.665198"></trkpt>
      <trkpt lat="47.569751" lon="10.6661"></trkpt>
      <trkpt lat="47.56922" lon="10.667634"></trkpt>
      <trkpt lat="47.569037" lon="10.668584"></trkpt>
      <trkpt lat="47.568806" lon="10.672202"></trkpt>
      <trkpt lat="47.568303" lon="10.676041"></trkpt>
      <trkpt lat="47.568165" lon="10.682965"></trkpt>
      <trkpt lat="47.568321" lon="10.688501"></trkpt>
      <trkpt lat="47.56779" lon="10.695019"></trkpt>
      <trkpt lat="47.567836" lon="10.695168"></trkpt>
      <trkpt lat="47.568117" lon="10.695164"></trkpt>
      <trkpt lat="47.568329" lon="10.695322"></trkpt>
      <trkpt lat="47.569151" lon="10.697368"></trkpt>
      <trkpt lat="47.569043" lon="10.698378"></trkpt>
      <trkpt lat="47.569601" lon="10.699368"></trkpt>
      <trkpt lat="47.569705" lon="10.699885"></trkpt>
      <trkpt lat="47.569396" lon="10.701316"></trkpt>
      <trkpt lat="47.569046" lon="10.70194"></trkpt>
      <trkpt lat="47.568055" lon="10.70541"></trkpt>
      <trkpt lat="47.565468" lon="10.71152"></trkpt>
      <trkpt lat="47.565122" lon="10.712902"></trkpt>
      <trkpt lat="47.565105" lon="10.71442"></trkpt>
      <trkpt lat="47.565359" lon="10.715702"></trkpt>
      <trkpt lat="47.56608" lon="10.723314"></trkpt>
      <trkpt lat="47.566032" lon="10.723847"></trkpt>
      <trkpt lat="47.565468" lon="10.725804"></trkpt>
      <trkpt lat="47.565122" lon="10.72641"></trkpt>
      <trkpt lat="47.564162" lon="10.727399"></trkpt>
      <trkpt lat="47.56306" lon="10.727707"></trkpt>
      <trkpt lat="47.562183" lon="10.728554"></trkpt>
      <trkpt lat="47.560058" lon="10.731756"></trkpt>
      <trkpt lat="47.558921" lon="10.732926"></trkpt>
      <trkpt lat="47.558436" lon="10.734391"></trkpt>
      <trkpt lat="47.557537" lon="10.735302"></trkpt>
      <trkpt lat="47.556969" lon="10.73619"></trkpt>
      <trkpt lat="47.556789" lon="10.73672"></trkpt>
      <trkpt lat="47.55699" lon="10.73834"></trkpt>
      <trkpt lat="47.556909" lon="10.73936"></trkpt>
      <trkpt lat="47.556596" lon="10.740582"></trkpt>
      <trkpt lat="47.556395" lon="10.740822"></trkpt>
      <trkpt lat="47.555994" lon="10.740598"></trkpt>
      <trkpt lat="47.555026" lon="10.739322"></trkpt>
      <trkpt lat="47.5548" lon="10.738549"></trkpt>
      <trkpt lat="47.554582" lon="10.738784"></trkpt>
      <trkpt lat="47.554652" lon="10.740091"></trkpt>
      <trkpt lat="47.554574" lon="10.740326"></trkpt>
      <trkpt lat="47.554404" lon="10.74024"></trkpt>
      <trkpt lat="47.553874" lon="10.739124"></trkpt>
      <trkpt lat="47.553572" lon="10.741287"></trkpt>
      <trkpt lat="47.553944" lon="10.742713"></trkpt>
      <trkpt lat="47.554836" lon="10.743691"></trkpt>
      <trkpt lat="47.555416" lon="10.745395"></trkpt>
      <trkpt lat="47.555809" lon="10.745603"></trkpt>
      <trkpt lat="47.556214" lon="10.746044"></trkpt>
      <trkpt lat="47.556485" lon="10.746723"></trkpt>
      <trkpt lat="47.557665" lon="10.747586"></trkpt>
      <trkpt lat="47.557872" lon="10.748585"></trkpt>
      <trkpt lat="47.558051" lon="10.748825"></trkpt>
      <trkpt lat="47.558209" lon="10.748892"></trkpt>
      <trkpt lat="47.558489" lon="10.748695"></trkpt>
      <trkpt lat="47.558632" lon="10.748842"></trkpt>
      <trkpt lat="47.558756" lon="10.749477"></trkpt>
      <trkpt lat="47.558557" lon="10.750121"></trkpt>
      <trkpt lat="47.558257" lon="10.750127"></trkpt>
      <trkpt lat="47.55798" lon="10.749671"></trkpt>
      <trkpt lat="47.557886" lon="10.749768"></trkpt>
      <trkpt lat="47.557851" lon="10.75044"></trkpt>
      <trkpt lat="47.557759" lon="10.750441"></trkpt>
      <trkpt lat="47.557695" lon="10.750182"></trkpt>
  </trkseg></trk>
</gpx>
