<?xml version="1.0" encoding="UTF-8"?>
<gpx version="1.1" creator="yatutbuv" xmlns="http://www.topografix.com/GPX/1/1">
  <trk><name>GraphHopper Track</name><trkseg>
      <trkpt lat="41.781399" lon="3.027495"></trkpt>
      <trkpt lat="41.781927" lon="3.026158"></trkpt>
      <trkpt lat="41.782924" lon="3.027004"></trkpt>
      <trkpt lat="41.790273" lon="3.022196"></trkpt>
      <trkpt lat="41.790597" lon="3.022071"></trkpt>
      <trkpt lat="41.791644" lon="3.0213"></trkpt>
      <trkpt lat="41.793335" lon="3.020501"></trkpt>
      <trkpt lat="41.793594" lon="3.020523"></trkpt>
      <trkpt lat="41.793771" lon="3.020311"></trkpt>
      <trkpt lat="41.795161" lon="3.019697"></trkpt>
      <trkpt lat="41.795498" lon="3.019743"></trkpt>
      <trkpt lat="41.795683" lon="3.019468"></trkpt>
      <trkpt lat="41.79635" lon="3.019155"></trkpt>
      <trkpt lat="41.797397" lon="3.018409"></trkpt>
      <trkpt lat="41.798237" lon="3.017623"></trkpt>
      <trkpt lat="41.798929" lon="3.016727"></trkpt>
      <trkpt lat="41.800479" lon="3.014093"></trkpt>
      <trkpt lat="41.801189" lon="3.013116"></trkpt>
      <trkpt lat="41.802255" lon="3.012228"></trkpt>
      <trkpt lat="41.803054" lon="3.01174"></trkpt>
      <trkpt lat="41.804061" lon="3.010761"></trkpt>
      <trkpt lat="41.808069" lon="3.004344"></trkpt>
      <trkpt lat="41.80866" lon="3.004461"></trkpt>
      <trkpt lat="41.808954" lon="3.004148"></trkpt>
      <trkpt lat="41.809157" lon="3.003243"></trkpt>
      <trkpt lat="41.80889" lon="3.002446"></trkpt>
      <trkpt lat="41.808759" lon="2.999192"></trkpt>
      <trkpt lat="41.808951" lon="2.997958"></trkpt>
      <trkpt lat="41.809327" lon="2.996768"></trkpt>
      <trkpt lat="41.810074" lon="2.995311"></trkpt>
      <trkpt lat="41.812852" lon="2.99108"></trkpt>
      <trkpt lat="41.814291" lon="2.988669"></trkpt>
      <trkpt lat="41.817481" lon="2.981938"></trkpt>
      <trkpt lat="41.818195" lon="2.98082"></trkpt>
      <trkpt lat="41.819421" lon="2.979333"></trkpt>
      <trkpt lat="41.823008" lon="2.976175"></trkpt>
      <trkpt lat="41.824272" lon="2.974881"></trkpt>
      <trkpt lat="41.826522" lon="2.97171"></trkpt>
      <trkpt lat="41.826961" lon="2.970658"></trkpt>
      <trkpt lat="41.82719" lon="2.969643"></trkpt>
      <trkpt lat="41.827711" lon="2.963934"></trkpt>
      <trkpt lat="41.826967" lon="2.950196"></trkpt>
      <trkpt lat="41.827196" lon="2.946481"></trkpt>
      <trkpt lat="41.827778" lon="2.943118"></trkpt>
      <trkpt lat="41.828773" lon="2.939361"></trkpt>
      <trkpt lat="41.829211" lon="2.938329"></trkpt>
      <trkpt lat="41.830734" lon="2.936577"></trkpt>
      <trkpt lat="41.830978" lon="2.935952"></trkpt>
      <trkpt lat="41.83111" lon="2.935062"></trkpt>
      <trkpt lat="41.830906" lon="2.933699"></trkpt>
      <trkpt lat="41.829606" lon="2.930609"></trkpt>
      <trkpt lat="41.828199" lon="2.926495"></trkpt>
      <trkpt lat="41.828174" lon="2.925415"></trkpt>
      <trkpt lat="41.82864" lon="2.923044"></trkpt>
      <trkpt lat="41.828616" lon="2.922107"></trkpt>
      <trkpt lat="41.828413" lon="2.921183"></trkpt>
      <trkpt lat="41.827839" lon="2.92008"></trkpt>
      <trkpt lat="41.826095" lon="2.918451"></trkpt>
      <trkpt lat="41.825293" lon="2.917162"></trkpt>
      <trkpt lat="41.821965" lon="2.908867"></trkpt>
      <trkpt lat="41.821645" lon="2.907846"></trkpt>
      <trkpt lat="41.821065" lon="2.904862"></trkpt>
      <trkpt lat="41.820662" lon="2.903832"></trkpt>
      <trkpt lat="41.819428" lon="2.902073"></trkpt>
      <trkpt lat="41.818302" lon="2.901034"></trkpt>
      <trkpt lat="41.817087" lon="2.900287"></trkpt>
      <trkpt lat="41.814074" lon="2.898828"></trkpt>
      <trkpt lat="41.813152" lon="2.898124"></trkpt>
      <trkpt lat="41.811617" lon="2.896339"></trkpt>
      <trkpt lat="41.810766" lon="2.894681"></trkpt>
      <trkpt lat="41.810332" lon="2.893435"></trkpt>
      <trkpt lat="41.809609" lon="2.890173"></trkpt>
      <trkpt lat="41.809116" lon="2.884838"></trkpt>
      <trkpt lat="41.808514" lon="2.880752"></trkpt>
      <trkpt lat="41.808304" lon="2.878594"></trkpt>
      <trkpt lat="41.80845" lon="2.875886"></trkpt>
      <trkpt lat="41.809097" lon="2.872813"></trkpt>
      <trkpt lat="41.809314" lon="2.870564"></trkpt>
      <trkpt lat="41.808938" lon="2.866323"></trkpt>
      <trkpt lat="41.808821" lon="2.861208"></trkpt>
      <trkpt lat="41.808716" lon="2.860427"></trkpt>
      <trkpt lat="41.808434" lon="2.85954"></trkpt>
      <trkpt lat="41.807991" lon="2.858763"></trkpt>
      <trkpt lat="41.806405" lon="2.857246"></trkpt>
      <trkpt lat="41.805923" lon="2.856547"></trkpt>
      <trkpt lat="41.804518" lon="2.852413"></trkpt>
      <trkpt lat="41.804318" lon="2.85148"></trkpt>
      <trkpt lat="41.80427" lon="2.84924"></trkpt>
      <trkpt lat="41.804091" lon="2.848275"></trkpt>
      <trkpt lat="41.803782" lon="2.847486"></trkpt>
      <trkpt lat="41.802551" lon="2.845269"></trkpt>
      <trkpt lat="41.802211" lon="2.844039"></trkpt>
      <trkpt lat="41.802165" lon="2.843101"></trkpt>
      <trkpt lat="41.802389" lon="2.84081"></trkpt>
      <trkpt lat="41.802376" lon="2.839624"></trkpt>
      <trkpt lat="41.801211" lon="2.835217"></trkpt>
      <trkpt lat="41.799393" lon="2.826609"></trkpt>
      <trkpt lat="41.799288" lon="2.825426"></trkpt>
      <trkpt lat="41.799312" lon="2.82333"></trkpt>
      <trkpt lat="41.799084" lon="2.821752"></trkpt>
      <trkpt lat="41.794092" lon="2.809719"></trkpt>
      <trkpt lat="41.785824" lon="2.785237"></trkpt>
      <trkpt lat="41.785077" lon="2.782382"></trkpt>
      <trkpt lat="41.784218" lon="2.7769"></trkpt>
      <trkpt lat="41.784104" lon="2.775814"></trkpt>
      <trkpt lat="41.784171" lon="2.775582"></trkpt>
      <trkpt lat="41.784334" lon="2.775418"></trkpt>
      <trkpt lat="41.784638" lon="2.775494"></trkpt>
      <trkpt lat="41.784745" lon="2.775975"></trkpt>
      <trkpt lat="41.784539" lon="2.776269"></trkpt>
      <trkpt lat="41.773915" lon="2.778304"></trkpt>
      <trkpt lat="41.773287" lon="2.778573"></trkpt>
      <trkpt lat="41.772289" lon="2.779769"></trkpt>
      <trkpt lat="41.771804" lon="2.7801"></trkpt>
      <trkpt lat="41.765015" lon="2.781175"></trkpt>
      <trkpt lat="41.763117" lon="2.782338"></trkpt>
      <trkpt lat="41.762348" lon="2.78231"></trkpt>
      <trkpt lat="41.761348" lon="2.781598"></trkpt>
      <trkpt lat="41.761063" lon="2.781526"></trkpt>
      <trkpt lat="41.760494" lon="2.781636"></trkpt>
      <trkpt lat="41.760215" lon="2.781883"></trkpt>
      <trkpt lat="41.760014" lon="2.781825"></trkpt>
      <trkpt lat="41.759922" lon="2.782027"></trkpt>
      <trkpt lat="41.760043" lon="2.782237"></trkpt>
      <trkpt lat="41.759618" lon="2.784024"></trkpt>
      <trkpt lat="41.759441" lon="2.784401"></trkpt>
      <trkpt lat="41.758835" lon="2.785143"></trkpt>
      <trkpt lat="41.758503" lon="2.785383"></trkpt>
      <trkpt lat="41.758089" lon="2.785494"></trkpt>
      <trkpt lat="41.757099" lon="2.784968"></trkpt>
      <trkpt lat="41.756539" lon="2.784872"></trkpt>
      <trkpt lat="41.755995" lon="2.785147"></trkpt>
      <trkpt lat="41.755579" lon="2.785897"></trkpt>
      <trkpt lat="41.754993" lon="2.789491"></trkpt>
      <trkpt lat="41.754707" lon="2.790205"></trkpt>
      <trkpt lat="41.754761" lon="2.790702"></trkpt>
      <trkpt lat="41.754582" lon="2.792328"></trkpt>
      <trkpt lat="41.754726" lon="2.794769"></trkpt>
      <trkpt lat="41.755334" lon="2.796913"></trkpt>
      <trkpt lat="41.755269" lon="2.798171"></trkpt>
      <trkpt lat="41.753909" lon="2.802063"></trkpt>
      <trkpt lat="41.753668" lon="2.803675"></trkpt>
      <trkpt lat="41.752668" lon="2.807482"></trkpt>
      <trkpt lat="41.751414" lon="2.810171"></trkpt>
      <trkpt lat="41.751273" lon="2.810148"></trkpt>
      <trkpt lat="41.751171" lon="2.81028"></trkpt>
      <trkpt lat="41.751252" lon="2.810558"></trkpt>
      <trkpt lat="41.750005" lon="2.814064"></trkpt>
      <trkpt lat="41.749654" lon="2.814907"></trkpt>
      <trkpt lat="41.74935" lon="2.815333"></trkpt>
      <trkpt lat="41.748884" lon="2.815625"></trkpt>
      <trkpt lat="41.746895" lon="2.816229"></trkpt>
      <trkpt lat="41.74624" lon="2.816199"></trkpt>
      <trkpt lat="41.744575" lon="2.815693"></trkpt>
      <trkpt lat="41.742217" lon="2.81588"></trkpt>
      <trkpt lat="41.740796" lon="2.815664"></trkpt>
      <trkpt lat="41.739773" lon="2.81572"></trkpt>
      <trkpt lat="41.738976" lon="2.815986"></trkpt>
      <trkpt lat="41.737945" lon="2.816563"></trkpt>
      <trkpt lat="41.737389" lon="2.816695"></trkpt>
      <trkpt lat="41.737045" lon="2.81667"></trkpt>
      <trkpt lat="41.734933" lon="2.815993"></trkpt>
      <trkpt lat="41.733366" lon="2.816063"></trkpt>
      <trkpt lat="41.732434" lon="2.815518"></trkpt>
      <trkpt lat="41.732011" lon="2.815485"></trkpt>
      <trkpt lat="41.729463" lon="2.816311"></trkpt>
      <trkpt lat="41.72746" lon="2.816528"></trkpt>
      <trkpt lat="41.727059" lon="2.816679"></trkpt>
      <trkpt lat="41.726441" lon="2.817229"></trkpt>
      <trkpt lat="41.725674" lon="2.81848"></trkpt>
      <trkpt lat="41.723876" lon="2.823399"></trkpt>
      <trkpt lat="41.723384" lon="2.824284"></trkpt>
      <trkpt lat="41.722779" lon="2.825029"></trkpt>
      <trkpt lat="41.722241" lon="2.825199"></trkpt>
      <trkpt lat="41.721116" lon="2.825074"></trkpt>
      <trkpt lat="41.720064" lon="2.825498"></trkpt>
      <trkpt lat="41.719218" lon="2.825558"></trkpt>
      <trkpt lat="41.718797" lon="2.82575"></trkpt>
      <trkpt lat="41.718252" lon="2.826471"></trkpt>
      <trkpt lat="41.717921" lon="2.828095"></trkpt>
      <trkpt lat="41.717575" lon="2.828796"></trkpt>
      <trkpt lat="41.717297" lon="2.82906"></trkpt>
      <trkpt lat="41.714321" lon="2.83086"></trkpt>
      <trkpt lat="41.713931" lon="2.830879"></trkpt>
      <trkpt lat="41.713651" lon="2.831255"></trkpt>
      <trkpt lat="41.712834" lon="2.83159"></trkpt>
      <trkpt lat="41.709306" lon="2.832272"></trkpt>
      <trkpt lat="41.70895" lon="2.832233"></trkpt>
      <trkpt lat="41.706832" lon="2.834656"></trkpt>
      <trkpt lat="41.70451" lon="2.835728"></trkpt>
      <trkpt lat="41.704261" lon="2.835576"></trkpt>
      <trkpt lat="41.704148" lon="2.835898"></trkpt>
      <trkpt lat="41.701975" lon="2.837212"></trkpt>
      <trkpt lat="41.701546" lon="2.837228"></trkpt>
      <trkpt lat="41.700889" lon="2.836674"></trkpt>
      <trkpt lat="41.700409" lon="2.836778"></trkpt>
      <trkpt lat="41.700185" lon="2.837302"></trkpt>
      <trkpt lat="41.70068" lon="2.83804"></trkpt>
      <trkpt lat="41.700738" lon="2.838665"></trkpt>
      <trkpt lat="41.700439" lon="2.840466"></trkpt>
      <trkpt lat="41.700547" lon="2.841276"></trkpt>
  </trkseg></trk>
</gpx>
