<?xml version="1.0" encoding="UTF-8"?>
<gpx version="1.1" creator="yatutbuv" xmlns="http://www.topografix.com/GPX/1/1">
  <trk><name>GraphHopper Track</name><trkseg>
      <trkpt lat="50.52086" lon="30.508944"></trkpt>
      <trkpt lat="50.521421" lon="30.508935"></trkpt>
      <trkpt lat="50.52141" lon="30.510276"></trkpt>
      <trkpt lat="50.522548" lon="30.510321"></trkpt>
      <trkpt lat="50.522494" lon="30.512008"></trkpt>
      <trkpt lat="50.522314" lon="30.512731"></trkpt>
      <trkpt lat="50.522009" lon="30.513371"></trkpt>
      <trkpt lat="50.521624" lon="30.513642"></trkpt>
      <trkpt lat="50.519446" lon="30.513614"></trkpt>
      <trkpt lat="50.518506" lon="30.513428"></trkpt>
      <trkpt lat="50.518134" lon="30.513222"></trkpt>
      <trkpt lat="50.517457" lon="30.512475"></trkpt>
      <trkpt lat="50.513218" lon="30.506789"></trkpt>
      <trkpt lat="50.512482" lon="30.50549"></trkpt>
      <trkpt lat="50.512237" lon="30.505296"></trkpt>
      <trkpt lat="50.512013" lon="30.505332"></trkpt>
      <trkpt lat="50.511531" lon="30.506047"></trkpt>
      <trkpt lat="50.511123" lon="30.506378"></trkpt>
      <trkpt lat="50.508717" lon="30.507425"></trkpt>
      <trkpt lat="50.506967" lon="30.508786"></trkpt>
      <trkpt lat="50.506638" lon="30.508818"></trkpt>
      <trkpt lat="50.506174" lon="30.508586"></trkpt>
      <trkpt lat="50.505972" lon="30.508648"></trkpt>
      <trkpt lat="50.505657" lon="30.509678"></trkpt>
      <trkpt lat="50.505259" lon="30.510294"></trkpt>
      <trkpt lat="50.497035" lon="30.517782"></trkpt>
      <trkpt lat="50.496663" lon="30.51785"></trkpt>
      <trkpt lat="50.496169" lon="30.517608"></trkpt>
      <trkpt lat="50.495975" lon="30.517722"></trkpt>
      <trkpt lat="50.495761" lon="30.51872"></trkpt>
      <trkpt lat="50.495428" lon="30.519311"></trkpt>
      <trkpt lat="50.487972" lon="30.526519"></trkpt>
      <trkpt lat="50.487707" lon="30.526662"></trkpt>
      <trkpt lat="50.487469" lon="30.526555"></trkpt>
      <trkpt lat="50.487278" lon="30.526187"></trkpt>
      <trkpt lat="50.487285" lon="30.525665"></trkpt>
      <trkpt lat="50.487426" lon="30.52536"></trkpt>
      <trkpt lat="50.487728" lon="30.525264"></trkpt>
      <trkpt lat="50.488014" lon="30.525443"></trkpt>
      <trkpt lat="50.488177" lon="30.525718"></trkpt>
      <trkpt lat="50.488371" lon="30.527562"></trkpt>
      <trkpt lat="50.488887" lon="30.530082"></trkpt>
      <trkpt lat="50.492175" lon="30.540964"></trkpt>
      <trkpt lat="50.493304" lon="30.545063"></trkpt>
      <trkpt lat="50.495144" lon="30.559064"></trkpt>
      <trkpt lat="50.4954" lon="30.562202"></trkpt>
      <trkpt lat="50.495483" lon="30.56572"></trkpt>
      <trkpt lat="50.495387" lon="30.581002"></trkpt>
      <trkpt lat="50.495199" lon="30.590001"></trkpt>
      <trkpt lat="50.495278" lon="30.604978"></trkpt>
      <trkpt lat="50.495149" lon="30.607018"></trkpt>
      <trkpt lat="50.494887" lon="30.607577"></trkpt>
      <trkpt lat="50.494577" lon="30.607862"></trkpt>
      <trkpt lat="50.490983" lon="30.609552"></trkpt>
      <trkpt lat="50.48941" lon="30.610165"></trkpt>
      <trkpt lat="50.48819" lon="30.610879"></trkpt>
      <trkpt lat="50.472953" lon="30.621221"></trkpt>
      <trkpt lat="50.467325" lon="30.625427"></trkpt>
      <trkpt lat="50.463947" lon="30.627701"></trkpt>
      <trkpt lat="50.463418" lon="30.627767"></trkpt>
      <trkpt lat="50.45573" lon="30.633025"></trkpt>
      <trkpt lat="50.455372" lon="30.633081"></trkpt>
      <trkpt lat="50.455061" lon="30.632897"></trkpt>
      <trkpt lat="50.452627" lon="30.631381"></trkpt>
      <trkpt lat="50.451306" lon="30.630399"></trkpt>
      <trkpt lat="50.442795" lon="30.625417"></trkpt>
      <trkpt lat="50.442486" lon="30.625082"></trkpt>
      <trkpt lat="50.44227" lon="30.625012"></trkpt>
      <trkpt lat="50.441883" lon="30.625307"></trkpt>
      <trkpt lat="50.441669" lon="30.626342"></trkpt>
      <trkpt lat="50.441393" lon="30.627044"></trkpt>
      <trkpt lat="50.440208" lon="30.628407"></trkpt>
      <trkpt lat="50.43111" lon="30.63384"></trkpt>
      <trkpt lat="50.428512" lon="30.635777"></trkpt>
      <trkpt lat="50.427593" lon="30.636569"></trkpt>
      <trkpt lat="50.427018" lon="30.637269"></trkpt>
      <trkpt lat="50.426215" lon="30.638658"></trkpt>
      <trkpt lat="50.423773" lon="30.646586"></trkpt>
      <trkpt lat="50.422921" lon="30.648701"></trkpt>
      <trkpt lat="50.422004" lon="30.650346"></trkpt>
      <trkpt lat="50.418724" lon="30.655895"></trkpt>
      <trkpt lat="50.409298" lon="30.671104"></trkpt>
      <trkpt lat="50.40363" lon="30.681209"></trkpt>
      <trkpt lat="50.403203" lon="30.681577"></trkpt>
      <trkpt lat="50.402363" lon="30.681372"></trkpt>
      <trkpt lat="50.401914" lon="30.681471"></trkpt>
      <trkpt lat="50.401524" lon="30.681811"></trkpt>
      <trkpt lat="50.401265" lon="30.68233"></trkpt>
      <trkpt lat="50.401142" lon="30.683101"></trkpt>
      <trkpt lat="50.401221" lon="30.683899"></trkpt>
      <trkpt lat="50.401411" lon="30.684392"></trkpt>
      <trkpt lat="50.402024" lon="30.685322"></trkpt>
      <trkpt lat="50.40218" lon="30.686247"></trkpt>
      <trkpt lat="50.401861" lon="30.694729"></trkpt>
      <trkpt lat="50.397038" lon="30.740826"></trkpt>
      <trkpt lat="50.396529" lon="30.743838"></trkpt>
      <trkpt lat="50.387101" lon="30.786123"></trkpt>
      <trkpt lat="50.384789" lon="30.796902"></trkpt>
      <trkpt lat="50.38439" lon="30.799901"></trkpt>
      <trkpt lat="50.383352" lon="30.810181"></trkpt>
      <trkpt lat="50.378923" lon="30.856316"></trkpt>
      <trkpt lat="50.378361" lon="30.860218"></trkpt>
      <trkpt lat="50.367688" lon="30.916021"></trkpt>
      <trkpt lat="50.36682" lon="30.918678"></trkpt>
      <trkpt lat="50.363421" lon="30.927875"></trkpt>
      <trkpt lat="50.36115" lon="30.932793"></trkpt>
      <trkpt lat="50.357862" lon="30.941486"></trkpt>
      <trkpt lat="50.356463" lon="30.94488"></trkpt>
      <trkpt lat="50.355762" lon="30.945854"></trkpt>
      <trkpt lat="50.351944" lon="30.950197"></trkpt>
      <trkpt lat="50.349664" lon="30.954462"></trkpt>
      <trkpt lat="50.34699" lon="30.957546"></trkpt>
      <trkpt lat="50.345284" lon="30.959836"></trkpt>
      <trkpt lat="50.344228" lon="30.962476"></trkpt>
      <trkpt lat="50.342123" lon="30.966758"></trkpt>
      <trkpt lat="50.339926" lon="30.970135"></trkpt>
      <trkpt lat="50.339422" lon="30.971704"></trkpt>
      <trkpt lat="50.337849" lon="30.971241"></trkpt>
      <trkpt lat="50.337593" lon="30.971274"></trkpt>
      <trkpt lat="50.334604" lon="30.97332"></trkpt>
      <trkpt lat="50.327919" lon="30.977356"></trkpt>
      <trkpt lat="50.321672" lon="30.981547"></trkpt>
      <trkpt lat="50.310558" lon="30.985463"></trkpt>
      <trkpt lat="50.306735" lon="30.987303"></trkpt>
      <trkpt lat="50.304885" lon="30.988413"></trkpt>
      <trkpt lat="50.303847" lon="30.989217"></trkpt>
      <trkpt lat="50.302125" lon="30.990868"></trkpt>
      <trkpt lat="50.294118" lon="31.000183"></trkpt>
      <trkpt lat="50.292632" lon="31.00175"></trkpt>
      <trkpt lat="50.28606" lon="31.007385"></trkpt>
      <trkpt lat="50.284195" lon="31.009218"></trkpt>
      <trkpt lat="50.282127" lon="31.011525"></trkpt>
      <trkpt lat="50.280572" lon="31.01348"></trkpt>
      <trkpt lat="50.269517" lon="31.028189"></trkpt>
      <trkpt lat="50.266544" lon="31.031979"></trkpt>
      <trkpt lat="50.263984" lon="31.034607"></trkpt>
      <trkpt lat="50.257358" lon="31.040256"></trkpt>
      <trkpt lat="50.256644" lon="31.040956"></trkpt>
      <trkpt lat="50.255738" lon="31.042112"></trkpt>
      <trkpt lat="50.254541" lon="31.044259"></trkpt>
      <trkpt lat="50.253925" lon="31.045849"></trkpt>
      <trkpt lat="50.252482" lon="31.051428"></trkpt>
      <trkpt lat="50.251357" lon="31.054278"></trkpt>
      <trkpt lat="50.250392" lon="31.055989"></trkpt>
      <trkpt lat="50.244923" lon="31.064225"></trkpt>
      <trkpt lat="50.243278" lon="31.066503"></trkpt>
      <trkpt lat="50.24186" lon="31.068097"></trkpt>
      <trkpt lat="50.219045" lon="31.089518"></trkpt>
      <trkpt lat="50.217988" lon="31.090835"></trkpt>
      <trkpt lat="50.216901" lon="31.092886"></trkpt>
      <trkpt lat="50.212445" lon="31.104012"></trkpt>
      <trkpt lat="50.21063" lon="31.10789"></trkpt>
      <trkpt lat="50.209108" lon="31.109922"></trkpt>
      <trkpt lat="50.205278" lon="31.113442"></trkpt>
      <trkpt lat="50.203817" lon="31.114943"></trkpt>
      <trkpt lat="50.192639" lon="31.128877"></trkpt>
      <trkpt lat="50.191038" lon="31.131492"></trkpt>
      <trkpt lat="50.181062" lon="31.150438"></trkpt>
      <trkpt lat="50.175437" lon="31.160025"></trkpt>
      <trkpt lat="50.170437" lon="31.167245"></trkpt>
      <trkpt lat="50.169462" lon="31.168802"></trkpt>
      <trkpt lat="50.162707" lon="31.18136"></trkpt>
      <trkpt lat="50.158228" lon="31.191227"></trkpt>
      <trkpt lat="50.154065" lon="31.198507"></trkpt>
      <trkpt lat="50.152762" lon="31.201373"></trkpt>
      <trkpt lat="50.134929" lon="31.254676"></trkpt>
      <trkpt lat="50.133263" lon="31.258467"></trkpt>
      <trkpt lat="50.132422" lon="31.259942"></trkpt>
      <trkpt lat="50.130573" lon="31.262583"></trkpt>
      <trkpt lat="50.119075" lon="31.276048"></trkpt>
      <trkpt lat="50.117108" lon="31.278525"></trkpt>
      <trkpt lat="50.115188" lon="31.281202"></trkpt>
      <trkpt lat="50.113333" lon="31.284157"></trkpt>
      <trkpt lat="50.109976" lon="31.290063"></trkpt>
      <trkpt lat="50.107428" lon="31.29414"></trkpt>
      <trkpt lat="50.101835" lon="31.303635"></trkpt>
      <trkpt lat="50.094502" lon="31.31656"></trkpt>
      <trkpt lat="50.089994" lon="31.323118"></trkpt>
      <trkpt lat="50.089259" lon="31.324596"></trkpt>
      <trkpt lat="50.088557" lon="31.326677"></trkpt>
      <trkpt lat="50.087397" lon="31.33092"></trkpt>
      <trkpt lat="50.085612" lon="31.336512"></trkpt>
      <trkpt lat="50.084047" lon="31.34373"></trkpt>
      <trkpt lat="50.082868" lon="31.348127"></trkpt>
      <trkpt lat="50.082422" lon="31.350783"></trkpt>
      <trkpt lat="50.081387" lon="31.360274"></trkpt>
      <trkpt lat="50.07927" lon="31.365892"></trkpt>
      <trkpt lat="50.078718" lon="31.367732"></trkpt>
      <trkpt lat="50.078295" lon="31.369702"></trkpt>
      <trkpt lat="50.076763" lon="31.377465"></trkpt>
      <trkpt lat="50.075638" lon="31.38497"></trkpt>
      <trkpt lat="50.074581" lon="31.390818"></trkpt>
      <trkpt lat="50.074121" lon="31.394376"></trkpt>
      <trkpt lat="50.073763" lon="31.395089"></trkpt>
      <trkpt lat="50.057276" lon="31.417609"></trkpt>
      <trkpt lat="50.054291" lon="31.422677"></trkpt>
      <trkpt lat="50.050789" lon="31.428146"></trkpt>
      <trkpt lat="50.045642" lon="31.435587"></trkpt>
      <trkpt lat="50.044989" lon="31.437162"></trkpt>
      <trkpt lat="50.044802" lon="31.438144"></trkpt>
      <trkpt lat="50.041093" lon="31.467057"></trkpt>
      <trkpt lat="50.040959" lon="31.470072"></trkpt>
      <trkpt lat="50.040997" lon="31.473375"></trkpt>
      <trkpt lat="50.04154" lon="31.478915"></trkpt>
      <trkpt lat="50.041777" lon="31.47995"></trkpt>
      <trkpt lat="50.042369" lon="31.481275"></trkpt>
      <trkpt lat="50.042743" lon="31.481868"></trkpt>
      <trkpt lat="50.043548" lon="31.482629"></trkpt>
      <trkpt lat="50.056891" lon="31.489511"></trkpt>
      <trkpt lat="50.057478" lon="31.489963"></trkpt>
      <trkpt lat="50.058029" lon="31.490582"></trkpt>
      <trkpt lat="50.058578" lon="31.491567"></trkpt>
      <trkpt lat="50.058995" lon="31.492883"></trkpt>
      <trkpt lat="50.059284" lon="31.496135"></trkpt>
      <trkpt lat="50.059283" lon="31.497198"></trkpt>
      <trkpt lat="50.059167" lon="31.497844"></trkpt>
      <trkpt lat="50.058156" lon="31.501364"></trkpt>
      <trkpt lat="50.027691" lon="31.534602"></trkpt>
      <trkpt lat="49.985939" lon="31.579254"></trkpt>
      <trkpt lat="49.955302" lon="31.614205"></trkpt>
      <trkpt lat="49.953791" lon="31.616179"></trkpt>
      <trkpt lat="49.907201" lon="31.680939"></trkpt>
      <trkpt lat="49.870231" lon="31.732097"></trkpt>
      <trkpt lat="49.833581" lon="31.776756"></trkpt>
      <trkpt lat="49.832446" lon="31.777695"></trkpt>
      <trkpt lat="49.831447" lon="31.778098"></trkpt>
      <trkpt lat="49.825661" lon="31.778512"></trkpt>
      <trkpt lat="49.823858" lon="31.778909"></trkpt>
      <trkpt lat="49.813607" lon="31.784458"></trkpt>
      <trkpt lat="49.787449" lon="31.796806"></trkpt>
      <trkpt lat="49.785902" lon="31.797808"></trkpt>
      <trkpt lat="49.784021" lon="31.799773"></trkpt>
      <trkpt lat="49.780717" lon="31.803775"></trkpt>
      <trkpt lat="49.779388" lon="31.805542"></trkpt>
      <trkpt lat="49.776005" lon="31.811161"></trkpt>
      <trkpt lat="49.772145" lon="31.81966"></trkpt>
      <trkpt lat="49.769354" lon="31.826175"></trkpt>
      <trkpt lat="49.768314" lon="31.82941"></trkpt>
      <trkpt lat="49.766324" lon="31.837185"></trkpt>
      <trkpt lat="49.765439" lon="31.839334"></trkpt>
      <trkpt lat="49.764746" lon="31.840489"></trkpt>
      <trkpt lat="49.764079" lon="31.841335"></trkpt>
      <trkpt lat="49.756872" lon="31.84936"></trkpt>
      <trkpt lat="49.755419" lon="31.851096"></trkpt>
      <trkpt lat="49.754661" lon="31.852227"></trkpt>
      <trkpt lat="49.753923" lon="31.85367"></trkpt>
      <trkpt lat="49.750779" lon="31.862013"></trkpt>
      <trkpt lat="49.750123" lon="31.863219"></trkpt>
      <trkpt lat="49.74956" lon="31.863988"></trkpt>
      <trkpt lat="49.74892" lon="31.864613"></trkpt>
      <trkpt lat="49.731049" lon="31.877888"></trkpt>
      <trkpt lat="49.730235" lon="31.878639"></trkpt>
      <trkpt lat="49.729344" lon="31.879746"></trkpt>
      <trkpt lat="49.728664" lon="31.881229"></trkpt>
      <trkpt lat="49.728172" lon="31.883765"></trkpt>
      <trkpt lat="49.727224" lon="31.889958"></trkpt>
      <trkpt lat="49.726265" lon="31.897478"></trkpt>
      <trkpt lat="49.724951" lon="31.90961"></trkpt>
      <trkpt lat="49.724556" lon="31.912013"></trkpt>
      <trkpt lat="49.723417" lon="31.91729"></trkpt>
      <trkpt lat="49.722569" lon="31.919973"></trkpt>
      <trkpt lat="49.717814" lon="31.930073"></trkpt>
      <trkpt lat="49.713684" lon="31.940375"></trkpt>
      <trkpt lat="49.711249" lon="31.946831"></trkpt>
      <trkpt lat="49.709778" lon="31.951846"></trkpt>
      <trkpt lat="49.707934" lon="31.958789"></trkpt>
      <trkpt lat="49.703832" lon="31.97"></trkpt>
      <trkpt lat="49.700563" lon="31.982896"></trkpt>
      <trkpt lat="49.700398" lon="31.984598"></trkpt>
      <trkpt lat="49.700809" lon="32.016357"></trkpt>
      <trkpt lat="49.700697" lon="32.020829"></trkpt>
      <trkpt lat="49.700245" lon="32.021738"></trkpt>
      <trkpt lat="49.700304" lon="32.022145"></trkpt>
      <trkpt lat="49.700552" lon="32.022434"></trkpt>
      <trkpt lat="49.700635" lon="32.022737"></trkpt>
      <trkpt lat="49.700483" lon="32.026568"></trkpt>
      <trkpt lat="49.700092" lon="32.029164"></trkpt>
      <trkpt lat="49.696006" lon="32.044244"></trkpt>
      <trkpt lat="49.694592" lon="32.048152"></trkpt>
      <trkpt lat="49.690389" lon="32.057621"></trkpt>
      <trkpt lat="49.689537" lon="32.060121"></trkpt>
      <trkpt lat="49.688173" lon="32.065266"></trkpt>
      <trkpt lat="49.686941" lon="32.06808"></trkpt>
      <trkpt lat="49.685637" lon="32.069967"></trkpt>
      <trkpt lat="49.685079" lon="32.070556"></trkpt>
      <trkpt lat="49.673407" lon="32.080749"></trkpt>
      <trkpt lat="49.672252" lon="32.081884"></trkpt>
      <trkpt lat="49.67163" lon="32.081895"></trkpt>
      <trkpt lat="49.671385" lon="32.081747"></trkpt>
      <trkpt lat="49.671519" lon="32.082102"></trkpt>
      <trkpt lat="49.671498" lon="32.082867"></trkpt>
      <trkpt lat="49.669676" lon="32.085623"></trkpt>
      <trkpt lat="49.668902" lon="32.087325"></trkpt>
      <trkpt lat="49.66809" lon="32.089537"></trkpt>
      <trkpt lat="49.66405" lon="32.104329"></trkpt>
      <trkpt lat="49.663236" lon="32.106155"></trkpt>
      <trkpt lat="49.662119" lon="32.107836"></trkpt>
      <trkpt lat="49.661402" lon="32.108682"></trkpt>
      <trkpt lat="49.660422" lon="32.109592"></trkpt>
      <trkpt lat="49.65948" lon="32.110271"></trkpt>
      <trkpt lat="49.657169" lon="32.111468"></trkpt>
      <trkpt lat="49.656533" lon="32.111749"></trkpt>
      <trkpt lat="49.65616" lon="32.111689"></trkpt>
      <trkpt lat="49.655994" lon="32.111508"></trkpt>
      <trkpt lat="49.655754" lon="32.111509"></trkpt>
      <trkpt lat="49.655117" lon="32.112364"></trkpt>
      <trkpt lat="49.625591" lon="32.125583"></trkpt>
      <trkpt lat="49.62188" lon="32.12645"></trkpt>
      <trkpt lat="49.61827" lon="32.127866"></trkpt>
      <trkpt lat="49.616567" lon="32.128346"></trkpt>
      <trkpt lat="49.614256" lon="32.128597"></trkpt>
      <trkpt lat="49.608333" lon="32.128878"></trkpt>
      <trkpt lat="49.607279" lon="32.128768"></trkpt>
      <trkpt lat="49.606527" lon="32.128388"></trkpt>
      <trkpt lat="49.604782" lon="32.127109"></trkpt>
      <trkpt lat="49.604043" lon="32.126158"></trkpt>
      <trkpt lat="49.603453" lon="32.124928"></trkpt>
      <trkpt lat="49.600266" lon="32.109933"></trkpt>
      <trkpt lat="49.599854" lon="32.10882"></trkpt>
      <trkpt lat="49.599218" lon="32.107815"></trkpt>
      <trkpt lat="49.56541" lon="32.074811"></trkpt>
      <trkpt lat="49.563976" lon="32.073855"></trkpt>
      <trkpt lat="49.562649" lon="32.073517"></trkpt>
      <trkpt lat="49.561137" lon="32.073582"></trkpt>
      <trkpt lat="49.559554" lon="32.07403"></trkpt>
      <trkpt lat="49.557359" lon="32.07504"></trkpt>
      <trkpt lat="49.55536" lon="32.076368"></trkpt>
      <trkpt lat="49.553167" lon="32.078387"></trkpt>
      <trkpt lat="49.551809" lon="32.079857"></trkpt>
      <trkpt lat="49.540298" lon="32.093104"></trkpt>
      <trkpt lat="49.538557" lon="32.094764"></trkpt>
      <trkpt lat="49.536634" lon="32.096185"></trkpt>
      <trkpt lat="49.534689" lon="32.09722"></trkpt>
      <trkpt lat="49.532799" lon="32.09789"></trkpt>
      <trkpt lat="49.531306" lon="32.098203"></trkpt>
      <trkpt lat="49.529865" lon="32.098359"></trkpt>
      <trkpt lat="49.528986" lon="32.09842"></trkpt>
      <trkpt lat="49.527236" lon="32.098251"></trkpt>
      <trkpt lat="49.525114" lon="32.09771"></trkpt>
      <trkpt lat="49.523781" lon="32.097172"></trkpt>
      <trkpt lat="49.521656" lon="32.096035"></trkpt>
      <trkpt lat="49.520642" lon="32.09531"></trkpt>
      <trkpt lat="49.518682" lon="32.09352"></trkpt>
      <trkpt lat="49.517169" lon="32.09184"></trkpt>
      <trkpt lat="49.505844" lon="32.076366"></trkpt>
      <trkpt lat="49.498394" lon="32.065934"></trkpt>
      <trkpt lat="49.475378" lon="32.034197"></trkpt>
      <trkpt lat="49.468468" lon="32.024778"></trkpt>
      <trkpt lat="49.467107" lon="32.023106"></trkpt>
      <trkpt lat="49.466117" lon="32.021997"></trkpt>
      <trkpt lat="49.465433" lon="32.021409"></trkpt>
      <trkpt lat="49.464876" lon="32.021083"></trkpt>
      <trkpt lat="49.463309" lon="32.02058"></trkpt>
      <trkpt lat="49.462628" lon="32.02046"></trkpt>
      <trkpt lat="49.458109" lon="32.02027"></trkpt>
      <trkpt lat="49.457151" lon="32.020335"></trkpt>
      <trkpt lat="49.456491" lon="32.0205"></trkpt>
      <trkpt lat="49.456333" lon="32.020829"></trkpt>
      <trkpt lat="49.456522" lon="32.021102"></trkpt>
      <trkpt lat="49.457392" lon="32.020866"></trkpt>
      <trkpt lat="49.45772" lon="32.02107"></trkpt>
      <trkpt lat="49.458133" lon="32.021785"></trkpt>
      <trkpt lat="49.458207" lon="32.022288"></trkpt>
      <trkpt lat="49.455422" lon="32.029528"></trkpt>
      <trkpt lat="49.453924" lon="32.027748"></trkpt>
      <trkpt lat="49.4258" lon="32.078578"></trkpt>
      <trkpt lat="49.415473" lon="32.096789"></trkpt>
      <trkpt lat="49.416927" lon="32.098747"></trkpt>
      <trkpt lat="49.394307" lon="32.132227"></trkpt>
      <trkpt lat="49.390481" lon="32.137362"></trkpt>
      <trkpt lat="49.388726" lon="32.139532"></trkpt>
      <trkpt lat="49.360975" lon="32.175843"></trkpt>
      <trkpt lat="49.360409" lon="32.176375"></trkpt>
      <trkpt lat="49.348563" lon="32.184458"></trkpt>
      <trkpt lat="49.34035" lon="32.190262"></trkpt>
      <trkpt lat="49.333724" lon="32.198995"></trkpt>
      <trkpt lat="49.315938" lon="32.222966"></trkpt>
      <trkpt lat="49.292534" lon="32.254199"></trkpt>
      <trkpt lat="49.27806" lon="32.273759"></trkpt>
      <trkpt lat="49.270523" lon="32.28335"></trkpt>
      <trkpt lat="49.246148" lon="32.313598"></trkpt>
      <trkpt lat="49.241837" lon="32.322753"></trkpt>
      <trkpt lat="49.235957" lon="32.334857"></trkpt>
      <trkpt lat="49.233351" lon="32.340378"></trkpt>
      <trkpt lat="49.232878" lon="32.341638"></trkpt>
      <trkpt lat="49.230622" lon="32.348878"></trkpt>
      <trkpt lat="49.225138" lon="32.365602"></trkpt>
      <trkpt lat="49.210415" lon="32.411408"></trkpt>
      <trkpt lat="49.204729" lon="32.433661"></trkpt>
      <trkpt lat="49.201404" lon="32.447215"></trkpt>
      <trkpt lat="49.201103" lon="32.447019"></trkpt>
      <trkpt lat="49.201404" lon="32.447215"></trkpt>
      <trkpt lat="49.204729" lon="32.433661"></trkpt>
      <trkpt lat="49.210415" lon="32.411408"></trkpt>
      <trkpt lat="49.219425" lon="32.383414"></trkpt>
      <trkpt lat="49.213717" lon="32.378036"></trkpt>
      <trkpt lat="49.210416" lon="32.375659"></trkpt>
      <trkpt lat="49.208578" lon="32.373956"></trkpt>
      <trkpt lat="49.202791" lon="32.367619"></trkpt>
      <trkpt lat="49.197036" lon="32.360574"></trkpt>
      <trkpt lat="49.196362" lon="32.360087"></trkpt>
      <trkpt lat="49.19558" lon="32.359836"></trkpt>
      <trkpt lat="49.193664" lon="32.359669"></trkpt>
      <trkpt lat="49.192142" lon="32.359274"></trkpt>
      <trkpt lat="49.189823" lon="32.35808"></trkpt>
      <trkpt lat="49.183872" lon="32.354287"></trkpt>
      <trkpt lat="49.183654" lon="32.354262"></trkpt>
      <trkpt lat="49.183429" lon="32.354404"></trkpt>
      <trkpt lat="49.177347" lon="32.367073"></trkpt>
      <trkpt lat="49.172906" lon="32.375968"></trkpt>
      <trkpt lat="49.171781" lon="32.374803"></trkpt>
      <trkpt lat="49.17047" lon="32.37454"></trkpt>
      <trkpt lat="49.170143" lon="32.374268"></trkpt>
      <trkpt lat="49.169572" lon="32.372628"></trkpt>
      <trkpt lat="49.169066" lon="32.370367"></trkpt>
      <trkpt lat="49.168321" lon="32.366559"></trkpt>
      <trkpt lat="49.168238" lon="32.365586"></trkpt>
      <trkpt lat="49.169056" lon="32.361807"></trkpt>
      <trkpt lat="49.16984" lon="32.35638"></trkpt>
      <trkpt lat="49.170351" lon="32.354526"></trkpt>
      <trkpt lat="49.170406" lon="32.353197"></trkpt>
      <trkpt lat="49.170245" lon="32.352349"></trkpt>
      <trkpt lat="49.169458" lon="32.349786"></trkpt>
      <trkpt lat="49.169218" lon="32.347086"></trkpt>
      <trkpt lat="49.168697" lon="32.344335"></trkpt>
      <trkpt lat="49.168691" lon="32.340016"></trkpt>
      <trkpt lat="49.16827" lon="32.337309"></trkpt>
      <trkpt lat="49.166592" lon="32.328771"></trkpt>
      <trkpt lat="49.165364" lon="32.325381"></trkpt>
      <trkpt lat="49.162764" lon="32.31935"></trkpt>
      <trkpt lat="49.161815" lon="32.31655"></trkpt>
      <trkpt lat="49.161093" lon="32.31517"></trkpt>
      <trkpt lat="49.160409" lon="32.314155"></trkpt>
      <trkpt lat="49.158564" lon="32.312233"></trkpt>
      <trkpt lat="49.156891" lon="32.310803"></trkpt>
      <trkpt lat="49.155786" lon="32.310054"></trkpt>
      <trkpt lat="49.155471" lon="32.309699"></trkpt>
      <trkpt lat="49.15445" lon="32.306389"></trkpt>
      <trkpt lat="49.15297" lon="32.300362"></trkpt>
      <trkpt lat="49.152753" lon="32.298959"></trkpt>
      <trkpt lat="49.152552" lon="32.296298"></trkpt>
      <trkpt lat="49.152942" lon="32.292742"></trkpt>
      <trkpt lat="49.155029" lon="32.288688"></trkpt>
      <trkpt lat="49.155322" lon="32.286542"></trkpt>
      <trkpt lat="49.15597" lon="32.285297"></trkpt>
      <trkpt lat="49.156248" lon="32.283709"></trkpt>
      <trkpt lat="49.157332" lon="32.280768"></trkpt>
      <trkpt lat="49.157992" lon="32.279414"></trkpt>
      <trkpt lat="49.159328" lon="32.277735"></trkpt>
      <trkpt lat="49.159605" lon="32.277189"></trkpt>
      <trkpt lat="49.159686" lon="32.276493"></trkpt>
      <trkpt lat="49.159625" lon="32.276024"></trkpt>
      <trkpt lat="49.159234" lon="32.27498"></trkpt>
      <trkpt lat="49.158011" lon="32.273616"></trkpt>
      <trkpt lat="49.157267" lon="32.273254"></trkpt>
      <trkpt lat="49.156159" lon="32.273079"></trkpt>
      <trkpt lat="49.155863" lon="32.27294"></trkpt>
      <trkpt lat="49.15564" lon="32.272779"></trkpt>
      <trkpt lat="49.155408" lon="32.272269"></trkpt>
      <trkpt lat="49.15542" lon="32.271502"></trkpt>
      <trkpt lat="49.156203" lon="32.267403"></trkpt>
      <trkpt lat="49.156259" lon="32.266417"></trkpt>
      <trkpt lat="49.156197" lon="32.265623"></trkpt>
      <trkpt lat="49.156008" lon="32.265134"></trkpt>
      <trkpt lat="49.154629" lon="32.263245"></trkpt>
      <trkpt lat="49.154331" lon="32.262608"></trkpt>
      <trkpt lat="49.154054" lon="32.261483"></trkpt>
      <trkpt lat="49.154043" lon="32.260924"></trkpt>
      <trkpt lat="49.154277" lon="32.259474"></trkpt>
      <trkpt lat="49.154825" lon="32.258428"></trkpt>
      <trkpt lat="49.155396" lon="32.25762"></trkpt>
      <trkpt lat="49.155572" lon="32.257047"></trkpt>
      <trkpt lat="49.155489" lon="32.255851"></trkpt>
      <trkpt lat="49.154607" lon="32.255427"></trkpt>
      <trkpt lat="49.154209" lon="32.25479"></trkpt>
      <trkpt lat="49.154352" lon="32.252878"></trkpt>
      <trkpt lat="49.154154" lon="32.252365"></trkpt>
      <trkpt lat="49.153653" lon="32.25208"></trkpt>
      <trkpt lat="49.153308" lon="32.252046"></trkpt>
      <trkpt lat="49.150208" lon="32.253103"></trkpt>
      <trkpt lat="49.148833" lon="32.254748"></trkpt>
      <trkpt lat="49.147784" lon="32.255572"></trkpt>
      <trkpt lat="49.14576" lon="32.2583"></trkpt>
      <trkpt lat="49.145617" lon="32.258348"></trkpt>
      <trkpt lat="49.145393" lon="32.258342"></trkpt>
      <trkpt lat="49.143926" lon="32.257609"></trkpt>
      <trkpt lat="49.140417" lon="32.255615"></trkpt>
      <trkpt lat="49.139636" lon="32.255561"></trkpt>
      <trkpt lat="49.127465" lon="32.261213"></trkpt>
      <trkpt lat="49.119131" lon="32.267462"></trkpt>
      <trkpt lat="49.118961" lon="32.267399"></trkpt>
      <trkpt lat="49.115099" lon="32.260388"></trkpt>
      <trkpt lat="49.113286" lon="32.26202"></trkpt>
      <trkpt lat="49.112903" lon="32.262227"></trkpt>
      <trkpt lat="49.112738" lon="32.262023"></trkpt>
      <trkpt lat="49.111445" lon="32.25851"></trkpt>
      <trkpt lat="49.110679" lon="32.259156"></trkpt>
      <trkpt lat="49.110452" lon="32.258932"></trkpt>
      <trkpt lat="49.110679" lon="32.259156"></trkpt>
      <trkpt lat="49.111445" lon="32.25851"></trkpt>
      <trkpt lat="49.112738" lon="32.262023"></trkpt>
      <trkpt lat="49.112903" lon="32.262227"></trkpt>
      <trkpt lat="49.113286" lon="32.26202"></trkpt>
      <trkpt lat="49.115099" lon="32.260388"></trkpt>
      <trkpt lat="49.118961" lon="32.267399"></trkpt>
      <trkpt lat="49.119131" lon="32.267462"></trkpt>
      <trkpt lat="49.127465" lon="32.261213"></trkpt>
      <trkpt lat="49.139636" lon="32.255561"></trkpt>
      <trkpt lat="49.140417" lon="32.255615"></trkpt>
      <trkpt lat="49.143926" lon="32.257609"></trkpt>
      <trkpt lat="49.145393" lon="32.258342"></trkpt>
      <trkpt lat="49.145617" lon="32.258348"></trkpt>
      <trkpt lat="49.14576" lon="32.2583"></trkpt>
      <trkpt lat="49.147784" lon="32.255572"></trkpt>
      <trkpt lat="49.148833" lon="32.254748"></trkpt>
      <trkpt lat="49.150208" lon="32.253103"></trkpt>
      <trkpt lat="49.153308" lon="32.252046"></trkpt>
      <trkpt lat="49.153653" lon="32.25208"></trkpt>
      <trkpt lat="49.154263" lon="32.252494"></trkpt>
      <trkpt lat="49.154352" lon="32.252878"></trkpt>
      <trkpt lat="49.154209" lon="32.25479"></trkpt>
      <trkpt lat="49.154607" lon="32.255427"></trkpt>
      <trkpt lat="49.155489" lon="32.255851"></trkpt>
      <trkpt lat="49.155572" lon="32.257047"></trkpt>
      <trkpt lat="49.155396" lon="32.25762"></trkpt>
      <trkpt lat="49.154825" lon="32.258428"></trkpt>
      <trkpt lat="49.154277" lon="32.259474"></trkpt>
      <trkpt lat="49.154043" lon="32.260924"></trkpt>
      <trkpt lat="49.154054" lon="32.261483"></trkpt>
      <trkpt lat="49.154331" lon="32.262608"></trkpt>
      <trkpt lat="49.154629" lon="32.263245"></trkpt>
      <trkpt lat="49.156008" lon="32.265134"></trkpt>
      <trkpt lat="49.156197" lon="32.265623"></trkpt>
      <trkpt lat="49.156259" lon="32.266417"></trkpt>
      <trkpt lat="49.156203" lon="32.267403"></trkpt>
      <trkpt lat="49.15542" lon="32.271502"></trkpt>
      <trkpt lat="49.155408" lon="32.272269"></trkpt>
      <trkpt lat="49.15564" lon="32.272779"></trkpt>
      <trkpt lat="49.155863" lon="32.27294"></trkpt>
      <trkpt lat="49.156159" lon="32.273079"></trkpt>
      <trkpt lat="49.157267" lon="32.273254"></trkpt>
      <trkpt lat="49.158011" lon="32.273616"></trkpt>
      <trkpt lat="49.159234" lon="32.27498"></trkpt>
      <trkpt lat="49.159625" lon="32.276024"></trkpt>
      <trkpt lat="49.159686" lon="32.276493"></trkpt>
      <trkpt lat="49.159605" lon="32.277189"></trkpt>
      <trkpt lat="49.159328" lon="32.277735"></trkpt>
      <trkpt lat="49.157992" lon="32.279414"></trkpt>
      <trkpt lat="49.157332" lon="32.280768"></trkpt>
      <trkpt lat="49.156248" lon="32.283709"></trkpt>
      <trkpt lat="49.15597" lon="32.285297"></trkpt>
      <trkpt lat="49.155322" lon="32.286542"></trkpt>
      <trkpt lat="49.155029" lon="32.288688"></trkpt>
      <trkpt lat="49.152942" lon="32.292742"></trkpt>
      <trkpt lat="49.152552" lon="32.296298"></trkpt>
      <trkpt lat="49.152753" lon="32.298959"></trkpt>
      <trkpt lat="49.15297" lon="32.300362"></trkpt>
      <trkpt lat="49.15445" lon="32.306389"></trkpt>
      <trkpt lat="49.155471" lon="32.309699"></trkpt>
      <trkpt lat="49.155786" lon="32.310054"></trkpt>
      <trkpt lat="49.156891" lon="32.310803"></trkpt>
      <trkpt lat="49.158564" lon="32.312233"></trkpt>
      <trkpt lat="49.160409" lon="32.314155"></trkpt>
      <trkpt lat="49.161093" lon="32.31517"></trkpt>
      <trkpt lat="49.161815" lon="32.31655"></trkpt>
      <trkpt lat="49.162764" lon="32.31935"></trkpt>
      <trkpt lat="49.165364" lon="32.325381"></trkpt>
      <trkpt lat="49.166592" lon="32.328771"></trkpt>
      <trkpt lat="49.16827" lon="32.337309"></trkpt>
      <trkpt lat="49.168691" lon="32.340016"></trkpt>
      <trkpt lat="49.168697" lon="32.344335"></trkpt>
      <trkpt lat="49.169218" lon="32.347086"></trkpt>
      <trkpt lat="49.169458" lon="32.349786"></trkpt>
      <trkpt lat="49.170245" lon="32.352349"></trkpt>
      <trkpt lat="49.170419" lon="32.353421"></trkpt>
      <trkpt lat="49.170351" lon="32.354526"></trkpt>
      <trkpt lat="49.16984" lon="32.35638"></trkpt>
      <trkpt lat="49.169437" lon="32.358706"></trkpt>
      <trkpt lat="49.169056" lon="32.361807"></trkpt>
      <trkpt lat="49.168298" lon="32.364993"></trkpt>
      <trkpt lat="49.168284" lon="32.366324"></trkpt>
      <trkpt lat="49.169572" lon="32.372628"></trkpt>
      <trkpt lat="49.170143" lon="32.374268"></trkpt>
      <trkpt lat="49.17047" lon="32.37454"></trkpt>
      <trkpt lat="49.171781" lon="32.374803"></trkpt>
      <trkpt lat="49.172906" lon="32.375968"></trkpt>
      <trkpt lat="49.172015" lon="32.37744"></trkpt>
      <trkpt lat="49.170504" lon="32.381349"></trkpt>
      <trkpt lat="49.170308" lon="32.384317"></trkpt>
      <trkpt lat="49.170326" lon="32.389193"></trkpt>
      <trkpt lat="49.170159" lon="32.390096"></trkpt>
      <trkpt lat="49.169801" lon="32.390657"></trkpt>
      <trkpt lat="49.168598" lon="32.391673"></trkpt>
      <trkpt lat="49.166365" lon="32.395251"></trkpt>
      <trkpt lat="49.139751" lon="32.457487"></trkpt>
      <trkpt lat="49.135182" lon="32.475157"></trkpt>
      <trkpt lat="49.134092" lon="32.479848"></trkpt>
      <trkpt lat="49.133901" lon="32.481489"></trkpt>
      <trkpt lat="49.134573" lon="32.485162"></trkpt>
      <trkpt lat="49.134582" lon="32.485745"></trkpt>
      <trkpt lat="49.134429" lon="32.486368"></trkpt>
      <trkpt lat="49.133998" lon="32.487341"></trkpt>
      <trkpt lat="49.133471" lon="32.487894"></trkpt>
      <trkpt lat="49.132363" lon="32.488421"></trkpt>
      <trkpt lat="49.131867" lon="32.488927"></trkpt>
      <trkpt lat="49.131705" lon="32.489262"></trkpt>
      <trkpt lat="49.130075" lon="32.496544"></trkpt>
      <trkpt lat="49.125995" lon="32.502502"></trkpt>
      <trkpt lat="49.122161" lon="32.507266"></trkpt>
      <trkpt lat="49.121713" lon="32.507948"></trkpt>
      <trkpt lat="49.120756" lon="32.510134"></trkpt>
      <trkpt lat="49.119297" lon="32.512195"></trkpt>
      <trkpt lat="49.118193" lon="32.513075"></trkpt>
      <trkpt lat="49.11706" lon="32.514409"></trkpt>
      <trkpt lat="49.115563" lon="32.515831"></trkpt>
      <trkpt lat="49.114025" lon="32.516998"></trkpt>
      <trkpt lat="49.113297" lon="32.517722"></trkpt>
      <trkpt lat="49.112161" lon="32.519302"></trkpt>
      <trkpt lat="49.110705" lon="32.521875"></trkpt>
      <trkpt lat="49.110023" lon="32.525698"></trkpt>
      <trkpt lat="49.109939" lon="32.527046"></trkpt>
      <trkpt lat="49.109507" lon="32.528508"></trkpt>
      <trkpt lat="49.108283" lon="32.530049"></trkpt>
      <trkpt lat="49.107144" lon="32.53192"></trkpt>
      <trkpt lat="49.105264" lon="32.534544"></trkpt>
      <trkpt lat="49.104402" lon="32.536434"></trkpt>
      <trkpt lat="49.103507" lon="32.539522"></trkpt>
      <trkpt lat="49.102943" lon="32.540388"></trkpt>
      <trkpt lat="49.101163" lon="32.544005"></trkpt>
      <trkpt lat="49.098751" lon="32.547299"></trkpt>
      <trkpt lat="49.097314" lon="32.550398"></trkpt>
      <trkpt lat="49.096626" lon="32.550964"></trkpt>
      <trkpt lat="49.095139" lon="32.551419"></trkpt>
      <trkpt lat="49.094814" lon="32.551885"></trkpt>
      <trkpt lat="49.094677" lon="32.552331"></trkpt>
      <trkpt lat="49.09481" lon="32.553931"></trkpt>
      <trkpt lat="49.094629" lon="32.554407"></trkpt>
      <trkpt lat="49.093742" lon="32.554321"></trkpt>
      <trkpt lat="49.092596" lon="32.553609"></trkpt>
      <trkpt lat="49.086622" lon="32.551668"></trkpt>
      <trkpt lat="49.085972" lon="32.551752"></trkpt>
      <trkpt lat="49.081057" lon="32.553244"></trkpt>
      <trkpt lat="49.080208" lon="32.553211"></trkpt>
      <trkpt lat="49.07487" lon="32.551155"></trkpt>
      <trkpt lat="49.074092" lon="32.551134"></trkpt>
      <trkpt lat="49.07358" lon="32.551387"></trkpt>
      <trkpt lat="49.07308" lon="32.551806"></trkpt>
      <trkpt lat="49.068246" lon="32.556869"></trkpt>
      <trkpt lat="49.063744" lon="32.576123"></trkpt>
      <trkpt lat="49.063666" lon="32.577938"></trkpt>
      <trkpt lat="49.064519" lon="32.590881"></trkpt>
      <trkpt lat="49.064473" lon="32.594176"></trkpt>
      <trkpt lat="49.064037" lon="32.597332"></trkpt>
      <trkpt lat="49.05859" lon="32.619716"></trkpt>
      <trkpt lat="49.058321" lon="32.623501"></trkpt>
      <trkpt lat="49.05836" lon="32.62517"></trkpt>
      <trkpt lat="49.05807" lon="32.628444"></trkpt>
      <trkpt lat="49.063828" lon="32.627608"></trkpt>
      <trkpt lat="49.067864" lon="32.629667"></trkpt>
      <trkpt lat="49.069051" lon="32.629676"></trkpt>
      <trkpt lat="49.070407" lon="32.629403"></trkpt>
      <trkpt lat="49.073096" lon="32.629703"></trkpt>
      <trkpt lat="49.074482" lon="32.629143"></trkpt>
      <trkpt lat="49.075849" lon="32.628929"></trkpt>
      <trkpt lat="49.077686" lon="32.629443"></trkpt>
      <trkpt lat="49.077084" lon="32.636411"></trkpt>
      <trkpt lat="49.077539" lon="32.638764"></trkpt>
      <trkpt lat="49.077738" lon="32.64051"></trkpt>
      <trkpt lat="49.079319" lon="32.646803"></trkpt>
      <trkpt lat="49.07986" lon="32.647824"></trkpt>
      <trkpt lat="49.080618" lon="32.647727"></trkpt>
      <trkpt lat="49.080918" lon="32.647433"></trkpt>
      <trkpt lat="49.081489" lon="32.647193"></trkpt>
      <trkpt lat="49.082216" lon="32.647746"></trkpt>
      <trkpt lat="49.083018" lon="32.647477"></trkpt>
      <trkpt lat="49.083413" lon="32.647487"></trkpt>
      <trkpt lat="49.083659" lon="32.647751"></trkpt>
      <trkpt lat="49.083746" lon="32.648029"></trkpt>
      <trkpt lat="49.083575" lon="32.651543"></trkpt>
      <trkpt lat="49.083302" lon="32.652742"></trkpt>
      <trkpt lat="49.083381" lon="32.653603"></trkpt>
      <trkpt lat="49.083827" lon="32.655005"></trkpt>
      <trkpt lat="49.082488" lon="32.656901"></trkpt>
      <trkpt lat="49.081051" lon="32.659339"></trkpt>
      <trkpt lat="49.07981" lon="32.657699"></trkpt>
      <trkpt lat="49.080372" lon="32.656653"></trkpt>
  </trkseg></trk>
</gpx>
