<?xml version="1.0" encoding="UTF-8"?>
<gpx version="1.1" creator="yatutbuv" xmlns="http://www.topografix.com/GPX/1/1">
  <trk><name>GraphHopper Track</name><trkseg>
      <trkpt lat="47.741252" lon="9.257902"></trkpt>
      <trkpt lat="47.741754" lon="9.25591"></trkpt>
      <trkpt lat="47.740736" lon="9.255175"></trkpt>
      <trkpt lat="47.741042" lon="9.253761"></trkpt>
      <trkpt lat="47.74236" lon="9.250619"></trkpt>
      <trkpt lat="47.742325" lon="9.250462"></trkpt>
      <trkpt lat="47.74188" lon="9.249504"></trkpt>
      <trkpt lat="47.741006" lon="9.248227"></trkpt>
      <trkpt lat="47.740334" lon="9.24759"></trkpt>
      <trkpt lat="47.739874" lon="9.247369"></trkpt>
      <trkpt lat="47.738839" lon="9.246006"></trkpt>
      <trkpt lat="47.738113" lon="9.244023"></trkpt>
      <trkpt lat="47.737963" lon="9.243031"></trkpt>
      <trkpt lat="47.737825" lon="9.242922"></trkpt>
      <trkpt lat="47.737453" lon="9.242899"></trkpt>
      <trkpt lat="47.736277" lon="9.243026"></trkpt>
      <trkpt lat="47.73585" lon="9.242808"></trkpt>
      <trkpt lat="47.735288" lon="9.242805"></trkpt>
      <trkpt lat="47.73556" lon="9.240023"></trkpt>
      <trkpt lat="47.735766" lon="9.239812"></trkpt>
      <trkpt lat="47.736143" lon="9.239775"></trkpt>
      <trkpt lat="47.737025" lon="9.239918"></trkpt>
      <trkpt lat="47.737625" lon="9.239876"></trkpt>
      <trkpt lat="47.738236" lon="9.239637"></trkpt>
      <trkpt lat="47.738701" lon="9.239277"></trkpt>
      <trkpt lat="47.744103" lon="9.231693"></trkpt>
      <trkpt lat="47.744504" lon="9.230814"></trkpt>
      <trkpt lat="47.744881" lon="9.229317"></trkpt>
      <trkpt lat="47.744957" lon="9.227861"></trkpt>
      <trkpt lat="47.744863" lon="9.225767"></trkpt>
      <trkpt lat="47.745098" lon="9.224682"></trkpt>
      <trkpt lat="47.746582" lon="9.222129"></trkpt>
      <trkpt lat="47.747652" lon="9.219419"></trkpt>
      <trkpt lat="47.749591" lon="9.21678"></trkpt>
      <trkpt lat="47.750185" lon="9.215351"></trkpt>
      <trkpt lat="47.750453" lon="9.21357"></trkpt>
      <trkpt lat="47.750443" lon="9.210043"></trkpt>
      <trkpt lat="47.750672" lon="9.208629"></trkpt>
      <trkpt lat="47.751033" lon="9.207448"></trkpt>
      <trkpt lat="47.751677" lon="9.206246"></trkpt>
      <trkpt lat="47.753701" lon="9.203815"></trkpt>
      <trkpt lat="47.756834" lon="9.199034"></trkpt>
      <trkpt lat="47.759077" lon="9.195312"></trkpt>
      <trkpt lat="47.759741" lon="9.194531"></trkpt>
      <trkpt lat="47.760502" lon="9.193997"></trkpt>
      <trkpt lat="47.76112" lon="9.193823"></trkpt>
      <trkpt lat="47.763094" lon="9.193618"></trkpt>
      <trkpt lat="47.764073" lon="9.193156"></trkpt>
      <trkpt lat="47.764933" lon="9.192432"></trkpt>
      <trkpt lat="47.768328" lon="9.188754"></trkpt>
      <trkpt lat="47.769531" lon="9.187646"></trkpt>
      <trkpt lat="47.770164" lon="9.18722"></trkpt>
      <trkpt lat="47.771746" lon="9.186507"></trkpt>
      <trkpt lat="47.774958" lon="9.185596"></trkpt>
      <trkpt lat="47.775606" lon="9.185305"></trkpt>
      <trkpt lat="47.77672" lon="9.184515"></trkpt>
      <trkpt lat="47.777484" lon="9.183575"></trkpt>
      <trkpt lat="47.778613" lon="9.181845"></trkpt>
      <trkpt lat="47.779264" lon="9.181169"></trkpt>
      <trkpt lat="47.780842" lon="9.179907"></trkpt>
      <trkpt lat="47.781598" lon="9.178916"></trkpt>
      <trkpt lat="47.782126" lon="9.177852"></trkpt>
      <trkpt lat="47.782904" lon="9.175439"></trkpt>
      <trkpt lat="47.783398" lon="9.174453"></trkpt>
      <trkpt lat="47.786637" lon="9.169982"></trkpt>
      <trkpt lat="47.787759" lon="9.16812"></trkpt>
      <trkpt lat="47.788412" lon="9.166498"></trkpt>
      <trkpt lat="47.789683" lon="9.162636"></trkpt>
      <trkpt lat="47.791493" lon="9.159149"></trkpt>
      <trkpt lat="47.792309" lon="9.156766"></trkpt>
      <trkpt lat="47.792716" lon="9.154215"></trkpt>
      <trkpt lat="47.792746" lon="9.150369"></trkpt>
      <trkpt lat="47.792875" lon="9.148312"></trkpt>
      <trkpt lat="47.793416" lon="9.145791"></trkpt>
      <trkpt lat="47.793913" lon="9.144378"></trkpt>
      <trkpt lat="47.795117" lon="9.14226"></trkpt>
      <trkpt lat="47.797835" lon="9.13856"></trkpt>
      <trkpt lat="47.799722" lon="9.135497"></trkpt>
      <trkpt lat="47.800768" lon="9.133393"></trkpt>
      <trkpt lat="47.803458" lon="9.127076"></trkpt>
      <trkpt lat="47.805071" lon="9.123885"></trkpt>
      <trkpt lat="47.807207" lon="9.120775"></trkpt>
      <trkpt lat="47.81033" lon="9.117234"></trkpt>
      <trkpt lat="47.811533" lon="9.115706"></trkpt>
      <trkpt lat="47.812588" lon="9.114069"></trkpt>
      <trkpt lat="47.813617" lon="9.112071"></trkpt>
      <trkpt lat="47.814696" lon="9.109457"></trkpt>
      <trkpt lat="47.815642" lon="9.106771"></trkpt>
      <trkpt lat="47.826108" lon="9.073111"></trkpt>
      <trkpt lat="47.828048" lon="9.067556"></trkpt>
      <trkpt lat="47.83055" lon="9.061284"></trkpt>
      <trkpt lat="47.832819" lon="9.056246"></trkpt>
      <trkpt lat="47.835093" lon="9.0517"></trkpt>
      <trkpt lat="47.839144" lon="9.044188"></trkpt>
      <trkpt lat="47.84078" lon="9.040333"></trkpt>
      <trkpt lat="47.841583" lon="9.037575"></trkpt>
      <trkpt lat="47.842049" lon="9.035466"></trkpt>
      <trkpt lat="47.842337" lon="9.032679"></trkpt>
      <trkpt lat="47.842369" lon="9.030013"></trkpt>
      <trkpt lat="47.842006" lon="9.026295"></trkpt>
      <trkpt lat="47.839951" lon="9.016288"></trkpt>
      <trkpt lat="47.839336" lon="9.011638"></trkpt>
      <trkpt lat="47.839117" lon="9.008258"></trkpt>
      <trkpt lat="47.838967" lon="8.999283"></trkpt>
      <trkpt lat="47.83881" lon="8.996089"></trkpt>
      <trkpt lat="47.838285" lon="8.991142"></trkpt>
      <trkpt lat="47.837227" lon="8.985119"></trkpt>
      <trkpt lat="47.837298" lon="8.984674"></trkpt>
      <trkpt lat="47.837603" lon="8.984271"></trkpt>
      <trkpt lat="47.83788" lon="8.984227"></trkpt>
      <trkpt lat="47.838221" lon="8.984433"></trkpt>
      <trkpt lat="47.838901" lon="8.987956"></trkpt>
      <trkpt lat="47.838851" lon="8.988487"></trkpt>
      <trkpt lat="47.838558" lon="8.989239"></trkpt>
      <trkpt lat="47.837865" lon="8.988861"></trkpt>
      <trkpt lat="47.837307" lon="8.988768"></trkpt>
      <trkpt lat="47.836584" lon="8.988915"></trkpt>
      <trkpt lat="47.835746" lon="8.989294"></trkpt>
      <trkpt lat="47.834859" lon="8.990028"></trkpt>
      <trkpt lat="47.834169" lon="8.990839"></trkpt>
      <trkpt lat="47.83237" lon="8.993843"></trkpt>
      <trkpt lat="47.831755" lon="8.994662"></trkpt>
      <trkpt lat="47.830638" lon="8.995808"></trkpt>
      <trkpt lat="47.829684" lon="8.996312"></trkpt>
      <trkpt lat="47.828021" lon="8.996595"></trkpt>
      <trkpt lat="47.827275" lon="8.996907"></trkpt>
      <trkpt lat="47.826412" lon="8.997514"></trkpt>
      <trkpt lat="47.825857" lon="8.998075"></trkpt>
      <trkpt lat="47.825135" lon="8.999285"></trkpt>
      <trkpt lat="47.824767" lon="9.00033"></trkpt>
      <trkpt lat="47.823353" lon="9.006065"></trkpt>
      <trkpt lat="47.822366" lon="9.00898"></trkpt>
      <trkpt lat="47.82207" lon="9.009608"></trkpt>
      <trkpt lat="47.82112" lon="9.011046"></trkpt>
      <trkpt lat="47.820802" lon="9.011426"></trkpt>
      <trkpt lat="47.820497" lon="9.011486"></trkpt>
      <trkpt lat="47.82016" lon="9.01135"></trkpt>
      <trkpt lat="47.81952" lon="9.010392"></trkpt>
      <trkpt lat="47.818788" lon="9.009904"></trkpt>
      <trkpt lat="47.817592" lon="9.008722"></trkpt>
      <trkpt lat="47.81725" lon="9.008121"></trkpt>
      <trkpt lat="47.817069" lon="9.007176"></trkpt>
      <trkpt lat="47.817476" lon="9.004552"></trkpt>
      <trkpt lat="47.81732" lon="9.002631"></trkpt>
      <trkpt lat="47.81553" lon="8.99634"></trkpt>
      <trkpt lat="47.814909" lon="8.994506"></trkpt>
      <trkpt lat="47.814216" lon="8.99335"></trkpt>
      <trkpt lat="47.813432" lon="8.992654"></trkpt>
      <trkpt lat="47.812862" lon="8.992347"></trkpt>
      <trkpt lat="47.809641" lon="8.991053"></trkpt>
      <trkpt lat="47.80855" lon="8.991116"></trkpt>
      <trkpt lat="47.807925" lon="8.991273"></trkpt>
      <trkpt lat="47.807128" lon="8.991641"></trkpt>
      <trkpt lat="47.805683" lon="8.992562"></trkpt>
      <trkpt lat="47.804944" lon="8.992839"></trkpt>
      <trkpt lat="47.803952" lon="8.992826"></trkpt>
      <trkpt lat="47.803027" lon="8.992382"></trkpt>
      <trkpt lat="47.802092" lon="8.991425"></trkpt>
      <trkpt lat="47.800507" lon="8.988505"></trkpt>
      <trkpt lat="47.798038" lon="8.985949"></trkpt>
      <trkpt lat="47.795627" lon="8.982214"></trkpt>
      <trkpt lat="47.794829" lon="8.981419"></trkpt>
      <trkpt lat="47.794245" lon="8.981028"></trkpt>
      <trkpt lat="47.790483" lon="8.979595"></trkpt>
      <trkpt lat="47.789947" lon="8.97952"></trkpt>
      <trkpt lat="47.787531" lon="8.97979"></trkpt>
      <trkpt lat="47.785485" lon="8.980248"></trkpt>
      <trkpt lat="47.78493" lon="8.980234"></trkpt>
      <trkpt lat="47.783242" lon="8.979817"></trkpt>
      <trkpt lat="47.782587" lon="8.979781"></trkpt>
      <trkpt lat="47.778058" lon="8.980409"></trkpt>
      <trkpt lat="47.777527" lon="8.980541"></trkpt>
      <trkpt lat="47.775218" lon="8.981926"></trkpt>
      <trkpt lat="47.77446" lon="8.982266"></trkpt>
      <trkpt lat="47.771129" lon="8.983009"></trkpt>
      <trkpt lat="47.769635" lon="8.983848"></trkpt>
      <trkpt lat="47.767207" lon="8.985556"></trkpt>
      <trkpt lat="47.766631" lon="8.985805"></trkpt>
      <trkpt lat="47.766149" lon="8.985871"></trkpt>
      <trkpt lat="47.765356" lon="8.985747"></trkpt>
      <trkpt lat="47.764333" lon="8.985155"></trkpt>
      <trkpt lat="47.763938" lon="8.984782"></trkpt>
      <trkpt lat="47.762816" lon="8.983113"></trkpt>
      <trkpt lat="47.762826" lon="8.982573"></trkpt>
      <trkpt lat="47.76393" lon="8.981125"></trkpt>
      <trkpt lat="47.764205" lon="8.981092"></trkpt>
      <trkpt lat="47.764429" lon="8.981318"></trkpt>
      <trkpt lat="47.764448" lon="8.982049"></trkpt>
      <trkpt lat="47.763205" lon="8.984438"></trkpt>
      <trkpt lat="47.761303" lon="8.987707"></trkpt>
      <trkpt lat="47.755847" lon="8.995107"></trkpt>
      <trkpt lat="47.75367" lon="8.998394"></trkpt>
      <trkpt lat="47.751824" lon="9.001926"></trkpt>
      <trkpt lat="47.748978" lon="9.00795"></trkpt>
      <trkpt lat="47.747222" lon="9.010807"></trkpt>
      <trkpt lat="47.745746" lon="9.012646"></trkpt>
      <trkpt lat="47.744625" lon="9.01376"></trkpt>
      <trkpt lat="47.740054" lon="9.017565"></trkpt>
      <trkpt lat="47.737457" lon="9.020232"></trkpt>
      <trkpt lat="47.735178" lon="9.023175"></trkpt>
      <trkpt lat="47.733737" lon="9.025451"></trkpt>
      <trkpt lat="47.73281" lon="9.02716"></trkpt>
      <trkpt lat="47.731608" lon="9.029722"></trkpt>
      <trkpt lat="47.73006" lon="9.033644"></trkpt>
      <trkpt lat="47.728411" lon="9.038193"></trkpt>
      <trkpt lat="47.727645" lon="9.040979"></trkpt>
      <trkpt lat="47.726665" lon="9.047152"></trkpt>
      <trkpt lat="47.724861" lon="9.055883"></trkpt>
      <trkpt lat="47.724598" lon="9.058288"></trkpt>
      <trkpt lat="47.724461" lon="9.063892"></trkpt>
      <trkpt lat="47.724272" lon="9.065628"></trkpt>
      <trkpt lat="47.723716" lon="9.067991"></trkpt>
      <trkpt lat="47.722674" lon="9.07089"></trkpt>
      <trkpt lat="47.721119" lon="9.072983"></trkpt>
      <trkpt lat="47.719092" lon="9.074486"></trkpt>
      <trkpt lat="47.717386" lon="9.075506"></trkpt>
      <trkpt lat="47.716119" lon="9.076757"></trkpt>
      <trkpt lat="47.714022" lon="9.080006"></trkpt>
      <trkpt lat="47.712851" lon="9.082225"></trkpt>
      <trkpt lat="47.712429" lon="9.083534"></trkpt>
      <trkpt lat="47.711208" lon="9.084688"></trkpt>
      <trkpt lat="47.710404" lon="9.086913"></trkpt>
      <trkpt lat="47.709035" lon="9.092237"></trkpt>
      <trkpt lat="47.708163" lon="9.093645"></trkpt>
      <trkpt lat="47.708086" lon="9.095797"></trkpt>
      <trkpt lat="47.707708" lon="9.0974"></trkpt>
      <trkpt lat="47.706754" lon="9.099227"></trkpt>
      <trkpt lat="47.706137" lon="9.101582"></trkpt>
      <trkpt lat="47.704287" lon="9.104796"></trkpt>
      <trkpt lat="47.703694" lon="9.10642"></trkpt>
      <trkpt lat="47.702537" lon="9.109023"></trkpt>
      <trkpt lat="47.701862" lon="9.110026"></trkpt>
      <trkpt lat="47.700557" lon="9.111159"></trkpt>
      <trkpt lat="47.69784" lon="9.112463"></trkpt>
      <trkpt lat="47.695253" lon="9.114228"></trkpt>
      <trkpt lat="47.693313" lon="9.115047"></trkpt>
      <trkpt lat="47.692389" lon="9.115603"></trkpt>
      <trkpt lat="47.690737" lon="9.117234"></trkpt>
      <trkpt lat="47.689206" lon="9.11937"></trkpt>
      <trkpt lat="47.682701" lon="9.132583"></trkpt>
      <trkpt lat="47.679081" lon="9.142315"></trkpt>
      <trkpt lat="47.678449" lon="9.144345"></trkpt>
      <trkpt lat="47.677835" lon="9.14719"></trkpt>
      <trkpt lat="47.677428" lon="9.148464"></trkpt>
      <trkpt lat="47.676978" lon="9.14935"></trkpt>
      <trkpt lat="47.675365" lon="9.151841"></trkpt>
      <trkpt lat="47.674876" lon="9.152886"></trkpt>
      <trkpt lat="47.673411" lon="9.157518"></trkpt>
      <trkpt lat="47.673243" lon="9.159269"></trkpt>
      <trkpt lat="47.673328" lon="9.161735"></trkpt>
      <trkpt lat="47.673223" lon="9.162316"></trkpt>
      <trkpt lat="47.672979" lon="9.162819"></trkpt>
      <trkpt lat="47.672595" lon="9.163176"></trkpt>
      <trkpt lat="47.672064" lon="9.163271"></trkpt>
      <trkpt lat="47.661991" lon="9.161305"></trkpt>
      <trkpt lat="47.657334" lon="9.167935"></trkpt>
      <trkpt lat="47.657119" lon="9.168968"></trkpt>
      <trkpt lat="47.657618" lon="9.169561"></trkpt>
      <trkpt lat="47.658434" lon="9.169667"></trkpt>
      <trkpt lat="47.658568" lon="9.169845"></trkpt>
      <trkpt lat="47.658628" lon="9.170323"></trkpt>
      <trkpt lat="47.658458" lon="9.170797"></trkpt>
      <trkpt lat="47.657731" lon="9.176653"></trkpt>
      <trkpt lat="47.657569" lon="9.176853"></trkpt>
      <trkpt lat="47.654819" lon="9.176343"></trkpt>
      <trkpt lat="47.654617" lon="9.176418"></trkpt>
      <trkpt lat="47.65453" lon="9.17672"></trkpt>
      <trkpt lat="47.654699" lon="9.177112"></trkpt>
      <trkpt lat="47.655816" lon="9.177609"></trkpt>
      <trkpt lat="47.655912" lon="9.177876"></trkpt>
      <trkpt lat="47.656019" lon="9.17775"></trkpt>
      <trkpt lat="47.656759" lon="9.177892"></trkpt>
      <trkpt lat="47.657124" lon="9.178928"></trkpt>
      <trkpt lat="47.657436" lon="9.178792"></trkpt>
      <trkpt lat="47.657659" lon="9.179864"></trkpt>
  </trkseg></trk>
</gpx>
