<?xml version="1.0" encoding="UTF-8"?>
<gpx version="1.1" creator="yatutbuv" xmlns="http://www.topografix.com/GPX/1/1">
  <trk><name>GraphHopper Track</name><trkseg>
      <trkpt lat="45.365215" lon="36.625862"></trkpt>
      <trkpt lat="45.365518" lon="36.625356"></trkpt>
      <trkpt lat="45.365931" lon="36.623667"></trkpt>
      <trkpt lat="45.36465" lon="36.622211"></trkpt>
      <trkpt lat="45.365323" lon="36.620747"></trkpt>
      <trkpt lat="45.365921" lon="36.618683"></trkpt>
      <trkpt lat="45.365997" lon="36.617952"></trkpt>
      <trkpt lat="45.365856" lon="36.617021"></trkpt>
      <trkpt lat="45.365455" lon="36.616167"></trkpt>
      <trkpt lat="45.359878" lon="36.607227"></trkpt>
      <trkpt lat="45.359731" lon="36.606828"></trkpt>
      <trkpt lat="45.359784" lon="36.60596"></trkpt>
      <trkpt lat="45.360132" lon="36.604072"></trkpt>
      <trkpt lat="45.360144" lon="36.602413"></trkpt>
      <trkpt lat="45.357954" lon="36.594552"></trkpt>
      <trkpt lat="45.357514" lon="36.593609"></trkpt>
      <trkpt lat="45.35684" lon="36.592549"></trkpt>
      <trkpt lat="45.352551" lon="36.587932"></trkpt>
      <trkpt lat="45.351556" lon="36.587256"></trkpt>
      <trkpt lat="45.35007" lon="36.586878"></trkpt>
      <trkpt lat="45.349682" lon="36.586256"></trkpt>
      <trkpt lat="45.349606" lon="36.585644"></trkpt>
      <trkpt lat="45.350882" lon="36.566406"></trkpt>
      <trkpt lat="45.350885" lon="36.564618"></trkpt>
      <trkpt lat="45.350401" lon="36.556104"></trkpt>
      <trkpt lat="45.35047" lon="36.554512"></trkpt>
      <trkpt lat="45.350787" lon="36.552734"></trkpt>
      <trkpt lat="45.353905" lon="36.540391"></trkpt>
      <trkpt lat="45.354414" lon="36.539398"></trkpt>
      <trkpt lat="45.356561" lon="36.537035"></trkpt>
      <trkpt lat="45.358129" lon="36.531098"></trkpt>
      <trkpt lat="45.358663" lon="36.528013"></trkpt>
      <trkpt lat="45.362113" lon="36.519265"></trkpt>
      <trkpt lat="45.36607" lon="36.507929"></trkpt>
      <trkpt lat="45.366714" lon="36.505146"></trkpt>
      <trkpt lat="45.367634" lon="36.49919"></trkpt>
      <trkpt lat="45.36788" lon="36.497159"></trkpt>
      <trkpt lat="45.367797" lon="36.495619"></trkpt>
      <trkpt lat="45.367439" lon="36.493313"></trkpt>
      <trkpt lat="45.366497" lon="36.489092"></trkpt>
      <trkpt lat="45.36671" lon="36.488155"></trkpt>
      <trkpt lat="45.366251" lon="36.487543"></trkpt>
      <trkpt lat="45.366111" lon="36.487164"></trkpt>
      <trkpt lat="45.365918" lon="36.485652"></trkpt>
      <trkpt lat="45.365941" lon="36.480356"></trkpt>
      <trkpt lat="45.365853" lon="36.479449"></trkpt>
      <trkpt lat="45.364612" lon="36.475579"></trkpt>
      <trkpt lat="45.359186" lon="36.464813"></trkpt>
      <trkpt lat="45.358301" lon="36.459538"></trkpt>
      <trkpt lat="45.355922" lon="36.460028"></trkpt>
      <trkpt lat="45.355891" lon="36.459386"></trkpt>
      <trkpt lat="45.35543" lon="36.459057"></trkpt>
      <trkpt lat="45.354053" lon="36.455239"></trkpt>
      <trkpt lat="45.352342" lon="36.449755"></trkpt>
      <trkpt lat="45.351485" lon="36.446757"></trkpt>
      <trkpt lat="45.35011" lon="36.440801"></trkpt>
      <trkpt lat="45.347709" lon="36.433337"></trkpt>
      <trkpt lat="45.346818" lon="36.430219"></trkpt>
      <trkpt lat="45.341511" lon="36.407673"></trkpt>
      <trkpt lat="45.340757" lon="36.405512"></trkpt>
      <trkpt lat="45.339652" lon="36.402943"></trkpt>
      <trkpt lat="45.339113" lon="36.401151"></trkpt>
      <trkpt lat="45.338815" lon="36.399841"></trkpt>
      <trkpt lat="45.337777" lon="36.392193"></trkpt>
      <trkpt lat="45.335933" lon="36.380825"></trkpt>
      <trkpt lat="45.335405" lon="36.376018"></trkpt>
      <trkpt lat="45.335196" lon="36.375185"></trkpt>
      <trkpt lat="45.33494" lon="36.374558"></trkpt>
      <trkpt lat="45.33436" lon="36.37375"></trkpt>
      <trkpt lat="45.332779" lon="36.372598"></trkpt>
      <trkpt lat="45.332374" lon="36.372141"></trkpt>
      <trkpt lat="45.329746" lon="36.367911"></trkpt>
      <trkpt lat="45.324948" lon="36.359763"></trkpt>
      <trkpt lat="45.323125" lon="36.356547"></trkpt>
      <trkpt lat="45.322202" lon="36.354696"></trkpt>
      <trkpt lat="45.31916" lon="36.347585"></trkpt>
      <trkpt lat="45.318446" lon="36.344865"></trkpt>
      <trkpt lat="45.317916" lon="36.342057"></trkpt>
      <trkpt lat="45.314941" lon="36.323545"></trkpt>
      <trkpt lat="45.311857" lon="36.303012"></trkpt>
      <trkpt lat="45.311175" lon="36.300207"></trkpt>
      <trkpt lat="45.302919" lon="36.27184"></trkpt>
      <trkpt lat="45.298936" lon="36.25879"></trkpt>
      <trkpt lat="45.296219" lon="36.248773"></trkpt>
      <trkpt lat="45.29552" lon="36.246916"></trkpt>
      <trkpt lat="45.291341" lon="36.237258"></trkpt>
      <trkpt lat="45.290243" lon="36.234979"></trkpt>
      <trkpt lat="45.288577" lon="36.230876"></trkpt>
      <trkpt lat="45.284112" lon="36.216228"></trkpt>
      <trkpt lat="45.283516" lon="36.214016"></trkpt>
      <trkpt lat="45.283155" lon="36.211929"></trkpt>
      <trkpt lat="45.283047" lon="36.210684"></trkpt>
      <trkpt lat="45.283055" lon="36.208296"></trkpt>
      <trkpt lat="45.283439" lon="36.205218"></trkpt>
      <trkpt lat="45.284187" lon="36.202574"></trkpt>
      <trkpt lat="45.285993" lon="36.198355"></trkpt>
      <trkpt lat="45.286568" lon="36.19655"></trkpt>
      <trkpt lat="45.286988" lon="36.194569"></trkpt>
      <trkpt lat="45.287176" lon="36.193056"></trkpt>
      <trkpt lat="45.287216" lon="36.189686"></trkpt>
      <trkpt lat="45.285916" lon="36.180071"></trkpt>
      <trkpt lat="45.285531" lon="36.17811"></trkpt>
      <trkpt lat="45.285069" lon="36.176562"></trkpt>
      <trkpt lat="45.284308" lon="36.174687"></trkpt>
      <trkpt lat="45.283593" lon="36.173392"></trkpt>
      <trkpt lat="45.28284" lon="36.172284"></trkpt>
      <trkpt lat="45.280492" lon="36.169431"></trkpt>
      <trkpt lat="45.279655" lon="36.168109"></trkpt>
      <trkpt lat="45.279038" lon="36.166889"></trkpt>
      <trkpt lat="45.278295" lon="36.165067"></trkpt>
      <trkpt lat="45.277758" lon="36.163196"></trkpt>
      <trkpt lat="45.277322" lon="36.160276"></trkpt>
      <trkpt lat="45.277119" lon="36.149787"></trkpt>
      <trkpt lat="45.278218" lon="36.132545"></trkpt>
      <trkpt lat="45.278133" lon="36.128903"></trkpt>
      <trkpt lat="45.276865" lon="36.113198"></trkpt>
      <trkpt lat="45.276668" lon="36.108837"></trkpt>
      <trkpt lat="45.276151" lon="36.103971"></trkpt>
      <trkpt lat="45.275311" lon="36.0914"></trkpt>
      <trkpt lat="45.273427" lon="36.071307"></trkpt>
      <trkpt lat="45.273024" lon="36.065465"></trkpt>
      <trkpt lat="45.271698" lon="36.054101"></trkpt>
      <trkpt lat="45.269877" lon="36.042589"></trkpt>
      <trkpt lat="45.269618" lon="36.040277"></trkpt>
      <trkpt lat="45.269616" lon="36.038429"></trkpt>
      <trkpt lat="45.269754" lon="36.036607"></trkpt>
      <trkpt lat="45.270896" lon="36.030288"></trkpt>
      <trkpt lat="45.270993" lon="36.028462"></trkpt>
      <trkpt lat="45.270938" lon="36.026377"></trkpt>
      <trkpt lat="45.270544" lon="36.023711"></trkpt>
      <trkpt lat="45.270273" lon="36.022616"></trkpt>
      <trkpt lat="45.269667" lon="36.020801"></trkpt>
      <trkpt lat="45.267995" lon="36.016789"></trkpt>
      <trkpt lat="45.267464" lon="36.014906"></trkpt>
      <trkpt lat="45.267049" lon="36.012417"></trkpt>
      <trkpt lat="45.266906" lon="36.010555"></trkpt>
      <trkpt lat="45.268064" lon="35.981623"></trkpt>
      <trkpt lat="45.26847" lon="35.952284"></trkpt>
      <trkpt lat="45.268392" lon="35.946918"></trkpt>
      <trkpt lat="45.266106" lon="35.93054"></trkpt>
      <trkpt lat="45.263254" lon="35.919392"></trkpt>
      <trkpt lat="45.262742" lon="35.916633"></trkpt>
      <trkpt lat="45.262441" lon="35.913666"></trkpt>
      <trkpt lat="45.262004" lon="35.906645"></trkpt>
      <trkpt lat="45.262033" lon="35.900426"></trkpt>
      <trkpt lat="45.262228" lon="35.894128"></trkpt>
      <trkpt lat="45.264193" lon="35.876916"></trkpt>
      <trkpt lat="45.267817" lon="35.853038"></trkpt>
      <trkpt lat="45.268271" lon="35.844916"></trkpt>
      <trkpt lat="45.268801" lon="35.83884"></trkpt>
      <trkpt lat="45.268861" lon="35.835536"></trkpt>
      <trkpt lat="45.268451" lon="35.832232"></trkpt>
      <trkpt lat="45.260354" lon="35.788784"></trkpt>
      <trkpt lat="45.259053" lon="35.782104"></trkpt>
      <trkpt lat="45.258247" lon="35.779155"></trkpt>
      <trkpt lat="45.245738" lon="35.74675"></trkpt>
      <trkpt lat="45.244864" lon="35.744064"></trkpt>
      <trkpt lat="45.243063" lon="35.737524"></trkpt>
      <trkpt lat="45.241642" lon="35.730147"></trkpt>
      <trkpt lat="45.241418" lon="35.727724"></trkpt>
      <trkpt lat="45.241444" lon="35.725603"></trkpt>
      <trkpt lat="45.241694" lon="35.72233"></trkpt>
      <trkpt lat="45.241707" lon="35.719213"></trkpt>
      <trkpt lat="45.242084" lon="35.713656"></trkpt>
      <trkpt lat="45.242069" lon="35.711081"></trkpt>
      <trkpt lat="45.241598" lon="35.707649"></trkpt>
      <trkpt lat="45.241038" lon="35.70569"></trkpt>
      <trkpt lat="45.240437" lon="35.704134"></trkpt>
      <trkpt lat="45.239606" lon="35.702471"></trkpt>
      <trkpt lat="45.238839" lon="35.701248"></trkpt>
      <trkpt lat="45.23746" lon="35.69966"></trkpt>
      <trkpt lat="45.235613" lon="35.698212"></trkpt>
      <trkpt lat="45.233211" lon="35.696914"></trkpt>
      <trkpt lat="45.232417" lon="35.696345"></trkpt>
      <trkpt lat="45.23114" lon="35.695149"></trkpt>
      <trkpt lat="45.229999" lon="35.693749"></trkpt>
      <trkpt lat="45.22913" lon="35.692402"></trkpt>
      <trkpt lat="45.226135" lon="35.686302"></trkpt>
      <trkpt lat="45.224764" lon="35.683181"></trkpt>
      <trkpt lat="45.221158" lon="35.676389"></trkpt>
      <trkpt lat="45.21976" lon="35.67418"></trkpt>
      <trkpt lat="45.21378" lon="35.666556"></trkpt>
      <trkpt lat="45.213078" lon="35.665423"></trkpt>
      <trkpt lat="45.21219" lon="35.663642"></trkpt>
      <trkpt lat="45.211233" lon="35.660722"></trkpt>
      <trkpt lat="45.209529" lon="35.650239"></trkpt>
      <trkpt lat="45.2093" lon="35.649085"></trkpt>
      <trkpt lat="45.208907" lon="35.647862"></trkpt>
      <trkpt lat="45.208446" lon="35.646832"></trkpt>
      <trkpt lat="45.207509" lon="35.645308"></trkpt>
      <trkpt lat="45.20326" lon="35.640893"></trkpt>
      <trkpt lat="45.202708" lon="35.640169"></trkpt>
      <trkpt lat="45.201801" lon="35.63857"></trkpt>
      <trkpt lat="45.200936" lon="35.635952"></trkpt>
      <trkpt lat="45.200641" lon="35.633957"></trkpt>
      <trkpt lat="45.199639" lon="35.615664"></trkpt>
      <trkpt lat="45.199446" lon="35.613797"></trkpt>
      <trkpt lat="45.199265" lon="35.61251"></trkpt>
      <trkpt lat="45.198611" lon="35.609763"></trkpt>
      <trkpt lat="45.19829" lon="35.608707"></trkpt>
      <trkpt lat="45.197243" lon="35.606309"></trkpt>
      <trkpt lat="45.196592" lon="35.605134"></trkpt>
      <trkpt lat="45.195466" lon="35.603578"></trkpt>
      <trkpt lat="45.194127" lon="35.602098"></trkpt>
      <trkpt lat="45.192622" lon="35.600835"></trkpt>
      <trkpt lat="45.191077" lon="35.59993"></trkpt>
      <trkpt lat="45.190351" lon="35.599625"></trkpt>
      <trkpt lat="45.189069" lon="35.599206"></trkpt>
      <trkpt lat="45.18592" lon="35.598514"></trkpt>
      <trkpt lat="45.184113" lon="35.597738"></trkpt>
      <trkpt lat="45.183033" lon="35.597079"></trkpt>
      <trkpt lat="45.18153" lon="35.595848"></trkpt>
      <trkpt lat="45.17986" lon="35.59399"></trkpt>
      <trkpt lat="45.178786" lon="35.592445"></trkpt>
      <trkpt lat="45.172487" lon="35.580726"></trkpt>
      <trkpt lat="45.170762" lon="35.577149"></trkpt>
      <trkpt lat="45.166791" lon="35.57014"></trkpt>
      <trkpt lat="45.165966" lon="35.568323"></trkpt>
      <trkpt lat="45.164959" lon="35.565282"></trkpt>
      <trkpt lat="45.154534" lon="35.532445"></trkpt>
      <trkpt lat="45.153843" lon="35.529841"></trkpt>
      <trkpt lat="45.153402" lon="35.527639"></trkpt>
      <trkpt lat="45.153012" lon="35.523688"></trkpt>
      <trkpt lat="45.153049" lon="35.519298"></trkpt>
      <trkpt lat="45.154325" lon="35.505568"></trkpt>
      <trkpt lat="45.154457" lon="35.502939"></trkpt>
      <trkpt lat="45.154322" lon="35.499036"></trkpt>
      <trkpt lat="45.153985" lon="35.496322"></trkpt>
      <trkpt lat="45.153573" lon="35.494246"></trkpt>
      <trkpt lat="45.152457" lon="35.490335"></trkpt>
      <trkpt lat="45.151398" lon="35.487717"></trkpt>
      <trkpt lat="45.142711" lon="35.468743"></trkpt>
      <trkpt lat="45.142041" lon="35.466968"></trkpt>
      <trkpt lat="45.141175" lon="35.463256"></trkpt>
      <trkpt lat="45.140879" lon="35.460107"></trkpt>
      <trkpt lat="45.141069" lon="35.449904"></trkpt>
      <trkpt lat="45.140974" lon="35.445671"></trkpt>
      <trkpt lat="45.140792" lon="35.442839"></trkpt>
      <trkpt lat="45.136697" lon="35.406039"></trkpt>
      <trkpt lat="45.136254" lon="35.384092"></trkpt>
      <trkpt lat="45.136262" lon="35.379942"></trkpt>
      <trkpt lat="45.13638" lon="35.379045"></trkpt>
      <trkpt lat="45.136592" lon="35.37846"></trkpt>
      <trkpt lat="45.137118" lon="35.37787"></trkpt>
      <trkpt lat="45.138023" lon="35.377414"></trkpt>
      <trkpt lat="45.138159" lon="35.377189"></trkpt>
      <trkpt lat="45.138265" lon="35.376336"></trkpt>
      <trkpt lat="45.156261" lon="35.377304"></trkpt>
      <trkpt lat="45.156782" lon="35.377159"></trkpt>
      <trkpt lat="45.15848" lon="35.375535"></trkpt>
      <trkpt lat="45.158808" lon="35.375357"></trkpt>
      <trkpt lat="45.163136" lon="35.3747"></trkpt>
      <trkpt lat="45.163843" lon="35.374233"></trkpt>
      <trkpt lat="45.164846" lon="35.373094"></trkpt>
      <trkpt lat="45.165603" lon="35.373759"></trkpt>
      <trkpt lat="45.167077" lon="35.37205"></trkpt>
      <trkpt lat="45.16877" lon="35.370923"></trkpt>
      <trkpt lat="45.170121" lon="35.37018"></trkpt>
      <trkpt lat="45.1716" lon="35.369079"></trkpt>
      <trkpt lat="45.172262" lon="35.368382"></trkpt>
      <trkpt lat="45.172561" lon="35.367592"></trkpt>
      <trkpt lat="45.172776" lon="35.365714"></trkpt>
      <trkpt lat="45.172435" lon="35.347374"></trkpt>
      <trkpt lat="45.170732" lon="35.321393"></trkpt>
      <trkpt lat="45.171563" lon="35.290584"></trkpt>
      <trkpt lat="45.166155" lon="35.273395"></trkpt>
      <trkpt lat="45.165999" lon="35.272034"></trkpt>
      <trkpt lat="45.166038" lon="35.271376"></trkpt>
      <trkpt lat="45.166212" lon="35.270799"></trkpt>
      <trkpt lat="45.166743" lon="35.269783"></trkpt>
      <trkpt lat="45.170338" lon="35.265805"></trkpt>
      <trkpt lat="45.171317" lon="35.264501"></trkpt>
      <trkpt lat="45.172286" lon="35.262915"></trkpt>
      <trkpt lat="45.17476" lon="35.25859"></trkpt>
      <trkpt lat="45.178711" lon="35.252056"></trkpt>
      <trkpt lat="45.179589" lon="35.250142"></trkpt>
      <trkpt lat="45.180393" lon="35.247668"></trkpt>
      <trkpt lat="45.181103" lon="35.244588"></trkpt>
      <trkpt lat="45.181506" lon="35.241364"></trkpt>
      <trkpt lat="45.181514" lon="35.236994"></trkpt>
      <trkpt lat="45.178908" lon="35.223403"></trkpt>
      <trkpt lat="45.178936" lon="35.223022"></trkpt>
      <trkpt lat="45.179055" lon="35.22275"></trkpt>
      <trkpt lat="45.179268" lon="35.222619"></trkpt>
      <trkpt lat="45.185391" lon="35.222248"></trkpt>
      <trkpt lat="45.183857" lon="35.211054"></trkpt>
      <trkpt lat="45.183745" lon="35.208995"></trkpt>
      <trkpt lat="45.183815" lon="35.207685"></trkpt>
      <trkpt lat="45.184221" lon="35.205339"></trkpt>
      <trkpt lat="45.188745" lon="35.192972"></trkpt>
      <trkpt lat="45.189303" lon="35.189695"></trkpt>
      <trkpt lat="45.189831" lon="35.187846"></trkpt>
      <trkpt lat="45.195013" lon="35.175809"></trkpt>
      <trkpt lat="45.199706" lon="35.168816"></trkpt>
      <trkpt lat="45.202693" lon="35.164841"></trkpt>
      <trkpt lat="45.207053" lon="35.158018"></trkpt>
      <trkpt lat="45.210633" lon="35.15029"></trkpt>
      <trkpt lat="45.211609" lon="35.147877"></trkpt>
      <trkpt lat="45.212381" lon="35.145521"></trkpt>
      <trkpt lat="45.21768" lon="35.122685"></trkpt>
      <trkpt lat="45.21814" lon="35.120786"></trkpt>
      <trkpt lat="45.218704" lon="35.119324"></trkpt>
      <trkpt lat="45.219345" lon="35.118125"></trkpt>
      <trkpt lat="45.220742" lon="35.116328"></trkpt>
      <trkpt lat="45.222206" lon="35.114849"></trkpt>
      <trkpt lat="45.226788" lon="35.110974"></trkpt>
      <trkpt lat="45.227368" lon="35.110375"></trkpt>
      <trkpt lat="45.228356" lon="35.10899"></trkpt>
      <trkpt lat="45.228874" lon="35.107863"></trkpt>
      <trkpt lat="45.230473" lon="35.102768"></trkpt>
      <trkpt lat="45.232769" lon="35.09674"></trkpt>
      <trkpt lat="45.23311" lon="35.095949"></trkpt>
      <trkpt lat="45.234489" lon="35.093621"></trkpt>
      <trkpt lat="45.235035" lon="35.092237"></trkpt>
      <trkpt lat="45.235266" lon="35.091378"></trkpt>
      <trkpt lat="45.239336" lon="35.06849"></trkpt>
      <trkpt lat="45.23956" lon="35.066351"></trkpt>
      <trkpt lat="45.239766" lon="35.063003"></trkpt>
      <trkpt lat="45.23984" lon="35.053561"></trkpt>
      <trkpt lat="45.239489" lon="35.045394"></trkpt>
      <trkpt lat="45.239574" lon="35.043"></trkpt>
      <trkpt lat="45.240037" lon="35.037891"></trkpt>
      <trkpt lat="45.240332" lon="35.036694"></trkpt>
      <trkpt lat="45.240886" lon="35.035868"></trkpt>
      <trkpt lat="45.243494" lon="35.032896"></trkpt>
      <trkpt lat="45.244449" lon="35.031085"></trkpt>
      <trkpt lat="45.244652" lon="35.03004"></trkpt>
      <trkpt lat="45.244816" lon="35.027973"></trkpt>
      <trkpt lat="45.244987" lon="35.022854"></trkpt>
      <trkpt lat="45.245587" lon="35.014562"></trkpt>
      <trkpt lat="45.246014" lon="35.012623"></trkpt>
      <trkpt lat="45.250133" lon="35.003259"></trkpt>
      <trkpt lat="45.253703" lon="34.995902"></trkpt>
      <trkpt lat="45.253961" lon="34.994863"></trkpt>
      <trkpt lat="45.254347" lon="34.984582"></trkpt>
      <trkpt lat="45.254254" lon="34.979585"></trkpt>
      <trkpt lat="45.254588" lon="34.969088"></trkpt>
      <trkpt lat="45.255011" lon="34.965003"></trkpt>
      <trkpt lat="45.255341" lon="34.955173"></trkpt>
      <trkpt lat="45.255615" lon="34.953619"></trkpt>
      <trkpt lat="45.258649" lon="34.947609"></trkpt>
      <trkpt lat="45.259306" lon="34.946804"></trkpt>
      <trkpt lat="45.259888" lon="34.946541"></trkpt>
      <trkpt lat="45.260918" lon="34.946523"></trkpt>
      <trkpt lat="45.262062" lon="34.946652"></trkpt>
      <trkpt lat="45.271202" lon="34.948158"></trkpt>
      <trkpt lat="45.273803" lon="34.949445"></trkpt>
      <trkpt lat="45.276566" lon="34.951633"></trkpt>
      <trkpt lat="45.277259" lon="34.951888"></trkpt>
      <trkpt lat="45.277796" lon="34.951822"></trkpt>
      <trkpt lat="45.278253" lon="34.951615"></trkpt>
      <trkpt lat="45.279058" lon="34.950693"></trkpt>
      <trkpt lat="45.279773" lon="34.949305"></trkpt>
      <trkpt lat="45.280243" lon="34.947493"></trkpt>
      <trkpt lat="45.27854" lon="34.947406"></trkpt>
      <trkpt lat="45.278222" lon="34.9472"></trkpt>
      <trkpt lat="45.278078" lon="34.946795"></trkpt>
      <trkpt lat="45.278224" lon="34.938266"></trkpt>
      <trkpt lat="45.278066" lon="34.937702"></trkpt>
      <trkpt lat="45.277508" lon="34.937342"></trkpt>
      <trkpt lat="45.27336" lon="34.937219"></trkpt>
      <trkpt lat="45.273302" lon="34.937144"></trkpt>
      <trkpt lat="45.273357" lon="34.934774"></trkpt>
      <trkpt lat="45.273242" lon="34.934195"></trkpt>
      <trkpt lat="45.273331" lon="34.932467"></trkpt>
      <trkpt lat="45.273263" lon="34.932097"></trkpt>
      <trkpt lat="45.273738" lon="34.929404"></trkpt>
      <trkpt lat="45.276544" lon="34.923392"></trkpt>
      <trkpt lat="45.27666" lon="34.922875"></trkpt>
      <trkpt lat="45.276802" lon="34.89711"></trkpt>
      <trkpt lat="45.276924" lon="34.891864"></trkpt>
      <trkpt lat="45.276853" lon="34.887339"></trkpt>
      <trkpt lat="45.276923" lon="34.885036"></trkpt>
      <trkpt lat="45.277493" lon="34.884103"></trkpt>
      <trkpt lat="45.27309" lon="34.871294"></trkpt>
      <trkpt lat="45.270441" lon="34.862943"></trkpt>
      <trkpt lat="45.270884" lon="34.862811"></trkpt>
      <trkpt lat="45.276538" lon="34.862586"></trkpt>
      <trkpt lat="45.276717" lon="34.862426"></trkpt>
      <trkpt lat="45.276785" lon="34.861799"></trkpt>
      <trkpt lat="45.276614" lon="34.853304"></trkpt>
      <trkpt lat="45.276375" lon="34.85266"></trkpt>
      <trkpt lat="45.276169" lon="34.841595"></trkpt>
      <trkpt lat="45.276287" lon="34.841454"></trkpt>
      <trkpt lat="45.279721" lon="34.841568"></trkpt>
      <trkpt lat="45.279963" lon="34.841407"></trkpt>
      <trkpt lat="45.278696" lon="34.834932"></trkpt>
      <trkpt lat="45.278722" lon="34.831956"></trkpt>
      <trkpt lat="45.27802" lon="34.823265"></trkpt>
      <trkpt lat="45.278013" lon="34.822806"></trkpt>
      <trkpt lat="45.27818" lon="34.822121"></trkpt>
      <trkpt lat="45.280212" lon="34.819071"></trkpt>
      <trkpt lat="45.280561" lon="34.8188"></trkpt>
      <trkpt lat="45.288063" lon="34.818737"></trkpt>
      <trkpt lat="45.288184" lon="34.786449"></trkpt>
      <trkpt lat="45.28828" lon="34.785936"></trkpt>
      <trkpt lat="45.290752" lon="34.782989"></trkpt>
      <trkpt lat="45.300878" lon="34.784581"></trkpt>
      <trkpt lat="45.301211" lon="34.78485"></trkpt>
      <trkpt lat="45.304906" lon="34.789689"></trkpt>
      <trkpt lat="45.308284" lon="34.793914"></trkpt>
      <trkpt lat="45.308605" lon="34.794184"></trkpt>
      <trkpt lat="45.322173" lon="34.794619"></trkpt>
      <trkpt lat="45.322371" lon="34.794994"></trkpt>
      <trkpt lat="45.3228" lon="34.802419"></trkpt>
      <trkpt lat="45.324998" lon="34.809611"></trkpt>
      <trkpt lat="45.325204" lon="34.809759"></trkpt>
      <trkpt lat="45.331069" lon="34.809829"></trkpt>
      <trkpt lat="45.33132" lon="34.809984"></trkpt>
      <trkpt lat="45.331413" lon="34.810415"></trkpt>
      <trkpt lat="45.330858" lon="34.814512"></trkpt>
      <trkpt lat="45.331008" lon="34.814875"></trkpt>
      <trkpt lat="45.336694" lon="34.825411"></trkpt>
      <trkpt lat="45.340093" lon="34.830625"></trkpt>
      <trkpt lat="45.341169" lon="34.831724"></trkpt>
      <trkpt lat="45.367695" lon="34.854727"></trkpt>
      <trkpt lat="45.372948" lon="34.841572"></trkpt>
      <trkpt lat="45.38083" lon="34.820765"></trkpt>
      <trkpt lat="45.382514" lon="34.815858"></trkpt>
      <trkpt lat="45.384058" lon="34.80979"></trkpt>
      <trkpt lat="45.384628" lon="34.808119"></trkpt>
      <trkpt lat="45.39558" lon="34.783237"></trkpt>
      <trkpt lat="45.399103" lon="34.776354"></trkpt>
      <trkpt lat="45.399101" lon="34.775384"></trkpt>
      <trkpt lat="45.395674" lon="34.760083"></trkpt>
      <trkpt lat="45.395771" lon="34.759601"></trkpt>
      <trkpt lat="45.398203" lon="34.753394"></trkpt>
      <trkpt lat="45.398499" lon="34.752848"></trkpt>
      <trkpt lat="45.399984" lon="34.750927"></trkpt>
      <trkpt lat="45.402635" lon="34.741436"></trkpt>
      <trkpt lat="45.431205" lon="34.739592"></trkpt>
      <trkpt lat="45.431258" lon="34.735797"></trkpt>
      <trkpt lat="45.431112" lon="34.729378"></trkpt>
      <trkpt lat="45.431184" lon="34.728682"></trkpt>
      <trkpt lat="45.431514" lon="34.727689"></trkpt>
      <trkpt lat="45.431826" lon="34.727127"></trkpt>
      <trkpt lat="45.433062" lon="34.726108"></trkpt>
      <trkpt lat="45.434035" lon="34.725892"></trkpt>
      <trkpt lat="45.439278" lon="34.72576"></trkpt>
      <trkpt lat="45.451369" lon="34.725652"></trkpt>
      <trkpt lat="45.454079" lon="34.726265"></trkpt>
      <trkpt lat="45.460297" lon="34.727081"></trkpt>
      <trkpt lat="45.463354" lon="34.724475"></trkpt>
      <trkpt lat="45.47011" lon="34.7193"></trkpt>
      <trkpt lat="45.482123" lon="34.705255"></trkpt>
      <trkpt lat="45.49392" lon="34.691134"></trkpt>
      <trkpt lat="45.513535" lon="34.668045"></trkpt>
      <trkpt lat="45.517888" lon="34.66267"></trkpt>
      <trkpt lat="45.529055" lon="34.64939"></trkpt>
      <trkpt lat="45.531891" lon="34.645847"></trkpt>
      <trkpt lat="45.532412" lon="34.645563"></trkpt>
      <trkpt lat="45.532607" lon="34.644847"></trkpt>
      <trkpt lat="45.536568" lon="34.63957"></trkpt>
      <trkpt lat="45.542645" lon="34.631083"></trkpt>
      <trkpt lat="45.555256" lon="34.613319"></trkpt>
      <trkpt lat="45.559753" lon="34.606804"></trkpt>
      <trkpt lat="45.568498" lon="34.594604"></trkpt>
      <trkpt lat="45.569719" lon="34.593254"></trkpt>
      <trkpt lat="45.580975" lon="34.577505"></trkpt>
      <trkpt lat="45.582184" lon="34.575313"></trkpt>
      <trkpt lat="45.585203" lon="34.570893"></trkpt>
      <trkpt lat="45.580105" lon="34.56327"></trkpt>
      <trkpt lat="45.580187" lon="34.563035"></trkpt>
      <trkpt lat="45.581964" lon="34.560728"></trkpt>
      <trkpt lat="45.582265" lon="34.560036"></trkpt>
      <trkpt lat="45.583303" lon="34.549902"></trkpt>
      <trkpt lat="45.581542" lon="34.531606"></trkpt>
      <trkpt lat="45.581053" lon="34.518469"></trkpt>
      <trkpt lat="45.584089" lon="34.468859"></trkpt>
      <trkpt lat="45.586219" lon="34.445339"></trkpt>
      <trkpt lat="45.586409" lon="34.441555"></trkpt>
      <trkpt lat="45.586942" lon="34.404932"></trkpt>
      <trkpt lat="45.583939" lon="34.360924"></trkpt>
      <trkpt lat="45.596153" lon="34.368513"></trkpt>
      <trkpt lat="45.599898" lon="34.370479"></trkpt>
      <trkpt lat="45.602573" lon="34.370895"></trkpt>
      <trkpt lat="45.605753" lon="34.37108"></trkpt>
      <trkpt lat="45.605833" lon="34.365408"></trkpt>
      <trkpt lat="45.605778" lon="34.365062"></trkpt>
      <trkpt lat="45.605404" lon="34.364438"></trkpt>
      <trkpt lat="45.606645" lon="34.342693"></trkpt>
      <trkpt lat="45.606814" lon="34.342527"></trkpt>
      <trkpt lat="45.608435" lon="34.343364"></trkpt>
      <trkpt lat="45.609561" lon="34.344222"></trkpt>
      <trkpt lat="45.613779" lon="34.345912"></trkpt>
      <trkpt lat="45.614146" lon="34.345407"></trkpt>
      <trkpt lat="45.615338" lon="34.339981"></trkpt>
      <trkpt lat="45.655852" lon="34.357967"></trkpt>
      <trkpt lat="45.684649" lon="34.370521"></trkpt>
      <trkpt lat="45.684778" lon="34.370854"></trkpt>
      <trkpt lat="45.68499" lon="34.370741"></trkpt>
      <trkpt lat="45.687803" lon="34.373548"></trkpt>
      <trkpt lat="45.690213" lon="34.377588"></trkpt>
      <trkpt lat="45.694358" lon="34.380032"></trkpt>
      <trkpt lat="45.699742" lon="34.382164"></trkpt>
      <trkpt lat="45.700155" lon="34.381732"></trkpt>
      <trkpt lat="45.702442" lon="34.378051"></trkpt>
      <trkpt lat="45.705051" lon="34.370021"></trkpt>
      <trkpt lat="45.705339" lon="34.369693"></trkpt>
      <trkpt lat="45.705717" lon="34.369579"></trkpt>
      <trkpt lat="45.706023" lon="34.369639"></trkpt>
      <trkpt lat="45.706344" lon="34.369924"></trkpt>
      <trkpt lat="45.707772" lon="34.37256"></trkpt>
      <trkpt lat="45.708155" lon="34.372962"></trkpt>
      <trkpt lat="45.715893" lon="34.37794"></trkpt>
      <trkpt lat="45.716289" lon="34.378098"></trkpt>
      <trkpt lat="45.716726" lon="34.377956"></trkpt>
      <trkpt lat="45.717148" lon="34.375584"></trkpt>
      <trkpt lat="45.718759" lon="34.371299"></trkpt>
      <trkpt lat="45.718906" lon="34.371029"></trkpt>
      <trkpt lat="45.7193" lon="34.370759"></trkpt>
      <trkpt lat="45.719386" lon="34.370463"></trkpt>
      <trkpt lat="45.719258" lon="34.370084"></trkpt>
      <trkpt lat="45.71882" lon="34.369892"></trkpt>
      <trkpt lat="45.718593" lon="34.369407"></trkpt>
      <trkpt lat="45.717128" lon="34.352376"></trkpt>
      <trkpt lat="45.719021" lon="34.352249"></trkpt>
      <trkpt lat="45.719135" lon="34.352163"></trkpt>
      <trkpt lat="45.719843" lon="34.349462"></trkpt>
      <trkpt lat="45.719984" lon="34.349242"></trkpt>
      <trkpt lat="45.724528" lon="34.355129"></trkpt>
      <trkpt lat="45.724657" lon="34.355554"></trkpt>
      <trkpt lat="45.724309" lon="34.356445"></trkpt>
      <trkpt lat="45.724474" lon="34.356519"></trkpt>
      <trkpt lat="45.724569" lon="34.35681"></trkpt>
      <trkpt lat="45.734945" lon="34.358292"></trkpt>
      <trkpt lat="45.735043" lon="34.358138"></trkpt>
      <trkpt lat="45.73533" lon="34.355368"></trkpt>
      <trkpt lat="45.735608" lon="34.3551"></trkpt>
      <trkpt lat="45.736174" lon="34.354979"></trkpt>
      <trkpt lat="45.736756" lon="34.346394"></trkpt>
      <trkpt lat="45.736913" lon="34.345064"></trkpt>
      <trkpt lat="45.737046" lon="34.344798"></trkpt>
      <trkpt lat="45.737921" lon="34.344757"></trkpt>
      <trkpt lat="45.746336" lon="34.345766"></trkpt>
      <trkpt lat="45.749777" lon="34.339337"></trkpt>
      <trkpt lat="45.750106" lon="34.338758"></trkpt>
      <trkpt lat="45.750251" lon="34.338749"></trkpt>
      <trkpt lat="45.750514" lon="34.338407"></trkpt>
      <trkpt lat="45.750619" lon="34.337702"></trkpt>
      <trkpt lat="45.7508" lon="34.337969"></trkpt>
      <trkpt lat="45.751325" lon="34.338187"></trkpt>
      <trkpt lat="45.759033" lon="34.339014"></trkpt>
      <trkpt lat="45.759266" lon="34.338812"></trkpt>
      <trkpt lat="45.759941" lon="34.337024"></trkpt>
      <trkpt lat="45.760114" lon="34.336743"></trkpt>
      <trkpt lat="45.760725" lon="34.336216"></trkpt>
      <trkpt lat="45.761321" lon="34.336434"></trkpt>
      <trkpt lat="45.761765" lon="34.336784"></trkpt>
      <trkpt lat="45.764901" lon="34.339955"></trkpt>
      <trkpt lat="45.765855" lon="34.340278"></trkpt>
      <trkpt lat="45.765747" lon="34.349365"></trkpt>
      <trkpt lat="45.765623" lon="34.35083"></trkpt>
      <trkpt lat="45.765683" lon="34.355127"></trkpt>
      <trkpt lat="45.765784" lon="34.355787"></trkpt>
      <trkpt lat="45.766054" lon="34.356318"></trkpt>
      <trkpt lat="45.766207" lon="34.356393"></trkpt>
      <trkpt lat="45.770226" lon="34.356441"></trkpt>
      <trkpt lat="45.770611" lon="34.356339"></trkpt>
      <trkpt lat="45.772987" lon="34.356446"></trkpt>
      <trkpt lat="45.778767" lon="34.356406"></trkpt>
      <trkpt lat="45.779428" lon="34.356419"></trkpt>
      <trkpt lat="45.779732" lon="34.35654"></trkpt>
      <trkpt lat="45.780368" lon="34.357855"></trkpt>
      <trkpt lat="45.782787" lon="34.360548"></trkpt>
      <trkpt lat="45.782822" lon="34.361531"></trkpt>
      <trkpt lat="45.782517" lon="34.362401"></trkpt>
      <trkpt lat="45.784208" lon="34.363825"></trkpt>
      <trkpt lat="45.788099" lon="34.367998"></trkpt>
      <trkpt lat="45.790768" lon="34.374099"></trkpt>
      <trkpt lat="45.792126" lon="34.377987"></trkpt>
      <trkpt lat="45.792175" lon="34.378381"></trkpt>
      <trkpt lat="45.791317" lon="34.382546"></trkpt>
      <trkpt lat="45.789528" lon="34.383682"></trkpt>
      <trkpt lat="45.790468" lon="34.386281"></trkpt>
      <trkpt lat="45.792587" lon="34.383968"></trkpt>
      <trkpt lat="45.79311" lon="34.384576"></trkpt>
      <trkpt lat="45.794054" lon="34.386442"></trkpt>
      <trkpt lat="45.798402" lon="34.391812"></trkpt>
      <trkpt lat="45.798926" lon="34.392208"></trkpt>
      <trkpt lat="45.807204" lon="34.395464"></trkpt>
      <trkpt lat="45.813355" lon="34.397577"></trkpt>
      <trkpt lat="45.813501" lon="34.397725"></trkpt>
      <trkpt lat="45.814134" lon="34.399513"></trkpt>
      <trkpt lat="45.81446" lon="34.399837"></trkpt>
      <trkpt lat="45.814712" lon="34.399909"></trkpt>
      <trkpt lat="45.821805" lon="34.399655"></trkpt>
      <trkpt lat="45.821912" lon="34.399411"></trkpt>
      <trkpt lat="45.821552" lon="34.395696"></trkpt>
      <trkpt lat="45.821644" lon="34.395519"></trkpt>
      <trkpt lat="45.825107" lon="34.396522"></trkpt>
      <trkpt lat="45.826098" lon="34.396426"></trkpt>
      <trkpt lat="45.827378" lon="34.39568"></trkpt>
      <trkpt lat="45.82886" lon="34.393578"></trkpt>
      <trkpt lat="45.831157" lon="34.396617"></trkpt>
      <trkpt lat="45.832379" lon="34.39677"></trkpt>
      <trkpt lat="45.83315" lon="34.397143"></trkpt>
      <trkpt lat="45.83412" lon="34.397057"></trkpt>
      <trkpt lat="45.834846" lon="34.396449"></trkpt>
      <trkpt lat="45.83508" lon="34.396461"></trkpt>
      <trkpt lat="45.837571" lon="34.39748"></trkpt>
      <trkpt lat="45.838549" lon="34.398783"></trkpt>
      <trkpt lat="45.839383" lon="34.399286"></trkpt>
      <trkpt lat="45.839911" lon="34.399379"></trkpt>
      <trkpt lat="45.840368" lon="34.399384"></trkpt>
      <trkpt lat="45.841689" lon="34.398072"></trkpt>
      <trkpt lat="45.844126" lon="34.396259"></trkpt>
      <trkpt lat="45.843877" lon="34.395064"></trkpt>
      <trkpt lat="45.843983" lon="34.394899"></trkpt>
      <trkpt lat="45.844418" lon="34.395092"></trkpt>
      <trkpt lat="45.8466" lon="34.394447"></trkpt>
      <trkpt lat="45.846724" lon="34.394594"></trkpt>
      <trkpt lat="45.84682" lon="34.402822"></trkpt>
      <trkpt lat="45.846667" lon="34.41254"></trkpt>
      <trkpt lat="45.846648" lon="34.413393"></trkpt>
      <trkpt lat="45.846449" lon="34.413549"></trkpt>
      <trkpt lat="45.846452" lon="34.415005"></trkpt>
      <trkpt lat="45.846344" lon="34.415808"></trkpt>
      <trkpt lat="45.84646" lon="34.416163"></trkpt>
      <trkpt lat="45.846531" lon="34.424553"></trkpt>
      <trkpt lat="45.846372" lon="34.427064"></trkpt>
      <trkpt lat="45.846472" lon="34.427512"></trkpt>
      <trkpt lat="45.846455" lon="34.432691"></trkpt>
      <trkpt lat="45.846366" lon="34.433203"></trkpt>
      <trkpt lat="45.84637" lon="34.434977"></trkpt>
      <trkpt lat="45.846493" lon="34.435637"></trkpt>
      <trkpt lat="45.846428" lon="34.440666"></trkpt>
      <trkpt lat="45.846207" lon="34.440898"></trkpt>
      <trkpt lat="45.844044" lon="34.440565"></trkpt>
      <trkpt lat="45.844053" lon="34.440733"></trkpt>
      <trkpt lat="45.844225" lon="34.440873"></trkpt>
      <trkpt lat="45.844162" lon="34.441529"></trkpt>
      <trkpt lat="45.845406" lon="34.441767"></trkpt>
      <trkpt lat="45.845809" lon="34.441737"></trkpt>
      <trkpt lat="45.84594" lon="34.441847"></trkpt>
      <trkpt lat="45.846" lon="34.442374"></trkpt>
      <trkpt lat="45.845879" lon="34.443656"></trkpt>
      <trkpt lat="45.846094" lon="34.444059"></trkpt>
      <trkpt lat="45.846389" lon="34.451103"></trkpt>
      <trkpt lat="45.84662" lon="34.453607"></trkpt>
      <trkpt lat="45.846865" lon="34.454857"></trkpt>
      <trkpt lat="45.847036" lon="34.455131"></trkpt>
      <trkpt lat="45.8469" lon="34.455338"></trkpt>
      <trkpt lat="45.847628" lon="34.457307"></trkpt>
      <trkpt lat="45.847624" lon="34.458346"></trkpt>
      <trkpt lat="45.848345" lon="34.459446"></trkpt>
      <trkpt lat="45.848792" lon="34.460671"></trkpt>
      <trkpt lat="45.847999" lon="34.467002"></trkpt>
      <trkpt lat="45.848601" lon="34.469593"></trkpt>
      <trkpt lat="45.848627" lon="34.470597"></trkpt>
      <trkpt lat="45.847855" lon="34.475747"></trkpt>
      <trkpt lat="45.848091" lon="34.476523"></trkpt>
      <trkpt lat="45.848711" lon="34.477099"></trkpt>
      <trkpt lat="45.847263" lon="34.480385"></trkpt>
      <trkpt lat="45.846587" lon="34.482293"></trkpt>
      <trkpt lat="45.846284" lon="34.483498"></trkpt>
      <trkpt lat="45.846155" lon="34.489353"></trkpt>
      <trkpt lat="45.846382" lon="34.489736"></trkpt>
      <trkpt lat="45.8467" lon="34.489493"></trkpt>
      <trkpt lat="45.846685" lon="34.489836"></trkpt>
      <trkpt lat="45.846905" lon="34.490179"></trkpt>
      <trkpt lat="45.849194" lon="34.492788"></trkpt>
      <trkpt lat="45.850039" lon="34.494028"></trkpt>
      <trkpt lat="45.850255" lon="34.494134"></trkpt>
      <trkpt lat="45.850269" lon="34.495157"></trkpt>
      <trkpt lat="45.85102" lon="34.496293"></trkpt>
      <trkpt lat="45.8511" lon="34.496584"></trkpt>
      <trkpt lat="45.851521" lon="34.496281"></trkpt>
      <trkpt lat="45.851991" lon="34.49705"></trkpt>
      <trkpt lat="45.852699" lon="34.498944"></trkpt>
      <trkpt lat="45.864124" lon="34.515983"></trkpt>
      <trkpt lat="45.864887" lon="34.516924"></trkpt>
      <trkpt lat="45.865388" lon="34.517877"></trkpt>
      <trkpt lat="45.880977" lon="34.541068"></trkpt>
      <trkpt lat="45.881063" lon="34.541761"></trkpt>
      <trkpt lat="45.881292" lon="34.542108"></trkpt>
      <trkpt lat="45.88133" lon="34.542783"></trkpt>
      <trkpt lat="45.880665" lon="34.545026"></trkpt>
      <trkpt lat="45.881777" lon="34.545105"></trkpt>
      <trkpt lat="45.883203" lon="34.545726"></trkpt>
      <trkpt lat="45.884486" lon="34.547605"></trkpt>
      <trkpt lat="45.884707" lon="34.547807"></trkpt>
      <trkpt lat="45.884903" lon="34.547755"></trkpt>
      <trkpt lat="45.885256" lon="34.54841"></trkpt>
      <trkpt lat="45.885285" lon="34.549753"></trkpt>
      <trkpt lat="45.885148" lon="34.551247"></trkpt>
      <trkpt lat="45.885284" lon="34.551034"></trkpt>
      <trkpt lat="45.88575" lon="34.550896"></trkpt>
      <trkpt lat="45.886171" lon="34.550953"></trkpt>
      <trkpt lat="45.886556" lon="34.551204"></trkpt>
      <trkpt lat="45.886759" lon="34.551548"></trkpt>
      <trkpt lat="45.887035" lon="34.552903"></trkpt>
      <trkpt lat="45.887793" lon="34.552963"></trkpt>
      <trkpt lat="45.888179" lon="34.553279"></trkpt>
      <trkpt lat="45.891541" lon="34.558338"></trkpt>
      <trkpt lat="45.891737" lon="34.558355"></trkpt>
      <trkpt lat="45.891971" lon="34.558654"></trkpt>
      <trkpt lat="45.892094" lon="34.559068"></trkpt>
      <trkpt lat="45.892281" lon="34.559129"></trkpt>
      <trkpt lat="45.892687" lon="34.558571"></trkpt>
      <trkpt lat="45.897233" lon="34.565367"></trkpt>
      <trkpt lat="45.897109" lon="34.565753"></trkpt>
      <trkpt lat="45.897248" lon="34.565963"></trkpt>
      <trkpt lat="45.897599" lon="34.565957"></trkpt>
      <trkpt lat="45.898268" lon="34.566939"></trkpt>
      <trkpt lat="45.908671" lon="34.58241"></trkpt>
      <trkpt lat="45.915545" lon="34.592943"></trkpt>
      <trkpt lat="45.920241" lon="34.599778"></trkpt>
      <trkpt lat="45.925171" lon="34.602131"></trkpt>
      <trkpt lat="45.926214" lon="34.602477"></trkpt>
      <trkpt lat="45.927258" lon="34.601596"></trkpt>
      <trkpt lat="45.927802" lon="34.601455"></trkpt>
      <trkpt lat="45.930664" lon="34.59992"></trkpt>
      <trkpt lat="45.931427" lon="34.59938"></trkpt>
      <trkpt lat="45.931855" lon="34.599225"></trkpt>
      <trkpt lat="45.931949" lon="34.599567"></trkpt>
      <trkpt lat="45.939106" lon="34.612203"></trkpt>
      <trkpt lat="45.942153" lon="34.617253"></trkpt>
      <trkpt lat="45.94358" lon="34.614249"></trkpt>
      <trkpt lat="45.9441" lon="34.614916"></trkpt>
      <trkpt lat="45.947072" lon="34.610597"></trkpt>
      <trkpt lat="45.947583" lon="34.611005"></trkpt>
      <trkpt lat="45.948424" lon="34.612344"></trkpt>
      <trkpt lat="45.948452" lon="34.612765"></trkpt>
      <trkpt lat="45.948608" lon="34.612973"></trkpt>
      <trkpt lat="45.949413" lon="34.61178"></trkpt>
      <trkpt lat="45.94988" lon="34.611337"></trkpt>
      <trkpt lat="45.95236" lon="34.609846"></trkpt>
      <trkpt lat="45.953233" lon="34.609846"></trkpt>
      <trkpt lat="45.9539" lon="34.61011"></trkpt>
      <trkpt lat="45.954328" lon="34.61"></trkpt>
      <trkpt lat="45.954918" lon="34.609581"></trkpt>
      <trkpt lat="45.956338" lon="34.607886"></trkpt>
      <trkpt lat="45.959382" lon="34.602961"></trkpt>
      <trkpt lat="45.961529" lon="34.600018"></trkpt>
      <trkpt lat="45.966225" lon="34.593094"></trkpt>
      <trkpt lat="45.967271" lon="34.589135"></trkpt>
      <trkpt lat="45.967258" lon="34.587871"></trkpt>
      <trkpt lat="45.967439" lon="34.58709"></trkpt>
      <trkpt lat="45.967646" lon="34.586458"></trkpt>
      <trkpt lat="45.968718" lon="34.584451"></trkpt>
      <trkpt lat="45.97199" lon="34.58203"></trkpt>
      <trkpt lat="45.973364" lon="34.580062"></trkpt>
      <trkpt lat="45.973326" lon="34.579682"></trkpt>
      <trkpt lat="45.973609" lon="34.579259"></trkpt>
      <trkpt lat="45.973977" lon="34.57933"></trkpt>
      <trkpt lat="45.974983" lon="34.577811"></trkpt>
      <trkpt lat="45.974942" lon="34.577301"></trkpt>
      <trkpt lat="45.975168" lon="34.576328"></trkpt>
      <trkpt lat="45.975254" lon="34.574465"></trkpt>
      <trkpt lat="45.975066" lon="34.573183"></trkpt>
      <trkpt lat="45.97483" lon="34.572796"></trkpt>
      <trkpt lat="45.974456" lon="34.571235"></trkpt>
      <trkpt lat="45.974738" lon="34.570703"></trkpt>
      <trkpt lat="45.976193" lon="34.56968"></trkpt>
      <trkpt lat="45.976431" lon="34.569708"></trkpt>
      <trkpt lat="45.976775" lon="34.57009"></trkpt>
      <trkpt lat="45.977018" lon="34.570575"></trkpt>
      <trkpt lat="45.97739" lon="34.570817"></trkpt>
      <trkpt lat="45.97776" lon="34.570758"></trkpt>
      <trkpt lat="45.978209" lon="34.570439"></trkpt>
      <trkpt lat="45.978538" lon="34.570466"></trkpt>
      <trkpt lat="45.981092" lon="34.56874"></trkpt>
      <trkpt lat="45.9821" lon="34.567744"></trkpt>
      <trkpt lat="45.983245" lon="34.566225"></trkpt>
      <trkpt lat="45.984167" lon="34.564554"></trkpt>
      <trkpt lat="45.984714" lon="34.563278"></trkpt>
      <trkpt lat="45.985575" lon="34.5606"></trkpt>
      <trkpt lat="45.987002" lon="34.555301"></trkpt>
      <trkpt lat="45.9882" lon="34.551846"></trkpt>
      <trkpt lat="45.989167" lon="34.549949"></trkpt>
      <trkpt lat="45.990526" lon="34.54827"></trkpt>
      <trkpt lat="45.991841" lon="34.547368"></trkpt>
      <trkpt lat="45.992358" lon="34.54713"></trkpt>
      <trkpt lat="45.992452" lon="34.547214"></trkpt>
      <trkpt lat="45.992629" lon="34.547014"></trkpt>
      <trkpt lat="45.993464" lon="34.546748"></trkpt>
      <trkpt lat="45.995461" lon="34.546611"></trkpt>
      <trkpt lat="45.994002" lon="34.546569"></trkpt>
      <trkpt lat="45.993778" lon="34.546277"></trkpt>
      <trkpt lat="45.990399" lon="34.545837"></trkpt>
      <trkpt lat="45.989749" lon="34.545966"></trkpt>
      <trkpt lat="45.98925" lon="34.546391"></trkpt>
      <trkpt lat="45.98881" lon="34.547004"></trkpt>
      <trkpt lat="45.988593" lon="34.54705"></trkpt>
      <trkpt lat="45.988198" lon="34.546634"></trkpt>
      <trkpt lat="45.98842" lon="34.544336"></trkpt>
      <trkpt lat="45.988397" lon="34.542815"></trkpt>
      <trkpt lat="45.989113" lon="34.54146"></trkpt>
      <trkpt lat="45.990403" lon="34.540351"></trkpt>
      <trkpt lat="45.99271" lon="34.537748"></trkpt>
      <trkpt lat="45.994371" lon="34.535096"></trkpt>
      <trkpt lat="45.995129" lon="34.533408"></trkpt>
      <trkpt lat="45.996927" lon="34.530064"></trkpt>
      <trkpt lat="45.997462" lon="34.528757"></trkpt>
      <trkpt lat="45.997765" lon="34.528566"></trkpt>
      <trkpt lat="45.998373" lon="34.528734"></trkpt>
      <trkpt lat="46.002329" lon="34.530902"></trkpt>
      <trkpt lat="46.003787" lon="34.531907"></trkpt>
      <trkpt lat="46.004222" lon="34.53201"></trkpt>
      <trkpt lat="46.004595" lon="34.532493"></trkpt>
      <trkpt lat="46.005138" lon="34.532657"></trkpt>
      <trkpt lat="46.00961" lon="34.535644"></trkpt>
      <trkpt lat="46.010571" lon="34.536025"></trkpt>
      <trkpt lat="46.011174" lon="34.5361"></trkpt>
      <trkpt lat="46.012327" lon="34.535711"></trkpt>
      <trkpt lat="46.012941" lon="34.535269"></trkpt>
      <trkpt lat="46.01438" lon="34.534668"></trkpt>
      <trkpt lat="46.015485" lon="34.534501"></trkpt>
      <trkpt lat="46.016496" lon="34.534069"></trkpt>
      <trkpt lat="46.017317" lon="34.53346"></trkpt>
      <trkpt lat="46.020982" lon="34.53696"></trkpt>
      <trkpt lat="46.021788" lon="34.537828"></trkpt>
      <trkpt lat="46.0224" lon="34.538745"></trkpt>
      <trkpt lat="46.024171" lon="34.540467"></trkpt>
      <trkpt lat="46.02446" lon="34.540492"></trkpt>
      <trkpt lat="46.025373" lon="34.540039"></trkpt>
      <trkpt lat="46.025646" lon="34.539558"></trkpt>
      <trkpt lat="46.025694" lon="34.539182"></trkpt>
      <trkpt lat="46.034428" lon="34.547933"></trkpt>
      <trkpt lat="46.032577" lon="34.552375"></trkpt>
      <trkpt lat="46.030843" lon="34.55616"></trkpt>
      <trkpt lat="46.030594" lon="34.557139"></trkpt>
      <trkpt lat="46.029991" lon="34.558044"></trkpt>
      <trkpt lat="46.029632" lon="34.558887"></trkpt>
      <trkpt lat="46.039584" lon="34.565056"></trkpt>
      <trkpt lat="46.037296" lon="34.570213"></trkpt>
      <trkpt lat="46.037299" lon="34.570559"></trkpt>
      <trkpt lat="46.047354" lon="34.578542"></trkpt>
      <trkpt lat="46.047857" lon="34.578507"></trkpt>
      <trkpt lat="46.048297" lon="34.578172"></trkpt>
      <trkpt lat="46.048658" lon="34.578222"></trkpt>
      <trkpt lat="46.060437" lon="34.58487"></trkpt>
      <trkpt lat="46.062529" lon="34.579626"></trkpt>
      <trkpt lat="46.076887" lon="34.588417"></trkpt>
      <trkpt lat="46.080578" lon="34.580349"></trkpt>
      <trkpt lat="46.080786" lon="34.580139"></trkpt>
      <trkpt lat="46.081548" lon="34.579998"></trkpt>
      <trkpt lat="46.085294" lon="34.583778"></trkpt>
      <trkpt lat="46.086231" lon="34.584985"></trkpt>
      <trkpt lat="46.086452" lon="34.585598"></trkpt>
      <trkpt lat="46.088811" lon="34.587953"></trkpt>
      <trkpt lat="46.091062" lon="34.589547"></trkpt>
      <trkpt lat="46.093074" lon="34.59041"></trkpt>
      <trkpt lat="46.095115" lon="34.591042"></trkpt>
      <trkpt lat="46.097586" lon="34.591706"></trkpt>
      <trkpt lat="46.100748" lon="34.592308"></trkpt>
      <trkpt lat="46.102767" lon="34.592511"></trkpt>
      <trkpt lat="46.111598" lon="34.593824"></trkpt>
      <trkpt lat="46.112563" lon="34.593709"></trkpt>
      <trkpt lat="46.114595" lon="34.593993"></trkpt>
      <trkpt lat="46.115577" lon="34.593769"></trkpt>
      <trkpt lat="46.118298" lon="34.594276"></trkpt>
      <trkpt lat="46.119057" lon="34.594628"></trkpt>
      <trkpt lat="46.120747" lon="34.594732"></trkpt>
      <trkpt lat="46.122329" lon="34.595031"></trkpt>
      <trkpt lat="46.124057" lon="34.595755"></trkpt>
      <trkpt lat="46.124942" lon="34.595939"></trkpt>
      <trkpt lat="46.128424" lon="34.596454"></trkpt>
      <trkpt lat="46.129483" lon="34.596274"></trkpt>
      <trkpt lat="46.133952" lon="34.596813"></trkpt>
      <trkpt lat="46.135935" lon="34.597654"></trkpt>
      <trkpt lat="46.137357" lon="34.597993"></trkpt>
      <trkpt lat="46.139529" lon="34.597936"></trkpt>
      <trkpt lat="46.141686" lon="34.598106"></trkpt>
      <trkpt lat="46.143861" lon="34.598393"></trkpt>
      <trkpt lat="46.146754" lon="34.598957"></trkpt>
      <trkpt lat="46.1476" lon="34.598762"></trkpt>
      <trkpt lat="46.149868" lon="34.599168"></trkpt>
      <trkpt lat="46.151425" lon="34.59926"></trkpt>
      <trkpt lat="46.152206" lon="34.599578"></trkpt>
      <trkpt lat="46.153358" lon="34.599763"></trkpt>
      <trkpt lat="46.154225" lon="34.59967"></trkpt>
      <trkpt lat="46.155866" lon="34.598562"></trkpt>
      <trkpt lat="46.156968" lon="34.597666"></trkpt>
      <trkpt lat="46.159994" lon="34.595609"></trkpt>
      <trkpt lat="46.160284" lon="34.595513"></trkpt>
      <trkpt lat="46.161005" lon="34.594826"></trkpt>
      <trkpt lat="46.16143" lon="34.594581"></trkpt>
      <trkpt lat="46.161729" lon="34.5945"></trkpt>
      <trkpt lat="46.163498" lon="34.594551"></trkpt>
      <trkpt lat="46.163928" lon="34.594839"></trkpt>
      <trkpt lat="46.164664" lon="34.595833"></trkpt>
      <trkpt lat="46.165274" lon="34.596448"></trkpt>
      <trkpt lat="46.16568" lon="34.596702"></trkpt>
      <trkpt lat="46.166128" lon="34.596768"></trkpt>
      <trkpt lat="46.169285" lon="34.59797"></trkpt>
      <trkpt lat="46.170332" lon="34.597488"></trkpt>
      <trkpt lat="46.170529" lon="34.597225"></trkpt>
      <trkpt lat="46.171568" lon="34.59769"></trkpt>
      <trkpt lat="46.17192" lon="34.597682"></trkpt>
      <trkpt lat="46.180997" lon="34.603797"></trkpt>
      <trkpt lat="46.181188" lon="34.603674"></trkpt>
      <trkpt lat="46.183072" lon="34.59922"></trkpt>
      <trkpt lat="46.183418" lon="34.598908"></trkpt>
      <trkpt lat="46.183729" lon="34.599082"></trkpt>
      <trkpt lat="46.196972" lon="34.611284"></trkpt>
      <trkpt lat="46.215104" lon="34.626966"></trkpt>
      <trkpt lat="46.214192" lon="34.629139"></trkpt>
      <trkpt lat="46.214324" lon="34.629122"></trkpt>
      <trkpt lat="46.215069" lon="34.629717"></trkpt>
      <trkpt lat="46.21692" lon="34.631452"></trkpt>
      <trkpt lat="46.216376" lon="34.632706"></trkpt>
      <trkpt lat="46.214829" lon="34.633433"></trkpt>
      <trkpt lat="46.21483" lon="34.633881"></trkpt>
      <trkpt lat="46.215091" lon="34.634893"></trkpt>
      <trkpt lat="46.214378" lon="34.634895"></trkpt>
      <trkpt lat="46.214056" lon="34.635017"></trkpt>
      <trkpt lat="46.21309" lon="34.635828"></trkpt>
      <trkpt lat="46.220557" lon="34.642316"></trkpt>
      <trkpt lat="46.224191" lon="34.645655"></trkpt>
      <trkpt lat="46.224519" lon="34.64637"></trkpt>
      <trkpt lat="46.224674" lon="34.647183"></trkpt>
      <trkpt lat="46.224702" lon="34.648525"></trkpt>
      <trkpt lat="46.224517" lon="34.649245"></trkpt>
      <trkpt lat="46.216607" lon="34.668442"></trkpt>
      <trkpt lat="46.216112" lon="34.669051"></trkpt>
      <trkpt lat="46.191966" lon="34.727712"></trkpt>
      <trkpt lat="46.190782" lon="34.73073"></trkpt>
      <trkpt lat="46.190809" lon="34.731041"></trkpt>
      <trkpt lat="46.19113" lon="34.73136"></trkpt>
      <trkpt lat="46.191233" lon="34.73165"></trkpt>
      <trkpt lat="46.191079" lon="34.732259"></trkpt>
      <trkpt lat="46.17158" lon="34.779699"></trkpt>
      <trkpt lat="46.17148" lon="34.779914"></trkpt>
      <trkpt lat="46.17087" lon="34.779808"></trkpt>
      <trkpt lat="46.170402" lon="34.779896"></trkpt>
      <trkpt lat="46.170029" lon="34.780238"></trkpt>
      <trkpt lat="46.163687" lon="34.791197"></trkpt>
      <trkpt lat="46.162056" lon="34.792983"></trkpt>
      <trkpt lat="46.15543" lon="34.802217"></trkpt>
      <trkpt lat="46.154448" lon="34.803326"></trkpt>
      <trkpt lat="46.152998" lon="34.804566"></trkpt>
      <trkpt lat="46.13943" lon="34.812529"></trkpt>
      <trkpt lat="46.133706" lon="34.81642"></trkpt>
      <trkpt lat="46.132381" lon="34.817165"></trkpt>
      <trkpt lat="46.130781" lon="34.817631"></trkpt>
      <trkpt lat="46.116233" lon="34.819448"></trkpt>
      <trkpt lat="46.116145" lon="34.820099"></trkpt>
      <trkpt lat="46.115216" lon="34.822637"></trkpt>
      <trkpt lat="46.115171" lon="34.823392"></trkpt>
      <trkpt lat="46.115059" lon="34.823546"></trkpt>
      <trkpt lat="46.113721" lon="34.823866"></trkpt>
      <trkpt lat="46.113616" lon="34.824207"></trkpt>
      <trkpt lat="46.113734" lon="34.825386"></trkpt>
      <trkpt lat="46.112785" lon="34.825397"></trkpt>
      <trkpt lat="46.112822" lon="34.828266"></trkpt>
      <trkpt lat="46.112785" lon="34.825397"></trkpt>
      <trkpt lat="46.113734" lon="34.825386"></trkpt>
      <trkpt lat="46.113616" lon="34.824207"></trkpt>
      <trkpt lat="46.113721" lon="34.823866"></trkpt>
      <trkpt lat="46.115059" lon="34.823546"></trkpt>
      <trkpt lat="46.115171" lon="34.823392"></trkpt>
      <trkpt lat="46.115216" lon="34.822637"></trkpt>
      <trkpt lat="46.116145" lon="34.820099"></trkpt>
      <trkpt lat="46.116233" lon="34.819448"></trkpt>
      <trkpt lat="46.130781" lon="34.817631"></trkpt>
      <trkpt lat="46.132381" lon="34.817165"></trkpt>
      <trkpt lat="46.133706" lon="34.81642"></trkpt>
      <trkpt lat="46.13943" lon="34.812529"></trkpt>
      <trkpt lat="46.152998" lon="34.804566"></trkpt>
      <trkpt lat="46.154448" lon="34.803326"></trkpt>
      <trkpt lat="46.15543" lon="34.802217"></trkpt>
      <trkpt lat="46.162056" lon="34.792983"></trkpt>
      <trkpt lat="46.163687" lon="34.791197"></trkpt>
      <trkpt lat="46.170029" lon="34.780238"></trkpt>
      <trkpt lat="46.170402" lon="34.779896"></trkpt>
      <trkpt lat="46.170682" lon="34.779823"></trkpt>
      <trkpt lat="46.17148" lon="34.779914"></trkpt>
      <trkpt lat="46.191079" lon="34.732259"></trkpt>
      <trkpt lat="46.191233" lon="34.73165"></trkpt>
      <trkpt lat="46.19113" lon="34.73136"></trkpt>
      <trkpt lat="46.190809" lon="34.731041"></trkpt>
      <trkpt lat="46.190782" lon="34.73073"></trkpt>
      <trkpt lat="46.191966" lon="34.727712"></trkpt>
      <trkpt lat="46.216112" lon="34.669051"></trkpt>
      <trkpt lat="46.216607" lon="34.668442"></trkpt>
      <trkpt lat="46.224625" lon="34.648891"></trkpt>
      <trkpt lat="46.224724" lon="34.648122"></trkpt>
      <trkpt lat="46.224639" lon="34.646881"></trkpt>
      <trkpt lat="46.224191" lon="34.645655"></trkpt>
      <trkpt lat="46.220557" lon="34.642316"></trkpt>
      <trkpt lat="46.21309" lon="34.635828"></trkpt>
      <trkpt lat="46.214056" lon="34.635017"></trkpt>
      <trkpt lat="46.214764" lon="34.63486"></trkpt>
      <trkpt lat="46.220859" lon="34.635689"></trkpt>
      <trkpt lat="46.229785" lon="34.63541"></trkpt>
      <trkpt lat="46.230655" lon="34.635043"></trkpt>
      <trkpt lat="46.231205" lon="34.634553"></trkpt>
      <trkpt lat="46.231527" lon="34.633906"></trkpt>
      <trkpt lat="46.250513" lon="34.590655"></trkpt>
      <trkpt lat="46.277392" lon="34.527231"></trkpt>
      <trkpt lat="46.297559" lon="34.472385"></trkpt>
      <trkpt lat="46.305386" lon="34.433847"></trkpt>
      <trkpt lat="46.30832" lon="34.422904"></trkpt>
      <trkpt lat="46.321215" lon="34.391447"></trkpt>
      <trkpt lat="46.321719" lon="34.390717"></trkpt>
      <trkpt lat="46.323023" lon="34.389344"></trkpt>
      <trkpt lat="46.356658" lon="34.35571"></trkpt>
      <trkpt lat="46.373576" lon="34.337069"></trkpt>
      <trkpt lat="46.373918" lon="34.336425"></trkpt>
      <trkpt lat="46.374152" lon="34.335399"></trkpt>
      <trkpt lat="46.375259" lon="34.313286"></trkpt>
      <trkpt lat="46.375478" lon="34.311279"></trkpt>
      <trkpt lat="46.375816" lon="34.310518"></trkpt>
      <trkpt lat="46.437935" lon="34.233971"></trkpt>
      <trkpt lat="46.476773" lon="34.183308"></trkpt>
      <trkpt lat="46.478024" lon="34.181656"></trkpt>
      <trkpt lat="46.478845" lon="34.180293"></trkpt>
      <trkpt lat="46.481072" lon="34.174207"></trkpt>
      <trkpt lat="46.481469" lon="34.173822"></trkpt>
      <trkpt lat="46.481942" lon="34.173592"></trkpt>
      <trkpt lat="46.484137" lon="34.173422"></trkpt>
      <trkpt lat="46.486398" lon="34.166473"></trkpt>
      <trkpt lat="46.486688" lon="34.165154"></trkpt>
      <trkpt lat="46.486709" lon="34.164219"></trkpt>
      <trkpt lat="46.482475" lon="34.122009"></trkpt>
      <trkpt lat="46.482214" lon="34.118059"></trkpt>
      <trkpt lat="46.482297" lon="34.114686"></trkpt>
      <trkpt lat="46.483843" lon="34.087639"></trkpt>
      <trkpt lat="46.483861" lon="34.085381"></trkpt>
      <trkpt lat="46.482155" lon="34.040339"></trkpt>
      <trkpt lat="46.476691" lon="33.938665"></trkpt>
      <trkpt lat="46.474997" lon="33.909241"></trkpt>
      <trkpt lat="46.474778" lon="33.907259"></trkpt>
      <trkpt lat="46.474371" lon="33.905019"></trkpt>
      <trkpt lat="46.469056" lon="33.884122"></trkpt>
      <trkpt lat="46.461381" lon="33.887451"></trkpt>
      <trkpt lat="46.459771" lon="33.887683"></trkpt>
      <trkpt lat="46.459249" lon="33.887503"></trkpt>
      <trkpt lat="46.458249" lon="33.886694"></trkpt>
      <trkpt lat="46.457117" lon="33.88533"></trkpt>
      <trkpt lat="46.448274" lon="33.873875"></trkpt>
      <trkpt lat="46.437814" lon="33.87301"></trkpt>
      <trkpt lat="46.435713" lon="33.85201"></trkpt>
      <trkpt lat="46.428479" lon="33.78338"></trkpt>
      <trkpt lat="46.428063" lon="33.780867"></trkpt>
      <trkpt lat="46.427688" lon="33.779603"></trkpt>
      <trkpt lat="46.427009" lon="33.777974"></trkpt>
      <trkpt lat="46.411509" lon="33.749697"></trkpt>
      <trkpt lat="46.411321" lon="33.748709"></trkpt>
      <trkpt lat="46.409308" lon="33.728955"></trkpt>
      <trkpt lat="46.40769" lon="33.717826"></trkpt>
      <trkpt lat="46.40726" lon="33.715837"></trkpt>
      <trkpt lat="46.403563" lon="33.705528"></trkpt>
      <trkpt lat="46.377542" lon="33.627774"></trkpt>
      <trkpt lat="46.374476" lon="33.614054"></trkpt>
      <trkpt lat="46.371732" lon="33.601117"></trkpt>
      <trkpt lat="46.36888" lon="33.580531"></trkpt>
      <trkpt lat="46.366606" lon="33.559743"></trkpt>
      <trkpt lat="46.363298" lon="33.54689"></trkpt>
      <trkpt lat="46.362633" lon="33.54362"></trkpt>
      <trkpt lat="46.362767" lon="33.54354"></trkpt>
      <trkpt lat="46.361967" lon="33.540153"></trkpt>
      <trkpt lat="46.361442" lon="33.540592"></trkpt>
      <trkpt lat="46.360944" lon="33.53911"></trkpt>
  </trkseg></trk>
</gpx>
