<?xml version="1.0" encoding="UTF-8"?>
<gpx version="1.1" creator="yatutbuv" xmlns="http://www.topografix.com/GPX/1/1">
  <trk><name>GraphHopper Track</name><trkseg>
      <trkpt lat="41.79019" lon="3.022252"></trkpt>
      <trkpt lat="41.790597" lon="3.022071"></trkpt>
      <trkpt lat="41.791644" lon="3.0213"></trkpt>
      <trkpt lat="41.792898" lon="3.020693"></trkpt>
      <trkpt lat="41.793335" lon="3.020501"></trkpt>
      <trkpt lat="41.793594" lon="3.020523"></trkpt>
      <trkpt lat="41.793771" lon="3.020311"></trkpt>
      <trkpt lat="41.795161" lon="3.019697"></trkpt>
      <trkpt lat="41.795498" lon="3.019743"></trkpt>
      <trkpt lat="41.795683" lon="3.019468"></trkpt>
      <trkpt lat="41.79635" lon="3.019155"></trkpt>
      <trkpt lat="41.797397" lon="3.018409"></trkpt>
      <trkpt lat="41.798237" lon="3.017623"></trkpt>
      <trkpt lat="41.798929" lon="3.016727"></trkpt>
      <trkpt lat="41.800479" lon="3.014093"></trkpt>
      <trkpt lat="41.801189" lon="3.013116"></trkpt>
      <trkpt lat="41.802255" lon="3.012228"></trkpt>
      <trkpt lat="41.803054" lon="3.01174"></trkpt>
      <trkpt lat="41.804061" lon="3.010761"></trkpt>
      <trkpt lat="41.808069" lon="3.004344"></trkpt>
      <trkpt lat="41.80866" lon="3.004461"></trkpt>
      <trkpt lat="41.808954" lon="3.004148"></trkpt>
      <trkpt lat="41.809306" lon="3.002533"></trkpt>
      <trkpt lat="41.810274" lon="3.000913"></trkpt>
      <trkpt lat="41.810614" lon="3.00226"></trkpt>
      <trkpt lat="41.810608" lon="3.003285"></trkpt>
      <trkpt lat="41.811303" lon="3.003426"></trkpt>
      <trkpt lat="41.812024" lon="3.002612"></trkpt>
      <trkpt lat="41.812276" lon="3.002589"></trkpt>
      <trkpt lat="41.814121" lon="3.002996"></trkpt>
      <trkpt lat="41.812935" lon="3.008192"></trkpt>
      <trkpt lat="41.812828" lon="3.012926"></trkpt>
      <trkpt lat="41.812723" lon="3.013375"></trkpt>
      <trkpt lat="41.812812" lon="3.013559"></trkpt>
      <trkpt lat="41.812677" lon="3.019923"></trkpt>
      <trkpt lat="41.813467" lon="3.025568"></trkpt>
      <trkpt lat="41.814041" lon="3.025512"></trkpt>
      <trkpt lat="41.814302" lon="3.027565"></trkpt>
      <trkpt lat="41.814255" lon="3.027956"></trkpt>
      <trkpt lat="41.813824" lon="3.027868"></trkpt>
      <trkpt lat="41.813719" lon="3.028052"></trkpt>
      <trkpt lat="41.813882" lon="3.028416"></trkpt>
      <trkpt lat="41.81442" lon="3.031926"></trkpt>
      <trkpt lat="41.814403" lon="3.032352"></trkpt>
      <trkpt lat="41.814564" lon="3.032789"></trkpt>
      <trkpt lat="41.814993" lon="3.035597"></trkpt>
      <trkpt lat="41.814832" lon="3.03945"></trkpt>
      <trkpt lat="41.814735" lon="3.040079"></trkpt>
      <trkpt lat="41.814332" lon="3.040866"></trkpt>
      <trkpt lat="41.814264" lon="3.041806"></trkpt>
      <trkpt lat="41.81439" lon="3.042371"></trkpt>
      <trkpt lat="41.814726" lon="3.043064"></trkpt>
      <trkpt lat="41.815992" lon="3.052601"></trkpt>
      <trkpt lat="41.815947" lon="3.053156"></trkpt>
      <trkpt lat="41.816047" lon="3.053312"></trkpt>
      <trkpt lat="41.816548" lon="3.056904"></trkpt>
      <trkpt lat="41.816504" lon="3.057347"></trkpt>
      <trkpt lat="41.816636" lon="3.05757"></trkpt>
      <trkpt lat="41.817156" lon="3.061969"></trkpt>
      <trkpt lat="41.817295" lon="3.062337"></trkpt>
      <trkpt lat="41.817626" lon="3.064617"></trkpt>
      <trkpt lat="41.817893" lon="3.066749"></trkpt>
      <trkpt lat="41.817766" lon="3.066883"></trkpt>
      <trkpt lat="41.817903" lon="3.066993"></trkpt>
      <trkpt lat="41.81792" lon="3.066767"></trkpt>
      <trkpt lat="41.817646" lon="3.066798"></trkpt>
      <trkpt lat="41.815806" lon="3.065406"></trkpt>
      <trkpt lat="41.814122" lon="3.063766"></trkpt>
      <trkpt lat="41.814018" lon="3.063434"></trkpt>
      <trkpt lat="41.813743" lon="3.063394"></trkpt>
      <trkpt lat="41.810448" lon="3.060135"></trkpt>
      <trkpt lat="41.810418" lon="3.059938"></trkpt>
      <trkpt lat="41.810156" lon="3.059832"></trkpt>
      <trkpt lat="41.807954" lon="3.057636"></trkpt>
      <trkpt lat="41.80788" lon="3.057277"></trkpt>
      <trkpt lat="41.807478" lon="3.05716"></trkpt>
      <trkpt lat="41.806373" lon="3.05607"></trkpt>
      <trkpt lat="41.806206" lon="3.055683"></trkpt>
      <trkpt lat="41.805853" lon="3.055574"></trkpt>
      <trkpt lat="41.804365" lon="3.054069"></trkpt>
      <trkpt lat="41.804297" lon="3.054185"></trkpt>
      <trkpt lat="41.804108" lon="3.054124"></trkpt>
      <trkpt lat="41.803928" lon="3.054232"></trkpt>
      <trkpt lat="41.803913" lon="3.057221"></trkpt>
      <trkpt lat="41.803709" lon="3.057798"></trkpt>
      <trkpt lat="41.803373" lon="3.058284"></trkpt>
      <trkpt lat="41.803249" lon="3.059424"></trkpt>
      <trkpt lat="41.803056" lon="3.059876"></trkpt>
      <trkpt lat="41.801544" lon="3.060325"></trkpt>
      <trkpt lat="41.801103" lon="3.060636"></trkpt>
      <trkpt lat="41.800543" lon="3.061382"></trkpt>
      <trkpt lat="41.800215" lon="3.06142"></trkpt>
      <trkpt lat="41.799531" lon="3.060969"></trkpt>
      <trkpt lat="41.799139" lon="3.060121"></trkpt>
      <trkpt lat="41.799233" lon="3.057888"></trkpt>
      <trkpt lat="41.798972" lon="3.056533"></trkpt>
      <trkpt lat="41.798421" lon="3.055625"></trkpt>
      <trkpt lat="41.796454" lon="3.05335"></trkpt>
      <trkpt lat="41.796078" lon="3.052465"></trkpt>
      <trkpt lat="41.79551" lon="3.051531"></trkpt>
      <trkpt lat="41.796055" lon="3.051027"></trkpt>
      <trkpt lat="41.795539" lon="3.050858"></trkpt>
      <trkpt lat="41.795985" lon="3.048204"></trkpt>
      <trkpt lat="41.793141" lon="3.047212"></trkpt>
      <trkpt lat="41.792763" lon="3.046783"></trkpt>
      <trkpt lat="41.792248" lon="3.046897"></trkpt>
      <trkpt lat="41.791727" lon="3.046701"></trkpt>
      <trkpt lat="41.790831" lon="3.046031"></trkpt>
      <trkpt lat="41.790088" lon="3.044667"></trkpt>
      <trkpt lat="41.789852" lon="3.043954"></trkpt>
      <trkpt lat="41.789303" lon="3.041056"></trkpt>
      <trkpt lat="41.788534" lon="3.040864"></trkpt>
      <trkpt lat="41.787328" lon="3.040854"></trkpt>
      <trkpt lat="41.786864" lon="3.040625"></trkpt>
      <trkpt lat="41.786724" lon="3.040492"></trkpt>
      <trkpt lat="41.786701" lon="3.04023"></trkpt>
      <trkpt lat="41.786349" lon="3.040131"></trkpt>
      <trkpt lat="41.786196" lon="3.039965"></trkpt>
      <trkpt lat="41.782796" lon="3.035939"></trkpt>
      <trkpt lat="41.782433" lon="3.035299"></trkpt>
      <trkpt lat="41.782435" lon="3.035124"></trkpt>
      <trkpt lat="41.782318" lon="3.035104"></trkpt>
      <trkpt lat="41.781995" lon="3.034537"></trkpt>
      <trkpt lat="41.781477" lon="3.034398"></trkpt>
      <trkpt lat="41.781391" lon="3.034191"></trkpt>
      <trkpt lat="41.781435" lon="3.032119"></trkpt>
      <trkpt lat="41.779488" lon="3.028845"></trkpt>
      <trkpt lat="41.779702" lon="3.02834"></trkpt>
      <trkpt lat="41.780649" lon="3.027058"></trkpt>
      <trkpt lat="41.780748" lon="3.026323"></trkpt>
      <trkpt lat="41.781312" lon="3.024886"></trkpt>
      <trkpt lat="41.781024" lon="3.022381"></trkpt>
      <trkpt lat="41.781128" lon="3.021845"></trkpt>
      <trkpt lat="41.781043" lon="3.020662"></trkpt>
      <trkpt lat="41.78116" lon="3.020346"></trkpt>
      <trkpt lat="41.783944" lon="3.01975"></trkpt>
      <trkpt lat="41.784074" lon="3.019855"></trkpt>
      <trkpt lat="41.784177" lon="3.019705"></trkpt>
      <trkpt lat="41.784694" lon="3.019589"></trkpt>
      <trkpt lat="41.785286" lon="3.019585"></trkpt>
      <trkpt lat="41.785889" lon="3.019761"></trkpt>
      <trkpt lat="41.786076" lon="3.020007"></trkpt>
      <trkpt lat="41.786324" lon="3.019997"></trkpt>
      <trkpt lat="41.787912" lon="3.021092"></trkpt>
      <trkpt lat="41.788033" lon="3.021337"></trkpt>
      <trkpt lat="41.788201" lon="3.021259"></trkpt>
      <trkpt lat="41.790335" lon="3.021794"></trkpt>
      <trkpt lat="41.790425" lon="3.021969"></trkpt>
      <trkpt lat="41.79019" lon="3.022252"></trkpt>
  </trkseg></trk>
</gpx>
