<?xml version="1.0" encoding="UTF-8"?>
<gpx version="1.1" creator="yatutbuv" xmlns="http://www.topografix.com/GPX/1/1">
  <trk><name>GraphHopper Track</name><trkseg>
      <trkpt lat="41.781399" lon="3.027495"></trkpt>
      <trkpt lat="41.781927" lon="3.026158"></trkpt>
      <trkpt lat="41.782924" lon="3.027004"></trkpt>
      <trkpt lat="41.790273" lon="3.022196"></trkpt>
      <trkpt lat="41.790597" lon="3.022071"></trkpt>
      <trkpt lat="41.791644" lon="3.0213"></trkpt>
      <trkpt lat="41.793335" lon="3.020501"></trkpt>
      <trkpt lat="41.793594" lon="3.020523"></trkpt>
      <trkpt lat="41.793771" lon="3.020311"></trkpt>
      <trkpt lat="41.795161" lon="3.019697"></trkpt>
      <trkpt lat="41.795498" lon="3.019743"></trkpt>
      <trkpt lat="41.795683" lon="3.019468"></trkpt>
      <trkpt lat="41.79635" lon="3.019155"></trkpt>
      <trkpt lat="41.797397" lon="3.018409"></trkpt>
      <trkpt lat="41.798237" lon="3.017623"></trkpt>
      <trkpt lat="41.798929" lon="3.016727"></trkpt>
      <trkpt lat="41.800479" lon="3.014093"></trkpt>
      <trkpt lat="41.801189" lon="3.013116"></trkpt>
      <trkpt lat="41.802255" lon="3.012228"></trkpt>
      <trkpt lat="41.803054" lon="3.01174"></trkpt>
      <trkpt lat="41.804061" lon="3.010761"></trkpt>
      <trkpt lat="41.808069" lon="3.004344"></trkpt>
      <trkpt lat="41.808251" lon="3.004314"></trkpt>
      <trkpt lat="41.808399" lon="3.004631"></trkpt>
      <trkpt lat="41.808495" lon="3.007463"></trkpt>
      <trkpt lat="41.807954" lon="3.010792"></trkpt>
      <trkpt lat="41.806835" lon="3.016449"></trkpt>
      <trkpt lat="41.80631" lon="3.02038"></trkpt>
      <trkpt lat="41.80615" lon="3.023006"></trkpt>
      <trkpt lat="41.80615" lon="3.026559"></trkpt>
      <trkpt lat="41.806336" lon="3.028688"></trkpt>
      <trkpt lat="41.806632" lon="3.029909"></trkpt>
      <trkpt lat="41.808318" lon="3.034474"></trkpt>
      <trkpt lat="41.80969" lon="3.039238"></trkpt>
      <trkpt lat="41.810401" lon="3.040395"></trkpt>
      <trkpt lat="41.81117" lon="3.040954"></trkpt>
      <trkpt lat="41.812123" lon="3.041207"></trkpt>
      <trkpt lat="41.813404" lon="3.041239"></trkpt>
      <trkpt lat="41.814418" lon="3.041434"></trkpt>
      <trkpt lat="41.81516" lon="3.041845"></trkpt>
      <trkpt lat="41.81587" lon="3.042599"></trkpt>
      <trkpt lat="41.816507" lon="3.043778"></trkpt>
      <trkpt lat="41.817423" lon="3.046131"></trkpt>
      <trkpt lat="41.818824" lon="3.051592"></trkpt>
      <trkpt lat="41.819156" lon="3.052485"></trkpt>
      <trkpt lat="41.822779" lon="3.057718"></trkpt>
      <trkpt lat="41.823371" lon="3.058193"></trkpt>
      <trkpt lat="41.825414" lon="3.059298"></trkpt>
      <trkpt lat="41.826067" lon="3.060017"></trkpt>
      <trkpt lat="41.82801" lon="3.063268"></trkpt>
      <trkpt lat="41.828476" lon="3.064236"></trkpt>
      <trkpt lat="41.829322" lon="3.067924"></trkpt>
      <trkpt lat="41.829643" lon="3.068731"></trkpt>
      <trkpt lat="41.830067" lon="3.069391"></trkpt>
      <trkpt lat="41.830914" lon="3.070231"></trkpt>
      <trkpt lat="41.832011" lon="3.070716"></trkpt>
      <trkpt lat="41.837631" lon="3.071116"></trkpt>
      <trkpt lat="41.838558" lon="3.071451"></trkpt>
      <trkpt lat="41.839255" lon="3.072175"></trkpt>
      <trkpt lat="41.839592" lon="3.072881"></trkpt>
      <trkpt lat="41.840205" lon="3.07614"></trkpt>
      <trkpt lat="41.840714" lon="3.077403"></trkpt>
      <trkpt lat="41.841512" lon="3.078309"></trkpt>
      <trkpt lat="41.842077" lon="3.07865"></trkpt>
      <trkpt lat="41.842633" lon="3.078819"></trkpt>
      <trkpt lat="41.843278" lon="3.078816"></trkpt>
      <trkpt lat="41.844112" lon="3.078519"></trkpt>
      <trkpt lat="41.847738" lon="3.075584"></trkpt>
      <trkpt lat="41.84953" lon="3.074482"></trkpt>
      <trkpt lat="41.851075" lon="3.073801"></trkpt>
      <trkpt lat="41.854706" lon="3.072602"></trkpt>
      <trkpt lat="41.855663" lon="3.072768"></trkpt>
      <trkpt lat="41.856123" lon="3.073074"></trkpt>
      <trkpt lat="41.856582" lon="3.073597"></trkpt>
      <trkpt lat="41.857036" lon="3.074662"></trkpt>
      <trkpt lat="41.85715" lon="3.075745"></trkpt>
      <trkpt lat="41.856307" lon="3.079688"></trkpt>
      <trkpt lat="41.856301" lon="3.081128"></trkpt>
      <trkpt lat="41.858311" lon="3.087118"></trkpt>
      <trkpt lat="41.858469" lon="3.088191"></trkpt>
      <trkpt lat="41.858626" lon="3.093445"></trkpt>
      <trkpt lat="41.860073" lon="3.099048"></trkpt>
      <trkpt lat="41.860782" lon="3.10452"></trkpt>
      <trkpt lat="41.860716" lon="3.106349"></trkpt>
      <trkpt lat="41.859963" lon="3.109201"></trkpt>
      <trkpt lat="41.859759" lon="3.110491"></trkpt>
      <trkpt lat="41.859911" lon="3.113596"></trkpt>
      <trkpt lat="41.859843" lon="3.114584"></trkpt>
      <trkpt lat="41.859561" lon="3.115622"></trkpt>
      <trkpt lat="41.859312" lon="3.116113"></trkpt>
      <trkpt lat="41.857038" lon="3.119457"></trkpt>
      <trkpt lat="41.856197" lon="3.120287"></trkpt>
      <trkpt lat="41.856" lon="3.120278"></trkpt>
      <trkpt lat="41.855638" lon="3.120045"></trkpt>
      <trkpt lat="41.854818" lon="3.119039"></trkpt>
      <trkpt lat="41.854752" lon="3.118636"></trkpt>
      <trkpt lat="41.854561" lon="3.118673"></trkpt>
      <trkpt lat="41.854291" lon="3.118415"></trkpt>
      <trkpt lat="41.853237" lon="3.117084"></trkpt>
      <trkpt lat="41.852893" lon="3.115965"></trkpt>
      <trkpt lat="41.852628" lon="3.115872"></trkpt>
      <trkpt lat="41.852517" lon="3.116059"></trkpt>
      <trkpt lat="41.852638" lon="3.116621"></trkpt>
      <trkpt lat="41.852572" lon="3.117706"></trkpt>
      <trkpt lat="41.852295" lon="3.117741"></trkpt>
      <trkpt lat="41.852116" lon="3.119364"></trkpt>
      <trkpt lat="41.851537" lon="3.120833"></trkpt>
      <trkpt lat="41.851275" lon="3.12238"></trkpt>
      <trkpt lat="41.849081" lon="3.121654"></trkpt>
      <trkpt lat="41.848478" lon="3.124734"></trkpt>
      <trkpt lat="41.848076" lon="3.125734"></trkpt>
  </trkseg></trk>
</gpx>
