<?xml version="1.0" encoding="UTF-8"?>
<gpx version="1.1" creator="yatutbuv" xmlns="http://www.topografix.com/GPX/1/1">
  <trk><name>GraphHopper Track</name><trkseg>
      <trkpt lat="46.359209" lon="33.529922"></trkpt>
      <trkpt lat="46.359056" lon="33.52909"></trkpt>
      <trkpt lat="46.357834" lon="33.525392"></trkpt>
      <trkpt lat="46.359673" lon="33.524433"></trkpt>
      <trkpt lat="46.360256" lon="33.523923"></trkpt>
      <trkpt lat="46.360779" lon="33.526147"></trkpt>
      <trkpt lat="46.362013" lon="33.529947"></trkpt>
      <trkpt lat="46.362793" lon="33.532953"></trkpt>
      <trkpt lat="46.363031" lon="33.535603"></trkpt>
      <trkpt lat="46.36866" lon="33.531925"></trkpt>
      <trkpt lat="46.370821" lon="33.539134"></trkpt>
      <trkpt lat="46.380556" lon="33.533547"></trkpt>
      <trkpt lat="46.380699" lon="33.533668"></trkpt>
      <trkpt lat="46.380713" lon="33.53391"></trkpt>
      <trkpt lat="46.381317" lon="33.533139"></trkpt>
      <trkpt lat="46.383549" lon="33.531907"></trkpt>
      <trkpt lat="46.390146" lon="33.528418"></trkpt>
      <trkpt lat="46.401885" lon="33.522432"></trkpt>
      <trkpt lat="46.424576" lon="33.511906"></trkpt>
      <trkpt lat="46.434544" lon="33.508129"></trkpt>
      <trkpt lat="46.453677" lon="33.501263"></trkpt>
      <trkpt lat="46.458201" lon="33.501091"></trkpt>
      <trkpt lat="46.476002" lon="33.500909"></trkpt>
      <trkpt lat="46.504071" lon="33.497851"></trkpt>
      <trkpt lat="46.506146" lon="33.497411"></trkpt>
      <trkpt lat="46.543691" lon="33.487422"></trkpt>
      <trkpt lat="46.564585" lon="33.48856"></trkpt>
      <trkpt lat="46.566444" lon="33.489032"></trkpt>
      <trkpt lat="46.575589" lon="33.492208"></trkpt>
      <trkpt lat="46.579557" lon="33.493119"></trkpt>
      <trkpt lat="46.58053" lon="33.493195"></trkpt>
      <trkpt lat="46.581511" lon="33.493119"></trkpt>
      <trkpt lat="46.690497" lon="33.465528"></trkpt>
      <trkpt lat="46.690779" lon="33.46569"></trkpt>
      <trkpt lat="46.690918" lon="33.465523"></trkpt>
      <trkpt lat="46.69069" lon="33.464873"></trkpt>
      <trkpt lat="46.687812" lon="33.440884"></trkpt>
      <trkpt lat="46.680196" lon="33.375443"></trkpt>
      <trkpt lat="46.664868" lon="33.246635"></trkpt>
      <trkpt lat="46.663309" lon="33.234242"></trkpt>
      <trkpt lat="46.661631" lon="33.217763"></trkpt>
      <trkpt lat="46.660877" lon="33.209094"></trkpt>
      <trkpt lat="46.660764" lon="33.203872"></trkpt>
      <trkpt lat="46.660879" lon="33.201857"></trkpt>
      <trkpt lat="46.661186" lon="33.199384"></trkpt>
      <trkpt lat="46.661523" lon="33.197538"></trkpt>
      <trkpt lat="46.662438" lon="33.194162"></trkpt>
      <trkpt lat="46.662817" lon="33.192997"></trkpt>
      <trkpt lat="46.66387" lon="33.190497"></trkpt>
      <trkpt lat="46.667834" lon="33.182996"></trkpt>
      <trkpt lat="46.668741" lon="33.180935"></trkpt>
      <trkpt lat="46.669748" lon="33.17761"></trkpt>
      <trkpt lat="46.670529" lon="33.173829"></trkpt>
      <trkpt lat="46.67089" lon="33.170229"></trkpt>
      <trkpt lat="46.670936" lon="33.167941"></trkpt>
      <trkpt lat="46.670135" lon="33.1486"></trkpt>
      <trkpt lat="46.670112" lon="33.145282"></trkpt>
      <trkpt lat="46.670514" lon="33.142763"></trkpt>
      <trkpt lat="46.67088" lon="33.14144"></trkpt>
      <trkpt lat="46.671773" lon="33.139222"></trkpt>
      <trkpt lat="46.672346" lon="33.138175"></trkpt>
      <trkpt lat="46.673604" lon="33.136519"></trkpt>
      <trkpt lat="46.67451" lon="33.13565"></trkpt>
      <trkpt lat="46.675399" lon="33.134998"></trkpt>
      <trkpt lat="46.698772" lon="33.123024"></trkpt>
      <trkpt lat="46.700654" lon="33.121595"></trkpt>
      <trkpt lat="46.702088" lon="33.119735"></trkpt>
      <trkpt lat="46.703229" lon="33.11748"></trkpt>
      <trkpt lat="46.703694" lon="33.116079"></trkpt>
      <trkpt lat="46.704373" lon="33.112893"></trkpt>
      <trkpt lat="46.704524" lon="33.111382"></trkpt>
      <trkpt lat="46.704479" lon="33.110082"></trkpt>
      <trkpt lat="46.70436" lon="33.108762"></trkpt>
      <trkpt lat="46.703974" lon="33.106722"></trkpt>
      <trkpt lat="46.702083" lon="33.097984"></trkpt>
      <trkpt lat="46.697471" lon="33.077103"></trkpt>
      <trkpt lat="46.689166" lon="33.040588"></trkpt>
      <trkpt lat="46.688474" lon="33.036809"></trkpt>
      <trkpt lat="46.68819" lon="33.03436"></trkpt>
      <trkpt lat="46.687914" lon="33.02976"></trkpt>
      <trkpt lat="46.687999" lon="33.025699"></trkpt>
      <trkpt lat="46.688493" lon="33.015603"></trkpt>
      <trkpt lat="46.688541" lon="33.010767"></trkpt>
      <trkpt lat="46.688118" lon="33.006693"></trkpt>
      <trkpt lat="46.687358" lon="33.002849"></trkpt>
      <trkpt lat="46.686328" lon="32.999795"></trkpt>
      <trkpt lat="46.684942" lon="32.996528"></trkpt>
      <trkpt lat="46.684143" lon="32.995076"></trkpt>
      <trkpt lat="46.682138" lon="32.992041"></trkpt>
      <trkpt lat="46.6813" lon="32.991017"></trkpt>
      <trkpt lat="46.680169" lon="32.989905"></trkpt>
      <trkpt lat="46.677107" lon="32.987266"></trkpt>
      <trkpt lat="46.647595" lon="32.962525"></trkpt>
      <trkpt lat="46.646653" lon="32.961666"></trkpt>
      <trkpt lat="46.644803" lon="32.959575"></trkpt>
      <trkpt lat="46.642911" lon="32.956946"></trkpt>
      <trkpt lat="46.642093" lon="32.955601"></trkpt>
      <trkpt lat="46.640482" lon="32.952342"></trkpt>
      <trkpt lat="46.639205" lon="32.949076"></trkpt>
      <trkpt lat="46.621689" lon="32.895303"></trkpt>
      <trkpt lat="46.611354" lon="32.86441"></trkpt>
      <trkpt lat="46.610264" lon="32.860299"></trkpt>
      <trkpt lat="46.609675" lon="32.856987"></trkpt>
      <trkpt lat="46.609229" lon="32.853303"></trkpt>
      <trkpt lat="46.609048" lon="32.849582"></trkpt>
      <trkpt lat="46.609068" lon="32.843208"></trkpt>
      <trkpt lat="46.60892" lon="32.839668"></trkpt>
      <trkpt lat="46.6089" lon="32.835339"></trkpt>
      <trkpt lat="46.609204" lon="32.829213"></trkpt>
      <trkpt lat="46.60897" lon="32.816047"></trkpt>
      <trkpt lat="46.609096" lon="32.814134"></trkpt>
      <trkpt lat="46.609693" lon="32.809842"></trkpt>
      <trkpt lat="46.610265" lon="32.807803"></trkpt>
      <trkpt lat="46.614009" lon="32.796397"></trkpt>
      <trkpt lat="46.618246" lon="32.784431"></trkpt>
      <trkpt lat="46.620694" lon="32.778594"></trkpt>
      <trkpt lat="46.622171" lon="32.775919"></trkpt>
      <trkpt lat="46.623456" lon="32.773178"></trkpt>
      <trkpt lat="46.624766" lon="32.769463"></trkpt>
      <trkpt lat="46.626285" lon="32.762928"></trkpt>
      <trkpt lat="46.628144" lon="32.752485"></trkpt>
      <trkpt lat="46.629183" lon="32.752954"></trkpt>
      <trkpt lat="46.629045" lon="32.752405"></trkpt>
      <trkpt lat="46.6289" lon="32.750519"></trkpt>
      <trkpt lat="46.629549" lon="32.748497"></trkpt>
      <trkpt lat="46.630343" lon="32.744544"></trkpt>
  </trkseg></trk>
</gpx>
