<?xml version="1.0" encoding="UTF-8"?>
<gpx version="1.1" creator="yatutbuv" xmlns="http://www.topografix.com/GPX/1/1">
  <trk><name>GraphHopper Track</name><trkseg>
      <trkpt lat="50.20988" lon="24.381612"></trkpt>
      <trkpt lat="50.210048" lon="24.38653"></trkpt>
      <trkpt lat="50.201642" lon="24.387513"></trkpt>
      <trkpt lat="50.201523" lon="24.38535"></trkpt>
      <trkpt lat="50.195713" lon="24.386112"></trkpt>
      <trkpt lat="50.195007" lon="24.386368"></trkpt>
      <trkpt lat="50.194406" lon="24.386743"></trkpt>
      <trkpt lat="50.190861" lon="24.389613"></trkpt>
      <trkpt lat="50.189615" lon="24.390313"></trkpt>
      <trkpt lat="50.188464" lon="24.390883"></trkpt>
      <trkpt lat="50.183728" lon="24.392295"></trkpt>
      <trkpt lat="50.183326" lon="24.392275"></trkpt>
      <trkpt lat="50.182878" lon="24.39203"></trkpt>
      <trkpt lat="50.177571" lon="24.387669"></trkpt>
      <trkpt lat="50.176944" lon="24.387507"></trkpt>
      <trkpt lat="50.173959" lon="24.388171"></trkpt>
      <trkpt lat="50.168388" lon="24.388412"></trkpt>
      <trkpt lat="50.158617" lon="24.390298"></trkpt>
      <trkpt lat="50.156108" lon="24.390666"></trkpt>
      <trkpt lat="50.154744" lon="24.391015"></trkpt>
      <trkpt lat="50.142383" lon="24.391106"></trkpt>
      <trkpt lat="50.142183" lon="24.391033"></trkpt>
      <trkpt lat="50.125348" lon="24.350978"></trkpt>
      <trkpt lat="50.12485" lon="24.350034"></trkpt>
      <trkpt lat="50.123845" lon="24.34889"></trkpt>
      <trkpt lat="50.12294" lon="24.348319"></trkpt>
      <trkpt lat="50.122481" lon="24.348232"></trkpt>
      <trkpt lat="50.118866" lon="24.348296"></trkpt>
      <trkpt lat="50.117758" lon="24.347775"></trkpt>
      <trkpt lat="50.117341" lon="24.347413"></trkpt>
      <trkpt lat="50.116951" lon="24.346855"></trkpt>
      <trkpt lat="50.115766" lon="24.344353"></trkpt>
      <trkpt lat="50.114681" lon="24.342397"></trkpt>
      <trkpt lat="50.113691" lon="24.341776"></trkpt>
      <trkpt lat="50.112272" lon="24.340578"></trkpt>
      <trkpt lat="50.10957" lon="24.338687"></trkpt>
      <trkpt lat="50.108885" lon="24.337733"></trkpt>
      <trkpt lat="50.108418" lon="24.337581"></trkpt>
      <trkpt lat="50.107627" lon="24.337698"></trkpt>
      <trkpt lat="50.106412" lon="24.338445"></trkpt>
      <trkpt lat="50.105352" lon="24.338461"></trkpt>
      <trkpt lat="50.104986" lon="24.338597"></trkpt>
      <trkpt lat="50.104052" lon="24.339336"></trkpt>
      <trkpt lat="50.103363" lon="24.340897"></trkpt>
      <trkpt lat="50.10267" lon="24.341612"></trkpt>
      <trkpt lat="50.101169" lon="24.342262"></trkpt>
      <trkpt lat="50.099506" lon="24.342706"></trkpt>
      <trkpt lat="50.099522" lon="24.343916"></trkpt>
      <trkpt lat="50.099319" lon="24.344149"></trkpt>
      <trkpt lat="50.098742" lon="24.343846"></trkpt>
      <trkpt lat="50.097996" lon="24.343062"></trkpt>
      <trkpt lat="50.092035" lon="24.336351"></trkpt>
      <trkpt lat="50.079382" lon="24.33212"></trkpt>
      <trkpt lat="50.078765" lon="24.331926"></trkpt>
      <trkpt lat="50.078136" lon="24.331934"></trkpt>
      <trkpt lat="50.070556" lon="24.333953"></trkpt>
      <trkpt lat="50.070025" lon="24.334007"></trkpt>
      <trkpt lat="50.055623" lon="24.330429"></trkpt>
      <trkpt lat="50.055255" lon="24.330404"></trkpt>
      <trkpt lat="50.045929" lon="24.332035"></trkpt>
      <trkpt lat="50.044833" lon="24.33204"></trkpt>
      <trkpt lat="50.043686" lon="24.331302"></trkpt>
      <trkpt lat="50.033774" lon="24.323317"></trkpt>
      <trkpt lat="50.032839" lon="24.322021"></trkpt>
      <trkpt lat="50.021449" lon="24.300548"></trkpt>
      <trkpt lat="49.991729" lon="24.245301"></trkpt>
      <trkpt lat="49.989859" lon="24.24343"></trkpt>
      <trkpt lat="49.988529" lon="24.241744"></trkpt>
      <trkpt lat="49.977687" lon="24.226204"></trkpt>
      <trkpt lat="49.973762" lon="24.22114"></trkpt>
      <trkpt lat="49.972705" lon="24.220416"></trkpt>
      <trkpt lat="49.970142" lon="24.219111"></trkpt>
      <trkpt lat="49.963022" lon="24.215172"></trkpt>
      <trkpt lat="49.957624" lon="24.213253"></trkpt>
      <trkpt lat="49.957127" lon="24.212916"></trkpt>
      <trkpt lat="49.956406" lon="24.212"></trkpt>
      <trkpt lat="49.955921" lon="24.211001"></trkpt>
      <trkpt lat="49.953938" lon="24.205339"></trkpt>
      <trkpt lat="49.953565" lon="24.204793"></trkpt>
      <trkpt lat="49.952733" lon="24.204219"></trkpt>
      <trkpt lat="49.952392" lon="24.203788"></trkpt>
      <trkpt lat="49.951213" lon="24.200305"></trkpt>
      <trkpt lat="49.947121" lon="24.192505"></trkpt>
      <trkpt lat="49.941268" lon="24.173559"></trkpt>
      <trkpt lat="49.940914" lon="24.172604"></trkpt>
      <trkpt lat="49.940349" lon="24.171687"></trkpt>
      <trkpt lat="49.939704" lon="24.171022"></trkpt>
      <trkpt lat="49.939208" lon="24.170706"></trkpt>
      <trkpt lat="49.920794" lon="24.161241"></trkpt>
      <trkpt lat="49.920493" lon="24.160807"></trkpt>
      <trkpt lat="49.920072" lon="24.160848"></trkpt>
      <trkpt lat="49.919218" lon="24.160419"></trkpt>
      <trkpt lat="49.903461" lon="24.152218"></trkpt>
      <trkpt lat="49.902765" lon="24.151638"></trkpt>
      <trkpt lat="49.90192" lon="24.149822"></trkpt>
      <trkpt lat="49.897121" lon="24.138286"></trkpt>
      <trkpt lat="49.893952" lon="24.130475"></trkpt>
      <trkpt lat="49.893597" lon="24.129324"></trkpt>
      <trkpt lat="49.891322" lon="24.114939"></trkpt>
      <trkpt lat="49.891305" lon="24.113135"></trkpt>
      <trkpt lat="49.892219" lon="24.099845"></trkpt>
      <trkpt lat="49.892116" lon="24.098373"></trkpt>
      <trkpt lat="49.886307" lon="24.07902"></trkpt>
      <trkpt lat="49.885986" lon="24.078232"></trkpt>
      <trkpt lat="49.884605" lon="24.076108"></trkpt>
      <trkpt lat="49.882189" lon="24.074054"></trkpt>
      <trkpt lat="49.881923" lon="24.073586"></trkpt>
      <trkpt lat="49.879406" lon="24.067188"></trkpt>
      <trkpt lat="49.878672" lon="24.065974"></trkpt>
      <trkpt lat="49.877284" lon="24.064063"></trkpt>
      <trkpt lat="49.876081" lon="24.062649"></trkpt>
      <trkpt lat="49.865576" lon="24.053576"></trkpt>
      <trkpt lat="49.865174" lon="24.052671"></trkpt>
      <trkpt lat="49.864959" lon="24.052601"></trkpt>
      <trkpt lat="49.864432" lon="24.052799"></trkpt>
      <trkpt lat="49.85421" lon="24.044056"></trkpt>
      <trkpt lat="49.853886" lon="24.042903"></trkpt>
      <trkpt lat="49.853058" lon="24.035284"></trkpt>
      <trkpt lat="49.851397" lon="24.030163"></trkpt>
      <trkpt lat="49.851693" lon="24.029577"></trkpt>
      <trkpt lat="49.853124" lon="24.028486"></trkpt>
      <trkpt lat="49.853166" lon="24.028191"></trkpt>
      <trkpt lat="49.853104" lon="24.028041"></trkpt>
      <trkpt lat="49.851543" lon="24.027138"></trkpt>
      <trkpt lat="49.850952" lon="24.026836"></trkpt>
      <trkpt lat="49.850435" lon="24.026753"></trkpt>
      <trkpt lat="49.850471" lon="24.024467"></trkpt>
      <trkpt lat="49.84988" lon="24.024461"></trkpt>
      <trkpt lat="49.849681" lon="24.025061"></trkpt>
      <trkpt lat="49.848507" lon="24.025657"></trkpt>
      <trkpt lat="49.845584" lon="24.025282"></trkpt>
      <trkpt lat="49.844576" lon="24.025515"></trkpt>
      <trkpt lat="49.841312" lon="24.027334"></trkpt>
      <trkpt lat="49.840555" lon="24.027856"></trkpt>
      <trkpt lat="49.839299" lon="24.02545"></trkpt>
      <trkpt lat="49.834723" lon="24.017829"></trkpt>
      <trkpt lat="49.834699" lon="24.011238"></trkpt>
      <trkpt lat="49.834288" lon="24.011226"></trkpt>
      <trkpt lat="49.833626" lon="24.010033"></trkpt>
      <trkpt lat="49.834005" lon="24.008507"></trkpt>
      <trkpt lat="49.834496" lon="24.009278"></trkpt>
  </trkseg></trk>
</gpx>
