<?xml version="1.0" encoding="UTF-8"?>
<gpx version="1.1" creator="yatutbuv" xmlns="http://www.topografix.com/GPX/1/1">
  <trk><name>GraphHopper Track</name><trkseg>
      <trkpt lat="50.404794" lon="30.622491"></trkpt>
      <trkpt lat="50.405192" lon="30.622149"></trkpt>
      <trkpt lat="50.405125" lon="30.621897"></trkpt>
      <trkpt lat="50.406838" lon="30.620795"></trkpt>
      <trkpt lat="50.405113" lon="30.61391"></trkpt>
      <trkpt lat="50.405855" lon="30.612799"></trkpt>
      <trkpt lat="50.406289" lon="30.611742"></trkpt>
      <trkpt lat="50.408642" lon="30.60384"></trkpt>
      <trkpt lat="50.409155" lon="30.602494"></trkpt>
      <trkpt lat="50.410064" lon="30.600691"></trkpt>
      <trkpt lat="50.411867" lon="30.597633"></trkpt>
      <trkpt lat="50.412794" lon="30.59635"></trkpt>
      <trkpt lat="50.413779" lon="30.595552"></trkpt>
      <trkpt lat="50.417528" lon="30.593391"></trkpt>
      <trkpt lat="50.418492" lon="30.592884"></trkpt>
      <trkpt lat="50.41932" lon="30.592667"></trkpt>
      <trkpt lat="50.427656" lon="30.592535"></trkpt>
      <trkpt lat="50.429718" lon="30.592763"></trkpt>
      <trkpt lat="50.43124" lon="30.592676"></trkpt>
      <trkpt lat="50.431457" lon="30.59311"></trkpt>
      <trkpt lat="50.431407" lon="30.593458"></trkpt>
      <trkpt lat="50.431138" lon="30.593675"></trkpt>
      <trkpt lat="50.430863" lon="30.593516"></trkpt>
      <trkpt lat="50.430686" lon="30.593296"></trkpt>
      <trkpt lat="50.430262" lon="30.592086"></trkpt>
      <trkpt lat="50.424275" lon="30.571692"></trkpt>
      <trkpt lat="50.424249" lon="30.570821"></trkpt>
      <trkpt lat="50.424637" lon="30.569157"></trkpt>
      <trkpt lat="50.424921" lon="30.568841"></trkpt>
      <trkpt lat="50.426666" lon="30.568029"></trkpt>
      <trkpt lat="50.43215" lon="30.565947"></trkpt>
      <trkpt lat="50.43624" lon="30.563966"></trkpt>
      <trkpt lat="50.43952" lon="30.561119"></trkpt>
      <trkpt lat="50.442463" lon="30.558117"></trkpt>
      <trkpt lat="50.44333" lon="30.557046"></trkpt>
      <trkpt lat="50.44583" lon="30.553658"></trkpt>
      <trkpt lat="50.446827" lon="30.552017"></trkpt>
      <trkpt lat="50.451709" lon="30.54209"></trkpt>
      <trkpt lat="50.45602" lon="30.531331"></trkpt>
      <trkpt lat="50.458214" lon="30.527447"></trkpt>
      <trkpt lat="50.458734" lon="30.526726"></trkpt>
      <trkpt lat="50.459264" lon="30.526418"></trkpt>
      <trkpt lat="50.460707" lon="30.526227"></trkpt>
      <trkpt lat="50.46335" lon="30.525666"></trkpt>
      <trkpt lat="50.468671" lon="30.524374"></trkpt>
      <trkpt lat="50.469136" lon="30.524235"></trkpt>
      <trkpt lat="50.469421" lon="30.523967"></trkpt>
      <trkpt lat="50.47495" lon="30.515105"></trkpt>
      <trkpt lat="50.475198" lon="30.514523"></trkpt>
      <trkpt lat="50.475342" lon="30.508571"></trkpt>
      <trkpt lat="50.475118" lon="30.504716"></trkpt>
      <trkpt lat="50.475197" lon="30.502748"></trkpt>
      <trkpt lat="50.475436" lon="30.501675"></trkpt>
      <trkpt lat="50.477549" lon="30.498121"></trkpt>
      <trkpt lat="50.477563" lon="30.49766"></trkpt>
      <trkpt lat="50.477212" lon="30.496196"></trkpt>
      <trkpt lat="50.477216" lon="30.495659"></trkpt>
      <trkpt lat="50.477366" lon="30.495185"></trkpt>
      <trkpt lat="50.481497" lon="30.488464"></trkpt>
      <trkpt lat="50.486119" lon="30.483038"></trkpt>
      <trkpt lat="50.487342" lon="30.481464"></trkpt>
      <trkpt lat="50.48785" lon="30.47988"></trkpt>
      <trkpt lat="50.488825" lon="30.473276"></trkpt>
      <trkpt lat="50.48928" lon="30.47231"></trkpt>
      <trkpt lat="50.497615" lon="30.463356"></trkpt>
      <trkpt lat="50.500634" lon="30.460667"></trkpt>
      <trkpt lat="50.519878" lon="30.453751"></trkpt>
      <trkpt lat="50.520184" lon="30.453516"></trkpt>
      <trkpt lat="50.52028" lon="30.453284"></trkpt>
      <trkpt lat="50.520848" lon="30.449862"></trkpt>
      <trkpt lat="50.521048" lon="30.449737"></trkpt>
      <trkpt lat="50.521216" lon="30.449723"></trkpt>
      <trkpt lat="50.533569" lon="30.456639"></trkpt>
      <trkpt lat="50.534066" lon="30.45682"></trkpt>
      <trkpt lat="50.534844" lon="30.456834"></trkpt>
      <trkpt lat="50.545412" lon="30.456118"></trkpt>
      <trkpt lat="50.552166" lon="30.453872"></trkpt>
      <trkpt lat="50.55514" lon="30.453824"></trkpt>
      <trkpt lat="50.556364" lon="30.453623"></trkpt>
      <trkpt lat="50.558642" lon="30.452975"></trkpt>
      <trkpt lat="50.568647" lon="30.452976"></trkpt>
      <trkpt lat="50.569125" lon="30.452813"></trkpt>
      <trkpt lat="50.573142" lon="30.450347"></trkpt>
      <trkpt lat="50.582588" lon="30.447822"></trkpt>
      <trkpt lat="50.5862" lon="30.446984"></trkpt>
      <trkpt lat="50.586838" lon="30.446994"></trkpt>
      <trkpt lat="50.588173" lon="30.447397"></trkpt>
      <trkpt lat="50.592719" lon="30.449097"></trkpt>
      <trkpt lat="50.592918" lon="30.449284"></trkpt>
      <trkpt lat="50.593068" lon="30.449959"></trkpt>
      <trkpt lat="50.593243" lon="30.450157"></trkpt>
      <trkpt lat="50.594277" lon="30.449884"></trkpt>
      <trkpt lat="50.59508" lon="30.449974"></trkpt>
      <trkpt lat="50.602665" lon="30.452838"></trkpt>
      <trkpt lat="50.602648" lon="30.453606"></trkpt>
      <trkpt lat="50.607165" lon="30.469476"></trkpt>
      <trkpt lat="50.607397" lon="30.469991"></trkpt>
      <trkpt lat="50.612472" lon="30.474169"></trkpt>
      <trkpt lat="50.612512" lon="30.47407"></trkpt>
  </trkseg></trk>
</gpx>
