<?xml version="1.0" encoding="UTF-8"?>
<gpx version="1.1" creator="yatutbuv" xmlns="http://www.topografix.com/GPX/1/1">
  <trk><name>GraphHopper Track</name><trkseg>
      <trkpt lat="50.404591" lon="30.62224"></trkpt>
      <trkpt lat="50.406838" lon="30.620795"></trkpt>
      <trkpt lat="50.405113" lon="30.61391"></trkpt>
      <trkpt lat="50.405855" lon="30.612799"></trkpt>
      <trkpt lat="50.406289" lon="30.611742"></trkpt>
      <trkpt lat="50.408642" lon="30.60384"></trkpt>
      <trkpt lat="50.409155" lon="30.602494"></trkpt>
      <trkpt lat="50.410064" lon="30.600691"></trkpt>
      <trkpt lat="50.411867" lon="30.597633"></trkpt>
      <trkpt lat="50.412794" lon="30.59635"></trkpt>
      <trkpt lat="50.413779" lon="30.595552"></trkpt>
      <trkpt lat="50.417528" lon="30.593391"></trkpt>
      <trkpt lat="50.418492" lon="30.592884"></trkpt>
      <trkpt lat="50.41932" lon="30.592667"></trkpt>
      <trkpt lat="50.427656" lon="30.592535"></trkpt>
      <trkpt lat="50.429718" lon="30.592763"></trkpt>
      <trkpt lat="50.430885" lon="30.592654"></trkpt>
      <trkpt lat="50.431334" lon="30.592756"></trkpt>
      <trkpt lat="50.431453" lon="30.593298"></trkpt>
      <trkpt lat="50.431236" lon="30.59366"></trkpt>
      <trkpt lat="50.430863" lon="30.593516"></trkpt>
      <trkpt lat="50.430686" lon="30.593296"></trkpt>
      <trkpt lat="50.430262" lon="30.592086"></trkpt>
      <trkpt lat="50.423841" lon="30.570131"></trkpt>
      <trkpt lat="50.423683" lon="30.567429"></trkpt>
      <trkpt lat="50.424512" lon="30.56329"></trkpt>
      <trkpt lat="50.424596" lon="30.561337"></trkpt>
      <trkpt lat="50.422643" lon="30.553852"></trkpt>
      <trkpt lat="50.421852" lon="30.551819"></trkpt>
      <trkpt lat="50.420828" lon="30.549808"></trkpt>
      <trkpt lat="50.420827" lon="30.549329"></trkpt>
      <trkpt lat="50.421078" lon="30.548392"></trkpt>
      <trkpt lat="50.421099" lon="30.547657"></trkpt>
      <trkpt lat="50.42082" lon="30.546714"></trkpt>
      <trkpt lat="50.423583" lon="30.543187"></trkpt>
      <trkpt lat="50.425204" lon="30.542008"></trkpt>
      <trkpt lat="50.429722" lon="30.536614"></trkpt>
      <trkpt lat="50.435642" lon="30.529308"></trkpt>
      <trkpt lat="50.438341" lon="30.525704"></trkpt>
      <trkpt lat="50.438961" lon="30.5252"></trkpt>
      <trkpt lat="50.440397" lon="30.522838"></trkpt>
      <trkpt lat="50.44066" lon="30.522658"></trkpt>
      <trkpt lat="50.4425" lon="30.522231"></trkpt>
      <trkpt lat="50.442705" lon="30.521934"></trkpt>
      <trkpt lat="50.442826" lon="30.521132"></trkpt>
      <trkpt lat="50.442492" lon="30.520049"></trkpt>
      <trkpt lat="50.452201" lon="30.46032"></trkpt>
      <trkpt lat="50.459023" lon="30.418893"></trkpt>
      <trkpt lat="50.459484" lon="30.416738"></trkpt>
      <trkpt lat="50.459593" lon="30.415379"></trkpt>
      <trkpt lat="50.458933" lon="30.409817"></trkpt>
      <trkpt lat="50.452691" lon="30.314656"></trkpt>
      <trkpt lat="50.445138" lon="30.209142"></trkpt>
      <trkpt lat="50.443349" lon="30.18804"></trkpt>
      <trkpt lat="50.434618" lon="30.078932"></trkpt>
      <trkpt lat="50.427948" lon="29.993753"></trkpt>
      <trkpt lat="50.418707" lon="29.838228"></trkpt>
      <trkpt lat="50.416254" lon="29.760881"></trkpt>
      <trkpt lat="50.416275" lon="29.757286"></trkpt>
      <trkpt lat="50.416539" lon="29.753287"></trkpt>
      <trkpt lat="50.417244" lon="29.748218"></trkpt>
      <trkpt lat="50.422845" lon="29.723576"></trkpt>
      <trkpt lat="50.423353" lon="29.720348"></trkpt>
      <trkpt lat="50.423656" lon="29.706849"></trkpt>
      <trkpt lat="50.424113" lon="29.673313"></trkpt>
      <trkpt lat="50.423971" lon="29.671513"></trkpt>
      <trkpt lat="50.422251" lon="29.659513"></trkpt>
      <trkpt lat="50.396366" lon="29.526266"></trkpt>
      <trkpt lat="50.38294" lon="29.454744"></trkpt>
      <trkpt lat="50.365567" lon="29.363188"></trkpt>
      <trkpt lat="50.338429" lon="29.201393"></trkpt>
      <trkpt lat="50.322592" lon="29.111022"></trkpt>
      <trkpt lat="50.322398" lon="29.109409"></trkpt>
      <trkpt lat="50.322314" lon="29.107337"></trkpt>
      <trkpt lat="50.32221" lon="29.107081"></trkpt>
      <trkpt lat="50.321786" lon="29.107138"></trkpt>
      <trkpt lat="50.318806" lon="29.090292"></trkpt>
      <trkpt lat="50.317937" lon="29.090738"></trkpt>
      <trkpt lat="50.315913" lon="29.092385"></trkpt>
      <trkpt lat="50.315797" lon="29.092621"></trkpt>
      <trkpt lat="50.315746" lon="29.093786"></trkpt>
      <trkpt lat="50.315479" lon="29.094131"></trkpt>
      <trkpt lat="50.315223" lon="29.094155"></trkpt>
      <trkpt lat="50.315081" lon="29.094051"></trkpt>
      <trkpt lat="50.31505" lon="29.093719"></trkpt>
  </trkseg></trk>
</gpx>
