<?xml version="1.0" encoding="UTF-8"?>
<gpx version="1.1" creator="yatutbuv" xmlns="http://www.topografix.com/GPX/1/1">
  <trk><name>GraphHopper Track</name><trkseg>
      <trkpt lat="41.781399" lon="3.027495"></trkpt>
      <trkpt lat="41.781927" lon="3.026158"></trkpt>
      <trkpt lat="41.782924" lon="3.027004"></trkpt>
      <trkpt lat="41.790273" lon="3.022196"></trkpt>
      <trkpt lat="41.790597" lon="3.022071"></trkpt>
      <trkpt lat="41.791644" lon="3.0213"></trkpt>
      <trkpt lat="41.793335" lon="3.020501"></trkpt>
      <trkpt lat="41.793594" lon="3.020523"></trkpt>
      <trkpt lat="41.793771" lon="3.020311"></trkpt>
      <trkpt lat="41.795161" lon="3.019697"></trkpt>
      <trkpt lat="41.795498" lon="3.019743"></trkpt>
      <trkpt lat="41.795683" lon="3.019468"></trkpt>
      <trkpt lat="41.79635" lon="3.019155"></trkpt>
      <trkpt lat="41.797397" lon="3.018409"></trkpt>
      <trkpt lat="41.798237" lon="3.017623"></trkpt>
      <trkpt lat="41.798929" lon="3.016727"></trkpt>
      <trkpt lat="41.800479" lon="3.014093"></trkpt>
      <trkpt lat="41.801189" lon="3.013116"></trkpt>
      <trkpt lat="41.802255" lon="3.012228"></trkpt>
      <trkpt lat="41.803054" lon="3.01174"></trkpt>
      <trkpt lat="41.804061" lon="3.010761"></trkpt>
      <trkpt lat="41.808069" lon="3.004344"></trkpt>
      <trkpt lat="41.80866" lon="3.004461"></trkpt>
      <trkpt lat="41.808954" lon="3.004148"></trkpt>
      <trkpt lat="41.809157" lon="3.003243"></trkpt>
      <trkpt lat="41.80889" lon="3.002446"></trkpt>
      <trkpt lat="41.808759" lon="2.999192"></trkpt>
      <trkpt lat="41.808951" lon="2.997958"></trkpt>
      <trkpt lat="41.809327" lon="2.996768"></trkpt>
      <trkpt lat="41.810074" lon="2.995311"></trkpt>
      <trkpt lat="41.812852" lon="2.99108"></trkpt>
      <trkpt lat="41.814291" lon="2.988669"></trkpt>
      <trkpt lat="41.817481" lon="2.981938"></trkpt>
      <trkpt lat="41.818195" lon="2.98082"></trkpt>
      <trkpt lat="41.819421" lon="2.979333"></trkpt>
      <trkpt lat="41.823008" lon="2.976175"></trkpt>
      <trkpt lat="41.824272" lon="2.974881"></trkpt>
      <trkpt lat="41.826116" lon="2.972372"></trkpt>
      <trkpt lat="41.826696" lon="2.971358"></trkpt>
      <trkpt lat="41.82719" lon="2.969643"></trkpt>
      <trkpt lat="41.827711" lon="2.963934"></trkpt>
      <trkpt lat="41.826967" lon="2.950196"></trkpt>
      <trkpt lat="41.827196" lon="2.946481"></trkpt>
      <trkpt lat="41.827778" lon="2.943118"></trkpt>
      <trkpt lat="41.828904" lon="2.938981"></trkpt>
      <trkpt lat="41.829419" lon="2.938049"></trkpt>
      <trkpt lat="41.830459" lon="2.937"></trkpt>
      <trkpt lat="41.830734" lon="2.936577"></trkpt>
      <trkpt lat="41.831159" lon="2.935103"></trkpt>
      <trkpt lat="41.831156" lon="2.93438"></trkpt>
      <trkpt lat="41.830614" lon="2.931758"></trkpt>
      <trkpt lat="41.830449" lon="2.930411"></trkpt>
      <trkpt lat="41.830538" lon="2.929128"></trkpt>
      <trkpt lat="41.830862" lon="2.927193"></trkpt>
      <trkpt lat="41.830874" lon="2.926056"></trkpt>
      <trkpt lat="41.829646" lon="2.911553"></trkpt>
      <trkpt lat="41.829685" lon="2.910278"></trkpt>
      <trkpt lat="41.829842" lon="2.909432"></trkpt>
      <trkpt lat="41.830213" lon="2.908365"></trkpt>
      <trkpt lat="41.830651" lon="2.907575"></trkpt>
      <trkpt lat="41.831528" lon="2.906589"></trkpt>
      <trkpt lat="41.834181" lon="2.904504"></trkpt>
      <trkpt lat="41.836045" lon="2.902438"></trkpt>
      <trkpt lat="41.842151" lon="2.894846"></trkpt>
      <trkpt lat="41.843365" lon="2.892908"></trkpt>
      <trkpt lat="41.844714" lon="2.890181"></trkpt>
      <trkpt lat="41.84525" lon="2.889453"></trkpt>
      <trkpt lat="41.845795" lon="2.888942"></trkpt>
      <trkpt lat="41.846544" lon="2.888488"></trkpt>
      <trkpt lat="41.847275" lon="2.888244"></trkpt>
      <trkpt lat="41.867798" lon="2.883961"></trkpt>
      <trkpt lat="41.870651" lon="2.883324"></trkpt>
      <trkpt lat="41.872017" lon="2.882732"></trkpt>
      <trkpt lat="41.872379" lon="2.882747"></trkpt>
      <trkpt lat="41.8726" lon="2.882266"></trkpt>
      <trkpt lat="41.873535" lon="2.881212"></trkpt>
      <trkpt lat="41.874006" lon="2.880463"></trkpt>
      <trkpt lat="41.874532" lon="2.879326"></trkpt>
      <trkpt lat="41.875586" lon="2.876046"></trkpt>
      <trkpt lat="41.877837" lon="2.872322"></trkpt>
      <trkpt lat="41.879027" lon="2.869222"></trkpt>
      <trkpt lat="41.879497" lon="2.868256"></trkpt>
      <trkpt lat="41.880679" lon="2.866659"></trkpt>
      <trkpt lat="41.881802" lon="2.865732"></trkpt>
      <trkpt lat="41.88498" lon="2.86384"></trkpt>
      <trkpt lat="41.888705" lon="2.861282"></trkpt>
      <trkpt lat="41.892352" lon="2.859891"></trkpt>
      <trkpt lat="41.893073" lon="2.85977"></trkpt>
      <trkpt lat="41.893461" lon="2.859987"></trkpt>
      <trkpt lat="41.893661" lon="2.859828"></trkpt>
      <trkpt lat="41.893705" lon="2.859556"></trkpt>
      <trkpt lat="41.893523" lon="2.858818"></trkpt>
      <trkpt lat="41.896457" lon="2.832729"></trkpt>
      <trkpt lat="41.896769" lon="2.832157"></trkpt>
      <trkpt lat="41.896666" lon="2.830921"></trkpt>
      <trkpt lat="41.897414" lon="2.824318"></trkpt>
      <trkpt lat="41.897667" lon="2.823725"></trkpt>
      <trkpt lat="41.89755" lon="2.823092"></trkpt>
      <trkpt lat="41.898443" lon="2.81525"></trkpt>
      <trkpt lat="41.898634" lon="2.814896"></trkpt>
      <trkpt lat="41.898529" lon="2.814481"></trkpt>
      <trkpt lat="41.898681" lon="2.812457"></trkpt>
      <trkpt lat="41.898287" lon="2.81158"></trkpt>
      <trkpt lat="41.897681" lon="2.811181"></trkpt>
      <trkpt lat="41.897409" lon="2.810821"></trkpt>
      <trkpt lat="41.897011" lon="2.810848"></trkpt>
      <trkpt lat="41.896065" lon="2.810355"></trkpt>
      <trkpt lat="41.895807" lon="2.810091"></trkpt>
      <trkpt lat="41.895544" lon="2.809495"></trkpt>
      <trkpt lat="41.89388" lon="2.801344"></trkpt>
      <trkpt lat="41.893945" lon="2.80076"></trkpt>
      <trkpt lat="41.893654" lon="2.800238"></trkpt>
      <trkpt lat="41.892778" lon="2.795947"></trkpt>
      <trkpt lat="41.892842" lon="2.795518"></trkpt>
      <trkpt lat="41.892617" lon="2.79515"></trkpt>
      <trkpt lat="41.89056" lon="2.785013"></trkpt>
      <trkpt lat="41.890574" lon="2.784489"></trkpt>
      <trkpt lat="41.890921" lon="2.784118"></trkpt>
      <trkpt lat="41.891073" lon="2.783632"></trkpt>
      <trkpt lat="41.891143" lon="2.783063"></trkpt>
      <trkpt lat="41.891061" lon="2.782744"></trkpt>
      <trkpt lat="41.890437" lon="2.782368"></trkpt>
      <trkpt lat="41.889955" lon="2.782587"></trkpt>
      <trkpt lat="41.886039" lon="2.781832"></trkpt>
      <trkpt lat="41.883964" lon="2.781327"></trkpt>
      <trkpt lat="41.883671" lon="2.781024"></trkpt>
      <trkpt lat="41.883834" lon="2.778449"></trkpt>
      <trkpt lat="41.883762" lon="2.777666"></trkpt>
      <trkpt lat="41.883442" lon="2.776719"></trkpt>
      <trkpt lat="41.882679" lon="2.77542"></trkpt>
      <trkpt lat="41.882496" lon="2.774608"></trkpt>
      <trkpt lat="41.882016" lon="2.769399"></trkpt>
      <trkpt lat="41.882084" lon="2.76617"></trkpt>
      <trkpt lat="41.882286" lon="2.765038"></trkpt>
      <trkpt lat="41.883293" lon="2.761421"></trkpt>
      <trkpt lat="41.885199" lon="2.757867"></trkpt>
      <trkpt lat="41.88592" lon="2.755921"></trkpt>
      <trkpt lat="41.886809" lon="2.752776"></trkpt>
      <trkpt lat="41.886706" lon="2.751261"></trkpt>
      <trkpt lat="41.886779" lon="2.750623"></trkpt>
      <trkpt lat="41.887195" lon="2.749312"></trkpt>
      <trkpt lat="41.889863" lon="2.750294"></trkpt>
      <trkpt lat="41.89205" lon="2.750674"></trkpt>
      <trkpt lat="41.892754" lon="2.750626"></trkpt>
      <trkpt lat="41.893989" lon="2.750066"></trkpt>
      <trkpt lat="41.894936" lon="2.749348"></trkpt>
      <trkpt lat="41.896145" lon="2.749044"></trkpt>
      <trkpt lat="41.896708" lon="2.748752"></trkpt>
      <trkpt lat="41.899349" lon="2.747132"></trkpt>
      <trkpt lat="41.901632" lon="2.746545"></trkpt>
      <trkpt lat="41.902746" lon="2.746767"></trkpt>
      <trkpt lat="41.904494" lon="2.747969"></trkpt>
      <trkpt lat="41.908035" lon="2.74842"></trkpt>
      <trkpt lat="41.908408" lon="2.748721"></trkpt>
      <trkpt lat="41.908825" lon="2.749347"></trkpt>
      <trkpt lat="41.909471" lon="2.751311"></trkpt>
      <trkpt lat="41.909213" lon="2.751712"></trkpt>
      <trkpt lat="41.909365" lon="2.752659"></trkpt>
      <trkpt lat="41.908705" lon="2.753069"></trkpt>
      <trkpt lat="41.908399" lon="2.753395"></trkpt>
      <trkpt lat="41.904194" lon="2.760416"></trkpt>
      <trkpt lat="41.903847" lon="2.761257"></trkpt>
  </trkseg></trk>
</gpx>
