<?xml version="1.0" encoding="UTF-8"?>
<gpx version="1.1" creator="yatutbuv" xmlns="http://www.topografix.com/GPX/1/1">
  <trk><name>GraphHopper Track</name><trkseg>
      <trkpt lat="49.834496" lon="24.009278"></trkpt>
      <trkpt lat="49.834742" lon="24.009518"></trkpt>
      <trkpt lat="49.834803" lon="24.007279"></trkpt>
      <trkpt lat="49.83544" lon="24.005279"></trkpt>
      <trkpt lat="49.83598" lon="24.004625"></trkpt>
      <trkpt lat="49.837121" lon="24.003881"></trkpt>
      <trkpt lat="49.838187" lon="24.006947"></trkpt>
      <trkpt lat="49.840144" lon="24.011934"></trkpt>
      <trkpt lat="49.842007" lon="24.010206"></trkpt>
      <trkpt lat="49.843013" lon="24.010322"></trkpt>
      <trkpt lat="49.844453" lon="24.01103"></trkpt>
      <trkpt lat="49.845841" lon="24.007023"></trkpt>
      <trkpt lat="49.846715" lon="24.004835"></trkpt>
      <trkpt lat="49.847109" lon="24.003003"></trkpt>
      <trkpt lat="49.847999" lon="24.000531"></trkpt>
      <trkpt lat="49.848852" lon="23.997256"></trkpt>
      <trkpt lat="49.849808" lon="23.994483"></trkpt>
      <trkpt lat="49.852386" lon="23.98867"></trkpt>
      <trkpt lat="49.853459" lon="23.986869"></trkpt>
      <trkpt lat="49.853431" lon="23.986589"></trkpt>
      <trkpt lat="49.853804" lon="23.98533"></trkpt>
      <trkpt lat="49.864387" lon="23.959954"></trkpt>
      <trkpt lat="49.867117" lon="23.955349"></trkpt>
      <trkpt lat="49.8675" lon="23.954341"></trkpt>
      <trkpt lat="49.868888" lon="23.949468"></trkpt>
      <trkpt lat="49.871003" lon="23.944568"></trkpt>
      <trkpt lat="49.871296" lon="23.943373"></trkpt>
      <trkpt lat="49.872238" lon="23.937885"></trkpt>
      <trkpt lat="49.872354" lon="23.936627"></trkpt>
      <trkpt lat="49.873674" lon="23.912252"></trkpt>
      <trkpt lat="49.873734" lon="23.909306"></trkpt>
      <trkpt lat="49.87329" lon="23.895024"></trkpt>
      <trkpt lat="49.873689" lon="23.892103"></trkpt>
      <trkpt lat="49.874965" lon="23.886333"></trkpt>
      <trkpt lat="49.875881" lon="23.875046"></trkpt>
      <trkpt lat="49.87777" lon="23.874731"></trkpt>
      <trkpt lat="49.878196" lon="23.874418"></trkpt>
      <trkpt lat="49.878932" lon="23.873068"></trkpt>
      <trkpt lat="49.880844" lon="23.868616"></trkpt>
      <trkpt lat="49.881285" lon="23.868079"></trkpt>
      <trkpt lat="49.88156" lon="23.867933"></trkpt>
      <trkpt lat="49.883356" lon="23.867667"></trkpt>
      <trkpt lat="49.884782" lon="23.867925"></trkpt>
      <trkpt lat="49.88728" lon="23.868686"></trkpt>
      <trkpt lat="49.887814" lon="23.869296"></trkpt>
      <trkpt lat="49.888332" lon="23.869584"></trkpt>
      <trkpt lat="49.88929" lon="23.869907"></trkpt>
      <trkpt lat="49.890404" lon="23.869993"></trkpt>
      <trkpt lat="49.89103" lon="23.870251"></trkpt>
      <trkpt lat="49.891313" lon="23.868529"></trkpt>
      <trkpt lat="49.891442" lon="23.866308"></trkpt>
      <trkpt lat="49.892345" lon="23.864686"></trkpt>
      <trkpt lat="49.892902" lon="23.861758"></trkpt>
      <trkpt lat="49.893684" lon="23.859438"></trkpt>
      <trkpt lat="49.894026" lon="23.856511"></trkpt>
      <trkpt lat="49.896413" lon="23.856206"></trkpt>
      <trkpt lat="49.897073" lon="23.858267"></trkpt>
      <trkpt lat="49.8973" lon="23.858593"></trkpt>
      <trkpt lat="49.901805" lon="23.860389"></trkpt>
      <trkpt lat="49.90253" lon="23.860325"></trkpt>
      <trkpt lat="49.903905" lon="23.859789"></trkpt>
      <trkpt lat="49.904362" lon="23.859488"></trkpt>
      <trkpt lat="49.906518" lon="23.859213"></trkpt>
      <trkpt lat="49.914622" lon="23.857618"></trkpt>
      <trkpt lat="49.917044" lon="23.855427"></trkpt>
      <trkpt lat="49.918162" lon="23.853731"></trkpt>
      <trkpt lat="49.919052" lon="23.852722"></trkpt>
      <trkpt lat="49.9193" lon="23.852129"></trkpt>
      <trkpt lat="49.919468" lon="23.850326"></trkpt>
      <trkpt lat="49.919973" lon="23.847391"></trkpt>
      <trkpt lat="49.920694" lon="23.845294"></trkpt>
      <trkpt lat="49.920591" lon="23.844803"></trkpt>
      <trkpt lat="49.922176" lon="23.845137"></trkpt>
  </trkseg></trk>
</gpx>
