<?xml version="1.0" encoding="UTF-8"?>
<gpx version="1.1" creator="yatutbuv" xmlns="http://www.topografix.com/GPX/1/1">
  <trk><name>GraphHopper Track</name><trkseg>
      <trkpt lat="49.830668" lon="23.98253"></trkpt>
      <trkpt lat="49.830595" lon="23.982297"></trkpt>
      <trkpt lat="49.828181" lon="23.985321"></trkpt>
      <trkpt lat="49.827437" lon="23.983594"></trkpt>
      <trkpt lat="49.82711" lon="23.98305"></trkpt>
      <trkpt lat="49.826939" lon="23.983005"></trkpt>
      <trkpt lat="49.826456" lon="23.984175"></trkpt>
      <trkpt lat="49.824946" lon="23.989662"></trkpt>
      <trkpt lat="49.820793" lon="23.988469"></trkpt>
      <trkpt lat="49.819006" lon="23.987836"></trkpt>
      <trkpt lat="49.81277" lon="23.984403"></trkpt>
      <trkpt lat="49.812161" lon="23.983424"></trkpt>
      <trkpt lat="49.81191" lon="23.98342"></trkpt>
      <trkpt lat="49.811667" lon="23.983612"></trkpt>
      <trkpt lat="49.811258" lon="23.983575"></trkpt>
      <trkpt lat="49.809091" lon="23.98243"></trkpt>
      <trkpt lat="49.807514" lon="23.981808"></trkpt>
      <trkpt lat="49.806258" lon="23.981529"></trkpt>
      <trkpt lat="49.805725" lon="23.980922"></trkpt>
      <trkpt lat="49.80557" lon="23.980921"></trkpt>
      <trkpt lat="49.805106" lon="23.98125"></trkpt>
      <trkpt lat="49.801153" lon="23.980247"></trkpt>
      <trkpt lat="49.793921" lon="23.979031"></trkpt>
      <trkpt lat="49.791251" lon="23.978651"></trkpt>
      <trkpt lat="49.788617" lon="23.978437"></trkpt>
      <trkpt lat="49.787998" lon="23.977993"></trkpt>
      <trkpt lat="49.787532" lon="23.978397"></trkpt>
      <trkpt lat="49.785206" lon="23.978185"></trkpt>
      <trkpt lat="49.781387" lon="23.976282"></trkpt>
      <trkpt lat="49.778441" lon="23.976237"></trkpt>
      <trkpt lat="49.778048" lon="23.975821"></trkpt>
      <trkpt lat="49.772082" lon="23.993775"></trkpt>
      <trkpt lat="49.771004" lon="23.997685"></trkpt>
      <trkpt lat="49.770046" lon="24.002792"></trkpt>
      <trkpt lat="49.769656" lon="24.005967"></trkpt>
      <trkpt lat="49.769431" lon="24.009161"></trkpt>
      <trkpt lat="49.76926" lon="24.009837"></trkpt>
      <trkpt lat="49.768777" lon="24.01072"></trkpt>
      <trkpt lat="49.767024" lon="24.013293"></trkpt>
      <trkpt lat="49.766431" lon="24.013911"></trkpt>
      <trkpt lat="49.765662" lon="24.014284"></trkpt>
      <trkpt lat="49.763516" lon="24.014344"></trkpt>
      <trkpt lat="49.759565" lon="24.014779"></trkpt>
      <trkpt lat="49.754172" lon="24.014942"></trkpt>
      <trkpt lat="49.750514" lon="24.014739"></trkpt>
      <trkpt lat="49.742698" lon="24.014934"></trkpt>
      <trkpt lat="49.741826" lon="24.014795"></trkpt>
      <trkpt lat="49.708942" lon="23.99879"></trkpt>
      <trkpt lat="49.707647" lon="23.998256"></trkpt>
      <trkpt lat="49.707207" lon="23.998279"></trkpt>
      <trkpt lat="49.706746" lon="23.998491"></trkpt>
      <trkpt lat="49.700127" lon="24.002662"></trkpt>
      <trkpt lat="49.692104" lon="24.004025"></trkpt>
      <trkpt lat="49.679862" lon="24.00511"></trkpt>
      <trkpt lat="49.679286" lon="24.004865"></trkpt>
      <trkpt lat="49.67724" lon="24.00305"></trkpt>
      <trkpt lat="49.676073" lon="24.002577"></trkpt>
      <trkpt lat="49.674741" lon="24.002641"></trkpt>
      <trkpt lat="49.67157" lon="24.003558"></trkpt>
      <trkpt lat="49.670292" lon="24.00367"></trkpt>
      <trkpt lat="49.661162" lon="24.002476"></trkpt>
      <trkpt lat="49.630718" lon="23.995388"></trkpt>
      <trkpt lat="49.626927" lon="23.995207"></trkpt>
      <trkpt lat="49.615327" lon="23.99506"></trkpt>
      <trkpt lat="49.614488" lon="23.99514"></trkpt>
      <trkpt lat="49.612983" lon="23.995574"></trkpt>
      <trkpt lat="49.601692" lon="24.000154"></trkpt>
      <trkpt lat="49.600198" lon="24.000864"></trkpt>
      <trkpt lat="49.597509" lon="24.002469"></trkpt>
      <trkpt lat="49.596826" lon="24.002761"></trkpt>
      <trkpt lat="49.595981" lon="24.002946"></trkpt>
      <trkpt lat="49.594858" lon="24.002883"></trkpt>
      <trkpt lat="49.593395" lon="24.002315"></trkpt>
      <trkpt lat="49.578749" lon="23.994311"></trkpt>
      <trkpt lat="49.576589" lon="23.993195"></trkpt>
      <trkpt lat="49.57269" lon="23.99141"></trkpt>
      <trkpt lat="49.571124" lon="23.990913"></trkpt>
      <trkpt lat="49.567367" lon="23.990684"></trkpt>
      <trkpt lat="49.563818" lon="23.989556"></trkpt>
      <trkpt lat="49.55765" lon="23.98838"></trkpt>
      <trkpt lat="49.556852" lon="23.98811"></trkpt>
      <trkpt lat="49.555623" lon="23.987291"></trkpt>
      <trkpt lat="49.554202" lon="23.985778"></trkpt>
      <trkpt lat="49.553576" lon="23.984729"></trkpt>
      <trkpt lat="49.550632" lon="23.97794"></trkpt>
      <trkpt lat="49.547422" lon="23.971708"></trkpt>
      <trkpt lat="49.544646" lon="23.965021"></trkpt>
      <trkpt lat="49.5432" lon="23.958367"></trkpt>
      <trkpt lat="49.542343" lon="23.956187"></trkpt>
      <trkpt lat="49.541485" lon="23.954953"></trkpt>
      <trkpt lat="49.54048" lon="23.95407"></trkpt>
      <trkpt lat="49.536944" lon="23.952383"></trkpt>
      <trkpt lat="49.533812" lon="23.950446"></trkpt>
      <trkpt lat="49.533063" lon="23.950097"></trkpt>
      <trkpt lat="49.531604" lon="23.949683"></trkpt>
      <trkpt lat="49.528911" lon="23.949256"></trkpt>
      <trkpt lat="49.52815" lon="23.949249"></trkpt>
      <trkpt lat="49.527179" lon="23.949511"></trkpt>
      <trkpt lat="49.525102" lon="23.950622"></trkpt>
      <trkpt lat="49.523846" lon="23.95151"></trkpt>
      <trkpt lat="49.52145" lon="23.954169"></trkpt>
      <trkpt lat="49.520917" lon="23.954691"></trkpt>
      <trkpt lat="49.52009" lon="23.955258"></trkpt>
      <trkpt lat="49.518727" lon="23.95569"></trkpt>
      <trkpt lat="49.515611" lon="23.955636"></trkpt>
      <trkpt lat="49.514778" lon="23.95581"></trkpt>
      <trkpt lat="49.514139" lon="23.9561"></trkpt>
      <trkpt lat="49.513394" lon="23.956598"></trkpt>
      <trkpt lat="49.512391" lon="23.957713"></trkpt>
      <trkpt lat="49.509174" lon="23.962575"></trkpt>
      <trkpt lat="49.507306" lon="23.964734"></trkpt>
      <trkpt lat="49.502599" lon="23.968096"></trkpt>
      <trkpt lat="49.501875" lon="23.968868"></trkpt>
      <trkpt lat="49.500231" lon="23.971127"></trkpt>
      <trkpt lat="49.499398" lon="23.971975"></trkpt>
      <trkpt lat="49.498323" lon="23.972607"></trkpt>
      <trkpt lat="49.496648" lon="23.972817"></trkpt>
      <trkpt lat="49.495537" lon="23.972607"></trkpt>
      <trkpt lat="49.494569" lon="23.972099"></trkpt>
      <trkpt lat="49.492191" lon="23.969755"></trkpt>
      <trkpt lat="49.491166" lon="23.968508"></trkpt>
      <trkpt lat="49.490417" lon="23.967092"></trkpt>
      <trkpt lat="49.489942" lon="23.965724"></trkpt>
      <trkpt lat="49.489092" lon="23.960832"></trkpt>
      <trkpt lat="49.488623" lon="23.959264"></trkpt>
      <trkpt lat="49.488139" lon="23.95838"></trkpt>
      <trkpt lat="49.487571" lon="23.957712"></trkpt>
      <trkpt lat="49.486947" lon="23.957249"></trkpt>
      <trkpt lat="49.486278" lon="23.956975"></trkpt>
      <trkpt lat="49.485424" lon="23.956835"></trkpt>
      <trkpt lat="49.479507" lon="23.956563"></trkpt>
      <trkpt lat="49.476441" lon="23.956297"></trkpt>
      <trkpt lat="49.473185" lon="23.956273"></trkpt>
      <trkpt lat="49.453608" lon="23.955288"></trkpt>
      <trkpt lat="49.451805" lon="23.954785"></trkpt>
      <trkpt lat="49.425529" lon="23.94618"></trkpt>
      <trkpt lat="49.411953" lon="23.94185"></trkpt>
      <trkpt lat="49.410881" lon="23.941602"></trkpt>
      <trkpt lat="49.410143" lon="23.941624"></trkpt>
      <trkpt lat="49.408469" lon="23.941921"></trkpt>
      <trkpt lat="49.400363" lon="23.943505"></trkpt>
      <trkpt lat="49.396468" lon="23.944719"></trkpt>
      <trkpt lat="49.393493" lon="23.945856"></trkpt>
      <trkpt lat="49.392399" lon="23.945909"></trkpt>
      <trkpt lat="49.391624" lon="23.945606"></trkpt>
      <trkpt lat="49.391123" lon="23.945245"></trkpt>
      <trkpt lat="49.390495" lon="23.944562"></trkpt>
      <trkpt lat="49.389479" lon="23.943145"></trkpt>
      <trkpt lat="49.388622" lon="23.942405"></trkpt>
      <trkpt lat="49.33662" lon="23.910702"></trkpt>
      <trkpt lat="49.296422" lon="23.886034"></trkpt>
      <trkpt lat="49.273454" lon="23.871544"></trkpt>
      <trkpt lat="49.271461" lon="23.875493"></trkpt>
      <trkpt lat="49.271265" lon="23.875487"></trkpt>
      <trkpt lat="49.270949" lon="23.875153"></trkpt>
      <trkpt lat="49.268961" lon="23.872686"></trkpt>
      <trkpt lat="49.268728" lon="23.872836"></trkpt>
      <trkpt lat="49.267268" lon="23.875849"></trkpt>
      <trkpt lat="49.266905" lon="23.875949"></trkpt>
      <trkpt lat="49.26645" lon="23.875848"></trkpt>
      <trkpt lat="49.265652" lon="23.875343"></trkpt>
      <trkpt lat="49.260727" lon="23.868211"></trkpt>
      <trkpt lat="49.249576" lon="23.859324"></trkpt>
      <trkpt lat="49.247307" lon="23.856499"></trkpt>
      <trkpt lat="49.246865" lon="23.85444"></trkpt>
      <trkpt lat="49.246611" lon="23.854324"></trkpt>
      <trkpt lat="49.246236" lon="23.854624"></trkpt>
      <trkpt lat="49.246022" lon="23.854589"></trkpt>
      <trkpt lat="49.245009" lon="23.853144"></trkpt>
      <trkpt lat="49.242861" lon="23.849236"></trkpt>
      <trkpt lat="49.241774" lon="23.845347"></trkpt>
      <trkpt lat="49.241399" lon="23.844633"></trkpt>
      <trkpt lat="49.239956" lon="23.842564"></trkpt>
      <trkpt lat="49.2384" lon="23.838705"></trkpt>
      <trkpt lat="49.236632" lon="23.836028"></trkpt>
      <trkpt lat="49.235197" lon="23.832135"></trkpt>
      <trkpt lat="49.232763" lon="23.828579"></trkpt>
      <trkpt lat="49.231232" lon="23.826026"></trkpt>
      <trkpt lat="49.230836" lon="23.824923"></trkpt>
      <trkpt lat="49.23033" lon="23.821966"></trkpt>
      <trkpt lat="49.229835" lon="23.820584"></trkpt>
      <trkpt lat="49.223652" lon="23.811844"></trkpt>
      <trkpt lat="49.222537" lon="23.809746"></trkpt>
      <trkpt lat="49.222156" lon="23.808671"></trkpt>
      <trkpt lat="49.221969" lon="23.807542"></trkpt>
      <trkpt lat="49.221919" lon="23.804281"></trkpt>
      <trkpt lat="49.221753" lon="23.802567"></trkpt>
      <trkpt lat="49.221277" lon="23.800677"></trkpt>
      <trkpt lat="49.220694" lon="23.799311"></trkpt>
      <trkpt lat="49.214005" lon="23.788471"></trkpt>
      <trkpt lat="49.198763" lon="23.764495"></trkpt>
      <trkpt lat="49.196646" lon="23.760748"></trkpt>
      <trkpt lat="49.192053" lon="23.753967"></trkpt>
      <trkpt lat="49.163783" lon="23.717358"></trkpt>
      <trkpt lat="49.150336" lon="23.703641"></trkpt>
      <trkpt lat="49.140742" lon="23.693548"></trkpt>
      <trkpt lat="49.133424" lon="23.685749"></trkpt>
      <trkpt lat="49.128099" lon="23.679375"></trkpt>
      <trkpt lat="49.121336" lon="23.672977"></trkpt>
      <trkpt lat="49.12085" lon="23.672289"></trkpt>
      <trkpt lat="49.119888" lon="23.670514"></trkpt>
      <trkpt lat="49.119544" lon="23.670103"></trkpt>
      <trkpt lat="49.118896" lon="23.66971"></trkpt>
      <trkpt lat="49.11779" lon="23.669597"></trkpt>
      <trkpt lat="49.11713" lon="23.669228"></trkpt>
      <trkpt lat="49.116233" lon="23.668401"></trkpt>
      <trkpt lat="49.115476" lon="23.667328"></trkpt>
      <trkpt lat="49.113517" lon="23.663"></trkpt>
      <trkpt lat="49.113144" lon="23.661859"></trkpt>
      <trkpt lat="49.105571" lon="23.635342"></trkpt>
      <trkpt lat="49.104373" lon="23.630112"></trkpt>
      <trkpt lat="49.102737" lon="23.615662"></trkpt>
      <trkpt lat="49.102708" lon="23.614916"></trkpt>
      <trkpt lat="49.102852" lon="23.613727"></trkpt>
      <trkpt lat="49.103322" lon="23.611458"></trkpt>
      <trkpt lat="49.103658" lon="23.610564"></trkpt>
      <trkpt lat="49.104256" lon="23.609791"></trkpt>
      <trkpt lat="49.107878" lon="23.607267"></trkpt>
      <trkpt lat="49.109259" lon="23.604208"></trkpt>
      <trkpt lat="49.109974" lon="23.602157"></trkpt>
      <trkpt lat="49.110218" lon="23.600531"></trkpt>
      <trkpt lat="49.110119" lon="23.598746"></trkpt>
      <trkpt lat="49.109396" lon="23.594222"></trkpt>
      <trkpt lat="49.108888" lon="23.592507"></trkpt>
      <trkpt lat="49.108437" lon="23.591868"></trkpt>
      <trkpt lat="49.107843" lon="23.591514"></trkpt>
      <trkpt lat="49.106851" lon="23.591271"></trkpt>
      <trkpt lat="49.102192" lon="23.59058"></trkpt>
      <trkpt lat="49.101451" lon="23.590336"></trkpt>
      <trkpt lat="49.088827" lon="23.583702"></trkpt>
      <trkpt lat="49.087438" lon="23.582867"></trkpt>
      <trkpt lat="49.072663" lon="23.564873"></trkpt>
      <trkpt lat="49.06328" lon="23.553642"></trkpt>
      <trkpt lat="49.062581" lon="23.552583"></trkpt>
      <trkpt lat="49.055311" lon="23.538307"></trkpt>
      <trkpt lat="49.053269" lon="23.533862"></trkpt>
      <trkpt lat="49.052814" lon="23.532298"></trkpt>
      <trkpt lat="49.052634" lon="23.532119"></trkpt>
      <trkpt lat="49.052171" lon="23.530396"></trkpt>
      <trkpt lat="49.051457" lon="23.528684"></trkpt>
      <trkpt lat="49.049013" lon="23.525445"></trkpt>
      <trkpt lat="49.048037" lon="23.523276"></trkpt>
      <trkpt lat="49.047764" lon="23.523025"></trkpt>
      <trkpt lat="49.046898" lon="23.52261"></trkpt>
      <trkpt lat="49.046124" lon="23.521993"></trkpt>
      <trkpt lat="49.046551" lon="23.521794"></trkpt>
      <trkpt lat="49.047235" lon="23.520944"></trkpt>
      <trkpt lat="49.04732" lon="23.520926"></trkpt>
      <trkpt lat="49.047496" lon="23.521268"></trkpt>
      <trkpt lat="49.047303" lon="23.521477"></trkpt>
      <trkpt lat="49.045858" lon="23.515767"></trkpt>
      <trkpt lat="49.04529" lon="23.514329"></trkpt>
      <trkpt lat="49.043957" lon="23.512543"></trkpt>
      <trkpt lat="49.043691" lon="23.512015"></trkpt>
      <trkpt lat="49.041504" lon="23.506189"></trkpt>
      <trkpt lat="49.040725" lon="23.504424"></trkpt>
      <trkpt lat="49.040309" lon="23.503749"></trkpt>
      <trkpt lat="49.039751" lon="23.503134"></trkpt>
      <trkpt lat="49.039129" lon="23.502654"></trkpt>
      <trkpt lat="49.037624" lon="23.50201"></trkpt>
      <trkpt lat="49.036653" lon="23.501763"></trkpt>
      <trkpt lat="49.034737" lon="23.501713"></trkpt>
      <trkpt lat="49.029366" lon="23.501889"></trkpt>
      <trkpt lat="49.02901" lon="23.501822"></trkpt>
      <trkpt lat="49.028585" lon="23.501567"></trkpt>
      <trkpt lat="49.026193" lon="23.498508"></trkpt>
      <trkpt lat="49.025532" lon="23.497386"></trkpt>
      <trkpt lat="49.019262" lon="23.479274"></trkpt>
      <trkpt lat="49.018039" lon="23.476708"></trkpt>
      <trkpt lat="49.017586" lon="23.476194"></trkpt>
      <trkpt lat="49.016143" lon="23.475221"></trkpt>
      <trkpt lat="49.010596" lon="23.473483"></trkpt>
      <trkpt lat="49.009856" lon="23.473128"></trkpt>
      <trkpt lat="49.009198" lon="23.47244"></trkpt>
      <trkpt lat="49.007644" lon="23.469353"></trkpt>
      <trkpt lat="49.006813" lon="23.468895"></trkpt>
      <trkpt lat="49.004603" lon="23.468398"></trkpt>
      <trkpt lat="49.004211" lon="23.46805"></trkpt>
      <trkpt lat="49.003242" lon="23.465653"></trkpt>
      <trkpt lat="49.003079" lon="23.464646"></trkpt>
      <trkpt lat="49.005459" lon="23.454731"></trkpt>
      <trkpt lat="49.006765" lon="23.438389"></trkpt>
      <trkpt lat="49.00711" lon="23.436662"></trkpt>
      <trkpt lat="49.009146" lon="23.429658"></trkpt>
      <trkpt lat="49.009339" lon="23.428293"></trkpt>
      <trkpt lat="49.009325" lon="23.426943"></trkpt>
      <trkpt lat="49.008939" lon="23.425645"></trkpt>
      <trkpt lat="49.0062" lon="23.419166"></trkpt>
      <trkpt lat="49.003817" lon="23.415182"></trkpt>
      <trkpt lat="49.003103" lon="23.414106"></trkpt>
      <trkpt lat="49.000123" lon="23.411932"></trkpt>
      <trkpt lat="48.999466" lon="23.411146"></trkpt>
      <trkpt lat="48.998696" lon="23.408856"></trkpt>
      <trkpt lat="48.998206" lon="23.406148"></trkpt>
      <trkpt lat="48.997812" lon="23.40502"></trkpt>
      <trkpt lat="48.997242" lon="23.404285"></trkpt>
      <trkpt lat="48.996325" lon="23.403797"></trkpt>
      <trkpt lat="48.995454" lon="23.403732"></trkpt>
      <trkpt lat="48.994356" lon="23.40391"></trkpt>
      <trkpt lat="48.993628" lon="23.403657"></trkpt>
      <trkpt lat="48.991584" lon="23.402344"></trkpt>
      <trkpt lat="48.990062" lon="23.400172"></trkpt>
      <trkpt lat="48.987977" lon="23.398904"></trkpt>
      <trkpt lat="48.986833" lon="23.397967"></trkpt>
      <trkpt lat="48.986262" lon="23.397633"></trkpt>
      <trkpt lat="48.98451" lon="23.397003"></trkpt>
      <trkpt lat="48.984154" lon="23.396737"></trkpt>
      <trkpt lat="48.983568" lon="23.395848"></trkpt>
      <trkpt lat="48.981747" lon="23.392093"></trkpt>
      <trkpt lat="48.981257" lon="23.392032"></trkpt>
      <trkpt lat="48.97877" lon="23.392541"></trkpt>
      <trkpt lat="48.977268" lon="23.392059"></trkpt>
      <trkpt lat="48.974934" lon="23.392199"></trkpt>
      <trkpt lat="48.974406" lon="23.392124"></trkpt>
      <trkpt lat="48.974107" lon="23.391937"></trkpt>
      <trkpt lat="48.971728" lon="23.389619"></trkpt>
      <trkpt lat="48.970791" lon="23.388273"></trkpt>
      <trkpt lat="48.96964" lon="23.387573"></trkpt>
      <trkpt lat="48.967464" lon="23.385439"></trkpt>
      <trkpt lat="48.966336" lon="23.384045"></trkpt>
      <trkpt lat="48.964688" lon="23.382498"></trkpt>
      <trkpt lat="48.963991" lon="23.381894"></trkpt>
      <trkpt lat="48.962735" lon="23.381344"></trkpt>
      <trkpt lat="48.962453" lon="23.381076"></trkpt>
      <trkpt lat="48.96223" lon="23.380567"></trkpt>
      <trkpt lat="48.960919" lon="23.374357"></trkpt>
      <trkpt lat="48.95968" lon="23.367363"></trkpt>
      <trkpt lat="48.958125" lon="23.364699"></trkpt>
      <trkpt lat="48.956964" lon="23.361402"></trkpt>
      <trkpt lat="48.954757" lon="23.358626"></trkpt>
      <trkpt lat="48.953634" lon="23.35669"></trkpt>
      <trkpt lat="48.951628" lon="23.354401"></trkpt>
      <trkpt lat="48.951325" lon="23.353806"></trkpt>
      <trkpt lat="48.950685" lon="23.35013"></trkpt>
      <trkpt lat="48.950253" lon="23.345613"></trkpt>
      <trkpt lat="48.949409" lon="23.34127"></trkpt>
      <trkpt lat="48.949283" lon="23.339667"></trkpt>
      <trkpt lat="48.947557" lon="23.335662"></trkpt>
      <trkpt lat="48.947116" lon="23.335381"></trkpt>
      <trkpt lat="48.945408" lon="23.335219"></trkpt>
      <trkpt lat="48.944778" lon="23.335051"></trkpt>
      <trkpt lat="48.944258" lon="23.334592"></trkpt>
      <trkpt lat="48.943108" lon="23.33323"></trkpt>
      <trkpt lat="48.941762" lon="23.332402"></trkpt>
      <trkpt lat="48.939376" lon="23.330449"></trkpt>
      <trkpt lat="48.937168" lon="23.326642"></trkpt>
      <trkpt lat="48.935428" lon="23.325103"></trkpt>
      <trkpt lat="48.934482" lon="23.322881"></trkpt>
      <trkpt lat="48.932671" lon="23.321455"></trkpt>
      <trkpt lat="48.930287" lon="23.31881"></trkpt>
      <trkpt lat="48.927857" lon="23.317299"></trkpt>
      <trkpt lat="48.926905" lon="23.315746"></trkpt>
      <trkpt lat="48.925231" lon="23.314209"></trkpt>
      <trkpt lat="48.924469" lon="23.312942"></trkpt>
      <trkpt lat="48.924044" lon="23.3112"></trkpt>
      <trkpt lat="48.92355" lon="23.310257"></trkpt>
      <trkpt lat="48.921426" lon="23.308724"></trkpt>
      <trkpt lat="48.918982" lon="23.307159"></trkpt>
      <trkpt lat="48.918639" lon="23.306802"></trkpt>
      <trkpt lat="48.918234" lon="23.306012"></trkpt>
      <trkpt lat="48.917233" lon="23.303147"></trkpt>
      <trkpt lat="48.916649" lon="23.302112"></trkpt>
      <trkpt lat="48.914936" lon="23.300092"></trkpt>
      <trkpt lat="48.913772" lon="23.29805"></trkpt>
      <trkpt lat="48.911786" lon="23.296358"></trkpt>
      <trkpt lat="48.909556" lon="23.293477"></trkpt>
      <trkpt lat="48.908516" lon="23.292787"></trkpt>
      <trkpt lat="48.907641" lon="23.292535"></trkpt>
      <trkpt lat="48.906599" lon="23.292779"></trkpt>
      <trkpt lat="48.905956" lon="23.293156"></trkpt>
      <trkpt lat="48.905154" lon="23.293998"></trkpt>
      <trkpt lat="48.904599" lon="23.294946"></trkpt>
      <trkpt lat="48.904351" lon="23.295544"></trkpt>
      <trkpt lat="48.903385" lon="23.299603"></trkpt>
      <trkpt lat="48.903047" lon="23.300398"></trkpt>
      <trkpt lat="48.902296" lon="23.3014"></trkpt>
      <trkpt lat="48.901684" lon="23.301898"></trkpt>
      <trkpt lat="48.90105" lon="23.302173"></trkpt>
      <trkpt lat="48.899031" lon="23.302426"></trkpt>
      <trkpt lat="48.896682" lon="23.303311"></trkpt>
      <trkpt lat="48.896035" lon="23.303421"></trkpt>
      <trkpt lat="48.895519" lon="23.303347"></trkpt>
      <trkpt lat="48.894926" lon="23.303052"></trkpt>
      <trkpt lat="48.894341" lon="23.302358"></trkpt>
      <trkpt lat="48.893374" lon="23.300784"></trkpt>
      <trkpt lat="48.893018" lon="23.300522"></trkpt>
      <trkpt lat="48.891874" lon="23.300016"></trkpt>
      <trkpt lat="48.891329" lon="23.299526"></trkpt>
      <trkpt lat="48.890243" lon="23.29799"></trkpt>
      <trkpt lat="48.889066" lon="23.295475"></trkpt>
      <trkpt lat="48.887497" lon="23.293221"></trkpt>
      <trkpt lat="48.887122" lon="23.293103"></trkpt>
      <trkpt lat="48.885874" lon="23.293831"></trkpt>
      <trkpt lat="48.885196" lon="23.29388"></trkpt>
      <trkpt lat="48.884009" lon="23.293203"></trkpt>
      <trkpt lat="48.881879" lon="23.292612"></trkpt>
      <trkpt lat="48.881351" lon="23.291977"></trkpt>
      <trkpt lat="48.881164" lon="23.291275"></trkpt>
      <trkpt lat="48.88045" lon="23.285541"></trkpt>
      <trkpt lat="48.8829" lon="23.282362"></trkpt>
      <trkpt lat="48.883152" lon="23.281567"></trkpt>
      <trkpt lat="48.883585" lon="23.279207"></trkpt>
      <trkpt lat="48.883864" lon="23.278476"></trkpt>
      <trkpt lat="48.884301" lon="23.2779"></trkpt>
      <trkpt lat="48.885174" lon="23.277196"></trkpt>
      <trkpt lat="48.885511" lon="23.276596"></trkpt>
      <trkpt lat="48.886037" lon="23.274981"></trkpt>
      <trkpt lat="48.886685" lon="23.272261"></trkpt>
      <trkpt lat="48.888332" lon="23.263695"></trkpt>
      <trkpt lat="48.888551" lon="23.261565"></trkpt>
      <trkpt lat="48.888593" lon="23.259359"></trkpt>
      <trkpt lat="48.888368" lon="23.258303"></trkpt>
      <trkpt lat="48.887529" lon="23.255911"></trkpt>
      <trkpt lat="48.887235" lon="23.254537"></trkpt>
      <trkpt lat="48.88734" lon="23.252587"></trkpt>
      <trkpt lat="48.887589" lon="23.250808"></trkpt>
      <trkpt lat="48.888544" lon="23.248812"></trkpt>
      <trkpt lat="48.888883" lon="23.248356"></trkpt>
      <trkpt lat="48.88936" lon="23.24814"></trkpt>
      <trkpt lat="48.890986" lon="23.248094"></trkpt>
      <trkpt lat="48.891455" lon="23.247616"></trkpt>
      <trkpt lat="48.893254" lon="23.241635"></trkpt>
      <trkpt lat="48.893955" lon="23.239764"></trkpt>
      <trkpt lat="48.894364" lon="23.239047"></trkpt>
      <trkpt lat="48.896432" lon="23.236529"></trkpt>
      <trkpt lat="48.89737" lon="23.23502"></trkpt>
      <trkpt lat="48.900233" lon="23.229133"></trkpt>
      <trkpt lat="48.901748" lon="23.225789"></trkpt>
      <trkpt lat="48.902365" lon="23.224031"></trkpt>
      <trkpt lat="48.902423" lon="23.222358"></trkpt>
      <trkpt lat="48.901813" lon="23.219882"></trkpt>
      <trkpt lat="48.901681" lon="23.218223"></trkpt>
      <trkpt lat="48.901809" lon="23.214192"></trkpt>
      <trkpt lat="48.901457" lon="23.212923"></trkpt>
      <trkpt lat="48.900056" lon="23.209637"></trkpt>
      <trkpt lat="48.899638" lon="23.207424"></trkpt>
      <trkpt lat="48.89965" lon="23.205788"></trkpt>
      <trkpt lat="48.901158" lon="23.183696"></trkpt>
      <trkpt lat="48.901193" lon="23.181214"></trkpt>
      <trkpt lat="48.900979" lon="23.177066"></trkpt>
      <trkpt lat="48.901008" lon="23.175605"></trkpt>
      <trkpt lat="48.901248" lon="23.173867"></trkpt>
      <trkpt lat="48.901826" lon="23.172075"></trkpt>
      <trkpt lat="48.90218" lon="23.171371"></trkpt>
      <trkpt lat="48.903069" lon="23.169918"></trkpt>
      <trkpt lat="48.910348" lon="23.159231"></trkpt>
      <trkpt lat="48.911531" lon="23.156828"></trkpt>
      <trkpt lat="48.912313" lon="23.154049"></trkpt>
      <trkpt lat="48.912658" lon="23.15219"></trkpt>
      <trkpt lat="48.912919" lon="23.149587"></trkpt>
      <trkpt lat="48.912783" lon="23.144298"></trkpt>
      <trkpt lat="48.911434" lon="23.133629"></trkpt>
      <trkpt lat="48.910831" lon="23.131751"></trkpt>
      <trkpt lat="48.91004" lon="23.130506"></trkpt>
      <trkpt lat="48.909318" lon="23.129687"></trkpt>
      <trkpt lat="48.90805" lon="23.128717"></trkpt>
      <trkpt lat="48.904948" lon="23.127564"></trkpt>
      <trkpt lat="48.903367" lon="23.127443"></trkpt>
      <trkpt lat="48.899717" lon="23.127725"></trkpt>
      <trkpt lat="48.896825" lon="23.127514"></trkpt>
      <trkpt lat="48.895961" lon="23.127282"></trkpt>
      <trkpt lat="48.895354" lon="23.126878"></trkpt>
      <trkpt lat="48.894715" lon="23.126007"></trkpt>
      <trkpt lat="48.893749" lon="23.123788"></trkpt>
      <trkpt lat="48.893278" lon="23.12299"></trkpt>
      <trkpt lat="48.892552" lon="23.122308"></trkpt>
      <trkpt lat="48.891966" lon="23.122051"></trkpt>
      <trkpt lat="48.891481" lon="23.121974"></trkpt>
      <trkpt lat="48.88634" lon="23.123283"></trkpt>
      <trkpt lat="48.883935" lon="23.124175"></trkpt>
      <trkpt lat="48.880119" lon="23.124391"></trkpt>
      <trkpt lat="48.879572" lon="23.124529"></trkpt>
      <trkpt lat="48.878706" lon="23.125229"></trkpt>
      <trkpt lat="48.877491" lon="23.127739"></trkpt>
      <trkpt lat="48.876804" lon="23.128442"></trkpt>
      <trkpt lat="48.876278" lon="23.128691"></trkpt>
      <trkpt lat="48.874233" lon="23.129133"></trkpt>
      <trkpt lat="48.871941" lon="23.129898"></trkpt>
      <trkpt lat="48.87123" lon="23.130454"></trkpt>
      <trkpt lat="48.870116" lon="23.132082"></trkpt>
      <trkpt lat="48.869295" lon="23.132803"></trkpt>
      <trkpt lat="48.86862" lon="23.132932"></trkpt>
      <trkpt lat="48.867919" lon="23.132593"></trkpt>
      <trkpt lat="48.863386" lon="23.126167"></trkpt>
      <trkpt lat="48.862443" lon="23.125473"></trkpt>
      <trkpt lat="48.860539" lon="23.124834"></trkpt>
      <trkpt lat="48.859981" lon="23.124203"></trkpt>
      <trkpt lat="48.859734" lon="23.123684"></trkpt>
      <trkpt lat="48.858958" lon="23.121094"></trkpt>
      <trkpt lat="48.858432" lon="23.120444"></trkpt>
      <trkpt lat="48.857011" lon="23.119395"></trkpt>
      <trkpt lat="48.856469" lon="23.118623"></trkpt>
      <trkpt lat="48.856163" lon="23.117432"></trkpt>
      <trkpt lat="48.856216" lon="23.11548"></trkpt>
      <trkpt lat="48.856086" lon="23.114432"></trkpt>
      <trkpt lat="48.855753" lon="23.113777"></trkpt>
      <trkpt lat="48.854511" lon="23.11239"></trkpt>
      <trkpt lat="48.85425" lon="23.111729"></trkpt>
      <trkpt lat="48.854204" lon="23.110684"></trkpt>
      <trkpt lat="48.854996" lon="23.10744"></trkpt>
      <trkpt lat="48.855059" lon="23.106452"></trkpt>
      <trkpt lat="48.854716" lon="23.105805"></trkpt>
      <trkpt lat="48.853805" lon="23.105154"></trkpt>
      <trkpt lat="48.853335" lon="23.104666"></trkpt>
      <trkpt lat="48.852895" lon="23.10373"></trkpt>
      <trkpt lat="48.852749" lon="23.10279"></trkpt>
      <trkpt lat="48.853002" lon="23.102129"></trkpt>
      <trkpt lat="48.854865" lon="23.100602"></trkpt>
      <trkpt lat="48.855171" lon="23.100013"></trkpt>
      <trkpt lat="48.855195" lon="23.098685"></trkpt>
      <trkpt lat="48.854805" lon="23.096923"></trkpt>
      <trkpt lat="48.854758" lon="23.096185"></trkpt>
      <trkpt lat="48.854975" lon="23.095467"></trkpt>
      <trkpt lat="48.855949" lon="23.094522"></trkpt>
      <trkpt lat="48.85634" lon="23.093785"></trkpt>
      <trkpt lat="48.856347" lon="23.093023"></trkpt>
      <trkpt lat="48.85591" lon="23.091771"></trkpt>
      <trkpt lat="48.85524" lon="23.090869"></trkpt>
      <trkpt lat="48.854181" lon="23.090201"></trkpt>
      <trkpt lat="48.851669" lon="23.090069"></trkpt>
      <trkpt lat="48.850492" lon="23.08955"></trkpt>
      <trkpt lat="48.84991" lon="23.088972"></trkpt>
      <trkpt lat="48.848866" lon="23.087144"></trkpt>
      <trkpt lat="48.848226" lon="23.08521"></trkpt>
      <trkpt lat="48.847712" lon="23.084765"></trkpt>
      <trkpt lat="48.847073" lon="23.08449"></trkpt>
      <trkpt lat="48.84646" lon="23.083872"></trkpt>
      <trkpt lat="48.842589" lon="23.07769"></trkpt>
      <trkpt lat="48.841967" lon="23.075719"></trkpt>
      <trkpt lat="48.841003" lon="23.071022"></trkpt>
      <trkpt lat="48.840209" lon="23.069104"></trkpt>
      <trkpt lat="48.839647" lon="23.068288"></trkpt>
      <trkpt lat="48.839047" lon="23.067679"></trkpt>
      <trkpt lat="48.838041" lon="23.066996"></trkpt>
      <trkpt lat="48.837354" lon="23.066678"></trkpt>
      <trkpt lat="48.836613" lon="23.066563"></trkpt>
      <trkpt lat="48.83587" lon="23.066656"></trkpt>
      <trkpt lat="48.832154" lon="23.068171"></trkpt>
      <trkpt lat="48.831222" lon="23.068411"></trkpt>
      <trkpt lat="48.826322" lon="23.068843"></trkpt>
      <trkpt lat="48.825706" lon="23.069102"></trkpt>
      <trkpt lat="48.824255" lon="23.070558"></trkpt>
      <trkpt lat="48.823499" lon="23.07099"></trkpt>
      <trkpt lat="48.82272" lon="23.071033"></trkpt>
      <trkpt lat="48.819493" lon="23.070594"></trkpt>
      <trkpt lat="48.81865" lon="23.070683"></trkpt>
      <trkpt lat="48.818163" lon="23.070854"></trkpt>
      <trkpt lat="48.817426" lon="23.071548"></trkpt>
      <trkpt lat="48.814146" lon="23.076852"></trkpt>
      <trkpt lat="48.813189" lon="23.078116"></trkpt>
      <trkpt lat="48.812209" lon="23.079079"></trkpt>
      <trkpt lat="48.81141" lon="23.079558"></trkpt>
      <trkpt lat="48.810434" lon="23.079852"></trkpt>
      <trkpt lat="48.802148" lon="23.081068"></trkpt>
      <trkpt lat="48.800881" lon="23.081447"></trkpt>
      <trkpt lat="48.800157" lon="23.081874"></trkpt>
      <trkpt lat="48.799686" lon="23.082345"></trkpt>
      <trkpt lat="48.797183" lon="23.086015"></trkpt>
      <trkpt lat="48.796082" lon="23.086987"></trkpt>
      <trkpt lat="48.795371" lon="23.087279"></trkpt>
      <trkpt lat="48.78997" lon="23.087096"></trkpt>
      <trkpt lat="48.783138" lon="23.088129"></trkpt>
      <trkpt lat="48.773041" lon="23.089841"></trkpt>
      <trkpt lat="48.77237" lon="23.09028"></trkpt>
      <trkpt lat="48.771296" lon="23.09179"></trkpt>
      <trkpt lat="48.76873" lon="23.093853"></trkpt>
      <trkpt lat="48.767939" lon="23.094167"></trkpt>
      <trkpt lat="48.762811" lon="23.094424"></trkpt>
      <trkpt lat="48.75979" lon="23.094271"></trkpt>
      <trkpt lat="48.755155" lon="23.093894"></trkpt>
      <trkpt lat="48.753539" lon="23.09323"></trkpt>
      <trkpt lat="48.753115" lon="23.0932"></trkpt>
      <trkpt lat="48.751239" lon="23.093609"></trkpt>
      <trkpt lat="48.750721" lon="23.093623"></trkpt>
      <trkpt lat="48.750171" lon="23.093424"></trkpt>
      <trkpt lat="48.749548" lon="23.092946"></trkpt>
      <trkpt lat="48.748876" lon="23.092008"></trkpt>
      <trkpt lat="48.748503" lon="23.091145"></trkpt>
      <trkpt lat="48.74718" lon="23.086854"></trkpt>
      <trkpt lat="48.746807" lon="23.083104"></trkpt>
      <trkpt lat="48.746288" lon="23.081959"></trkpt>
      <trkpt lat="48.745504" lon="23.081229"></trkpt>
      <trkpt lat="48.742797" lon="23.079898"></trkpt>
      <trkpt lat="48.740628" lon="23.078295"></trkpt>
      <trkpt lat="48.739502" lon="23.077088"></trkpt>
      <trkpt lat="48.738858" lon="23.075962"></trkpt>
      <trkpt lat="48.735909" lon="23.068997"></trkpt>
      <trkpt lat="48.735572" lon="23.067966"></trkpt>
      <trkpt lat="48.735437" lon="23.06682"></trkpt>
      <trkpt lat="48.735485" lon="23.064053"></trkpt>
      <trkpt lat="48.734271" lon="23.056563"></trkpt>
      <trkpt lat="48.733804" lon="23.055687"></trkpt>
      <trkpt lat="48.733231" lon="23.05504"></trkpt>
      <trkpt lat="48.732559" lon="23.054569"></trkpt>
      <trkpt lat="48.730492" lon="23.053497"></trkpt>
      <trkpt lat="48.730129" lon="23.053132"></trkpt>
      <trkpt lat="48.729884" lon="23.052569"></trkpt>
      <trkpt lat="48.72916" lon="23.049303"></trkpt>
      <trkpt lat="48.72863" lon="23.048392"></trkpt>
      <trkpt lat="48.728008" lon="23.047906"></trkpt>
      <trkpt lat="48.727273" lon="23.047757"></trkpt>
      <trkpt lat="48.725942" lon="23.047744"></trkpt>
      <trkpt lat="48.724166" lon="23.047193"></trkpt>
      <trkpt lat="48.722066" lon="23.0476"></trkpt>
      <trkpt lat="48.721501" lon="23.047607"></trkpt>
      <trkpt lat="48.720686" lon="23.047406"></trkpt>
      <trkpt lat="48.719455" lon="23.04679"></trkpt>
      <trkpt lat="48.71859" lon="23.046674"></trkpt>
      <trkpt lat="48.717867" lon="23.0469"></trkpt>
      <trkpt lat="48.717264" lon="23.047368"></trkpt>
      <trkpt lat="48.715965" lon="23.049258"></trkpt>
      <trkpt lat="48.715341" lon="23.049864"></trkpt>
      <trkpt lat="48.714863" lon="23.050058"></trkpt>
      <trkpt lat="48.714135" lon="23.050038"></trkpt>
      <trkpt lat="48.712911" lon="23.049425"></trkpt>
      <trkpt lat="48.7115" lon="23.048504"></trkpt>
      <trkpt lat="48.707985" lon="23.045493"></trkpt>
      <trkpt lat="48.706506" lon="23.044858"></trkpt>
      <trkpt lat="48.704521" lon="23.044292"></trkpt>
      <trkpt lat="48.701743" lon="23.043707"></trkpt>
      <trkpt lat="48.700883" lon="23.043713"></trkpt>
      <trkpt lat="48.698552" lon="23.044029"></trkpt>
      <trkpt lat="48.697171" lon="23.044393"></trkpt>
      <trkpt lat="48.69678" lon="23.044365"></trkpt>
      <trkpt lat="48.696311" lon="23.044168"></trkpt>
      <trkpt lat="48.695446" lon="23.043484"></trkpt>
      <trkpt lat="48.692853" lon="23.039988"></trkpt>
      <trkpt lat="48.692424" lon="23.03959"></trkpt>
      <trkpt lat="48.69203" lon="23.039395"></trkpt>
      <trkpt lat="48.691535" lon="23.039336"></trkpt>
      <trkpt lat="48.690321" lon="23.039835"></trkpt>
      <trkpt lat="48.687818" lon="23.041736"></trkpt>
      <trkpt lat="48.687415" lon="23.042148"></trkpt>
      <trkpt lat="48.686883" lon="23.043191"></trkpt>
      <trkpt lat="48.686188" lon="23.045886"></trkpt>
      <trkpt lat="48.685596" lon="23.046672"></trkpt>
      <trkpt lat="48.685004" lon="23.047184"></trkpt>
      <trkpt lat="48.683938" lon="23.04756"></trkpt>
      <trkpt lat="48.683466" lon="23.047547"></trkpt>
      <trkpt lat="48.681691" lon="23.046796"></trkpt>
      <trkpt lat="48.680989" lon="23.046669"></trkpt>
      <trkpt lat="48.680316" lon="23.046744"></trkpt>
      <trkpt lat="48.67905" lon="23.047122"></trkpt>
      <trkpt lat="48.677951" lon="23.047701"></trkpt>
      <trkpt lat="48.676794" lon="23.048587"></trkpt>
      <trkpt lat="48.674456" lon="23.051296"></trkpt>
      <trkpt lat="48.673774" lon="23.051942"></trkpt>
      <trkpt lat="48.672977" lon="23.052492"></trkpt>
      <trkpt lat="48.672249" lon="23.052768"></trkpt>
      <trkpt lat="48.671286" lon="23.052714"></trkpt>
      <trkpt lat="48.668912" lon="23.051925"></trkpt>
      <trkpt lat="48.668353" lon="23.051846"></trkpt>
      <trkpt lat="48.663439" lon="23.051906"></trkpt>
      <trkpt lat="48.662217" lon="23.052189"></trkpt>
      <trkpt lat="48.661355" lon="23.052569"></trkpt>
      <trkpt lat="48.660908" lon="23.052898"></trkpt>
      <trkpt lat="48.658604" lon="23.055777"></trkpt>
      <trkpt lat="48.657712" lon="23.056686"></trkpt>
      <trkpt lat="48.65683" lon="23.057226"></trkpt>
      <trkpt lat="48.655232" lon="23.057763"></trkpt>
      <trkpt lat="48.654367" lon="23.057799"></trkpt>
      <trkpt lat="48.653613" lon="23.057455"></trkpt>
      <trkpt lat="48.651976" lon="23.055696"></trkpt>
      <trkpt lat="48.650741" lon="23.054835"></trkpt>
      <trkpt lat="48.64909" lon="23.054343"></trkpt>
      <trkpt lat="48.64772" lon="23.05411"></trkpt>
      <trkpt lat="48.646799" lon="23.054066"></trkpt>
      <trkpt lat="48.644771" lon="23.054335"></trkpt>
      <trkpt lat="48.644091" lon="23.054179"></trkpt>
      <trkpt lat="48.642964" lon="23.053473"></trkpt>
      <trkpt lat="48.641666" lon="23.051737"></trkpt>
      <trkpt lat="48.641333" lon="23.051433"></trkpt>
      <trkpt lat="48.640848" lon="23.051185"></trkpt>
      <trkpt lat="48.639721" lon="23.051012"></trkpt>
      <trkpt lat="48.639018" lon="23.050708"></trkpt>
      <trkpt lat="48.636923" lon="23.048897"></trkpt>
      <trkpt lat="48.635658" lon="23.048447"></trkpt>
      <trkpt lat="48.633887" lon="23.048598"></trkpt>
      <trkpt lat="48.633489" lon="23.048528"></trkpt>
      <trkpt lat="48.630339" lon="23.046283"></trkpt>
      <trkpt lat="48.629494" lon="23.045934"></trkpt>
      <trkpt lat="48.628562" lon="23.045851"></trkpt>
      <trkpt lat="48.627055" lon="23.04587"></trkpt>
      <trkpt lat="48.626451" lon="23.04601"></trkpt>
      <trkpt lat="48.625974" lon="23.046329"></trkpt>
      <trkpt lat="48.62558" lon="23.046789"></trkpt>
      <trkpt lat="48.625021" lon="23.047922"></trkpt>
      <trkpt lat="48.623676" lon="23.052581"></trkpt>
      <trkpt lat="48.623193" lon="23.053243"></trkpt>
      <trkpt lat="48.622639" lon="23.053568"></trkpt>
      <trkpt lat="48.622124" lon="23.05362"></trkpt>
      <trkpt lat="48.618179" lon="23.052276"></trkpt>
      <trkpt lat="48.6175" lon="23.052506"></trkpt>
      <trkpt lat="48.616941" lon="23.053113"></trkpt>
      <trkpt lat="48.616003" lon="23.055367"></trkpt>
      <trkpt lat="48.614969" lon="23.057008"></trkpt>
      <trkpt lat="48.614279" lon="23.057839"></trkpt>
      <trkpt lat="48.613427" lon="23.058123"></trkpt>
      <trkpt lat="48.612853" lon="23.05795"></trkpt>
      <trkpt lat="48.612032" lon="23.057345"></trkpt>
      <trkpt lat="48.609839" lon="23.05488"></trkpt>
      <trkpt lat="48.608009" lon="23.053981"></trkpt>
      <trkpt lat="48.607228" lon="23.053275"></trkpt>
      <trkpt lat="48.606564" lon="23.052043"></trkpt>
      <trkpt lat="48.605111" lon="23.047647"></trkpt>
      <trkpt lat="48.604409" lon="23.04652"></trkpt>
      <trkpt lat="48.603912" lon="23.046139"></trkpt>
      <trkpt lat="48.600601" lon="23.044327"></trkpt>
      <trkpt lat="48.598978" lon="23.042547"></trkpt>
      <trkpt lat="48.598618" lon="23.042482"></trkpt>
      <trkpt lat="48.598146" lon="23.042598"></trkpt>
      <trkpt lat="48.595381" lon="23.043888"></trkpt>
      <trkpt lat="48.594322" lon="23.043973"></trkpt>
      <trkpt lat="48.593169" lon="23.043733"></trkpt>
      <trkpt lat="48.588641" lon="23.042055"></trkpt>
      <trkpt lat="48.587069" lon="23.041002"></trkpt>
      <trkpt lat="48.583771" lon="23.037703"></trkpt>
      <trkpt lat="48.582491" lon="23.03676"></trkpt>
      <trkpt lat="48.575906" lon="23.034089"></trkpt>
      <trkpt lat="48.574763" lon="23.033427"></trkpt>
      <trkpt lat="48.574025" lon="23.032708"></trkpt>
      <trkpt lat="48.571105" lon="23.029302"></trkpt>
      <trkpt lat="48.570471" lon="23.028683"></trkpt>
      <trkpt lat="48.569216" lon="23.027786"></trkpt>
      <trkpt lat="48.568145" lon="23.02725"></trkpt>
      <trkpt lat="48.561156" lon="23.024897"></trkpt>
      <trkpt lat="48.559556" lon="23.024244"></trkpt>
      <trkpt lat="48.55912" lon="23.023761"></trkpt>
      <trkpt lat="48.558867" lon="23.023157"></trkpt>
      <trkpt lat="48.558157" lon="23.019537"></trkpt>
      <trkpt lat="48.557952" lon="23.017611"></trkpt>
      <trkpt lat="48.557962" lon="23.015539"></trkpt>
      <trkpt lat="48.558512" lon="23.009385"></trkpt>
      <trkpt lat="48.557845" lon="23.003154"></trkpt>
      <trkpt lat="48.557865" lon="23.001871"></trkpt>
      <trkpt lat="48.558119" lon="23.000371"></trkpt>
      <trkpt lat="48.560283" lon="22.99344"></trkpt>
      <trkpt lat="48.560921" lon="22.988018"></trkpt>
      <trkpt lat="48.561996" lon="22.983657"></trkpt>
      <trkpt lat="48.562664" lon="22.9776"></trkpt>
      <trkpt lat="48.563173" lon="22.976262"></trkpt>
      <trkpt lat="48.565198" lon="22.972635"></trkpt>
      <trkpt lat="48.56548" lon="22.971484"></trkpt>
      <trkpt lat="48.565511" lon="22.970397"></trkpt>
      <trkpt lat="48.565145" lon="22.968439"></trkpt>
      <trkpt lat="48.559703" lon="22.949939"></trkpt>
      <trkpt lat="48.558156" lon="22.945379"></trkpt>
      <trkpt lat="48.557054" lon="22.942995"></trkpt>
      <trkpt lat="48.556219" lon="22.94049"></trkpt>
      <trkpt lat="48.555688" lon="22.938423"></trkpt>
      <trkpt lat="48.554896" lon="22.937103"></trkpt>
      <trkpt lat="48.55144" lon="22.932901"></trkpt>
      <trkpt lat="48.550733" lon="22.93215"></trkpt>
      <trkpt lat="48.547427" lon="22.929617"></trkpt>
      <trkpt lat="48.546889" lon="22.929283"></trkpt>
      <trkpt lat="48.546009" lon="22.928976"></trkpt>
      <trkpt lat="48.544996" lon="22.929053"></trkpt>
      <trkpt lat="48.543549" lon="22.929591"></trkpt>
      <trkpt lat="48.542525" lon="22.929634"></trkpt>
      <trkpt lat="48.541848" lon="22.929446"></trkpt>
      <trkpt lat="48.54128" lon="22.929213"></trkpt>
      <trkpt lat="48.540284" lon="22.928385"></trkpt>
      <trkpt lat="48.539906" lon="22.927975"></trkpt>
      <trkpt lat="48.539176" lon="22.926681"></trkpt>
      <trkpt lat="48.536554" lon="22.920183"></trkpt>
      <trkpt lat="48.53614" lon="22.918735"></trkpt>
      <trkpt lat="48.535964" lon="22.917475"></trkpt>
      <trkpt lat="48.535939" lon="22.915949"></trkpt>
      <trkpt lat="48.536151" lon="22.914182"></trkpt>
      <trkpt lat="48.536551" lon="22.912857"></trkpt>
      <trkpt lat="48.537873" lon="22.909415"></trkpt>
      <trkpt lat="48.53817" lon="22.90767"></trkpt>
      <trkpt lat="48.538117" lon="22.90615"></trkpt>
      <trkpt lat="48.535919" lon="22.892743"></trkpt>
      <trkpt lat="48.53554" lon="22.891902"></trkpt>
      <trkpt lat="48.534611" lon="22.890594"></trkpt>
      <trkpt lat="48.533478" lon="22.888636"></trkpt>
      <trkpt lat="48.532738" lon="22.887841"></trkpt>
      <trkpt lat="48.530701" lon="22.886119"></trkpt>
      <trkpt lat="48.523312" lon="22.878594"></trkpt>
      <trkpt lat="48.520099" lon="22.872607"></trkpt>
      <trkpt lat="48.519294" lon="22.871297"></trkpt>
      <trkpt lat="48.503308" lon="22.849295"></trkpt>
      <trkpt lat="48.493275" lon="22.844723"></trkpt>
      <trkpt lat="48.492856" lon="22.844275"></trkpt>
      <trkpt lat="48.489801" lon="22.838857"></trkpt>
      <trkpt lat="48.489556" lon="22.83757"></trkpt>
      <trkpt lat="48.489423" lon="22.837355"></trkpt>
      <trkpt lat="48.488911" lon="22.837128"></trkpt>
      <trkpt lat="48.488524" lon="22.837252"></trkpt>
      <trkpt lat="48.488407" lon="22.838131"></trkpt>
      <trkpt lat="48.488166" lon="22.838571"></trkpt>
      <trkpt lat="48.485499" lon="22.841006"></trkpt>
      <trkpt lat="48.483937" lon="22.842934"></trkpt>
      <trkpt lat="48.482909" lon="22.841902"></trkpt>
      <trkpt lat="48.481054" lon="22.840413"></trkpt>
      <trkpt lat="48.480665" lon="22.839848"></trkpt>
      <trkpt lat="48.479901" lon="22.838188"></trkpt>
      <trkpt lat="48.478336" lon="22.836198"></trkpt>
      <trkpt lat="48.476017" lon="22.834139"></trkpt>
      <trkpt lat="48.474993" lon="22.833039"></trkpt>
      <trkpt lat="48.473058" lon="22.831801"></trkpt>
      <trkpt lat="48.471414" lon="22.82966"></trkpt>
      <trkpt lat="48.469439" lon="22.828322"></trkpt>
      <trkpt lat="48.468117" lon="22.8279"></trkpt>
      <trkpt lat="48.467972" lon="22.827955"></trkpt>
      <trkpt lat="48.467717" lon="22.828522"></trkpt>
      <trkpt lat="48.467253" lon="22.828035"></trkpt>
      <trkpt lat="48.466211" lon="22.827756"></trkpt>
      <trkpt lat="48.465205" lon="22.827241"></trkpt>
      <trkpt lat="48.463865" lon="22.825998"></trkpt>
      <trkpt lat="48.463252" lon="22.825993"></trkpt>
      <trkpt lat="48.462689" lon="22.825686"></trkpt>
      <trkpt lat="48.462522" lon="22.825713"></trkpt>
      <trkpt lat="48.461067" lon="22.827067"></trkpt>
      <trkpt lat="48.460579" lon="22.827149"></trkpt>
      <trkpt lat="48.460409" lon="22.827035"></trkpt>
      <trkpt lat="48.459821" lon="22.825465"></trkpt>
      <trkpt lat="48.459399" lon="22.824963"></trkpt>
      <trkpt lat="48.458483" lon="22.824479"></trkpt>
      <trkpt lat="48.457359" lon="22.823241"></trkpt>
      <trkpt lat="48.457198" lon="22.822831"></trkpt>
      <trkpt lat="48.457201" lon="22.821304"></trkpt>
      <trkpt lat="48.457071" lon="22.820767"></trkpt>
      <trkpt lat="48.456714" lon="22.820396"></trkpt>
      <trkpt lat="48.456266" lon="22.820172"></trkpt>
      <trkpt lat="48.45589" lon="22.819551"></trkpt>
      <trkpt lat="48.455027" lon="22.819405"></trkpt>
      <trkpt lat="48.454616" lon="22.819511"></trkpt>
      <trkpt lat="48.45326" lon="22.822074"></trkpt>
      <trkpt lat="48.452884" lon="22.82218"></trkpt>
      <trkpt lat="48.452166" lon="22.822098"></trkpt>
      <trkpt lat="48.450469" lon="22.822529"></trkpt>
      <trkpt lat="48.449529" lon="22.823218"></trkpt>
      <trkpt lat="48.444414" lon="22.822362"></trkpt>
      <trkpt lat="48.442134" lon="22.821291"></trkpt>
      <trkpt lat="48.44191" lon="22.821259"></trkpt>
      <trkpt lat="48.441206" lon="22.821626"></trkpt>
      <trkpt lat="48.439243" lon="22.820925"></trkpt>
      <trkpt lat="48.438221" lon="22.822201"></trkpt>
      <trkpt lat="48.43746" lon="22.824452"></trkpt>
      <trkpt lat="48.436939" lon="22.824392"></trkpt>
      <trkpt lat="48.436647" lon="22.824783"></trkpt>
      <trkpt lat="48.436121" lon="22.826786"></trkpt>
      <trkpt lat="48.434883" lon="22.834748"></trkpt>
      <trkpt lat="48.434846" lon="22.835246"></trkpt>
      <trkpt lat="48.43589" lon="22.837571"></trkpt>
      <trkpt lat="48.436577" lon="22.839947"></trkpt>
      <trkpt lat="48.436807" lon="22.841421"></trkpt>
      <trkpt lat="48.437029" lon="22.845858"></trkpt>
      <trkpt lat="48.430949" lon="22.846786"></trkpt>
      <trkpt lat="48.428454" lon="22.847284"></trkpt>
      <trkpt lat="48.427858" lon="22.847249"></trkpt>
      <trkpt lat="48.426357" lon="22.848026"></trkpt>
      <trkpt lat="48.424188" lon="22.849473"></trkpt>
      <trkpt lat="48.422461" lon="22.850376"></trkpt>
      <trkpt lat="48.421379" lon="22.85023"></trkpt>
      <trkpt lat="48.419714" lon="22.849555"></trkpt>
      <trkpt lat="48.419312" lon="22.849517"></trkpt>
      <trkpt lat="48.418099" lon="22.849808"></trkpt>
      <trkpt lat="48.416186" lon="22.85131"></trkpt>
      <trkpt lat="48.415836" lon="22.851477"></trkpt>
      <trkpt lat="48.414558" lon="22.85134"></trkpt>
      <trkpt lat="48.412742" lon="22.851636"></trkpt>
      <trkpt lat="48.408063" lon="22.852754"></trkpt>
      <trkpt lat="48.406169" lon="22.852853"></trkpt>
      <trkpt lat="48.405041" lon="22.853434"></trkpt>
      <trkpt lat="48.403179" lon="22.853454"></trkpt>
      <trkpt lat="48.402301" lon="22.853203"></trkpt>
      <trkpt lat="48.401201" lon="22.853382"></trkpt>
      <trkpt lat="48.400117" lon="22.853322"></trkpt>
      <trkpt lat="48.399369" lon="22.853479"></trkpt>
      <trkpt lat="48.399093" lon="22.852531"></trkpt>
      <trkpt lat="48.395711" lon="22.843768"></trkpt>
      <trkpt lat="48.388792" lon="22.837358"></trkpt>
      <trkpt lat="48.386641" lon="22.835653"></trkpt>
      <trkpt lat="48.385406" lon="22.835092"></trkpt>
      <trkpt lat="48.384202" lon="22.834868"></trkpt>
      <trkpt lat="48.38361" lon="22.834648"></trkpt>
      <trkpt lat="48.381275" lon="22.832948"></trkpt>
      <trkpt lat="48.379379" lon="22.83187"></trkpt>
      <trkpt lat="48.378668" lon="22.830319"></trkpt>
      <trkpt lat="48.372566" lon="22.822956"></trkpt>
      <trkpt lat="48.37166" lon="22.824217"></trkpt>
      <trkpt lat="48.370319" lon="22.825509"></trkpt>
      <trkpt lat="48.369831" lon="22.826402"></trkpt>
      <trkpt lat="48.366517" lon="22.835873"></trkpt>
      <trkpt lat="48.363217" lon="22.85216"></trkpt>
      <trkpt lat="48.362841" lon="22.852399"></trkpt>
      <trkpt lat="48.361739" lon="22.853848"></trkpt>
      <trkpt lat="48.361525" lon="22.853874"></trkpt>
      <trkpt lat="48.359664" lon="22.852952"></trkpt>
      <trkpt lat="48.359434" lon="22.852545"></trkpt>
      <trkpt lat="48.359265" lon="22.850585"></trkpt>
      <trkpt lat="48.358046" lon="22.847962"></trkpt>
      <trkpt lat="48.357958" lon="22.845895"></trkpt>
      <trkpt lat="48.358101" lon="22.843486"></trkpt>
      <trkpt lat="48.357835" lon="22.84184"></trkpt>
      <trkpt lat="48.357163" lon="22.839713"></trkpt>
      <trkpt lat="48.356158" lon="22.837956"></trkpt>
      <trkpt lat="48.35524" lon="22.83677"></trkpt>
      <trkpt lat="48.354738" lon="22.836405"></trkpt>
      <trkpt lat="48.353234" lon="22.836066"></trkpt>
      <trkpt lat="48.35221" lon="22.836008"></trkpt>
      <trkpt lat="48.351909" lon="22.835864"></trkpt>
      <trkpt lat="48.342718" lon="22.827912"></trkpt>
      <trkpt lat="48.342042" lon="22.826757"></trkpt>
      <trkpt lat="48.337233" lon="22.816717"></trkpt>
      <trkpt lat="48.332833" lon="22.806969"></trkpt>
      <trkpt lat="48.331238" lon="22.803735"></trkpt>
      <trkpt lat="48.329708" lon="22.801425"></trkpt>
      <trkpt lat="48.328176" lon="22.799558"></trkpt>
      <trkpt lat="48.325407" lon="22.807505"></trkpt>
      <trkpt lat="48.322524" lon="22.811299"></trkpt>
      <trkpt lat="48.319863" lon="22.812302"></trkpt>
      <trkpt lat="48.314174" lon="22.811517"></trkpt>
      <trkpt lat="48.308057" lon="22.810845"></trkpt>
      <trkpt lat="48.28927" lon="22.807928"></trkpt>
      <trkpt lat="48.288473" lon="22.808233"></trkpt>
      <trkpt lat="48.287494" lon="22.808903"></trkpt>
      <trkpt lat="48.285429" lon="22.810584"></trkpt>
      <trkpt lat="48.283831" lon="22.812078"></trkpt>
      <trkpt lat="48.28274" lon="22.812686"></trkpt>
      <trkpt lat="48.282145" lon="22.809685"></trkpt>
      <trkpt lat="48.281314" lon="22.807234"></trkpt>
      <trkpt lat="48.280104" lon="22.806087"></trkpt>
      <trkpt lat="48.279595" lon="22.805784"></trkpt>
      <trkpt lat="48.278768" lon="22.806528"></trkpt>
      <trkpt lat="48.278462" lon="22.806492"></trkpt>
      <trkpt lat="48.277244" lon="22.805927"></trkpt>
      <trkpt lat="48.275542" lon="22.804769"></trkpt>
      <trkpt lat="48.274925" lon="22.804476"></trkpt>
      <trkpt lat="48.269748" lon="22.800257"></trkpt>
      <trkpt lat="48.268678" lon="22.798307"></trkpt>
      <trkpt lat="48.267148" lon="22.794821"></trkpt>
      <trkpt lat="48.266384" lon="22.793767"></trkpt>
      <trkpt lat="48.261033" lon="22.790511"></trkpt>
      <trkpt lat="48.25516" lon="22.790077"></trkpt>
      <trkpt lat="48.25499" lon="22.790137"></trkpt>
      <trkpt lat="48.252484" lon="22.778451"></trkpt>
      <trkpt lat="48.251245" lon="22.775308"></trkpt>
      <trkpt lat="48.250805" lon="22.774775"></trkpt>
      <trkpt lat="48.240058" lon="22.76771"></trkpt>
      <trkpt lat="48.23967" lon="22.767327"></trkpt>
      <trkpt lat="48.238932" lon="22.765977"></trkpt>
      <trkpt lat="48.238042" lon="22.763427"></trkpt>
      <trkpt lat="48.237065" lon="22.75964"></trkpt>
      <trkpt lat="48.235739" lon="22.757338"></trkpt>
      <trkpt lat="48.234194" lon="22.753506"></trkpt>
      <trkpt lat="48.233085" lon="22.749513"></trkpt>
      <trkpt lat="48.231895" lon="22.749642"></trkpt>
      <trkpt lat="48.231002" lon="22.750175"></trkpt>
      <trkpt lat="48.228961" lon="22.750734"></trkpt>
      <trkpt lat="48.228204" lon="22.750717"></trkpt>
      <trkpt lat="48.227724" lon="22.750826"></trkpt>
      <trkpt lat="48.225804" lon="22.751661"></trkpt>
      <trkpt lat="48.225074" lon="22.75186"></trkpt>
      <trkpt lat="48.224805" lon="22.751586"></trkpt>
      <trkpt lat="48.224201" lon="22.750443"></trkpt>
      <trkpt lat="48.223543" lon="22.749612"></trkpt>
      <trkpt lat="48.222911" lon="22.748421"></trkpt>
      <trkpt lat="48.221876" lon="22.746897"></trkpt>
      <trkpt lat="48.221134" lon="22.745385"></trkpt>
      <trkpt lat="48.220738" lon="22.7451"></trkpt>
      <trkpt lat="48.218893" lon="22.744639"></trkpt>
      <trkpt lat="48.215333" lon="22.745149"></trkpt>
      <trkpt lat="48.211827" lon="22.744086"></trkpt>
      <trkpt lat="48.210633" lon="22.744072"></trkpt>
      <trkpt lat="48.209381" lon="22.744472"></trkpt>
      <trkpt lat="48.20876" lon="22.744497"></trkpt>
      <trkpt lat="48.207013" lon="22.744261"></trkpt>
      <trkpt lat="48.205868" lon="22.743708"></trkpt>
      <trkpt lat="48.205409" lon="22.743638"></trkpt>
      <trkpt lat="48.205012" lon="22.744087"></trkpt>
      <trkpt lat="48.20487" lon="22.746222"></trkpt>
      <trkpt lat="48.204661" lon="22.747561"></trkpt>
      <trkpt lat="48.203388" lon="22.749004"></trkpt>
      <trkpt lat="48.20321" lon="22.750354"></trkpt>
      <trkpt lat="48.202759" lon="22.751518"></trkpt>
      <trkpt lat="48.202498" lon="22.751588"></trkpt>
      <trkpt lat="48.202357" lon="22.751483"></trkpt>
      <trkpt lat="48.201782" lon="22.750152"></trkpt>
      <trkpt lat="48.20165" lon="22.750191"></trkpt>
      <trkpt lat="48.201957" lon="22.752911"></trkpt>
      <trkpt lat="48.202202" lon="22.753765"></trkpt>
      <trkpt lat="48.201622" lon="22.755131"></trkpt>
      <trkpt lat="48.19982" lon="22.756818"></trkpt>
      <trkpt lat="48.199299" lon="22.757564"></trkpt>
      <trkpt lat="48.19796" lon="22.758164"></trkpt>
      <trkpt lat="48.192541" lon="22.768452"></trkpt>
      <trkpt lat="48.19241" lon="22.768523"></trkpt>
      <trkpt lat="48.192245" lon="22.768435"></trkpt>
      <trkpt lat="48.19015" lon="22.766514"></trkpt>
      <trkpt lat="48.189326" lon="22.768235"></trkpt>
      <trkpt lat="48.189193" lon="22.770141"></trkpt>
      <trkpt lat="48.188908" lon="22.771178"></trkpt>
      <trkpt lat="48.188823" lon="22.772572"></trkpt>
      <trkpt lat="48.188656" lon="22.773009"></trkpt>
      <trkpt lat="48.187484" lon="22.773207"></trkpt>
      <trkpt lat="48.18725" lon="22.773637"></trkpt>
      <trkpt lat="48.18698" lon="22.773783"></trkpt>
      <trkpt lat="48.185969" lon="22.773764"></trkpt>
      <trkpt lat="48.185397" lon="22.773408"></trkpt>
      <trkpt lat="48.184002" lon="22.773867"></trkpt>
      <trkpt lat="48.183555" lon="22.774092"></trkpt>
      <trkpt lat="48.182279" lon="22.775362"></trkpt>
      <trkpt lat="48.180155" lon="22.776234"></trkpt>
      <trkpt lat="48.179873" lon="22.776451"></trkpt>
      <trkpt lat="48.179415" lon="22.777436"></trkpt>
      <trkpt lat="48.179007" lon="22.777984"></trkpt>
      <trkpt lat="48.178605" lon="22.7783"></trkpt>
      <trkpt lat="48.17738" lon="22.778822"></trkpt>
      <trkpt lat="48.174929" lon="22.781762"></trkpt>
      <trkpt lat="48.173699" lon="22.782795"></trkpt>
      <trkpt lat="48.173003" lon="22.783186"></trkpt>
      <trkpt lat="48.172617" lon="22.783264"></trkpt>
      <trkpt lat="48.171053" lon="22.782439"></trkpt>
      <trkpt lat="48.169829" lon="22.78076"></trkpt>
      <trkpt lat="48.168517" lon="22.779778"></trkpt>
      <trkpt lat="48.166573" lon="22.777969"></trkpt>
      <trkpt lat="48.165902" lon="22.775945"></trkpt>
      <trkpt lat="48.165006" lon="22.774858"></trkpt>
      <trkpt lat="48.16397" lon="22.773932"></trkpt>
      <trkpt lat="48.163618" lon="22.773367"></trkpt>
      <trkpt lat="48.163026" lon="22.770576"></trkpt>
      <trkpt lat="48.16255" lon="22.771741"></trkpt>
      <trkpt lat="48.161501" lon="22.773598"></trkpt>
      <trkpt lat="48.152735" lon="22.785007"></trkpt>
      <trkpt lat="48.125936" lon="22.819413"></trkpt>
      <trkpt lat="48.117942" lon="22.830108"></trkpt>
      <trkpt lat="48.117549" lon="22.83122"></trkpt>
      <trkpt lat="48.117041" lon="22.831325"></trkpt>
      <trkpt lat="48.113955" lon="22.835397"></trkpt>
      <trkpt lat="48.11144" lon="22.836553"></trkpt>
      <trkpt lat="48.110827" lon="22.8367"></trkpt>
      <trkpt lat="48.109321" lon="22.835974"></trkpt>
      <trkpt lat="48.108473" lon="22.835703"></trkpt>
      <trkpt lat="48.103327" lon="22.835246"></trkpt>
      <trkpt lat="48.101095" lon="22.835386"></trkpt>
      <trkpt lat="48.100207" lon="22.835664"></trkpt>
      <trkpt lat="48.099262" lon="22.836133"></trkpt>
      <trkpt lat="48.097963" lon="22.83731"></trkpt>
      <trkpt lat="48.097705" lon="22.837248"></trkpt>
      <trkpt lat="48.096951" lon="22.836696"></trkpt>
      <trkpt lat="48.094295" lon="22.837397"></trkpt>
      <trkpt lat="48.093849" lon="22.837615"></trkpt>
      <trkpt lat="48.093549" lon="22.837981"></trkpt>
      <trkpt lat="48.092865" lon="22.839917"></trkpt>
      <trkpt lat="48.090151" lon="22.843927"></trkpt>
      <trkpt lat="48.089005" lon="22.845424"></trkpt>
      <trkpt lat="48.07852" lon="22.871054"></trkpt>
      <trkpt lat="48.078123" lon="22.871853"></trkpt>
      <trkpt lat="48.075466" lon="22.875829"></trkpt>
      <trkpt lat="48.074268" lon="22.878723"></trkpt>
      <trkpt lat="48.074247" lon="22.879264"></trkpt>
      <trkpt lat="48.07504" lon="22.880374"></trkpt>
      <trkpt lat="48.075131" lon="22.880631"></trkpt>
      <trkpt lat="48.075094" lon="22.881058"></trkpt>
      <trkpt lat="48.072294" lon="22.88464"></trkpt>
      <trkpt lat="48.072112" lon="22.885012"></trkpt>
      <trkpt lat="48.072065" lon="22.885765"></trkpt>
      <trkpt lat="48.074667" lon="22.911585"></trkpt>
      <trkpt lat="48.074398" lon="22.91211"></trkpt>
      <trkpt lat="48.07218" lon="22.914584"></trkpt>
      <trkpt lat="48.071609" lon="22.916215"></trkpt>
      <trkpt lat="48.070607" lon="22.917522"></trkpt>
      <trkpt lat="48.069565" lon="22.918552"></trkpt>
      <trkpt lat="48.068078" lon="22.921107"></trkpt>
      <trkpt lat="48.067899" lon="22.923039"></trkpt>
      <trkpt lat="48.06736" lon="22.92563"></trkpt>
      <trkpt lat="48.065887" lon="22.930535"></trkpt>
      <trkpt lat="48.064975" lon="22.932552"></trkpt>
      <trkpt lat="48.064342" lon="22.936735"></trkpt>
      <trkpt lat="48.063651" lon="22.937808"></trkpt>
      <trkpt lat="48.062288" lon="22.938331"></trkpt>
      <trkpt lat="48.058779" lon="22.948318"></trkpt>
      <trkpt lat="48.057401" lon="22.953716"></trkpt>
      <trkpt lat="48.056954" lon="22.955971"></trkpt>
      <trkpt lat="48.057276" lon="22.957429"></trkpt>
      <trkpt lat="48.057181" lon="22.957821"></trkpt>
      <trkpt lat="48.056805" lon="22.958454"></trkpt>
      <trkpt lat="48.056811" lon="22.958708"></trkpt>
      <trkpt lat="48.057157" lon="22.959387"></trkpt>
      <trkpt lat="48.057923" lon="22.961833"></trkpt>
      <trkpt lat="48.059317" lon="22.964706"></trkpt>
      <trkpt lat="48.059715" lon="22.966343"></trkpt>
      <trkpt lat="48.060298" lon="22.970071"></trkpt>
      <trkpt lat="48.060819" lon="22.977147"></trkpt>
      <trkpt lat="48.061049" lon="22.978457"></trkpt>
      <trkpt lat="48.066082" lon="22.989262"></trkpt>
      <trkpt lat="48.066226" lon="22.99073"></trkpt>
      <trkpt lat="48.066937" lon="22.991095"></trkpt>
      <trkpt lat="48.069456" lon="22.996249"></trkpt>
      <trkpt lat="48.070704" lon="23.000315"></trkpt>
      <trkpt lat="48.070779" lon="23.000759"></trkpt>
      <trkpt lat="48.070701" lon="23.001305"></trkpt>
      <trkpt lat="48.069567" lon="23.004371"></trkpt>
      <trkpt lat="48.069312" lon="23.00758"></trkpt>
      <trkpt lat="48.069392" lon="23.008783"></trkpt>
      <trkpt lat="48.070305" lon="23.014509"></trkpt>
      <trkpt lat="48.07028" lon="23.014754"></trkpt>
      <trkpt lat="48.069873" lon="23.015544"></trkpt>
      <trkpt lat="48.069816" lon="23.016771"></trkpt>
      <trkpt lat="48.070115" lon="23.017436"></trkpt>
      <trkpt lat="48.071028" lon="23.018536"></trkpt>
      <trkpt lat="48.071546" lon="23.019813"></trkpt>
      <trkpt lat="48.071068" lon="23.020351"></trkpt>
  </trkseg></trk>
</gpx>
