<?xml version="1.0" encoding="UTF-8"?>
<gpx version="1.1" creator="yatutbuv" xmlns="http://www.topografix.com/GPX/1/1">
  <trk><name>GraphHopper Track</name><trkseg>
      <trkpt lat="50.862533" lon="17.467841"></trkpt>
      <trkpt lat="50.862838" lon="17.467069"></trkpt>
      <trkpt lat="50.862477" lon="17.466717"></trkpt>
      <trkpt lat="50.861886" lon="17.468314"></trkpt>
      <trkpt lat="50.860796" lon="17.466885"></trkpt>
      <trkpt lat="50.860442" lon="17.467371"></trkpt>
      <trkpt lat="50.858537" lon="17.465158"></trkpt>
      <trkpt lat="50.858101" lon="17.464474"></trkpt>
      <trkpt lat="50.857849" lon="17.464436"></trkpt>
      <trkpt lat="50.857538" lon="17.464129"></trkpt>
      <trkpt lat="50.856509" lon="17.462809"></trkpt>
      <trkpt lat="50.855417" lon="17.461707"></trkpt>
      <trkpt lat="50.853245" lon="17.45893"></trkpt>
      <trkpt lat="50.851939" lon="17.456666"></trkpt>
      <trkpt lat="50.850602" lon="17.453707"></trkpt>
      <trkpt lat="50.849027" lon="17.449715"></trkpt>
      <trkpt lat="50.847769" lon="17.44751"></trkpt>
      <trkpt lat="50.847274" lon="17.446901"></trkpt>
      <trkpt lat="50.847134" lon="17.446544"></trkpt>
      <trkpt lat="50.846961" lon="17.446563"></trkpt>
      <trkpt lat="50.846824" lon="17.446799"></trkpt>
      <trkpt lat="50.846615" lon="17.446798"></trkpt>
      <trkpt lat="50.846081" lon="17.445695"></trkpt>
      <trkpt lat="50.842657" lon="17.442362"></trkpt>
      <trkpt lat="50.83699" lon="17.431847"></trkpt>
      <trkpt lat="50.836687" lon="17.431007"></trkpt>
      <trkpt lat="50.836009" lon="17.428218"></trkpt>
      <trkpt lat="50.835647" lon="17.427433"></trkpt>
      <trkpt lat="50.829698" lon="17.422685"></trkpt>
      <trkpt lat="50.828502" lon="17.421561"></trkpt>
      <trkpt lat="50.826811" lon="17.418735"></trkpt>
      <trkpt lat="50.821459" lon="17.412387"></trkpt>
      <trkpt lat="50.819978" lon="17.410219"></trkpt>
      <trkpt lat="50.819204" lon="17.4096"></trkpt>
      <trkpt lat="50.816345" lon="17.406242"></trkpt>
      <trkpt lat="50.815072" lon="17.404994"></trkpt>
      <trkpt lat="50.814268" lon="17.404442"></trkpt>
      <trkpt lat="50.812821" lon="17.403699"></trkpt>
      <trkpt lat="50.810991" lon="17.401664"></trkpt>
      <trkpt lat="50.809181" lon="17.400272"></trkpt>
      <trkpt lat="50.808922" lon="17.399944"></trkpt>
      <trkpt lat="50.805065" lon="17.392619"></trkpt>
      <trkpt lat="50.804782" lon="17.392441"></trkpt>
      <trkpt lat="50.804383" lon="17.392386"></trkpt>
      <trkpt lat="50.792192" lon="17.391652"></trkpt>
      <trkpt lat="50.79185" lon="17.390137"></trkpt>
      <trkpt lat="50.791934" lon="17.388505"></trkpt>
      <trkpt lat="50.791821" lon="17.386764"></trkpt>
      <trkpt lat="50.791748" lon="17.38089"></trkpt>
      <trkpt lat="50.791631" lon="17.380635"></trkpt>
      <trkpt lat="50.789908" lon="17.37868"></trkpt>
      <trkpt lat="50.788743" lon="17.378234"></trkpt>
      <trkpt lat="50.78827" lon="17.377829"></trkpt>
      <trkpt lat="50.787157" lon="17.37616"></trkpt>
      <trkpt lat="50.786853" lon="17.375299"></trkpt>
      <trkpt lat="50.786604" lon="17.371927"></trkpt>
      <trkpt lat="50.786136" lon="17.368113"></trkpt>
      <trkpt lat="50.785801" lon="17.362766"></trkpt>
      <trkpt lat="50.785401" lon="17.359704"></trkpt>
      <trkpt lat="50.785373" lon="17.355512"></trkpt>
      <trkpt lat="50.785624" lon="17.352123"></trkpt>
      <trkpt lat="50.782387" lon="17.351646"></trkpt>
      <trkpt lat="50.781893" lon="17.351408"></trkpt>
      <trkpt lat="50.780609" lon="17.3497"></trkpt>
      <trkpt lat="50.78053" lon="17.349099"></trkpt>
      <trkpt lat="50.780708" lon="17.348721"></trkpt>
      <trkpt lat="50.781028" lon="17.348637"></trkpt>
      <trkpt lat="50.781267" lon="17.348874"></trkpt>
      <trkpt lat="50.781359" lon="17.349343"></trkpt>
      <trkpt lat="50.781273" lon="17.349746"></trkpt>
      <trkpt lat="50.777482" lon="17.357351"></trkpt>
      <trkpt lat="50.775765" lon="17.361479"></trkpt>
      <trkpt lat="50.77366" lon="17.367611"></trkpt>
      <trkpt lat="50.772041" lon="17.373672"></trkpt>
      <trkpt lat="50.770842" lon="17.37957"></trkpt>
      <trkpt lat="50.769917" lon="17.386076"></trkpt>
      <trkpt lat="50.769521" lon="17.390436"></trkpt>
      <trkpt lat="50.769054" lon="17.398824"></trkpt>
      <trkpt lat="50.768787" lon="17.401263"></trkpt>
      <trkpt lat="50.768324" lon="17.403819"></trkpt>
      <trkpt lat="50.76705" lon="17.408412"></trkpt>
      <trkpt lat="50.766031" lon="17.410985"></trkpt>
      <trkpt lat="50.756327" lon="17.431145"></trkpt>
      <trkpt lat="50.743647" lon="17.454813"></trkpt>
      <trkpt lat="50.74242" lon="17.457461"></trkpt>
      <trkpt lat="50.74084" lon="17.461496"></trkpt>
      <trkpt lat="50.739224" lon="17.466759"></trkpt>
      <trkpt lat="50.738296" lon="17.470669"></trkpt>
      <trkpt lat="50.737548" lon="17.474586"></trkpt>
      <trkpt lat="50.736871" lon="17.479265"></trkpt>
      <trkpt lat="50.735757" lon="17.489303"></trkpt>
      <trkpt lat="50.735282" lon="17.492043"></trkpt>
      <trkpt lat="50.734442" lon="17.495634"></trkpt>
      <trkpt lat="50.733589" lon="17.498599"></trkpt>
      <trkpt lat="50.732528" lon="17.501556"></trkpt>
      <trkpt lat="50.726385" lon="17.515962"></trkpt>
      <trkpt lat="50.724667" lon="17.520961"></trkpt>
      <trkpt lat="50.722822" lon="17.527729"></trkpt>
      <trkpt lat="50.719123" lon="17.545415"></trkpt>
      <trkpt lat="50.71774" lon="17.55259"></trkpt>
      <trkpt lat="50.709101" lon="17.602279"></trkpt>
      <trkpt lat="50.708331" lon="17.605553"></trkpt>
      <trkpt lat="50.707573" lon="17.60795"></trkpt>
      <trkpt lat="50.706601" lon="17.610389"></trkpt>
      <trkpt lat="50.705821" lon="17.612005"></trkpt>
      <trkpt lat="50.704003" lon="17.61502"></trkpt>
      <trkpt lat="50.702723" lon="17.616668"></trkpt>
      <trkpt lat="50.696684" lon="17.623421"></trkpt>
      <trkpt lat="50.693525" lon="17.627264"></trkpt>
      <trkpt lat="50.689191" lon="17.633072"></trkpt>
      <trkpt lat="50.68725" lon="17.635955"></trkpt>
      <trkpt lat="50.684312" lon="17.640521"></trkpt>
      <trkpt lat="50.681717" lon="17.64489"></trkpt>
      <trkpt lat="50.677198" lon="17.653377"></trkpt>
      <trkpt lat="50.675163" lon="17.657614"></trkpt>
      <trkpt lat="50.672582" lon="17.663477"></trkpt>
      <trkpt lat="50.670848" lon="17.667735"></trkpt>
      <trkpt lat="50.6686" lon="17.673746"></trkpt>
      <trkpt lat="50.665678" lon="17.682639"></trkpt>
      <trkpt lat="50.658749" lon="17.705808"></trkpt>
      <trkpt lat="50.656754" lon="17.71105"></trkpt>
      <trkpt lat="50.654432" lon="17.715989"></trkpt>
      <trkpt lat="50.651718" lon="17.720722"></trkpt>
      <trkpt lat="50.650455" lon="17.72264"></trkpt>
      <trkpt lat="50.648577" lon="17.725178"></trkpt>
      <trkpt lat="50.64638" lon="17.727797"></trkpt>
      <trkpt lat="50.640238" lon="17.734187"></trkpt>
      <trkpt lat="50.637323" lon="17.737467"></trkpt>
      <trkpt lat="50.633808" lon="17.741814"></trkpt>
      <trkpt lat="50.629781" lon="17.747368"></trkpt>
      <trkpt lat="50.59683" lon="17.798737"></trkpt>
      <trkpt lat="50.594201" lon="17.803061"></trkpt>
      <trkpt lat="50.591805" lon="17.807359"></trkpt>
      <trkpt lat="50.589821" lon="17.811198"></trkpt>
      <trkpt lat="50.585919" lon="17.819632"></trkpt>
      <trkpt lat="50.582489" lon="17.82831"></trkpt>
      <trkpt lat="50.575837" lon="17.846579"></trkpt>
      <trkpt lat="50.573233" lon="17.852875"></trkpt>
      <trkpt lat="50.570417" lon="17.85839"></trkpt>
      <trkpt lat="50.556557" lon="17.882151"></trkpt>
      <trkpt lat="50.55357" lon="17.886761"></trkpt>
      <trkpt lat="50.551382" lon="17.889656"></trkpt>
      <trkpt lat="50.549781" lon="17.891539"></trkpt>
      <trkpt lat="50.546716" lon="17.894693"></trkpt>
      <trkpt lat="50.539257" lon="17.901355"></trkpt>
      <trkpt lat="50.536915" lon="17.903664"></trkpt>
      <trkpt lat="50.53519" lon="17.905714"></trkpt>
      <trkpt lat="50.533744" lon="17.907719"></trkpt>
      <trkpt lat="50.532413" lon="17.909842"></trkpt>
      <trkpt lat="50.531035" lon="17.912412"></trkpt>
      <trkpt lat="50.530614" lon="17.912982"></trkpt>
      <trkpt lat="50.530149" lon="17.913356"></trkpt>
      <trkpt lat="50.529278" lon="17.913439"></trkpt>
      <trkpt lat="50.529034" lon="17.913726"></trkpt>
      <trkpt lat="50.528944" lon="17.914431"></trkpt>
      <trkpt lat="50.529164" lon="17.914962"></trkpt>
      <trkpt lat="50.533435" lon="17.91931"></trkpt>
      <trkpt lat="50.53363" lon="17.919646"></trkpt>
      <trkpt lat="50.533651" lon="17.919932"></trkpt>
      <trkpt lat="50.533552" lon="17.92008"></trkpt>
      <trkpt lat="50.533356" lon="17.920189"></trkpt>
      <trkpt lat="50.532278" lon="17.919804"></trkpt>
      <trkpt lat="50.526225" lon="17.918814"></trkpt>
      <trkpt lat="50.524083" lon="17.918606"></trkpt>
      <trkpt lat="50.522413" lon="17.91857"></trkpt>
      <trkpt lat="50.521719" lon="17.918434"></trkpt>
      <trkpt lat="50.521446" lon="17.918143"></trkpt>
      <trkpt lat="50.521183" lon="17.918399"></trkpt>
      <trkpt lat="50.51923" lon="17.918579"></trkpt>
      <trkpt lat="50.507757" lon="17.918384"></trkpt>
      <trkpt lat="50.499504" lon="17.91843"></trkpt>
      <trkpt lat="50.497707" lon="17.918934"></trkpt>
      <trkpt lat="50.480716" lon="17.926319"></trkpt>
      <trkpt lat="50.47971" lon="17.92691"></trkpt>
      <trkpt lat="50.479018" lon="17.927536"></trkpt>
      <trkpt lat="50.478238" lon="17.928544"></trkpt>
      <trkpt lat="50.477685" lon="17.929557"></trkpt>
      <trkpt lat="50.468585" lon="17.953304"></trkpt>
      <trkpt lat="50.468479" lon="17.953312"></trkpt>
      <trkpt lat="50.468272" lon="17.953066"></trkpt>
      <trkpt lat="50.466884" lon="17.950585"></trkpt>
      <trkpt lat="50.464087" lon="17.946314"></trkpt>
      <trkpt lat="50.460227" lon="17.937805"></trkpt>
      <trkpt lat="50.456961" lon="17.931923"></trkpt>
      <trkpt lat="50.45534" lon="17.927074"></trkpt>
      <trkpt lat="50.454957" lon="17.925576"></trkpt>
      <trkpt lat="50.454745" lon="17.924327"></trkpt>
      <trkpt lat="50.45402" lon="17.916934"></trkpt>
      <trkpt lat="50.451812" lon="17.907692"></trkpt>
      <trkpt lat="50.450687" lon="17.904373"></trkpt>
      <trkpt lat="50.450483" lon="17.903078"></trkpt>
      <trkpt lat="50.450378" lon="17.901313"></trkpt>
      <trkpt lat="50.449085" lon="17.897945"></trkpt>
      <trkpt lat="50.448819" lon="17.897551"></trkpt>
      <trkpt lat="50.447551" lon="17.896382"></trkpt>
      <trkpt lat="50.447366" lon="17.895945"></trkpt>
      <trkpt lat="50.447396" lon="17.895208"></trkpt>
      <trkpt lat="50.448167" lon="17.892041"></trkpt>
      <trkpt lat="50.449979" lon="17.887668"></trkpt>
      <trkpt lat="50.452057" lon="17.883497"></trkpt>
      <trkpt lat="50.454975" lon="17.876119"></trkpt>
      <trkpt lat="50.455578" lon="17.874286"></trkpt>
      <trkpt lat="50.456007" lon="17.872018"></trkpt>
      <trkpt lat="50.45796" lon="17.857572"></trkpt>
      <trkpt lat="50.45817" lon="17.855283"></trkpt>
      <trkpt lat="50.457608" lon="17.852377"></trkpt>
      <trkpt lat="50.457398" lon="17.851768"></trkpt>
      <trkpt lat="50.456892" lon="17.850654"></trkpt>
      <trkpt lat="50.455511" lon="17.848662"></trkpt>
      <trkpt lat="50.45514" lon="17.847884"></trkpt>
      <trkpt lat="50.45501" lon="17.846979"></trkpt>
      <trkpt lat="50.455242" lon="17.845841"></trkpt>
      <trkpt lat="50.45529" lon="17.844755"></trkpt>
      <trkpt lat="50.455044" lon="17.84251"></trkpt>
      <trkpt lat="50.446451" lon="17.813196"></trkpt>
      <trkpt lat="50.44537" lon="17.81068"></trkpt>
      <trkpt lat="50.444297" lon="17.809124"></trkpt>
      <trkpt lat="50.443818" lon="17.808224"></trkpt>
      <trkpt lat="50.442545" lon="17.805001"></trkpt>
      <trkpt lat="50.442459" lon="17.804326"></trkpt>
      <trkpt lat="50.441999" lon="17.803399"></trkpt>
      <trkpt lat="50.44157" lon="17.801343"></trkpt>
      <trkpt lat="50.440659" lon="17.799067"></trkpt>
      <trkpt lat="50.440597" lon="17.798552"></trkpt>
      <trkpt lat="50.440824" lon="17.79465"></trkpt>
      <trkpt lat="50.44055" lon="17.791795"></trkpt>
      <trkpt lat="50.43484" lon="17.770132"></trkpt>
      <trkpt lat="50.435119" lon="17.769932"></trkpt>
      <trkpt lat="50.436836" lon="17.767927"></trkpt>
      <trkpt lat="50.436997" lon="17.767526"></trkpt>
      <trkpt lat="50.437128" lon="17.766571"></trkpt>
      <trkpt lat="50.438175" lon="17.767191"></trkpt>
      <trkpt lat="50.438793" lon="17.767799"></trkpt>
      <trkpt lat="50.439135" lon="17.768232"></trkpt>
      <trkpt lat="50.43932" lon="17.769199"></trkpt>
      <trkpt lat="50.439615" lon="17.768629"></trkpt>
      <trkpt lat="50.440214" lon="17.767929"></trkpt>
      <trkpt lat="50.440399" lon="17.767859"></trkpt>
      <trkpt lat="50.440654" lon="17.767375"></trkpt>
      <trkpt lat="50.440399" lon="17.767859"></trkpt>
      <trkpt lat="50.440214" lon="17.767929"></trkpt>
      <trkpt lat="50.439615" lon="17.768629"></trkpt>
      <trkpt lat="50.438175" lon="17.767191"></trkpt>
      <trkpt lat="50.437128" lon="17.766571"></trkpt>
      <trkpt lat="50.436997" lon="17.767526"></trkpt>
      <trkpt lat="50.436836" lon="17.767927"></trkpt>
      <trkpt lat="50.435119" lon="17.769932"></trkpt>
      <trkpt lat="50.43484" lon="17.770132"></trkpt>
      <trkpt lat="50.44055" lon="17.791795"></trkpt>
      <trkpt lat="50.440824" lon="17.79465"></trkpt>
      <trkpt lat="50.440597" lon="17.798552"></trkpt>
      <trkpt lat="50.440659" lon="17.799067"></trkpt>
      <trkpt lat="50.44157" lon="17.801343"></trkpt>
      <trkpt lat="50.441999" lon="17.803399"></trkpt>
      <trkpt lat="50.442459" lon="17.804326"></trkpt>
      <trkpt lat="50.442545" lon="17.805001"></trkpt>
      <trkpt lat="50.443818" lon="17.808224"></trkpt>
      <trkpt lat="50.444297" lon="17.809124"></trkpt>
      <trkpt lat="50.44537" lon="17.81068"></trkpt>
      <trkpt lat="50.446451" lon="17.813196"></trkpt>
      <trkpt lat="50.455044" lon="17.84251"></trkpt>
      <trkpt lat="50.45529" lon="17.844755"></trkpt>
      <trkpt lat="50.455242" lon="17.845841"></trkpt>
      <trkpt lat="50.45501" lon="17.846979"></trkpt>
      <trkpt lat="50.45514" lon="17.847884"></trkpt>
      <trkpt lat="50.455511" lon="17.848662"></trkpt>
      <trkpt lat="50.456892" lon="17.850654"></trkpt>
      <trkpt lat="50.457398" lon="17.851768"></trkpt>
      <trkpt lat="50.457608" lon="17.852377"></trkpt>
      <trkpt lat="50.45817" lon="17.855283"></trkpt>
      <trkpt lat="50.45796" lon="17.857572"></trkpt>
      <trkpt lat="50.456007" lon="17.872018"></trkpt>
      <trkpt lat="50.455578" lon="17.874286"></trkpt>
      <trkpt lat="50.454975" lon="17.876119"></trkpt>
      <trkpt lat="50.452057" lon="17.883497"></trkpt>
      <trkpt lat="50.449979" lon="17.887668"></trkpt>
      <trkpt lat="50.448167" lon="17.892041"></trkpt>
      <trkpt lat="50.447396" lon="17.895208"></trkpt>
      <trkpt lat="50.447366" lon="17.895945"></trkpt>
      <trkpt lat="50.447551" lon="17.896382"></trkpt>
      <trkpt lat="50.448819" lon="17.897551"></trkpt>
      <trkpt lat="50.449085" lon="17.897945"></trkpt>
      <trkpt lat="50.450378" lon="17.901313"></trkpt>
      <trkpt lat="50.450483" lon="17.903078"></trkpt>
      <trkpt lat="50.450687" lon="17.904373"></trkpt>
      <trkpt lat="50.451812" lon="17.907692"></trkpt>
      <trkpt lat="50.45402" lon="17.916934"></trkpt>
      <trkpt lat="50.454745" lon="17.924327"></trkpt>
      <trkpt lat="50.454957" lon="17.925576"></trkpt>
      <trkpt lat="50.45534" lon="17.927074"></trkpt>
      <trkpt lat="50.456826" lon="17.931557"></trkpt>
      <trkpt lat="50.457676" lon="17.933347"></trkpt>
      <trkpt lat="50.460227" lon="17.937805"></trkpt>
      <trkpt lat="50.464087" lon="17.946314"></trkpt>
      <trkpt lat="50.466884" lon="17.950585"></trkpt>
      <trkpt lat="50.468272" lon="17.953066"></trkpt>
      <trkpt lat="50.46846" lon="17.953734"></trkpt>
      <trkpt lat="50.468665" lon="17.953661"></trkpt>
      <trkpt lat="50.468908" lon="17.952532"></trkpt>
      <trkpt lat="50.477685" lon="17.929557"></trkpt>
      <trkpt lat="50.478238" lon="17.928544"></trkpt>
      <trkpt lat="50.478872" lon="17.927699"></trkpt>
      <trkpt lat="50.47971" lon="17.92691"></trkpt>
      <trkpt lat="50.480716" lon="17.926319"></trkpt>
      <trkpt lat="50.497543" lon="17.919098"></trkpt>
      <trkpt lat="50.498255" lon="17.91883"></trkpt>
      <trkpt lat="50.499644" lon="17.918524"></trkpt>
      <trkpt lat="50.501049" lon="17.918438"></trkpt>
      <trkpt lat="50.51923" lon="17.918579"></trkpt>
      <trkpt lat="50.520359" lon="17.91868"></trkpt>
      <trkpt lat="50.521222" lon="17.918541"></trkpt>
      <trkpt lat="50.521456" lon="17.918692"></trkpt>
      <trkpt lat="50.52167" lon="17.91856"></trkpt>
      <trkpt lat="50.522525" lon="17.918709"></trkpt>
      <trkpt lat="50.524453" lon="17.918671"></trkpt>
      <trkpt lat="50.527015" lon="17.918922"></trkpt>
      <trkpt lat="50.531292" lon="17.91967"></trkpt>
      <trkpt lat="50.532584" lon="17.920264"></trkpt>
      <trkpt lat="50.533496" lon="17.920398"></trkpt>
      <trkpt lat="50.533715" lon="17.920719"></trkpt>
      <trkpt lat="50.533968" lon="17.920619"></trkpt>
      <trkpt lat="50.534035" lon="17.920145"></trkpt>
      <trkpt lat="50.533786" lon="17.919878"></trkpt>
      <trkpt lat="50.533561" lon="17.919315"></trkpt>
      <trkpt lat="50.530851" lon="17.916549"></trkpt>
      <trkpt lat="50.530441" lon="17.915795"></trkpt>
      <trkpt lat="50.530318" lon="17.915016"></trkpt>
      <trkpt lat="50.530464" lon="17.914111"></trkpt>
      <trkpt lat="50.531395" lon="17.911983"></trkpt>
      <trkpt lat="50.533053" lon="17.909044"></trkpt>
      <trkpt lat="50.534115" lon="17.907422"></trkpt>
      <trkpt lat="50.536706" lon="17.904118"></trkpt>
      <trkpt lat="50.538982" lon="17.901819"></trkpt>
      <trkpt lat="50.547593" lon="17.894065"></trkpt>
      <trkpt lat="50.550627" lon="17.890794"></trkpt>
      <trkpt lat="50.552847" lon="17.887999"></trkpt>
      <trkpt lat="50.554794" lon="17.885224"></trkpt>
      <trkpt lat="50.556633" lon="17.882297"></trkpt>
      <trkpt lat="50.570278" lon="17.858905"></trkpt>
      <trkpt lat="50.572497" lon="17.85472"></trkpt>
      <trkpt lat="50.57516" lon="17.848711"></trkpt>
      <trkpt lat="50.583131" lon="17.826945"></trkpt>
      <trkpt lat="50.586016" lon="17.819731"></trkpt>
      <trkpt lat="50.589906" lon="17.811324"></trkpt>
      <trkpt lat="50.592456" lon="17.806436"></trkpt>
      <trkpt lat="50.594282" lon="17.803196"></trkpt>
      <trkpt lat="50.596463" lon="17.799577"></trkpt>
      <trkpt lat="50.627012" lon="17.751847"></trkpt>
      <trkpt lat="50.630561" lon="17.746481"></trkpt>
      <trkpt lat="50.633267" lon="17.742751"></trkpt>
      <trkpt lat="50.637368" lon="17.737647"></trkpt>
      <trkpt lat="50.641334" lon="17.733248"></trkpt>
      <trkpt lat="50.646105" lon="17.728323"></trkpt>
      <trkpt lat="50.648862" lon="17.725052"></trkpt>
      <trkpt lat="50.651553" lon="17.721241"></trkpt>
      <trkpt lat="50.653412" lon="17.718157"></trkpt>
      <trkpt lat="50.654882" lon="17.715407"></trkpt>
      <trkpt lat="50.657051" lon="17.710676"></trkpt>
      <trkpt lat="50.659205" lon="17.70483"></trkpt>
      <trkpt lat="50.666041" lon="17.681872"></trkpt>
      <trkpt lat="50.669491" lon="17.671655"></trkpt>
      <trkpt lat="50.67306" lon="17.66268"></trkpt>
      <trkpt lat="50.675526" lon="17.657146"></trkpt>
      <trkpt lat="50.677213" lon="17.653643"></trkpt>
      <trkpt lat="50.680375" lon="17.647566"></trkpt>
      <trkpt lat="50.682328" lon="17.644085"></trkpt>
      <trkpt lat="50.686429" lon="17.637422"></trkpt>
      <trkpt lat="50.689951" lon="17.632284"></trkpt>
      <trkpt lat="50.694096" lon="17.626785"></trkpt>
      <trkpt lat="50.69735" lon="17.622862"></trkpt>
      <trkpt lat="50.702669" lon="17.617002"></trkpt>
      <trkpt lat="50.704031" lon="17.615236"></trkpt>
      <trkpt lat="50.704899" lon="17.613911"></trkpt>
      <trkpt lat="50.706153" lon="17.611645"></trkpt>
      <trkpt lat="50.707766" lon="17.607781"></trkpt>
      <trkpt lat="50.708558" lon="17.605182"></trkpt>
      <trkpt lat="50.709212" lon="17.602311"></trkpt>
      <trkpt lat="50.717766" lon="17.553141"></trkpt>
      <trkpt lat="50.719174" lon="17.545774"></trkpt>
      <trkpt lat="50.722798" lon="17.528361"></trkpt>
      <trkpt lat="50.724392" lon="17.522305"></trkpt>
      <trkpt lat="50.7262" lon="17.516823"></trkpt>
      <trkpt lat="50.727502" lon="17.513543"></trkpt>
      <trkpt lat="50.732626" lon="17.50165"></trkpt>
      <trkpt lat="50.733699" lon="17.49866"></trkpt>
      <trkpt lat="50.734543" lon="17.495725"></trkpt>
      <trkpt lat="50.735392" lon="17.492068"></trkpt>
      <trkpt lat="50.735984" lon="17.488551"></trkpt>
      <trkpt lat="50.736984" lon="17.479329"></trkpt>
      <trkpt lat="50.737641" lon="17.474721"></trkpt>
      <trkpt lat="50.738737" lon="17.46922"></trkpt>
      <trkpt lat="50.740004" lon="17.464465"></trkpt>
      <trkpt lat="50.741887" lon="17.459086"></trkpt>
      <trkpt lat="50.743755" lon="17.454883"></trkpt>
      <trkpt lat="50.756583" lon="17.430943"></trkpt>
      <trkpt lat="50.766141" lon="17.411056"></trkpt>
      <trkpt lat="50.766784" lon="17.409505"></trkpt>
      <trkpt lat="50.767918" lon="17.405963"></trkpt>
      <trkpt lat="50.768436" lon="17.403864"></trkpt>
      <trkpt lat="50.768892" lon="17.40134"></trkpt>
      <trkpt lat="50.769156" lon="17.39891"></trkpt>
      <trkpt lat="50.769641" lon="17.39044"></trkpt>
      <trkpt lat="50.770022" lon="17.386155"></trkpt>
      <trkpt lat="50.770959" lon="17.379571"></trkpt>
      <trkpt lat="50.772147" lon="17.373725"></trkpt>
      <trkpt lat="50.773758" lon="17.367724"></trkpt>
      <trkpt lat="50.775871" lon="17.361581"></trkpt>
      <trkpt lat="50.777113" lon="17.358507"></trkpt>
      <trkpt lat="50.778554" lon="17.355379"></trkpt>
      <trkpt lat="50.780254" lon="17.352019"></trkpt>
      <trkpt lat="50.790562" lon="17.33347"></trkpt>
      <trkpt lat="50.79242" lon="17.330706"></trkpt>
      <trkpt lat="50.79388" lon="17.329009"></trkpt>
      <trkpt lat="50.812562" lon="17.311867"></trkpt>
      <trkpt lat="50.815764" lon="17.30868"></trkpt>
      <trkpt lat="50.818638" lon="17.3053"></trkpt>
      <trkpt lat="50.833285" lon="17.286157"></trkpt>
      <trkpt lat="50.834754" lon="17.283665"></trkpt>
      <trkpt lat="50.835761" lon="17.281501"></trkpt>
      <trkpt lat="50.836617" lon="17.279269"></trkpt>
      <trkpt lat="50.837271" lon="17.277319"></trkpt>
      <trkpt lat="50.83984" lon="17.266855"></trkpt>
      <trkpt lat="50.84086" lon="17.263464"></trkpt>
      <trkpt lat="50.841829" lon="17.261021"></trkpt>
      <trkpt lat="50.845219" lon="17.253334"></trkpt>
      <trkpt lat="50.846004" lon="17.251026"></trkpt>
      <trkpt lat="50.84943" lon="17.239587"></trkpt>
      <trkpt lat="50.850635" lon="17.236307"></trkpt>
      <trkpt lat="50.852183" lon="17.233246"></trkpt>
      <trkpt lat="50.853712" lon="17.230857"></trkpt>
      <trkpt lat="50.855154" lon="17.229081"></trkpt>
      <trkpt lat="50.86892" lon="17.215018"></trkpt>
      <trkpt lat="50.872228" lon="17.211263"></trkpt>
      <trkpt lat="50.892691" lon="17.184428"></trkpt>
      <trkpt lat="50.894666" lon="17.181599"></trkpt>
      <trkpt lat="50.896245" lon="17.179071"></trkpt>
      <trkpt lat="50.89802" lon="17.175907"></trkpt>
      <trkpt lat="50.915084" lon="17.14394"></trkpt>
      <trkpt lat="50.935477" lon="17.111104"></trkpt>
      <trkpt lat="50.936554" lon="17.109244"></trkpt>
      <trkpt lat="50.944951" lon="17.093358"></trkpt>
      <trkpt lat="50.946769" lon="17.09035"></trkpt>
      <trkpt lat="50.948548" lon="17.087726"></trkpt>
      <trkpt lat="50.961887" lon="17.070183"></trkpt>
      <trkpt lat="50.963744" lon="17.06817"></trkpt>
      <trkpt lat="50.964916" lon="17.067161"></trkpt>
      <trkpt lat="50.966677" lon="17.065963"></trkpt>
      <trkpt lat="50.968576" lon="17.065039"></trkpt>
      <trkpt lat="50.983993" lon="17.058944"></trkpt>
      <trkpt lat="50.985122" lon="17.058362"></trkpt>
      <trkpt lat="50.986653" lon="17.057332"></trkpt>
      <trkpt lat="50.987808" lon="17.056384"></trkpt>
      <trkpt lat="50.989097" lon="17.055095"></trkpt>
      <trkpt lat="50.990795" lon="17.052996"></trkpt>
      <trkpt lat="51.003036" lon="17.036298"></trkpt>
      <trkpt lat="51.005578" lon="17.03319"></trkpt>
      <trkpt lat="51.008368" lon="17.030378"></trkpt>
      <trkpt lat="51.016112" lon="17.024005"></trkpt>
      <trkpt lat="51.018629" lon="17.021423"></trkpt>
      <trkpt lat="51.02082" lon="17.018767"></trkpt>
      <trkpt lat="51.031094" lon="17.004153"></trkpt>
      <trkpt lat="51.033922" lon="16.999895"></trkpt>
      <trkpt lat="51.044768" lon="16.98417"></trkpt>
      <trkpt lat="51.045832" lon="16.982457"></trkpt>
      <trkpt lat="51.047489" lon="16.979322"></trkpt>
      <trkpt lat="51.047901" lon="16.978869"></trkpt>
      <trkpt lat="51.048779" lon="16.978411"></trkpt>
      <trkpt lat="51.049132" lon="16.978026"></trkpt>
      <trkpt lat="51.050202" lon="16.974998"></trkpt>
      <trkpt lat="51.050571" lon="16.974651"></trkpt>
      <trkpt lat="51.050939" lon="16.97465"></trkpt>
      <trkpt lat="51.051273" lon="16.974879"></trkpt>
      <trkpt lat="51.051607" lon="16.975356"></trkpt>
      <trkpt lat="51.058913" lon="16.988117"></trkpt>
      <trkpt lat="51.059518" lon="16.989866"></trkpt>
      <trkpt lat="51.060726" lon="16.99483"></trkpt>
      <trkpt lat="51.061294" lon="16.996735"></trkpt>
      <trkpt lat="51.06297" lon="17.000775"></trkpt>
      <trkpt lat="51.063523" lon="17.001561"></trkpt>
      <trkpt lat="51.063995" lon="17.001999"></trkpt>
      <trkpt lat="51.074013" lon="17.007424"></trkpt>
      <trkpt lat="51.074497" lon="17.007522"></trkpt>
      <trkpt lat="51.078119" lon="17.007613"></trkpt>
      <trkpt lat="51.079243" lon="17.007849"></trkpt>
      <trkpt lat="51.086019" lon="17.011966"></trkpt>
      <trkpt lat="51.089249" lon="17.015591"></trkpt>
      <trkpt lat="51.089338" lon="17.015825"></trkpt>
      <trkpt lat="51.08936" lon="17.017005"></trkpt>
      <trkpt lat="51.089738" lon="17.017666"></trkpt>
      <trkpt lat="51.090161" lon="17.017847"></trkpt>
      <trkpt lat="51.090502" lon="17.017746"></trkpt>
      <trkpt lat="51.09073" lon="17.017539"></trkpt>
      <trkpt lat="51.090954" lon="17.01754"></trkpt>
      <trkpt lat="51.097483" lon="17.025292"></trkpt>
      <trkpt lat="51.10083" lon="17.028961"></trkpt>
      <trkpt lat="51.102817" lon="17.030237"></trkpt>
      <trkpt lat="51.10326" lon="17.030343"></trkpt>
      <trkpt lat="51.104754" lon="17.031056"></trkpt>
      <trkpt lat="51.104791" lon="17.032042"></trkpt>
      <trkpt lat="51.105051" lon="17.032705"></trkpt>
      <trkpt lat="51.10566" lon="17.03318"></trkpt>
      <trkpt lat="51.106058" lon="17.033352"></trkpt>
      <trkpt lat="51.107097" lon="17.033493"></trkpt>
      <trkpt lat="51.107124" lon="17.035515"></trkpt>
      <trkpt lat="51.10758" lon="17.037206"></trkpt>
      <trkpt lat="51.107667" lon="17.038334"></trkpt>
      <trkpt lat="51.107938" lon="17.038862"></trkpt>
      <trkpt lat="51.108377" lon="17.038915"></trkpt>
      <trkpt lat="51.108532" lon="17.039503"></trkpt>
      <trkpt lat="51.108476" lon="17.039758"></trkpt>
      <trkpt lat="51.108714" lon="17.039844"></trkpt>
      <trkpt lat="51.108872" lon="17.040615"></trkpt>
      <trkpt lat="51.109056" lon="17.040678"></trkpt>
      <trkpt lat="51.109087" lon="17.041421"></trkpt>
      <trkpt lat="51.108806" lon="17.043072"></trkpt>
      <trkpt lat="51.108664" lon="17.043251"></trkpt>
      <trkpt lat="51.10847" lon="17.043223"></trkpt>
      <trkpt lat="51.107847" lon="17.042096"></trkpt>
      <trkpt lat="51.107313" lon="17.041763"></trkpt>
      <trkpt lat="51.106755" lon="17.044986"></trkpt>
      <trkpt lat="51.105741" lon="17.0472"></trkpt>
      <trkpt lat="51.103603" lon="17.049804"></trkpt>
      <trkpt lat="51.101683" lon="17.052378"></trkpt>
      <trkpt lat="51.098497" lon="17.055669"></trkpt>
      <trkpt lat="51.097949" lon="17.055969"></trkpt>
      <trkpt lat="51.097207" lon="17.056017"></trkpt>
      <trkpt lat="51.096642" lon="17.056182"></trkpt>
      <trkpt lat="51.09526" lon="17.05728"></trkpt>
      <trkpt lat="51.091253" lon="17.06302"></trkpt>
      <trkpt lat="51.088502" lon="17.066683"></trkpt>
      <trkpt lat="51.086087" lon="17.070219"></trkpt>
      <trkpt lat="51.085703" lon="17.070805"></trkpt>
      <trkpt lat="51.085472" lon="17.0715"></trkpt>
      <trkpt lat="51.084204" lon="17.07333"></trkpt>
      <trkpt lat="51.083713" lon="17.074419"></trkpt>
      <trkpt lat="51.080135" lon="17.080386"></trkpt>
      <trkpt lat="51.075732" lon="17.086308"></trkpt>
      <trkpt lat="51.073147" lon="17.088836"></trkpt>
      <trkpt lat="51.052802" lon="17.110153"></trkpt>
      <trkpt lat="51.04944" lon="17.114245"></trkpt>
      <trkpt lat="51.048514" lon="17.115641"></trkpt>
      <trkpt lat="51.04042" lon="17.129227"></trkpt>
      <trkpt lat="51.03976" lon="17.130109"></trkpt>
      <trkpt lat="51.039454" lon="17.130267"></trkpt>
      <trkpt lat="51.039378" lon="17.130752"></trkpt>
      <trkpt lat="51.038911" lon="17.131758"></trkpt>
      <trkpt lat="51.037462" lon="17.134196"></trkpt>
      <trkpt lat="51.031549" lon="17.141509"></trkpt>
      <trkpt lat="51.030539" lon="17.143077"></trkpt>
      <trkpt lat="51.029147" lon="17.144937"></trkpt>
      <trkpt lat="51.013325" lon="17.171437"></trkpt>
      <trkpt lat="51.009644" lon="17.178727"></trkpt>
      <trkpt lat="51.006524" lon="17.184316"></trkpt>
      <trkpt lat="50.954957" lon="17.272406"></trkpt>
      <trkpt lat="50.954605" lon="17.272878"></trkpt>
      <trkpt lat="50.953913" lon="17.273199"></trkpt>
      <trkpt lat="50.953727" lon="17.274506"></trkpt>
      <trkpt lat="50.950462" lon="17.280103"></trkpt>
      <trkpt lat="50.950117" lon="17.280881"></trkpt>
      <trkpt lat="50.948672" lon="17.286151"></trkpt>
      <trkpt lat="50.948398" lon="17.288631"></trkpt>
      <trkpt lat="50.948075" lon="17.289446"></trkpt>
      <trkpt lat="50.947736" lon="17.289823"></trkpt>
      <trkpt lat="50.947631" lon="17.290525"></trkpt>
      <trkpt lat="50.94687" lon="17.292366"></trkpt>
      <trkpt lat="50.946465" lon="17.292609"></trkpt>
      <trkpt lat="50.944369" lon="17.291914"></trkpt>
      <trkpt lat="50.944083" lon="17.292071"></trkpt>
      <trkpt lat="50.943732" lon="17.29254"></trkpt>
      <trkpt lat="50.942584" lon="17.292676"></trkpt>
      <trkpt lat="50.941989" lon="17.292938"></trkpt>
      <trkpt lat="50.940984" lon="17.294033"></trkpt>
      <trkpt lat="50.938871" lon="17.297475"></trkpt>
      <trkpt lat="50.938066" lon="17.298253"></trkpt>
      <trkpt lat="50.937807" lon="17.298393"></trkpt>
      <trkpt lat="50.93763" lon="17.298336"></trkpt>
      <trkpt lat="50.937505" lon="17.29854"></trkpt>
      <trkpt lat="50.936524" lon="17.298228"></trkpt>
      <trkpt lat="50.93534" lon="17.298102"></trkpt>
      <trkpt lat="50.924258" lon="17.299395"></trkpt>
      <trkpt lat="50.923321" lon="17.299642"></trkpt>
      <trkpt lat="50.921022" lon="17.300776"></trkpt>
      <trkpt lat="50.920306" lon="17.301322"></trkpt>
      <trkpt lat="50.912984" lon="17.308437"></trkpt>
      <trkpt lat="50.910492" lon="17.310724"></trkpt>
      <trkpt lat="50.909794" lon="17.311854"></trkpt>
      <trkpt lat="50.907875" lon="17.314169"></trkpt>
      <trkpt lat="50.907312" lon="17.315075"></trkpt>
      <trkpt lat="50.906959" lon="17.315741"></trkpt>
      <trkpt lat="50.891643" lon="17.353414"></trkpt>
      <trkpt lat="50.889512" lon="17.358339"></trkpt>
      <trkpt lat="50.888908" lon="17.359947"></trkpt>
      <trkpt lat="50.888406" lon="17.361971"></trkpt>
      <trkpt lat="50.885937" lon="17.368811"></trkpt>
      <trkpt lat="50.885277" lon="17.372406"></trkpt>
      <trkpt lat="50.875837" lon="17.41149"></trkpt>
      <trkpt lat="50.875155" lon="17.413901"></trkpt>
      <trkpt lat="50.874524" lon="17.414872"></trkpt>
      <trkpt lat="50.874747" lon="17.415843"></trkpt>
      <trkpt lat="50.874236" lon="17.418086"></trkpt>
      <trkpt lat="50.87425" lon="17.418715"></trkpt>
      <trkpt lat="50.873835" lon="17.419704"></trkpt>
      <trkpt lat="50.865147" lon="17.455649"></trkpt>
      <trkpt lat="50.863408" lon="17.465031"></trkpt>
      <trkpt lat="50.863127" lon="17.465397"></trkpt>
      <trkpt lat="50.863069" lon="17.46599"></trkpt>
      <trkpt lat="50.862569" lon="17.466274"></trkpt>
      <trkpt lat="50.862477" lon="17.466717"></trkpt>
      <trkpt lat="50.862685" lon="17.46692"></trkpt>
      <trkpt lat="50.862359" lon="17.467839"></trkpt>
      <trkpt lat="50.862533" lon="17.467841"></trkpt>
  </trkseg></trk>
</gpx>
