<?xml version="1.0" encoding="UTF-8"?>
<gpx version="1.1" creator="yatutbuv" xmlns="http://www.topografix.com/GPX/1/1">
  <trk><name>GraphHopper Track</name><trkseg>
      <trkpt lat="47.447554" lon="-122.305027"></trkpt>
      <trkpt lat="47.44748" lon="-122.305027"></trkpt>
      <trkpt lat="47.447447" lon="-122.304494"></trkpt>
      <trkpt lat="47.446427" lon="-122.302439"></trkpt>
      <trkpt lat="47.446347" lon="-122.301644"></trkpt>
      <trkpt lat="47.446467" lon="-122.300856"></trkpt>
      <trkpt lat="47.446701" lon="-122.300293"></trkpt>
      <trkpt lat="47.447207" lon="-122.29957"></trkpt>
      <trkpt lat="47.447796" lon="-122.299155"></trkpt>
      <trkpt lat="47.448244" lon="-122.299079"></trkpt>
      <trkpt lat="47.448359" lon="-122.298914"></trkpt>
      <trkpt lat="47.449675" lon="-122.300726"></trkpt>
      <trkpt lat="47.450245" lon="-122.301153"></trkpt>
      <trkpt lat="47.450559" lon="-122.301055"></trkpt>
      <trkpt lat="47.450668" lon="-122.30046"></trkpt>
      <trkpt lat="47.450669" lon="-122.295975"></trkpt>
      <trkpt lat="47.452373" lon="-122.295343"></trkpt>
      <trkpt lat="47.462532" lon="-122.290211"></trkpt>
      <trkpt lat="47.462873" lon="-122.289705"></trkpt>
      <trkpt lat="47.462658" lon="-122.285181"></trkpt>
      <trkpt lat="47.462931" lon="-122.283542"></trkpt>
      <trkpt lat="47.46358" lon="-122.282"></trkpt>
      <trkpt lat="47.465086" lon="-122.279549"></trkpt>
      <trkpt lat="47.465631" lon="-122.277823"></trkpt>
      <trkpt lat="47.465707" lon="-122.276708"></trkpt>
      <trkpt lat="47.465643" lon="-122.275661"></trkpt>
      <trkpt lat="47.465213" lon="-122.27403"></trkpt>
      <trkpt lat="47.46324" lon="-122.270187"></trkpt>
      <trkpt lat="47.462178" lon="-122.267749"></trkpt>
      <trkpt lat="47.462062" lon="-122.26714"></trkpt>
      <trkpt lat="47.462091" lon="-122.266505"></trkpt>
      <trkpt lat="47.462509" lon="-122.265518"></trkpt>
      <trkpt lat="47.462887" lon="-122.265229"></trkpt>
      <trkpt lat="47.463206" lon="-122.265131"></trkpt>
      <trkpt lat="47.463507" lon="-122.265192"></trkpt>
      <trkpt lat="47.466947" lon="-122.267234"></trkpt>
      <trkpt lat="47.473052" lon="-122.268956"></trkpt>
      <trkpt lat="47.473972" lon="-122.269289"></trkpt>
      <trkpt lat="47.478354" lon="-122.271372"></trkpt>
      <trkpt lat="47.479448" lon="-122.271649"></trkpt>
      <trkpt lat="47.480267" lon="-122.271693"></trkpt>
      <trkpt lat="47.481689" lon="-122.271416"></trkpt>
      <trkpt lat="47.483178" lon="-122.270598"></trkpt>
      <trkpt lat="47.484308" lon="-122.26955"></trkpt>
      <trkpt lat="47.487855" lon="-122.265203"></trkpt>
      <trkpt lat="47.488843" lon="-122.264531"></trkpt>
      <trkpt lat="47.4896" lon="-122.264333"></trkpt>
      <trkpt lat="47.490283" lon="-122.264313"></trkpt>
      <trkpt lat="47.491038" lon="-122.264488"></trkpt>
      <trkpt lat="47.491645" lon="-122.264805"></trkpt>
      <trkpt lat="47.492214" lon="-122.265277"></trkpt>
      <trkpt lat="47.497367" lon="-122.27148"></trkpt>
      <trkpt lat="47.50352" lon="-122.277861"></trkpt>
      <trkpt lat="47.505621" lon="-122.279706"></trkpt>
      <trkpt lat="47.515516" lon="-122.287252"></trkpt>
      <trkpt lat="47.517306" lon="-122.288384"></trkpt>
      <trkpt lat="47.521187" lon="-122.290292"></trkpt>
      <trkpt lat="47.527211" lon="-122.292344"></trkpt>
      <trkpt lat="47.530289" lon="-122.293645"></trkpt>
      <trkpt lat="47.533956" lon="-122.29545"></trkpt>
      <trkpt lat="47.535598" lon="-122.296553"></trkpt>
      <trkpt lat="47.53715" lon="-122.298025"></trkpt>
      <trkpt lat="47.541898" lon="-122.303539"></trkpt>
      <trkpt lat="47.546045" lon="-122.308016"></trkpt>
      <trkpt lat="47.547312" lon="-122.309745"></trkpt>
      <trkpt lat="47.550975" lon="-122.315746"></trkpt>
      <trkpt lat="47.551585" lon="-122.316474"></trkpt>
      <trkpt lat="47.552279" lon="-122.317055"></trkpt>
      <trkpt lat="47.555214" lon="-122.318816"></trkpt>
      <trkpt lat="47.557992" lon="-122.320688"></trkpt>
      <trkpt lat="47.55959" lon="-122.321305"></trkpt>
      <trkpt lat="47.560553" lon="-122.321469"></trkpt>
      <trkpt lat="47.561745" lon="-122.321443"></trkpt>
      <trkpt lat="47.566528" lon="-122.320514"></trkpt>
      <trkpt lat="47.569648" lon="-122.32006"></trkpt>
      <trkpt lat="47.575585" lon="-122.319681"></trkpt>
      <trkpt lat="47.578267" lon="-122.319117"></trkpt>
      <trkpt lat="47.579424" lon="-122.318978"></trkpt>
      <trkpt lat="47.580376" lon="-122.319031"></trkpt>
      <trkpt lat="47.583483" lon="-122.319793"></trkpt>
      <trkpt lat="47.587879" lon="-122.320227"></trkpt>
      <trkpt lat="47.59109" lon="-122.32099"></trkpt>
      <trkpt lat="47.591978" lon="-122.320967"></trkpt>
      <trkpt lat="47.59544" lon="-122.320253"></trkpt>
      <trkpt lat="47.59684" lon="-122.320301"></trkpt>
      <trkpt lat="47.598115" lon="-122.320763"></trkpt>
      <trkpt lat="47.599507" lon="-122.321779"></trkpt>
      <trkpt lat="47.603231" lon="-122.326363"></trkpt>
      <trkpt lat="47.60718" lon="-122.329792"></trkpt>
      <trkpt lat="47.60848" lon="-122.330703"></trkpt>
      <trkpt lat="47.60981" lon="-122.331012"></trkpt>
      <trkpt lat="47.611125" lon="-122.330816"></trkpt>
      <trkpt lat="47.616559" lon="-122.328771"></trkpt>
      <trkpt lat="47.618177" lon="-122.32836"></trkpt>
      <trkpt lat="47.621278" lon="-122.328141"></trkpt>
      <trkpt lat="47.626458" lon="-122.328146"></trkpt>
      <trkpt lat="47.627613" lon="-122.327931"></trkpt>
      <trkpt lat="47.628825" lon="-122.327265"></trkpt>
      <trkpt lat="47.631308" lon="-122.324806"></trkpt>
      <trkpt lat="47.63225" lon="-122.324111"></trkpt>
      <trkpt lat="47.634857" lon="-122.323041"></trkpt>
      <trkpt lat="47.636135" lon="-122.322756"></trkpt>
      <trkpt lat="47.645459" lon="-122.322448"></trkpt>
      <trkpt lat="47.656008" lon="-122.322348"></trkpt>
      <trkpt lat="47.662812" lon="-122.321834"></trkpt>
      <trkpt lat="47.670485" lon="-122.321703"></trkpt>
      <trkpt lat="47.67201" lon="-122.321436"></trkpt>
      <trkpt lat="47.674889" lon="-122.320641"></trkpt>
      <trkpt lat="47.677141" lon="-122.320418"></trkpt>
      <trkpt lat="47.680619" lon="-122.320574"></trkpt>
      <trkpt lat="47.681539" lon="-122.320775"></trkpt>
      <trkpt lat="47.68243" lon="-122.321171"></trkpt>
      <trkpt lat="47.683335" lon="-122.321807"></trkpt>
      <trkpt lat="47.684008" lon="-122.322465"></trkpt>
      <trkpt lat="47.688204" lon="-122.327687"></trkpt>
      <trkpt lat="47.689009" lon="-122.32832"></trkpt>
      <trkpt lat="47.689648" lon="-122.328665"></trkpt>
      <trkpt lat="47.690984" lon="-122.329049"></trkpt>
      <trkpt lat="47.696891" lon="-122.329066"></trkpt>
      <trkpt lat="47.708877" lon="-122.329809"></trkpt>
      <trkpt lat="47.710002" lon="-122.329576"></trkpt>
      <trkpt lat="47.711051" lon="-122.329115"></trkpt>
      <trkpt lat="47.716067" lon="-122.325202"></trkpt>
      <trkpt lat="47.71707" lon="-122.324666"></trkpt>
      <trkpt lat="47.717924" lon="-122.324367"></trkpt>
      <trkpt lat="47.719196" lon="-122.324219"></trkpt>
      <trkpt lat="47.729446" lon="-122.324118"></trkpt>
      <trkpt lat="47.732448" lon="-122.324275"></trkpt>
      <trkpt lat="47.733561" lon="-122.324551"></trkpt>
      <trkpt lat="47.734751" lon="-122.325007"></trkpt>
      <trkpt lat="47.737795" lon="-122.326724"></trkpt>
      <trkpt lat="47.741693" lon="-122.329143"></trkpt>
      <trkpt lat="47.742952" lon="-122.329675"></trkpt>
      <trkpt lat="47.744347" lon="-122.329757"></trkpt>
      <trkpt lat="47.748037" lon="-122.328831"></trkpt>
      <trkpt lat="47.749738" lon="-122.329097"></trkpt>
      <trkpt lat="47.752224" lon="-122.330014"></trkpt>
      <trkpt lat="47.753415" lon="-122.330107"></trkpt>
      <trkpt lat="47.754346" lon="-122.329994"></trkpt>
      <trkpt lat="47.755605" lon="-122.329581"></trkpt>
      <trkpt lat="47.756673" lon="-122.328938"></trkpt>
      <trkpt lat="47.760448" lon="-122.325422"></trkpt>
      <trkpt lat="47.762464" lon="-122.323989"></trkpt>
      <trkpt lat="47.764527" lon="-122.323142"></trkpt>
      <trkpt lat="47.768537" lon="-122.322221"></trkpt>
      <trkpt lat="47.769449" lon="-122.321902"></trkpt>
      <trkpt lat="47.770755" lon="-122.321139"></trkpt>
      <trkpt lat="47.773853" lon="-122.318898"></trkpt>
      <trkpt lat="47.774964" lon="-122.31835"></trkpt>
      <trkpt lat="47.783681" lon="-122.316325"></trkpt>
      <trkpt lat="47.786074" lon="-122.316092"></trkpt>
      <trkpt lat="47.791339" lon="-122.316111"></trkpt>
      <trkpt lat="47.793002" lon="-122.315957"></trkpt>
      <trkpt lat="47.799688" lon="-122.314285"></trkpt>
      <trkpt lat="47.800852" lon="-122.313766"></trkpt>
      <trkpt lat="47.801698" lon="-122.313194"></trkpt>
      <trkpt lat="47.803087" lon="-122.311809"></trkpt>
      <trkpt lat="47.804059" lon="-122.310347"></trkpt>
      <trkpt lat="47.827828" lon="-122.265767"></trkpt>
      <trkpt lat="47.828577" lon="-122.264565"></trkpt>
      <trkpt lat="47.830035" lon="-122.262986"></trkpt>
      <trkpt lat="47.831613" lon="-122.262016"></trkpt>
      <trkpt lat="47.834041" lon="-122.261218"></trkpt>
      <trkpt lat="47.851082" lon="-122.256888"></trkpt>
      <trkpt lat="47.852432" lon="-122.256058"></trkpt>
      <trkpt lat="47.864015" lon="-122.246119"></trkpt>
      <trkpt lat="47.865936" lon="-122.245339"></trkpt>
      <trkpt lat="47.872269" lon="-122.24382"></trkpt>
      <trkpt lat="47.87363" lon="-122.243137"></trkpt>
      <trkpt lat="47.874636" lon="-122.242367"></trkpt>
      <trkpt lat="47.875352" lon="-122.241651"></trkpt>
      <trkpt lat="47.88211" lon="-122.233106"></trkpt>
      <trkpt lat="47.893671" lon="-122.217677"></trkpt>
      <trkpt lat="47.894705" lon="-122.216567"></trkpt>
      <trkpt lat="47.896833" lon="-122.21464"></trkpt>
      <trkpt lat="47.898377" lon="-122.213668"></trkpt>
      <trkpt lat="47.900317" lon="-122.212827"></trkpt>
      <trkpt lat="47.903731" lon="-122.21177"></trkpt>
      <trkpt lat="47.906499" lon="-122.211122"></trkpt>
      <trkpt lat="47.911959" lon="-122.209391"></trkpt>
      <trkpt lat="47.924749" lon="-122.203794"></trkpt>
      <trkpt lat="47.926094" lon="-122.203012"></trkpt>
      <trkpt lat="47.926973" lon="-122.20219"></trkpt>
      <trkpt lat="47.927605" lon="-122.20128"></trkpt>
      <trkpt lat="47.929439" lon="-122.198065"></trkpt>
      <trkpt lat="47.930097" lon="-122.197275"></trkpt>
      <trkpt lat="47.93073" lon="-122.196717"></trkpt>
      <trkpt lat="47.931637" lon="-122.196141"></trkpt>
      <trkpt lat="47.932162" lon="-122.195945"></trkpt>
      <trkpt lat="47.933268" lon="-122.195797"></trkpt>
      <trkpt lat="47.939291" lon="-122.196793"></trkpt>
      <trkpt lat="47.9421" lon="-122.196557"></trkpt>
      <trkpt lat="47.942698" lon="-122.196629"></trkpt>
      <trkpt lat="47.943474" lon="-122.196797"></trkpt>
      <trkpt lat="47.949166" lon="-122.198769"></trkpt>
      <trkpt lat="47.950163" lon="-122.198967"></trkpt>
      <trkpt lat="47.953687" lon="-122.199264"></trkpt>
      <trkpt lat="47.956875" lon="-122.199436"></trkpt>
      <trkpt lat="47.959986" lon="-122.199326"></trkpt>
      <trkpt lat="47.965591" lon="-122.198952"></trkpt>
      <trkpt lat="47.966474" lon="-122.198774"></trkpt>
      <trkpt lat="47.96795" lon="-122.197976"></trkpt>
      <trkpt lat="47.968469" lon="-122.197449"></trkpt>
      <trkpt lat="47.970852" lon="-122.193832"></trkpt>
      <trkpt lat="47.971581" lon="-122.192931"></trkpt>
      <trkpt lat="47.97262" lon="-122.191974"></trkpt>
      <trkpt lat="47.973369" lon="-122.191435"></trkpt>
      <trkpt lat="47.974345" lon="-122.190971"></trkpt>
      <trkpt lat="47.978106" lon="-122.190024"></trkpt>
      <trkpt lat="47.979228" lon="-122.189433"></trkpt>
      <trkpt lat="47.980089" lon="-122.188658"></trkpt>
      <trkpt lat="47.983536" lon="-122.1844"></trkpt>
      <trkpt lat="47.984017" lon="-122.183931"></trkpt>
      <trkpt lat="47.98478" lon="-122.183431"></trkpt>
      <trkpt lat="47.985957" lon="-122.18304"></trkpt>
      <trkpt lat="47.989619" lon="-122.182867"></trkpt>
      <trkpt lat="47.990706" lon="-122.182433"></trkpt>
      <trkpt lat="47.991679" lon="-122.181532"></trkpt>
      <trkpt lat="47.995819" lon="-122.176155"></trkpt>
      <trkpt lat="47.996802" lon="-122.175069"></trkpt>
      <trkpt lat="47.998183" lon="-122.174192"></trkpt>
      <trkpt lat="47.999379" lon="-122.173836"></trkpt>
      <trkpt lat="48.018627" lon="-122.174713"></trkpt>
      <trkpt lat="48.020861" lon="-122.175031"></trkpt>
      <trkpt lat="48.034987" lon="-122.177848"></trkpt>
      <trkpt lat="48.03911" lon="-122.178697"></trkpt>
      <trkpt lat="48.040789" lon="-122.179241"></trkpt>
      <trkpt lat="48.044163" lon="-122.180994"></trkpt>
      <trkpt lat="48.048562" lon="-122.183579"></trkpt>
      <trkpt lat="48.04985" lon="-122.184129"></trkpt>
      <trkpt lat="48.051175" lon="-122.184387"></trkpt>
      <trkpt lat="48.056316" lon="-122.184432"></trkpt>
      <trkpt lat="48.065752" lon="-122.184746"></trkpt>
      <trkpt lat="48.079419" lon="-122.184601"></trkpt>
      <trkpt lat="48.113412" lon="-122.184764"></trkpt>
      <trkpt lat="48.118392" lon="-122.184919"></trkpt>
      <trkpt lat="48.132938" lon="-122.185674"></trkpt>
      <trkpt lat="48.138741" lon="-122.186249"></trkpt>
      <trkpt lat="48.165541" lon="-122.19096"></trkpt>
      <trkpt lat="48.175139" lon="-122.192678"></trkpt>
      <trkpt lat="48.175854" lon="-122.192884"></trkpt>
      <trkpt lat="48.177413" lon="-122.193579"></trkpt>
      <trkpt lat="48.179059" lon="-122.194798"></trkpt>
      <trkpt lat="48.193228" lon="-122.207466"></trkpt>
      <trkpt lat="48.195098" lon="-122.208813"></trkpt>
      <trkpt lat="48.207036" lon="-122.214671"></trkpt>
      <trkpt lat="48.219204" lon="-122.219225"></trkpt>
      <trkpt lat="48.221377" lon="-122.22041"></trkpt>
      <trkpt lat="48.223344" lon="-122.221989"></trkpt>
      <trkpt lat="48.225033" lon="-122.22412"></trkpt>
      <trkpt lat="48.227288" lon="-122.227148"></trkpt>
      <trkpt lat="48.231261" lon="-122.233102"></trkpt>
      <trkpt lat="48.232932" lon="-122.235168"></trkpt>
      <trkpt lat="48.239023" lon="-122.241034"></trkpt>
      <trkpt lat="48.249576" lon="-122.250908"></trkpt>
      <trkpt lat="48.25192" lon="-122.252995"></trkpt>
      <trkpt lat="48.260985" lon="-122.260544"></trkpt>
      <trkpt lat="48.26359" lon="-122.263514"></trkpt>
      <trkpt lat="48.267902" lon="-122.268807"></trkpt>
      <trkpt lat="48.281751" lon="-122.284826"></trkpt>
      <trkpt lat="48.304593" lon="-122.311608"></trkpt>
      <trkpt lat="48.30668" lon="-122.314133"></trkpt>
      <trkpt lat="48.310002" lon="-122.318929"></trkpt>
      <trkpt lat="48.310929" lon="-122.320093"></trkpt>
      <trkpt lat="48.312713" lon="-122.321649"></trkpt>
      <trkpt lat="48.319062" lon="-122.325926"></trkpt>
      <trkpt lat="48.327942" lon="-122.331383"></trkpt>
      <trkpt lat="48.329695" lon="-122.332396"></trkpt>
      <trkpt lat="48.331344" lon="-122.3331"></trkpt>
      <trkpt lat="48.332891" lon="-122.333534"></trkpt>
      <trkpt lat="48.342431" lon="-122.335532"></trkpt>
      <trkpt lat="48.345026" lon="-122.335854"></trkpt>
      <trkpt lat="48.35587" lon="-122.335811"></trkpt>
      <trkpt lat="48.376598" lon="-122.335391"></trkpt>
      <trkpt lat="48.378236" lon="-122.335234"></trkpt>
      <trkpt lat="48.379952" lon="-122.334652"></trkpt>
      <trkpt lat="48.381853" lon="-122.333512"></trkpt>
      <trkpt lat="48.384124" lon="-122.331583"></trkpt>
      <trkpt lat="48.386028" lon="-122.3307"></trkpt>
      <trkpt lat="48.390136" lon="-122.330443"></trkpt>
      <trkpt lat="48.399605" lon="-122.330328"></trkpt>
      <trkpt lat="48.414119" lon="-122.33151"></trkpt>
      <trkpt lat="48.415187" lon="-122.331794"></trkpt>
      <trkpt lat="48.41772" lon="-122.333005"></trkpt>
      <trkpt lat="48.422615" lon="-122.335811"></trkpt>
      <trkpt lat="48.428734" lon="-122.340222"></trkpt>
      <trkpt lat="48.429844" lon="-122.340752"></trkpt>
      <trkpt lat="48.430858" lon="-122.340997"></trkpt>
      <trkpt lat="48.443285" lon="-122.340993"></trkpt>
      <trkpt lat="48.463674" lon="-122.341475"></trkpt>
      <trkpt lat="48.478065" lon="-122.342461"></trkpt>
      <trkpt lat="48.479179" lon="-122.342276"></trkpt>
      <trkpt lat="48.479821" lon="-122.34205"></trkpt>
      <trkpt lat="48.48128" lon="-122.34119"></trkpt>
      <trkpt lat="48.482303" lon="-122.340226"></trkpt>
      <trkpt lat="48.484585" lon="-122.337302"></trkpt>
      <trkpt lat="48.485593" lon="-122.33646"></trkpt>
      <trkpt lat="48.486728" lon="-122.335853"></trkpt>
      <trkpt lat="48.487791" lon="-122.335551"></trkpt>
      <trkpt lat="48.489133" lon="-122.335455"></trkpt>
      <trkpt lat="48.498048" lon="-122.335307"></trkpt>
      <trkpt lat="48.500981" lon="-122.335836"></trkpt>
      <trkpt lat="48.502616" lon="-122.336405"></trkpt>
      <trkpt lat="48.504044" lon="-122.337045"></trkpt>
      <trkpt lat="48.522634" lon="-122.348016"></trkpt>
      <trkpt lat="48.5262" lon="-122.350022"></trkpt>
      <trkpt lat="48.527942" lon="-122.350813"></trkpt>
      <trkpt lat="48.529236" lon="-122.35125"></trkpt>
      <trkpt lat="48.531043" lon="-122.351636"></trkpt>
      <trkpt lat="48.532476" lon="-122.351747"></trkpt>
      <trkpt lat="48.542597" lon="-122.35179"></trkpt>
      <trkpt lat="48.543285" lon="-122.351636"></trkpt>
      <trkpt lat="48.544144" lon="-122.351256"></trkpt>
      <trkpt lat="48.547173" lon="-122.34972"></trkpt>
      <trkpt lat="48.548604" lon="-122.349376"></trkpt>
      <trkpt lat="48.550104" lon="-122.349445"></trkpt>
      <trkpt lat="48.553485" lon="-122.350235"></trkpt>
      <trkpt lat="48.55503" lon="-122.350278"></trkpt>
      <trkpt lat="48.556502" lon="-122.349969"></trkpt>
      <trkpt lat="48.561694" lon="-122.34796"></trkpt>
      <trkpt lat="48.562819" lon="-122.347746"></trkpt>
      <trkpt lat="48.564351" lon="-122.347587"></trkpt>
      <trkpt lat="48.568578" lon="-122.347765"></trkpt>
      <trkpt lat="48.57094" lon="-122.347767"></trkpt>
      <trkpt lat="48.572768" lon="-122.34763"></trkpt>
      <trkpt lat="48.591633" lon="-122.343766"></trkpt>
      <trkpt lat="48.59393" lon="-122.343544"></trkpt>
      <trkpt lat="48.595082" lon="-122.343613"></trkpt>
      <trkpt lat="48.604435" lon="-122.345288"></trkpt>
      <trkpt lat="48.606422" lon="-122.345961"></trkpt>
      <trkpt lat="48.607629" lon="-122.346584"></trkpt>
      <trkpt lat="48.609215" lon="-122.347664"></trkpt>
      <trkpt lat="48.617687" lon="-122.354728"></trkpt>
      <trkpt lat="48.619418" lon="-122.355732"></trkpt>
      <trkpt lat="48.621495" lon="-122.356324"></trkpt>
      <trkpt lat="48.62613" lon="-122.356925"></trkpt>
      <trkpt lat="48.627445" lon="-122.357177"></trkpt>
      <trkpt lat="48.629193" lon="-122.357697"></trkpt>
      <trkpt lat="48.648908" lon="-122.365895"></trkpt>
      <trkpt lat="48.655185" lon="-122.368081"></trkpt>
      <trkpt lat="48.66207" lon="-122.371131"></trkpt>
      <trkpt lat="48.665739" lon="-122.372429"></trkpt>
      <trkpt lat="48.666382" lon="-122.372828"></trkpt>
      <trkpt lat="48.66714" lon="-122.373504"></trkpt>
      <trkpt lat="48.66767" lon="-122.374123"></trkpt>
      <trkpt lat="48.668175" lon="-122.374973"></trkpt>
      <trkpt lat="48.66979" lon="-122.378629"></trkpt>
      <trkpt lat="48.672624" lon="-122.384457"></trkpt>
      <trkpt lat="48.673922" lon="-122.388199"></trkpt>
      <trkpt lat="48.674455" lon="-122.389401"></trkpt>
      <trkpt lat="48.675206" lon="-122.390714"></trkpt>
      <trkpt lat="48.676847" lon="-122.393031"></trkpt>
      <trkpt lat="48.677433" lon="-122.393646"></trkpt>
      <trkpt lat="48.678218" lon="-122.394199"></trkpt>
      <trkpt lat="48.67904" lon="-122.394473"></trkpt>
      <trkpt lat="48.679834" lon="-122.394542"></trkpt>
      <trkpt lat="48.683137" lon="-122.393795"></trkpt>
      <trkpt lat="48.684237" lon="-122.393941"></trkpt>
      <trkpt lat="48.684713" lon="-122.394147"></trkpt>
      <trkpt lat="48.685755" lon="-122.394851"></trkpt>
      <trkpt lat="48.686197" lon="-122.39528"></trkpt>
      <trkpt lat="48.687155" lon="-122.396748"></trkpt>
      <trkpt lat="48.687569" lon="-122.397778"></trkpt>
      <trkpt lat="48.689937" lon="-122.40564"></trkpt>
      <trkpt lat="48.690203" lon="-122.407606"></trkpt>
      <trkpt lat="48.690441" lon="-122.413502"></trkpt>
      <trkpt lat="48.69039" lon="-122.414463"></trkpt>
      <trkpt lat="48.690237" lon="-122.415742"></trkpt>
      <trkpt lat="48.689223" lon="-122.419768"></trkpt>
      <trkpt lat="48.689073" lon="-122.420861"></trkpt>
      <trkpt lat="48.689036" lon="-122.42248"></trkpt>
      <trkpt lat="48.689149" lon="-122.424317"></trkpt>
      <trkpt lat="48.68941" lon="-122.42593"></trkpt>
      <trkpt lat="48.69039" lon="-122.428754"></trkpt>
      <trkpt lat="48.690855" lon="-122.430617"></trkpt>
      <trkpt lat="48.692793" lon="-122.443157"></trkpt>
      <trkpt lat="48.693089" lon="-122.447323"></trkpt>
      <trkpt lat="48.693423" lon="-122.449031"></trkpt>
      <trkpt lat="48.694942" lon="-122.45364"></trkpt>
      <trkpt lat="48.695525" lon="-122.454927"></trkpt>
      <trkpt lat="48.69693" lon="-122.457296"></trkpt>
      <trkpt lat="48.697655" lon="-122.459004"></trkpt>
      <trkpt lat="48.699604" lon="-122.46727"></trkpt>
      <trkpt lat="48.700125" lon="-122.468712"></trkpt>
      <trkpt lat="48.70076" lon="-122.470033"></trkpt>
      <trkpt lat="48.70383" lon="-122.474874"></trkpt>
      <trkpt lat="48.704453" lon="-122.475569"></trkpt>
      <trkpt lat="48.705065" lon="-122.476076"></trkpt>
      <trkpt lat="48.705744" lon="-122.476453"></trkpt>
      <trkpt lat="48.706849" lon="-122.47678"></trkpt>
      <trkpt lat="48.707478" lon="-122.476797"></trkpt>
      <trkpt lat="48.708265" lon="-122.476659"></trkpt>
      <trkpt lat="48.709256" lon="-122.476308"></trkpt>
      <trkpt lat="48.715089" lon="-122.473964"></trkpt>
      <trkpt lat="48.71596" lon="-122.473713"></trkpt>
      <trkpt lat="48.716833" lon="-122.473606"></trkpt>
      <trkpt lat="48.7249" lon="-122.473722"></trkpt>
      <trkpt lat="48.725457" lon="-122.473688"></trkpt>
      <trkpt lat="48.726438" lon="-122.473336"></trkpt>
      <trkpt lat="48.72747" lon="-122.47276"></trkpt>
      <trkpt lat="48.728448" lon="-122.47191"></trkpt>
      <trkpt lat="48.728613" lon="-122.47135"></trkpt>
      <trkpt lat="48.729086" lon="-122.471118"></trkpt>
      <trkpt lat="48.729602" lon="-122.470636"></trkpt>
      <trkpt lat="48.731283" lon="-122.468226"></trkpt>
      <trkpt lat="48.731653" lon="-122.468685"></trkpt>
      <trkpt lat="48.733641" lon="-122.469869"></trkpt>
      <trkpt lat="48.733595" lon="-122.470903"></trkpt>
      <trkpt lat="48.733459" lon="-122.471582"></trkpt>
      <trkpt lat="48.729716" lon="-122.480588"></trkpt>
      <trkpt lat="48.729288" lon="-122.481346"></trkpt>
      <trkpt lat="48.726955" lon="-122.483896"></trkpt>
      <trkpt lat="48.726651" lon="-122.484386"></trkpt>
      <trkpt lat="48.726455" lon="-122.48533"></trkpt>
      <trkpt lat="48.727538" lon="-122.485292"></trkpt>
      <trkpt lat="48.72827" lon="-122.484432"></trkpt>
  </trkseg></trk>
</gpx>
