<?xml version="1.0" encoding="UTF-8"?>
<gpx version="1.1" creator="yatutbuv" xmlns="http://www.topografix.com/GPX/1/1">
  <trk><name>GraphHopper Track</name><trkseg>
      <trkpt lat="53.427263" lon="-6.242658"></trkpt>
      <trkpt lat="53.427771" lon="-6.243696"></trkpt>
      <trkpt lat="53.428432" lon="-6.244271"></trkpt>
      <trkpt lat="53.428702" lon="-6.244299"></trkpt>
      <trkpt lat="53.429368" lon="-6.24367"></trkpt>
      <trkpt lat="53.429503" lon="-6.242721"></trkpt>
      <trkpt lat="53.429427" lon="-6.241382"></trkpt>
      <trkpt lat="53.428485" lon="-6.233842"></trkpt>
      <trkpt lat="53.428313" lon="-6.230603"></trkpt>
      <trkpt lat="53.428597" lon="-6.229522"></trkpt>
      <trkpt lat="53.428266" lon="-6.228556"></trkpt>
      <trkpt lat="53.428177" lon="-6.227603"></trkpt>
      <trkpt lat="53.427824" lon="-6.219167"></trkpt>
      <trkpt lat="53.427918" lon="-6.217584"></trkpt>
      <trkpt lat="53.427622" lon="-6.216376"></trkpt>
      <trkpt lat="53.427447" lon="-6.216104"></trkpt>
      <trkpt lat="53.427145" lon="-6.215948"></trkpt>
      <trkpt lat="53.426869" lon="-6.216004"></trkpt>
      <trkpt lat="53.426627" lon="-6.216233"></trkpt>
      <trkpt lat="53.42614" lon="-6.217136"></trkpt>
      <trkpt lat="53.425666" lon="-6.217709"></trkpt>
      <trkpt lat="53.422668" lon="-6.21966"></trkpt>
      <trkpt lat="53.411579" lon="-6.225669"></trkpt>
      <trkpt lat="53.408815" lon="-6.227513"></trkpt>
      <trkpt lat="53.407135" lon="-6.228948"></trkpt>
      <trkpt lat="53.398109" lon="-6.237779"></trkpt>
      <trkpt lat="53.396513" lon="-6.239165"></trkpt>
      <trkpt lat="53.394958" lon="-6.240137"></trkpt>
      <trkpt lat="53.393882" lon="-6.240661"></trkpt>
      <trkpt lat="53.391543" lon="-6.241445"></trkpt>
      <trkpt lat="53.384762" lon="-6.243162"></trkpt>
      <trkpt lat="53.382521" lon="-6.243561"></trkpt>
      <trkpt lat="53.37724" lon="-6.244115"></trkpt>
      <trkpt lat="53.376387" lon="-6.244125"></trkpt>
      <trkpt lat="53.375316" lon="-6.243946"></trkpt>
      <trkpt lat="53.37443" lon="-6.243636"></trkpt>
      <trkpt lat="53.37368" lon="-6.243156"></trkpt>
      <trkpt lat="53.372403" lon="-6.241898"></trkpt>
      <trkpt lat="53.371692" lon="-6.24092"></trkpt>
      <trkpt lat="53.370184" lon="-6.237927"></trkpt>
      <trkpt lat="53.369462" lon="-6.236717"></trkpt>
      <trkpt lat="53.368778" lon="-6.235879"></trkpt>
      <trkpt lat="53.367265" lon="-6.234689"></trkpt>
      <trkpt lat="53.366471" lon="-6.234293"></trkpt>
      <trkpt lat="53.365513" lon="-6.234082"></trkpt>
      <trkpt lat="53.363983" lon="-6.234178"></trkpt>
      <trkpt lat="53.361301" lon="-6.233861"></trkpt>
      <trkpt lat="53.360417" lon="-6.233496"></trkpt>
      <trkpt lat="53.359106" lon="-6.232562"></trkpt>
      <trkpt lat="53.35795" lon="-6.231228"></trkpt>
      <trkpt lat="53.356977" lon="-6.229495"></trkpt>
      <trkpt lat="53.356413" lon="-6.22805"></trkpt>
      <trkpt lat="53.355115" lon="-6.223981"></trkpt>
      <trkpt lat="53.354648" lon="-6.223367"></trkpt>
      <trkpt lat="53.354153" lon="-6.223132"></trkpt>
      <trkpt lat="53.353746" lon="-6.223155"></trkpt>
      <trkpt lat="53.353104" lon="-6.223672"></trkpt>
      <trkpt lat="53.352438" lon="-6.224774"></trkpt>
      <trkpt lat="53.352134" lon="-6.225093"></trkpt>
      <trkpt lat="53.349809" lon="-6.226752"></trkpt>
      <trkpt lat="53.346801" lon="-6.227263"></trkpt>
      <trkpt lat="53.346705" lon="-6.227378"></trkpt>
      <trkpt lat="53.347622" lon="-6.241187"></trkpt>
      <trkpt lat="53.349121" lon="-6.24096"></trkpt>
      <trkpt lat="53.349046" lon="-6.23992"></trkpt>
      <trkpt lat="53.348955" lon="-6.239935"></trkpt>
      <trkpt lat="53.348942" lon="-6.240982"></trkpt>
      <trkpt lat="53.346379" lon="-6.241341"></trkpt>
      <trkpt lat="53.346103" lon="-6.240448"></trkpt>
      <trkpt lat="53.342749" lon="-6.24115"></trkpt>
      <trkpt lat="53.343179" lon="-6.244564"></trkpt>
      <trkpt lat="53.341248" lon="-6.245337"></trkpt>
      <trkpt lat="53.339728" lon="-6.246715"></trkpt>
      <trkpt lat="53.339594" lon="-6.246355"></trkpt>
      <trkpt lat="53.332587" lon="-6.253312"></trkpt>
      <trkpt lat="53.334401" lon="-6.255255"></trkpt>
      <trkpt lat="53.334062" lon="-6.256215"></trkpt>
      <trkpt lat="53.333807" lon="-6.2576"></trkpt>
      <trkpt lat="53.334093" lon="-6.263008"></trkpt>
      <trkpt lat="53.33487" lon="-6.263264"></trkpt>
      <trkpt lat="53.335973" lon="-6.263359"></trkpt>
  </trkseg></trk>
</gpx>
