<?xml version="1.0" encoding="UTF-8"?>
<gpx version="1.1" creator="yatutbuv" xmlns="http://www.topografix.com/GPX/1/1">
  <trk><name>GraphHopper Track</name><trkseg>
      <trkpt lat="22.321337" lon="113.954468"></trkpt>
      <trkpt lat="22.322136" lon="113.950954"></trkpt>
      <trkpt lat="22.32209" lon="113.950534"></trkpt>
      <trkpt lat="22.321856" lon="113.950091"></trkpt>
      <trkpt lat="22.321506" lon="113.949819"></trkpt>
      <trkpt lat="22.319783" lon="113.949146"></trkpt>
      <trkpt lat="22.315424" lon="113.94779"></trkpt>
      <trkpt lat="22.314516" lon="113.947235"></trkpt>
      <trkpt lat="22.313984" lon="113.94664"></trkpt>
      <trkpt lat="22.313514" lon="113.94571"></trkpt>
      <trkpt lat="22.31289" lon="113.942696"></trkpt>
      <trkpt lat="22.312539" lon="113.941751"></trkpt>
      <trkpt lat="22.31183" lon="113.940831"></trkpt>
      <trkpt lat="22.31055" lon="113.939779"></trkpt>
      <trkpt lat="22.309834" lon="113.93939"></trkpt>
      <trkpt lat="22.30921" lon="113.939215"></trkpt>
      <trkpt lat="22.307859" lon="113.939142"></trkpt>
      <trkpt lat="22.306681" lon="113.939399"></trkpt>
      <trkpt lat="22.304448" lon="113.940408"></trkpt>
      <trkpt lat="22.303622" lon="113.940463"></trkpt>
      <trkpt lat="22.302984" lon="113.940317"></trkpt>
      <trkpt lat="22.302206" lon="113.939898"></trkpt>
      <trkpt lat="22.300117" lon="113.938028"></trkpt>
      <trkpt lat="22.299614" lon="113.937763"></trkpt>
      <trkpt lat="22.297215" lon="113.936957"></trkpt>
      <trkpt lat="22.296376" lon="113.936573"></trkpt>
      <trkpt lat="22.295206" lon="113.935815"></trkpt>
      <trkpt lat="22.293939" lon="113.934624"></trkpt>
      <trkpt lat="22.293017" lon="113.933225"></trkpt>
      <trkpt lat="22.292579" lon="113.932216"></trkpt>
      <trkpt lat="22.292031" lon="113.930446"></trkpt>
      <trkpt lat="22.29193" lon="113.929372"></trkpt>
      <trkpt lat="22.292019" lon="113.92796"></trkpt>
      <trkpt lat="22.292283" lon="113.926753"></trkpt>
      <trkpt lat="22.295143" lon="113.917282"></trkpt>
      <trkpt lat="22.295404" lon="113.915421"></trkpt>
      <trkpt lat="22.295385" lon="113.913645"></trkpt>
      <trkpt lat="22.295225" lon="113.912608"></trkpt>
      <trkpt lat="22.294863" lon="113.911601"></trkpt>
      <trkpt lat="22.294071" lon="113.909992"></trkpt>
      <trkpt lat="22.293748" lon="113.908932"></trkpt>
      <trkpt lat="22.293544" lon="113.904348"></trkpt>
      <trkpt lat="22.293044" lon="113.901719"></trkpt>
      <trkpt lat="22.292257" lon="113.89955"></trkpt>
      <trkpt lat="22.291358" lon="113.897861"></trkpt>
      <trkpt lat="22.276957" lon="113.875948"></trkpt>
      <trkpt lat="22.27587" lon="113.873506"></trkpt>
      <trkpt lat="22.275253" lon="113.87104"></trkpt>
      <trkpt lat="22.275066" lon="113.869302"></trkpt>
      <trkpt lat="22.275065" lon="113.867739"></trkpt>
      <trkpt lat="22.275475" lon="113.864888"></trkpt>
      <trkpt lat="22.275942" lon="113.863324"></trkpt>
      <trkpt lat="22.279833" lon="113.853042"></trkpt>
      <trkpt lat="22.280802" lon="113.850163"></trkpt>
      <trkpt lat="22.281745" lon="113.846645"></trkpt>
      <trkpt lat="22.282365" lon="113.843849"></trkpt>
      <trkpt lat="22.28262" lon="113.8424"></trkpt>
      <trkpt lat="22.282701" lon="113.841116"></trkpt>
      <trkpt lat="22.283238" lon="113.780629"></trkpt>
      <trkpt lat="22.28313" lon="113.727229"></trkpt>
      <trkpt lat="22.282968" lon="113.722768"></trkpt>
      <trkpt lat="22.28264" lon="113.719556"></trkpt>
      <trkpt lat="22.282041" lon="113.715937"></trkpt>
      <trkpt lat="22.281127" lon="113.71205"></trkpt>
      <trkpt lat="22.27985" lon="113.708004"></trkpt>
      <trkpt lat="22.27885" lon="113.705397"></trkpt>
      <trkpt lat="22.277187" lon="113.701753"></trkpt>
      <trkpt lat="22.274902" lon="113.697675"></trkpt>
      <trkpt lat="22.273288" lon="113.695242"></trkpt>
      <trkpt lat="22.270545" lon="113.691587"></trkpt>
      <trkpt lat="22.264666" lon="113.68518"></trkpt>
      <trkpt lat="22.261876" lon="113.681685"></trkpt>
      <trkpt lat="22.258538" lon="113.676725"></trkpt>
      <trkpt lat="22.256021" lon="113.672147"></trkpt>
      <trkpt lat="22.253795" lon="113.66717"></trkpt>
      <trkpt lat="22.25191" lon="113.661823"></trkpt>
      <trkpt lat="22.247421" lon="113.644143"></trkpt>
      <trkpt lat="22.246155" lon="113.63982"></trkpt>
      <trkpt lat="22.244068" lon="113.634493"></trkpt>
      <trkpt lat="22.242202" lon="113.630764"></trkpt>
      <trkpt lat="22.240878" lon="113.628486"></trkpt>
      <trkpt lat="22.219854" lon="113.595319"></trkpt>
      <trkpt lat="22.213462" lon="113.585477"></trkpt>
      <trkpt lat="22.211791" lon="113.581901"></trkpt>
      <trkpt lat="22.211275" lon="113.581034"></trkpt>
      <trkpt lat="22.210622" lon="113.580398"></trkpt>
      <trkpt lat="22.209055" lon="113.579362"></trkpt>
      <trkpt lat="22.208945" lon="113.578535"></trkpt>
      <trkpt lat="22.209331" lon="113.577689"></trkpt>
      <trkpt lat="22.209334" lon="113.57278"></trkpt>
      <trkpt lat="22.20953" lon="113.571957"></trkpt>
      <trkpt lat="22.210204" lon="113.570599"></trkpt>
      <trkpt lat="22.210133" lon="113.570513"></trkpt>
      <trkpt lat="22.209097" lon="113.572504"></trkpt>
      <trkpt lat="22.208726" lon="113.57291"></trkpt>
      <trkpt lat="22.208202" lon="113.573046"></trkpt>
      <trkpt lat="22.20635" lon="113.573059"></trkpt>
      <trkpt lat="22.206038" lon="113.573177"></trkpt>
      <trkpt lat="22.205875" lon="113.573403"></trkpt>
      <trkpt lat="22.205892" lon="113.579358"></trkpt>
      <trkpt lat="22.206234" lon="113.579649"></trkpt>
      <trkpt lat="22.207456" lon="113.579657"></trkpt>
      <trkpt lat="22.208798" lon="113.579863"></trkpt>
      <trkpt lat="22.209159" lon="113.58002"></trkpt>
      <trkpt lat="22.212932" lon="113.58494"></trkpt>
      <trkpt lat="22.219728" lon="113.595419"></trkpt>
      <trkpt lat="22.239743" lon="113.626936"></trkpt>
      <trkpt lat="22.241969" lon="113.630611"></trkpt>
      <trkpt lat="22.24387" lon="113.634405"></trkpt>
      <trkpt lat="22.246014" lon="113.639829"></trkpt>
      <trkpt lat="22.246852" lon="113.642605"></trkpt>
      <trkpt lat="22.251806" lon="113.661903"></trkpt>
      <trkpt lat="22.253037" lon="113.665573"></trkpt>
      <trkpt lat="22.254904" lon="113.670112"></trkpt>
      <trkpt lat="22.256778" lon="113.673881"></trkpt>
      <trkpt lat="22.258031" lon="113.676123"></trkpt>
      <trkpt lat="22.261274" lon="113.681085"></trkpt>
      <trkpt lat="22.264424" lon="113.685083"></trkpt>
      <trkpt lat="22.270004" lon="113.691136"></trkpt>
      <trkpt lat="22.271344" lon="113.692789"></trkpt>
      <trkpt lat="22.273219" lon="113.695321"></trkpt>
      <trkpt lat="22.274838" lon="113.697821"></trkpt>
      <trkpt lat="22.276146" lon="113.700073"></trkpt>
      <trkpt lat="22.278367" lon="113.704577"></trkpt>
      <trkpt lat="22.279573" lon="113.707594"></trkpt>
      <trkpt lat="22.280988" lon="113.712034"></trkpt>
      <trkpt lat="22.281916" lon="113.715975"></trkpt>
      <trkpt lat="22.282419" lon="113.718902"></trkpt>
      <trkpt lat="22.282784" lon="113.721935"></trkpt>
      <trkpt lat="22.282991" lon="113.725607"></trkpt>
      <trkpt lat="22.283064" lon="113.780634"></trkpt>
      <trkpt lat="22.28259" lon="113.841133"></trkpt>
      <trkpt lat="22.282447" lon="113.842368"></trkpt>
      <trkpt lat="22.281779" lon="113.845801"></trkpt>
      <trkpt lat="22.280683" lon="113.85012"></trkpt>
      <trkpt lat="22.279756" lon="113.852903"></trkpt>
      <trkpt lat="22.275795" lon="113.863369"></trkpt>
      <trkpt lat="22.275384" lon="113.864756"></trkpt>
      <trkpt lat="22.275073" lon="113.866367"></trkpt>
      <trkpt lat="22.274928" lon="113.868179"></trkpt>
      <trkpt lat="22.274962" lon="113.869573"></trkpt>
      <trkpt lat="22.275191" lon="113.871385"></trkpt>
      <trkpt lat="22.275863" lon="113.873847"></trkpt>
      <trkpt lat="22.276997" lon="113.876266"></trkpt>
      <trkpt lat="22.291092" lon="113.897669"></trkpt>
      <trkpt lat="22.292206" lon="113.899736"></trkpt>
      <trkpt lat="22.292938" lon="113.901785"></trkpt>
      <trkpt lat="22.293286" lon="113.903343"></trkpt>
      <trkpt lat="22.293458" lon="113.904754"></trkpt>
      <trkpt lat="22.293593" lon="113.908942"></trkpt>
      <trkpt lat="22.293918" lon="113.910028"></trkpt>
      <trkpt lat="22.295071" lon="113.912623"></trkpt>
      <trkpt lat="22.295234" lon="113.913666"></trkpt>
      <trkpt lat="22.295249" lon="113.915568"></trkpt>
      <trkpt lat="22.295037" lon="113.917091"></trkpt>
      <trkpt lat="22.292124" lon="113.926866"></trkpt>
      <trkpt lat="22.291893" lon="113.927996"></trkpt>
      <trkpt lat="22.291814" lon="113.929548"></trkpt>
      <trkpt lat="22.291972" lon="113.931094"></trkpt>
      <trkpt lat="22.292234" lon="113.932198"></trkpt>
      <trkpt lat="22.292797" lon="113.933469"></trkpt>
      <trkpt lat="22.293793" lon="113.93492"></trkpt>
      <trkpt lat="22.295115" lon="113.936157"></trkpt>
      <trkpt lat="22.297408" lon="113.937397"></trkpt>
      <trkpt lat="22.299171" lon="113.937899"></trkpt>
      <trkpt lat="22.299985" lon="113.938274"></trkpt>
      <trkpt lat="22.301943" lon="113.940027"></trkpt>
      <trkpt lat="22.302901" lon="113.940534"></trkpt>
      <trkpt lat="22.303562" lon="113.940661"></trkpt>
      <trkpt lat="22.304469" lon="113.940579"></trkpt>
      <trkpt lat="22.306513" lon="113.939652"></trkpt>
      <trkpt lat="22.307687" lon="113.93937"></trkpt>
      <trkpt lat="22.309045" lon="113.939414"></trkpt>
      <trkpt lat="22.310112" lon="113.939771"></trkpt>
      <trkpt lat="22.311643" lon="113.94088"></trkpt>
      <trkpt lat="22.31238" lon="113.941795"></trkpt>
      <trkpt lat="22.312703" lon="113.942575"></trkpt>
      <trkpt lat="22.313449" lon="113.945968"></trkpt>
      <trkpt lat="22.313805" lon="113.946651"></trkpt>
      <trkpt lat="22.314407" lon="113.947343"></trkpt>
      <trkpt lat="22.315531" lon="113.948001"></trkpt>
      <trkpt lat="22.321337" lon="113.949881"></trkpt>
      <trkpt lat="22.321749" lon="113.950177"></trkpt>
      <trkpt lat="22.321926" lon="113.950466"></trkpt>
      <trkpt lat="22.321994" lon="113.951159"></trkpt>
      <trkpt lat="22.321586" lon="113.952184"></trkpt>
      <trkpt lat="22.320834" lon="113.954904"></trkpt>
      <trkpt lat="22.320601" lon="113.955321"></trkpt>
      <trkpt lat="22.320341" lon="113.955499"></trkpt>
      <trkpt lat="22.319766" lon="113.955434"></trkpt>
      <trkpt lat="22.31761" lon="113.954285"></trkpt>
      <trkpt lat="22.31595" lon="113.953739"></trkpt>
      <trkpt lat="22.314521" lon="113.953883"></trkpt>
      <trkpt lat="22.312996" lon="113.953618"></trkpt>
      <trkpt lat="22.31245" lon="113.953902"></trkpt>
      <trkpt lat="22.312256" lon="113.954287"></trkpt>
      <trkpt lat="22.312153" lon="113.954876"></trkpt>
      <trkpt lat="22.312233" lon="113.957213"></trkpt>
      <trkpt lat="22.312026" lon="113.958144"></trkpt>
      <trkpt lat="22.311465" lon="113.958916"></trkpt>
      <trkpt lat="22.309649" lon="113.960139"></trkpt>
      <trkpt lat="22.30846" lon="113.961698"></trkpt>
      <trkpt lat="22.303463" lon="113.970096"></trkpt>
      <trkpt lat="22.30297" lon="113.971106"></trkpt>
      <trkpt lat="22.302483" lon="113.97257"></trkpt>
      <trkpt lat="22.302043" lon="113.974897"></trkpt>
      <trkpt lat="22.302054" lon="113.975751"></trkpt>
      <trkpt lat="22.302267" lon="113.976333"></trkpt>
      <trkpt lat="22.303418" lon="113.978168"></trkpt>
      <trkpt lat="22.30679" lon="113.98432"></trkpt>
      <trkpt lat="22.311613" lon="113.992532"></trkpt>
      <trkpt lat="22.312369" lon="113.993654"></trkpt>
      <trkpt lat="22.313503" lon="113.995016"></trkpt>
      <trkpt lat="22.314617" lon="113.996071"></trkpt>
      <trkpt lat="22.317734" lon="113.998196"></trkpt>
      <trkpt lat="22.318776" lon="113.999098"></trkpt>
      <trkpt lat="22.320155" lon="114.000849"></trkpt>
      <trkpt lat="22.320858" lon="114.00221"></trkpt>
      <trkpt lat="22.3243" lon="114.009936"></trkpt>
      <trkpt lat="22.32492" lon="114.012014"></trkpt>
      <trkpt lat="22.325185" lon="114.014625"></trkpt>
      <trkpt lat="22.324983" lon="114.017932"></trkpt>
      <trkpt lat="22.325051" lon="114.019417"></trkpt>
      <trkpt lat="22.325289" lon="114.020794"></trkpt>
      <trkpt lat="22.325877" lon="114.022572"></trkpt>
      <trkpt lat="22.326604" lon="114.023905"></trkpt>
      <trkpt lat="22.327186" lon="114.024671"></trkpt>
      <trkpt lat="22.334839" lon="114.032782"></trkpt>
      <trkpt lat="22.336288" lon="114.035029"></trkpt>
      <trkpt lat="22.336765" lon="114.036361"></trkpt>
      <trkpt lat="22.337548" lon="114.039527"></trkpt>
      <trkpt lat="22.340491" lon="114.045526"></trkpt>
      <trkpt lat="22.34091" lon="114.047373"></trkpt>
      <trkpt lat="22.341252" lon="114.05013"></trkpt>
      <trkpt lat="22.341561" lon="114.051173"></trkpt>
      <trkpt lat="22.342284" lon="114.052452"></trkpt>
      <trkpt lat="22.34658" lon="114.059069"></trkpt>
      <trkpt lat="22.347636" lon="114.061339"></trkpt>
      <trkpt lat="22.353354" lon="114.081706"></trkpt>
      <trkpt lat="22.353739" lon="114.083433"></trkpt>
      <trkpt lat="22.353695" lon="114.084693"></trkpt>
      <trkpt lat="22.353232" lon="114.085843"></trkpt>
      <trkpt lat="22.352753" lon="114.086481"></trkpt>
      <trkpt lat="22.352064" lon="114.086824"></trkpt>
      <trkpt lat="22.348793" lon="114.087487"></trkpt>
      <trkpt lat="22.347613" lon="114.087999"></trkpt>
      <trkpt lat="22.347122" lon="114.088497"></trkpt>
      <trkpt lat="22.346596" lon="114.089152"></trkpt>
      <trkpt lat="22.345485" lon="114.091329"></trkpt>
      <trkpt lat="22.345083" lon="114.09262"></trkpt>
      <trkpt lat="22.344937" lon="114.093911"></trkpt>
      <trkpt lat="22.345018" lon="114.10107"></trkpt>
      <trkpt lat="22.345395" lon="114.10373"></trkpt>
      <trkpt lat="22.346027" lon="114.10568"></trkpt>
      <trkpt lat="22.347982" lon="114.109599"></trkpt>
      <trkpt lat="22.350166" lon="114.115266"></trkpt>
      <trkpt lat="22.350612" lon="114.116089"></trkpt>
      <trkpt lat="22.351776" lon="114.11775"></trkpt>
      <trkpt lat="22.352227" lon="114.118744"></trkpt>
      <trkpt lat="22.352493" lon="114.119966"></trkpt>
      <trkpt lat="22.352514" lon="114.12071"></trkpt>
      <trkpt lat="22.352365" lon="114.121784"></trkpt>
      <trkpt lat="22.351899" lon="114.122898"></trkpt>
      <trkpt lat="22.351219" lon="114.123728"></trkpt>
      <trkpt lat="22.350312" lon="114.1243"></trkpt>
      <trkpt lat="22.349147" lon="114.12455"></trkpt>
      <trkpt lat="22.347207" lon="114.124611"></trkpt>
      <trkpt lat="22.34562" lon="114.125228"></trkpt>
      <trkpt lat="22.345081" lon="114.125616"></trkpt>
      <trkpt lat="22.34433" lon="114.12648"></trkpt>
      <trkpt lat="22.34384" lon="114.127282"></trkpt>
      <trkpt lat="22.343104" lon="114.128895"></trkpt>
      <trkpt lat="22.342066" lon="114.130153"></trkpt>
      <trkpt lat="22.341172" lon="114.13079"></trkpt>
      <trkpt lat="22.338447" lon="114.13208"></trkpt>
      <trkpt lat="22.337396" lon="114.132702"></trkpt>
      <trkpt lat="22.336326" lon="114.133557"></trkpt>
      <trkpt lat="22.335602" lon="114.134343"></trkpt>
      <trkpt lat="22.334538" lon="114.135859"></trkpt>
      <trkpt lat="22.33382" lon="114.137376"></trkpt>
      <trkpt lat="22.330057" lon="114.14721"></trkpt>
      <trkpt lat="22.328797" lon="114.150038"></trkpt>
      <trkpt lat="22.327547" lon="114.152035"></trkpt>
      <trkpt lat="22.326281" lon="114.153732"></trkpt>
      <trkpt lat="22.324996" lon="114.15514"></trkpt>
      <trkpt lat="22.323363" lon="114.156627"></trkpt>
      <trkpt lat="22.320699" lon="114.158473"></trkpt>
      <trkpt lat="22.31818" lon="114.159712"></trkpt>
      <trkpt lat="22.312516" lon="114.162069"></trkpt>
      <trkpt lat="22.311661" lon="114.162521"></trkpt>
      <trkpt lat="22.310635" lon="114.163285"></trkpt>
      <trkpt lat="22.309651" lon="114.16352"></trkpt>
      <trkpt lat="22.308806" lon="114.163869"></trkpt>
      <trkpt lat="22.307929" lon="114.164023"></trkpt>
      <trkpt lat="22.303022" lon="114.163896"></trkpt>
      <trkpt lat="22.302683" lon="114.163907"></trkpt>
      <trkpt lat="22.302694" lon="114.164052"></trkpt>
  </trkseg></trk>
</gpx>
