<?xml version="1.0" encoding="UTF-8"?>
<gpx version="1.1" creator="yatutbuv" xmlns="http://www.topografix.com/GPX/1/1">
  <trk><name>GraphHopper Track</name><trkseg>
      <trkpt lat="41.670067" lon="44.964189"></trkpt>
      <trkpt lat="41.669492" lon="44.963454"></trkpt>
      <trkpt lat="41.668524" lon="44.964815"></trkpt>
      <trkpt lat="41.667948" lon="44.965842"></trkpt>
      <trkpt lat="41.667434" lon="44.966428"></trkpt>
      <trkpt lat="41.667352" lon="44.967041"></trkpt>
      <trkpt lat="41.667584" lon="44.96759"></trkpt>
      <trkpt lat="41.670339" lon="44.966391"></trkpt>
      <trkpt lat="41.672062" lon="44.964806"></trkpt>
      <trkpt lat="41.672828" lon="44.963694"></trkpt>
      <trkpt lat="41.673415" lon="44.963055"></trkpt>
      <trkpt lat="41.673513" lon="44.962669"></trkpt>
      <trkpt lat="41.674258" lon="44.962192"></trkpt>
      <trkpt lat="41.674303" lon="44.961802"></trkpt>
      <trkpt lat="41.678563" lon="44.959047"></trkpt>
      <trkpt lat="41.68473" lon="44.953708"></trkpt>
      <trkpt lat="41.68548" lon="44.95338"></trkpt>
      <trkpt lat="41.689791" lon="44.952984"></trkpt>
      <trkpt lat="41.692588" lon="44.953443"></trkpt>
      <trkpt lat="41.692937" lon="44.953342"></trkpt>
      <trkpt lat="41.6932" lon="44.953005"></trkpt>
      <trkpt lat="41.693228" lon="44.952498"></trkpt>
      <trkpt lat="41.692879" lon="44.950938"></trkpt>
      <trkpt lat="41.69246" lon="44.947794"></trkpt>
      <trkpt lat="41.69215" lon="44.946687"></trkpt>
      <trkpt lat="41.688429" lon="44.925885"></trkpt>
      <trkpt lat="41.688269" lon="44.923523"></trkpt>
      <trkpt lat="41.688289" lon="44.921123"></trkpt>
      <trkpt lat="41.689109" lon="44.912227"></trkpt>
      <trkpt lat="41.689086" lon="44.907984"></trkpt>
      <trkpt lat="41.687998" lon="44.90042"></trkpt>
      <trkpt lat="41.687401" lon="44.894882"></trkpt>
      <trkpt lat="41.6869" lon="44.893265"></trkpt>
      <trkpt lat="41.685179" lon="44.88946"></trkpt>
      <trkpt lat="41.684434" lon="44.886535"></trkpt>
      <trkpt lat="41.684258" lon="44.884788"></trkpt>
      <trkpt lat="41.684191" lon="44.882362"></trkpt>
      <trkpt lat="41.684126" lon="44.872118"></trkpt>
      <trkpt lat="41.684378" lon="44.869795"></trkpt>
      <trkpt lat="41.687799" lon="44.851399"></trkpt>
      <trkpt lat="41.688211" lon="44.846513"></trkpt>
      <trkpt lat="41.688723" lon="44.844873"></trkpt>
      <trkpt lat="41.690262" lon="44.841324"></trkpt>
      <trkpt lat="41.691934" lon="44.832475"></trkpt>
      <trkpt lat="41.691896" lon="44.832278"></trkpt>
      <trkpt lat="41.691758" lon="44.832262"></trkpt>
      <trkpt lat="41.691415" lon="44.833962"></trkpt>
      <trkpt lat="41.69103" lon="44.833978"></trkpt>
      <trkpt lat="41.691754" lon="44.829464"></trkpt>
      <trkpt lat="41.692399" lon="44.826731"></trkpt>
      <trkpt lat="41.6929" lon="44.8252"></trkpt>
      <trkpt lat="41.692854" lon="44.824835"></trkpt>
      <trkpt lat="41.692283" lon="44.824739"></trkpt>
      <trkpt lat="41.691983" lon="44.820423"></trkpt>
      <trkpt lat="41.691998" lon="44.820043"></trkpt>
      <trkpt lat="41.692964" lon="44.819615"></trkpt>
      <trkpt lat="41.69304" lon="44.819473"></trkpt>
      <trkpt lat="41.692746" lon="44.817377"></trkpt>
      <trkpt lat="41.692274" lon="44.816475"></trkpt>
      <trkpt lat="41.691941" lon="44.815028"></trkpt>
      <trkpt lat="41.692483" lon="44.812526"></trkpt>
      <trkpt lat="41.692727" lon="44.812059"></trkpt>
      <trkpt lat="41.693419" lon="44.811396"></trkpt>
      <trkpt lat="41.6952" lon="44.810523"></trkpt>
      <trkpt lat="41.695875" lon="44.809943"></trkpt>
      <trkpt lat="41.696881" lon="44.809642"></trkpt>
      <trkpt lat="41.696984" lon="44.809137"></trkpt>
      <trkpt lat="41.696891" lon="44.807252"></trkpt>
      <trkpt lat="41.69699" lon="44.80716"></trkpt>
      <trkpt lat="41.697136" lon="44.807216"></trkpt>
      <trkpt lat="41.69746" lon="44.807696"></trkpt>
      <trkpt lat="41.697659" lon="44.807712"></trkpt>
      <trkpt lat="41.697787" lon="44.807601"></trkpt>
      <trkpt lat="41.70148" lon="44.800689"></trkpt>
      <trkpt lat="41.702325" lon="44.799862"></trkpt>
      <trkpt lat="41.702759" lon="44.799229"></trkpt>
      <trkpt lat="41.703424" lon="44.796868"></trkpt>
      <trkpt lat="41.704509" lon="44.794576"></trkpt>
      <trkpt lat="41.705118" lon="44.793917"></trkpt>
      <trkpt lat="41.707829" lon="44.791846"></trkpt>
      <trkpt lat="41.709255" lon="44.790104"></trkpt>
      <trkpt lat="41.70975" lon="44.789689"></trkpt>
      <trkpt lat="41.711754" lon="44.788702"></trkpt>
      <trkpt lat="41.713575" lon="44.788429"></trkpt>
      <trkpt lat="41.715047" lon="44.787836"></trkpt>
      <trkpt lat="41.722464" lon="44.782734"></trkpt>
      <trkpt lat="41.725566" lon="44.781163"></trkpt>
      <trkpt lat="41.726157" lon="44.780684"></trkpt>
      <trkpt lat="41.727369" lon="44.779397"></trkpt>
      <trkpt lat="41.729208" lon="44.776599"></trkpt>
      <trkpt lat="41.729903" lon="44.775769"></trkpt>
      <trkpt lat="41.730433" lon="44.775217"></trkpt>
      <trkpt lat="41.731762" lon="44.774213"></trkpt>
      <trkpt lat="41.735979" lon="44.771987"></trkpt>
      <trkpt lat="41.739199" lon="44.770901"></trkpt>
      <trkpt lat="41.741013" lon="44.769885"></trkpt>
      <trkpt lat="41.742452" lon="44.769447"></trkpt>
      <trkpt lat="41.744362" lon="44.769358"></trkpt>
      <trkpt lat="41.747509" lon="44.770334"></trkpt>
      <trkpt lat="41.749271" lon="44.770463"></trkpt>
      <trkpt lat="41.756526" lon="44.768876"></trkpt>
      <trkpt lat="41.758936" lon="44.768566"></trkpt>
      <trkpt lat="41.760266" lon="44.768515"></trkpt>
      <trkpt lat="41.761982" lon="44.768792"></trkpt>
      <trkpt lat="41.76305" lon="44.768722"></trkpt>
      <trkpt lat="41.765316" lon="44.768908"></trkpt>
      <trkpt lat="41.766684" lon="44.769233"></trkpt>
      <trkpt lat="41.778267" lon="44.769004"></trkpt>
      <trkpt lat="41.783548" lon="44.769818"></trkpt>
      <trkpt lat="41.800544" lon="44.771059"></trkpt>
      <trkpt lat="41.811264" lon="44.772119"></trkpt>
      <trkpt lat="41.814305" lon="44.772113"></trkpt>
      <trkpt lat="41.817818" lon="44.771452"></trkpt>
      <trkpt lat="41.819347" lon="44.771538"></trkpt>
      <trkpt lat="41.821201" lon="44.77181"></trkpt>
      <trkpt lat="41.822001" lon="44.771594"></trkpt>
      <trkpt lat="41.823224" lon="44.770473"></trkpt>
      <trkpt lat="41.823711" lon="44.769678"></trkpt>
      <trkpt lat="41.82393" lon="44.768896"></trkpt>
      <trkpt lat="41.823983" lon="44.768232"></trkpt>
      <trkpt lat="41.823803" lon="44.766302"></trkpt>
      <trkpt lat="41.823463" lon="44.764655"></trkpt>
      <trkpt lat="41.822812" lon="44.763172"></trkpt>
      <trkpt lat="41.821263" lon="44.760581"></trkpt>
      <trkpt lat="41.819726" lon="44.758613"></trkpt>
      <trkpt lat="41.819325" lon="44.757809"></trkpt>
      <trkpt lat="41.818648" lon="44.754058"></trkpt>
      <trkpt lat="41.818122" lon="44.749353"></trkpt>
      <trkpt lat="41.818163" lon="44.747659"></trkpt>
      <trkpt lat="41.818699" lon="44.745104"></trkpt>
      <trkpt lat="41.820157" lon="44.741198"></trkpt>
      <trkpt lat="41.82194" lon="44.737327"></trkpt>
      <trkpt lat="41.82258" lon="44.736522"></trkpt>
      <trkpt lat="41.823493" lon="44.736061"></trkpt>
      <trkpt lat="41.827614" lon="44.73586"></trkpt>
      <trkpt lat="41.82873" lon="44.735511"></trkpt>
      <trkpt lat="41.829454" lon="44.734997"></trkpt>
      <trkpt lat="41.834095" lon="44.730726"></trkpt>
      <trkpt lat="41.835355" lon="44.730024"></trkpt>
      <trkpt lat="41.836551" lon="44.729735"></trkpt>
      <trkpt lat="41.839342" lon="44.730036"></trkpt>
      <trkpt lat="41.842912" lon="44.730713"></trkpt>
      <trkpt lat="41.846398" lon="44.731649"></trkpt>
      <trkpt lat="41.848585" lon="44.731907"></trkpt>
      <trkpt lat="41.864778" lon="44.731192"></trkpt>
      <trkpt lat="41.867161" lon="44.730847"></trkpt>
      <trkpt lat="41.868728" lon="44.730225"></trkpt>
      <trkpt lat="41.871007" lon="44.728718"></trkpt>
      <trkpt lat="41.877944" lon="44.722981"></trkpt>
      <trkpt lat="41.880862" lon="44.720388"></trkpt>
      <trkpt lat="41.882173" lon="44.719384"></trkpt>
      <trkpt lat="41.885965" lon="44.716984"></trkpt>
      <trkpt lat="41.887029" lon="44.716657"></trkpt>
      <trkpt lat="41.887998" lon="44.716723"></trkpt>
      <trkpt lat="41.889402" lon="44.71714"></trkpt>
      <trkpt lat="41.890734" lon="44.717356"></trkpt>
      <trkpt lat="41.918378" lon="44.727463"></trkpt>
      <trkpt lat="41.946638" lon="44.74039"></trkpt>
      <trkpt lat="41.949895" lon="44.741753"></trkpt>
      <trkpt lat="41.963519" lon="44.746018"></trkpt>
      <trkpt lat="41.992581" lon="44.751559"></trkpt>
      <trkpt lat="41.998246" lon="44.752108"></trkpt>
      <trkpt lat="42.007972" lon="44.752754"></trkpt>
      <trkpt lat="42.010108" lon="44.751943"></trkpt>
      <trkpt lat="42.014376" lon="44.750043"></trkpt>
      <trkpt lat="42.016183" lon="44.748747"></trkpt>
      <trkpt lat="42.017257" lon="44.748432"></trkpt>
      <trkpt lat="42.022382" lon="44.74758"></trkpt>
      <trkpt lat="42.023593" lon="44.747193"></trkpt>
      <trkpt lat="42.026403" lon="44.747086"></trkpt>
      <trkpt lat="42.034321" lon="44.745855"></trkpt>
      <trkpt lat="42.036919" lon="44.745944"></trkpt>
      <trkpt lat="42.039313" lon="44.745687"></trkpt>
      <trkpt lat="42.050837" lon="44.744903"></trkpt>
      <trkpt lat="42.056829" lon="44.744283"></trkpt>
      <trkpt lat="42.059274" lon="44.744491"></trkpt>
      <trkpt lat="42.060648" lon="44.744908"></trkpt>
      <trkpt lat="42.070089" lon="44.749026"></trkpt>
      <trkpt lat="42.075441" lon="44.751201"></trkpt>
      <trkpt lat="42.076095" lon="44.75135"></trkpt>
      <trkpt lat="42.077157" lon="44.751209"></trkpt>
      <trkpt lat="42.077634" lon="44.751281"></trkpt>
      <trkpt lat="42.083659" lon="44.754589"></trkpt>
      <trkpt lat="42.098187" lon="44.763718"></trkpt>
      <trkpt lat="42.099069" lon="44.764476"></trkpt>
      <trkpt lat="42.104239" lon="44.770422"></trkpt>
      <trkpt lat="42.105138" lon="44.77127"></trkpt>
      <trkpt lat="42.108324" lon="44.773089"></trkpt>
      <trkpt lat="42.112908" lon="44.775463"></trkpt>
      <trkpt lat="42.114041" lon="44.77591"></trkpt>
      <trkpt lat="42.11544" lon="44.776098"></trkpt>
      <trkpt lat="42.115904" lon="44.776026"></trkpt>
      <trkpt lat="42.117665" lon="44.77536"></trkpt>
      <trkpt lat="42.118494" lon="44.775279"></trkpt>
      <trkpt lat="42.119439" lon="44.775445"></trkpt>
      <trkpt lat="42.121232" lon="44.77618"></trkpt>
      <trkpt lat="42.122122" lon="44.776279"></trkpt>
      <trkpt lat="42.12541" lon="44.77577"></trkpt>
      <trkpt lat="42.127376" lon="44.774263"></trkpt>
      <trkpt lat="42.128869" lon="44.773899"></trkpt>
      <trkpt lat="42.129099" lon="44.773702"></trkpt>
      <trkpt lat="42.129785" lon="44.772078"></trkpt>
      <trkpt lat="42.130164" lon="44.771559"></trkpt>
      <trkpt lat="42.130559" lon="44.771245"></trkpt>
      <trkpt lat="42.131733" lon="44.770763"></trkpt>
      <trkpt lat="42.133345" lon="44.769634"></trkpt>
      <trkpt lat="42.135865" lon="44.769885"></trkpt>
      <trkpt lat="42.136511" lon="44.769805"></trkpt>
      <trkpt lat="42.137361" lon="44.76955"></trkpt>
      <trkpt lat="42.13831" lon="44.768872"></trkpt>
      <trkpt lat="42.140157" lon="44.7682"></trkpt>
      <trkpt lat="42.140826" lon="44.768288"></trkpt>
      <trkpt lat="42.141796" lon="44.769091"></trkpt>
      <trkpt lat="42.142337" lon="44.768962"></trkpt>
      <trkpt lat="42.14332" lon="44.767892"></trkpt>
      <trkpt lat="42.146172" lon="44.763278"></trkpt>
      <trkpt lat="42.146882" lon="44.762792"></trkpt>
      <trkpt lat="42.148313" lon="44.762561"></trkpt>
      <trkpt lat="42.148948" lon="44.76196"></trkpt>
      <trkpt lat="42.149913" lon="44.75997"></trkpt>
      <trkpt lat="42.151999" lon="44.756303"></trkpt>
      <trkpt lat="42.15251" lon="44.753804"></trkpt>
      <trkpt lat="42.152423" lon="44.753387"></trkpt>
      <trkpt lat="42.151942" lon="44.752555"></trkpt>
      <trkpt lat="42.151801" lon="44.751982"></trkpt>
      <trkpt lat="42.15209" lon="44.750236"></trkpt>
      <trkpt lat="42.15244" lon="44.749139"></trkpt>
      <trkpt lat="42.152465" lon="44.748652"></trkpt>
      <trkpt lat="42.151884" lon="44.74709"></trkpt>
      <trkpt lat="42.150624" lon="44.744637"></trkpt>
      <trkpt lat="42.147242" lon="44.740996"></trkpt>
      <trkpt lat="42.14709" lon="44.740619"></trkpt>
      <trkpt lat="42.147086" lon="44.740112"></trkpt>
      <trkpt lat="42.14736" lon="44.739301"></trkpt>
      <trkpt lat="42.147711" lon="44.738951"></trkpt>
      <trkpt lat="42.150522" lon="44.738567"></trkpt>
      <trkpt lat="42.150879" lon="44.738424"></trkpt>
      <trkpt lat="42.15115" lon="44.738092"></trkpt>
      <trkpt lat="42.15129" lon="44.737281"></trkpt>
      <trkpt lat="42.151039" lon="44.735442"></trkpt>
      <trkpt lat="42.151111" lon="44.734044"></trkpt>
      <trkpt lat="42.15133" lon="44.733623"></trkpt>
      <trkpt lat="42.151569" lon="44.733413"></trkpt>
      <trkpt lat="42.15264" lon="44.732945"></trkpt>
      <trkpt lat="42.153032" lon="44.732586"></trkpt>
      <trkpt lat="42.153282" lon="44.731987"></trkpt>
      <trkpt lat="42.15383" lon="44.729774"></trkpt>
      <trkpt lat="42.153935" lon="44.728264"></trkpt>
      <trkpt lat="42.153541" lon="44.726034"></trkpt>
      <trkpt lat="42.153441" lon="44.724653"></trkpt>
      <trkpt lat="42.153585" lon="44.723384"></trkpt>
      <trkpt lat="42.153812" lon="44.722663"></trkpt>
      <trkpt lat="42.155209" lon="44.719213"></trkpt>
      <trkpt lat="42.155398" lon="44.718988"></trkpt>
      <trkpt lat="42.157914" lon="44.717264"></trkpt>
      <trkpt lat="42.158389" lon="44.716494"></trkpt>
      <trkpt lat="42.158493" lon="44.71575"></trkpt>
      <trkpt lat="42.158414" lon="44.714983"></trkpt>
      <trkpt lat="42.157589" lon="44.71272"></trkpt>
      <trkpt lat="42.157393" lon="44.71146"></trkpt>
      <trkpt lat="42.158242" lon="44.70574"></trkpt>
      <trkpt lat="42.158564" lon="44.704838"></trkpt>
      <trkpt lat="42.159921" lon="44.703112"></trkpt>
      <trkpt lat="42.160621" lon="44.702552"></trkpt>
      <trkpt lat="42.163813" lon="44.701696"></trkpt>
      <trkpt lat="42.164232" lon="44.701259"></trkpt>
      <trkpt lat="42.165774" lon="44.699101"></trkpt>
      <trkpt lat="42.167823" lon="44.697166"></trkpt>
      <trkpt lat="42.169353" lon="44.695295"></trkpt>
      <trkpt lat="42.169647" lon="44.69507"></trkpt>
      <trkpt lat="42.171629" lon="44.694371"></trkpt>
      <trkpt lat="42.17217" lon="44.693923"></trkpt>
      <trkpt lat="42.17268" lon="44.693179"></trkpt>
      <trkpt lat="42.173389" lon="44.691674"></trkpt>
      <trkpt lat="42.17546" lon="44.689917"></trkpt>
      <trkpt lat="42.178423" lon="44.685758"></trkpt>
      <trkpt lat="42.179358" lon="44.684822"></trkpt>
      <trkpt lat="42.18151" lon="44.681539"></trkpt>
      <trkpt lat="42.183314" lon="44.680193"></trkpt>
      <trkpt lat="42.184152" lon="44.679262"></trkpt>
      <trkpt lat="42.184582" lon="44.678982"></trkpt>
      <trkpt lat="42.186718" lon="44.67837"></trkpt>
      <trkpt lat="42.194118" lon="44.675482"></trkpt>
      <trkpt lat="42.196783" lon="44.675505"></trkpt>
      <trkpt lat="42.198776" lon="44.675798"></trkpt>
      <trkpt lat="42.201479" lon="44.674596"></trkpt>
      <trkpt lat="42.203915" lon="44.673856"></trkpt>
      <trkpt lat="42.206923" lon="44.674678"></trkpt>
      <trkpt lat="42.207457" lon="44.674727"></trkpt>
      <trkpt lat="42.21031" lon="44.673888"></trkpt>
      <trkpt lat="42.214304" lon="44.673002"></trkpt>
      <trkpt lat="42.217493" lon="44.673143"></trkpt>
      <trkpt lat="42.219638" lon="44.672821"></trkpt>
      <trkpt lat="42.222477" lon="44.673691"></trkpt>
      <trkpt lat="42.222834" lon="44.673574"></trkpt>
      <trkpt lat="42.223559" lon="44.673089"></trkpt>
      <trkpt lat="42.224666" lon="44.672822"></trkpt>
      <trkpt lat="42.22556" lon="44.672862"></trkpt>
      <trkpt lat="42.227587" lon="44.673436"></trkpt>
      <trkpt lat="42.228638" lon="44.673068"></trkpt>
      <trkpt lat="42.22974" lon="44.67245"></trkpt>
      <trkpt lat="42.232401" lon="44.672211"></trkpt>
      <trkpt lat="42.233751" lon="44.67221"></trkpt>
      <trkpt lat="42.235367" lon="44.672587"></trkpt>
      <trkpt lat="42.236445" lon="44.672629"></trkpt>
      <trkpt lat="42.23772" lon="44.67287"></trkpt>
      <trkpt lat="42.240067" lon="44.672556"></trkpt>
      <trkpt lat="42.242934" lon="44.672339"></trkpt>
      <trkpt lat="42.243694" lon="44.672796"></trkpt>
      <trkpt lat="42.246921" lon="44.675766"></trkpt>
      <trkpt lat="42.247376" lon="44.676044"></trkpt>
      <trkpt lat="42.249136" lon="44.675703"></trkpt>
      <trkpt lat="42.250344" lon="44.675636"></trkpt>
      <trkpt lat="42.25075" lon="44.675909"></trkpt>
      <trkpt lat="42.251585" lon="44.676766"></trkpt>
      <trkpt lat="42.251855" lon="44.676916"></trkpt>
      <trkpt lat="42.252826" lon="44.677085"></trkpt>
      <trkpt lat="42.254761" lon="44.676801"></trkpt>
      <trkpt lat="42.255932" lon="44.67707"></trkpt>
      <trkpt lat="42.257277" lon="44.676823"></trkpt>
      <trkpt lat="42.259235" lon="44.676786"></trkpt>
      <trkpt lat="42.260413" lon="44.676927"></trkpt>
      <trkpt lat="42.261833" lon="44.677685"></trkpt>
      <trkpt lat="42.262367" lon="44.677711"></trkpt>
      <trkpt lat="42.265691" lon="44.675869"></trkpt>
      <trkpt lat="42.267305" lon="44.675691"></trkpt>
      <trkpt lat="42.267777" lon="44.675739"></trkpt>
      <trkpt lat="42.26833" lon="44.676106"></trkpt>
      <trkpt lat="42.269191" lon="44.67695"></trkpt>
      <trkpt lat="42.270584" lon="44.677666"></trkpt>
      <trkpt lat="42.272117" lon="44.678906"></trkpt>
      <trkpt lat="42.274169" lon="44.680707"></trkpt>
      <trkpt lat="42.27525" lon="44.682176"></trkpt>
      <trkpt lat="42.275709" lon="44.682578"></trkpt>
      <trkpt lat="42.276214" lon="44.682637"></trkpt>
      <trkpt lat="42.277636" lon="44.682348"></trkpt>
      <trkpt lat="42.280351" lon="44.68336"></trkpt>
      <trkpt lat="42.281153" lon="44.683953"></trkpt>
      <trkpt lat="42.282327" lon="44.685749"></trkpt>
      <trkpt lat="42.282673" lon="44.686045"></trkpt>
      <trkpt lat="42.282914" lon="44.686144"></trkpt>
      <trkpt lat="42.284596" lon="44.686245"></trkpt>
      <trkpt lat="42.285059" lon="44.686408"></trkpt>
      <trkpt lat="42.286611" lon="44.687768"></trkpt>
      <trkpt lat="42.288123" lon="44.687312"></trkpt>
      <trkpt lat="42.291212" lon="44.687296"></trkpt>
      <trkpt lat="42.292963" lon="44.688011"></trkpt>
      <trkpt lat="42.294887" lon="44.688994"></trkpt>
      <trkpt lat="42.295408" lon="44.689057"></trkpt>
      <trkpt lat="42.296613" lon="44.688642"></trkpt>
      <trkpt lat="42.296968" lon="44.68862"></trkpt>
      <trkpt lat="42.299633" lon="44.689845"></trkpt>
      <trkpt lat="42.301462" lon="44.689653"></trkpt>
      <trkpt lat="42.302645" lon="44.689362"></trkpt>
      <trkpt lat="42.304129" lon="44.688125"></trkpt>
      <trkpt lat="42.304516" lon="44.687981"></trkpt>
      <trkpt lat="42.308966" lon="44.687735"></trkpt>
      <trkpt lat="42.309691" lon="44.687887"></trkpt>
      <trkpt lat="42.314462" lon="44.690191"></trkpt>
      <trkpt lat="42.315268" lon="44.690225"></trkpt>
      <trkpt lat="42.316088" lon="44.689379"></trkpt>
      <trkpt lat="42.316689" lon="44.689062"></trkpt>
      <trkpt lat="42.317753" lon="44.688014"></trkpt>
      <trkpt lat="42.319408" lon="44.68687"></trkpt>
      <trkpt lat="42.320866" lon="44.686245"></trkpt>
      <trkpt lat="42.321149" lon="44.685926"></trkpt>
      <trkpt lat="42.322542" lon="44.682792"></trkpt>
      <trkpt lat="42.32407" lon="44.682133"></trkpt>
      <trkpt lat="42.325139" lon="44.681118"></trkpt>
      <trkpt lat="42.327632" lon="44.680989"></trkpt>
      <trkpt lat="42.328426" lon="44.681066"></trkpt>
      <trkpt lat="42.329598" lon="44.681882"></trkpt>
      <trkpt lat="42.331049" lon="44.682603"></trkpt>
      <trkpt lat="42.331368" lon="44.682878"></trkpt>
      <trkpt lat="42.332877" lon="44.684707"></trkpt>
      <trkpt lat="42.333983" lon="44.685778"></trkpt>
      <trkpt lat="42.334767" lon="44.687242"></trkpt>
      <trkpt lat="42.335219" lon="44.687423"></trkpt>
      <trkpt lat="42.336587" lon="44.687398"></trkpt>
      <trkpt lat="42.337391" lon="44.687707"></trkpt>
      <trkpt lat="42.337863" lon="44.688334"></trkpt>
      <trkpt lat="42.338715" lon="44.69014"></trkpt>
      <trkpt lat="42.340668" lon="44.691938"></trkpt>
      <trkpt lat="42.341038" lon="44.692433"></trkpt>
      <trkpt lat="42.341578" lon="44.693529"></trkpt>
      <trkpt lat="42.342815" lon="44.694595"></trkpt>
      <trkpt lat="42.343187" lon="44.694859"></trkpt>
      <trkpt lat="42.343493" lon="44.694921"></trkpt>
      <trkpt lat="42.344734" lon="44.694377"></trkpt>
      <trkpt lat="42.345717" lon="44.694099"></trkpt>
      <trkpt lat="42.346391" lon="44.693731"></trkpt>
      <trkpt lat="42.349402" lon="44.691455"></trkpt>
      <trkpt lat="42.350584" lon="44.690511"></trkpt>
      <trkpt lat="42.351907" lon="44.68912"></trkpt>
      <trkpt lat="42.35332" lon="44.687857"></trkpt>
      <trkpt lat="42.354212" lon="44.686625"></trkpt>
      <trkpt lat="42.355812" lon="44.685421"></trkpt>
      <trkpt lat="42.357849" lon="44.685037"></trkpt>
      <trkpt lat="42.359836" lon="44.684505"></trkpt>
      <trkpt lat="42.36248" lon="44.684191"></trkpt>
      <trkpt lat="42.362664" lon="44.684041"></trkpt>
      <trkpt lat="42.363101" lon="44.683027"></trkpt>
      <trkpt lat="42.363667" lon="44.682118"></trkpt>
      <trkpt lat="42.364669" lon="44.681251"></trkpt>
      <trkpt lat="42.365524" lon="44.681196"></trkpt>
      <trkpt lat="42.366135" lon="44.681596"></trkpt>
      <trkpt lat="42.36685" lon="44.682442"></trkpt>
      <trkpt lat="42.367055" lon="44.682543"></trkpt>
      <trkpt lat="42.369239" lon="44.682538"></trkpt>
      <trkpt lat="42.3696" lon="44.682345"></trkpt>
      <trkpt lat="42.370255" lon="44.681501"></trkpt>
      <trkpt lat="42.371693" lon="44.680798"></trkpt>
      <trkpt lat="42.376096" lon="44.678318"></trkpt>
      <trkpt lat="42.376611" lon="44.678149"></trkpt>
      <trkpt lat="42.377268" lon="44.67707"></trkpt>
      <trkpt lat="42.378269" lon="44.676213"></trkpt>
      <trkpt lat="42.378951" lon="44.675349"></trkpt>
      <trkpt lat="42.379765" lon="44.674935"></trkpt>
      <trkpt lat="42.38049" lon="44.673892"></trkpt>
      <trkpt lat="42.381055" lon="44.673642"></trkpt>
      <trkpt lat="42.382428" lon="44.673313"></trkpt>
      <trkpt lat="42.383304" lon="44.672702"></trkpt>
      <trkpt lat="42.383645" lon="44.672283"></trkpt>
      <trkpt lat="42.385304" lon="44.669258"></trkpt>
      <trkpt lat="42.385677" lon="44.668927"></trkpt>
      <trkpt lat="42.386518" lon="44.668548"></trkpt>
      <trkpt lat="42.387044" lon="44.668147"></trkpt>
      <trkpt lat="42.388332" lon="44.666129"></trkpt>
      <trkpt lat="42.390212" lon="44.663971"></trkpt>
      <trkpt lat="42.391131" lon="44.663089"></trkpt>
      <trkpt lat="42.391731" lon="44.661857"></trkpt>
      <trkpt lat="42.391861" lon="44.660492"></trkpt>
      <trkpt lat="42.392064" lon="44.659792"></trkpt>
      <trkpt lat="42.393114" lon="44.65856"></trkpt>
      <trkpt lat="42.393673" lon="44.657183"></trkpt>
      <trkpt lat="42.395301" lon="44.654478"></trkpt>
      <trkpt lat="42.39732" lon="44.652574"></trkpt>
      <trkpt lat="42.398295" lon="44.650129"></trkpt>
      <trkpt lat="42.39883" lon="44.649093"></trkpt>
      <trkpt lat="42.400152" lon="44.647176"></trkpt>
      <trkpt lat="42.402423" lon="44.644326"></trkpt>
      <trkpt lat="42.404827" lon="44.642027"></trkpt>
      <trkpt lat="42.405455" lon="44.641271"></trkpt>
      <trkpt lat="42.406069" lon="44.639799"></trkpt>
      <trkpt lat="42.4064" lon="44.638537"></trkpt>
      <trkpt lat="42.406428" lon="44.637944"></trkpt>
      <trkpt lat="42.406215" lon="44.635981"></trkpt>
      <trkpt lat="42.406276" lon="44.635172"></trkpt>
      <trkpt lat="42.40648" lon="44.634456"></trkpt>
      <trkpt lat="42.411507" lon="44.625578"></trkpt>
      <trkpt lat="42.412088" lon="44.624139"></trkpt>
      <trkpt lat="42.412544" lon="44.622071"></trkpt>
      <trkpt lat="42.412716" lon="44.620754"></trkpt>
      <trkpt lat="42.412566" lon="44.619169"></trkpt>
      <trkpt lat="42.412272" lon="44.617712"></trkpt>
      <trkpt lat="42.412316" lon="44.617151"></trkpt>
      <trkpt lat="42.413507" lon="44.615384"></trkpt>
      <trkpt lat="42.414867" lon="44.614153"></trkpt>
      <trkpt lat="42.415212" lon="44.613703"></trkpt>
      <trkpt lat="42.415613" lon="44.612842"></trkpt>
      <trkpt lat="42.415829" lon="44.611942"></trkpt>
      <trkpt lat="42.41594" lon="44.609521"></trkpt>
      <trkpt lat="42.415667" lon="44.60499"></trkpt>
      <trkpt lat="42.415949" lon="44.602042"></trkpt>
      <trkpt lat="42.415895" lon="44.599219"></trkpt>
      <trkpt lat="42.416456" lon="44.595115"></trkpt>
      <trkpt lat="42.417052" lon="44.592086"></trkpt>
      <trkpt lat="42.417643" lon="44.590276"></trkpt>
      <trkpt lat="42.41909" lon="44.587428"></trkpt>
      <trkpt lat="42.420412" lon="44.585336"></trkpt>
      <trkpt lat="42.421075" lon="44.583344"></trkpt>
      <trkpt lat="42.420934" lon="44.58131"></trkpt>
      <trkpt lat="42.42033" lon="44.579011"></trkpt>
      <trkpt lat="42.420352" lon="44.5779"></trkpt>
      <trkpt lat="42.420532" lon="44.576806"></trkpt>
      <trkpt lat="42.421408" lon="44.574865"></trkpt>
      <trkpt lat="42.422378" lon="44.573595"></trkpt>
      <trkpt lat="42.423648" lon="44.571167"></trkpt>
      <trkpt lat="42.425025" lon="44.567618"></trkpt>
      <trkpt lat="42.425652" lon="44.565491"></trkpt>
      <trkpt lat="42.426901" lon="44.56207"></trkpt>
      <trkpt lat="42.42723" lon="44.551351"></trkpt>
      <trkpt lat="42.426936" lon="44.550091"></trkpt>
      <trkpt lat="42.424838" lon="44.547172"></trkpt>
      <trkpt lat="42.424249" lon="44.54615"></trkpt>
      <trkpt lat="42.424154" lon="44.545608"></trkpt>
      <trkpt lat="42.424426" lon="44.544284"></trkpt>
      <trkpt lat="42.423903" lon="44.541078"></trkpt>
      <trkpt lat="42.424101" lon="44.540316"></trkpt>
      <trkpt lat="42.424333" lon="44.53832"></trkpt>
      <trkpt lat="42.424318" lon="44.53663"></trkpt>
      <trkpt lat="42.424724" lon="44.535384"></trkpt>
      <trkpt lat="42.425189" lon="44.534415"></trkpt>
      <trkpt lat="42.425683" lon="44.532636"></trkpt>
      <trkpt lat="42.425898" lon="44.531249"></trkpt>
      <trkpt lat="42.425642" lon="44.530321"></trkpt>
      <trkpt lat="42.425985" lon="44.529169"></trkpt>
      <trkpt lat="42.426368" lon="44.526946"></trkpt>
      <trkpt lat="42.426281" lon="44.524604"></trkpt>
      <trkpt lat="42.426102" lon="44.523645"></trkpt>
      <trkpt lat="42.4261" lon="44.522207"></trkpt>
      <trkpt lat="42.425736" lon="44.520064"></trkpt>
      <trkpt lat="42.425908" lon="44.519681"></trkpt>
      <trkpt lat="42.426641" lon="44.519051"></trkpt>
      <trkpt lat="42.426922" lon="44.518327"></trkpt>
      <trkpt lat="42.427136" lon="44.517581"></trkpt>
      <trkpt lat="42.427299" lon="44.516315"></trkpt>
      <trkpt lat="42.42721" lon="44.51437"></trkpt>
      <trkpt lat="42.428148" lon="44.513025"></trkpt>
      <trkpt lat="42.428911" lon="44.510303"></trkpt>
      <trkpt lat="42.42988" lon="44.509174"></trkpt>
      <trkpt lat="42.43148" lon="44.508036"></trkpt>
      <trkpt lat="42.431756" lon="44.507569"></trkpt>
      <trkpt lat="42.432423" lon="44.504427"></trkpt>
      <trkpt lat="42.432276" lon="44.501256"></trkpt>
      <trkpt lat="42.432652" lon="44.500441"></trkpt>
      <trkpt lat="42.4328" lon="44.499669"></trkpt>
      <trkpt lat="42.433041" lon="44.499356"></trkpt>
      <trkpt lat="42.433204" lon="44.4988"></trkpt>
      <trkpt lat="42.433968" lon="44.497644"></trkpt>
      <trkpt lat="42.434295" lon="44.496076"></trkpt>
      <trkpt lat="42.434846" lon="44.495822"></trkpt>
      <trkpt lat="42.435223" lon="44.495303"></trkpt>
      <trkpt lat="42.435982" lon="44.495242"></trkpt>
      <trkpt lat="42.436136" lon="44.495008"></trkpt>
      <trkpt lat="42.436116" lon="44.494552"></trkpt>
      <trkpt lat="42.435613" lon="44.493906"></trkpt>
      <trkpt lat="42.435697" lon="44.492373"></trkpt>
      <trkpt lat="42.435962" lon="44.491583"></trkpt>
      <trkpt lat="42.438231" lon="44.488699"></trkpt>
      <trkpt lat="42.439198" lon="44.486945"></trkpt>
      <trkpt lat="42.439723" lon="44.485544"></trkpt>
      <trkpt lat="42.442328" lon="44.483266"></trkpt>
      <trkpt lat="42.442685" lon="44.483165"></trkpt>
      <trkpt lat="42.442777" lon="44.483437"></trkpt>
      <trkpt lat="42.442228" lon="44.483612"></trkpt>
      <trkpt lat="42.439986" lon="44.486361"></trkpt>
      <trkpt lat="42.439747" lon="44.487352"></trkpt>
      <trkpt lat="42.439357" lon="44.488087"></trkpt>
      <trkpt lat="42.438758" lon="44.489762"></trkpt>
      <trkpt lat="42.43834" lon="44.490512"></trkpt>
      <trkpt lat="42.437721" lon="44.492242"></trkpt>
      <trkpt lat="42.437338" lon="44.492996"></trkpt>
      <trkpt lat="42.43739" lon="44.493159"></trkpt>
      <trkpt lat="42.437551" lon="44.493126"></trkpt>
      <trkpt lat="42.438432" lon="44.491033"></trkpt>
      <trkpt lat="42.440881" lon="44.486551"></trkpt>
      <trkpt lat="42.442311" lon="44.485286"></trkpt>
      <trkpt lat="42.442482" lon="44.48526"></trkpt>
      <trkpt lat="42.442486" lon="44.485583"></trkpt>
      <trkpt lat="42.441854" lon="44.48604"></trkpt>
      <trkpt lat="42.441155" lon="44.486761"></trkpt>
      <trkpt lat="42.440395" lon="44.489105"></trkpt>
      <trkpt lat="42.438979" lon="44.491929"></trkpt>
      <trkpt lat="42.438835" lon="44.492775"></trkpt>
      <trkpt lat="42.43838" lon="44.492951"></trkpt>
      <trkpt lat="42.438149" lon="44.493452"></trkpt>
      <trkpt lat="42.438218" lon="44.493898"></trkpt>
      <trkpt lat="42.439303" lon="44.495469"></trkpt>
      <trkpt lat="42.439557" lon="44.496546"></trkpt>
      <trkpt lat="42.440161" lon="44.497263"></trkpt>
      <trkpt lat="42.440381" lon="44.497298"></trkpt>
      <trkpt lat="42.440409" lon="44.497111"></trkpt>
      <trkpt lat="42.439641" lon="44.496212"></trkpt>
      <trkpt lat="42.439438" lon="44.494966"></trkpt>
      <trkpt lat="42.439129" lon="44.494047"></trkpt>
      <trkpt lat="42.439486" lon="44.493193"></trkpt>
      <trkpt lat="42.439604" lon="44.492026"></trkpt>
      <trkpt lat="42.43976" lon="44.491565"></trkpt>
      <trkpt lat="42.441588" lon="44.489183"></trkpt>
      <trkpt lat="42.442191" lon="44.488144"></trkpt>
      <trkpt lat="42.443501" lon="44.48711"></trkpt>
      <trkpt lat="42.443825" lon="44.486999"></trkpt>
      <trkpt lat="42.445332" lon="44.486675"></trkpt>
      <trkpt lat="42.446134" lon="44.486937"></trkpt>
      <trkpt lat="42.44723" lon="44.487983"></trkpt>
      <trkpt lat="42.4478" lon="44.48829"></trkpt>
      <trkpt lat="42.449066" lon="44.488344"></trkpt>
      <trkpt lat="42.449479" lon="44.488491"></trkpt>
      <trkpt lat="42.450498" lon="44.489716"></trkpt>
      <trkpt lat="42.451133" lon="44.491123"></trkpt>
      <trkpt lat="42.453201" lon="44.492984"></trkpt>
      <trkpt lat="42.453634" lon="44.492926"></trkpt>
      <trkpt lat="42.456172" lon="44.490841"></trkpt>
      <trkpt lat="42.456105" lon="44.489761"></trkpt>
      <trkpt lat="42.457174" lon="44.488704"></trkpt>
      <trkpt lat="42.457502" lon="44.48854"></trkpt>
      <trkpt lat="42.45812" lon="44.488795"></trkpt>
      <trkpt lat="42.458568" lon="44.488816"></trkpt>
      <trkpt lat="42.458859" lon="44.488562"></trkpt>
      <trkpt lat="42.458824" lon="44.486854"></trkpt>
      <trkpt lat="42.458964" lon="44.485493"></trkpt>
      <trkpt lat="42.459405" lon="44.484743"></trkpt>
      <trkpt lat="42.459637" lon="44.483133"></trkpt>
      <trkpt lat="42.459874" lon="44.482575"></trkpt>
      <trkpt lat="42.460319" lon="44.482404"></trkpt>
      <trkpt lat="42.461231" lon="44.482286"></trkpt>
      <trkpt lat="42.462007" lon="44.481664"></trkpt>
      <trkpt lat="42.462822" lon="44.481398"></trkpt>
      <trkpt lat="42.464455" lon="44.479583"></trkpt>
      <trkpt lat="42.465091" lon="44.479211"></trkpt>
      <trkpt lat="42.465561" lon="44.478301"></trkpt>
      <trkpt lat="42.465716" lon="44.478368"></trkpt>
      <trkpt lat="42.465725" lon="44.478558"></trkpt>
      <trkpt lat="42.465334" lon="44.479754"></trkpt>
      <trkpt lat="42.465514" lon="44.479848"></trkpt>
      <trkpt lat="42.465759" lon="44.479774"></trkpt>
      <trkpt lat="42.466393" lon="44.479259"></trkpt>
      <trkpt lat="42.466526" lon="44.479263"></trkpt>
      <trkpt lat="42.466957" lon="44.480361"></trkpt>
      <trkpt lat="42.466339" lon="44.480977"></trkpt>
      <trkpt lat="42.466302" lon="44.482193"></trkpt>
      <trkpt lat="42.465554" lon="44.484368"></trkpt>
      <trkpt lat="42.466031" lon="44.482796"></trkpt>
      <trkpt lat="42.466147" lon="44.482645"></trkpt>
      <trkpt lat="42.466294" lon="44.48276"></trkpt>
      <trkpt lat="42.466406" lon="44.482671"></trkpt>
      <trkpt lat="42.4667" lon="44.481602"></trkpt>
      <trkpt lat="42.467623" lon="44.480357"></trkpt>
      <trkpt lat="42.468135" lon="44.480101"></trkpt>
      <trkpt lat="42.468482" lon="44.480236"></trkpt>
      <trkpt lat="42.468881" lon="44.480619"></trkpt>
      <trkpt lat="42.469291" lon="44.480575"></trkpt>
      <trkpt lat="42.470029" lon="44.480733"></trkpt>
      <trkpt lat="42.470842" lon="44.479743"></trkpt>
      <trkpt lat="42.471018" lon="44.479201"></trkpt>
      <trkpt lat="42.471053" lon="44.478434"></trkpt>
      <trkpt lat="42.471159" lon="44.478347"></trkpt>
      <trkpt lat="42.471308" lon="44.478506"></trkpt>
      <trkpt lat="42.471438" lon="44.479114"></trkpt>
      <trkpt lat="42.471776" lon="44.47985"></trkpt>
      <trkpt lat="42.470996" lon="44.482318"></trkpt>
      <trkpt lat="42.470954" lon="44.483254"></trkpt>
      <trkpt lat="42.470628" lon="44.483367"></trkpt>
      <trkpt lat="42.469955" lon="44.483114"></trkpt>
      <trkpt lat="42.469748" lon="44.48332"></trkpt>
      <trkpt lat="42.469904" lon="44.483513"></trkpt>
      <trkpt lat="42.470352" lon="44.48358"></trkpt>
      <trkpt lat="42.470794" lon="44.48389"></trkpt>
      <trkpt lat="42.471522" lon="44.483802"></trkpt>
      <trkpt lat="42.471773" lon="44.483525"></trkpt>
      <trkpt lat="42.471895" lon="44.482737"></trkpt>
      <trkpt lat="42.472284" lon="44.482176"></trkpt>
      <trkpt lat="42.474181" lon="44.481177"></trkpt>
      <trkpt lat="42.475151" lon="44.479936"></trkpt>
      <trkpt lat="42.475493" lon="44.478796"></trkpt>
      <trkpt lat="42.476287" lon="44.478066"></trkpt>
      <trkpt lat="42.476594" lon="44.476242"></trkpt>
      <trkpt lat="42.47726" lon="44.47521"></trkpt>
      <trkpt lat="42.47757" lon="44.47429"></trkpt>
      <trkpt lat="42.477927" lon="44.474086"></trkpt>
      <trkpt lat="42.478492" lon="44.47401"></trkpt>
      <trkpt lat="42.480202" lon="44.47441"></trkpt>
      <trkpt lat="42.480752" lon="44.47431"></trkpt>
      <trkpt lat="42.480796" lon="44.474027"></trkpt>
      <trkpt lat="42.480437" lon="44.473246"></trkpt>
      <trkpt lat="42.480428" lon="44.472288"></trkpt>
      <trkpt lat="42.480532" lon="44.472045"></trkpt>
      <trkpt lat="42.480707" lon="44.472059"></trkpt>
      <trkpt lat="42.48096" lon="44.472453"></trkpt>
      <trkpt lat="42.481159" lon="44.472499"></trkpt>
      <trkpt lat="42.481887" lon="44.47223"></trkpt>
      <trkpt lat="42.482571" lon="44.472299"></trkpt>
      <trkpt lat="42.483601" lon="44.471496"></trkpt>
      <trkpt lat="42.483974" lon="44.47142"></trkpt>
      <trkpt lat="42.484819" lon="44.472058"></trkpt>
      <trkpt lat="42.484999" lon="44.472086"></trkpt>
      <trkpt lat="42.486568" lon="44.471808"></trkpt>
      <trkpt lat="42.48777" lon="44.47105"></trkpt>
      <trkpt lat="42.489186" lon="44.470935"></trkpt>
      <trkpt lat="42.491389" lon="44.4683"></trkpt>
      <trkpt lat="42.491781" lon="44.466336"></trkpt>
      <trkpt lat="42.493812" lon="44.464899"></trkpt>
      <trkpt lat="42.494257" lon="44.464381"></trkpt>
      <trkpt lat="42.494909" lon="44.46205"></trkpt>
      <trkpt lat="42.494883" lon="44.461654"></trkpt>
      <trkpt lat="42.493868" lon="44.45956"></trkpt>
      <trkpt lat="42.493867" lon="44.458441"></trkpt>
      <trkpt lat="42.493474" lon="44.457352"></trkpt>
      <trkpt lat="42.493556" lon="44.456836"></trkpt>
      <trkpt lat="42.494273" lon="44.455305"></trkpt>
      <trkpt lat="42.494176" lon="44.454549"></trkpt>
      <trkpt lat="42.494057" lon="44.454194"></trkpt>
      <trkpt lat="42.493666" lon="44.453972"></trkpt>
      <trkpt lat="42.492732" lon="44.453739"></trkpt>
      <trkpt lat="42.492456" lon="44.453487"></trkpt>
      <trkpt lat="42.492092" lon="44.453485"></trkpt>
      <trkpt lat="42.492456" lon="44.453487"></trkpt>
      <trkpt lat="42.492732" lon="44.453739"></trkpt>
      <trkpt lat="42.493572" lon="44.453939"></trkpt>
      <trkpt lat="42.494057" lon="44.454194"></trkpt>
      <trkpt lat="42.493923" lon="44.453382"></trkpt>
      <trkpt lat="42.494163" lon="44.451996"></trkpt>
      <trkpt lat="42.494426" lon="44.451418"></trkpt>
      <trkpt lat="42.495319" lon="44.449883"></trkpt>
      <trkpt lat="42.496199" lon="44.449431"></trkpt>
      <trkpt lat="42.497298" lon="44.449494"></trkpt>
      <trkpt lat="42.497599" lon="44.44925"></trkpt>
      <trkpt lat="42.49856" lon="44.447174"></trkpt>
      <trkpt lat="42.498534" lon="44.446866"></trkpt>
      <trkpt lat="42.498047" lon="44.446402"></trkpt>
      <trkpt lat="42.498173" lon="44.44618"></trkpt>
      <trkpt lat="42.499332" lon="44.446524"></trkpt>
      <trkpt lat="42.499533" lon="44.446746"></trkpt>
      <trkpt lat="42.499536" lon="44.447074"></trkpt>
      <trkpt lat="42.49895" lon="44.447883"></trkpt>
      <trkpt lat="42.498865" lon="44.448427"></trkpt>
      <trkpt lat="42.499042" lon="44.448716"></trkpt>
      <trkpt lat="42.499751" lon="44.449086"></trkpt>
      <trkpt lat="42.499936" lon="44.449395"></trkpt>
      <trkpt lat="42.499617" lon="44.451148"></trkpt>
      <trkpt lat="42.499767" lon="44.451788"></trkpt>
      <trkpt lat="42.500393" lon="44.453028"></trkpt>
      <trkpt lat="42.501193" lon="44.453488"></trkpt>
      <trkpt lat="42.501746" lon="44.454171"></trkpt>
      <trkpt lat="42.50266" lon="44.454521"></trkpt>
      <trkpt lat="42.503226" lon="44.454412"></trkpt>
      <trkpt lat="42.50384" lon="44.453752"></trkpt>
      <trkpt lat="42.50419" lon="44.453664"></trkpt>
      <trkpt lat="42.504463" lon="44.453732"></trkpt>
      <trkpt lat="42.50474" lon="44.454066"></trkpt>
      <trkpt lat="42.505595" lon="44.455789"></trkpt>
      <trkpt lat="42.507225" lon="44.457852"></trkpt>
      <trkpt lat="42.508116" lon="44.459266"></trkpt>
      <trkpt lat="42.509523" lon="44.460605"></trkpt>
      <trkpt lat="42.510008" lon="44.461702"></trkpt>
      <trkpt lat="42.511159" lon="44.462322"></trkpt>
      <trkpt lat="42.51156" lon="44.462422"></trkpt>
      <trkpt lat="42.513034" lon="44.462494"></trkpt>
      <trkpt lat="42.514404" lon="44.46227"></trkpt>
      <trkpt lat="42.514751" lon="44.462398"></trkpt>
      <trkpt lat="42.517571" lon="44.466"></trkpt>
      <trkpt lat="42.519549" lon="44.467463"></trkpt>
      <trkpt lat="42.519997" lon="44.467529"></trkpt>
      <trkpt lat="42.520741" lon="44.467321"></trkpt>
      <trkpt lat="42.521468" lon="44.467377"></trkpt>
      <trkpt lat="42.522346" lon="44.466563"></trkpt>
      <trkpt lat="42.522696" lon="44.466044"></trkpt>
      <trkpt lat="42.522878" lon="44.465998"></trkpt>
      <trkpt lat="42.523655" lon="44.468268"></trkpt>
      <trkpt lat="42.523562" lon="44.469473"></trkpt>
      <trkpt lat="42.524313" lon="44.469781"></trkpt>
      <trkpt lat="42.524458" lon="44.469712"></trkpt>
      <trkpt lat="42.524493" lon="44.46946"></trkpt>
      <trkpt lat="42.524174" lon="44.467806"></trkpt>
      <trkpt lat="42.524368" lon="44.4676"></trkpt>
      <trkpt lat="42.524971" lon="44.468429"></trkpt>
      <trkpt lat="42.526434" lon="44.469668"></trkpt>
      <trkpt lat="42.528855" lon="44.469922"></trkpt>
      <trkpt lat="42.529548" lon="44.470161"></trkpt>
      <trkpt lat="42.530003" lon="44.470489"></trkpt>
      <trkpt lat="42.531783" lon="44.472342"></trkpt>
      <trkpt lat="42.532434" lon="44.47237"></trkpt>
      <trkpt lat="42.532811" lon="44.472693"></trkpt>
      <trkpt lat="42.533588" lon="44.47394"></trkpt>
      <trkpt lat="42.534696" lon="44.475058"></trkpt>
      <trkpt lat="42.534649" lon="44.475806"></trkpt>
      <trkpt lat="42.535165" lon="44.476762"></trkpt>
      <trkpt lat="42.536171" lon="44.476826"></trkpt>
      <trkpt lat="42.537422" lon="44.477543"></trkpt>
      <trkpt lat="42.53766" lon="44.477882"></trkpt>
      <trkpt lat="42.537963" lon="44.478761"></trkpt>
      <trkpt lat="42.538315" lon="44.480414"></trkpt>
      <trkpt lat="42.538397" lon="44.482768"></trkpt>
      <trkpt lat="42.53852" lon="44.483402"></trkpt>
      <trkpt lat="42.539485" lon="44.486017"></trkpt>
      <trkpt lat="42.540258" lon="44.487448"></trkpt>
      <trkpt lat="42.542022" lon="44.489533"></trkpt>
      <trkpt lat="42.543441" lon="44.491806"></trkpt>
      <trkpt lat="42.543615" lon="44.491918"></trkpt>
      <trkpt lat="42.543741" lon="44.491814"></trkpt>
      <trkpt lat="42.543448" lon="44.491087"></trkpt>
      <trkpt lat="42.543547" lon="44.49085"></trkpt>
      <trkpt lat="42.544726" lon="44.491871"></trkpt>
      <trkpt lat="42.545386" lon="44.491854"></trkpt>
      <trkpt lat="42.54623" lon="44.491385"></trkpt>
      <trkpt lat="42.546645" lon="44.491507"></trkpt>
      <trkpt lat="42.54893" lon="44.493139"></trkpt>
      <trkpt lat="42.550772" lon="44.494985"></trkpt>
      <trkpt lat="42.556492" lon="44.499747"></trkpt>
      <trkpt lat="42.556999" lon="44.50031"></trkpt>
      <trkpt lat="42.55735" lon="44.500895"></trkpt>
      <trkpt lat="42.557624" lon="44.501819"></trkpt>
      <trkpt lat="42.557662" lon="44.502736"></trkpt>
      <trkpt lat="42.557435" lon="44.505906"></trkpt>
      <trkpt lat="42.55754" lon="44.506884"></trkpt>
      <trkpt lat="42.55802" lon="44.508591"></trkpt>
      <trkpt lat="42.55929" lon="44.510671"></trkpt>
      <trkpt lat="42.562177" lon="44.513636"></trkpt>
      <trkpt lat="42.562994" lon="44.516041"></trkpt>
      <trkpt lat="42.564724" lon="44.518961"></trkpt>
      <trkpt lat="42.565289" lon="44.519704"></trkpt>
      <trkpt lat="42.565872" lon="44.519996"></trkpt>
      <trkpt lat="42.567426" lon="44.519962"></trkpt>
      <trkpt lat="42.567977" lon="44.520142"></trkpt>
      <trkpt lat="42.569736" lon="44.521232"></trkpt>
      <trkpt lat="42.571562" lon="44.522616"></trkpt>
      <trkpt lat="42.572954" lon="44.523967"></trkpt>
      <trkpt lat="42.574382" lon="44.524836"></trkpt>
      <trkpt lat="42.574715" lon="44.524865"></trkpt>
      <trkpt lat="42.57588" lon="44.524638"></trkpt>
      <trkpt lat="42.576674" lon="44.524644"></trkpt>
      <trkpt lat="42.580637" lon="44.525601"></trkpt>
      <trkpt lat="42.581357" lon="44.526067"></trkpt>
      <trkpt lat="42.583817" lon="44.53028"></trkpt>
      <trkpt lat="42.584874" lon="44.534505"></trkpt>
      <trkpt lat="42.585259" lon="44.535335"></trkpt>
      <trkpt lat="42.585986" lon="44.535967"></trkpt>
      <trkpt lat="42.588174" lon="44.537198"></trkpt>
      <trkpt lat="42.588888" lon="44.537785"></trkpt>
      <trkpt lat="42.591031" lon="44.540041"></trkpt>
      <trkpt lat="42.591459" lon="44.54069"></trkpt>
      <trkpt lat="42.591708" lon="44.541362"></trkpt>
      <trkpt lat="42.591953" lon="44.54238"></trkpt>
      <trkpt lat="42.592176" lon="44.54508"></trkpt>
      <trkpt lat="42.593435" lon="44.554608"></trkpt>
      <trkpt lat="42.595592" lon="44.564992"></trkpt>
      <trkpt lat="42.596154" lon="44.568549"></trkpt>
      <trkpt lat="42.59683" lon="44.570967"></trkpt>
      <trkpt lat="42.597236" lon="44.571856"></trkpt>
      <trkpt lat="42.60415" lon="44.578538"></trkpt>
      <trkpt lat="42.605158" lon="44.579413"></trkpt>
      <trkpt lat="42.608734" lon="44.5821"></trkpt>
      <trkpt lat="42.609928" lon="44.583359"></trkpt>
      <trkpt lat="42.613869" lon="44.589785"></trkpt>
      <trkpt lat="42.614083" lon="44.59077"></trkpt>
      <trkpt lat="42.613876" lon="44.593596"></trkpt>
      <trkpt lat="42.614081" lon="44.594512"></trkpt>
      <trkpt lat="42.619096" lon="44.600881"></trkpt>
      <trkpt lat="42.620642" lon="44.603236"></trkpt>
      <trkpt lat="42.621639" lon="44.605384"></trkpt>
      <trkpt lat="42.631737" lon="44.622076"></trkpt>
      <trkpt lat="42.635517" lon="44.628083"></trkpt>
      <trkpt lat="42.637934" lon="44.633373"></trkpt>
      <trkpt lat="42.638549" lon="44.634282"></trkpt>
      <trkpt lat="42.639129" lon="44.634753"></trkpt>
      <trkpt lat="42.640019" lon="44.635059"></trkpt>
      <trkpt lat="42.640951" lon="44.635094"></trkpt>
      <trkpt lat="42.641417" lon="44.635402"></trkpt>
      <trkpt lat="42.642013" lon="44.636165"></trkpt>
      <trkpt lat="42.642634" lon="44.637465"></trkpt>
      <trkpt lat="42.644462" lon="44.640327"></trkpt>
      <trkpt lat="42.644885" lon="44.640772"></trkpt>
      <trkpt lat="42.647357" lon="44.641385"></trkpt>
      <trkpt lat="42.649577" lon="44.64139"></trkpt>
      <trkpt lat="42.650252" lon="44.641168"></trkpt>
      <trkpt lat="42.650464" lon="44.641595"></trkpt>
      <trkpt lat="42.651767" lon="44.641541"></trkpt>
      <trkpt lat="42.651672" lon="44.647024"></trkpt>
      <trkpt lat="42.654355" lon="44.646789"></trkpt>
      <trkpt lat="42.654187" lon="44.650491"></trkpt>
      <trkpt lat="42.654686" lon="44.650496"></trkpt>
      <trkpt lat="42.655794" lon="44.650078"></trkpt>
      <trkpt lat="42.656221" lon="44.650052"></trkpt>
      <trkpt lat="42.657416" lon="44.650636"></trkpt>
      <trkpt lat="42.658206" lon="44.650658"></trkpt>
      <trkpt lat="42.659" lon="44.650949"></trkpt>
      <trkpt lat="42.658206" lon="44.650658"></trkpt>
      <trkpt lat="42.657283" lon="44.650558"></trkpt>
      <trkpt lat="42.657773" lon="44.649726"></trkpt>
      <trkpt lat="42.65762" lon="44.648824"></trkpt>
      <trkpt lat="42.657779" lon="44.646982"></trkpt>
      <trkpt lat="42.657626" lon="44.646404"></trkpt>
      <trkpt lat="42.657716" lon="44.645581"></trkpt>
      <trkpt lat="42.658387" lon="44.645563"></trkpt>
      <trkpt lat="42.659276" lon="44.641917"></trkpt>
      <trkpt lat="42.658564" lon="44.64128"></trkpt>
      <trkpt lat="42.658421" lon="44.640919"></trkpt>
      <trkpt lat="42.660674" lon="44.640523"></trkpt>
      <trkpt lat="42.661489" lon="44.641466"></trkpt>
      <trkpt lat="42.661756" lon="44.641612"></trkpt>
      <trkpt lat="42.663299" lon="44.641839"></trkpt>
      <trkpt lat="42.664228" lon="44.642105"></trkpt>
      <trkpt lat="42.66725" lon="44.629694"></trkpt>
      <trkpt lat="42.667513" lon="44.629312"></trkpt>
      <trkpt lat="42.668703" lon="44.62867"></trkpt>
      <trkpt lat="42.669197" lon="44.627917"></trkpt>
      <trkpt lat="42.66977" lon="44.625964"></trkpt>
      <trkpt lat="42.669789" lon="44.625578"></trkpt>
      <trkpt lat="42.669654" lon="44.625368"></trkpt>
      <trkpt lat="42.66953" lon="44.625349"></trkpt>
      <trkpt lat="42.669302" lon="44.625537"></trkpt>
      <trkpt lat="42.668659" lon="44.626299"></trkpt>
      <trkpt lat="42.667762" lon="44.626508"></trkpt>
      <trkpt lat="42.667206" lon="44.62647"></trkpt>
      <trkpt lat="42.666605" lon="44.625827"></trkpt>
      <trkpt lat="42.666436" lon="44.625768"></trkpt>
      <trkpt lat="42.665308" lon="44.625829"></trkpt>
      <trkpt lat="42.663912" lon="44.627248"></trkpt>
      <trkpt lat="42.663703" lon="44.627256"></trkpt>
      <trkpt lat="42.663478" lon="44.627055"></trkpt>
      <trkpt lat="42.663332" lon="44.626341"></trkpt>
      <trkpt lat="42.663002" lon="44.625696"></trkpt>
      <trkpt lat="42.66242" lon="44.625709"></trkpt>
      <trkpt lat="42.663071" lon="44.625281"></trkpt>
      <trkpt lat="42.663746" lon="44.62559"></trkpt>
      <trkpt lat="42.663441" lon="44.625086"></trkpt>
      <trkpt lat="42.663" lon="44.624903"></trkpt>
      <trkpt lat="42.662779" lon="44.624932"></trkpt>
      <trkpt lat="42.662767" lon="44.624847"></trkpt>
      <trkpt lat="42.663543" lon="44.624754"></trkpt>
      <trkpt lat="42.664014" lon="44.625172"></trkpt>
      <trkpt lat="42.663873" lon="44.624776"></trkpt>
      <trkpt lat="42.663134" lon="44.624368"></trkpt>
      <trkpt lat="42.663969" lon="44.624215"></trkpt>
      <trkpt lat="42.663255" lon="44.623788"></trkpt>
      <trkpt lat="42.662915" lon="44.623785"></trkpt>
      <trkpt lat="42.662904" lon="44.62369"></trkpt>
      <trkpt lat="42.663263" lon="44.623451"></trkpt>
      <trkpt lat="42.664236" lon="44.623169"></trkpt>
      <trkpt lat="42.664819" lon="44.622737"></trkpt>
      <trkpt lat="42.666774" lon="44.619711"></trkpt>
      <trkpt lat="42.667144" lon="44.618038"></trkpt>
      <trkpt lat="42.667313" lon="44.615312"></trkpt>
      <trkpt lat="42.667261" lon="44.614362"></trkpt>
      <trkpt lat="42.667883" lon="44.611281"></trkpt>
      <trkpt lat="42.667821" lon="44.611031"></trkpt>
      <trkpt lat="42.667558" lon="44.611049"></trkpt>
      <trkpt lat="42.666604" lon="44.611777"></trkpt>
      <trkpt lat="42.665491" lon="44.614599"></trkpt>
      <trkpt lat="42.664388" lon="44.618158"></trkpt>
      <trkpt lat="42.663024" lon="44.620265"></trkpt>
      <trkpt lat="42.662638" lon="44.61986"></trkpt>
      <trkpt lat="42.662218" lon="44.62029"></trkpt>
  </trkseg></trk>
</gpx>
