<?xml version="1.0" encoding="UTF-8"?>
<gpx version="1.1" creator="yatutbuv" xmlns="http://www.topografix.com/GPX/1/1">
  <trk><name>GraphHopper Track</name><trkseg>
      <trkpt lat="37.924434" lon="29.116013"></trkpt>
      <trkpt lat="37.923316" lon="29.115901"></trkpt>
      <trkpt lat="37.922541" lon="29.115949"></trkpt>
      <trkpt lat="37.921059" lon="29.116322"></trkpt>
      <trkpt lat="37.920826" lon="29.116528"></trkpt>
      <trkpt lat="37.919826" lon="29.118469"></trkpt>
      <trkpt lat="37.919098" lon="29.121106"></trkpt>
      <trkpt lat="37.918555" lon="29.1219"></trkpt>
      <trkpt lat="37.91797" lon="29.122423"></trkpt>
      <trkpt lat="37.914072" lon="29.12175"></trkpt>
      <trkpt lat="37.912892" lon="29.121676"></trkpt>
      <trkpt lat="37.912031" lon="29.121723"></trkpt>
      <trkpt lat="37.910597" lon="29.122005"></trkpt>
      <trkpt lat="37.894037" lon="29.128089"></trkpt>
      <trkpt lat="37.8911" lon="29.129061"></trkpt>
      <trkpt lat="37.887644" lon="29.13045"></trkpt>
      <trkpt lat="37.873167" lon="29.135726"></trkpt>
      <trkpt lat="37.872182" lon="29.135985"></trkpt>
      <trkpt lat="37.870597" lon="29.136684"></trkpt>
      <trkpt lat="37.852041" lon="29.143484"></trkpt>
      <trkpt lat="37.850814" lon="29.143753"></trkpt>
      <trkpt lat="37.849586" lon="29.143684"></trkpt>
      <trkpt lat="37.848061" lon="29.143174"></trkpt>
      <trkpt lat="37.846587" lon="29.142219"></trkpt>
      <trkpt lat="37.844838" lon="29.140456"></trkpt>
      <trkpt lat="37.842179" lon="29.137228"></trkpt>
      <trkpt lat="37.837791" lon="29.13239"></trkpt>
      <trkpt lat="37.830604" lon="29.123836"></trkpt>
      <trkpt lat="37.829261" lon="29.122551"></trkpt>
      <trkpt lat="37.827106" lon="29.120897"></trkpt>
      <trkpt lat="37.823532" lon="29.118484"></trkpt>
      <trkpt lat="37.823391" lon="29.118047"></trkpt>
      <trkpt lat="37.823604" lon="29.117682"></trkpt>
      <trkpt lat="37.823988" lon="29.117782"></trkpt>
      <trkpt lat="37.824077" lon="29.118482"></trkpt>
      <trkpt lat="37.82242" lon="29.125074"></trkpt>
      <trkpt lat="37.821488" lon="29.129284"></trkpt>
      <trkpt lat="37.821081" lon="29.132061"></trkpt>
      <trkpt lat="37.819896" lon="29.150905"></trkpt>
      <trkpt lat="37.81975" lon="29.15204"></trkpt>
      <trkpt lat="37.819486" lon="29.15308"></trkpt>
      <trkpt lat="37.817824" lon="29.15693"></trkpt>
      <trkpt lat="37.817273" lon="29.157879"></trkpt>
      <trkpt lat="37.813997" lon="29.161341"></trkpt>
      <trkpt lat="37.813353" lon="29.162211"></trkpt>
      <trkpt lat="37.813051" lon="29.162819"></trkpt>
      <trkpt lat="37.812735" lon="29.16398"></trkpt>
      <trkpt lat="37.811524" lon="29.171771"></trkpt>
      <trkpt lat="37.811167" lon="29.173031"></trkpt>
      <trkpt lat="37.810686" lon="29.174178"></trkpt>
      <trkpt lat="37.80942" lon="29.176129"></trkpt>
      <trkpt lat="37.807611" lon="29.177948"></trkpt>
      <trkpt lat="37.805382" lon="29.179124"></trkpt>
      <trkpt lat="37.800857" lon="29.180203"></trkpt>
      <trkpt lat="37.799755" lon="29.180936"></trkpt>
      <trkpt lat="37.798876" lon="29.181962"></trkpt>
      <trkpt lat="37.796324" lon="29.186778"></trkpt>
      <trkpt lat="37.795417" lon="29.188103"></trkpt>
      <trkpt lat="37.794506" lon="29.188912"></trkpt>
      <trkpt lat="37.792187" lon="29.190108"></trkpt>
      <trkpt lat="37.791137" lon="29.191127"></trkpt>
      <trkpt lat="37.788253" lon="29.196228"></trkpt>
      <trkpt lat="37.783962" lon="29.203038"></trkpt>
      <trkpt lat="37.78319" lon="29.204049"></trkpt>
      <trkpt lat="37.782097" lon="29.205006"></trkpt>
      <trkpt lat="37.777088" lon="29.208697"></trkpt>
      <trkpt lat="37.775661" lon="29.209219"></trkpt>
      <trkpt lat="37.769818" lon="29.209497"></trkpt>
      <trkpt lat="37.769238" lon="29.20964"></trkpt>
      <trkpt lat="37.766689" lon="29.211378"></trkpt>
      <trkpt lat="37.766005" lon="29.211702"></trkpt>
      <trkpt lat="37.765101" lon="29.211974"></trkpt>
      <trkpt lat="37.763745" lon="29.212029"></trkpt>
      <trkpt lat="37.759836" lon="29.210907"></trkpt>
      <trkpt lat="37.757869" lon="29.210168"></trkpt>
      <trkpt lat="37.754824" lon="29.209226"></trkpt>
      <trkpt lat="37.752695" lon="29.208382"></trkpt>
      <trkpt lat="37.748712" lon="29.20711"></trkpt>
      <trkpt lat="37.747183" lon="29.206776"></trkpt>
      <trkpt lat="37.745547" lon="29.206585"></trkpt>
      <trkpt lat="37.743187" lon="29.206502"></trkpt>
      <trkpt lat="37.73999" lon="29.206577"></trkpt>
      <trkpt lat="37.73912" lon="29.206708"></trkpt>
      <trkpt lat="37.736133" lon="29.207701"></trkpt>
      <trkpt lat="37.729321" lon="29.210693"></trkpt>
      <trkpt lat="37.725076" lon="29.211846"></trkpt>
      <trkpt lat="37.722247" lon="29.213386"></trkpt>
      <trkpt lat="37.721693" lon="29.213537"></trkpt>
      <trkpt lat="37.718668" lon="29.213875"></trkpt>
      <trkpt lat="37.715064" lon="29.214138"></trkpt>
      <trkpt lat="37.713009" lon="29.213683"></trkpt>
      <trkpt lat="37.698727" lon="29.208715"></trkpt>
      <trkpt lat="37.697969" lon="29.208327"></trkpt>
      <trkpt lat="37.695712" lon="29.206677"></trkpt>
      <trkpt lat="37.69263" lon="29.213597"></trkpt>
      <trkpt lat="37.692063" lon="29.214552"></trkpt>
      <trkpt lat="37.691543" lon="29.215142"></trkpt>
      <trkpt lat="37.690808" lon="29.215743"></trkpt>
      <trkpt lat="37.687498" lon="29.21726"></trkpt>
      <trkpt lat="37.686585" lon="29.217888"></trkpt>
      <trkpt lat="37.685926" lon="29.218837"></trkpt>
      <trkpt lat="37.685297" lon="29.220587"></trkpt>
      <trkpt lat="37.684815" lon="29.221343"></trkpt>
      <trkpt lat="37.68211" lon="29.223534"></trkpt>
      <trkpt lat="37.681326" lon="29.224016"></trkpt>
      <trkpt lat="37.680494" lon="29.22422"></trkpt>
      <trkpt lat="37.679656" lon="29.224196"></trkpt>
      <trkpt lat="37.678245" lon="29.223822"></trkpt>
      <trkpt lat="37.677331" lon="29.223938"></trkpt>
      <trkpt lat="37.673126" lon="29.226956"></trkpt>
      <trkpt lat="37.67156" lon="29.22731"></trkpt>
      <trkpt lat="37.669681" lon="29.228112"></trkpt>
      <trkpt lat="37.666789" lon="29.228287"></trkpt>
      <trkpt lat="37.665809" lon="29.228716"></trkpt>
      <trkpt lat="37.664022" lon="29.229873"></trkpt>
      <trkpt lat="37.663056" lon="29.230151"></trkpt>
      <trkpt lat="37.662223" lon="29.229953"></trkpt>
      <trkpt lat="37.659172" lon="29.228409"></trkpt>
      <trkpt lat="37.657966" lon="29.228193"></trkpt>
      <trkpt lat="37.655662" lon="29.228294"></trkpt>
      <trkpt lat="37.654222" lon="29.227659"></trkpt>
      <trkpt lat="37.653067" lon="29.227555"></trkpt>
      <trkpt lat="37.652291" lon="29.227359"></trkpt>
      <trkpt lat="37.650971" lon="29.226737"></trkpt>
      <trkpt lat="37.649658" lon="29.225565"></trkpt>
      <trkpt lat="37.647365" lon="29.222218"></trkpt>
      <trkpt lat="37.644017" lon="29.218263"></trkpt>
      <trkpt lat="37.643113" lon="29.217397"></trkpt>
      <trkpt lat="37.64179" lon="29.216691"></trkpt>
      <trkpt lat="37.64092" lon="29.216468"></trkpt>
      <trkpt lat="37.639989" lon="29.216414"></trkpt>
      <trkpt lat="37.631221" lon="29.216828"></trkpt>
      <trkpt lat="37.629776" lon="29.216953"></trkpt>
      <trkpt lat="37.629083" lon="29.217182"></trkpt>
      <trkpt lat="37.628693" lon="29.217408"></trkpt>
      <trkpt lat="37.627994" lon="29.218076"></trkpt>
      <trkpt lat="37.627358" lon="29.219066"></trkpt>
      <trkpt lat="37.622995" lon="29.231759"></trkpt>
      <trkpt lat="37.622155" lon="29.23518"></trkpt>
      <trkpt lat="37.621248" lon="29.241595"></trkpt>
      <trkpt lat="37.620917" lon="29.243287"></trkpt>
      <trkpt lat="37.620547" lon="29.244457"></trkpt>
      <trkpt lat="37.619169" lon="29.247234"></trkpt>
      <trkpt lat="37.618887" lon="29.248148"></trkpt>
      <trkpt lat="37.618922" lon="29.249574"></trkpt>
      <trkpt lat="37.620093" lon="29.254028"></trkpt>
      <trkpt lat="37.620323" lon="29.2564"></trkpt>
      <trkpt lat="37.620276" lon="29.26306"></trkpt>
      <trkpt lat="37.620069" lon="29.266234"></trkpt>
      <trkpt lat="37.619678" lon="29.267653"></trkpt>
      <trkpt lat="37.619009" lon="29.26889"></trkpt>
      <trkpt lat="37.617477" lon="29.270585"></trkpt>
      <trkpt lat="37.616364" lon="29.271454"></trkpt>
      <trkpt lat="37.614428" lon="29.272411"></trkpt>
      <trkpt lat="37.607789" lon="29.274342"></trkpt>
      <trkpt lat="37.605779" lon="29.274592"></trkpt>
      <trkpt lat="37.603341" lon="29.274525"></trkpt>
      <trkpt lat="37.601811" lon="29.274108"></trkpt>
      <trkpt lat="37.601057" lon="29.273771"></trkpt>
      <trkpt lat="37.600075" lon="29.273145"></trkpt>
      <trkpt lat="37.598394" lon="29.271795"></trkpt>
      <trkpt lat="37.595685" lon="29.269119"></trkpt>
      <trkpt lat="37.592513" lon="29.266962"></trkpt>
      <trkpt lat="37.590726" lon="29.266487"></trkpt>
      <trkpt lat="37.590084" lon="29.266466"></trkpt>
      <trkpt lat="37.589421" lon="29.266624"></trkpt>
      <trkpt lat="37.582545" lon="29.270482"></trkpt>
      <trkpt lat="37.577687" lon="29.27354"></trkpt>
      <trkpt lat="37.573362" lon="29.275771"></trkpt>
      <trkpt lat="37.569843" lon="29.277746"></trkpt>
      <trkpt lat="37.568515" lon="29.278339"></trkpt>
      <trkpt lat="37.565397" lon="29.280342"></trkpt>
      <trkpt lat="37.563417" lon="29.281947"></trkpt>
      <trkpt lat="37.555339" lon="29.2892"></trkpt>
      <trkpt lat="37.550882" lon="29.293378"></trkpt>
      <trkpt lat="37.549454" lon="29.294337"></trkpt>
      <trkpt lat="37.54854" lon="29.294746"></trkpt>
      <trkpt lat="37.540878" lon="29.297218"></trkpt>
      <trkpt lat="37.533629" lon="29.300196"></trkpt>
      <trkpt lat="37.530215" lon="29.300969"></trkpt>
      <trkpt lat="37.519797" lon="29.30288"></trkpt>
      <trkpt lat="37.519187" lon="29.303068"></trkpt>
      <trkpt lat="37.51675" lon="29.30417"></trkpt>
      <trkpt lat="37.506221" lon="29.30988"></trkpt>
      <trkpt lat="37.502239" lon="29.311612"></trkpt>
      <trkpt lat="37.486205" lon="29.320864"></trkpt>
      <trkpt lat="37.468877" lon="29.330652"></trkpt>
      <trkpt lat="37.46775" lon="29.331188"></trkpt>
      <trkpt lat="37.466472" lon="29.332024"></trkpt>
      <trkpt lat="37.457568" lon="29.337158"></trkpt>
      <trkpt lat="37.455718" lon="29.338056"></trkpt>
      <trkpt lat="37.454137" lon="29.339132"></trkpt>
      <trkpt lat="37.444869" lon="29.344521"></trkpt>
      <trkpt lat="37.443332" lon="29.345577"></trkpt>
      <trkpt lat="37.440181" lon="29.34816"></trkpt>
      <trkpt lat="37.438831" lon="29.349593"></trkpt>
      <trkpt lat="37.430297" lon="29.357773"></trkpt>
      <trkpt lat="37.428304" lon="29.35928"></trkpt>
      <trkpt lat="37.427214" lon="29.35987"></trkpt>
      <trkpt lat="37.41471" lon="29.364859"></trkpt>
      <trkpt lat="37.413065" lon="29.365823"></trkpt>
      <trkpt lat="37.411938" lon="29.367274"></trkpt>
      <trkpt lat="37.401939" lon="29.386254"></trkpt>
      <trkpt lat="37.393024" lon="29.402846"></trkpt>
      <trkpt lat="37.392118" lon="29.404734"></trkpt>
      <trkpt lat="37.379541" lon="29.428522"></trkpt>
      <trkpt lat="37.377626" lon="29.431684"></trkpt>
      <trkpt lat="37.37143" lon="29.440516"></trkpt>
      <trkpt lat="37.370354" lon="29.441865"></trkpt>
      <trkpt lat="37.369469" lon="29.443466"></trkpt>
      <trkpt lat="37.368865" lon="29.44569"></trkpt>
      <trkpt lat="37.362623" lon="29.481832"></trkpt>
      <trkpt lat="37.361387" lon="29.485799"></trkpt>
      <trkpt lat="37.360324" lon="29.488389"></trkpt>
      <trkpt lat="37.358645" lon="29.491368"></trkpt>
      <trkpt lat="37.357314" lon="29.493283"></trkpt>
      <trkpt lat="37.356249" lon="29.494603"></trkpt>
      <trkpt lat="37.352928" lon="29.497971"></trkpt>
      <trkpt lat="37.351404" lon="29.49937"></trkpt>
      <trkpt lat="37.342875" lon="29.506375"></trkpt>
      <trkpt lat="37.338561" lon="29.509624"></trkpt>
      <trkpt lat="37.336093" lon="29.510691"></trkpt>
      <trkpt lat="37.324873" lon="29.514068"></trkpt>
      <trkpt lat="37.323463" lon="29.514776"></trkpt>
      <trkpt lat="37.322382" lon="29.515829"></trkpt>
      <trkpt lat="37.321419" lon="29.517168"></trkpt>
      <trkpt lat="37.316602" lon="29.525015"></trkpt>
      <trkpt lat="37.314438" lon="29.528368"></trkpt>
      <trkpt lat="37.313584" lon="29.529396"></trkpt>
      <trkpt lat="37.311457" lon="29.530797"></trkpt>
      <trkpt lat="37.301011" lon="29.536119"></trkpt>
      <trkpt lat="37.300096" lon="29.536871"></trkpt>
      <trkpt lat="37.299075" lon="29.53854"></trkpt>
      <trkpt lat="37.296018" lon="29.544382"></trkpt>
      <trkpt lat="37.295772" lon="29.545058"></trkpt>
      <trkpt lat="37.294724" lon="29.549517"></trkpt>
      <trkpt lat="37.293951" lon="29.551007"></trkpt>
      <trkpt lat="37.293268" lon="29.55178"></trkpt>
      <trkpt lat="37.292204" lon="29.552478"></trkpt>
      <trkpt lat="37.287575" lon="29.554891"></trkpt>
      <trkpt lat="37.278977" lon="29.559666"></trkpt>
      <trkpt lat="37.274525" lon="29.56241"></trkpt>
      <trkpt lat="37.273575" lon="29.563237"></trkpt>
      <trkpt lat="37.273004" lon="29.564382"></trkpt>
      <trkpt lat="37.272418" lon="29.567776"></trkpt>
      <trkpt lat="37.271627" lon="29.569495"></trkpt>
      <trkpt lat="37.261512" lon="29.583853"></trkpt>
      <trkpt lat="37.256881" lon="29.591208"></trkpt>
      <trkpt lat="37.255792" lon="29.592544"></trkpt>
      <trkpt lat="37.254597" lon="29.593657"></trkpt>
      <trkpt lat="37.249929" lon="29.596656"></trkpt>
      <trkpt lat="37.248216" lon="29.597552"></trkpt>
      <trkpt lat="37.233709" lon="29.602296"></trkpt>
      <trkpt lat="37.231369" lon="29.603263"></trkpt>
      <trkpt lat="37.217624" lon="29.61117"></trkpt>
      <trkpt lat="37.2161" lon="29.611954"></trkpt>
      <trkpt lat="37.214342" lon="29.613139"></trkpt>
      <trkpt lat="37.211822" lon="29.615372"></trkpt>
      <trkpt lat="37.210659" lon="29.616251"></trkpt>
      <trkpt lat="37.20613" lon="29.618819"></trkpt>
      <trkpt lat="37.204022" lon="29.620432"></trkpt>
      <trkpt lat="37.202297" lon="29.622285"></trkpt>
      <trkpt lat="37.201583" lon="29.623235"></trkpt>
      <trkpt lat="37.199224" lon="29.626894"></trkpt>
      <trkpt lat="37.197492" lon="29.630282"></trkpt>
      <trkpt lat="37.196643" lon="29.631293"></trkpt>
      <trkpt lat="37.195598" lon="29.632054"></trkpt>
      <trkpt lat="37.192419" lon="29.633702"></trkpt>
      <trkpt lat="37.191425" lon="29.634322"></trkpt>
      <trkpt lat="37.190647" lon="29.635231"></trkpt>
      <trkpt lat="37.18891" lon="29.638283"></trkpt>
      <trkpt lat="37.187859" lon="29.639696"></trkpt>
      <trkpt lat="37.186391" lon="29.641031"></trkpt>
      <trkpt lat="37.181923" lon="29.644286"></trkpt>
      <trkpt lat="37.18109" lon="29.645133"></trkpt>
      <trkpt lat="37.180264" lon="29.646182"></trkpt>
      <trkpt lat="37.177631" lon="29.650277"></trkpt>
      <trkpt lat="37.176091" lon="29.652166"></trkpt>
      <trkpt lat="37.174383" lon="29.653795"></trkpt>
      <trkpt lat="37.170542" lon="29.656663"></trkpt>
      <trkpt lat="37.169085" lon="29.657626"></trkpt>
      <trkpt lat="37.167478" lon="29.658945"></trkpt>
      <trkpt lat="37.16573" lon="29.660661"></trkpt>
      <trkpt lat="37.164957" lon="29.661614"></trkpt>
      <trkpt lat="37.163314" lon="29.664102"></trkpt>
      <trkpt lat="37.162098" lon="29.666619"></trkpt>
      <trkpt lat="37.158765" lon="29.676028"></trkpt>
      <trkpt lat="37.157968" lon="29.677877"></trkpt>
      <trkpt lat="37.157605" lon="29.679326"></trkpt>
      <trkpt lat="37.156527" lon="29.681472"></trkpt>
      <trkpt lat="37.155018" lon="29.683272"></trkpt>
      <trkpt lat="37.149372" lon="29.688271"></trkpt>
      <trkpt lat="37.148563" lon="29.688879"></trkpt>
      <trkpt lat="37.147489" lon="29.689371"></trkpt>
      <trkpt lat="37.146497" lon="29.689644"></trkpt>
      <trkpt lat="37.145664" lon="29.689684"></trkpt>
      <trkpt lat="37.140244" lon="29.68881"></trkpt>
      <trkpt lat="37.136131" lon="29.688007"></trkpt>
      <trkpt lat="37.13532" lon="29.687984"></trkpt>
      <trkpt lat="37.134304" lon="29.688146"></trkpt>
      <trkpt lat="37.132897" lon="29.688718"></trkpt>
      <trkpt lat="37.129655" lon="29.691543"></trkpt>
      <trkpt lat="37.12798" lon="29.692265"></trkpt>
      <trkpt lat="37.12553" lon="29.692634"></trkpt>
      <trkpt lat="37.124762" lon="29.692852"></trkpt>
      <trkpt lat="37.122958" lon="29.69383"></trkpt>
      <trkpt lat="37.122082" lon="29.694579"></trkpt>
      <trkpt lat="37.12142" lon="29.695552"></trkpt>
      <trkpt lat="37.116476" lon="29.705365"></trkpt>
      <trkpt lat="37.116008" lon="29.706618"></trkpt>
      <trkpt lat="37.115741" lon="29.708093"></trkpt>
      <trkpt lat="37.115572" lon="29.713613"></trkpt>
      <trkpt lat="37.115335" lon="29.715175"></trkpt>
      <trkpt lat="37.114886" lon="29.716992"></trkpt>
      <trkpt lat="37.114071" lon="29.719135"></trkpt>
      <trkpt lat="37.110737" lon="29.725838"></trkpt>
      <trkpt lat="37.110256" lon="29.727285"></trkpt>
      <trkpt lat="37.110058" lon="29.729078"></trkpt>
      <trkpt lat="37.109826" lon="29.737664"></trkpt>
      <trkpt lat="37.109633" lon="29.739175"></trkpt>
      <trkpt lat="37.109173" lon="29.740753"></trkpt>
      <trkpt lat="37.104573" lon="29.750396"></trkpt>
      <trkpt lat="37.103411" lon="29.754069"></trkpt>
      <trkpt lat="37.103061" lon="29.754766"></trkpt>
      <trkpt lat="37.101261" lon="29.757396"></trkpt>
      <trkpt lat="37.099665" lon="29.761803"></trkpt>
      <trkpt lat="37.09935" lon="29.762434"></trkpt>
      <trkpt lat="37.09864" lon="29.763412"></trkpt>
      <trkpt lat="37.092481" lon="29.768562"></trkpt>
      <trkpt lat="37.086522" lon="29.772211"></trkpt>
      <trkpt lat="37.080693" lon="29.776636"></trkpt>
      <trkpt lat="37.079603" lon="29.777829"></trkpt>
      <trkpt lat="37.073748" lon="29.785765"></trkpt>
      <trkpt lat="37.072726" lon="29.786736"></trkpt>
      <trkpt lat="37.071913" lon="29.787288"></trkpt>
      <trkpt lat="37.071202" lon="29.787643"></trkpt>
      <trkpt lat="37.066541" lon="29.789297"></trkpt>
      <trkpt lat="37.065311" lon="29.789545"></trkpt>
      <trkpt lat="37.063994" lon="29.789472"></trkpt>
      <trkpt lat="37.060707" lon="29.788416"></trkpt>
      <trkpt lat="37.05961" lon="29.788179"></trkpt>
      <trkpt lat="37.057806" lon="29.788311"></trkpt>
      <trkpt lat="37.053814" lon="29.789334"></trkpt>
      <trkpt lat="37.052485" lon="29.789252"></trkpt>
      <trkpt lat="37.049251" lon="29.788203"></trkpt>
      <trkpt lat="37.048104" lon="29.788183"></trkpt>
      <trkpt lat="37.047233" lon="29.788367"></trkpt>
      <trkpt lat="37.042842" lon="29.79014"></trkpt>
      <trkpt lat="37.041564" lon="29.791022"></trkpt>
      <trkpt lat="37.040533" lon="29.792249"></trkpt>
      <trkpt lat="37.038165" lon="29.796849"></trkpt>
      <trkpt lat="37.037751" lon="29.797858"></trkpt>
      <trkpt lat="37.036928" lon="29.80088"></trkpt>
      <trkpt lat="37.036032" lon="29.802741"></trkpt>
      <trkpt lat="37.036378" lon="29.803194"></trkpt>
      <trkpt lat="37.036278" lon="29.80385"></trkpt>
      <trkpt lat="37.034375" lon="29.8118"></trkpt>
      <trkpt lat="37.033609" lon="29.81445"></trkpt>
      <trkpt lat="37.033442" lon="29.815434"></trkpt>
      <trkpt lat="37.032654" lon="29.817711"></trkpt>
      <trkpt lat="37.032703" lon="29.819308"></trkpt>
      <trkpt lat="37.033355" lon="29.819596"></trkpt>
      <trkpt lat="37.034081" lon="29.82046"></trkpt>
      <trkpt lat="37.035381" lon="29.823079"></trkpt>
      <trkpt lat="37.035447" lon="29.823646"></trkpt>
      <trkpt lat="37.035306" lon="29.829058"></trkpt>
      <trkpt lat="37.035546" lon="29.832866"></trkpt>
      <trkpt lat="37.036596" lon="29.836778"></trkpt>
      <trkpt lat="37.036294" lon="29.837721"></trkpt>
      <trkpt lat="37.036868" lon="29.838066"></trkpt>
      <trkpt lat="37.038261" lon="29.838558"></trkpt>
      <trkpt lat="37.041571" lon="29.839558"></trkpt>
      <trkpt lat="37.043622" lon="29.84046"></trkpt>
      <trkpt lat="37.053058" lon="29.846162"></trkpt>
      <trkpt lat="37.05389" lon="29.847051"></trkpt>
      <trkpt lat="37.054246" lon="29.847618"></trkpt>
      <trkpt lat="37.054644" lon="29.848612"></trkpt>
      <trkpt lat="37.054883" lon="29.850141"></trkpt>
      <trkpt lat="37.054694" lon="29.851828"></trkpt>
      <trkpt lat="37.052683" lon="29.858527"></trkpt>
      <trkpt lat="37.051596" lon="29.862716"></trkpt>
      <trkpt lat="37.050985" lon="29.864084"></trkpt>
      <trkpt lat="37.050445" lon="29.864737"></trkpt>
      <trkpt lat="37.04955" lon="29.865445"></trkpt>
      <trkpt lat="37.045862" lon="29.867133"></trkpt>
      <trkpt lat="37.044303" lon="29.868155"></trkpt>
      <trkpt lat="37.043075" lon="29.869411"></trkpt>
      <trkpt lat="37.041804" lon="29.871259"></trkpt>
      <trkpt lat="37.036476" lon="29.883927"></trkpt>
      <trkpt lat="37.034969" lon="29.888704"></trkpt>
      <trkpt lat="37.031953" lon="29.900112"></trkpt>
      <trkpt lat="37.031289" lon="29.902045"></trkpt>
      <trkpt lat="37.030895" lon="29.90278"></trkpt>
      <trkpt lat="37.029863" lon="29.904264"></trkpt>
      <trkpt lat="37.028822" lon="29.905313"></trkpt>
      <trkpt lat="37.016471" lon="29.913765"></trkpt>
      <trkpt lat="37.015092" lon="29.914983"></trkpt>
      <trkpt lat="37.013795" lon="29.916633"></trkpt>
      <trkpt lat="37.01284" lon="29.918539"></trkpt>
      <trkpt lat="37.006223" lon="29.929702"></trkpt>
      <trkpt lat="37.005805" lon="29.930766"></trkpt>
      <trkpt lat="37.005551" lon="29.932187"></trkpt>
      <trkpt lat="37.005467" lon="29.933408"></trkpt>
      <trkpt lat="37.005586" lon="29.93511"></trkpt>
      <trkpt lat="37.006207" lon="29.937274"></trkpt>
      <trkpt lat="37.010411" lon="29.94541"></trkpt>
      <trkpt lat="37.011671" lon="29.948304"></trkpt>
      <trkpt lat="37.012479" lon="29.950811"></trkpt>
      <trkpt lat="37.013322" lon="29.954591"></trkpt>
      <trkpt lat="37.014251" lon="29.961905"></trkpt>
      <trkpt lat="37.014343" lon="29.963861"></trkpt>
      <trkpt lat="37.014843" lon="29.965935"></trkpt>
      <trkpt lat="37.015624" lon="29.968164"></trkpt>
      <trkpt lat="37.016556" lon="29.969802"></trkpt>
      <trkpt lat="37.02669" lon="29.98341"></trkpt>
      <trkpt lat="37.030969" lon="29.987685"></trkpt>
      <trkpt lat="37.031775" lon="29.988708"></trkpt>
      <trkpt lat="37.03244" lon="29.989997"></trkpt>
      <trkpt lat="37.032656" lon="29.990763"></trkpt>
      <trkpt lat="37.03288" lon="29.992428"></trkpt>
      <trkpt lat="37.032483" lon="29.99665"></trkpt>
      <trkpt lat="37.032503" lon="30.000282"></trkpt>
      <trkpt lat="37.033329" lon="30.006598"></trkpt>
      <trkpt lat="37.033392" lon="30.01177"></trkpt>
      <trkpt lat="37.033588" lon="30.014038"></trkpt>
      <trkpt lat="37.033552" lon="30.016988"></trkpt>
      <trkpt lat="37.033727" lon="30.01893"></trkpt>
      <trkpt lat="37.033822" lon="30.022346"></trkpt>
      <trkpt lat="37.034162" lon="30.025121"></trkpt>
      <trkpt lat="37.034768" lon="30.026785"></trkpt>
      <trkpt lat="37.035229" lon="30.02742"></trkpt>
      <trkpt lat="37.037755" lon="30.030106"></trkpt>
      <trkpt lat="37.040085" lon="30.032076"></trkpt>
      <trkpt lat="37.042036" lon="30.034027"></trkpt>
      <trkpt lat="37.042761" lon="30.035214"></trkpt>
      <trkpt lat="37.043403" lon="30.036882"></trkpt>
      <trkpt lat="37.043609" lon="30.038922"></trkpt>
      <trkpt lat="37.042041" lon="30.055717"></trkpt>
      <trkpt lat="37.042171" lon="30.05715"></trkpt>
      <trkpt lat="37.042921" lon="30.061197"></trkpt>
      <trkpt lat="37.042982" lon="30.062313"></trkpt>
      <trkpt lat="37.042716" lon="30.063799"></trkpt>
      <trkpt lat="37.040506" lon="30.070294"></trkpt>
      <trkpt lat="37.040204" lon="30.071591"></trkpt>
      <trkpt lat="37.039949" lon="30.073557"></trkpt>
      <trkpt lat="37.040131" lon="30.077349"></trkpt>
      <trkpt lat="37.040864" lon="30.081543"></trkpt>
      <trkpt lat="37.040937" lon="30.083111"></trkpt>
      <trkpt lat="37.040584" lon="30.084382"></trkpt>
      <trkpt lat="37.038999" lon="30.087188"></trkpt>
      <trkpt lat="37.038805" lon="30.088039"></trkpt>
      <trkpt lat="37.03895" lon="30.089337"></trkpt>
      <trkpt lat="37.040629" lon="30.092186"></trkpt>
      <trkpt lat="37.040793" lon="30.093449"></trkpt>
      <trkpt lat="37.040697" lon="30.093935"></trkpt>
      <trkpt lat="37.040331" lon="30.094649"></trkpt>
      <trkpt lat="37.038702" lon="30.096767"></trkpt>
      <trkpt lat="37.038415" lon="30.097376"></trkpt>
      <trkpt lat="37.038042" lon="30.098779"></trkpt>
      <trkpt lat="37.037635" lon="30.101407"></trkpt>
      <trkpt lat="37.03767" lon="30.102308"></trkpt>
      <trkpt lat="37.037837" lon="30.102939"></trkpt>
      <trkpt lat="37.038906" lon="30.105382"></trkpt>
      <trkpt lat="37.039091" lon="30.106444"></trkpt>
      <trkpt lat="37.038839" lon="30.10807"></trkpt>
      <trkpt lat="37.037648" lon="30.111074"></trkpt>
      <trkpt lat="37.037445" lon="30.112186"></trkpt>
      <trkpt lat="37.037467" lon="30.112723"></trkpt>
      <trkpt lat="37.037781" lon="30.114104"></trkpt>
      <trkpt lat="37.040093" lon="30.118402"></trkpt>
      <trkpt lat="37.040427" lon="30.119303"></trkpt>
      <trkpt lat="37.040594" lon="30.120344"></trkpt>
      <trkpt lat="37.040556" lon="30.123337"></trkpt>
      <trkpt lat="37.040714" lon="30.124351"></trkpt>
      <trkpt lat="37.041014" lon="30.125214"></trkpt>
      <trkpt lat="37.043553" lon="30.129359"></trkpt>
      <trkpt lat="37.045657" lon="30.134547"></trkpt>
      <trkpt lat="37.047626" lon="30.138168"></trkpt>
      <trkpt lat="37.048093" lon="30.139283"></trkpt>
      <trkpt lat="37.050729" lon="30.148773"></trkpt>
      <trkpt lat="37.051797" lon="30.157434"></trkpt>
      <trkpt lat="37.052212" lon="30.158563"></trkpt>
      <trkpt lat="37.053642" lon="30.161082"></trkpt>
      <trkpt lat="37.055557" lon="30.169201"></trkpt>
      <trkpt lat="37.055675" lon="30.170206"></trkpt>
      <trkpt lat="37.055647" lon="30.170946"></trkpt>
      <trkpt lat="37.055404" lon="30.172174"></trkpt>
      <trkpt lat="37.053715" lon="30.17577"></trkpt>
      <trkpt lat="37.053317" lon="30.177224"></trkpt>
      <trkpt lat="37.053374" lon="30.178615"></trkpt>
      <trkpt lat="37.054336" lon="30.181412"></trkpt>
      <trkpt lat="37.054577" lon="30.182533"></trkpt>
      <trkpt lat="37.054572" lon="30.183601"></trkpt>
      <trkpt lat="37.054278" lon="30.185365"></trkpt>
      <trkpt lat="37.053845" lon="30.187512"></trkpt>
      <trkpt lat="37.053445" lon="30.188808"></trkpt>
      <trkpt lat="37.052871" lon="30.189922"></trkpt>
      <trkpt lat="37.05177" lon="30.191547"></trkpt>
      <trkpt lat="37.051416" lon="30.192253"></trkpt>
      <trkpt lat="37.051115" lon="30.19314"></trkpt>
      <trkpt lat="37.050928" lon="30.194628"></trkpt>
      <trkpt lat="37.05138" lon="30.20369"></trkpt>
      <trkpt lat="37.050586" lon="30.21449"></trkpt>
      <trkpt lat="37.051149" lon="30.219123"></trkpt>
      <trkpt lat="37.050747" lon="30.229138"></trkpt>
      <trkpt lat="37.050877" lon="30.230305"></trkpt>
      <trkpt lat="37.052144" lon="30.236503"></trkpt>
      <trkpt lat="37.050991" lon="30.238593"></trkpt>
      <trkpt lat="37.046944" lon="30.244628"></trkpt>
      <trkpt lat="37.046283" lon="30.245388"></trkpt>
      <trkpt lat="37.042048" lon="30.249073"></trkpt>
      <trkpt lat="37.039049" lon="30.250898"></trkpt>
      <trkpt lat="37.032354" lon="30.256188"></trkpt>
      <trkpt lat="37.031234" lon="30.256783"></trkpt>
      <trkpt lat="37.024271" lon="30.259805"></trkpt>
      <trkpt lat="37.024252" lon="30.260637"></trkpt>
      <trkpt lat="37.023426" lon="30.262142"></trkpt>
      <trkpt lat="37.023029" lon="30.263167"></trkpt>
      <trkpt lat="37.021155" lon="30.272092"></trkpt>
      <trkpt lat="37.02131" lon="30.273117"></trkpt>
      <trkpt lat="37.022365" lon="30.274807"></trkpt>
      <trkpt lat="37.022797" lon="30.276414"></trkpt>
      <trkpt lat="37.022367" lon="30.279823"></trkpt>
      <trkpt lat="37.023223" lon="30.286523"></trkpt>
      <trkpt lat="37.023242" lon="30.293014"></trkpt>
      <trkpt lat="37.019135" lon="30.307784"></trkpt>
      <trkpt lat="37.019841" lon="30.313977"></trkpt>
      <trkpt lat="37.01955" lon="30.320292"></trkpt>
      <trkpt lat="37.019618" lon="30.320799"></trkpt>
      <trkpt lat="37.020383" lon="30.322829"></trkpt>
      <trkpt lat="37.020211" lon="30.323256"></trkpt>
      <trkpt lat="37.019908" lon="30.323396"></trkpt>
      <trkpt lat="37.019306" lon="30.323101"></trkpt>
      <trkpt lat="37.019104" lon="30.323126"></trkpt>
      <trkpt lat="37.018592" lon="30.325396"></trkpt>
      <trkpt lat="37.017504" lon="30.328963"></trkpt>
      <trkpt lat="37.017032" lon="30.329745"></trkpt>
      <trkpt lat="37.015445" lon="30.331378"></trkpt>
      <trkpt lat="37.014646" lon="30.332721"></trkpt>
      <trkpt lat="37.010502" lon="30.345229"></trkpt>
      <trkpt lat="37.007777" lon="30.352366"></trkpt>
      <trkpt lat="37.007416" lon="30.353725"></trkpt>
      <trkpt lat="37.007043" lon="30.356033"></trkpt>
      <trkpt lat="37.006011" lon="30.359572"></trkpt>
      <trkpt lat="37.00584" lon="30.360671"></trkpt>
      <trkpt lat="37.005928" lon="30.362136"></trkpt>
      <trkpt lat="37.006211" lon="30.363128"></trkpt>
      <trkpt lat="37.006992" lon="30.364461"></trkpt>
      <trkpt lat="37.007775" lon="30.365205"></trkpt>
      <trkpt lat="37.008633" lon="30.365776"></trkpt>
      <trkpt lat="37.010007" lon="30.366211"></trkpt>
      <trkpt lat="37.012929" lon="30.366318"></trkpt>
      <trkpt lat="37.015288" lon="30.366666"></trkpt>
      <trkpt lat="37.016448" lon="30.367093"></trkpt>
      <trkpt lat="37.017843" lon="30.367994"></trkpt>
      <trkpt lat="37.022123" lon="30.371871"></trkpt>
      <trkpt lat="37.022492" lon="30.372589"></trkpt>
      <trkpt lat="37.022898" lon="30.374569"></trkpt>
      <trkpt lat="37.023403" lon="30.375779"></trkpt>
      <trkpt lat="37.025872" lon="30.378383"></trkpt>
      <trkpt lat="37.027122" lon="30.379875"></trkpt>
      <trkpt lat="37.028546" lon="30.381129"></trkpt>
      <trkpt lat="37.033255" lon="30.38358"></trkpt>
      <trkpt lat="37.034976" lon="30.38522"></trkpt>
      <trkpt lat="37.035771" lon="30.386471"></trkpt>
      <trkpt lat="37.036494" lon="30.387953"></trkpt>
      <trkpt lat="37.037265" lon="30.389915"></trkpt>
      <trkpt lat="37.037335" lon="30.391333"></trkpt>
      <trkpt lat="37.036745" lon="30.397428"></trkpt>
      <trkpt lat="37.036724" lon="30.398522"></trkpt>
      <trkpt lat="37.03688" lon="30.399403"></trkpt>
      <trkpt lat="37.037203" lon="30.400255"></trkpt>
      <trkpt lat="37.038803" lon="30.402975"></trkpt>
      <trkpt lat="37.039063" lon="30.403986"></trkpt>
      <trkpt lat="37.039117" lon="30.40467"></trkpt>
      <trkpt lat="37.039073" lon="30.405756"></trkpt>
      <trkpt lat="37.038864" lon="30.406738"></trkpt>
      <trkpt lat="37.038029" lon="30.408218"></trkpt>
      <trkpt lat="37.037024" lon="30.409123"></trkpt>
      <trkpt lat="37.034816" lon="30.409978"></trkpt>
      <trkpt lat="37.034393" lon="30.410286"></trkpt>
      <trkpt lat="37.033958" lon="30.410904"></trkpt>
      <trkpt lat="37.033636" lon="30.411642"></trkpt>
      <trkpt lat="37.033343" lon="30.412812"></trkpt>
      <trkpt lat="37.033296" lon="30.414393"></trkpt>
      <trkpt lat="37.03294" lon="30.416368"></trkpt>
      <trkpt lat="37.033189" lon="30.417557"></trkpt>
      <trkpt lat="37.034059" lon="30.419012"></trkpt>
      <trkpt lat="37.034382" lon="30.4198"></trkpt>
      <trkpt lat="37.034531" lon="30.420578"></trkpt>
      <trkpt lat="37.034432" lon="30.422859"></trkpt>
      <trkpt lat="37.036493" lon="30.4288"></trkpt>
      <trkpt lat="37.036558" lon="30.429641"></trkpt>
      <trkpt lat="37.036402" lon="30.431653"></trkpt>
      <trkpt lat="37.036482" lon="30.432674"></trkpt>
      <trkpt lat="37.036872" lon="30.434032"></trkpt>
      <trkpt lat="37.037819" lon="30.436067"></trkpt>
      <trkpt lat="37.038207" lon="30.437758"></trkpt>
      <trkpt lat="37.038422" lon="30.440835"></trkpt>
      <trkpt lat="37.038334" lon="30.441974"></trkpt>
      <trkpt lat="37.038135" lon="30.442834"></trkpt>
      <trkpt lat="37.036032" lon="30.447295"></trkpt>
      <trkpt lat="37.035472" lon="30.448172"></trkpt>
      <trkpt lat="37.034723" lon="30.44906"></trkpt>
      <trkpt lat="37.033811" lon="30.44983"></trkpt>
      <trkpt lat="37.032938" lon="30.450362"></trkpt>
      <trkpt lat="37.031478" lon="30.451042"></trkpt>
      <trkpt lat="37.028583" lon="30.452783"></trkpt>
      <trkpt lat="37.028195" lon="30.453075"></trkpt>
      <trkpt lat="37.02773" lon="30.453653"></trkpt>
      <trkpt lat="37.027412" lon="30.454288"></trkpt>
      <trkpt lat="37.027252" lon="30.454968"></trkpt>
      <trkpt lat="37.027087" lon="30.458377"></trkpt>
      <trkpt lat="37.026883" lon="30.458952"></trkpt>
      <trkpt lat="37.026447" lon="30.459666"></trkpt>
      <trkpt lat="37.02588" lon="30.460093"></trkpt>
      <trkpt lat="37.024461" lon="30.460686"></trkpt>
      <trkpt lat="37.02308" lon="30.462037"></trkpt>
      <trkpt lat="37.021907" lon="30.462475"></trkpt>
      <trkpt lat="37.019693" lon="30.463844"></trkpt>
      <trkpt lat="37.019204" lon="30.464245"></trkpt>
      <trkpt lat="37.018631" lon="30.464986"></trkpt>
      <trkpt lat="37.017255" lon="30.468179"></trkpt>
      <trkpt lat="37.016692" lon="30.47007"></trkpt>
      <trkpt lat="37.016364" lon="30.471305"></trkpt>
      <trkpt lat="37.015911" lon="30.475315"></trkpt>
      <trkpt lat="37.015066" lon="30.477756"></trkpt>
      <trkpt lat="37.014987" lon="30.478941"></trkpt>
      <trkpt lat="37.015159" lon="30.479911"></trkpt>
      <trkpt lat="37.015491" lon="30.480714"></trkpt>
      <trkpt lat="37.016502" lon="30.482413"></trkpt>
      <trkpt lat="37.016827" lon="30.483252"></trkpt>
      <trkpt lat="37.01706" lon="30.484318"></trkpt>
      <trkpt lat="37.017419" lon="30.487936"></trkpt>
      <trkpt lat="37.019171" lon="30.494139"></trkpt>
      <trkpt lat="37.019188" lon="30.495555"></trkpt>
      <trkpt lat="37.019034" lon="30.496472"></trkpt>
      <trkpt lat="37.018013" lon="30.498951"></trkpt>
      <trkpt lat="37.01782" lon="30.499767"></trkpt>
      <trkpt lat="37.017747" lon="30.503344"></trkpt>
      <trkpt lat="37.01807" lon="30.504462"></trkpt>
      <trkpt lat="37.019022" lon="30.506263"></trkpt>
      <trkpt lat="37.020245" lon="30.509806"></trkpt>
      <trkpt lat="37.020632" lon="30.51142"></trkpt>
      <trkpt lat="37.02068" lon="30.51327"></trkpt>
      <trkpt lat="37.02029" lon="30.515062"></trkpt>
      <trkpt lat="37.019199" lon="30.518352"></trkpt>
      <trkpt lat="37.017651" lon="30.524569"></trkpt>
      <trkpt lat="37.017181" lon="30.525665"></trkpt>
      <trkpt lat="37.01613" lon="30.527562"></trkpt>
      <trkpt lat="37.015462" lon="30.5292"></trkpt>
      <trkpt lat="37.014993" lon="30.530968"></trkpt>
      <trkpt lat="37.014226" lon="30.535261"></trkpt>
      <trkpt lat="37.013971" lon="30.536109"></trkpt>
      <trkpt lat="37.01325" lon="30.537734"></trkpt>
      <trkpt lat="37.012286" lon="30.53913"></trkpt>
      <trkpt lat="37.009838" lon="30.541625"></trkpt>
      <trkpt lat="37.007512" lon="30.544904"></trkpt>
      <trkpt lat="37.004694" lon="30.547303"></trkpt>
      <trkpt lat="37.003847" lon="30.548173"></trkpt>
      <trkpt lat="37.001079" lon="30.552174"></trkpt>
      <trkpt lat="36.998289" lon="30.554914"></trkpt>
      <trkpt lat="36.996263" lon="30.557677"></trkpt>
      <trkpt lat="36.995324" lon="30.558786"></trkpt>
      <trkpt lat="36.994279" lon="30.559651"></trkpt>
      <trkpt lat="36.992547" lon="30.560596"></trkpt>
      <trkpt lat="36.988577" lon="30.561793"></trkpt>
      <trkpt lat="36.986951" lon="30.562176"></trkpt>
      <trkpt lat="36.986297" lon="30.562465"></trkpt>
      <trkpt lat="36.98561" lon="30.563051"></trkpt>
      <trkpt lat="36.985314" lon="30.563409"></trkpt>
      <trkpt lat="36.981999" lon="30.570571"></trkpt>
      <trkpt lat="36.980224" lon="30.573823"></trkpt>
      <trkpt lat="36.979668" lon="30.57455"></trkpt>
      <trkpt lat="36.976225" lon="30.577962"></trkpt>
      <trkpt lat="36.975733" lon="30.5786"></trkpt>
      <trkpt lat="36.975272" lon="30.57937"></trkpt>
      <trkpt lat="36.973965" lon="30.582222"></trkpt>
      <trkpt lat="36.972842" lon="30.583811"></trkpt>
      <trkpt lat="36.970053" lon="30.586723"></trkpt>
      <trkpt lat="36.968984" lon="30.587626"></trkpt>
      <trkpt lat="36.966904" lon="30.589071"></trkpt>
      <trkpt lat="36.966" lon="30.590126"></trkpt>
      <trkpt lat="36.965511" lon="30.590933"></trkpt>
      <trkpt lat="36.965108" lon="30.59207"></trkpt>
      <trkpt lat="36.964457" lon="30.59611"></trkpt>
      <trkpt lat="36.96382" lon="30.59797"></trkpt>
      <trkpt lat="36.963196" lon="30.599044"></trkpt>
      <trkpt lat="36.959615" lon="30.603968"></trkpt>
      <trkpt lat="36.957576" lon="30.607959"></trkpt>
      <trkpt lat="36.955933" lon="30.611697"></trkpt>
      <trkpt lat="36.952166" lon="30.6244"></trkpt>
      <trkpt lat="36.951945" lon="30.624639"></trkpt>
      <trkpt lat="36.949768" lon="30.622444"></trkpt>
      <trkpt lat="36.948923" lon="30.621004"></trkpt>
      <trkpt lat="36.94861" lon="30.620118"></trkpt>
      <trkpt lat="36.948379" lon="30.61869"></trkpt>
      <trkpt lat="36.948375" lon="30.61498"></trkpt>
      <trkpt lat="36.948227" lon="30.613203"></trkpt>
      <trkpt lat="36.947834" lon="30.611726"></trkpt>
      <trkpt lat="36.946257" lon="30.607715"></trkpt>
      <trkpt lat="36.945731" lon="30.606676"></trkpt>
      <trkpt lat="36.944844" lon="30.605571"></trkpt>
      <trkpt lat="36.943983" lon="30.60492"></trkpt>
      <trkpt lat="36.943077" lon="30.6045"></trkpt>
      <trkpt lat="36.942492" lon="30.604345"></trkpt>
      <trkpt lat="36.941605" lon="30.604296"></trkpt>
      <trkpt lat="36.940758" lon="30.604423"></trkpt>
      <trkpt lat="36.939717" lon="30.604804"></trkpt>
      <trkpt lat="36.938624" lon="30.605621"></trkpt>
      <trkpt lat="36.920625" lon="30.625106"></trkpt>
      <trkpt lat="36.918817" lon="30.626744"></trkpt>
      <trkpt lat="36.917159" lon="30.627673"></trkpt>
      <trkpt lat="36.915447" lon="30.628209"></trkpt>
      <trkpt lat="36.913801" lon="30.628388"></trkpt>
      <trkpt lat="36.91288" lon="30.628351"></trkpt>
      <trkpt lat="36.911497" lon="30.628086"></trkpt>
      <trkpt lat="36.910355" lon="30.627707"></trkpt>
      <trkpt lat="36.903291" lon="30.624663"></trkpt>
      <trkpt lat="36.90301" lon="30.624312"></trkpt>
      <trkpt lat="36.902526" lon="30.622672"></trkpt>
      <trkpt lat="36.902098" lon="30.622038"></trkpt>
      <trkpt lat="36.900554" lon="30.621089"></trkpt>
      <trkpt lat="36.900154" lon="30.621088"></trkpt>
      <trkpt lat="36.899506" lon="30.621481"></trkpt>
      <trkpt lat="36.898985" lon="30.621304"></trkpt>
      <trkpt lat="36.898235" lon="30.619307"></trkpt>
      <trkpt lat="36.897012" lon="30.619099"></trkpt>
      <trkpt lat="36.896466" lon="30.618865"></trkpt>
      <trkpt lat="36.885294" lon="30.610048"></trkpt>
      <trkpt lat="36.884502" lon="30.6096"></trkpt>
      <trkpt lat="36.883347" lon="30.609485"></trkpt>
      <trkpt lat="36.874615" lon="30.610212"></trkpt>
      <trkpt lat="36.862604" lon="30.609693"></trkpt>
      <trkpt lat="36.86184" lon="30.609555"></trkpt>
      <trkpt lat="36.861052" lon="30.6092"></trkpt>
      <trkpt lat="36.856175" lon="30.606313"></trkpt>
      <trkpt lat="36.842174" lon="30.597758"></trkpt>
      <trkpt lat="36.838875" lon="30.595961"></trkpt>
      <trkpt lat="36.836478" lon="30.595307"></trkpt>
      <trkpt lat="36.83107" lon="30.595297"></trkpt>
      <trkpt lat="36.827021" lon="30.594975"></trkpt>
      <trkpt lat="36.826016" lon="30.594747"></trkpt>
      <trkpt lat="36.823576" lon="30.593762"></trkpt>
      <trkpt lat="36.820648" lon="30.593204"></trkpt>
      <trkpt lat="36.819424" lon="30.59274"></trkpt>
      <trkpt lat="36.817532" lon="30.591483"></trkpt>
      <trkpt lat="36.817146" lon="30.591098"></trkpt>
      <trkpt lat="36.814077" lon="30.587404"></trkpt>
      <trkpt lat="36.813392" lon="30.58714"></trkpt>
      <trkpt lat="36.81237" lon="30.587016"></trkpt>
      <trkpt lat="36.811729" lon="30.586669"></trkpt>
      <trkpt lat="36.809636" lon="30.583848"></trkpt>
      <trkpt lat="36.808969" lon="30.58356"></trkpt>
      <trkpt lat="36.807435" lon="30.583545"></trkpt>
      <trkpt lat="36.806535" lon="30.583128"></trkpt>
      <trkpt lat="36.805933" lon="30.582522"></trkpt>
      <trkpt lat="36.80456" lon="30.580557"></trkpt>
      <trkpt lat="36.802646" lon="30.579465"></trkpt>
      <trkpt lat="36.801668" lon="30.578708"></trkpt>
      <trkpt lat="36.801216" lon="30.57802"></trkpt>
      <trkpt lat="36.799713" lon="30.573484"></trkpt>
      <trkpt lat="36.79917" lon="30.572733"></trkpt>
      <trkpt lat="36.798371" lon="30.572196"></trkpt>
      <trkpt lat="36.797279" lon="30.572056"></trkpt>
      <trkpt lat="36.795278" lon="30.572646"></trkpt>
      <trkpt lat="36.793216" lon="30.573514"></trkpt>
      <trkpt lat="36.792521" lon="30.573667"></trkpt>
      <trkpt lat="36.789837" lon="30.573455"></trkpt>
      <trkpt lat="36.78801" lon="30.573095"></trkpt>
      <trkpt lat="36.787038" lon="30.572584"></trkpt>
      <trkpt lat="36.786074" lon="30.571722"></trkpt>
      <trkpt lat="36.783246" lon="30.567364"></trkpt>
      <trkpt lat="36.78275" lon="30.566829"></trkpt>
      <trkpt lat="36.782016" lon="30.566508"></trkpt>
      <trkpt lat="36.781335" lon="30.56666"></trkpt>
      <trkpt lat="36.78084" lon="30.566954"></trkpt>
      <trkpt lat="36.772794" lon="30.572651"></trkpt>
      <trkpt lat="36.772045" lon="30.572869"></trkpt>
      <trkpt lat="36.770551" lon="30.572521"></trkpt>
      <trkpt lat="36.765" lon="30.569783"></trkpt>
      <trkpt lat="36.764046" lon="30.569521"></trkpt>
      <trkpt lat="36.763093" lon="30.569336"></trkpt>
      <trkpt lat="36.761901" lon="30.569269"></trkpt>
      <trkpt lat="36.760562" lon="30.569334"></trkpt>
      <trkpt lat="36.75905" lon="30.569597"></trkpt>
      <trkpt lat="36.758081" lon="30.569456"></trkpt>
      <trkpt lat="36.75477" lon="30.567999"></trkpt>
      <trkpt lat="36.751024" lon="30.566649"></trkpt>
      <trkpt lat="36.74831" lon="30.565534"></trkpt>
      <trkpt lat="36.746601" lon="30.564115"></trkpt>
      <trkpt lat="36.744324" lon="30.561323"></trkpt>
      <trkpt lat="36.743683" lon="30.560789"></trkpt>
      <trkpt lat="36.738601" lon="30.557165"></trkpt>
      <trkpt lat="36.736116" lon="30.55524"></trkpt>
      <trkpt lat="36.734103" lon="30.553983"></trkpt>
      <trkpt lat="36.73305" lon="30.553678"></trkpt>
      <trkpt lat="36.731802" lon="30.55366"></trkpt>
      <trkpt lat="36.730568" lon="30.554129"></trkpt>
      <trkpt lat="36.729782" lon="30.554711"></trkpt>
      <trkpt lat="36.727602" lon="30.556765"></trkpt>
      <trkpt lat="36.726861" lon="30.557315"></trkpt>
      <trkpt lat="36.725595" lon="30.557898"></trkpt>
      <trkpt lat="36.724004" lon="30.558178"></trkpt>
      <trkpt lat="36.721185" lon="30.557688"></trkpt>
      <trkpt lat="36.721154" lon="30.558044"></trkpt>
      <trkpt lat="36.721965" lon="30.561179"></trkpt>
      <trkpt lat="36.721981" lon="30.56161"></trkpt>
      <trkpt lat="36.720281" lon="30.56235"></trkpt>
      <trkpt lat="36.717549" lon="30.563037"></trkpt>
      <trkpt lat="36.715135" lon="30.564706"></trkpt>
      <trkpt lat="36.713359" lon="30.564992"></trkpt>
      <trkpt lat="36.70938" lon="30.566007"></trkpt>
      <trkpt lat="36.70738" lon="30.566349"></trkpt>
      <trkpt lat="36.70588" lon="30.567045"></trkpt>
      <trkpt lat="36.703885" lon="30.568689"></trkpt>
      <trkpt lat="36.702505" lon="30.569465"></trkpt>
      <trkpt lat="36.701677" lon="30.569674"></trkpt>
      <trkpt lat="36.697507" lon="30.569659"></trkpt>
      <trkpt lat="36.695963" lon="30.569855"></trkpt>
      <trkpt lat="36.695683" lon="30.571278"></trkpt>
      <trkpt lat="36.696434" lon="30.571437"></trkpt>
  </trkseg></trk>
</gpx>
