<?xml version="1.0" encoding="UTF-8"?>
<gpx version="1.1" creator="yatutbuv" xmlns="http://www.topografix.com/GPX/1/1">
  <trk><name>GraphHopper Track</name><trkseg>
      <trkpt lat="40.377893" lon="49.85693"></trkpt>
      <trkpt lat="40.379073" lon="49.856394"></trkpt>
      <trkpt lat="40.378749" lon="49.855156"></trkpt>
      <trkpt lat="40.377523" lon="49.85573"></trkpt>
      <trkpt lat="40.379363" lon="49.863014"></trkpt>
      <trkpt lat="40.379676" lon="49.864885"></trkpt>
      <trkpt lat="40.387315" lon="49.863229"></trkpt>
      <trkpt lat="40.387777" lon="49.863473"></trkpt>
      <trkpt lat="40.388124" lon="49.863963"></trkpt>
      <trkpt lat="40.388492" lon="49.866078"></trkpt>
      <trkpt lat="40.388834" lon="49.866662"></trkpt>
      <trkpt lat="40.389204" lon="49.866817"></trkpt>
      <trkpt lat="40.390673" lon="49.866964"></trkpt>
      <trkpt lat="40.39432" lon="49.868374"></trkpt>
      <trkpt lat="40.394734" lon="49.868643"></trkpt>
      <trkpt lat="40.395138" lon="49.869124"></trkpt>
      <trkpt lat="40.401001" lon="49.878831"></trkpt>
      <trkpt lat="40.403836" lon="49.883852"></trkpt>
      <trkpt lat="40.411229" lon="49.896082"></trkpt>
      <trkpt lat="40.421846" lon="49.918597"></trkpt>
      <trkpt lat="40.422369" lon="49.919179"></trkpt>
      <trkpt lat="40.436597" lon="49.931589"></trkpt>
      <trkpt lat="40.437798" lon="49.933081"></trkpt>
      <trkpt lat="40.438632" lon="49.934762"></trkpt>
      <trkpt lat="40.439278" lon="49.937055"></trkpt>
      <trkpt lat="40.439975" lon="49.942259"></trkpt>
      <trkpt lat="40.439524" lon="49.95377"></trkpt>
      <trkpt lat="40.439181" lon="49.959344"></trkpt>
      <trkpt lat="40.439338" lon="49.961186"></trkpt>
      <trkpt lat="40.440265" lon="49.965713"></trkpt>
      <trkpt lat="40.440407" lon="49.967644"></trkpt>
      <trkpt lat="40.440275" lon="49.969436"></trkpt>
      <trkpt lat="40.440078" lon="49.970435"></trkpt>
      <trkpt lat="40.438547" lon="49.975802"></trkpt>
      <trkpt lat="40.438349" lon="49.977529"></trkpt>
      <trkpt lat="40.438376" lon="49.979353"></trkpt>
      <trkpt lat="40.438529" lon="49.98054"></trkpt>
      <trkpt lat="40.438953" lon="49.982213"></trkpt>
      <trkpt lat="40.441014" lon="49.987602"></trkpt>
      <trkpt lat="40.442952" lon="49.99435"></trkpt>
      <trkpt lat="40.443289" lon="49.995928"></trkpt>
      <trkpt lat="40.443723" lon="49.998971"></trkpt>
      <trkpt lat="40.44388" lon="50.001151"></trkpt>
      <trkpt lat="40.443753" lon="50.002805"></trkpt>
      <trkpt lat="40.44327" lon="50.004817"></trkpt>
      <trkpt lat="40.436081" lon="50.022788"></trkpt>
      <trkpt lat="40.435671" lon="50.024479"></trkpt>
      <trkpt lat="40.435468" lon="50.026221"></trkpt>
      <trkpt lat="40.435487" lon="50.028074"></trkpt>
      <trkpt lat="40.43575" lon="50.029828"></trkpt>
      <trkpt lat="40.436311" lon="50.031771"></trkpt>
      <trkpt lat="40.43913" lon="50.038212"></trkpt>
      <trkpt lat="40.447552" lon="50.054108"></trkpt>
      <trkpt lat="40.45313" lon="50.064177"></trkpt>
      <trkpt lat="40.463183" lon="50.083139"></trkpt>
      <trkpt lat="40.464331" lon="50.085918"></trkpt>
      <trkpt lat="40.466603" lon="50.092061"></trkpt>
      <trkpt lat="40.46929" lon="50.098099"></trkpt>
      <trkpt lat="40.470183" lon="50.100367"></trkpt>
      <trkpt lat="40.477316" lon="50.114151"></trkpt>
      <trkpt lat="40.479724" lon="50.119401"></trkpt>
      <trkpt lat="40.480108" lon="50.119693"></trkpt>
      <trkpt lat="40.480551" lon="50.119822"></trkpt>
      <trkpt lat="40.481346" lon="50.119759"></trkpt>
      <trkpt lat="40.48185" lon="50.119568"></trkpt>
      <trkpt lat="40.50295" lon="50.105484"></trkpt>
      <trkpt lat="40.504942" lon="50.104285"></trkpt>
      <trkpt lat="40.510847" lon="50.10237"></trkpt>
      <trkpt lat="40.515645" lon="50.101264"></trkpt>
      <trkpt lat="40.523539" lon="50.099092"></trkpt>
      <trkpt lat="40.525455" lon="50.098416"></trkpt>
      <trkpt lat="40.531587" lon="50.09583"></trkpt>
      <trkpt lat="40.532522" lon="50.094988"></trkpt>
      <trkpt lat="40.53399" lon="50.092985"></trkpt>
      <trkpt lat="40.537319" lon="50.089095"></trkpt>
      <trkpt lat="40.537961" lon="50.088472"></trkpt>
      <trkpt lat="40.543765" lon="50.084658"></trkpt>
      <trkpt lat="40.549666" lon="50.080962"></trkpt>
      <trkpt lat="40.567228" lon="50.069389"></trkpt>
      <trkpt lat="40.570154" lon="50.066961"></trkpt>
      <trkpt lat="40.574215" lon="50.062711"></trkpt>
      <trkpt lat="40.57514" lon="50.061947"></trkpt>
      <trkpt lat="40.575921" lon="50.061468"></trkpt>
      <trkpt lat="40.57612" lon="50.061706"></trkpt>
      <trkpt lat="40.576197" lon="50.061337"></trkpt>
      <trkpt lat="40.576616" lon="50.061161"></trkpt>
      <trkpt lat="40.577667" lon="50.060897"></trkpt>
      <trkpt lat="40.57859" lon="50.06084"></trkpt>
      <trkpt lat="40.583912" lon="50.061445"></trkpt>
      <trkpt lat="40.585218" lon="50.061453"></trkpt>
      <trkpt lat="40.586372" lon="50.061151"></trkpt>
      <trkpt lat="40.587769" lon="50.060159"></trkpt>
      <trkpt lat="40.588707" lon="50.058834"></trkpt>
      <trkpt lat="40.589328" lon="50.057068"></trkpt>
      <trkpt lat="40.589508" lon="50.055146"></trkpt>
      <trkpt lat="40.589391" lon="50.05302"></trkpt>
      <trkpt lat="40.588937" lon="50.049354"></trkpt>
      <trkpt lat="40.58856" lon="50.047665"></trkpt>
      <trkpt lat="40.587586" lon="50.041257"></trkpt>
      <trkpt lat="40.585142" lon="50.026916"></trkpt>
      <trkpt lat="40.583295" lon="50.014187"></trkpt>
      <trkpt lat="40.583023" lon="50.011603"></trkpt>
      <trkpt lat="40.58251" lon="50.008787"></trkpt>
      <trkpt lat="40.582308" lon="50.00586"></trkpt>
      <trkpt lat="40.582512" lon="50.003594"></trkpt>
      <trkpt lat="40.583217" lon="50.000934"></trkpt>
      <trkpt lat="40.583872" lon="49.999476"></trkpt>
      <trkpt lat="40.584577" lon="49.998301"></trkpt>
      <trkpt lat="40.585223" lon="49.997431"></trkpt>
      <trkpt lat="40.587081" lon="49.995408"></trkpt>
      <trkpt lat="40.588096" lon="49.993706"></trkpt>
      <trkpt lat="40.588499" lon="49.992622"></trkpt>
      <trkpt lat="40.589066" lon="49.990462"></trkpt>
      <trkpt lat="40.589092" lon="49.989549"></trkpt>
      <trkpt lat="40.588988" lon="49.988995"></trkpt>
      <trkpt lat="40.588329" lon="49.98762"></trkpt>
      <trkpt lat="40.577979" lon="49.969838"></trkpt>
      <trkpt lat="40.577115" lon="49.968138"></trkpt>
      <trkpt lat="40.573698" lon="49.962762"></trkpt>
      <trkpt lat="40.572906" lon="49.961137"></trkpt>
      <trkpt lat="40.572246" lon="49.95927"></trkpt>
      <trkpt lat="40.566697" lon="49.939834"></trkpt>
      <trkpt lat="40.5664" lon="49.938395"></trkpt>
      <trkpt lat="40.565734" lon="49.936475"></trkpt>
      <trkpt lat="40.563089" lon="49.927169"></trkpt>
      <trkpt lat="40.561992" lon="49.923181"></trkpt>
      <trkpt lat="40.560672" lon="49.917575"></trkpt>
      <trkpt lat="40.558115" lon="49.910275"></trkpt>
      <trkpt lat="40.554771" lon="49.901676"></trkpt>
      <trkpt lat="40.554121" lon="49.900346"></trkpt>
      <trkpt lat="40.553492" lon="49.899326"></trkpt>
      <trkpt lat="40.552598" lon="49.898226"></trkpt>
      <trkpt lat="40.549831" lon="49.895892"></trkpt>
      <trkpt lat="40.548904" lon="49.894836"></trkpt>
      <trkpt lat="40.547815" lon="49.892742"></trkpt>
      <trkpt lat="40.547123" lon="49.890984"></trkpt>
      <trkpt lat="40.546753" lon="49.89052"></trkpt>
      <trkpt lat="40.546169" lon="49.890235"></trkpt>
      <trkpt lat="40.545214" lon="49.890129"></trkpt>
      <trkpt lat="40.54429" lon="49.890351"></trkpt>
      <trkpt lat="40.543552" lon="49.890808"></trkpt>
      <trkpt lat="40.543022" lon="49.891358"></trkpt>
      <trkpt lat="40.542581" lon="49.892025"></trkpt>
      <trkpt lat="40.541191" lon="49.895014"></trkpt>
      <trkpt lat="40.540503" lon="49.896138"></trkpt>
      <trkpt lat="40.539163" lon="49.897521"></trkpt>
      <trkpt lat="40.537665" lon="49.898388"></trkpt>
      <trkpt lat="40.536315" lon="49.898732"></trkpt>
      <trkpt lat="40.533355" lon="49.898963"></trkpt>
      <trkpt lat="40.528875" lon="49.899269"></trkpt>
      <trkpt lat="40.527032" lon="49.899216"></trkpt>
      <trkpt lat="40.519578" lon="49.898589"></trkpt>
      <trkpt lat="40.51877" lon="49.89837"></trkpt>
      <trkpt lat="40.517762" lon="49.897911"></trkpt>
      <trkpt lat="40.516583" lon="49.897059"></trkpt>
      <trkpt lat="40.515475" lon="49.89583"></trkpt>
      <trkpt lat="40.512151" lon="49.890533"></trkpt>
      <trkpt lat="40.51104" lon="49.889205"></trkpt>
      <trkpt lat="40.51031" lon="49.888661"></trkpt>
      <trkpt lat="40.509382" lon="49.888247"></trkpt>
      <trkpt lat="40.508261" lon="49.888063"></trkpt>
      <trkpt lat="40.507518" lon="49.888117"></trkpt>
      <trkpt lat="40.506809" lon="49.888311"></trkpt>
      <trkpt lat="40.506012" lon="49.88871"></trkpt>
      <trkpt lat="40.504808" lon="49.88982"></trkpt>
      <trkpt lat="40.504211" lon="49.890669"></trkpt>
      <trkpt lat="40.503761" lon="49.891571"></trkpt>
      <trkpt lat="40.502872" lon="49.894828"></trkpt>
      <trkpt lat="40.502495" lon="49.895711"></trkpt>
      <trkpt lat="40.501769" lon="49.896916"></trkpt>
      <trkpt lat="40.500422" lon="49.898311"></trkpt>
      <trkpt lat="40.498568" lon="49.899321"></trkpt>
      <trkpt lat="40.49666" lon="49.899927"></trkpt>
      <trkpt lat="40.492703" lon="49.900541"></trkpt>
      <trkpt lat="40.491306" lon="49.900855"></trkpt>
      <trkpt lat="40.488984" lon="49.90159"></trkpt>
      <trkpt lat="40.486065" lon="49.90277"></trkpt>
      <trkpt lat="40.484078" lon="49.903314"></trkpt>
      <trkpt lat="40.482152" lon="49.903534"></trkpt>
      <trkpt lat="40.478824" lon="49.903556"></trkpt>
      <trkpt lat="40.475957" lon="49.903785"></trkpt>
      <trkpt lat="40.470441" lon="49.904803"></trkpt>
      <trkpt lat="40.468086" lon="49.905546"></trkpt>
      <trkpt lat="40.462334" lon="49.907018"></trkpt>
      <trkpt lat="40.46152" lon="49.907144"></trkpt>
      <trkpt lat="40.460061" lon="49.906956"></trkpt>
      <trkpt lat="40.459046" lon="49.906485"></trkpt>
      <trkpt lat="40.458162" lon="49.90579"></trkpt>
      <trkpt lat="40.455934" lon="49.903574"></trkpt>
      <trkpt lat="40.454734" lon="49.902552"></trkpt>
      <trkpt lat="40.453125" lon="49.901464"></trkpt>
      <trkpt lat="40.450976" lon="49.900382"></trkpt>
      <trkpt lat="40.449937" lon="49.899996"></trkpt>
      <trkpt lat="40.431821" lon="49.895316"></trkpt>
      <trkpt lat="40.4313" lon="49.895003"></trkpt>
      <trkpt lat="40.429721" lon="49.89356"></trkpt>
      <trkpt lat="40.428953" lon="49.893295"></trkpt>
      <trkpt lat="40.42814" lon="49.893244"></trkpt>
      <trkpt lat="40.42797" lon="49.892752"></trkpt>
      <trkpt lat="40.427948" lon="49.891726"></trkpt>
      <trkpt lat="40.427835" lon="49.891322"></trkpt>
      <trkpt lat="40.427621" lon="49.891387"></trkpt>
      <trkpt lat="40.427636" lon="49.891867"></trkpt>
      <trkpt lat="40.427299" lon="49.892596"></trkpt>
      <trkpt lat="40.426757" lon="49.893012"></trkpt>
      <trkpt lat="40.420452" lon="49.89495"></trkpt>
      <trkpt lat="40.413735" lon="49.896672"></trkpt>
      <trkpt lat="40.412313" lon="49.897526"></trkpt>
      <trkpt lat="40.404116" lon="49.883874"></trkpt>
      <trkpt lat="40.400049" lon="49.876754"></trkpt>
      <trkpt lat="40.394975" lon="49.86849"></trkpt>
      <trkpt lat="40.394493" lon="49.868109"></trkpt>
      <trkpt lat="40.392626" lon="49.867322"></trkpt>
      <trkpt lat="40.391919" lon="49.866657"></trkpt>
      <trkpt lat="40.390677" lon="49.866782"></trkpt>
      <trkpt lat="40.388994" lon="49.866514"></trkpt>
      <trkpt lat="40.388741" lon="49.866031"></trkpt>
      <trkpt lat="40.388363" lon="49.863633"></trkpt>
      <trkpt lat="40.388112" lon="49.862999"></trkpt>
      <trkpt lat="40.387916" lon="49.862842"></trkpt>
      <trkpt lat="40.387559" lon="49.862823"></trkpt>
      <trkpt lat="40.380644" lon="49.864404"></trkpt>
      <trkpt lat="40.37995" lon="49.859843"></trkpt>
      <trkpt lat="40.378749" lon="49.855156"></trkpt>
      <trkpt lat="40.377523" lon="49.85573"></trkpt>
      <trkpt lat="40.377843" lon="49.856918"></trkpt>
      <trkpt lat="40.378974" lon="49.856482"></trkpt>
      <trkpt lat="40.379073" lon="49.856394"></trkpt>
      <trkpt lat="40.378749" lon="49.855156"></trkpt>
      <trkpt lat="40.375981" lon="49.856446"></trkpt>
      <trkpt lat="40.375425" lon="49.854197"></trkpt>
      <trkpt lat="40.374432" lon="49.851087"></trkpt>
      <trkpt lat="40.37405" lon="49.850423"></trkpt>
      <trkpt lat="40.373283" lon="49.850751"></trkpt>
      <trkpt lat="40.373097" lon="49.850635"></trkpt>
      <trkpt lat="40.370489" lon="49.843251"></trkpt>
      <trkpt lat="40.369969" lon="49.842125"></trkpt>
      <trkpt lat="40.369681" lon="49.841723"></trkpt>
      <trkpt lat="40.369213" lon="49.841846"></trkpt>
      <trkpt lat="40.369078" lon="49.84176"></trkpt>
      <trkpt lat="40.367015" lon="49.838318"></trkpt>
      <trkpt lat="40.36564" lon="49.837929"></trkpt>
      <trkpt lat="40.364116" lon="49.835812"></trkpt>
      <trkpt lat="40.363148" lon="49.83522"></trkpt>
      <trkpt lat="40.362119" lon="49.83522"></trkpt>
      <trkpt lat="40.360843" lon="49.83414"></trkpt>
      <trkpt lat="40.360177" lon="49.833876"></trkpt>
      <trkpt lat="40.359899" lon="49.833933"></trkpt>
      <trkpt lat="40.359121" lon="49.83444"></trkpt>
      <trkpt lat="40.356934" lon="49.834113"></trkpt>
      <trkpt lat="40.354847" lon="49.834238"></trkpt>
      <trkpt lat="40.353197" lon="49.834054"></trkpt>
      <trkpt lat="40.352188" lon="49.83416"></trkpt>
      <trkpt lat="40.351149" lon="49.834793"></trkpt>
      <trkpt lat="40.348613" lon="49.837098"></trkpt>
      <trkpt lat="40.348045" lon="49.837782"></trkpt>
      <trkpt lat="40.346396" lon="49.840304"></trkpt>
      <trkpt lat="40.345604" lon="49.841144"></trkpt>
      <trkpt lat="40.344163" lon="49.842022"></trkpt>
      <trkpt lat="40.34352" lon="49.842271"></trkpt>
      <trkpt lat="40.34294" lon="49.842269"></trkpt>
      <trkpt lat="40.342505" lon="49.842028"></trkpt>
      <trkpt lat="40.342186" lon="49.841643"></trkpt>
      <trkpt lat="40.340741" lon="49.838486"></trkpt>
      <trkpt lat="40.338841" lon="49.835055"></trkpt>
      <trkpt lat="40.3387" lon="49.834412"></trkpt>
      <trkpt lat="40.338514" lon="49.832061"></trkpt>
      <trkpt lat="40.336989" lon="49.827023"></trkpt>
      <trkpt lat="40.336727" lon="49.826691"></trkpt>
      <trkpt lat="40.336407" lon="49.826716"></trkpt>
      <trkpt lat="40.334578" lon="49.828618"></trkpt>
      <trkpt lat="40.334214" lon="49.829216"></trkpt>
      <trkpt lat="40.33398" lon="49.830154"></trkpt>
      <trkpt lat="40.333794" lon="49.830299"></trkpt>
      <trkpt lat="40.331911" lon="49.829081"></trkpt>
      <trkpt lat="40.328685" lon="49.826282"></trkpt>
      <trkpt lat="40.326321" lon="49.824391"></trkpt>
      <trkpt lat="40.323559" lon="49.822648"></trkpt>
      <trkpt lat="40.321073" lon="49.821313"></trkpt>
      <trkpt lat="40.319498" lon="49.820887"></trkpt>
      <trkpt lat="40.313161" lon="49.820376"></trkpt>
      <trkpt lat="40.31025" lon="49.820296"></trkpt>
      <trkpt lat="40.30939" lon="49.820119"></trkpt>
      <trkpt lat="40.307854" lon="49.81958"></trkpt>
      <trkpt lat="40.305017" lon="49.81739"></trkpt>
      <trkpt lat="40.303825" lon="49.816643"></trkpt>
      <trkpt lat="40.3031" lon="49.815835"></trkpt>
      <trkpt lat="40.302541" lon="49.814368"></trkpt>
      <trkpt lat="40.302611" lon="49.813774"></trkpt>
      <trkpt lat="40.303299" lon="49.813027"></trkpt>
      <trkpt lat="40.305054" lon="49.812037"></trkpt>
      <trkpt lat="40.305464" lon="49.8117"></trkpt>
      <trkpt lat="40.305813" lon="49.811214"></trkpt>
      <trkpt lat="40.306122" lon="49.810384"></trkpt>
      <trkpt lat="40.30704" lon="49.804145"></trkpt>
      <trkpt lat="40.30726" lon="49.798862"></trkpt>
      <trkpt lat="40.307175" lon="49.797665"></trkpt>
      <trkpt lat="40.305835" lon="49.792762"></trkpt>
      <trkpt lat="40.305311" lon="49.789775"></trkpt>
      <trkpt lat="40.304923" lon="49.781893"></trkpt>
      <trkpt lat="40.304674" lon="49.779335"></trkpt>
      <trkpt lat="40.302354" lon="49.763914"></trkpt>
      <trkpt lat="40.302452" lon="49.763561"></trkpt>
      <trkpt lat="40.302845" lon="49.763101"></trkpt>
      <trkpt lat="40.302885" lon="49.762589"></trkpt>
      <trkpt lat="40.302736" lon="49.762305"></trkpt>
      <trkpt lat="40.302121" lon="49.761874"></trkpt>
      <trkpt lat="40.29802" lon="49.75599"></trkpt>
      <trkpt lat="40.293514" lon="49.748393"></trkpt>
      <trkpt lat="40.286568" lon="49.735058"></trkpt>
      <trkpt lat="40.285306" lon="49.732126"></trkpt>
      <trkpt lat="40.284328" lon="49.729362"></trkpt>
      <trkpt lat="40.284086" lon="49.727808"></trkpt>
      <trkpt lat="40.284194" lon="49.726166"></trkpt>
      <trkpt lat="40.28679" lon="49.713728"></trkpt>
      <trkpt lat="40.28693" lon="49.712581"></trkpt>
      <trkpt lat="40.286929" lon="49.711378"></trkpt>
      <trkpt lat="40.286075" lon="49.703581"></trkpt>
      <trkpt lat="40.285305" lon="49.699426"></trkpt>
      <trkpt lat="40.284212" lon="49.695621"></trkpt>
      <trkpt lat="40.281775" lon="49.688712"></trkpt>
      <trkpt lat="40.280563" lon="49.685916"></trkpt>
      <trkpt lat="40.278664" lon="49.682697"></trkpt>
      <trkpt lat="40.27192" lon="49.673328"></trkpt>
      <trkpt lat="40.270442" lon="49.671051"></trkpt>
      <trkpt lat="40.266669" lon="49.664225"></trkpt>
      <trkpt lat="40.26571" lon="49.662235"></trkpt>
      <trkpt lat="40.264666" lon="49.659544"></trkpt>
      <trkpt lat="40.263833" lon="49.656983"></trkpt>
      <trkpt lat="40.260345" lon="49.641928"></trkpt>
      <trkpt lat="40.259091" lon="49.637733"></trkpt>
      <trkpt lat="40.246292" lon="49.607555"></trkpt>
      <trkpt lat="40.241221" lon="49.597473"></trkpt>
      <trkpt lat="40.237516" lon="49.590804"></trkpt>
      <trkpt lat="40.227871" lon="49.572018"></trkpt>
      <trkpt lat="40.225327" lon="49.568134"></trkpt>
      <trkpt lat="40.221564" lon="49.563561"></trkpt>
      <trkpt lat="40.220246" lon="49.561652"></trkpt>
      <trkpt lat="40.219067" lon="49.559661"></trkpt>
      <trkpt lat="40.21034" lon="49.541316"></trkpt>
      <trkpt lat="40.201511" lon="49.52077"></trkpt>
      <trkpt lat="40.185733" lon="49.490366"></trkpt>
      <trkpt lat="40.181916" lon="49.481091"></trkpt>
      <trkpt lat="40.180685" lon="49.478503"></trkpt>
      <trkpt lat="40.179753" lon="49.477154"></trkpt>
      <trkpt lat="40.178371" lon="49.475793"></trkpt>
      <trkpt lat="40.174911" lon="49.473033"></trkpt>
      <trkpt lat="40.167097" lon="49.467476"></trkpt>
      <trkpt lat="40.165126" lon="49.465824"></trkpt>
      <trkpt lat="40.162255" lon="49.462655"></trkpt>
      <trkpt lat="40.159296" lon="49.46059"></trkpt>
      <trkpt lat="40.158181" lon="49.45995"></trkpt>
      <trkpt lat="40.155261" lon="49.45858"></trkpt>
      <trkpt lat="40.153892" lon="49.457791"></trkpt>
      <trkpt lat="40.104519" lon="49.4262"></trkpt>
      <trkpt lat="40.091125" lon="49.417827"></trkpt>
      <trkpt lat="40.086771" lon="49.415359"></trkpt>
      <trkpt lat="40.076677" lon="49.41151"></trkpt>
      <trkpt lat="40.076484" lon="49.411326"></trkpt>
      <trkpt lat="40.076576" lon="49.411267"></trkpt>
      <trkpt lat="40.081566" lon="49.413181"></trkpt>
      <trkpt lat="40.083001" lon="49.403109"></trkpt>
      <trkpt lat="40.084893" lon="49.400491"></trkpt>
      <trkpt lat="40.085171" lon="49.399898"></trkpt>
      <trkpt lat="40.087414" lon="49.389283"></trkpt>
      <trkpt lat="40.085444" lon="49.376551"></trkpt>
      <trkpt lat="40.085096" lon="49.375954"></trkpt>
      <trkpt lat="40.083231" lon="49.374744"></trkpt>
      <trkpt lat="40.082757" lon="49.374137"></trkpt>
      <trkpt lat="40.079916" lon="49.365331"></trkpt>
      <trkpt lat="40.078898" lon="49.36194"></trkpt>
      <trkpt lat="40.07885" lon="49.361211"></trkpt>
      <trkpt lat="40.082614" lon="49.344718"></trkpt>
      <trkpt lat="40.092873" lon="49.31957"></trkpt>
      <trkpt lat="40.093359" lon="49.318929"></trkpt>
      <trkpt lat="40.094569" lon="49.318234"></trkpt>
      <trkpt lat="40.095069" lon="49.318145"></trkpt>
      <trkpt lat="40.096464" lon="49.318292"></trkpt>
      <trkpt lat="40.096759" lon="49.318195"></trkpt>
      <trkpt lat="40.097709" lon="49.317384"></trkpt>
      <trkpt lat="40.097977" lon="49.316889"></trkpt>
      <trkpt lat="40.098346" lon="49.315422"></trkpt>
      <trkpt lat="40.098345" lon="49.314882"></trkpt>
      <trkpt lat="40.09758" lon="49.312968"></trkpt>
      <trkpt lat="40.096528" lon="49.311577"></trkpt>
      <trkpt lat="40.095974" lon="49.30877"></trkpt>
      <trkpt lat="40.096048" lon="49.308172"></trkpt>
      <trkpt lat="40.096609" lon="49.307499"></trkpt>
      <trkpt lat="40.110606" lon="49.297282"></trkpt>
      <trkpt lat="40.116611" lon="49.292193"></trkpt>
      <trkpt lat="40.117459" lon="49.291391"></trkpt>
      <trkpt lat="40.130847" lon="49.276831"></trkpt>
      <trkpt lat="40.139527" lon="49.269443"></trkpt>
      <trkpt lat="40.145705" lon="49.293515"></trkpt>
      <trkpt lat="40.146947" lon="49.299705"></trkpt>
      <trkpt lat="40.147801" lon="49.300005"></trkpt>
      <trkpt lat="40.148224" lon="49.300702"></trkpt>
      <trkpt lat="40.151772" lon="49.31171"></trkpt>
      <trkpt lat="40.154648" lon="49.314965"></trkpt>
      <trkpt lat="40.151772" lon="49.31171"></trkpt>
      <trkpt lat="40.148224" lon="49.300702"></trkpt>
      <trkpt lat="40.147801" lon="49.300005"></trkpt>
      <trkpt lat="40.146947" lon="49.299705"></trkpt>
      <trkpt lat="40.145705" lon="49.293515"></trkpt>
      <trkpt lat="40.139527" lon="49.269443"></trkpt>
      <trkpt lat="40.130847" lon="49.276831"></trkpt>
      <trkpt lat="40.117459" lon="49.291391"></trkpt>
      <trkpt lat="40.116611" lon="49.292193"></trkpt>
      <trkpt lat="40.110606" lon="49.297282"></trkpt>
      <trkpt lat="40.096255" lon="49.307818"></trkpt>
      <trkpt lat="40.09599" lon="49.308351"></trkpt>
      <trkpt lat="40.095974" lon="49.30877"></trkpt>
      <trkpt lat="40.096528" lon="49.311577"></trkpt>
      <trkpt lat="40.09758" lon="49.312968"></trkpt>
      <trkpt lat="40.098345" lon="49.314882"></trkpt>
      <trkpt lat="40.098346" lon="49.315422"></trkpt>
      <trkpt lat="40.097977" lon="49.316889"></trkpt>
      <trkpt lat="40.097709" lon="49.317384"></trkpt>
      <trkpt lat="40.096759" lon="49.318195"></trkpt>
      <trkpt lat="40.096464" lon="49.318292"></trkpt>
      <trkpt lat="40.095069" lon="49.318145"></trkpt>
      <trkpt lat="40.094569" lon="49.318234"></trkpt>
      <trkpt lat="40.093359" lon="49.318929"></trkpt>
      <trkpt lat="40.092873" lon="49.31957"></trkpt>
      <trkpt lat="40.082614" lon="49.344718"></trkpt>
      <trkpt lat="40.07885" lon="49.361211"></trkpt>
      <trkpt lat="40.078898" lon="49.36194"></trkpt>
      <trkpt lat="40.079916" lon="49.365331"></trkpt>
      <trkpt lat="40.082757" lon="49.374137"></trkpt>
      <trkpt lat="40.083231" lon="49.374744"></trkpt>
      <trkpt lat="40.085096" lon="49.375954"></trkpt>
      <trkpt lat="40.085444" lon="49.376551"></trkpt>
      <trkpt lat="40.087383" lon="49.388863"></trkpt>
      <trkpt lat="40.087347" lon="49.389845"></trkpt>
      <trkpt lat="40.085223" lon="49.399718"></trkpt>
      <trkpt lat="40.084997" lon="49.400319"></trkpt>
      <trkpt lat="40.081727" lon="49.404855"></trkpt>
      <trkpt lat="40.080734" lon="49.405777"></trkpt>
      <trkpt lat="40.079362" lon="49.406432"></trkpt>
      <trkpt lat="40.074391" lon="49.407069"></trkpt>
      <trkpt lat="40.074327" lon="49.407297"></trkpt>
      <trkpt lat="40.0745" lon="49.407988"></trkpt>
      <trkpt lat="40.074557" lon="49.412362"></trkpt>
      <trkpt lat="40.074721" lon="49.412578"></trkpt>
      <trkpt lat="40.074972" lon="49.412638"></trkpt>
      <trkpt lat="40.076205" lon="49.411757"></trkpt>
      <trkpt lat="40.076611" lon="49.411698"></trkpt>
      <trkpt lat="40.076988" lon="49.411824"></trkpt>
      <trkpt lat="40.086715" lon="49.415552"></trkpt>
      <trkpt lat="40.092549" lon="49.418906"></trkpt>
      <trkpt lat="40.144965" lon="49.452256"></trkpt>
      <trkpt lat="40.154333" lon="49.45836"></trkpt>
      <trkpt lat="40.155639" lon="49.459406"></trkpt>
      <trkpt lat="40.159772" lon="49.463228"></trkpt>
      <trkpt lat="40.179468" lon="49.477486"></trkpt>
      <trkpt lat="40.180026" lon="49.478034"></trkpt>
      <trkpt lat="40.180611" lon="49.478835"></trkpt>
      <trkpt lat="40.183072" lon="49.484313"></trkpt>
      <trkpt lat="40.185585" lon="49.490456"></trkpt>
      <trkpt lat="40.201392" lon="49.520901"></trkpt>
      <trkpt lat="40.210221" lon="49.541383"></trkpt>
      <trkpt lat="40.218507" lon="49.558915"></trkpt>
      <trkpt lat="40.219511" lon="49.560775"></trkpt>
      <trkpt lat="40.220686" lon="49.562608"></trkpt>
      <trkpt lat="40.221588" lon="49.56387"></trkpt>
      <trkpt lat="40.225575" lon="49.56876"></trkpt>
      <trkpt lat="40.227519" lon="49.571721"></trkpt>
      <trkpt lat="40.237376" lon="49.590899"></trkpt>
      <trkpt lat="40.24106" lon="49.597502"></trkpt>
      <trkpt lat="40.246139" lon="49.607673"></trkpt>
      <trkpt lat="40.258937" lon="49.6378"></trkpt>
      <trkpt lat="40.260194" lon="49.641997"></trkpt>
      <trkpt lat="40.263665" lon="49.657061"></trkpt>
      <trkpt lat="40.264247" lon="49.658898"></trkpt>
      <trkpt lat="40.265549" lon="49.662314"></trkpt>
      <trkpt lat="40.266531" lon="49.664345"></trkpt>
      <trkpt lat="40.270297" lon="49.671162"></trkpt>
      <trkpt lat="40.271791" lon="49.673449"></trkpt>
      <trkpt lat="40.278859" lon="49.683324"></trkpt>
      <trkpt lat="40.280426" lon="49.686012"></trkpt>
      <trkpt lat="40.281647" lon="49.688776"></trkpt>
      <trkpt lat="40.284306" lon="49.696333"></trkpt>
      <trkpt lat="40.28518" lon="49.699472"></trkpt>
      <trkpt lat="40.285951" lon="49.703624"></trkpt>
      <trkpt lat="40.286805" lon="49.711403"></trkpt>
      <trkpt lat="40.286663" lon="49.71369"></trkpt>
      <trkpt lat="40.285805" lon="49.717271"></trkpt>
      <trkpt lat="40.28398" lon="49.726607"></trkpt>
      <trkpt lat="40.283964" lon="49.728354"></trkpt>
      <trkpt lat="40.284259" lon="49.729714"></trkpt>
      <trkpt lat="40.285614" lon="49.733277"></trkpt>
      <trkpt lat="40.288228" lon="49.738722"></trkpt>
      <trkpt lat="40.293365" lon="49.74852"></trkpt>
      <trkpt lat="40.297891" lon="49.756103"></trkpt>
      <trkpt lat="40.29927" lon="49.758826"></trkpt>
      <trkpt lat="40.300607" lon="49.760947"></trkpt>
      <trkpt lat="40.301867" lon="49.762662"></trkpt>
      <trkpt lat="40.30248" lon="49.76514"></trkpt>
      <trkpt lat="40.304275" lon="49.777438"></trkpt>
      <trkpt lat="40.304782" lon="49.781692"></trkpt>
      <trkpt lat="40.305212" lon="49.789878"></trkpt>
      <trkpt lat="40.305715" lon="49.79277"></trkpt>
      <trkpt lat="40.307058" lon="49.797654"></trkpt>
      <trkpt lat="40.307147" lon="49.7992"></trkpt>
      <trkpt lat="40.306918" lon="49.804122"></trkpt>
      <trkpt lat="40.305997" lon="49.810314"></trkpt>
      <trkpt lat="40.305636" lon="49.811219"></trkpt>
      <trkpt lat="40.305315" lon="49.81162"></trkpt>
      <trkpt lat="40.303233" lon="49.812878"></trkpt>
      <trkpt lat="40.302512" lon="49.813631"></trkpt>
      <trkpt lat="40.302393" lon="49.814005"></trkpt>
      <trkpt lat="40.302424" lon="49.814427"></trkpt>
      <trkpt lat="40.302919" lon="49.815755"></trkpt>
      <trkpt lat="40.303282" lon="49.816295"></trkpt>
      <trkpt lat="40.303779" lon="49.81677"></trkpt>
      <trkpt lat="40.304968" lon="49.817509"></trkpt>
      <trkpt lat="40.308047" lon="49.819838"></trkpt>
      <trkpt lat="40.31013" lon="49.820356"></trkpt>
      <trkpt lat="40.313168" lon="49.820462"></trkpt>
      <trkpt lat="40.319486" lon="49.821004"></trkpt>
      <trkpt lat="40.320472" lon="49.821226"></trkpt>
      <trkpt lat="40.322702" lon="49.822287"></trkpt>
      <trkpt lat="40.326286" lon="49.824484"></trkpt>
      <trkpt lat="40.328648" lon="49.826366"></trkpt>
      <trkpt lat="40.331875" lon="49.829179"></trkpt>
      <trkpt lat="40.333429" lon="49.830213"></trkpt>
      <trkpt lat="40.33558" lon="49.83125"></trkpt>
      <trkpt lat="40.336424" lon="49.832004"></trkpt>
      <trkpt lat="40.338128" lon="49.834254"></trkpt>
      <trkpt lat="40.340073" lon="49.837629"></trkpt>
      <trkpt lat="40.342045" lon="49.841894"></trkpt>
      <trkpt lat="40.342465" lon="49.842434"></trkpt>
      <trkpt lat="40.342957" lon="49.842764"></trkpt>
      <trkpt lat="40.343451" lon="49.842844"></trkpt>
      <trkpt lat="40.343956" lon="49.842673"></trkpt>
      <trkpt lat="40.344786" lon="49.842197"></trkpt>
      <trkpt lat="40.345786" lon="49.841334"></trkpt>
      <trkpt lat="40.346524" lon="49.840475"></trkpt>
      <trkpt lat="40.34866" lon="49.837343"></trkpt>
      <trkpt lat="40.349199" lon="49.836807"></trkpt>
      <trkpt lat="40.352139" lon="49.834624"></trkpt>
      <trkpt lat="40.352874" lon="49.834447"></trkpt>
      <trkpt lat="40.354851" lon="49.834544"></trkpt>
      <trkpt lat="40.357092" lon="49.834266"></trkpt>
      <trkpt lat="40.35917" lon="49.83456"></trkpt>
      <trkpt lat="40.359841" lon="49.834128"></trkpt>
      <trkpt lat="40.360259" lon="49.834033"></trkpt>
      <trkpt lat="40.360805" lon="49.834246"></trkpt>
      <trkpt lat="40.362397" lon="49.83569"></trkpt>
      <trkpt lat="40.362592" lon="49.83572"></trkpt>
      <trkpt lat="40.363033" lon="49.835422"></trkpt>
      <trkpt lat="40.363315" lon="49.835417"></trkpt>
      <trkpt lat="40.36417" lon="49.836023"></trkpt>
      <trkpt lat="40.365599" lon="49.838041"></trkpt>
      <trkpt lat="40.366999" lon="49.838465"></trkpt>
      <trkpt lat="40.368911" lon="49.841731"></trkpt>
      <trkpt lat="40.37394" lon="49.857112"></trkpt>
      <trkpt lat="40.374474" lon="49.859441"></trkpt>
      <trkpt lat="40.374848" lon="49.861779"></trkpt>
      <trkpt lat="40.376374" lon="49.864978"></trkpt>
      <trkpt lat="40.376723" lon="49.86548"></trkpt>
      <trkpt lat="40.377042" lon="49.865544"></trkpt>
      <trkpt lat="40.37785" lon="49.865267"></trkpt>
      <trkpt lat="40.387315" lon="49.863229"></trkpt>
      <trkpt lat="40.387777" lon="49.863473"></trkpt>
      <trkpt lat="40.388124" lon="49.863963"></trkpt>
      <trkpt lat="40.388492" lon="49.866078"></trkpt>
      <trkpt lat="40.388834" lon="49.866662"></trkpt>
      <trkpt lat="40.389204" lon="49.866817"></trkpt>
      <trkpt lat="40.390673" lon="49.866964"></trkpt>
      <trkpt lat="40.39432" lon="49.868374"></trkpt>
      <trkpt lat="40.394734" lon="49.868643"></trkpt>
      <trkpt lat="40.395138" lon="49.869124"></trkpt>
      <trkpt lat="40.401001" lon="49.878831"></trkpt>
      <trkpt lat="40.403836" lon="49.883852"></trkpt>
      <trkpt lat="40.411229" lon="49.896082"></trkpt>
      <trkpt lat="40.421742" lon="49.918439"></trkpt>
      <trkpt lat="40.422369" lon="49.919179"></trkpt>
      <trkpt lat="40.436597" lon="49.931589"></trkpt>
      <trkpt lat="40.437589" lon="49.932763"></trkpt>
      <trkpt lat="40.438122" lon="49.933635"></trkpt>
      <trkpt lat="40.438632" lon="49.934762"></trkpt>
      <trkpt lat="40.439104" lon="49.936229"></trkpt>
      <trkpt lat="40.43982" lon="49.940683"></trkpt>
      <trkpt lat="40.439989" lon="49.943166"></trkpt>
      <trkpt lat="40.439181" lon="49.959344"></trkpt>
      <trkpt lat="40.439338" lon="49.961186"></trkpt>
      <trkpt lat="40.440265" lon="49.965713"></trkpt>
      <trkpt lat="40.440407" lon="49.967644"></trkpt>
      <trkpt lat="40.440275" lon="49.969436"></trkpt>
      <trkpt lat="40.440078" lon="49.970435"></trkpt>
      <trkpt lat="40.438547" lon="49.975802"></trkpt>
      <trkpt lat="40.438349" lon="49.977529"></trkpt>
      <trkpt lat="40.438376" lon="49.979353"></trkpt>
      <trkpt lat="40.438529" lon="49.98054"></trkpt>
      <trkpt lat="40.438953" lon="49.982213"></trkpt>
      <trkpt lat="40.441014" lon="49.987602"></trkpt>
      <trkpt lat="40.442952" lon="49.99435"></trkpt>
      <trkpt lat="40.443289" lon="49.995928"></trkpt>
      <trkpt lat="40.443723" lon="49.998971"></trkpt>
      <trkpt lat="40.44388" lon="50.001151"></trkpt>
      <trkpt lat="40.443753" lon="50.002805"></trkpt>
      <trkpt lat="40.44327" lon="50.004817"></trkpt>
      <trkpt lat="40.436463" lon="50.021716"></trkpt>
      <trkpt lat="40.435803" lon="50.023859"></trkpt>
      <trkpt lat="40.435514" lon="50.025569"></trkpt>
      <trkpt lat="40.435487" lon="50.028074"></trkpt>
      <trkpt lat="40.43575" lon="50.029828"></trkpt>
      <trkpt lat="40.436311" lon="50.031771"></trkpt>
      <trkpt lat="40.43913" lon="50.038212"></trkpt>
      <trkpt lat="40.447552" lon="50.054108"></trkpt>
      <trkpt lat="40.447815" lon="50.054938"></trkpt>
      <trkpt lat="40.447703" lon="50.05556"></trkpt>
      <trkpt lat="40.447564" lon="50.055703"></trkpt>
      <trkpt lat="40.447299" lon="50.05575"></trkpt>
      <trkpt lat="40.446591" lon="50.055483"></trkpt>
      <trkpt lat="40.446234" lon="50.055101"></trkpt>
      <trkpt lat="40.44619" lon="50.054613"></trkpt>
      <trkpt lat="40.446463" lon="50.054199"></trkpt>
      <trkpt lat="40.446956" lon="50.053899"></trkpt>
      <trkpt lat="40.449057" lon="50.053348"></trkpt>
      <trkpt lat="40.451911" lon="50.052908"></trkpt>
      <trkpt lat="40.462692" lon="50.05251"></trkpt>
      <trkpt lat="40.464118" lon="50.053828"></trkpt>
      <trkpt lat="40.464875" lon="50.053647"></trkpt>
      <trkpt lat="40.464884" lon="50.053224"></trkpt>
  </trkseg></trk>
</gpx>
