<?xml version="1.0" encoding="UTF-8"?>
<gpx version="1.1" creator="yatutbuv" xmlns="http://www.topografix.com/GPX/1/1">
  <trk><name>GraphHopper Track</name><trkseg>
      <trkpt lat="45.977698" lon="8.876553"></trkpt>
      <trkpt lat="45.977531" lon="8.876485"></trkpt>
      <trkpt lat="45.977273" lon="8.876033"></trkpt>
      <trkpt lat="45.973401" lon="8.880353"></trkpt>
      <trkpt lat="45.977533" lon="8.875663"></trkpt>
      <trkpt lat="45.978138" lon="8.876279"></trkpt>
      <trkpt lat="45.981362" lon="8.878607"></trkpt>
      <trkpt lat="45.981406" lon="8.878833"></trkpt>
      <trkpt lat="45.981582" lon="8.878803"></trkpt>
      <trkpt lat="45.982161" lon="8.879537"></trkpt>
      <trkpt lat="45.982506" lon="8.88046"></trkpt>
      <trkpt lat="45.983366" lon="8.888187"></trkpt>
      <trkpt lat="45.983624" lon="8.888851"></trkpt>
      <trkpt lat="45.986436" lon="8.891791"></trkpt>
      <trkpt lat="45.988497" lon="8.893148"></trkpt>
      <trkpt lat="45.989686" lon="8.894585"></trkpt>
      <trkpt lat="45.991869" lon="8.896367"></trkpt>
      <trkpt lat="45.992514" lon="8.896698"></trkpt>
      <trkpt lat="45.993243" lon="8.897567"></trkpt>
      <trkpt lat="45.99463" lon="8.898245"></trkpt>
      <trkpt lat="45.995792" lon="8.899078"></trkpt>
      <trkpt lat="45.996982" lon="8.899444"></trkpt>
      <trkpt lat="45.997958" lon="8.901365"></trkpt>
      <trkpt lat="45.998138" lon="8.901876"></trkpt>
      <trkpt lat="45.998153" lon="8.902368"></trkpt>
      <trkpt lat="45.997848" lon="8.905601"></trkpt>
      <trkpt lat="45.997704" lon="8.905812"></trkpt>
      <trkpt lat="45.997792" lon="8.90602"></trkpt>
      <trkpt lat="45.997347" lon="8.910768"></trkpt>
      <trkpt lat="45.997458" lon="8.912118"></trkpt>
      <trkpt lat="45.997746" lon="8.913361"></trkpt>
      <trkpt lat="45.99768" lon="8.914254"></trkpt>
      <trkpt lat="45.997411" lon="8.914894"></trkpt>
      <trkpt lat="45.996857" lon="8.915405"></trkpt>
      <trkpt lat="45.995234" lon="8.915538"></trkpt>
      <trkpt lat="45.994313" lon="8.915959"></trkpt>
      <trkpt lat="45.993593" lon="8.916931"></trkpt>
      <trkpt lat="45.993311" lon="8.917873"></trkpt>
      <trkpt lat="45.993258" lon="8.918978"></trkpt>
      <trkpt lat="45.993383" lon="8.920928"></trkpt>
      <trkpt lat="45.993007" lon="8.923871"></trkpt>
      <trkpt lat="45.992907" lon="8.924025"></trkpt>
      <trkpt lat="45.99303" lon="8.924142"></trkpt>
      <trkpt lat="45.99325" lon="8.925081"></trkpt>
      <trkpt lat="45.993938" lon="8.928731"></trkpt>
      <trkpt lat="45.994389" lon="8.929764"></trkpt>
      <trkpt lat="45.995235" lon="8.930625"></trkpt>
      <trkpt lat="45.995612" lon="8.931191"></trkpt>
      <trkpt lat="45.99647" lon="8.933463"></trkpt>
      <trkpt lat="45.996631" lon="8.934098"></trkpt>
      <trkpt lat="45.996752" lon="8.936101"></trkpt>
      <trkpt lat="45.997137" lon="8.937787"></trkpt>
      <trkpt lat="45.997361" lon="8.938281"></trkpt>
      <trkpt lat="45.999974" lon="8.940335"></trkpt>
      <trkpt lat="46.000344" lon="8.940225"></trkpt>
      <trkpt lat="46.00095" lon="8.939475"></trkpt>
      <trkpt lat="46.001212" lon="8.93952"></trkpt>
      <trkpt lat="46.001754" lon="8.94148"></trkpt>
      <trkpt lat="46.002277" lon="8.942149"></trkpt>
      <trkpt lat="46.00255" lon="8.942132"></trkpt>
      <trkpt lat="46.002889" lon="8.941625"></trkpt>
      <trkpt lat="46.003204" lon="8.9414"></trkpt>
      <trkpt lat="46.003902" lon="8.941576"></trkpt>
      <trkpt lat="46.004405" lon="8.941914"></trkpt>
      <trkpt lat="46.004897" lon="8.942625"></trkpt>
      <trkpt lat="46.005039" lon="8.943712"></trkpt>
      <trkpt lat="46.005585" lon="8.944713"></trkpt>
      <trkpt lat="46.005696" lon="8.945639"></trkpt>
      <trkpt lat="46.005951" lon="8.945592"></trkpt>
      <trkpt lat="46.006019" lon="8.945222"></trkpt>
      <trkpt lat="46.00659" lon="8.945135"></trkpt>
      <trkpt lat="46.006782" lon="8.945253"></trkpt>
      <trkpt lat="46.007225" lon="8.947084"></trkpt>
      <trkpt lat="46.007938" lon="8.947756"></trkpt>
      <trkpt lat="46.008112" lon="8.948554"></trkpt>
      <trkpt lat="46.008941" lon="8.949789"></trkpt>
      <trkpt lat="46.009569" lon="8.950106"></trkpt>
      <trkpt lat="46.009808" lon="8.950342"></trkpt>
      <trkpt lat="46.009753" lon="8.950452"></trkpt>
      <trkpt lat="46.009455" lon="8.95036"></trkpt>
      <trkpt lat="46.008846" lon="8.950554"></trkpt>
      <trkpt lat="46.007051" lon="8.949891"></trkpt>
      <trkpt lat="46.006644" lon="8.950228"></trkpt>
      <trkpt lat="46.006363" lon="8.950651"></trkpt>
      <trkpt lat="46.005774" lon="8.953619"></trkpt>
      <trkpt lat="46.006931" lon="8.954002"></trkpt>
      <trkpt lat="46.006661" lon="8.95563"></trkpt>
      <trkpt lat="46.005584" lon="8.955574"></trkpt>
      <trkpt lat="46.005816" lon="8.96054"></trkpt>
      <trkpt lat="46.006247" lon="8.964778"></trkpt>
      <trkpt lat="46.005776" lon="8.966672"></trkpt>
      <trkpt lat="46.005632" lon="8.96835"></trkpt>
      <trkpt lat="46.005291" lon="8.970319"></trkpt>
      <trkpt lat="46.005112" lon="8.970528"></trkpt>
      <trkpt lat="46.004391" lon="8.970849"></trkpt>
      <trkpt lat="46.003871" lon="8.971255"></trkpt>
      <trkpt lat="46.003025" lon="8.971352"></trkpt>
      <trkpt lat="46.002912" lon="8.971691"></trkpt>
      <trkpt lat="46.003027" lon="8.972697"></trkpt>
      <trkpt lat="46.002905" lon="8.973065"></trkpt>
      <trkpt lat="46.002698" lon="8.973262"></trkpt>
      <trkpt lat="46.001999" lon="8.973524"></trkpt>
      <trkpt lat="46.00126" lon="8.974782"></trkpt>
      <trkpt lat="46.001101" lon="8.976984"></trkpt>
      <trkpt lat="46.001189" lon="8.977145"></trkpt>
      <trkpt lat="46.001294" lon="8.977025"></trkpt>
      <trkpt lat="46.001541" lon="8.975584"></trkpt>
      <trkpt lat="46.001694" lon="8.975278"></trkpt>
      <trkpt lat="46.001814" lon="8.975414"></trkpt>
      <trkpt lat="46.001604" lon="8.975888"></trkpt>
      <trkpt lat="46.001755" lon="8.97881"></trkpt>
      <trkpt lat="46.001524" lon="8.979809"></trkpt>
      <trkpt lat="46.001854" lon="8.982355"></trkpt>
      <trkpt lat="46.001809" lon="8.983584"></trkpt>
      <trkpt lat="46.00197" lon="8.984029"></trkpt>
      <trkpt lat="46.002431" lon="8.984715"></trkpt>
      <trkpt lat="46.00276" lon="8.985884"></trkpt>
      <trkpt lat="46.00314" lon="8.98675"></trkpt>
      <trkpt lat="46.003808" lon="8.989738"></trkpt>
      <trkpt lat="46.004764" lon="8.991126"></trkpt>
      <trkpt lat="46.005073" lon="8.993752"></trkpt>
      <trkpt lat="46.0049" lon="8.995071"></trkpt>
      <trkpt lat="46.004997" lon="8.997092"></trkpt>
      <trkpt lat="46.005426" lon="8.998725"></trkpt>
      <trkpt lat="46.005436" lon="9.000218"></trkpt>
      <trkpt lat="46.005915" lon="9.001625"></trkpt>
      <trkpt lat="46.006328" lon="9.003606"></trkpt>
      <trkpt lat="46.007219" lon="9.005159"></trkpt>
      <trkpt lat="46.007917" lon="9.007284"></trkpt>
      <trkpt lat="46.009998" lon="9.010464"></trkpt>
      <trkpt lat="46.011933" lon="9.013093"></trkpt>
      <trkpt lat="46.012781" lon="9.014421"></trkpt>
      <trkpt lat="46.013586" lon="9.016457"></trkpt>
      <trkpt lat="46.016314" lon="9.021707"></trkpt>
      <trkpt lat="46.01772" lon="9.02378"></trkpt>
      <trkpt lat="46.018509" lon="9.02459"></trkpt>
      <trkpt lat="46.020824" lon="9.029594"></trkpt>
      <trkpt lat="46.025312" lon="9.036014"></trkpt>
      <trkpt lat="46.026186" lon="9.037816"></trkpt>
      <trkpt lat="46.026584" lon="9.038948"></trkpt>
      <trkpt lat="46.026964" lon="9.041367"></trkpt>
      <trkpt lat="46.027005" lon="9.042896"></trkpt>
      <trkpt lat="46.026977" lon="9.062058"></trkpt>
      <trkpt lat="46.026782" lon="9.063195"></trkpt>
      <trkpt lat="46.026398" lon="9.064212"></trkpt>
      <trkpt lat="46.025982" lon="9.064914"></trkpt>
      <trkpt lat="46.024287" lon="9.066734"></trkpt>
      <trkpt lat="46.023804" lon="9.068091"></trkpt>
      <trkpt lat="46.023855" lon="9.068825"></trkpt>
      <trkpt lat="46.024127" lon="9.069598"></trkpt>
      <trkpt lat="46.024297" lon="9.071889"></trkpt>
      <trkpt lat="46.024509" lon="9.07264"></trkpt>
      <trkpt lat="46.024466" lon="9.074108"></trkpt>
      <trkpt lat="46.024301" lon="9.07515"></trkpt>
      <trkpt lat="46.024403" lon="9.078632"></trkpt>
      <trkpt lat="46.023918" lon="9.081052"></trkpt>
      <trkpt lat="46.024338" lon="9.083446"></trkpt>
      <trkpt lat="46.024041" lon="9.088762"></trkpt>
      <trkpt lat="46.024233" lon="9.08974"></trkpt>
      <trkpt lat="46.024602" lon="9.090623"></trkpt>
      <trkpt lat="46.02479" lon="9.092574"></trkpt>
      <trkpt lat="46.025499" lon="9.09389"></trkpt>
      <trkpt lat="46.025784" lon="9.095044"></trkpt>
      <trkpt lat="46.026533" lon="9.096479"></trkpt>
      <trkpt lat="46.026786" lon="9.097522"></trkpt>
      <trkpt lat="46.027065" lon="9.097978"></trkpt>
      <trkpt lat="46.029732" lon="9.101038"></trkpt>
      <trkpt lat="46.031483" lon="9.104018"></trkpt>
      <trkpt lat="46.032262" lon="9.10493"></trkpt>
      <trkpt lat="46.033655" lon="9.106192"></trkpt>
      <trkpt lat="46.034446" lon="9.107365"></trkpt>
      <trkpt lat="46.036435" lon="9.112123"></trkpt>
      <trkpt lat="46.036653" lon="9.11291"></trkpt>
      <trkpt lat="46.036764" lon="9.113909"></trkpt>
      <trkpt lat="46.036709" lon="9.115614"></trkpt>
      <trkpt lat="46.036363" lon="9.11649"></trkpt>
      <trkpt lat="46.035149" lon="9.118147"></trkpt>
      <trkpt lat="46.036172" lon="9.120889"></trkpt>
      <trkpt lat="46.037089" lon="9.122803"></trkpt>
      <trkpt lat="46.037112" lon="9.123655"></trkpt>
      <trkpt lat="46.037493" lon="9.125475"></trkpt>
      <trkpt lat="46.037543" lon="9.128366"></trkpt>
      <trkpt lat="46.037807" lon="9.13214"></trkpt>
      <trkpt lat="46.040322" lon="9.138975"></trkpt>
      <trkpt lat="46.0404" lon="9.139594"></trkpt>
      <trkpt lat="46.040396" lon="9.144832"></trkpt>
      <trkpt lat="46.041638" lon="9.150106"></trkpt>
      <trkpt lat="46.041815" lon="9.150227"></trkpt>
      <trkpt lat="46.042467" lon="9.151668"></trkpt>
      <trkpt lat="46.042821" lon="9.152859"></trkpt>
      <trkpt lat="46.042918" lon="9.159"></trkpt>
      <trkpt lat="46.042785" lon="9.162491"></trkpt>
      <trkpt lat="46.042195" lon="9.164609"></trkpt>
      <trkpt lat="46.041999" lon="9.169172"></trkpt>
      <trkpt lat="46.041756" lon="9.170076"></trkpt>
      <trkpt lat="46.041451" lon="9.172437"></trkpt>
      <trkpt lat="46.040879" lon="9.173681"></trkpt>
      <trkpt lat="46.040695" lon="9.173746"></trkpt>
      <trkpt lat="46.04019" lon="9.173535"></trkpt>
      <trkpt lat="46.039922" lon="9.173939"></trkpt>
      <trkpt lat="46.039508" lon="9.175248"></trkpt>
      <trkpt lat="46.039155" lon="9.177207"></trkpt>
      <trkpt lat="46.038578" lon="9.178163"></trkpt>
      <trkpt lat="46.038207" lon="9.178523"></trkpt>
      <trkpt lat="46.037353" lon="9.182003"></trkpt>
      <trkpt lat="46.036353" lon="9.184129"></trkpt>
      <trkpt lat="46.035999" lon="9.185688"></trkpt>
      <trkpt lat="46.035083" lon="9.186996"></trkpt>
      <trkpt lat="46.033705" lon="9.188658"></trkpt>
      <trkpt lat="46.029526" lon="9.196797"></trkpt>
      <trkpt lat="46.028244" lon="9.2007"></trkpt>
      <trkpt lat="46.027647" lon="9.203161"></trkpt>
      <trkpt lat="46.026393" lon="9.206254"></trkpt>
      <trkpt lat="46.02488" lon="9.208749"></trkpt>
      <trkpt lat="46.024705" lon="9.210221"></trkpt>
      <trkpt lat="46.024216" lon="9.212195"></trkpt>
      <trkpt lat="46.022416" lon="9.214897"></trkpt>
      <trkpt lat="46.022115" lon="9.215751"></trkpt>
      <trkpt lat="46.020899" lon="9.217678"></trkpt>
      <trkpt lat="46.019625" lon="9.221522"></trkpt>
      <trkpt lat="46.019115" lon="9.222566"></trkpt>
      <trkpt lat="46.018699" lon="9.223871"></trkpt>
      <trkpt lat="46.018745" lon="9.225228"></trkpt>
      <trkpt lat="46.019146" lon="9.226239"></trkpt>
      <trkpt lat="46.019934" lon="9.226763"></trkpt>
      <trkpt lat="46.020098" lon="9.227564"></trkpt>
      <trkpt lat="46.020698" lon="9.228325"></trkpt>
      <trkpt lat="46.021021" lon="9.228457"></trkpt>
      <trkpt lat="46.021389" lon="9.228448"></trkpt>
      <trkpt lat="46.021452" lon="9.228551"></trkpt>
      <trkpt lat="46.021362" lon="9.228722"></trkpt>
      <trkpt lat="46.020775" lon="9.228915"></trkpt>
      <trkpt lat="46.019493" lon="9.228299"></trkpt>
      <trkpt lat="46.019047" lon="9.22912"></trkpt>
      <trkpt lat="46.018688" lon="9.229398"></trkpt>
      <trkpt lat="46.018692" lon="9.229568"></trkpt>
      <trkpt lat="46.019456" lon="9.229343"></trkpt>
      <trkpt lat="46.019977" lon="9.230222"></trkpt>
      <trkpt lat="46.020713" lon="9.230556"></trkpt>
      <trkpt lat="46.021199" lon="9.230442"></trkpt>
      <trkpt lat="46.021203" lon="9.230673"></trkpt>
      <trkpt lat="46.020527" lon="9.231002"></trkpt>
      <trkpt lat="46.020175" lon="9.230954"></trkpt>
      <trkpt lat="46.020147" lon="9.231165"></trkpt>
      <trkpt lat="46.021735" lon="9.231077"></trkpt>
      <trkpt lat="46.021999" lon="9.231171"></trkpt>
      <trkpt lat="46.022368" lon="9.231511"></trkpt>
      <trkpt lat="46.022497" lon="9.232174"></trkpt>
      <trkpt lat="46.022024" lon="9.232913"></trkpt>
      <trkpt lat="46.021619" lon="9.23407"></trkpt>
      <trkpt lat="46.020906" lon="9.234796"></trkpt>
      <trkpt lat="46.021118" lon="9.235902"></trkpt>
      <trkpt lat="46.021034" lon="9.236132"></trkpt>
      <trkpt lat="46.020414" lon="9.236014"></trkpt>
      <trkpt lat="46.018959" lon="9.235304"></trkpt>
      <trkpt lat="46.018117" lon="9.235098"></trkpt>
      <trkpt lat="46.018042" lon="9.23522"></trkpt>
      <trkpt lat="46.018867" lon="9.235631"></trkpt>
      <trkpt lat="46.019903" lon="9.236972"></trkpt>
      <trkpt lat="46.019827" lon="9.237119"></trkpt>
      <trkpt lat="46.018801" lon="9.236539"></trkpt>
      <trkpt lat="46.019333" lon="9.237617"></trkpt>
      <trkpt lat="46.021373" lon="9.23881"></trkpt>
      <trkpt lat="46.021697" lon="9.238868"></trkpt>
  </trkseg></trk>
</gpx>
