<?xml version="1.0" encoding="UTF-8"?>
<gpx version="1.1" creator="yatutbuv" xmlns="http://www.topografix.com/GPX/1/1">
  <trk><name>GraphHopper Track</name><trkseg>
      <trkpt lat="48.844187" lon="2.372898"></trkpt>
      <trkpt lat="48.844498" lon="2.372231"></trkpt>
      <trkpt lat="48.845565" lon="2.371204"></trkpt>
      <trkpt lat="48.84527" lon="2.368354"></trkpt>
      <trkpt lat="48.847472" lon="2.36553"></trkpt>
      <trkpt lat="48.847248" lon="2.36521"></trkpt>
      <trkpt lat="48.846683" lon="2.365434"></trkpt>
      <trkpt lat="48.845493" lon="2.366699"></trkpt>
      <trkpt lat="48.844306" lon="2.368405"></trkpt>
      <trkpt lat="48.843864" lon="2.369616"></trkpt>
      <trkpt lat="48.842398" lon="2.371597"></trkpt>
      <trkpt lat="48.837965" lon="2.376765"></trkpt>
      <trkpt lat="48.837139" lon="2.377568"></trkpt>
      <trkpt lat="48.830286" lon="2.386411"></trkpt>
      <trkpt lat="48.828702" lon="2.387587"></trkpt>
      <trkpt lat="48.828259" lon="2.388078"></trkpt>
      <trkpt lat="48.827853" lon="2.388881"></trkpt>
      <trkpt lat="48.827671" lon="2.390003"></trkpt>
      <trkpt lat="48.827476" lon="2.390188"></trkpt>
      <trkpt lat="48.827213" lon="2.390177"></trkpt>
      <trkpt lat="48.826883" lon="2.389736"></trkpt>
      <trkpt lat="48.825606" lon="2.386002"></trkpt>
      <trkpt lat="48.824874" lon="2.384319"></trkpt>
      <trkpt lat="48.82133" lon="2.378221"></trkpt>
      <trkpt lat="48.817415" lon="2.36629"></trkpt>
      <trkpt lat="48.81648" lon="2.364169"></trkpt>
      <trkpt lat="48.81621" lon="2.362417"></trkpt>
      <trkpt lat="48.816488" lon="2.357611"></trkpt>
      <trkpt lat="48.816283" lon="2.356916"></trkpt>
      <trkpt lat="48.813434" lon="2.354469"></trkpt>
      <trkpt lat="48.811546" lon="2.351163"></trkpt>
      <trkpt lat="48.810682" lon="2.349991"></trkpt>
      <trkpt lat="48.809592" lon="2.349045"></trkpt>
      <trkpt lat="48.807337" lon="2.34674"></trkpt>
      <trkpt lat="48.805104" lon="2.344698"></trkpt>
      <trkpt lat="48.804465" lon="2.344243"></trkpt>
      <trkpt lat="48.802856" lon="2.343688"></trkpt>
      <trkpt lat="48.801452" lon="2.343445"></trkpt>
      <trkpt lat="48.79857" lon="2.343798"></trkpt>
      <trkpt lat="48.796926" lon="2.343855"></trkpt>
      <trkpt lat="48.79502" lon="2.344475"></trkpt>
      <trkpt lat="48.794263" lon="2.344574"></trkpt>
      <trkpt lat="48.793399" lon="2.344479"></trkpt>
      <trkpt lat="48.790916" lon="2.343894"></trkpt>
      <trkpt lat="48.789876" lon="2.343878"></trkpt>
      <trkpt lat="48.788667" lon="2.344205"></trkpt>
      <trkpt lat="48.784843" lon="2.345962"></trkpt>
      <trkpt lat="48.783367" lon="2.346331"></trkpt>
      <trkpt lat="48.78228" lon="2.346437"></trkpt>
      <trkpt lat="48.781242" lon="2.346406"></trkpt>
      <trkpt lat="48.773602" lon="2.345477"></trkpt>
      <trkpt lat="48.770966" lon="2.344978"></trkpt>
      <trkpt lat="48.770198" lon="2.344608"></trkpt>
      <trkpt lat="48.767777" lon="2.343033"></trkpt>
      <trkpt lat="48.765267" lon="2.342398"></trkpt>
      <trkpt lat="48.7637" lon="2.341542"></trkpt>
      <trkpt lat="48.762702" lon="2.3408"></trkpt>
      <trkpt lat="48.756382" lon="2.334043"></trkpt>
      <trkpt lat="48.750368" lon="2.328544"></trkpt>
      <trkpt lat="48.741314" lon="2.319524"></trkpt>
      <trkpt lat="48.740115" lon="2.318615"></trkpt>
      <trkpt lat="48.736451" lon="2.316923"></trkpt>
      <trkpt lat="48.707289" lon="2.306093"></trkpt>
      <trkpt lat="48.70632" lon="2.305914"></trkpt>
      <trkpt lat="48.705345" lon="2.305928"></trkpt>
      <trkpt lat="48.704223" lon="2.30627"></trkpt>
      <trkpt lat="48.703321" lon="2.306782"></trkpt>
      <trkpt lat="48.702361" lon="2.307621"></trkpt>
      <trkpt lat="48.701666" lon="2.308511"></trkpt>
      <trkpt lat="48.695655" lon="2.317663"></trkpt>
      <trkpt lat="48.694079" lon="2.319689"></trkpt>
      <trkpt lat="48.690742" lon="2.322707"></trkpt>
      <trkpt lat="48.682145" lon="2.329917"></trkpt>
      <trkpt lat="48.681172" lon="2.330875"></trkpt>
      <trkpt lat="48.680456" lon="2.331772"></trkpt>
      <trkpt lat="48.679238" lon="2.333853"></trkpt>
      <trkpt lat="48.677393" lon="2.337874"></trkpt>
      <trkpt lat="48.676703" lon="2.33914"></trkpt>
      <trkpt lat="48.67569" lon="2.340553"></trkpt>
      <trkpt lat="48.672399" lon="2.344468"></trkpt>
      <trkpt lat="48.670271" lon="2.348271"></trkpt>
      <trkpt lat="48.669664" lon="2.349559"></trkpt>
      <trkpt lat="48.668789" lon="2.351944"></trkpt>
      <trkpt lat="48.668161" lon="2.354399"></trkpt>
      <trkpt lat="48.667274" lon="2.358767"></trkpt>
      <trkpt lat="48.666393" lon="2.361277"></trkpt>
      <trkpt lat="48.658381" lon="2.375322"></trkpt>
      <trkpt lat="48.656995" lon="2.37722"></trkpt>
      <trkpt lat="48.65551" lon="2.378882"></trkpt>
      <trkpt lat="48.640678" lon="2.393668"></trkpt>
      <trkpt lat="48.638744" lon="2.395893"></trkpt>
      <trkpt lat="48.637715" lon="2.397359"></trkpt>
      <trkpt lat="48.622079" lon="2.422546"></trkpt>
      <trkpt lat="48.620511" lon="2.424801"></trkpt>
      <trkpt lat="48.618798" lon="2.426733"></trkpt>
      <trkpt lat="48.616559" lon="2.42863"></trkpt>
      <trkpt lat="48.593313" lon="2.44378"></trkpt>
      <trkpt lat="48.591939" lon="2.444802"></trkpt>
      <trkpt lat="48.590583" lon="2.446032"></trkpt>
      <trkpt lat="48.588313" lon="2.448727"></trkpt>
      <trkpt lat="48.579942" lon="2.461018"></trkpt>
      <trkpt lat="48.578638" lon="2.462651"></trkpt>
      <trkpt lat="48.577054" lon="2.464168"></trkpt>
      <trkpt lat="48.569322" lon="2.470597"></trkpt>
      <trkpt lat="48.567601" lon="2.472268"></trkpt>
      <trkpt lat="48.566452" lon="2.473647"></trkpt>
      <trkpt lat="48.565011" lon="2.475741"></trkpt>
      <trkpt lat="48.563868" lon="2.477777"></trkpt>
      <trkpt lat="48.560148" lon="2.485622"></trkpt>
      <trkpt lat="48.559112" lon="2.487599"></trkpt>
      <trkpt lat="48.557875" lon="2.489421"></trkpt>
      <trkpt lat="48.556286" lon="2.491187"></trkpt>
      <trkpt lat="48.554711" lon="2.492471"></trkpt>
      <trkpt lat="48.552984" lon="2.493454"></trkpt>
      <trkpt lat="48.540138" lon="2.498391"></trkpt>
      <trkpt lat="48.518613" lon="2.504782"></trkpt>
      <trkpt lat="48.517419" lon="2.505331"></trkpt>
      <trkpt lat="48.506305" lon="2.511423"></trkpt>
      <trkpt lat="48.504126" lon="2.512402"></trkpt>
      <trkpt lat="48.502846" lon="2.512706"></trkpt>
      <trkpt lat="48.501584" lon="2.512819"></trkpt>
      <trkpt lat="48.488396" lon="2.512742"></trkpt>
      <trkpt lat="48.48641" lon="2.512911"></trkpt>
      <trkpt lat="48.481944" lon="2.513785"></trkpt>
      <trkpt lat="48.476617" lon="2.515384"></trkpt>
      <trkpt lat="48.475633" lon="2.515862"></trkpt>
      <trkpt lat="48.474947" lon="2.516347"></trkpt>
      <trkpt lat="48.473563" lon="2.51779"></trkpt>
      <trkpt lat="48.472367" lon="2.519813"></trkpt>
      <trkpt lat="48.47153" lon="2.522199"></trkpt>
      <trkpt lat="48.469326" lon="2.534768"></trkpt>
      <trkpt lat="48.465876" lon="2.545162"></trkpt>
      <trkpt lat="48.463851" lon="2.554428"></trkpt>
      <trkpt lat="48.46358" lon="2.555114"></trkpt>
      <trkpt lat="48.46359" lon="2.555728"></trkpt>
      <trkpt lat="48.461" lon="2.568261"></trkpt>
      <trkpt lat="48.457021" lon="2.590435"></trkpt>
      <trkpt lat="48.455405" lon="2.612381"></trkpt>
      <trkpt lat="48.454958" lon="2.616954"></trkpt>
      <trkpt lat="48.454438" lon="2.618928"></trkpt>
      <trkpt lat="48.453648" lon="2.620605"></trkpt>
      <trkpt lat="48.451576" lon="2.623954"></trkpt>
      <trkpt lat="48.451309" lon="2.624153"></trkpt>
      <trkpt lat="48.450664" lon="2.625962"></trkpt>
      <trkpt lat="48.446259" lon="2.635668"></trkpt>
      <trkpt lat="48.441683" lon="2.649066"></trkpt>
      <trkpt lat="48.4409" lon="2.650692"></trkpt>
      <trkpt lat="48.440204" lon="2.651562"></trkpt>
      <trkpt lat="48.437946" lon="2.653844"></trkpt>
      <trkpt lat="48.431561" lon="2.660096"></trkpt>
      <trkpt lat="48.430533" lon="2.660953"></trkpt>
      <trkpt lat="48.430264" lon="2.660977"></trkpt>
      <trkpt lat="48.430174" lon="2.661322"></trkpt>
      <trkpt lat="48.429034" lon="2.662607"></trkpt>
      <trkpt lat="48.414525" lon="2.677014"></trkpt>
      <trkpt lat="48.409369" lon="2.685445"></trkpt>
      <trkpt lat="48.408701" lon="2.686171"></trkpt>
      <trkpt lat="48.408485" lon="2.686099"></trkpt>
      <trkpt lat="48.408298" lon="2.686273"></trkpt>
      <trkpt lat="48.408243" lon="2.686546"></trkpt>
      <trkpt lat="48.408359" lon="2.686881"></trkpt>
      <trkpt lat="48.404193" lon="2.690971"></trkpt>
      <trkpt lat="48.402758" lon="2.69531"></trkpt>
      <trkpt lat="48.402588" lon="2.69633"></trkpt>
      <trkpt lat="48.402408" lon="2.696765"></trkpt>
      <trkpt lat="48.402472" lon="2.696909"></trkpt>
      <trkpt lat="48.402608" lon="2.696924"></trkpt>
      <trkpt lat="48.403887" lon="2.699945"></trkpt>
      <trkpt lat="48.404285" lon="2.699315"></trkpt>
      <trkpt lat="48.404658" lon="2.698215"></trkpt>
      <trkpt lat="48.404288" lon="2.697986"></trkpt>
  </trkseg></trk>
</gpx>
