<?xml version="1.0" encoding="UTF-8"?>
<gpx version="1.1" creator="yatutbuv" xmlns="http://www.topografix.com/GPX/1/1">
  <trk><name>GraphHopper Track</name><trkseg>
      <trkpt lat="43.701172" lon="7.285203"></trkpt>
      <trkpt lat="43.700612" lon="7.287225"></trkpt>
      <trkpt lat="43.700533" lon="7.28741"></trkpt>
      <trkpt lat="43.700412" lon="7.287429"></trkpt>
      <trkpt lat="43.700267" lon="7.287851"></trkpt>
      <trkpt lat="43.700201" lon="7.288456"></trkpt>
      <trkpt lat="43.700384" lon="7.289057"></trkpt>
      <trkpt lat="43.700992" lon="7.290025"></trkpt>
      <trkpt lat="43.701307" lon="7.292265"></trkpt>
      <trkpt lat="43.702392" lon="7.29375"></trkpt>
      <trkpt lat="43.702398" lon="7.294389"></trkpt>
      <trkpt lat="43.702225" lon="7.294623"></trkpt>
      <trkpt lat="43.702011" lon="7.294701"></trkpt>
      <trkpt lat="43.699751" lon="7.293889"></trkpt>
      <trkpt lat="43.697705" lon="7.29384"></trkpt>
      <trkpt lat="43.69746" lon="7.293916"></trkpt>
      <trkpt lat="43.697301" lon="7.294109"></trkpt>
      <trkpt lat="43.697217" lon="7.294434"></trkpt>
      <trkpt lat="43.69728" lon="7.294792"></trkpt>
      <trkpt lat="43.697545" lon="7.295072"></trkpt>
      <trkpt lat="43.700259" lon="7.296181"></trkpt>
      <trkpt lat="43.702117" lon="7.297591"></trkpt>
      <trkpt lat="43.706065" lon="7.301075"></trkpt>
      <trkpt lat="43.707564" lon="7.302955"></trkpt>
      <trkpt lat="43.707644" lon="7.3033"></trkpt>
      <trkpt lat="43.707546" lon="7.303659"></trkpt>
      <trkpt lat="43.706536" lon="7.304646"></trkpt>
      <trkpt lat="43.706218" lon="7.305126"></trkpt>
      <trkpt lat="43.706104" lon="7.30579"></trkpt>
      <trkpt lat="43.706166" lon="7.30621"></trkpt>
      <trkpt lat="43.706628" lon="7.306897"></trkpt>
      <trkpt lat="43.708409" lon="7.307747"></trkpt>
      <trkpt lat="43.709004" lon="7.308561"></trkpt>
      <trkpt lat="43.709681" lon="7.308916"></trkpt>
      <trkpt lat="43.709857" lon="7.309195"></trkpt>
      <trkpt lat="43.709858" lon="7.309509"></trkpt>
      <trkpt lat="43.709442" lon="7.310523"></trkpt>
      <trkpt lat="43.709532" lon="7.310868"></trkpt>
      <trkpt lat="43.710048" lon="7.31146"></trkpt>
      <trkpt lat="43.710024" lon="7.312482"></trkpt>
      <trkpt lat="43.71035" lon="7.314007"></trkpt>
      <trkpt lat="43.710158" lon="7.31498"></trkpt>
      <trkpt lat="43.709867" lon="7.315691"></trkpt>
      <trkpt lat="43.709895" lon="7.31863"></trkpt>
      <trkpt lat="43.710091" lon="7.319059"></trkpt>
      <trkpt lat="43.710772" lon="7.319642"></trkpt>
      <trkpt lat="43.712114" lon="7.320069"></trkpt>
      <trkpt lat="43.712958" lon="7.320058"></trkpt>
      <trkpt lat="43.713282" lon="7.320414"></trkpt>
      <trkpt lat="43.713303" lon="7.320858"></trkpt>
      <trkpt lat="43.712697" lon="7.321728"></trkpt>
      <trkpt lat="43.712531" lon="7.322149"></trkpt>
      <trkpt lat="43.712132" lon="7.324477"></trkpt>
      <trkpt lat="43.713118" lon="7.328394"></trkpt>
      <trkpt lat="43.713886" lon="7.33024"></trkpt>
      <trkpt lat="43.714865" lon="7.331941"></trkpt>
      <trkpt lat="43.716691" lon="7.332983"></trkpt>
      <trkpt lat="43.716959" lon="7.333267"></trkpt>
      <trkpt lat="43.718428" lon="7.336173"></trkpt>
      <trkpt lat="43.718738" lon="7.337372"></trkpt>
      <trkpt lat="43.71923" lon="7.338539"></trkpt>
      <trkpt lat="43.719583" lon="7.33878"></trkpt>
      <trkpt lat="43.720265" lon="7.338806"></trkpt>
      <trkpt lat="43.720544" lon="7.339096"></trkpt>
      <trkpt lat="43.720686" lon="7.341617"></trkpt>
      <trkpt lat="43.72111" lon="7.34361"></trkpt>
      <trkpt lat="43.721379" lon="7.343935"></trkpt>
      <trkpt lat="43.721811" lon="7.344144"></trkpt>
      <trkpt lat="43.722107" lon="7.344134"></trkpt>
      <trkpt lat="43.722709" lon="7.343882"></trkpt>
      <trkpt lat="43.723046" lon="7.344047"></trkpt>
      <trkpt lat="43.723278" lon="7.344502"></trkpt>
      <trkpt lat="43.723284" lon="7.345986"></trkpt>
      <trkpt lat="43.723566" lon="7.346839"></trkpt>
      <trkpt lat="43.724375" lon="7.347762"></trkpt>
      <trkpt lat="43.725431" lon="7.347834"></trkpt>
      <trkpt lat="43.725741" lon="7.348039"></trkpt>
      <trkpt lat="43.726716" lon="7.349718"></trkpt>
      <trkpt lat="43.72695" lon="7.350418"></trkpt>
      <trkpt lat="43.726789" lon="7.352182"></trkpt>
      <trkpt lat="43.726842" lon="7.352765"></trkpt>
      <trkpt lat="43.727371" lon="7.354256"></trkpt>
      <trkpt lat="43.727817" lon="7.355163"></trkpt>
      <trkpt lat="43.728062" lon="7.356767"></trkpt>
      <trkpt lat="43.728782" lon="7.35728"></trkpt>
      <trkpt lat="43.729222" lon="7.357447"></trkpt>
      <trkpt lat="43.729727" lon="7.35814"></trkpt>
      <trkpt lat="43.729821" lon="7.361507"></trkpt>
      <trkpt lat="43.729978" lon="7.36146"></trkpt>
  </trkseg></trk>
</gpx>
