<?xml version="1.0" encoding="UTF-8"?>
<gpx version="1.1" creator="yatutbuv" xmlns="http://www.topografix.com/GPX/1/1">
  <trk><name>GraphHopper Track</name><trkseg>
      <trkpt lat="51.028563" lon="71.462322"></trkpt>
      <trkpt lat="51.027667" lon="71.460907"></trkpt>
      <trkpt lat="51.027661" lon="71.460335"></trkpt>
      <trkpt lat="51.027799" lon="71.459981"></trkpt>
      <trkpt lat="51.027622" lon="71.459694"></trkpt>
      <trkpt lat="51.027517" lon="71.460968"></trkpt>
      <trkpt lat="51.02857" lon="71.462696"></trkpt>
      <trkpt lat="51.028715" lon="71.462907"></trkpt>
      <trkpt lat="51.028869" lon="71.462943"></trkpt>
      <trkpt lat="51.028765" lon="71.463144"></trkpt>
      <trkpt lat="51.028864" lon="71.463307"></trkpt>
      <trkpt lat="51.037614" lon="71.449188"></trkpt>
      <trkpt lat="51.038389" lon="71.447691"></trkpt>
      <trkpt lat="51.042168" lon="71.441572"></trkpt>
      <trkpt lat="51.069859" lon="71.396948"></trkpt>
      <trkpt lat="51.07077" lon="71.396184"></trkpt>
      <trkpt lat="51.070842" lon="71.395133"></trkpt>
      <trkpt lat="51.074832" lon="71.388801"></trkpt>
      <trkpt lat="51.075588" lon="71.387985"></trkpt>
      <trkpt lat="51.076303" lon="71.387572"></trkpt>
      <trkpt lat="51.077437" lon="71.387255"></trkpt>
      <trkpt lat="51.077943" lon="71.387245"></trkpt>
      <trkpt lat="51.078653" lon="71.387456"></trkpt>
      <trkpt lat="51.125888" lon="71.4043"></trkpt>
      <trkpt lat="51.129736" lon="71.405776"></trkpt>
      <trkpt lat="51.129897" lon="71.405743"></trkpt>
      <trkpt lat="51.143271" lon="71.411065"></trkpt>
      <trkpt lat="51.146026" lon="71.412038"></trkpt>
      <trkpt lat="51.147067" lon="71.422655"></trkpt>
      <trkpt lat="51.148118" lon="71.423291"></trkpt>
      <trkpt lat="51.148673" lon="71.423893"></trkpt>
      <trkpt lat="51.158192" lon="71.437296"></trkpt>
      <trkpt lat="51.158606" lon="71.436536"></trkpt>
      <trkpt lat="51.158832" lon="71.436414"></trkpt>
      <trkpt lat="51.166339" lon="71.434295"></trkpt>
      <trkpt lat="51.166018" lon="71.431504"></trkpt>
      <trkpt lat="51.166491" lon="71.431385"></trkpt>
      <trkpt lat="51.163216" lon="71.432189"></trkpt>
      <trkpt lat="51.1648" lon="71.446368"></trkpt>
      <trkpt lat="51.159876" lon="71.462101"></trkpt>
      <trkpt lat="51.158859" lon="71.461309"></trkpt>
      <trkpt lat="51.158148" lon="71.461659"></trkpt>
      <trkpt lat="51.158889" lon="71.464318"></trkpt>
      <trkpt lat="51.159479" lon="71.465965"></trkpt>
      <trkpt lat="51.161053" lon="71.468287"></trkpt>
      <trkpt lat="51.158122" lon="71.476505"></trkpt>
      <trkpt lat="51.138246" lon="71.528537"></trkpt>
      <trkpt lat="51.137304" lon="71.531402"></trkpt>
      <trkpt lat="51.136767" lon="71.533419"></trkpt>
      <trkpt lat="51.136168" lon="71.536658"></trkpt>
      <trkpt lat="51.135845" lon="71.539413"></trkpt>
      <trkpt lat="51.135702" lon="71.541826"></trkpt>
      <trkpt lat="51.135733" lon="71.544609"></trkpt>
      <trkpt lat="51.136176" lon="71.550968"></trkpt>
      <trkpt lat="51.136319" lon="71.558944"></trkpt>
      <trkpt lat="51.136277" lon="71.561099"></trkpt>
      <trkpt lat="51.13579" lon="71.566164"></trkpt>
      <trkpt lat="51.123887" lon="71.635671"></trkpt>
      <trkpt lat="51.122729" lon="71.635151"></trkpt>
      <trkpt lat="51.122929" lon="71.63414"></trkpt>
      <trkpt lat="51.122729" lon="71.635151"></trkpt>
      <trkpt lat="51.123887" lon="71.635671"></trkpt>
      <trkpt lat="51.123446" lon="71.638035"></trkpt>
      <trkpt lat="51.12358" lon="71.638112"></trkpt>
      <trkpt lat="51.125677" lon="71.626043"></trkpt>
      <trkpt lat="51.125974" lon="71.624866"></trkpt>
      <trkpt lat="51.126576" lon="71.623647"></trkpt>
      <trkpt lat="51.127066" lon="71.623212"></trkpt>
      <trkpt lat="51.127976" lon="71.62265"></trkpt>
      <trkpt lat="51.12852" lon="71.622602"></trkpt>
      <trkpt lat="51.129153" lon="71.622803"></trkpt>
      <trkpt lat="51.137479" lon="71.629677"></trkpt>
      <trkpt lat="51.138919" lon="71.630533"></trkpt>
      <trkpt lat="51.139927" lon="71.63082"></trkpt>
      <trkpt lat="51.140566" lon="71.630879"></trkpt>
      <trkpt lat="51.146788" lon="71.630841"></trkpt>
      <trkpt lat="51.148279" lon="71.630355"></trkpt>
      <trkpt lat="51.173138" lon="71.618123"></trkpt>
      <trkpt lat="51.178953" lon="71.615125"></trkpt>
      <trkpt lat="51.179968" lon="71.614334"></trkpt>
      <trkpt lat="51.181234" lon="71.612885"></trkpt>
      <trkpt lat="51.18289" lon="71.609986"></trkpt>
      <trkpt lat="51.183679" lon="71.607835"></trkpt>
      <trkpt lat="51.191636" lon="71.581867"></trkpt>
      <trkpt lat="51.192711" lon="71.579464"></trkpt>
      <trkpt lat="51.193928" lon="71.577695"></trkpt>
      <trkpt lat="51.194851" lon="71.5767"></trkpt>
      <trkpt lat="51.20106" lon="71.571645"></trkpt>
      <trkpt lat="51.203428" lon="71.569996"></trkpt>
      <trkpt lat="51.205389" lon="71.568871"></trkpt>
      <trkpt lat="51.227762" lon="71.557208"></trkpt>
      <trkpt lat="51.23031" lon="71.555966"></trkpt>
      <trkpt lat="51.231073" lon="71.555742"></trkpt>
      <trkpt lat="51.231858" lon="71.555934"></trkpt>
      <trkpt lat="51.234327" lon="71.557178"></trkpt>
      <trkpt lat="51.234903" lon="71.557636"></trkpt>
      <trkpt lat="51.235533" lon="71.558596"></trkpt>
      <trkpt lat="51.23757" lon="71.56297"></trkpt>
      <trkpt lat="51.239031" lon="71.565643"></trkpt>
      <trkpt lat="51.256005" lon="71.59194"></trkpt>
      <trkpt lat="51.257563" lon="71.594151"></trkpt>
      <trkpt lat="51.267531" lon="71.606628"></trkpt>
      <trkpt lat="51.269853" lon="71.609026"></trkpt>
      <trkpt lat="51.291081" lon="71.628595"></trkpt>
      <trkpt lat="51.292476" lon="71.630024"></trkpt>
      <trkpt lat="51.354469" lon="71.697446"></trkpt>
      <trkpt lat="51.358459" lon="71.702033"></trkpt>
      <trkpt lat="51.359014" lon="71.702819"></trkpt>
      <trkpt lat="51.366963" lon="71.712337"></trkpt>
      <trkpt lat="51.370705" lon="71.716536"></trkpt>
      <trkpt lat="51.381611" lon="71.727633"></trkpt>
      <trkpt lat="51.384023" lon="71.730309"></trkpt>
      <trkpt lat="51.393348" lon="71.742016"></trkpt>
      <trkpt lat="51.393138" lon="71.742517"></trkpt>
      <trkpt lat="51.392455" lon="71.742188"></trkpt>
      <trkpt lat="51.392225" lon="71.742326"></trkpt>
      <trkpt lat="51.387887" lon="71.751352"></trkpt>
      <trkpt lat="51.38297" lon="71.762021"></trkpt>
      <trkpt lat="51.382027" lon="71.763795"></trkpt>
      <trkpt lat="51.381496" lon="71.764204"></trkpt>
      <trkpt lat="51.380996" lon="71.765167"></trkpt>
      <trkpt lat="51.380749" lon="71.76768"></trkpt>
      <trkpt lat="51.380099" lon="71.768781"></trkpt>
      <trkpt lat="51.379192" lon="71.767454"></trkpt>
      <trkpt lat="51.378604" lon="71.766013"></trkpt>
      <trkpt lat="51.377431" lon="71.770147"></trkpt>
      <trkpt lat="51.377211" lon="71.770622"></trkpt>
      <trkpt lat="51.376664" lon="71.771341"></trkpt>
      <trkpt lat="51.376335" lon="71.771583"></trkpt>
  </trkseg></trk>
</gpx>
