<?xml version="1.0" encoding="UTF-8"?>
<gpx version="1.1" creator="yatutbuv" xmlns="http://www.topografix.com/GPX/1/1">
  <trk><name>GraphHopper Track</name><trkseg>
      <trkpt lat="55.705695" lon="9.53607"></trkpt>
      <trkpt lat="55.705735" lon="9.535693"></trkpt>
      <trkpt lat="55.704997" lon="9.535514"></trkpt>
      <trkpt lat="55.704385" lon="9.535203"></trkpt>
      <trkpt lat="55.704001" lon="9.53529"></trkpt>
      <trkpt lat="55.703533" lon="9.535737"></trkpt>
      <trkpt lat="55.70288" lon="9.535909"></trkpt>
      <trkpt lat="55.702712" lon="9.535796"></trkpt>
      <trkpt lat="55.702467" lon="9.535149"></trkpt>
      <trkpt lat="55.70403" lon="9.532317"></trkpt>
      <trkpt lat="55.704766" lon="9.529362"></trkpt>
      <trkpt lat="55.704817" lon="9.528206"></trkpt>
      <trkpt lat="55.704014" lon="9.520223"></trkpt>
      <trkpt lat="55.703834" lon="9.517379"></trkpt>
      <trkpt lat="55.703895" lon="9.511631"></trkpt>
      <trkpt lat="55.70426" lon="9.507323"></trkpt>
      <trkpt lat="55.704726" lon="9.503945"></trkpt>
      <trkpt lat="55.706184" lon="9.497248"></trkpt>
      <trkpt lat="55.7066" lon="9.496435"></trkpt>
      <trkpt lat="55.70653" lon="9.495473"></trkpt>
      <trkpt lat="55.707356" lon="9.487925"></trkpt>
      <trkpt lat="55.70857" lon="9.470049"></trkpt>
      <trkpt lat="55.708703" lon="9.465589"></trkpt>
      <trkpt lat="55.70866" lon="9.462317"></trkpt>
      <trkpt lat="55.708218" lon="9.456649"></trkpt>
      <trkpt lat="55.706201" lon="9.443547"></trkpt>
      <trkpt lat="55.70532" lon="9.439492"></trkpt>
      <trkpt lat="55.703654" lon="9.434681"></trkpt>
      <trkpt lat="55.703081" lon="9.432477"></trkpt>
      <trkpt lat="55.70283" lon="9.43085"></trkpt>
      <trkpt lat="55.702549" lon="9.42687"></trkpt>
      <trkpt lat="55.702192" lon="9.424689"></trkpt>
      <trkpt lat="55.701792" lon="9.423206"></trkpt>
      <trkpt lat="55.70056" lon="9.419722"></trkpt>
      <trkpt lat="55.699697" lon="9.415908"></trkpt>
      <trkpt lat="55.698899" lon="9.41313"></trkpt>
      <trkpt lat="55.696759" lon="9.40778"></trkpt>
      <trkpt lat="55.695961" lon="9.405427"></trkpt>
      <trkpt lat="55.695171" lon="9.40209"></trkpt>
      <trkpt lat="55.694776" lon="9.399422"></trkpt>
      <trkpt lat="55.694553" lon="9.395397"></trkpt>
      <trkpt lat="55.694592" lon="9.392226"></trkpt>
      <trkpt lat="55.694788" lon="9.389081"></trkpt>
      <trkpt lat="55.695406" lon="9.385033"></trkpt>
      <trkpt lat="55.696873" lon="9.379048"></trkpt>
      <trkpt lat="55.697362" lon="9.376623"></trkpt>
      <trkpt lat="55.69758" lon="9.376211"></trkpt>
      <trkpt lat="55.697817" lon="9.376152"></trkpt>
      <trkpt lat="55.698024" lon="9.375942"></trkpt>
      <trkpt lat="55.698217" lon="9.375411"></trkpt>
      <trkpt lat="55.698224" lon="9.374818"></trkpt>
      <trkpt lat="55.697919" lon="9.373993"></trkpt>
      <trkpt lat="55.697892" lon="9.373598"></trkpt>
      <trkpt lat="55.698475" lon="9.368267"></trkpt>
      <trkpt lat="55.698731" lon="9.362597"></trkpt>
      <trkpt lat="55.69862" lon="9.35709"></trkpt>
      <trkpt lat="55.6983" lon="9.352992"></trkpt>
      <trkpt lat="55.6978" lon="9.349084"></trkpt>
      <trkpt lat="55.696731" lon="9.342257"></trkpt>
      <trkpt lat="55.696253" lon="9.337714"></trkpt>
      <trkpt lat="55.696037" lon="9.331381"></trkpt>
      <trkpt lat="55.696194" lon="9.326516"></trkpt>
      <trkpt lat="55.696734" lon="9.320829"></trkpt>
      <trkpt lat="55.697774" lon="9.314787"></trkpt>
      <trkpt lat="55.698705" lon="9.311001"></trkpt>
      <trkpt lat="55.703164" lon="9.294983"></trkpt>
      <trkpt lat="55.704154" lon="9.290756"></trkpt>
      <trkpt lat="55.704734" lon="9.287409"></trkpt>
      <trkpt lat="55.705153" lon="9.284094"></trkpt>
      <trkpt lat="55.705437" lon="9.280639"></trkpt>
      <trkpt lat="55.706567" lon="9.253207"></trkpt>
      <trkpt lat="55.707172" lon="9.24295"></trkpt>
      <trkpt lat="55.707566" lon="9.239612"></trkpt>
      <trkpt lat="55.70827" lon="9.235849"></trkpt>
      <trkpt lat="55.709668" lon="9.230932"></trkpt>
      <trkpt lat="55.713589" lon="9.220301"></trkpt>
      <trkpt lat="55.713818" lon="9.219972"></trkpt>
      <trkpt lat="55.71401" lon="9.219893"></trkpt>
      <trkpt lat="55.714333" lon="9.219082"></trkpt>
      <trkpt lat="55.718947" lon="9.214633"></trkpt>
      <trkpt lat="55.721796" lon="9.212449"></trkpt>
      <trkpt lat="55.72328" lon="9.211543"></trkpt>
      <trkpt lat="55.725048" lon="9.210657"></trkpt>
      <trkpt lat="55.730682" lon="9.208597"></trkpt>
      <trkpt lat="55.731986" lon="9.207962"></trkpt>
      <trkpt lat="55.733164" lon="9.207236"></trkpt>
      <trkpt lat="55.735533" lon="9.20526"></trkpt>
      <trkpt lat="55.736496" lon="9.204249"></trkpt>
      <trkpt lat="55.737895" lon="9.202507"></trkpt>
      <trkpt lat="55.739138" lon="9.200618"></trkpt>
      <trkpt lat="55.740466" lon="9.19825"></trkpt>
      <trkpt lat="55.741642" lon="9.195644"></trkpt>
      <trkpt lat="55.742539" lon="9.193257"></trkpt>
      <trkpt lat="55.744637" lon="9.186422"></trkpt>
      <trkpt lat="55.745967" lon="9.180846"></trkpt>
      <trkpt lat="55.746788" lon="9.176572"></trkpt>
      <trkpt lat="55.74782" lon="9.169222"></trkpt>
      <trkpt lat="55.748315" lon="9.163479"></trkpt>
      <trkpt lat="55.748564" lon="9.155577"></trkpt>
      <trkpt lat="55.748662" lon="9.13949"></trkpt>
      <trkpt lat="55.748912" lon="9.138638"></trkpt>
      <trkpt lat="55.748888" lon="9.138292"></trkpt>
      <trkpt lat="55.748701" lon="9.138067"></trkpt>
      <trkpt lat="55.748519" lon="9.138145"></trkpt>
      <trkpt lat="55.748312" lon="9.138849"></trkpt>
      <trkpt lat="55.747142" lon="9.140323"></trkpt>
      <trkpt lat="55.746711" lon="9.141269"></trkpt>
      <trkpt lat="55.746457" lon="9.142361"></trkpt>
      <trkpt lat="55.746465" lon="9.145238"></trkpt>
      <trkpt lat="55.746831" lon="9.146027"></trkpt>
      <trkpt lat="55.74693" lon="9.149082"></trkpt>
      <trkpt lat="55.746749" lon="9.149472"></trkpt>
      <trkpt lat="55.746778" lon="9.150173"></trkpt>
      <trkpt lat="55.748329" lon="9.150005"></trkpt>
      <trkpt lat="55.748369" lon="9.141659"></trkpt>
      <trkpt lat="55.747949" lon="9.139649"></trkpt>
      <trkpt lat="55.748007" lon="9.139351"></trkpt>
      <trkpt lat="55.748336" lon="9.138948"></trkpt>
      <trkpt lat="55.748807" lon="9.138893"></trkpt>
      <trkpt lat="55.748888" lon="9.138292"></trkpt>
      <trkpt lat="55.748701" lon="9.138067"></trkpt>
      <trkpt lat="55.748476" lon="9.138213"></trkpt>
      <trkpt lat="55.748169" lon="9.138165"></trkpt>
      <trkpt lat="55.745453" lon="9.136245"></trkpt>
      <trkpt lat="55.744706" lon="9.135441"></trkpt>
      <trkpt lat="55.73818" lon="9.124447"></trkpt>
      <trkpt lat="55.737749" lon="9.12391"></trkpt>
      <trkpt lat="55.737657" lon="9.123634"></trkpt>
      <trkpt lat="55.737721" lon="9.122665"></trkpt>
      <trkpt lat="55.739243" lon="9.116814"></trkpt>
      <trkpt lat="55.738891" lon="9.11655"></trkpt>
      <trkpt lat="55.738656" lon="9.116615"></trkpt>
      <trkpt lat="55.737689" lon="9.119072"></trkpt>
      <trkpt lat="55.737538" lon="9.119002"></trkpt>
      <trkpt lat="55.736776" lon="9.117643"></trkpt>
      <trkpt lat="55.736487" lon="9.11762"></trkpt>
      <trkpt lat="55.735985" lon="9.118652"></trkpt>
      <trkpt lat="55.73595" lon="9.119298"></trkpt>
      <trkpt lat="55.734743" lon="9.121104"></trkpt>
      <trkpt lat="55.733032" lon="9.118185"></trkpt>
      <trkpt lat="55.732577" lon="9.118474"></trkpt>
      <trkpt lat="55.73212" lon="9.118466"></trkpt>
      <trkpt lat="55.729888" lon="9.116851"></trkpt>
      <trkpt lat="55.729865" lon="9.11697"></trkpt>
      <trkpt lat="55.73059" lon="9.117415"></trkpt>
  </trkseg></trk>
</gpx>
