<?xml version="1.0" encoding="UTF-8"?>
<gpx version="1.1" creator="yatutbuv" xmlns="http://www.topografix.com/GPX/1/1">
  <trk><name>GraphHopper Track</name><trkseg>
      <trkpt lat="49.834496" lon="24.009278"></trkpt>
      <trkpt lat="49.834742" lon="24.009518"></trkpt>
      <trkpt lat="49.834803" lon="24.007279"></trkpt>
      <trkpt lat="49.83544" lon="24.005279"></trkpt>
      <trkpt lat="49.83598" lon="24.004625"></trkpt>
      <trkpt lat="49.837121" lon="24.003881"></trkpt>
      <trkpt lat="49.838187" lon="24.006947"></trkpt>
      <trkpt lat="49.840144" lon="24.011934"></trkpt>
      <trkpt lat="49.842007" lon="24.010206"></trkpt>
      <trkpt lat="49.843013" lon="24.010322"></trkpt>
      <trkpt lat="49.844453" lon="24.01103"></trkpt>
      <trkpt lat="49.845841" lon="24.007023"></trkpt>
      <trkpt lat="49.846715" lon="24.004835"></trkpt>
      <trkpt lat="49.847109" lon="24.003003"></trkpt>
      <trkpt lat="49.847999" lon="24.000531"></trkpt>
      <trkpt lat="49.848852" lon="23.997256"></trkpt>
      <trkpt lat="49.849808" lon="23.994483"></trkpt>
      <trkpt lat="49.852386" lon="23.98867"></trkpt>
      <trkpt lat="49.853459" lon="23.986869"></trkpt>
      <trkpt lat="49.853431" lon="23.986589"></trkpt>
      <trkpt lat="49.853804" lon="23.98533"></trkpt>
      <trkpt lat="49.864387" lon="23.959954"></trkpt>
      <trkpt lat="49.867117" lon="23.955349"></trkpt>
      <trkpt lat="49.8675" lon="23.954341"></trkpt>
      <trkpt lat="49.868888" lon="23.949468"></trkpt>
      <trkpt lat="49.871003" lon="23.944568"></trkpt>
      <trkpt lat="49.871296" lon="23.943373"></trkpt>
      <trkpt lat="49.872238" lon="23.937885"></trkpt>
      <trkpt lat="49.872354" lon="23.936627"></trkpt>
      <trkpt lat="49.873674" lon="23.912252"></trkpt>
      <trkpt lat="49.873734" lon="23.909306"></trkpt>
      <trkpt lat="49.873283" lon="23.896094"></trkpt>
      <trkpt lat="49.873358" lon="23.894286"></trkpt>
      <trkpt lat="49.87399" lon="23.890575"></trkpt>
      <trkpt lat="49.874965" lon="23.886333"></trkpt>
      <trkpt lat="49.876492" lon="23.868388"></trkpt>
      <trkpt lat="49.881312" lon="23.837136"></trkpt>
      <trkpt lat="49.881803" lon="23.834581"></trkpt>
      <trkpt lat="49.882381" lon="23.832473"></trkpt>
      <trkpt lat="49.888437" lon="23.813366"></trkpt>
      <trkpt lat="49.897504" lon="23.772397"></trkpt>
      <trkpt lat="49.901095" lon="23.760968"></trkpt>
      <trkpt lat="49.90402" lon="23.747795"></trkpt>
      <trkpt lat="49.904786" lon="23.746337"></trkpt>
      <trkpt lat="49.912793" lon="23.738189"></trkpt>
      <trkpt lat="49.915928" lon="23.736661"></trkpt>
      <trkpt lat="49.917095" lon="23.73513"></trkpt>
      <trkpt lat="49.917435" lon="23.734875"></trkpt>
      <trkpt lat="49.918092" lon="23.734812"></trkpt>
      <trkpt lat="49.919798" lon="23.735084"></trkpt>
      <trkpt lat="49.921114" lon="23.734794"></trkpt>
      <trkpt lat="49.92232" lon="23.731274"></trkpt>
      <trkpt lat="49.922506" lon="23.730407"></trkpt>
      <trkpt lat="49.920931" lon="23.719683"></trkpt>
      <trkpt lat="49.919694" lon="23.704803"></trkpt>
      <trkpt lat="49.919663" lon="23.702838"></trkpt>
      <trkpt lat="49.929083" lon="23.597108"></trkpt>
      <trkpt lat="49.929179" lon="23.595444"></trkpt>
      <trkpt lat="49.929121" lon="23.592555"></trkpt>
      <trkpt lat="49.928733" lon="23.5885"></trkpt>
      <trkpt lat="49.922269" lon="23.552044"></trkpt>
      <trkpt lat="49.920601" lon="23.544763"></trkpt>
      <trkpt lat="49.918045" lon="23.530672"></trkpt>
      <trkpt lat="49.916164" lon="23.522692"></trkpt>
      <trkpt lat="49.915677" lon="23.519504"></trkpt>
      <trkpt lat="49.914791" lon="23.51202"></trkpt>
      <trkpt lat="49.909855" lon="23.484141"></trkpt>
      <trkpt lat="49.908532" lon="23.476378"></trkpt>
      <trkpt lat="49.908304" lon="23.474505"></trkpt>
      <trkpt lat="49.908003" lon="23.471158"></trkpt>
      <trkpt lat="49.907924" lon="23.468225"></trkpt>
      <trkpt lat="49.908628" lon="23.4424"></trkpt>
      <trkpt lat="49.90934" lon="23.433972"></trkpt>
      <trkpt lat="49.909481" lon="23.430373"></trkpt>
      <trkpt lat="49.909433" lon="23.412383"></trkpt>
      <trkpt lat="49.911741" lon="23.391193"></trkpt>
      <trkpt lat="49.912347" lon="23.388493"></trkpt>
      <trkpt lat="49.913309" lon="23.385746"></trkpt>
      <trkpt lat="49.914547" lon="23.383384"></trkpt>
      <trkpt lat="49.927171" lon="23.363051"></trkpt>
      <trkpt lat="49.928326" lon="23.361961"></trkpt>
      <trkpt lat="49.932676" lon="23.3596"></trkpt>
      <trkpt lat="49.933479" lon="23.359049"></trkpt>
      <trkpt lat="49.933979" lon="23.358401"></trkpt>
      <trkpt lat="49.934384" lon="23.357551"></trkpt>
      <trkpt lat="49.934582" lon="23.35643"></trkpt>
      <trkpt lat="49.934516" lon="23.353909"></trkpt>
      <trkpt lat="49.933877" lon="23.3489"></trkpt>
      <trkpt lat="49.934222" lon="23.337488"></trkpt>
      <trkpt lat="49.934658" lon="23.333325"></trkpt>
      <trkpt lat="49.936061" lon="23.324736"></trkpt>
      <trkpt lat="49.937268" lon="23.314437"></trkpt>
      <trkpt lat="49.937166" lon="23.313506"></trkpt>
      <trkpt lat="49.936348" lon="23.310424"></trkpt>
      <trkpt lat="49.936186" lon="23.309413"></trkpt>
      <trkpt lat="49.935813" lon="23.301436"></trkpt>
      <trkpt lat="49.936548" lon="23.297744"></trkpt>
      <trkpt lat="49.937056" lon="23.28961"></trkpt>
      <trkpt lat="49.937788" lon="23.287228"></trkpt>
      <trkpt lat="49.940921" lon="23.271546"></trkpt>
      <trkpt lat="49.945563" lon="23.254204"></trkpt>
      <trkpt lat="49.951886" lon="23.239729"></trkpt>
      <trkpt lat="49.954275" lon="23.229794"></trkpt>
      <trkpt lat="49.954483" lon="23.228516"></trkpt>
      <trkpt lat="49.954572" lon="23.223142"></trkpt>
      <trkpt lat="49.954864" lon="23.218428"></trkpt>
      <trkpt lat="49.956083" lon="23.207454"></trkpt>
      <trkpt lat="49.95613" lon="23.204439"></trkpt>
      <trkpt lat="49.955906" lon="23.201952"></trkpt>
      <trkpt lat="49.955308" lon="23.198944"></trkpt>
      <trkpt lat="49.954855" lon="23.197441"></trkpt>
      <trkpt lat="49.954256" lon="23.195969"></trkpt>
      <trkpt lat="49.94927" lon="23.187064"></trkpt>
      <trkpt lat="49.948038" lon="23.184619"></trkpt>
      <trkpt lat="49.947514" lon="23.183295"></trkpt>
      <trkpt lat="49.946941" lon="23.180914"></trkpt>
      <trkpt lat="49.946767" lon="23.17777"></trkpt>
      <trkpt lat="49.948418" lon="23.157416"></trkpt>
      <trkpt lat="49.948897" lon="23.153319"></trkpt>
      <trkpt lat="49.949249" lon="23.15165"></trkpt>
      <trkpt lat="49.950117" lon="23.148533"></trkpt>
      <trkpt lat="49.950869" lon="23.146512"></trkpt>
      <trkpt lat="49.955059" lon="23.138128"></trkpt>
      <trkpt lat="49.955509" lon="23.136939"></trkpt>
      <trkpt lat="49.956024" lon="23.134874"></trkpt>
      <trkpt lat="49.95626" lon="23.132626"></trkpt>
      <trkpt lat="49.956363" lon="23.122474"></trkpt>
      <trkpt lat="49.95656" lon="23.121441"></trkpt>
      <trkpt lat="49.956464" lon="23.121173"></trkpt>
      <trkpt lat="49.956232" lon="23.121045"></trkpt>
      <trkpt lat="49.954971" lon="23.118852"></trkpt>
      <trkpt lat="49.955022" lon="23.116349"></trkpt>
      <trkpt lat="49.954812" lon="23.115456"></trkpt>
      <trkpt lat="49.954836" lon="23.114982"></trkpt>
      <trkpt lat="49.955093" lon="23.113282"></trkpt>
      <trkpt lat="49.955263" lon="23.112975"></trkpt>
      <trkpt lat="49.956033" lon="23.110133"></trkpt>
      <trkpt lat="49.956544" lon="23.109401"></trkpt>
      <trkpt lat="49.957335" lon="23.109808"></trkpt>
      <trkpt lat="49.957493" lon="23.109851"></trkpt>
      <trkpt lat="49.957652" lon="23.109742"></trkpt>
      <trkpt lat="49.959247" lon="23.102071"></trkpt>
      <trkpt lat="49.959837" lon="23.097759"></trkpt>
      <trkpt lat="49.960739" lon="23.085671"></trkpt>
      <trkpt lat="49.962599" lon="23.07418"></trkpt>
      <trkpt lat="49.962857" lon="23.071039"></trkpt>
      <trkpt lat="49.962884" lon="23.069408"></trkpt>
      <trkpt lat="49.962771" lon="23.066196"></trkpt>
      <trkpt lat="49.962358" lon="23.062521"></trkpt>
      <trkpt lat="49.961915" lon="23.060128"></trkpt>
      <trkpt lat="49.961042" lon="23.056833"></trkpt>
      <trkpt lat="49.959977" lon="23.053872"></trkpt>
      <trkpt lat="49.952442" lon="23.035678"></trkpt>
      <trkpt lat="49.950316" lon="23.030246"></trkpt>
      <trkpt lat="49.947989" lon="23.023085"></trkpt>
      <trkpt lat="49.946128" lon="23.015675"></trkpt>
      <trkpt lat="49.944853" lon="23.008858"></trkpt>
      <trkpt lat="49.94391" lon="23.001304"></trkpt>
      <trkpt lat="49.943471" lon="22.995599"></trkpt>
      <trkpt lat="49.941282" lon="22.957607"></trkpt>
      <trkpt lat="49.940804" lon="22.952636"></trkpt>
      <trkpt lat="49.940038" lon="22.948034"></trkpt>
      <trkpt lat="49.93936" lon="22.94521"></trkpt>
      <trkpt lat="49.93817" lon="22.941317"></trkpt>
      <trkpt lat="49.936651" lon="22.937412"></trkpt>
      <trkpt lat="49.933255" lon="22.929534"></trkpt>
      <trkpt lat="49.931629" lon="22.924792"></trkpt>
      <trkpt lat="49.930869" lon="22.921927"></trkpt>
      <trkpt lat="49.930217" lon="22.91876"></trkpt>
      <trkpt lat="49.928296" lon="22.906178"></trkpt>
      <trkpt lat="49.927628" lon="22.902742"></trkpt>
      <trkpt lat="49.92689" lon="22.899727"></trkpt>
      <trkpt lat="49.925148" lon="22.894243"></trkpt>
      <trkpt lat="49.920687" lon="22.882451"></trkpt>
      <trkpt lat="49.919705" lon="22.879404"></trkpt>
      <trkpt lat="49.918855" lon="22.876308"></trkpt>
      <trkpt lat="49.91798" lon="22.872447"></trkpt>
      <trkpt lat="49.917279" lon="22.868698"></trkpt>
      <trkpt lat="49.910998" lon="22.831137"></trkpt>
      <trkpt lat="49.910572" lon="22.82731"></trkpt>
      <trkpt lat="49.910379" lon="22.823596"></trkpt>
      <trkpt lat="49.910383" lon="22.820575"></trkpt>
      <trkpt lat="49.910567" lon="22.816932"></trkpt>
      <trkpt lat="49.911188" lon="22.8118"></trkpt>
      <trkpt lat="49.913365" lon="22.799224"></trkpt>
      <trkpt lat="49.914474" lon="22.791331"></trkpt>
      <trkpt lat="49.914976" lon="22.785637"></trkpt>
      <trkpt lat="49.916988" lon="22.756059"></trkpt>
      <trkpt lat="49.917376" lon="22.752189"></trkpt>
      <trkpt lat="49.917929" lon="22.748418"></trkpt>
      <trkpt lat="49.918703" lon="22.744648"></trkpt>
      <trkpt lat="49.919478" lon="22.741651"></trkpt>
      <trkpt lat="49.921221" lon="22.736391"></trkpt>
      <trkpt lat="49.923285" lon="22.731635"></trkpt>
      <trkpt lat="49.927914" lon="22.722622"></trkpt>
      <trkpt lat="49.929353" lon="22.719107"></trkpt>
      <trkpt lat="49.930771" lon="22.714818"></trkpt>
      <trkpt lat="49.932229" lon="22.708841"></trkpt>
      <trkpt lat="49.936055" lon="22.687386"></trkpt>
      <trkpt lat="49.93672" lon="22.684444"></trkpt>
      <trkpt lat="49.937715" lon="22.681139"></trkpt>
      <trkpt lat="49.938809" lon="22.678182"></trkpt>
      <trkpt lat="49.940545" lon="22.674489"></trkpt>
      <trkpt lat="49.942303" lon="22.67154"></trkpt>
      <trkpt lat="49.944221" lon="22.668937"></trkpt>
      <trkpt lat="49.945739" lon="22.66722"></trkpt>
      <trkpt lat="49.946917" lon="22.666082"></trkpt>
      <trkpt lat="49.949577" lon="22.663988"></trkpt>
      <trkpt lat="49.952514" lon="22.662368"></trkpt>
      <trkpt lat="49.959015" lon="22.659787"></trkpt>
      <trkpt lat="49.960659" lon="22.658937"></trkpt>
      <trkpt lat="49.963686" lon="22.656829"></trkpt>
      <trkpt lat="49.965225" lon="22.655429"></trkpt>
      <trkpt lat="49.966669" lon="22.653911"></trkpt>
      <trkpt lat="49.969094" lon="22.650752"></trkpt>
      <trkpt lat="49.971328" lon="22.646953"></trkpt>
      <trkpt lat="49.972447" lon="22.644645"></trkpt>
      <trkpt lat="49.97881" lon="22.630057"></trkpt>
      <trkpt lat="49.981989" lon="22.62377"></trkpt>
      <trkpt lat="49.983889" lon="22.620483"></trkpt>
      <trkpt lat="49.98534" lon="22.618213"></trkpt>
      <trkpt lat="49.989355" lon="22.612789"></trkpt>
      <trkpt lat="49.991494" lon="22.610293"></trkpt>
      <trkpt lat="49.993875" lon="22.607801"></trkpt>
      <trkpt lat="49.997956" lon="22.60415"></trkpt>
      <trkpt lat="50.001227" lon="22.601721"></trkpt>
      <trkpt lat="50.010391" lon="22.595745"></trkpt>
      <trkpt lat="50.01272" lon="22.593822"></trkpt>
      <trkpt lat="50.014341" lon="22.592167"></trkpt>
      <trkpt lat="50.015939" lon="22.590258"></trkpt>
      <trkpt lat="50.021926" lon="22.582075"></trkpt>
      <trkpt lat="50.023373" lon="22.58042"></trkpt>
      <trkpt lat="50.025122" lon="22.578703"></trkpt>
      <trkpt lat="50.027339" lon="22.576921"></trkpt>
      <trkpt lat="50.028914" lon="22.575886"></trkpt>
      <trkpt lat="50.03079" lon="22.574898"></trkpt>
      <trkpt lat="50.033099" lon="22.573984"></trkpt>
      <trkpt lat="50.036357" lon="22.573207"></trkpt>
      <trkpt lat="50.048973" lon="22.571241"></trkpt>
      <trkpt lat="50.053218" lon="22.570481"></trkpt>
      <trkpt lat="50.056073" lon="22.569583"></trkpt>
      <trkpt lat="50.057132" lon="22.569119"></trkpt>
      <trkpt lat="50.061129" lon="22.566654"></trkpt>
      <trkpt lat="50.06366" lon="22.564455"></trkpt>
      <trkpt lat="50.065604" lon="22.56244"></trkpt>
      <trkpt lat="50.067623" lon="22.559714"></trkpt>
      <trkpt lat="50.06876" lon="22.557982"></trkpt>
      <trkpt lat="50.070573" lon="22.55475"></trkpt>
      <trkpt lat="50.071918" lon="22.551826"></trkpt>
      <trkpt lat="50.072752" lon="22.549719"></trkpt>
      <trkpt lat="50.073784" lon="22.546575"></trkpt>
      <trkpt lat="50.07501" lon="22.54162"></trkpt>
      <trkpt lat="50.075605" lon="22.538278"></trkpt>
      <trkpt lat="50.082157" lon="22.490254"></trkpt>
      <trkpt lat="50.08282" lon="22.486386"></trkpt>
      <trkpt lat="50.083729" lon="22.482922"></trkpt>
      <trkpt lat="50.085031" lon="22.479445"></trkpt>
      <trkpt lat="50.086609" lon="22.47635"></trkpt>
      <trkpt lat="50.101983" lon="22.452022"></trkpt>
      <trkpt lat="50.103328" lon="22.449761"></trkpt>
      <trkpt lat="50.105001" lon="22.446433"></trkpt>
      <trkpt lat="50.106933" lon="22.441545"></trkpt>
      <trkpt lat="50.109654" lon="22.4335"></trkpt>
      <trkpt lat="50.110552" lon="22.430529"></trkpt>
      <trkpt lat="50.111791" lon="22.425042"></trkpt>
      <trkpt lat="50.11248" lon="22.419997"></trkpt>
      <trkpt lat="50.112733" lon="22.415773"></trkpt>
      <trkpt lat="50.11268" lon="22.410634"></trkpt>
      <trkpt lat="50.111008" lon="22.391127"></trkpt>
      <trkpt lat="50.110823" lon="22.387002"></trkpt>
      <trkpt lat="50.110892" lon="22.381395"></trkpt>
      <trkpt lat="50.111326" lon="22.375697"></trkpt>
      <trkpt lat="50.11617" lon="22.334118"></trkpt>
      <trkpt lat="50.11636" lon="22.331414"></trkpt>
      <trkpt lat="50.116446" lon="22.32743"></trkpt>
      <trkpt lat="50.116154" lon="22.32179"></trkpt>
      <trkpt lat="50.115871" lon="22.319332"></trkpt>
      <trkpt lat="50.115286" lon="22.31582"></trkpt>
      <trkpt lat="50.113967" lon="22.310479"></trkpt>
      <trkpt lat="50.112333" lon="22.305742"></trkpt>
      <trkpt lat="50.10809" lon="22.295133"></trkpt>
      <trkpt lat="50.106544" lon="22.290994"></trkpt>
      <trkpt lat="50.105335" lon="22.287112"></trkpt>
      <trkpt lat="50.104607" lon="22.284328"></trkpt>
      <trkpt lat="50.103531" lon="22.279109"></trkpt>
      <trkpt lat="50.099185" lon="22.246955"></trkpt>
      <trkpt lat="50.09865" lon="22.242165"></trkpt>
      <trkpt lat="50.098505" lon="22.238974"></trkpt>
      <trkpt lat="50.098542" lon="22.235931"></trkpt>
      <trkpt lat="50.098689" lon="22.233503"></trkpt>
      <trkpt lat="50.099374" lon="22.226795"></trkpt>
      <trkpt lat="50.099456" lon="22.22478"></trkpt>
      <trkpt lat="50.099375" lon="22.221174"></trkpt>
      <trkpt lat="50.099109" lon="22.218405"></trkpt>
      <trkpt lat="50.098456" lon="22.214703"></trkpt>
      <trkpt lat="50.097728" lon="22.211925"></trkpt>
      <trkpt lat="50.096837" lon="22.209359"></trkpt>
      <trkpt lat="50.094636" lon="22.203966"></trkpt>
      <trkpt lat="50.093596" lon="22.200462"></trkpt>
      <trkpt lat="50.091048" lon="22.187362"></trkpt>
      <trkpt lat="50.090447" lon="22.182876"></trkpt>
      <trkpt lat="50.090098" lon="22.178499"></trkpt>
      <trkpt lat="50.08999" lon="22.172052"></trkpt>
      <trkpt lat="50.090186" lon="22.167776"></trkpt>
      <trkpt lat="50.090468" lon="22.164565"></trkpt>
      <trkpt lat="50.095495" lon="22.127117"></trkpt>
      <trkpt lat="50.095981" lon="22.121529"></trkpt>
      <trkpt lat="50.096028" lon="22.11752"></trkpt>
      <trkpt lat="50.095782" lon="22.112848"></trkpt>
      <trkpt lat="50.09296" lon="22.085915"></trkpt>
      <trkpt lat="50.092694" lon="22.082728"></trkpt>
      <trkpt lat="50.092575" lon="22.079592"></trkpt>
      <trkpt lat="50.092722" lon="22.073958"></trkpt>
      <trkpt lat="50.093561" lon="22.058761"></trkpt>
      <trkpt lat="50.093729" lon="22.057949"></trkpt>
      <trkpt lat="50.09401" lon="22.057557"></trkpt>
      <trkpt lat="50.094189" lon="22.057494"></trkpt>
      <trkpt lat="50.094473" lon="22.05764"></trkpt>
      <trkpt lat="50.094662" lon="22.058104"></trkpt>
      <trkpt lat="50.094557" lon="22.058691"></trkpt>
      <trkpt lat="50.094429" lon="22.058867"></trkpt>
      <trkpt lat="50.094158" lon="22.058945"></trkpt>
      <trkpt lat="50.090951" lon="22.058553"></trkpt>
      <trkpt lat="50.090414" lon="22.058369"></trkpt>
      <trkpt lat="50.090119" lon="22.058417"></trkpt>
      <trkpt lat="50.089671" lon="22.058918"></trkpt>
      <trkpt lat="50.08942" lon="22.060172"></trkpt>
      <trkpt lat="50.089226" lon="22.060627"></trkpt>
      <trkpt lat="50.08885" lon="22.060993"></trkpt>
      <trkpt lat="50.088281" lon="22.061156"></trkpt>
      <trkpt lat="50.081791" lon="22.060956"></trkpt>
      <trkpt lat="50.080779" lon="22.060725"></trkpt>
      <trkpt lat="50.079916" lon="22.060387"></trkpt>
      <trkpt lat="50.069557" lon="22.055755"></trkpt>
      <trkpt lat="50.068041" lon="22.054963"></trkpt>
      <trkpt lat="50.066528" lon="22.053717"></trkpt>
      <trkpt lat="50.065623" lon="22.052612"></trkpt>
      <trkpt lat="50.064816" lon="22.051297"></trkpt>
      <trkpt lat="50.061634" lon="22.045012"></trkpt>
      <trkpt lat="50.060904" lon="22.043794"></trkpt>
      <trkpt lat="50.060201" lon="22.042849"></trkpt>
      <trkpt lat="50.057245" lon="22.039621"></trkpt>
      <trkpt lat="50.055672" lon="22.037121"></trkpt>
      <trkpt lat="50.055601" lon="22.036361"></trkpt>
      <trkpt lat="50.056698" lon="22.029064"></trkpt>
      <trkpt lat="50.057051" lon="22.027432"></trkpt>
      <trkpt lat="50.058206" lon="22.02337"></trkpt>
      <trkpt lat="50.056486" lon="22.022447"></trkpt>
      <trkpt lat="50.052334" lon="22.02065"></trkpt>
      <trkpt lat="50.049621" lon="22.017472"></trkpt>
      <trkpt lat="50.048848" lon="22.015891"></trkpt>
      <trkpt lat="50.048991" lon="22.012143"></trkpt>
      <trkpt lat="50.049265" lon="22.010846"></trkpt>
      <trkpt lat="50.048686" lon="22.010751"></trkpt>
      <trkpt lat="50.048194" lon="22.010902"></trkpt>
      <trkpt lat="50.044865" lon="22.0133"></trkpt>
      <trkpt lat="50.043317" lon="22.014015"></trkpt>
      <trkpt lat="50.042538" lon="22.014595"></trkpt>
      <trkpt lat="50.042381" lon="22.014265"></trkpt>
      <trkpt lat="50.042213" lon="22.012824"></trkpt>
      <trkpt lat="50.04203" lon="22.012316"></trkpt>
      <trkpt lat="50.040713" lon="22.011051"></trkpt>
      <trkpt lat="50.040451" lon="22.010331"></trkpt>
      <trkpt lat="50.040135" lon="22.010436"></trkpt>
      <trkpt lat="50.03908" lon="22.010094"></trkpt>
      <trkpt lat="50.038547" lon="22.010073"></trkpt>
      <trkpt lat="50.037569" lon="22.009711"></trkpt>
      <trkpt lat="50.037657" lon="22.008038"></trkpt>
      <trkpt lat="50.036663" lon="22.008283"></trkpt>
      <trkpt lat="50.037042" lon="22.007325"></trkpt>
      <trkpt lat="50.036769" lon="22.006073"></trkpt>
      <trkpt lat="50.036801" lon="22.003601"></trkpt>
      <trkpt lat="50.037476" lon="22.003716"></trkpt>
      <trkpt lat="50.037435" lon="22.00427"></trkpt>
  </trkseg></trk>
</gpx>
