<?xml version="1.0" encoding="UTF-8"?>
<gpx version="1.1" creator="yatutbuv" xmlns="http://www.topografix.com/GPX/1/1">
  <trk><name>GraphHopper Track</name><trkseg>
      <trkpt lat="50.089445" lon="14.440603"></trkpt>
      <trkpt lat="50.089637" lon="14.441057"></trkpt>
      <trkpt lat="50.08967" lon="14.441789"></trkpt>
      <trkpt lat="50.089496" lon="14.442116"></trkpt>
      <trkpt lat="50.089001" lon="14.441626"></trkpt>
      <trkpt lat="50.088805" lon="14.441751"></trkpt>
      <trkpt lat="50.088622" lon="14.442427"></trkpt>
      <trkpt lat="50.088474" lon="14.442442"></trkpt>
      <trkpt lat="50.088496" lon="14.44312"></trkpt>
      <trkpt lat="50.087276" lon="14.44329"></trkpt>
      <trkpt lat="50.08719" lon="14.443666"></trkpt>
      <trkpt lat="50.086742" lon="14.446109"></trkpt>
      <trkpt lat="50.086721" lon="14.448954"></trkpt>
      <trkpt lat="50.08712" lon="14.4512"></trkpt>
      <trkpt lat="50.084853" lon="14.455559"></trkpt>
      <trkpt lat="50.083919" lon="14.457624"></trkpt>
      <trkpt lat="50.083417" lon="14.45828"></trkpt>
      <trkpt lat="50.082572" lon="14.459095"></trkpt>
      <trkpt lat="50.083023" lon="14.462741"></trkpt>
      <trkpt lat="50.084254" lon="14.470669"></trkpt>
      <trkpt lat="50.078354" lon="14.473004"></trkpt>
      <trkpt lat="50.076617" lon="14.490795"></trkpt>
      <trkpt lat="50.077777" lon="14.510408"></trkpt>
      <trkpt lat="50.077416" lon="14.519787"></trkpt>
      <trkpt lat="50.077018" lon="14.526683"></trkpt>
      <trkpt lat="50.07649" lon="14.52939"></trkpt>
      <trkpt lat="50.076049" lon="14.530772"></trkpt>
      <trkpt lat="50.075461" lon="14.532072"></trkpt>
      <trkpt lat="50.073538" lon="14.534828"></trkpt>
      <trkpt lat="50.07297" lon="14.535291"></trkpt>
      <trkpt lat="50.072142" lon="14.53561"></trkpt>
      <trkpt lat="50.07173" lon="14.535897"></trkpt>
      <trkpt lat="50.071461" lon="14.53634"></trkpt>
      <trkpt lat="50.07128" lon="14.536956"></trkpt>
      <trkpt lat="50.071119" lon="14.53936"></trkpt>
      <trkpt lat="50.071708" lon="14.539653"></trkpt>
      <trkpt lat="50.072613" lon="14.539732"></trkpt>
      <trkpt lat="50.072983" lon="14.540257"></trkpt>
      <trkpt lat="50.074298" lon="14.54393"></trkpt>
      <trkpt lat="50.077727" lon="14.552127"></trkpt>
      <trkpt lat="50.07838" lon="14.554659"></trkpt>
      <trkpt lat="50.07869" lon="14.556784"></trkpt>
      <trkpt lat="50.078795" lon="14.559696"></trkpt>
      <trkpt lat="50.078661" lon="14.561681"></trkpt>
      <trkpt lat="50.078432" lon="14.563249"></trkpt>
      <trkpt lat="50.077349" lon="14.568318"></trkpt>
      <trkpt lat="50.076977" lon="14.57121"></trkpt>
      <trkpt lat="50.076768" lon="14.580694"></trkpt>
      <trkpt lat="50.076186" lon="14.585808"></trkpt>
      <trkpt lat="50.076233" lon="14.587529"></trkpt>
      <trkpt lat="50.076465" lon="14.588709"></trkpt>
      <trkpt lat="50.076862" lon="14.589808"></trkpt>
      <trkpt lat="50.077398" lon="14.590743"></trkpt>
      <trkpt lat="50.078188" lon="14.591618"></trkpt>
      <trkpt lat="50.080041" lon="14.59273"></trkpt>
      <trkpt lat="50.082947" lon="14.593901"></trkpt>
      <trkpt lat="50.085958" lon="14.594674"></trkpt>
      <trkpt lat="50.087575" lon="14.594888"></trkpt>
      <trkpt lat="50.089678" lon="14.594971"></trkpt>
      <trkpt lat="50.092432" lon="14.594754"></trkpt>
      <trkpt lat="50.096761" lon="14.593933"></trkpt>
      <trkpt lat="50.097535" lon="14.594195"></trkpt>
      <trkpt lat="50.098215" lon="14.595005"></trkpt>
      <trkpt lat="50.098645" lon="14.596436"></trkpt>
      <trkpt lat="50.098595" lon="14.600774"></trkpt>
      <trkpt lat="50.098778" lon="14.603589"></trkpt>
      <trkpt lat="50.099183" lon="14.606259"></trkpt>
      <trkpt lat="50.099622" lon="14.608141"></trkpt>
      <trkpt lat="50.100483" lon="14.61086"></trkpt>
      <trkpt lat="50.10335" lon="14.617788"></trkpt>
      <trkpt lat="50.105042" lon="14.622615"></trkpt>
      <trkpt lat="50.106755" lon="14.629366"></trkpt>
      <trkpt lat="50.110767" lon="14.647921"></trkpt>
      <trkpt lat="50.111747" lon="14.651988"></trkpt>
      <trkpt lat="50.113402" lon="14.657557"></trkpt>
      <trkpt lat="50.117742" lon="14.669728"></trkpt>
      <trkpt lat="50.119199" lon="14.67474"></trkpt>
      <trkpt lat="50.120167" lon="14.678909"></trkpt>
      <trkpt lat="50.120746" lon="14.681983"></trkpt>
      <trkpt lat="50.121611" lon="14.688368"></trkpt>
      <trkpt lat="50.122035" lon="14.693913"></trkpt>
      <trkpt lat="50.122601" lon="14.70694"></trkpt>
      <trkpt lat="50.123146" lon="14.713256"></trkpt>
      <trkpt lat="50.123949" lon="14.719634"></trkpt>
      <trkpt lat="50.125982" lon="14.731549"></trkpt>
      <trkpt lat="50.13127" lon="14.757298"></trkpt>
      <trkpt lat="50.131984" lon="14.761534"></trkpt>
      <trkpt lat="50.132716" lon="14.766942"></trkpt>
      <trkpt lat="50.133147" lon="14.771742"></trkpt>
      <trkpt lat="50.133382" lon="14.777452"></trkpt>
      <trkpt lat="50.133342" lon="14.782796"></trkpt>
      <trkpt lat="50.132852" lon="14.797948"></trkpt>
      <trkpt lat="50.132897" lon="14.801736"></trkpt>
      <trkpt lat="50.133126" lon="14.806443"></trkpt>
      <trkpt lat="50.133412" lon="14.809711"></trkpt>
      <trkpt lat="50.134056" lon="14.814739"></trkpt>
      <trkpt lat="50.136832" lon="14.83036"></trkpt>
      <trkpt lat="50.137239" lon="14.833869"></trkpt>
      <trkpt lat="50.137406" lon="14.836505"></trkpt>
      <trkpt lat="50.137411" lon="14.840798"></trkpt>
      <trkpt lat="50.137201" lon="14.843971"></trkpt>
      <trkpt lat="50.136872" lon="14.846729"></trkpt>
      <trkpt lat="50.136322" lon="14.849858"></trkpt>
      <trkpt lat="50.135062" lon="14.854702"></trkpt>
      <trkpt lat="50.131919" lon="14.863978"></trkpt>
      <trkpt lat="50.13119" lon="14.866423"></trkpt>
      <trkpt lat="50.130169" lon="14.870603"></trkpt>
      <trkpt lat="50.129441" lon="14.874589"></trkpt>
      <trkpt lat="50.12895" lon="14.878518"></trkpt>
      <trkpt lat="50.128643" lon="14.882378"></trkpt>
      <trkpt lat="50.128126" lon="14.897615"></trkpt>
      <trkpt lat="50.127852" lon="14.902549"></trkpt>
      <trkpt lat="50.127146" lon="14.909528"></trkpt>
      <trkpt lat="50.126338" lon="14.91488"></trkpt>
      <trkpt lat="50.125443" lon="14.919478"></trkpt>
      <trkpt lat="50.124122" lon="14.925009"></trkpt>
      <trkpt lat="50.119802" lon="14.939575"></trkpt>
      <trkpt lat="50.118858" lon="14.943031"></trkpt>
      <trkpt lat="50.1178" lon="14.947545"></trkpt>
      <trkpt lat="50.116929" lon="14.952516"></trkpt>
      <trkpt lat="50.116467" lon="14.956346"></trkpt>
      <trkpt lat="50.116131" lon="14.961099"></trkpt>
      <trkpt lat="50.116058" lon="14.964716"></trkpt>
      <trkpt lat="50.116261" lon="14.970776"></trkpt>
      <trkpt lat="50.116578" lon="14.974248"></trkpt>
      <trkpt lat="50.117035" lon="14.977705"></trkpt>
      <trkpt lat="50.117913" lon="14.982751"></trkpt>
      <trkpt lat="50.121097" lon="14.998344"></trkpt>
      <trkpt lat="50.122427" lon="15.006916"></trkpt>
      <trkpt lat="50.123279" lon="15.015488"></trkpt>
      <trkpt lat="50.123575" lon="15.020688"></trkpt>
      <trkpt lat="50.123693" lon="15.025669"></trkpt>
      <trkpt lat="50.12362" lon="15.032286"></trkpt>
      <trkpt lat="50.123296" lon="15.038625"></trkpt>
      <trkpt lat="50.122776" lon="15.044701"></trkpt>
      <trkpt lat="50.121525" lon="15.056644"></trkpt>
      <trkpt lat="50.121026" lon="15.064037"></trkpt>
      <trkpt lat="50.120947" lon="15.0709"></trkpt>
      <trkpt lat="50.121115" lon="15.08578"></trkpt>
      <trkpt lat="50.120826" lon="15.095301"></trkpt>
      <trkpt lat="50.120043" lon="15.104668"></trkpt>
      <trkpt lat="50.118172" lon="15.121576"></trkpt>
      <trkpt lat="50.117715" lon="15.127486"></trkpt>
      <trkpt lat="50.117494" lon="15.132287"></trkpt>
      <trkpt lat="50.117404" lon="15.138128"></trkpt>
      <trkpt lat="50.117535" lon="15.144759"></trkpt>
      <trkpt lat="50.118871" lon="15.170861"></trkpt>
      <trkpt lat="50.118975" lon="15.174916"></trkpt>
      <trkpt lat="50.118694" lon="15.181372"></trkpt>
      <trkpt lat="50.116978" lon="15.195791"></trkpt>
      <trkpt lat="50.116617" lon="15.200446"></trkpt>
      <trkpt lat="50.116387" lon="15.205488"></trkpt>
      <trkpt lat="50.116327" lon="15.21015"></trkpt>
      <trkpt lat="50.116424" lon="15.215379"></trkpt>
      <trkpt lat="50.117268" lon="15.230637"></trkpt>
      <trkpt lat="50.117056" lon="15.243379"></trkpt>
      <trkpt lat="50.11711" lon="15.246633"></trkpt>
      <trkpt lat="50.117428" lon="15.251726"></trkpt>
      <trkpt lat="50.117883" lon="15.255641"></trkpt>
      <trkpt lat="50.11852" lon="15.259521"></trkpt>
      <trkpt lat="50.120703" lon="15.270064"></trkpt>
      <trkpt lat="50.12117" lon="15.27314"></trkpt>
      <trkpt lat="50.121508" lon="15.276453"></trkpt>
      <trkpt lat="50.121683" lon="15.280755"></trkpt>
      <trkpt lat="50.121628" lon="15.284023"></trkpt>
      <trkpt lat="50.120969" lon="15.292806"></trkpt>
      <trkpt lat="50.120868" lon="15.295492"></trkpt>
      <trkpt lat="50.120978" lon="15.298239"></trkpt>
      <trkpt lat="50.121204" lon="15.300229"></trkpt>
      <trkpt lat="50.121799" lon="15.303231"></trkpt>
      <trkpt lat="50.123036" lon="15.306996"></trkpt>
      <trkpt lat="50.123918" lon="15.308862"></trkpt>
      <trkpt lat="50.126227" lon="15.313106"></trkpt>
      <trkpt lat="50.127072" lon="15.314975"></trkpt>
      <trkpt lat="50.12781" lon="15.31701"></trkpt>
      <trkpt lat="50.1285" lon="15.319455"></trkpt>
      <trkpt lat="50.128948" lon="15.321639"></trkpt>
      <trkpt lat="50.129265" lon="15.323808"></trkpt>
      <trkpt lat="50.12946" lon="15.326312"></trkpt>
      <trkpt lat="50.129472" lon="15.329567"></trkpt>
      <trkpt lat="50.129005" lon="15.340097"></trkpt>
      <trkpt lat="50.129066" lon="15.343817"></trkpt>
      <trkpt lat="50.129663" lon="15.356539"></trkpt>
      <trkpt lat="50.129454" lon="15.363213"></trkpt>
      <trkpt lat="50.12903" lon="15.367607"></trkpt>
      <trkpt lat="50.128381" lon="15.371966"></trkpt>
      <trkpt lat="50.12778" lon="15.375022"></trkpt>
      <trkpt lat="50.126059" lon="15.382301"></trkpt>
      <trkpt lat="50.125577" lon="15.384991"></trkpt>
      <trkpt lat="50.125219" lon="15.388485"></trkpt>
      <trkpt lat="50.125156" lon="15.392348"></trkpt>
      <trkpt lat="50.125396" lon="15.395911"></trkpt>
      <trkpt lat="50.125776" lon="15.398586"></trkpt>
      <trkpt lat="50.12995" lon="15.417336"></trkpt>
      <trkpt lat="50.1304" lon="15.419915"></trkpt>
      <trkpt lat="50.130832" lon="15.423917"></trkpt>
      <trkpt lat="50.130966" lon="15.427504"></trkpt>
      <trkpt lat="50.130756" lon="15.432439"></trkpt>
      <trkpt lat="50.13028" lon="15.436252"></trkpt>
      <trkpt lat="50.129003" lon="15.444276"></trkpt>
      <trkpt lat="50.12845" lon="15.449561"></trkpt>
      <trkpt lat="50.128251" lon="15.455378"></trkpt>
      <trkpt lat="50.128398" lon="15.460149"></trkpt>
      <trkpt lat="50.128684" lon="15.463737"></trkpt>
      <trkpt lat="50.129762" lon="15.472349"></trkpt>
      <trkpt lat="50.130224" lon="15.477415"></trkpt>
      <trkpt lat="50.130387" lon="15.481699"></trkpt>
      <trkpt lat="50.13042" lon="15.492215"></trkpt>
      <trkpt lat="50.130833" lon="15.498449"></trkpt>
      <trkpt lat="50.131395" lon="15.502799"></trkpt>
      <trkpt lat="50.132202" lon="15.507134"></trkpt>
      <trkpt lat="50.133049" lon="15.510723"></trkpt>
      <trkpt lat="50.135139" lon="15.518151"></trkpt>
      <trkpt lat="50.135623" lon="15.52034"></trkpt>
      <trkpt lat="50.136223" lon="15.524782"></trkpt>
      <trkpt lat="50.13636" lon="15.529175"></trkpt>
      <trkpt lat="50.136195" lon="15.532146"></trkpt>
      <trkpt lat="50.135626" lon="15.536246"></trkpt>
      <trkpt lat="50.133316" lon="15.545651"></trkpt>
      <trkpt lat="50.131771" lon="15.553362"></trkpt>
      <trkpt lat="50.130833" lon="15.556967"></trkpt>
      <trkpt lat="50.128696" lon="15.563348"></trkpt>
      <trkpt lat="50.127857" lon="15.566547"></trkpt>
      <trkpt lat="50.12733" lon="15.570132"></trkpt>
      <trkpt lat="50.12723" lon="15.574677"></trkpt>
      <trkpt lat="50.127637" lon="15.580715"></trkpt>
      <trkpt lat="50.128633" lon="15.587166"></trkpt>
      <trkpt lat="50.130236" lon="15.594608"></trkpt>
      <trkpt lat="50.13364" lon="15.606948"></trkpt>
      <trkpt lat="50.13517" lon="15.613225"></trkpt>
      <trkpt lat="50.135992" lon="15.61734"></trkpt>
      <trkpt lat="50.136764" lon="15.622052"></trkpt>
      <trkpt lat="50.137735" lon="15.63053"></trkpt>
      <trkpt lat="50.138196" lon="15.639347"></trkpt>
      <trkpt lat="50.138102" lon="15.647825"></trkpt>
      <trkpt lat="50.137756" lon="15.6527"></trkpt>
      <trkpt lat="50.136196" lon="15.666039"></trkpt>
      <trkpt lat="50.13594" lon="15.669804"></trkpt>
      <trkpt lat="50.135821" lon="15.67435"></trkpt>
      <trkpt lat="50.135947" lon="15.679666"></trkpt>
      <trkpt lat="50.136216" lon="15.683778"></trkpt>
      <trkpt lat="50.1367" lon="15.688924"></trkpt>
      <trkpt lat="50.137239" lon="15.693165"></trkpt>
      <trkpt lat="50.138785" lon="15.702309"></trkpt>
      <trkpt lat="50.139994" lon="15.707843"></trkpt>
      <trkpt lat="50.141477" lon="15.713525"></trkpt>
      <trkpt lat="50.143015" lon="15.718574"></trkpt>
      <trkpt lat="50.144327" lon="15.722423"></trkpt>
      <trkpt lat="50.145907" lon="15.726592"></trkpt>
      <trkpt lat="50.148429" lon="15.732439"></trkpt>
      <trkpt lat="50.150567" lon="15.736817"></trkpt>
      <trkpt lat="50.153128" lon="15.741499"></trkpt>
      <trkpt lat="50.155438" lon="15.745183"></trkpt>
      <trkpt lat="50.157384" lon="15.747958"></trkpt>
      <trkpt lat="50.159744" lon="15.7509"></trkpt>
      <trkpt lat="50.161536" lon="15.752932"></trkpt>
      <trkpt lat="50.164403" lon="15.755796"></trkpt>
      <trkpt lat="50.166455" lon="15.757634"></trkpt>
      <trkpt lat="50.169889" lon="15.760184"></trkpt>
      <trkpt lat="50.171674" lon="15.761305"></trkpt>
      <trkpt lat="50.173882" lon="15.762357"></trkpt>
      <trkpt lat="50.176406" lon="15.763103"></trkpt>
      <trkpt lat="50.178856" lon="15.763394"></trkpt>
      <trkpt lat="50.180787" lon="15.763335"></trkpt>
      <trkpt lat="50.186849" lon="15.762239"></trkpt>
      <trkpt lat="50.188609" lon="15.762134"></trkpt>
      <trkpt lat="50.191027" lon="15.762327"></trkpt>
      <trkpt lat="50.193139" lon="15.762837"></trkpt>
      <trkpt lat="50.194496" lon="15.763333"></trkpt>
      <trkpt lat="50.196338" lon="15.764237"></trkpt>
      <trkpt lat="50.201577" lon="15.767526"></trkpt>
      <trkpt lat="50.204526" lon="15.769199"></trkpt>
      <trkpt lat="50.208225" lon="15.77082"></trkpt>
      <trkpt lat="50.211294" lon="15.771778"></trkpt>
      <trkpt lat="50.215125" lon="15.772488"></trkpt>
      <trkpt lat="50.218148" lon="15.772667"></trkpt>
      <trkpt lat="50.221954" lon="15.772498"></trkpt>
      <trkpt lat="50.228378" lon="15.771776"></trkpt>
      <trkpt lat="50.23141" lon="15.771781"></trkpt>
      <trkpt lat="50.233249" lon="15.772061"></trkpt>
      <trkpt lat="50.235241" lon="15.772643"></trkpt>
      <trkpt lat="50.236912" lon="15.773353"></trkpt>
      <trkpt lat="50.239412" lon="15.774824"></trkpt>
      <trkpt lat="50.241017" lon="15.776076"></trkpt>
      <trkpt lat="50.242348" lon="15.77732"></trkpt>
      <trkpt lat="50.243684" lon="15.778781"></trkpt>
      <trkpt lat="50.244982" lon="15.780437"></trkpt>
      <trkpt lat="50.247287" lon="15.784018"></trkpt>
      <trkpt lat="50.251073" lon="15.791032"></trkpt>
      <trkpt lat="50.252956" lon="15.794366"></trkpt>
      <trkpt lat="50.254259" lon="15.796439"></trkpt>
      <trkpt lat="50.257358" lon="15.800614"></trkpt>
      <trkpt lat="50.260241" lon="15.803738"></trkpt>
      <trkpt lat="50.262988" lon="15.806167"></trkpt>
      <trkpt lat="50.265874" lon="15.808196"></trkpt>
      <trkpt lat="50.26912" lon="15.809964"></trkpt>
      <trkpt lat="50.275199" lon="15.812822"></trkpt>
      <trkpt lat="50.278106" lon="15.814475"></trkpt>
      <trkpt lat="50.27973" lon="15.815558"></trkpt>
      <trkpt lat="50.28275" lon="15.817911"></trkpt>
      <trkpt lat="50.284134" lon="15.819156"></trkpt>
      <trkpt lat="50.286035" lon="15.821018"></trkpt>
      <trkpt lat="50.288012" lon="15.823182"></trkpt>
      <trkpt lat="50.289867" lon="15.825538"></trkpt>
      <trkpt lat="50.291876" lon="15.828794"></trkpt>
      <trkpt lat="50.2958" lon="15.837181"></trkpt>
      <trkpt lat="50.297183" lon="15.839917"></trkpt>
      <trkpt lat="50.299301" lon="15.843078"></trkpt>
      <trkpt lat="50.301273" lon="15.845254"></trkpt>
      <trkpt lat="50.303762" lon="15.847243"></trkpt>
      <trkpt lat="50.309668" lon="15.851032"></trkpt>
      <trkpt lat="50.311741" lon="15.852626"></trkpt>
      <trkpt lat="50.313188" lon="15.853897"></trkpt>
      <trkpt lat="50.316719" lon="15.857604"></trkpt>
      <trkpt lat="50.322679" lon="15.86542"></trkpt>
      <trkpt lat="50.323985" lon="15.866801"></trkpt>
      <trkpt lat="50.32572" lon="15.868283"></trkpt>
      <trkpt lat="50.327377" lon="15.869373"></trkpt>
      <trkpt lat="50.328468" lon="15.86995"></trkpt>
      <trkpt lat="50.336527" lon="15.873433"></trkpt>
      <trkpt lat="50.338372" lon="15.874338"></trkpt>
      <trkpt lat="50.340437" lon="15.875545"></trkpt>
      <trkpt lat="50.342021" lon="15.876644"></trkpt>
      <trkpt lat="50.344242" lon="15.878438"></trkpt>
      <trkpt lat="50.346459" lon="15.880572"></trkpt>
      <trkpt lat="50.348707" lon="15.883148"></trkpt>
      <trkpt lat="50.355182" lon="15.891882"></trkpt>
      <trkpt lat="50.35665" lon="15.893645"></trkpt>
      <trkpt lat="50.358331" lon="15.89542"></trkpt>
      <trkpt lat="50.36044" lon="15.897346"></trkpt>
      <trkpt lat="50.363624" lon="15.899698"></trkpt>
      <trkpt lat="50.367113" lon="15.901568"></trkpt>
      <trkpt lat="50.368452" lon="15.902144"></trkpt>
      <trkpt lat="50.370607" lon="15.902862"></trkpt>
      <trkpt lat="50.37381" lon="15.903475"></trkpt>
      <trkpt lat="50.374975" lon="15.903855"></trkpt>
      <trkpt lat="50.375447" lon="15.904234"></trkpt>
      <trkpt lat="50.375871" lon="15.90477"></trkpt>
      <trkpt lat="50.376346" lon="15.906134"></trkpt>
      <trkpt lat="50.376424" lon="15.907712"></trkpt>
      <trkpt lat="50.375993" lon="15.909723"></trkpt>
      <trkpt lat="50.375322" lon="15.911685"></trkpt>
      <trkpt lat="50.374697" lon="15.913063"></trkpt>
      <trkpt lat="50.374538" lon="15.913202"></trkpt>
      <trkpt lat="50.374309" lon="15.913217"></trkpt>
      <trkpt lat="50.374135" lon="15.913449"></trkpt>
      <trkpt lat="50.374098" lon="15.914293"></trkpt>
      <trkpt lat="50.373394" lon="15.916875"></trkpt>
      <trkpt lat="50.373175" lon="15.919438"></trkpt>
      <trkpt lat="50.373386" lon="15.921785"></trkpt>
      <trkpt lat="50.373861" lon="15.923688"></trkpt>
      <trkpt lat="50.383606" lon="15.954064"></trkpt>
      <trkpt lat="50.384772" lon="15.958301"></trkpt>
      <trkpt lat="50.385447" lon="15.961801"></trkpt>
      <trkpt lat="50.38597" lon="15.966409"></trkpt>
      <trkpt lat="50.38609" lon="15.968979"></trkpt>
      <trkpt lat="50.386064" lon="15.976071"></trkpt>
      <trkpt lat="50.386158" lon="15.978028"></trkpt>
      <trkpt lat="50.38643" lon="15.980394"></trkpt>
      <trkpt lat="50.386758" lon="15.98228"></trkpt>
      <trkpt lat="50.387773" lon="15.98635"></trkpt>
      <trkpt lat="50.388358" lon="15.988093"></trkpt>
      <trkpt lat="50.390052" lon="15.992369"></trkpt>
      <trkpt lat="50.390545" lon="15.993929"></trkpt>
      <trkpt lat="50.390843" lon="15.99538"></trkpt>
      <trkpt lat="50.391014" lon="15.997071"></trkpt>
      <trkpt lat="50.390758" lon="16.003959"></trkpt>
      <trkpt lat="50.390508" lon="16.006389"></trkpt>
      <trkpt lat="50.387997" lon="16.018566"></trkpt>
      <trkpt lat="50.386203" lon="16.031125"></trkpt>
      <trkpt lat="50.385904" lon="16.032437"></trkpt>
      <trkpt lat="50.384187" lon="16.037601"></trkpt>
      <trkpt lat="50.38387" lon="16.038853"></trkpt>
      <trkpt lat="50.383701" lon="16.040607"></trkpt>
      <trkpt lat="50.383888" lon="16.042765"></trkpt>
      <trkpt lat="50.384268" lon="16.044179"></trkpt>
      <trkpt lat="50.385226" lon="16.046058"></trkpt>
      <trkpt lat="50.391546" lon="16.05391"></trkpt>
      <trkpt lat="50.392273" lon="16.054527"></trkpt>
      <trkpt lat="50.392957" lon="16.054887"></trkpt>
      <trkpt lat="50.396797" lon="16.055776"></trkpt>
      <trkpt lat="50.397823" lon="16.056246"></trkpt>
      <trkpt lat="50.398918" lon="16.057412"></trkpt>
      <trkpt lat="50.399386" lon="16.058279"></trkpt>
      <trkpt lat="50.399728" lon="16.059225"></trkpt>
      <trkpt lat="50.400017" lon="16.060751"></trkpt>
      <trkpt lat="50.40005" lon="16.062094"></trkpt>
      <trkpt lat="50.39925" lon="16.067248"></trkpt>
      <trkpt lat="50.398691" lon="16.075806"></trkpt>
      <trkpt lat="50.398524" lon="16.076784"></trkpt>
      <trkpt lat="50.397517" lon="16.080273"></trkpt>
      <trkpt lat="50.397214" lon="16.081756"></trkpt>
      <trkpt lat="50.396263" lon="16.091979"></trkpt>
      <trkpt lat="50.39642" lon="16.095191"></trkpt>
      <trkpt lat="50.397527" lon="16.102795"></trkpt>
      <trkpt lat="50.397719" lon="16.104724"></trkpt>
      <trkpt lat="50.397795" lon="16.107633"></trkpt>
      <trkpt lat="50.397695" lon="16.11375"></trkpt>
      <trkpt lat="50.397884" lon="16.115687"></trkpt>
      <trkpt lat="50.398307" lon="16.117139"></trkpt>
      <trkpt lat="50.399131" lon="16.118641"></trkpt>
      <trkpt lat="50.399641" lon="16.11923"></trkpt>
      <trkpt lat="50.401535" lon="16.120732"></trkpt>
      <trkpt lat="50.402228" lon="16.121437"></trkpt>
      <trkpt lat="50.403272" lon="16.122888"></trkpt>
      <trkpt lat="50.404412" lon="16.125238"></trkpt>
      <trkpt lat="50.404972" lon="16.127086"></trkpt>
      <trkpt lat="50.407794" lon="16.141999"></trkpt>
      <trkpt lat="50.407819" lon="16.143514"></trkpt>
      <trkpt lat="50.407633" lon="16.145033"></trkpt>
      <trkpt lat="50.407361" lon="16.146161"></trkpt>
      <trkpt lat="50.4064" lon="16.148731"></trkpt>
      <trkpt lat="50.406246" lon="16.149886"></trkpt>
      <trkpt lat="50.406537" lon="16.15233"></trkpt>
      <trkpt lat="50.4078" lon="16.157199"></trkpt>
      <trkpt lat="50.408436" lon="16.158495"></trkpt>
      <trkpt lat="50.412145" lon="16.163587"></trkpt>
      <trkpt lat="50.412146" lon="16.163844"></trkpt>
      <trkpt lat="50.412302" lon="16.163841"></trkpt>
      <trkpt lat="50.415356" lon="16.168104"></trkpt>
      <trkpt lat="50.416112" lon="16.16893"></trkpt>
      <trkpt lat="50.416128" lon="16.169166"></trkpt>
      <trkpt lat="50.416299" lon="16.169172"></trkpt>
      <trkpt lat="50.416452" lon="16.169469"></trkpt>
      <trkpt lat="50.417095" lon="16.174603"></trkpt>
      <trkpt lat="50.417469" lon="16.176115"></trkpt>
      <trkpt lat="50.420222" lon="16.181952"></trkpt>
      <trkpt lat="50.423155" lon="16.187727"></trkpt>
      <trkpt lat="50.42325" lon="16.188258"></trkpt>
      <trkpt lat="50.423433" lon="16.188302"></trkpt>
      <trkpt lat="50.424839" lon="16.190871"></trkpt>
      <trkpt lat="50.426244" lon="16.192496"></trkpt>
      <trkpt lat="50.42769" lon="16.194967"></trkpt>
      <trkpt lat="50.429063" lon="16.196905"></trkpt>
      <trkpt lat="50.430193" lon="16.19806"></trkpt>
      <trkpt lat="50.43191" lon="16.198964"></trkpt>
      <trkpt lat="50.432441" lon="16.199562"></trkpt>
      <trkpt lat="50.432842" lon="16.200242"></trkpt>
      <trkpt lat="50.433308" lon="16.201597"></trkpt>
      <trkpt lat="50.433815" lon="16.204563"></trkpt>
      <trkpt lat="50.433792" lon="16.205257"></trkpt>
      <trkpt lat="50.433203" lon="16.207907"></trkpt>
      <trkpt lat="50.433223" lon="16.208982"></trkpt>
      <trkpt lat="50.433498" lon="16.210653"></trkpt>
      <trkpt lat="50.434331" lon="16.213263"></trkpt>
      <trkpt lat="50.434777" lon="16.216473"></trkpt>
      <trkpt lat="50.434776" lon="16.221559"></trkpt>
      <trkpt lat="50.434971" lon="16.226296"></trkpt>
      <trkpt lat="50.434483" lon="16.23724"></trkpt>
      <trkpt lat="50.434003" lon="16.238749"></trkpt>
      <trkpt lat="50.432204" lon="16.241449"></trkpt>
      <trkpt lat="50.431441" lon="16.243926"></trkpt>
      <trkpt lat="50.430265" lon="16.246431"></trkpt>
      <trkpt lat="50.429603" lon="16.249044"></trkpt>
      <trkpt lat="50.429166" lon="16.249616"></trkpt>
      <trkpt lat="50.426441" lon="16.252161"></trkpt>
      <trkpt lat="50.425498" lon="16.254155"></trkpt>
      <trkpt lat="50.424912" lon="16.256004"></trkpt>
      <trkpt lat="50.424714" lon="16.25633"></trkpt>
      <trkpt lat="50.423164" lon="16.257522"></trkpt>
      <trkpt lat="50.421508" lon="16.259103"></trkpt>
      <trkpt lat="50.419867" lon="16.259877"></trkpt>
      <trkpt lat="50.418193" lon="16.262329"></trkpt>
      <trkpt lat="50.416339" lon="16.264555"></trkpt>
      <trkpt lat="50.415932" lon="16.264913"></trkpt>
      <trkpt lat="50.414269" lon="16.265854"></trkpt>
      <trkpt lat="50.412828" lon="16.267246"></trkpt>
      <trkpt lat="50.409657" lon="16.273793"></trkpt>
      <trkpt lat="50.408653" lon="16.275238"></trkpt>
      <trkpt lat="50.408214" lon="16.276188"></trkpt>
      <trkpt lat="50.407208" lon="16.280177"></trkpt>
      <trkpt lat="50.406653" lon="16.285102"></trkpt>
      <trkpt lat="50.406589" lon="16.286519"></trkpt>
      <trkpt lat="50.40677" lon="16.287849"></trkpt>
      <trkpt lat="50.407167" lon="16.289195"></trkpt>
      <trkpt lat="50.408411" lon="16.291291"></trkpt>
      <trkpt lat="50.408796" lon="16.292233"></trkpt>
      <trkpt lat="50.409044" lon="16.29334"></trkpt>
      <trkpt lat="50.409117" lon="16.294594"></trkpt>
      <trkpt lat="50.409005" lon="16.295738"></trkpt>
      <trkpt lat="50.407382" lon="16.301901"></trkpt>
      <trkpt lat="50.407086" lon="16.303224"></trkpt>
      <trkpt lat="50.407027" lon="16.30408"></trkpt>
      <trkpt lat="50.40719" lon="16.305131"></trkpt>
      <trkpt lat="50.407812" lon="16.307302"></trkpt>
      <trkpt lat="50.409234" lon="16.310807"></trkpt>
      <trkpt lat="50.410164" lon="16.314365"></trkpt>
      <trkpt lat="50.411307" lon="16.317119"></trkpt>
      <trkpt lat="50.411415" lon="16.320366"></trkpt>
      <trkpt lat="50.411309" lon="16.32138"></trkpt>
      <trkpt lat="50.411053" lon="16.32221"></trkpt>
      <trkpt lat="50.409669" lon="16.325419"></trkpt>
      <trkpt lat="50.408371" lon="16.327215"></trkpt>
      <trkpt lat="50.406908" lon="16.330031"></trkpt>
      <trkpt lat="50.406171" lon="16.332018"></trkpt>
      <trkpt lat="50.404724" lon="16.334038"></trkpt>
      <trkpt lat="50.403483" lon="16.334943"></trkpt>
      <trkpt lat="50.402932" lon="16.335516"></trkpt>
      <trkpt lat="50.4025" lon="16.336434"></trkpt>
      <trkpt lat="50.402069" lon="16.33794"></trkpt>
      <trkpt lat="50.401114" lon="16.339578"></trkpt>
      <trkpt lat="50.400521" lon="16.341156"></trkpt>
      <trkpt lat="50.399452" lon="16.342479"></trkpt>
      <trkpt lat="50.399265" lon="16.342861"></trkpt>
      <trkpt lat="50.399" lon="16.343831"></trkpt>
      <trkpt lat="50.398893" lon="16.345931"></trkpt>
      <trkpt lat="50.398559" lon="16.347633"></trkpt>
      <trkpt lat="50.39727" lon="16.351765"></trkpt>
      <trkpt lat="50.395719" lon="16.355049"></trkpt>
      <trkpt lat="50.395306" lon="16.356141"></trkpt>
      <trkpt lat="50.394815" lon="16.358837"></trkpt>
      <trkpt lat="50.393386" lon="16.362954"></trkpt>
      <trkpt lat="50.393209" lon="16.364863"></trkpt>
      <trkpt lat="50.393482" lon="16.366323"></trkpt>
      <trkpt lat="50.394096" lon="16.367574"></trkpt>
      <trkpt lat="50.395193" lon="16.369023"></trkpt>
      <trkpt lat="50.396059" lon="16.370475"></trkpt>
      <trkpt lat="50.396717" lon="16.371196"></trkpt>
      <trkpt lat="50.397731" lon="16.372042"></trkpt>
      <trkpt lat="50.398186" lon="16.372735"></trkpt>
      <trkpt lat="50.399261" lon="16.3752"></trkpt>
      <trkpt lat="50.399854" lon="16.377253"></trkpt>
      <trkpt lat="50.401525" lon="16.380811"></trkpt>
      <trkpt lat="50.402345" lon="16.381987"></trkpt>
      <trkpt lat="50.404107" lon="16.383702"></trkpt>
      <trkpt lat="50.404548" lon="16.384311"></trkpt>
      <trkpt lat="50.406155" lon="16.387426"></trkpt>
      <trkpt lat="50.406501" lon="16.388385"></trkpt>
      <trkpt lat="50.40664" lon="16.389529"></trkpt>
      <trkpt lat="50.406491" lon="16.390861"></trkpt>
      <trkpt lat="50.405099" lon="16.394223"></trkpt>
      <trkpt lat="50.404726" lon="16.396265"></trkpt>
      <trkpt lat="50.404606" lon="16.399514"></trkpt>
      <trkpt lat="50.404365" lon="16.401417"></trkpt>
      <trkpt lat="50.404322" lon="16.405702"></trkpt>
      <trkpt lat="50.404575" lon="16.406956"></trkpt>
      <trkpt lat="50.404966" lon="16.407849"></trkpt>
      <trkpt lat="50.40546" lon="16.408398"></trkpt>
      <trkpt lat="50.407213" lon="16.409736"></trkpt>
      <trkpt lat="50.40778" lon="16.410628"></trkpt>
      <trkpt lat="50.408289" lon="16.412276"></trkpt>
      <trkpt lat="50.408649" lon="16.415046"></trkpt>
      <trkpt lat="50.410009" lon="16.418645"></trkpt>
      <trkpt lat="50.410052" lon="16.419723"></trkpt>
      <trkpt lat="50.409885" lon="16.420973"></trkpt>
      <trkpt lat="50.409162" lon="16.423018"></trkpt>
      <trkpt lat="50.408777" lon="16.425748"></trkpt>
      <trkpt lat="50.407963" lon="16.42855"></trkpt>
      <trkpt lat="50.407798" lon="16.429982"></trkpt>
      <trkpt lat="50.407914" lon="16.430784"></trkpt>
      <trkpt lat="50.408402" lon="16.432478"></trkpt>
      <trkpt lat="50.409524" lon="16.43508"></trkpt>
      <trkpt lat="50.411125" lon="16.442951"></trkpt>
      <trkpt lat="50.412376" lon="16.445931"></trkpt>
      <trkpt lat="50.412909" lon="16.446856"></trkpt>
      <trkpt lat="50.415288" lon="16.449059"></trkpt>
      <trkpt lat="50.422167" lon="16.457479"></trkpt>
      <trkpt lat="50.422768" lon="16.458707"></trkpt>
      <trkpt lat="50.423163" lon="16.459836"></trkpt>
      <trkpt lat="50.424594" lon="16.465239"></trkpt>
      <trkpt lat="50.425809" lon="16.475254"></trkpt>
      <trkpt lat="50.425836" lon="16.478513"></trkpt>
      <trkpt lat="50.425626" lon="16.480407"></trkpt>
      <trkpt lat="50.424345" lon="16.487687"></trkpt>
      <trkpt lat="50.422582" lon="16.495625"></trkpt>
      <trkpt lat="50.422301" lon="16.497905"></trkpt>
      <trkpt lat="50.422263" lon="16.501712"></trkpt>
      <trkpt lat="50.422814" lon="16.5057"></trkpt>
      <trkpt lat="50.424407" lon="16.511861"></trkpt>
      <trkpt lat="50.424928" lon="16.516023"></trkpt>
      <trkpt lat="50.425531" lon="16.519228"></trkpt>
      <trkpt lat="50.425589" lon="16.522344"></trkpt>
      <trkpt lat="50.426368" lon="16.528739"></trkpt>
      <trkpt lat="50.426288" lon="16.532129"></trkpt>
      <trkpt lat="50.426705" lon="16.537841"></trkpt>
      <trkpt lat="50.426977" lon="16.543638"></trkpt>
      <trkpt lat="50.426955" lon="16.545745"></trkpt>
      <trkpt lat="50.427236" lon="16.547807"></trkpt>
      <trkpt lat="50.428653" lon="16.554656"></trkpt>
      <trkpt lat="50.43022" lon="16.559264"></trkpt>
      <trkpt lat="50.430424" lon="16.560648"></trkpt>
      <trkpt lat="50.430908" lon="16.566446"></trkpt>
      <trkpt lat="50.431184" lon="16.567818"></trkpt>
      <trkpt lat="50.431599" lon="16.569008"></trkpt>
      <trkpt lat="50.433382" lon="16.57275"></trkpt>
      <trkpt lat="50.433792" lon="16.573835"></trkpt>
      <trkpt lat="50.435373" lon="16.58701"></trkpt>
      <trkpt lat="50.436651" lon="16.593039"></trkpt>
      <trkpt lat="50.437222" lon="16.596501"></trkpt>
      <trkpt lat="50.437426" lon="16.606084"></trkpt>
      <trkpt lat="50.437445" lon="16.613486"></trkpt>
      <trkpt lat="50.438005" lon="16.61913"></trkpt>
      <trkpt lat="50.43865" lon="16.622146"></trkpt>
      <trkpt lat="50.439874" lon="16.625436"></trkpt>
      <trkpt lat="50.439865" lon="16.625949"></trkpt>
      <trkpt lat="50.439683" lon="16.626486"></trkpt>
      <trkpt lat="50.438992" lon="16.626978"></trkpt>
      <trkpt lat="50.437429" lon="16.627361"></trkpt>
      <trkpt lat="50.437102" lon="16.627311"></trkpt>
      <trkpt lat="50.436817" lon="16.627121"></trkpt>
      <trkpt lat="50.43665" lon="16.626533"></trkpt>
      <trkpt lat="50.436744" lon="16.626022"></trkpt>
      <trkpt lat="50.437038" lon="16.625682"></trkpt>
      <trkpt lat="50.437205" lon="16.62564"></trkpt>
      <trkpt lat="50.438298" lon="16.625644"></trkpt>
      <trkpt lat="50.438449" lon="16.625712"></trkpt>
      <trkpt lat="50.438658" lon="16.626271"></trkpt>
      <trkpt lat="50.438742" lon="16.628357"></trkpt>
      <trkpt lat="50.438605" lon="16.628881"></trkpt>
      <trkpt lat="50.438762" lon="16.629191"></trkpt>
      <trkpt lat="50.438904" lon="16.629994"></trkpt>
      <trkpt lat="50.439265" lon="16.634938"></trkpt>
      <trkpt lat="50.439225" lon="16.635663"></trkpt>
      <trkpt lat="50.43939" lon="16.636393"></trkpt>
      <trkpt lat="50.43985" lon="16.641885"></trkpt>
      <trkpt lat="50.439929" lon="16.644043"></trkpt>
      <trkpt lat="50.439753" lon="16.64714"></trkpt>
      <trkpt lat="50.439414" lon="16.648111"></trkpt>
      <trkpt lat="50.439103" lon="16.648476"></trkpt>
      <trkpt lat="50.438682" lon="16.648732"></trkpt>
      <trkpt lat="50.437986" lon="16.648706"></trkpt>
      <trkpt lat="50.436623" lon="16.648189"></trkpt>
      <trkpt lat="50.436416" lon="16.64828"></trkpt>
      <trkpt lat="50.436266" lon="16.648508"></trkpt>
      <trkpt lat="50.436066" lon="16.649736"></trkpt>
      <trkpt lat="50.435897" lon="16.650126"></trkpt>
      <trkpt lat="50.436017" lon="16.650463"></trkpt>
      <trkpt lat="50.435914" lon="16.651777"></trkpt>
      <trkpt lat="50.435334" lon="16.653136"></trkpt>
      <trkpt lat="50.435296" lon="16.653798"></trkpt>
      <trkpt lat="50.435392" lon="16.654734"></trkpt>
      <trkpt lat="50.435514" lon="16.654826"></trkpt>
      <trkpt lat="50.436573" lon="16.657554"></trkpt>
      <trkpt lat="50.436801" lon="16.65891"></trkpt>
      <trkpt lat="50.436352" lon="16.658966"></trkpt>
      <trkpt lat="50.436113" lon="16.659216"></trkpt>
      <trkpt lat="50.435279" lon="16.66049"></trkpt>
      <trkpt lat="50.435234" lon="16.661117"></trkpt>
      <trkpt lat="50.434881" lon="16.661097"></trkpt>
      <trkpt lat="50.434403" lon="16.661271"></trkpt>
      <trkpt lat="50.433078" lon="16.669274"></trkpt>
      <trkpt lat="50.433671" lon="16.681282"></trkpt>
      <trkpt lat="50.433959" lon="16.683302"></trkpt>
      <trkpt lat="50.433915" lon="16.683953"></trkpt>
      <trkpt lat="50.435723" lon="16.6882"></trkpt>
      <trkpt lat="50.436824" lon="16.691393"></trkpt>
      <trkpt lat="50.437135" lon="16.693349"></trkpt>
      <trkpt lat="50.437189" lon="16.695667"></trkpt>
      <trkpt lat="50.436693" lon="16.697524"></trkpt>
      <trkpt lat="50.436484" lon="16.70005"></trkpt>
      <trkpt lat="50.434286" lon="16.706864"></trkpt>
      <trkpt lat="50.433752" lon="16.709291"></trkpt>
      <trkpt lat="50.431959" lon="16.713715"></trkpt>
      <trkpt lat="50.430819" lon="16.715794"></trkpt>
      <trkpt lat="50.430577" lon="16.716496"></trkpt>
      <trkpt lat="50.430447" lon="16.719128"></trkpt>
      <trkpt lat="50.42953" lon="16.727066"></trkpt>
      <trkpt lat="50.429593" lon="16.72899"></trkpt>
      <trkpt lat="50.429852" lon="16.730557"></trkpt>
      <trkpt lat="50.430959" lon="16.73352"></trkpt>
      <trkpt lat="50.43136" lon="16.735021"></trkpt>
      <trkpt lat="50.431997" lon="16.741283"></trkpt>
      <trkpt lat="50.432317" lon="16.742978"></trkpt>
      <trkpt lat="50.432263" lon="16.743899"></trkpt>
      <trkpt lat="50.431721" lon="16.745298"></trkpt>
      <trkpt lat="50.43164" lon="16.745943"></trkpt>
      <trkpt lat="50.432225" lon="16.748458"></trkpt>
      <trkpt lat="50.432238" lon="16.752404"></trkpt>
      <trkpt lat="50.432119" lon="16.753203"></trkpt>
      <trkpt lat="50.431589" lon="16.755083"></trkpt>
      <trkpt lat="50.431105" lon="16.757838"></trkpt>
      <trkpt lat="50.431125" lon="16.758488"></trkpt>
      <trkpt lat="50.431463" lon="16.760402"></trkpt>
      <trkpt lat="50.431502" lon="16.762158"></trkpt>
      <trkpt lat="50.431371" lon="16.764934"></trkpt>
      <trkpt lat="50.431472" lon="16.765833"></trkpt>
      <trkpt lat="50.43223" lon="16.768389"></trkpt>
      <trkpt lat="50.434831" lon="16.772938"></trkpt>
      <trkpt lat="50.435775" lon="16.775297"></trkpt>
      <trkpt lat="50.436889" lon="16.780262"></trkpt>
      <trkpt lat="50.437709" lon="16.781478"></trkpt>
      <trkpt lat="50.438802" lon="16.782383"></trkpt>
      <trkpt lat="50.43925" lon="16.783165"></trkpt>
      <trkpt lat="50.439448" lon="16.78404"></trkpt>
      <trkpt lat="50.439682" lon="16.786401"></trkpt>
      <trkpt lat="50.440312" lon="16.789715"></trkpt>
      <trkpt lat="50.44019" lon="16.791098"></trkpt>
      <trkpt lat="50.440236" lon="16.792522"></trkpt>
      <trkpt lat="50.440055" lon="16.793265"></trkpt>
      <trkpt lat="50.43936" lon="16.794198"></trkpt>
      <trkpt lat="50.438031" lon="16.795431"></trkpt>
      <trkpt lat="50.437316" lon="16.796978"></trkpt>
      <trkpt lat="50.435795" lon="16.799104"></trkpt>
      <trkpt lat="50.435497" lon="16.799778"></trkpt>
      <trkpt lat="50.435373" lon="16.800474"></trkpt>
      <trkpt lat="50.435292" lon="16.803091"></trkpt>
      <trkpt lat="50.434684" lon="16.804875"></trkpt>
      <trkpt lat="50.434321" lon="16.807047"></trkpt>
      <trkpt lat="50.433668" lon="16.809821"></trkpt>
      <trkpt lat="50.433595" lon="16.814081"></trkpt>
      <trkpt lat="50.433757" lon="16.815204"></trkpt>
      <trkpt lat="50.434208" lon="16.816977"></trkpt>
      <trkpt lat="50.434067" lon="16.819354"></trkpt>
      <trkpt lat="50.434213" lon="16.820263"></trkpt>
      <trkpt lat="50.434464" lon="16.820816"></trkpt>
      <trkpt lat="50.434929" lon="16.821315"></trkpt>
      <trkpt lat="50.436285" lon="16.822175"></trkpt>
      <trkpt lat="50.437582" lon="16.822427"></trkpt>
      <trkpt lat="50.438863" lon="16.823106"></trkpt>
      <trkpt lat="50.440509" lon="16.824446"></trkpt>
      <trkpt lat="50.440876" lon="16.825271"></trkpt>
      <trkpt lat="50.441622" lon="16.830193"></trkpt>
      <trkpt lat="50.441942" lon="16.831074"></trkpt>
      <trkpt lat="50.442358" lon="16.831526"></trkpt>
      <trkpt lat="50.443632" lon="16.832362"></trkpt>
      <trkpt lat="50.44592" lon="16.836259"></trkpt>
      <trkpt lat="50.446891" lon="16.836893"></trkpt>
      <trkpt lat="50.448847" lon="16.839126"></trkpt>
      <trkpt lat="50.449031" lon="16.839236"></trkpt>
      <trkpt lat="50.449268" lon="16.839211"></trkpt>
      <trkpt lat="50.449906" lon="16.83873"></trkpt>
      <trkpt lat="50.450195" lon="16.838708"></trkpt>
      <trkpt lat="50.450438" lon="16.838939"></trkpt>
      <trkpt lat="50.451044" lon="16.83995"></trkpt>
      <trkpt lat="50.452569" lon="16.841049"></trkpt>
      <trkpt lat="50.453278" lon="16.841771"></trkpt>
      <trkpt lat="50.453818" lon="16.84271"></trkpt>
      <trkpt lat="50.453941" lon="16.843131"></trkpt>
      <trkpt lat="50.453875" lon="16.84487"></trkpt>
      <trkpt lat="50.453975" lon="16.845538"></trkpt>
      <trkpt lat="50.455093" lon="16.848071"></trkpt>
      <trkpt lat="50.455284" lon="16.848732"></trkpt>
      <trkpt lat="50.455239" lon="16.849881"></trkpt>
      <trkpt lat="50.454809" lon="16.850857"></trkpt>
      <trkpt lat="50.452438" lon="16.85321"></trkpt>
      <trkpt lat="50.450956" lon="16.8536"></trkpt>
      <trkpt lat="50.450545" lon="16.853864"></trkpt>
      <trkpt lat="50.450189" lon="16.854331"></trkpt>
      <trkpt lat="50.449176" lon="16.856643"></trkpt>
      <trkpt lat="50.448412" lon="16.858758"></trkpt>
      <trkpt lat="50.447309" lon="16.861101"></trkpt>
      <trkpt lat="50.447009" lon="16.862316"></trkpt>
      <trkpt lat="50.447233" lon="16.864752"></trkpt>
      <trkpt lat="50.447036" lon="16.868842"></trkpt>
      <trkpt lat="50.446738" lon="16.86987"></trkpt>
      <trkpt lat="50.445048" lon="16.873719"></trkpt>
      <trkpt lat="50.444446" lon="16.876442"></trkpt>
      <trkpt lat="50.444396" lon="16.877114"></trkpt>
      <trkpt lat="50.44483" lon="16.882393"></trkpt>
      <trkpt lat="50.44566" lon="16.88567"></trkpt>
      <trkpt lat="50.445888" lon="16.887402"></trkpt>
      <trkpt lat="50.448466" lon="16.894071"></trkpt>
      <trkpt lat="50.448784" lon="16.895333"></trkpt>
      <trkpt lat="50.449179" lon="16.902722"></trkpt>
      <trkpt lat="50.449869" lon="16.909378"></trkpt>
      <trkpt lat="50.449404" lon="16.913677"></trkpt>
      <trkpt lat="50.44942" lon="16.915112"></trkpt>
      <trkpt lat="50.449664" lon="16.916668"></trkpt>
      <trkpt lat="50.45032" lon="16.918633"></trkpt>
      <trkpt lat="50.45775" lon="16.933077"></trkpt>
      <trkpt lat="50.458248" lon="16.93451"></trkpt>
      <trkpt lat="50.458593" lon="16.935984"></trkpt>
      <trkpt lat="50.45888" lon="16.938897"></trkpt>
      <trkpt lat="50.458742" lon="16.978665"></trkpt>
      <trkpt lat="50.458428" lon="16.980419"></trkpt>
      <trkpt lat="50.457876" lon="16.982198"></trkpt>
      <trkpt lat="50.457141" lon="16.983735"></trkpt>
      <trkpt lat="50.454885" lon="16.987586"></trkpt>
      <trkpt lat="50.454227" lon="16.989309"></trkpt>
      <trkpt lat="50.453892" lon="16.990705"></trkpt>
      <trkpt lat="50.453648" lon="16.993086"></trkpt>
      <trkpt lat="50.453372" lon="17.006883"></trkpt>
      <trkpt lat="50.453578" lon="17.009822"></trkpt>
      <trkpt lat="50.454012" lon="17.012176"></trkpt>
      <trkpt lat="50.458043" lon="17.026108"></trkpt>
      <trkpt lat="50.458344" lon="17.028439"></trkpt>
      <trkpt lat="50.458305" lon="17.030534"></trkpt>
      <trkpt lat="50.45797" lon="17.032655"></trkpt>
      <trkpt lat="50.456291" lon="17.039141"></trkpt>
      <trkpt lat="50.455707" lon="17.040226"></trkpt>
      <trkpt lat="50.453875" lon="17.042992"></trkpt>
      <trkpt lat="50.453567" lon="17.04365"></trkpt>
      <trkpt lat="50.453309" lon="17.044619"></trkpt>
      <trkpt lat="50.453102" lon="17.049606"></trkpt>
      <trkpt lat="50.44809" lon="17.097828"></trkpt>
      <trkpt lat="50.445936" lon="17.109525"></trkpt>
      <trkpt lat="50.444805" lon="17.113678"></trkpt>
      <trkpt lat="50.444629" lon="17.115749"></trkpt>
      <trkpt lat="50.444867" lon="17.117127"></trkpt>
      <trkpt lat="50.444955" lon="17.118685"></trkpt>
      <trkpt lat="50.446129" lon="17.124361"></trkpt>
      <trkpt lat="50.448011" lon="17.130677"></trkpt>
      <trkpt lat="50.449623" lon="17.138259"></trkpt>
      <trkpt lat="50.450455" lon="17.141038"></trkpt>
      <trkpt lat="50.452957" lon="17.150979"></trkpt>
      <trkpt lat="50.457228" lon="17.163464"></trkpt>
      <trkpt lat="50.458102" lon="17.166772"></trkpt>
      <trkpt lat="50.458366" lon="17.169468"></trkpt>
      <trkpt lat="50.458296" lon="17.171683"></trkpt>
      <trkpt lat="50.45677" lon="17.179299"></trkpt>
      <trkpt lat="50.45641" lon="17.182112"></trkpt>
      <trkpt lat="50.456469" lon="17.185575"></trkpt>
      <trkpt lat="50.456951" lon="17.188461"></trkpt>
      <trkpt lat="50.457488" lon="17.190278"></trkpt>
      <trkpt lat="50.458004" lon="17.191574"></trkpt>
      <trkpt lat="50.458662" lon="17.19288"></trkpt>
      <trkpt lat="50.459537" lon="17.194262"></trkpt>
      <trkpt lat="50.461065" lon="17.195915"></trkpt>
      <trkpt lat="50.463782" lon="17.198123"></trkpt>
      <trkpt lat="50.464853" lon="17.199307"></trkpt>
      <trkpt lat="50.465441" lon="17.200174"></trkpt>
      <trkpt lat="50.466015" lon="17.201149"></trkpt>
      <trkpt lat="50.466737" lon="17.20275"></trkpt>
      <trkpt lat="50.467326" lon="17.20438"></trkpt>
      <trkpt lat="50.467645" lon="17.20568"></trkpt>
      <trkpt lat="50.468009" lon="17.20803"></trkpt>
      <trkpt lat="50.468734" lon="17.215268"></trkpt>
      <trkpt lat="50.468666" lon="17.216343"></trkpt>
      <trkpt lat="50.467977" lon="17.22107"></trkpt>
      <trkpt lat="50.468049" lon="17.226605"></trkpt>
      <trkpt lat="50.468364" lon="17.229752"></trkpt>
      <trkpt lat="50.46985" lon="17.240152"></trkpt>
      <trkpt lat="50.470228" lon="17.242099"></trkpt>
      <trkpt lat="50.470671" lon="17.24364"></trkpt>
      <trkpt lat="50.471132" lon="17.24489"></trkpt>
      <trkpt lat="50.472579" lon="17.247953"></trkpt>
      <trkpt lat="50.473" lon="17.24939"></trkpt>
      <trkpt lat="50.474568" lon="17.257105"></trkpt>
      <trkpt lat="50.475064" lon="17.260602"></trkpt>
      <trkpt lat="50.475022" lon="17.261284"></trkpt>
      <trkpt lat="50.475255" lon="17.261701"></trkpt>
      <trkpt lat="50.475681" lon="17.264173"></trkpt>
      <trkpt lat="50.476031" lon="17.266561"></trkpt>
      <trkpt lat="50.476482" lon="17.27173"></trkpt>
      <trkpt lat="50.478537" lon="17.281569"></trkpt>
      <trkpt lat="50.479602" lon="17.285434"></trkpt>
      <trkpt lat="50.479584" lon="17.287273"></trkpt>
      <trkpt lat="50.47902" lon="17.290355"></trkpt>
      <trkpt lat="50.478762" lon="17.295392"></trkpt>
      <trkpt lat="50.479469" lon="17.302518"></trkpt>
      <trkpt lat="50.479998" lon="17.304933"></trkpt>
      <trkpt lat="50.480602" lon="17.306204"></trkpt>
      <trkpt lat="50.48107" lon="17.307824"></trkpt>
      <trkpt lat="50.481488" lon="17.311708"></trkpt>
      <trkpt lat="50.481859" lon="17.313295"></trkpt>
      <trkpt lat="50.481684" lon="17.314016"></trkpt>
      <trkpt lat="50.479788" lon="17.31764"></trkpt>
      <trkpt lat="50.479197" lon="17.3198"></trkpt>
      <trkpt lat="50.47712" lon="17.322537"></trkpt>
      <trkpt lat="50.477047" lon="17.322896"></trkpt>
      <trkpt lat="50.477128" lon="17.324831"></trkpt>
      <trkpt lat="50.476893" lon="17.325426"></trkpt>
      <trkpt lat="50.47789" lon="17.328676"></trkpt>
      <trkpt lat="50.479867" lon="17.333229"></trkpt>
      <trkpt lat="50.480716" lon="17.334665"></trkpt>
      <trkpt lat="50.48098" lon="17.33544"></trkpt>
      <trkpt lat="50.479038" lon="17.33774"></trkpt>
      <trkpt lat="50.478489" lon="17.338279"></trkpt>
      <trkpt lat="50.478333" lon="17.338312"></trkpt>
      <trkpt lat="50.478196" lon="17.338631"></trkpt>
      <trkpt lat="50.476722" lon="17.34038"></trkpt>
      <trkpt lat="50.476049" lon="17.340835"></trkpt>
      <trkpt lat="50.476078" lon="17.34096"></trkpt>
      <trkpt lat="50.476318" lon="17.340833"></trkpt>
  </trkseg></trk>
</gpx>
