<?xml version="1.0" encoding="UTF-8"?>
<gpx version="1.1" creator="yatutbuv" xmlns="http://www.topografix.com/GPX/1/1">
  <trk><name>GraphHopper Track</name><trkseg>
      <trkpt lat="50.977866" lon="11.028905"></trkpt>
      <trkpt lat="50.978025" lon="11.028641"></trkpt>
      <trkpt lat="50.978564" lon="11.03007"></trkpt>
      <trkpt lat="50.978284" lon="11.033196"></trkpt>
      <trkpt lat="50.978233" lon="11.035367"></trkpt>
      <trkpt lat="50.978866" lon="11.037351"></trkpt>
      <trkpt lat="50.980754" lon="11.040728"></trkpt>
      <trkpt lat="50.981923" lon="11.04167"></trkpt>
      <trkpt lat="50.983936" lon="11.044702"></trkpt>
      <trkpt lat="50.986345" lon="11.04968"></trkpt>
      <trkpt lat="50.987193" lon="11.051316"></trkpt>
      <trkpt lat="50.988377" lon="11.053225"></trkpt>
      <trkpt lat="50.98938" lon="11.055394"></trkpt>
      <trkpt lat="50.990734" lon="11.057869"></trkpt>
      <trkpt lat="50.993199" lon="11.063284"></trkpt>
      <trkpt lat="50.994328" lon="11.065075"></trkpt>
      <trkpt lat="50.995434" lon="11.067765"></trkpt>
      <trkpt lat="50.996489" lon="11.071105"></trkpt>
      <trkpt lat="50.999613" lon="11.08706"></trkpt>
      <trkpt lat="51.000013" lon="11.088311"></trkpt>
      <trkpt lat="51.006566" lon="11.099694"></trkpt>
      <trkpt lat="51.007611" lon="11.101044"></trkpt>
      <trkpt lat="51.00894" lon="11.102442"></trkpt>
      <trkpt lat="51.010727" lon="11.107363"></trkpt>
      <trkpt lat="51.012588" lon="11.11068"></trkpt>
      <trkpt lat="51.016081" lon="11.115501"></trkpt>
      <trkpt lat="51.016294" lon="11.115654"></trkpt>
      <trkpt lat="51.017075" lon="11.115865"></trkpt>
      <trkpt lat="51.017288" lon="11.116083"></trkpt>
      <trkpt lat="51.017814" lon="11.117197"></trkpt>
      <trkpt lat="51.018562" lon="11.118143"></trkpt>
      <trkpt lat="51.019445" lon="11.120971"></trkpt>
      <trkpt lat="51.024485" lon="11.133651"></trkpt>
      <trkpt lat="51.024789" lon="11.134804"></trkpt>
      <trkpt lat="51.024955" lon="11.137576"></trkpt>
      <trkpt lat="51.025358" lon="11.139677"></trkpt>
      <trkpt lat="51.025564" lon="11.14043"></trkpt>
      <trkpt lat="51.026233" lon="11.141735"></trkpt>
      <trkpt lat="51.027058" lon="11.144199"></trkpt>
      <trkpt lat="51.030516" lon="11.167821"></trkpt>
      <trkpt lat="51.035283" lon="11.188144"></trkpt>
      <trkpt lat="51.036338" lon="11.190499"></trkpt>
      <trkpt lat="51.037468" lon="11.192266"></trkpt>
      <trkpt lat="51.037872" lon="11.192515"></trkpt>
      <trkpt lat="51.039138" lon="11.19273"></trkpt>
      <trkpt lat="51.039572" lon="11.1931"></trkpt>
      <trkpt lat="51.047391" lon="11.202355"></trkpt>
      <trkpt lat="51.051625" lon="11.210279"></trkpt>
      <trkpt lat="51.051978" lon="11.212251"></trkpt>
      <trkpt lat="51.052033" lon="11.214662"></trkpt>
      <trkpt lat="51.05146" lon="11.215157"></trkpt>
      <trkpt lat="51.046775" lon="11.217932"></trkpt>
      <trkpt lat="51.040422" lon="11.22691"></trkpt>
      <trkpt lat="51.040078" lon="11.227145"></trkpt>
      <trkpt lat="51.039294" lon="11.227115"></trkpt>
      <trkpt lat="51.038486" lon="11.227779"></trkpt>
      <trkpt lat="51.037549" lon="11.227765"></trkpt>
      <trkpt lat="51.037015" lon="11.227949"></trkpt>
      <trkpt lat="51.036566" lon="11.229946"></trkpt>
      <trkpt lat="51.036016" lon="11.230694"></trkpt>
      <trkpt lat="51.034554" lon="11.231608"></trkpt>
      <trkpt lat="51.025217" lon="11.23948"></trkpt>
      <trkpt lat="51.02279" lon="11.239741"></trkpt>
      <trkpt lat="51.02059" lon="11.241754"></trkpt>
      <trkpt lat="51.01997" lon="11.24209"></trkpt>
      <trkpt lat="51.019517" lon="11.242782"></trkpt>
      <trkpt lat="51.019288" lon="11.243686"></trkpt>
      <trkpt lat="51.020378" lon="11.244548"></trkpt>
      <trkpt lat="51.020798" lon="11.245036"></trkpt>
      <trkpt lat="51.021227" lon="11.249297"></trkpt>
  </trkseg></trk>
</gpx>
