<?xml version="1.0" encoding="UTF-8"?>
<gpx version="1.1" creator="yatutbuv" xmlns="http://www.topografix.com/GPX/1/1">
  <trk><name>GraphHopper Track</name><trkseg>
      <trkpt lat="44.091382" lon="43.093674"></trkpt>
      <trkpt lat="44.091059" lon="43.087508"></trkpt>
      <trkpt lat="44.088512" lon="43.086293"></trkpt>
      <trkpt lat="44.084545" lon="43.084713"></trkpt>
      <trkpt lat="44.080263" lon="43.08226"></trkpt>
      <trkpt lat="44.079373" lon="43.081537"></trkpt>
      <trkpt lat="44.078349" lon="43.081163"></trkpt>
      <trkpt lat="44.067444" lon="43.074902"></trkpt>
      <trkpt lat="44.067071" lon="43.074537"></trkpt>
      <trkpt lat="44.066899" lon="43.074158"></trkpt>
      <trkpt lat="44.06586" lon="43.064956"></trkpt>
      <trkpt lat="44.063221" lon="43.051722"></trkpt>
      <trkpt lat="44.062645" lon="43.050081"></trkpt>
      <trkpt lat="44.059074" lon="43.043012"></trkpt>
      <trkpt lat="44.058926" lon="43.04232"></trkpt>
      <trkpt lat="44.058949" lon="43.041416"></trkpt>
      <trkpt lat="44.060875" lon="43.012771"></trkpt>
      <trkpt lat="44.061077" lon="43.011083"></trkpt>
      <trkpt lat="44.067028" lon="42.993129"></trkpt>
      <trkpt lat="44.067461" lon="42.991484"></trkpt>
      <trkpt lat="44.067707" lon="42.990952"></trkpt>
      <trkpt lat="44.070332" lon="42.988033"></trkpt>
      <trkpt lat="44.070796" lon="42.987127"></trkpt>
      <trkpt lat="44.071681" lon="42.982232"></trkpt>
      <trkpt lat="44.071472" lon="42.982013"></trkpt>
      <trkpt lat="44.07001" lon="42.981765"></trkpt>
      <trkpt lat="44.069863" lon="42.978596"></trkpt>
      <trkpt lat="44.064149" lon="42.983551"></trkpt>
      <trkpt lat="44.063683" lon="42.983828"></trkpt>
      <trkpt lat="44.063558" lon="42.983764"></trkpt>
      <trkpt lat="44.063452" lon="42.983349"></trkpt>
      <trkpt lat="44.063399" lon="42.977664"></trkpt>
      <trkpt lat="44.062238" lon="42.972997"></trkpt>
      <trkpt lat="44.06161" lon="42.964719"></trkpt>
      <trkpt lat="44.061274" lon="42.963118"></trkpt>
      <trkpt lat="44.060861" lon="42.962214"></trkpt>
      <trkpt lat="44.059076" lon="42.959735"></trkpt>
      <trkpt lat="44.058912" lon="42.959215"></trkpt>
      <trkpt lat="44.058877" lon="42.958407"></trkpt>
      <trkpt lat="44.058723" lon="42.958065"></trkpt>
      <trkpt lat="44.058386" lon="42.957819"></trkpt>
      <trkpt lat="44.058063" lon="42.957854"></trkpt>
      <trkpt lat="44.057568" lon="42.957645"></trkpt>
      <trkpt lat="44.055943" lon="42.955487"></trkpt>
      <trkpt lat="44.055379" lon="42.954277"></trkpt>
      <trkpt lat="44.054862" lon="42.952457"></trkpt>
      <trkpt lat="44.054782" lon="42.950346"></trkpt>
      <trkpt lat="44.055251" lon="42.946611"></trkpt>
      <trkpt lat="44.055373" lon="42.943896"></trkpt>
      <trkpt lat="44.054619" lon="42.932082"></trkpt>
      <trkpt lat="44.054346" lon="42.909483"></trkpt>
      <trkpt lat="44.05443" lon="42.907255"></trkpt>
      <trkpt lat="44.046972" lon="42.887924"></trkpt>
      <trkpt lat="44.039275" lon="42.87074"></trkpt>
      <trkpt lat="44.038951" lon="42.869436"></trkpt>
      <trkpt lat="44.038639" lon="42.866149"></trkpt>
      <trkpt lat="44.038089" lon="42.865315"></trkpt>
      <trkpt lat="44.035601" lon="42.860652"></trkpt>
      <trkpt lat="44.031862" lon="42.847851"></trkpt>
      <trkpt lat="44.029562" lon="42.839394"></trkpt>
      <trkpt lat="44.02745" lon="42.832303"></trkpt>
      <trkpt lat="44.025595" lon="42.830151"></trkpt>
      <trkpt lat="44.024468" lon="42.828664"></trkpt>
      <trkpt lat="44.022244" lon="42.825301"></trkpt>
      <trkpt lat="44.018762" lon="42.821561"></trkpt>
      <trkpt lat="44.018115" lon="42.820506"></trkpt>
      <trkpt lat="44.017843" lon="42.819852"></trkpt>
      <trkpt lat="44.016079" lon="42.813646"></trkpt>
      <trkpt lat="44.014576" lon="42.809923"></trkpt>
      <trkpt lat="44.013541" lon="42.808047"></trkpt>
      <trkpt lat="44.013375" lon="42.807475"></trkpt>
      <trkpt lat="44.013715" lon="42.804925"></trkpt>
      <trkpt lat="44.013733" lon="42.804041"></trkpt>
      <trkpt lat="44.012588" lon="42.800529"></trkpt>
      <trkpt lat="44.012338" lon="42.799186"></trkpt>
      <trkpt lat="44.012533" lon="42.798441"></trkpt>
      <trkpt lat="44.012981" lon="42.797823"></trkpt>
      <trkpt lat="44.013787" lon="42.797401"></trkpt>
      <trkpt lat="44.014032" lon="42.797445"></trkpt>
      <trkpt lat="44.014234" lon="42.797652"></trkpt>
      <trkpt lat="44.014375" lon="42.798137"></trkpt>
      <trkpt lat="44.014263" lon="42.798611"></trkpt>
      <trkpt lat="44.013921" lon="42.798872"></trkpt>
      <trkpt lat="44.013572" lon="42.798826"></trkpt>
      <trkpt lat="44.011369" lon="42.797454"></trkpt>
      <trkpt lat="44.009456" lon="42.796438"></trkpt>
      <trkpt lat="44.007045" lon="42.795468"></trkpt>
      <trkpt lat="44.004993" lon="42.794909"></trkpt>
      <trkpt lat="44.004361" lon="42.794966"></trkpt>
      <trkpt lat="44.002973" lon="42.795482"></trkpt>
      <trkpt lat="44.002254" lon="42.795551"></trkpt>
      <trkpt lat="43.999743" lon="42.795011"></trkpt>
      <trkpt lat="43.997965" lon="42.795181"></trkpt>
      <trkpt lat="43.997077" lon="42.795155"></trkpt>
      <trkpt lat="43.99242" lon="42.793624"></trkpt>
      <trkpt lat="43.989523" lon="42.79402"></trkpt>
      <trkpt lat="43.98737" lon="42.794088"></trkpt>
      <trkpt lat="43.986615" lon="42.793781"></trkpt>
      <trkpt lat="43.984863" lon="42.792686"></trkpt>
      <trkpt lat="43.982336" lon="42.791944"></trkpt>
      <trkpt lat="43.98156" lon="42.791551"></trkpt>
      <trkpt lat="43.979096" lon="42.789154"></trkpt>
      <trkpt lat="43.976017" lon="42.78652"></trkpt>
      <trkpt lat="43.97561" lon="42.786272"></trkpt>
      <trkpt lat="43.973811" lon="42.785595"></trkpt>
      <trkpt lat="43.973154" lon="42.785099"></trkpt>
      <trkpt lat="43.966375" lon="42.777928"></trkpt>
      <trkpt lat="43.965067" lon="42.776329"></trkpt>
      <trkpt lat="43.960793" lon="42.768483"></trkpt>
      <trkpt lat="43.958744" lon="42.76395"></trkpt>
      <trkpt lat="43.95687" lon="42.760329"></trkpt>
      <trkpt lat="43.955486" lon="42.758054"></trkpt>
      <trkpt lat="43.954085" lon="42.756163"></trkpt>
      <trkpt lat="43.953109" lon="42.753977"></trkpt>
      <trkpt lat="43.951852" lon="42.751536"></trkpt>
      <trkpt lat="43.951475" lon="42.750346"></trkpt>
      <trkpt lat="43.951176" lon="42.74789"></trkpt>
      <trkpt lat="43.950801" lon="42.746191"></trkpt>
      <trkpt lat="43.948597" lon="42.740806"></trkpt>
      <trkpt lat="43.947686" lon="42.737145"></trkpt>
      <trkpt lat="43.947" lon="42.733137"></trkpt>
      <trkpt lat="43.946508" lon="42.731945"></trkpt>
      <trkpt lat="43.945844" lon="42.730843"></trkpt>
      <trkpt lat="43.945414" lon="42.730476"></trkpt>
      <trkpt lat="43.944154" lon="42.729824"></trkpt>
      <trkpt lat="43.939693" lon="42.728509"></trkpt>
      <trkpt lat="43.936716" lon="42.727343"></trkpt>
      <trkpt lat="43.9111" lon="42.718057"></trkpt>
      <trkpt lat="43.908493" lon="42.716561"></trkpt>
      <trkpt lat="43.906838" lon="42.715854"></trkpt>
      <trkpt lat="43.90555" lon="42.715541"></trkpt>
      <trkpt lat="43.905399" lon="42.715797"></trkpt>
      <trkpt lat="43.905501" lon="42.71594"></trkpt>
      <trkpt lat="43.905666" lon="42.71585"></trkpt>
      <trkpt lat="43.905675" lon="42.715663"></trkpt>
      <trkpt lat="43.90555" lon="42.715541"></trkpt>
      <trkpt lat="43.905399" lon="42.715688"></trkpt>
      <trkpt lat="43.905436" lon="42.715888"></trkpt>
      <trkpt lat="43.905935" lon="42.7159"></trkpt>
      <trkpt lat="43.907263" lon="42.715113"></trkpt>
      <trkpt lat="43.907539" lon="42.714844"></trkpt>
      <trkpt lat="43.907676" lon="42.714856"></trkpt>
      <trkpt lat="43.91081" lon="42.715777"></trkpt>
      <trkpt lat="43.91645" lon="42.717194"></trkpt>
      <trkpt lat="43.916721" lon="42.717145"></trkpt>
      <trkpt lat="43.918276" lon="42.715895"></trkpt>
      <trkpt lat="43.918511" lon="42.714842"></trkpt>
      <trkpt lat="43.919493" lon="42.71516"></trkpt>
      <trkpt lat="43.920992" lon="42.714916"></trkpt>
      <trkpt lat="43.921994" lon="42.713498"></trkpt>
      <trkpt lat="43.924438" lon="42.711972"></trkpt>
      <trkpt lat="43.926097" lon="42.711811"></trkpt>
      <trkpt lat="43.928811" lon="42.709596"></trkpt>
      <trkpt lat="43.928226" lon="42.708575"></trkpt>
      <trkpt lat="43.930744" lon="42.705902"></trkpt>
      <trkpt lat="43.930451" lon="42.705017"></trkpt>
      <trkpt lat="43.931998" lon="42.705219"></trkpt>
      <trkpt lat="43.932642" lon="42.704367"></trkpt>
      <trkpt lat="43.932849" lon="42.703798"></trkpt>
      <trkpt lat="43.933017" lon="42.702751"></trkpt>
      <trkpt lat="43.933008" lon="42.702017"></trkpt>
      <trkpt lat="43.933173" lon="42.701035"></trkpt>
      <trkpt lat="43.933053" lon="42.700399"></trkpt>
      <trkpt lat="43.934499" lon="42.700648"></trkpt>
      <trkpt lat="43.934737" lon="42.700806"></trkpt>
      <trkpt lat="43.93547" lon="42.702467"></trkpt>
      <trkpt lat="43.93572" lon="42.702777"></trkpt>
      <trkpt lat="43.936134" lon="42.702927"></trkpt>
      <trkpt lat="43.936701" lon="42.702601"></trkpt>
      <trkpt lat="43.937463" lon="42.701119"></trkpt>
      <trkpt lat="43.937837" lon="42.700656"></trkpt>
      <trkpt lat="43.938351" lon="42.700395"></trkpt>
      <trkpt lat="43.938955" lon="42.700345"></trkpt>
      <trkpt lat="43.939082" lon="42.698825"></trkpt>
      <trkpt lat="43.939696" lon="42.696283"></trkpt>
      <trkpt lat="43.939946" lon="42.692677"></trkpt>
      <trkpt lat="43.941202" lon="42.686708"></trkpt>
      <trkpt lat="43.945014" lon="42.67641"></trkpt>
      <trkpt lat="43.945314" lon="42.674991"></trkpt>
      <trkpt lat="43.945246" lon="42.673206"></trkpt>
      <trkpt lat="43.94363" lon="42.666542"></trkpt>
      <trkpt lat="43.943531" lon="42.665776"></trkpt>
      <trkpt lat="43.943585" lon="42.664508"></trkpt>
      <trkpt lat="43.952773" lon="42.611149"></trkpt>
      <trkpt lat="43.95324" lon="42.607004"></trkpt>
      <trkpt lat="43.953246" lon="42.605201"></trkpt>
      <trkpt lat="43.953029" lon="42.603722"></trkpt>
      <trkpt lat="43.951547" lon="42.597954"></trkpt>
      <trkpt lat="43.951262" lon="42.596135"></trkpt>
      <trkpt lat="43.950806" lon="42.590968"></trkpt>
      <trkpt lat="43.950898" lon="42.588061"></trkpt>
      <trkpt lat="43.952273" lon="42.578531"></trkpt>
      <trkpt lat="43.955639" lon="42.567326"></trkpt>
      <trkpt lat="43.956272" lon="42.564783"></trkpt>
      <trkpt lat="43.957274" lon="42.555559"></trkpt>
      <trkpt lat="43.956965" lon="42.547789"></trkpt>
      <trkpt lat="43.956643" lon="42.546047"></trkpt>
      <trkpt lat="43.951695" lon="42.530421"></trkpt>
      <trkpt lat="43.946553" lon="42.519846"></trkpt>
      <trkpt lat="43.94499" lon="42.516392"></trkpt>
      <trkpt lat="43.94251" lon="42.503353"></trkpt>
      <trkpt lat="43.94029" lon="42.492601"></trkpt>
      <trkpt lat="43.937639" lon="42.483329"></trkpt>
      <trkpt lat="43.934767" lon="42.472418"></trkpt>
      <trkpt lat="43.934584" lon="42.471123"></trkpt>
      <trkpt lat="43.933894" lon="42.45871"></trkpt>
      <trkpt lat="43.932578" lon="42.453485"></trkpt>
      <trkpt lat="43.930747" lon="42.445425"></trkpt>
      <trkpt lat="43.928666" lon="42.437922"></trkpt>
      <trkpt lat="43.927928" lon="42.435821"></trkpt>
      <trkpt lat="43.926752" lon="42.434082"></trkpt>
      <trkpt lat="43.926109" lon="42.432898"></trkpt>
      <trkpt lat="43.925681" lon="42.430809"></trkpt>
      <trkpt lat="43.925808" lon="42.428683"></trkpt>
      <trkpt lat="43.925727" lon="42.424741"></trkpt>
      <trkpt lat="43.926562" lon="42.420049"></trkpt>
      <trkpt lat="43.92633" lon="42.418851"></trkpt>
      <trkpt lat="43.925665" lon="42.417786"></trkpt>
      <trkpt lat="43.923232" lon="42.414833"></trkpt>
      <trkpt lat="43.922967" lon="42.41401"></trkpt>
      <trkpt lat="43.922785" lon="42.410442"></trkpt>
      <trkpt lat="43.922561" lon="42.409457"></trkpt>
      <trkpt lat="43.91866" lon="42.402797"></trkpt>
      <trkpt lat="43.911577" lon="42.395666"></trkpt>
      <trkpt lat="43.909633" lon="42.393526"></trkpt>
      <trkpt lat="43.906502" lon="42.391018"></trkpt>
      <trkpt lat="43.903241" lon="42.38749"></trkpt>
      <trkpt lat="43.898809" lon="42.384959"></trkpt>
      <trkpt lat="43.894729" lon="42.381328"></trkpt>
      <trkpt lat="43.894051" lon="42.381087"></trkpt>
      <trkpt lat="43.892289" lon="42.381019"></trkpt>
      <trkpt lat="43.891628" lon="42.380614"></trkpt>
      <trkpt lat="43.891314" lon="42.380042"></trkpt>
      <trkpt lat="43.890689" lon="42.377812"></trkpt>
      <trkpt lat="43.890277" lon="42.376798"></trkpt>
      <trkpt lat="43.88632" lon="42.370598"></trkpt>
      <trkpt lat="43.88481" lon="42.368887"></trkpt>
      <trkpt lat="43.882203" lon="42.366232"></trkpt>
      <trkpt lat="43.879656" lon="42.36466"></trkpt>
      <trkpt lat="43.876058" lon="42.360296"></trkpt>
      <trkpt lat="43.874459" lon="42.35715"></trkpt>
      <trkpt lat="43.872823" lon="42.355299"></trkpt>
      <trkpt lat="43.872514" lon="42.355008"></trkpt>
      <trkpt lat="43.870859" lon="42.354052"></trkpt>
      <trkpt lat="43.868254" lon="42.352172"></trkpt>
      <trkpt lat="43.867591" lon="42.351555"></trkpt>
      <trkpt lat="43.862781" lon="42.344308"></trkpt>
      <trkpt lat="43.861371" lon="42.341363"></trkpt>
      <trkpt lat="43.860807" lon="42.340885"></trkpt>
      <trkpt lat="43.857692" lon="42.339814"></trkpt>
      <trkpt lat="43.857046" lon="42.339279"></trkpt>
      <trkpt lat="43.856415" lon="42.338321"></trkpt>
      <trkpt lat="43.85384" lon="42.333644"></trkpt>
      <trkpt lat="43.85258" lon="42.332331"></trkpt>
      <trkpt lat="43.850475" lon="42.329465"></trkpt>
      <trkpt lat="43.847577" lon="42.326063"></trkpt>
      <trkpt lat="43.846126" lon="42.324621"></trkpt>
      <trkpt lat="43.844278" lon="42.323066"></trkpt>
      <trkpt lat="43.83608" lon="42.316616"></trkpt>
      <trkpt lat="43.835606" lon="42.315945"></trkpt>
      <trkpt lat="43.835012" lon="42.314554"></trkpt>
      <trkpt lat="43.834577" lon="42.313959"></trkpt>
      <trkpt lat="43.833751" lon="42.31339"></trkpt>
      <trkpt lat="43.830635" lon="42.311688"></trkpt>
      <trkpt lat="43.829335" lon="42.311259"></trkpt>
      <trkpt lat="43.82781" lon="42.311076"></trkpt>
      <trkpt lat="43.826937" lon="42.310717"></trkpt>
      <trkpt lat="43.821458" lon="42.306791"></trkpt>
      <trkpt lat="43.819788" lon="42.306113"></trkpt>
      <trkpt lat="43.817429" lon="42.304383"></trkpt>
      <trkpt lat="43.816715" lon="42.303975"></trkpt>
      <trkpt lat="43.815795" lon="42.303945"></trkpt>
      <trkpt lat="43.812561" lon="42.304785"></trkpt>
      <trkpt lat="43.811291" lon="42.305246"></trkpt>
      <trkpt lat="43.809046" lon="42.305469"></trkpt>
      <trkpt lat="43.807561" lon="42.305936"></trkpt>
      <trkpt lat="43.806794" lon="42.305733"></trkpt>
      <trkpt lat="43.805103" lon="42.304477"></trkpt>
      <trkpt lat="43.804617" lon="42.304477"></trkpt>
      <trkpt lat="43.803669" lon="42.305171"></trkpt>
      <trkpt lat="43.803196" lon="42.30528"></trkpt>
      <trkpt lat="43.802124" lon="42.305064"></trkpt>
      <trkpt lat="43.801067" lon="42.30438"></trkpt>
      <trkpt lat="43.800242" lon="42.304114"></trkpt>
      <trkpt lat="43.799476" lon="42.304289"></trkpt>
      <trkpt lat="43.797421" lon="42.305222"></trkpt>
      <trkpt lat="43.796413" lon="42.305193"></trkpt>
      <trkpt lat="43.795833" lon="42.304848"></trkpt>
      <trkpt lat="43.794404" lon="42.303285"></trkpt>
      <trkpt lat="43.792992" lon="42.302457"></trkpt>
      <trkpt lat="43.78934" lon="42.299473"></trkpt>
      <trkpt lat="43.788865" lon="42.298729"></trkpt>
      <trkpt lat="43.788119" lon="42.297145"></trkpt>
      <trkpt lat="43.785879" lon="42.294252"></trkpt>
      <trkpt lat="43.784341" lon="42.291801"></trkpt>
      <trkpt lat="43.782691" lon="42.290155"></trkpt>
      <trkpt lat="43.781913" lon="42.287596"></trkpt>
      <trkpt lat="43.780646" lon="42.286252"></trkpt>
      <trkpt lat="43.780379" lon="42.285816"></trkpt>
      <trkpt lat="43.779981" lon="42.283807"></trkpt>
      <trkpt lat="43.777137" lon="42.279875"></trkpt>
      <trkpt lat="43.776724" lon="42.278435"></trkpt>
      <trkpt lat="43.776816" lon="42.277118"></trkpt>
      <trkpt lat="43.776721" lon="42.276259"></trkpt>
      <trkpt lat="43.774932" lon="42.273868"></trkpt>
      <trkpt lat="43.773592" lon="42.271029"></trkpt>
      <trkpt lat="43.772744" lon="42.270005"></trkpt>
      <trkpt lat="43.772182" lon="42.269077"></trkpt>
      <trkpt lat="43.771955" lon="42.2684"></trkpt>
      <trkpt lat="43.771654" lon="42.266005"></trkpt>
      <trkpt lat="43.771329" lon="42.26494"></trkpt>
      <trkpt lat="43.770875" lon="42.264222"></trkpt>
      <trkpt lat="43.768971" lon="42.261842"></trkpt>
      <trkpt lat="43.766216" lon="42.258685"></trkpt>
      <trkpt lat="43.766048" lon="42.258207"></trkpt>
      <trkpt lat="43.765951" lon="42.256187"></trkpt>
      <trkpt lat="43.765693" lon="42.255185"></trkpt>
      <trkpt lat="43.764998" lon="42.249995"></trkpt>
      <trkpt lat="43.765074" lon="42.249385"></trkpt>
      <trkpt lat="43.765449" lon="42.248372"></trkpt>
      <trkpt lat="43.765547" lon="42.247632"></trkpt>
      <trkpt lat="43.765001" lon="42.244911"></trkpt>
      <trkpt lat="43.765123" lon="42.244326"></trkpt>
      <trkpt lat="43.765444" lon="42.244034"></trkpt>
      <trkpt lat="43.765698" lon="42.244051"></trkpt>
      <trkpt lat="43.765944" lon="42.244244"></trkpt>
      <trkpt lat="43.767366" lon="42.246171"></trkpt>
      <trkpt lat="43.767715" lon="42.246985"></trkpt>
      <trkpt lat="43.767894" lon="42.248166"></trkpt>
      <trkpt lat="43.767799" lon="42.248529"></trkpt>
      <trkpt lat="43.767143" lon="42.249504"></trkpt>
      <trkpt lat="43.767104" lon="42.249667"></trkpt>
      <trkpt lat="43.767237" lon="42.249901"></trkpt>
      <trkpt lat="43.767492" lon="42.249882"></trkpt>
      <trkpt lat="43.767853" lon="42.249582"></trkpt>
      <trkpt lat="43.768637" lon="42.248013"></trkpt>
      <trkpt lat="43.76875" lon="42.24525"></trkpt>
      <trkpt lat="43.768493" lon="42.244097"></trkpt>
      <trkpt lat="43.768383" lon="42.242557"></trkpt>
      <trkpt lat="43.768662" lon="42.242024"></trkpt>
      <trkpt lat="43.769324" lon="42.241471"></trkpt>
      <trkpt lat="43.769439" lon="42.240639"></trkpt>
      <trkpt lat="43.769165" lon="42.240021"></trkpt>
      <trkpt lat="43.768444" lon="42.239373"></trkpt>
      <trkpt lat="43.768065" lon="42.238399"></trkpt>
      <trkpt lat="43.768098" lon="42.236995"></trkpt>
      <trkpt lat="43.767407" lon="42.233863"></trkpt>
      <trkpt lat="43.767481" lon="42.231568"></trkpt>
      <trkpt lat="43.767397" lon="42.229705"></trkpt>
      <trkpt lat="43.767583" lon="42.228405"></trkpt>
      <trkpt lat="43.769964" lon="42.223938"></trkpt>
      <trkpt lat="43.770979" lon="42.220483"></trkpt>
      <trkpt lat="43.771304" lon="42.219892"></trkpt>
      <trkpt lat="43.771783" lon="42.219355"></trkpt>
      <trkpt lat="43.77216" lon="42.218134"></trkpt>
      <trkpt lat="43.772826" lon="42.216865"></trkpt>
      <trkpt lat="43.773928" lon="42.215953"></trkpt>
      <trkpt lat="43.775261" lon="42.214008"></trkpt>
      <trkpt lat="43.775772" lon="42.213795"></trkpt>
      <trkpt lat="43.776502" lon="42.213803"></trkpt>
      <trkpt lat="43.776891" lon="42.213335"></trkpt>
      <trkpt lat="43.777566" lon="42.211374"></trkpt>
      <trkpt lat="43.777656" lon="42.210823"></trkpt>
      <trkpt lat="43.777603" lon="42.210254"></trkpt>
      <trkpt lat="43.777088" lon="42.209076"></trkpt>
      <trkpt lat="43.777134" lon="42.208673"></trkpt>
  </trkseg></trk>
</gpx>
