<?xml version="1.0" encoding="UTF-8"?>
<gpx version="1.1" creator="yatutbuv" xmlns="http://www.topografix.com/GPX/1/1">
  <trk><name>GraphHopper Track</name><trkseg>
      <trkpt lat="39.997605" lon="-82.892647"></trkpt>
      <trkpt lat="39.997832" lon="-82.892622"></trkpt>
      <trkpt lat="39.99777" lon="-82.891414"></trkpt>
      <trkpt lat="39.99833" lon="-82.891367"></trkpt>
      <trkpt lat="39.99815" lon="-82.889443"></trkpt>
      <trkpt lat="39.998172" lon="-82.889219"></trkpt>
      <trkpt lat="39.998304" lon="-82.889137"></trkpt>
      <trkpt lat="39.998468" lon="-82.889403"></trkpt>
      <trkpt lat="39.998627" lon="-82.892653"></trkpt>
      <trkpt lat="39.998743" lon="-82.893165"></trkpt>
      <trkpt lat="39.999105" lon="-82.893382"></trkpt>
      <trkpt lat="40.000404" lon="-82.893386"></trkpt>
      <trkpt lat="40.000668" lon="-82.893636"></trkpt>
      <trkpt lat="40.000736" lon="-82.893917"></trkpt>
      <trkpt lat="40.000977" lon="-82.898509"></trkpt>
      <trkpt lat="40.000341" lon="-82.902176"></trkpt>
      <trkpt lat="40.000468" lon="-82.90659"></trkpt>
      <trkpt lat="40.000368" lon="-82.907488"></trkpt>
      <trkpt lat="39.999699" lon="-82.910322"></trkpt>
      <trkpt lat="39.999664" lon="-82.912551"></trkpt>
      <trkpt lat="39.999804" lon="-82.913531"></trkpt>
      <trkpt lat="40.000394" lon="-82.915662"></trkpt>
      <trkpt lat="40.000235" lon="-82.917846"></trkpt>
      <trkpt lat="40.000373" lon="-82.918814"></trkpt>
      <trkpt lat="40.000885" lon="-82.919657"></trkpt>
      <trkpt lat="40.001717" lon="-82.920109"></trkpt>
      <trkpt lat="40.002482" lon="-82.9201"></trkpt>
      <trkpt lat="40.002899" lon="-82.919916"></trkpt>
      <trkpt lat="40.003652" lon="-82.919189"></trkpt>
      <trkpt lat="40.008222" lon="-82.911011"></trkpt>
      <trkpt lat="40.010402" lon="-82.907556"></trkpt>
      <trkpt lat="40.01214" lon="-82.903186"></trkpt>
      <trkpt lat="40.012522" lon="-82.902603"></trkpt>
      <trkpt lat="40.013278" lon="-82.901861"></trkpt>
      <trkpt lat="40.01419" lon="-82.901447"></trkpt>
      <trkpt lat="40.015092" lon="-82.901468"></trkpt>
      <trkpt lat="40.01563" lon="-82.901634"></trkpt>
      <trkpt lat="40.018489" lon="-82.903721"></trkpt>
      <trkpt lat="40.019655" lon="-82.904038"></trkpt>
      <trkpt lat="40.021146" lon="-82.904013"></trkpt>
      <trkpt lat="40.047135" lon="-82.902032"></trkpt>
      <trkpt lat="40.049028" lon="-82.901963"></trkpt>
      <trkpt lat="40.051598" lon="-82.902093"></trkpt>
      <trkpt lat="40.053517" lon="-82.902323"></trkpt>
      <trkpt lat="40.055934" lon="-82.90289"></trkpt>
      <trkpt lat="40.068394" lon="-82.90694"></trkpt>
      <trkpt lat="40.070343" lon="-82.907459"></trkpt>
      <trkpt lat="40.072903" lon="-82.907644"></trkpt>
      <trkpt lat="40.08427" lon="-82.906777"></trkpt>
      <trkpt lat="40.087619" lon="-82.90662"></trkpt>
      <trkpt lat="40.089157" lon="-82.906877"></trkpt>
      <trkpt lat="40.090618" lon="-82.907332"></trkpt>
      <trkpt lat="40.092752" lon="-82.908426"></trkpt>
      <trkpt lat="40.094874" lon="-82.910134"></trkpt>
      <trkpt lat="40.096524" lon="-82.912121"></trkpt>
      <trkpt lat="40.097324" lon="-82.913349"></trkpt>
      <trkpt lat="40.098294" lon="-82.9152"></trkpt>
      <trkpt lat="40.099198" lon="-82.917693"></trkpt>
      <trkpt lat="40.099701" lon="-82.919766"></trkpt>
      <trkpt lat="40.109179" lon="-82.967797"></trkpt>
      <trkpt lat="40.110079" lon="-82.97184"></trkpt>
      <trkpt lat="40.110449" lon="-82.973129"></trkpt>
      <trkpt lat="40.111036" lon="-82.974131"></trkpt>
      <trkpt lat="40.111984" lon="-82.974929"></trkpt>
      <trkpt lat="40.112892" lon="-82.975246"></trkpt>
      <trkpt lat="40.113774" lon="-82.975137"></trkpt>
      <trkpt lat="40.115464" lon="-82.974365"></trkpt>
      <trkpt lat="40.116569" lon="-82.974077"></trkpt>
      <trkpt lat="40.119209" lon="-82.973087"></trkpt>
      <trkpt lat="40.12274" lon="-82.972298"></trkpt>
      <trkpt lat="40.124679" lon="-82.97207"></trkpt>
      <trkpt lat="40.152179" lon="-82.970026"></trkpt>
      <trkpt lat="40.154645" lon="-82.969594"></trkpt>
      <trkpt lat="40.156132" lon="-82.969202"></trkpt>
      <trkpt lat="40.158638" lon="-82.968307"></trkpt>
      <trkpt lat="40.160422" lon="-82.967525"></trkpt>
      <trkpt lat="40.162613" lon="-82.966358"></trkpt>
      <trkpt lat="40.164559" lon="-82.96512"></trkpt>
      <trkpt lat="40.16803" lon="-82.962353"></trkpt>
      <trkpt lat="40.193048" lon="-82.938367"></trkpt>
      <trkpt lat="40.194963" lon="-82.936716"></trkpt>
      <trkpt lat="40.197441" lon="-82.934906"></trkpt>
      <trkpt lat="40.199751" lon="-82.933525"></trkpt>
      <trkpt lat="40.202384" lon="-82.932267"></trkpt>
      <trkpt lat="40.205352" lon="-82.931217"></trkpt>
      <trkpt lat="40.2074" lon="-82.930709"></trkpt>
      <trkpt lat="40.210087" lon="-82.930295"></trkpt>
      <trkpt lat="40.233866" lon="-82.928291"></trkpt>
      <trkpt lat="40.238444" lon="-82.928234"></trkpt>
      <trkpt lat="40.248209" lon="-82.928628"></trkpt>
      <trkpt lat="40.251966" lon="-82.92852"></trkpt>
      <trkpt lat="40.294578" lon="-82.924523"></trkpt>
      <trkpt lat="40.298126" lon="-82.923824"></trkpt>
      <trkpt lat="40.300016" lon="-82.923242"></trkpt>
      <trkpt lat="40.302195" lon="-82.922383"></trkpt>
      <trkpt lat="40.305829" lon="-82.920451"></trkpt>
      <trkpt lat="40.309234" lon="-82.918009"></trkpt>
      <trkpt lat="40.312397" lon="-82.915063"></trkpt>
      <trkpt lat="40.313947" lon="-82.913328"></trkpt>
      <trkpt lat="40.3158" lon="-82.910956"></trkpt>
      <trkpt lat="40.372883" lon="-82.830643"></trkpt>
      <trkpt lat="40.374435" lon="-82.828709"></trkpt>
      <trkpt lat="40.375985" lon="-82.82722"></trkpt>
      <trkpt lat="40.377689" lon="-82.825965"></trkpt>
      <trkpt lat="40.379101" lon="-82.825181"></trkpt>
      <trkpt lat="40.381045" lon="-82.824426"></trkpt>
      <trkpt lat="40.382949" lon="-82.824011"></trkpt>
      <trkpt lat="40.416414" lon="-82.820975"></trkpt>
      <trkpt lat="40.418729" lon="-82.820626"></trkpt>
      <trkpt lat="40.420721" lon="-82.820153"></trkpt>
      <trkpt lat="40.42444" lon="-82.81882"></trkpt>
      <trkpt lat="40.426344" lon="-82.817902"></trkpt>
      <trkpt lat="40.428255" lon="-82.816803"></trkpt>
      <trkpt lat="40.431465" lon="-82.814503"></trkpt>
      <trkpt lat="40.433166" lon="-82.813022"></trkpt>
      <trkpt lat="40.43502" lon="-82.811169"></trkpt>
      <trkpt lat="40.437212" lon="-82.808601"></trkpt>
      <trkpt lat="40.439681" lon="-82.805077"></trkpt>
      <trkpt lat="40.463472" lon="-82.766766"></trkpt>
      <trkpt lat="40.494146" lon="-82.722073"></trkpt>
      <trkpt lat="40.495685" lon="-82.719409"></trkpt>
      <trkpt lat="40.501581" lon="-82.708086"></trkpt>
      <trkpt lat="40.503008" lon="-82.705672"></trkpt>
      <trkpt lat="40.504765" lon="-82.703117"></trkpt>
      <trkpt lat="40.525776" lon="-82.677784"></trkpt>
      <trkpt lat="40.536206" lon="-82.665374"></trkpt>
      <trkpt lat="40.540326" lon="-82.661182"></trkpt>
      <trkpt lat="40.553393" lon="-82.649494"></trkpt>
      <trkpt lat="40.556107" lon="-82.646462"></trkpt>
      <trkpt lat="40.558087" lon="-82.643782"></trkpt>
      <trkpt lat="40.559626" lon="-82.641341"></trkpt>
      <trkpt lat="40.561411" lon="-82.637979"></trkpt>
      <trkpt lat="40.572405" lon="-82.613455"></trkpt>
      <trkpt lat="40.573903" lon="-82.610515"></trkpt>
      <trkpt lat="40.57555" lon="-82.607916"></trkpt>
      <trkpt lat="40.577279" lon="-82.60546"></trkpt>
      <trkpt lat="40.579213" lon="-82.603237"></trkpt>
      <trkpt lat="40.58101" lon="-82.601283"></trkpt>
      <trkpt lat="40.584846" lon="-82.598102"></trkpt>
      <trkpt lat="40.613118" lon="-82.576311"></trkpt>
      <trkpt lat="40.615031" lon="-82.574725"></trkpt>
      <trkpt lat="40.617488" lon="-82.572367"></trkpt>
      <trkpt lat="40.630502" lon="-82.557607"></trkpt>
      <trkpt lat="40.632904" lon="-82.555256"></trkpt>
      <trkpt lat="40.636395" lon="-82.55243"></trkpt>
      <trkpt lat="40.639123" lon="-82.55076"></trkpt>
      <trkpt lat="40.66353" lon="-82.537633"></trkpt>
      <trkpt lat="40.669253" lon="-82.534092"></trkpt>
      <trkpt lat="40.680876" lon="-82.527211"></trkpt>
      <trkpt lat="40.682887" lon="-82.525828"></trkpt>
      <trkpt lat="40.685163" lon="-82.523977"></trkpt>
      <trkpt lat="40.688249" lon="-82.520831"></trkpt>
      <trkpt lat="40.690975" lon="-82.517346"></trkpt>
      <trkpt lat="40.692777" lon="-82.514556"></trkpt>
      <trkpt lat="40.701327" lon="-82.500339"></trkpt>
      <trkpt lat="40.702965" lon="-82.497845"></trkpt>
      <trkpt lat="40.705406" lon="-82.494553"></trkpt>
      <trkpt lat="40.708325" lon="-82.491216"></trkpt>
      <trkpt lat="40.7108" lon="-82.488764"></trkpt>
      <trkpt lat="40.71305" lon="-82.486816"></trkpt>
      <trkpt lat="40.726273" lon="-82.476015"></trkpt>
      <trkpt lat="40.728089" lon="-82.474278"></trkpt>
      <trkpt lat="40.729598" lon="-82.472609"></trkpt>
      <trkpt lat="40.730993" lon="-82.470801"></trkpt>
      <trkpt lat="40.733127" lon="-82.467608"></trkpt>
      <trkpt lat="40.738096" lon="-82.458537"></trkpt>
      <trkpt lat="40.73912" lon="-82.456808"></trkpt>
      <trkpt lat="40.740954" lon="-82.454074"></trkpt>
      <trkpt lat="40.746332" lon="-82.447411"></trkpt>
      <trkpt lat="40.749252" lon="-82.444002"></trkpt>
      <trkpt lat="40.755169" lon="-82.436602"></trkpt>
      <trkpt lat="40.760482" lon="-82.430307"></trkpt>
      <trkpt lat="40.763417" lon="-82.427279"></trkpt>
      <trkpt lat="40.767113" lon="-82.423994"></trkpt>
      <trkpt lat="40.786192" lon="-82.409282"></trkpt>
      <trkpt lat="40.788158" lon="-82.407653"></trkpt>
      <trkpt lat="40.790879" lon="-82.405002"></trkpt>
      <trkpt lat="40.793584" lon="-82.401651"></trkpt>
      <trkpt lat="40.795885" lon="-82.398084"></trkpt>
      <trkpt lat="40.798042" lon="-82.393803"></trkpt>
      <trkpt lat="40.816066" lon="-82.352148"></trkpt>
      <trkpt lat="40.830564" lon="-82.314879"></trkpt>
      <trkpt lat="40.841957" lon="-82.281953"></trkpt>
      <trkpt lat="40.843253" lon="-82.27827"></trkpt>
      <trkpt lat="40.844509" lon="-82.275201"></trkpt>
      <trkpt lat="40.846412" lon="-82.271365"></trkpt>
      <trkpt lat="40.847645" lon="-82.269258"></trkpt>
      <trkpt lat="40.849135" lon="-82.267017"></trkpt>
      <trkpt lat="40.850612" lon="-82.265071"></trkpt>
      <trkpt lat="40.861059" lon="-82.252324"></trkpt>
      <trkpt lat="40.863042" lon="-82.24939"></trkpt>
      <trkpt lat="40.865308" lon="-82.245251"></trkpt>
      <trkpt lat="40.866867" lon="-82.241677"></trkpt>
      <trkpt lat="40.868187" lon="-82.237823"></trkpt>
      <trkpt lat="40.875632" lon="-82.211147"></trkpt>
      <trkpt lat="40.877332" lon="-82.20622"></trkpt>
      <trkpt lat="40.878422" lon="-82.203714"></trkpt>
      <trkpt lat="40.879863" lon="-82.200907"></trkpt>
      <trkpt lat="40.881511" lon="-82.198212"></trkpt>
      <trkpt lat="40.896818" lon="-82.177433"></trkpt>
      <trkpt lat="40.898752" lon="-82.174538"></trkpt>
      <trkpt lat="40.900711" lon="-82.171098"></trkpt>
      <trkpt lat="40.902054" lon="-82.168214"></trkpt>
      <trkpt lat="40.903453" lon="-82.16444"></trkpt>
      <trkpt lat="40.908944" lon="-82.14675"></trkpt>
      <trkpt lat="40.909944" lon="-82.14421"></trkpt>
      <trkpt lat="40.911635" lon="-82.140624"></trkpt>
      <trkpt lat="40.913815" lon="-82.136912"></trkpt>
      <trkpt lat="40.915153" lon="-82.134967"></trkpt>
      <trkpt lat="40.916947" lon="-82.132689"></trkpt>
      <trkpt lat="40.918927" lon="-82.130532"></trkpt>
      <trkpt lat="40.927006" lon="-82.122643"></trkpt>
      <trkpt lat="40.929428" lon="-82.119711"></trkpt>
      <trkpt lat="40.931939" lon="-82.115994"></trkpt>
      <trkpt lat="40.933625" lon="-82.11297"></trkpt>
      <trkpt lat="40.934699" lon="-82.11065"></trkpt>
      <trkpt lat="40.949056" lon="-82.077642"></trkpt>
      <trkpt lat="40.951015" lon="-82.074009"></trkpt>
      <trkpt lat="40.953347" lon="-82.070513"></trkpt>
      <trkpt lat="40.954953" lon="-82.06848"></trkpt>
      <trkpt lat="40.962163" lon="-82.060048"></trkpt>
      <trkpt lat="40.970826" lon="-82.050134"></trkpt>
      <trkpt lat="40.984134" lon="-82.038085"></trkpt>
      <trkpt lat="40.986247" lon="-82.035872"></trkpt>
      <trkpt lat="40.989424" lon="-82.031735"></trkpt>
      <trkpt lat="40.990405" lon="-82.030144"></trkpt>
      <trkpt lat="40.992785" lon="-82.025557"></trkpt>
      <trkpt lat="40.994171" lon="-82.022121"></trkpt>
      <trkpt lat="40.994839" lon="-82.019962"></trkpt>
      <trkpt lat="40.99586" lon="-82.015719"></trkpt>
      <trkpt lat="40.996676" lon="-82.01087"></trkpt>
      <trkpt lat="40.997052" lon="-82.006521"></trkpt>
      <trkpt lat="40.997823" lon="-81.981391"></trkpt>
      <trkpt lat="40.998439" lon="-81.976293"></trkpt>
      <trkpt lat="40.999521" lon="-81.971243"></trkpt>
      <trkpt lat="41.000816" lon="-81.966925"></trkpt>
      <trkpt lat="41.001425" lon="-81.965242"></trkpt>
      <trkpt lat="41.030257" lon="-81.890819"></trkpt>
      <trkpt lat="41.031779" lon="-81.887413"></trkpt>
      <trkpt lat="41.033092" lon="-81.884954"></trkpt>
      <trkpt lat="41.035864" lon="-81.880676"></trkpt>
      <trkpt lat="41.038544" lon="-81.877377"></trkpt>
      <trkpt lat="41.062325" lon="-81.85289"></trkpt>
      <trkpt lat="41.065644" lon="-81.84956"></trkpt>
      <trkpt lat="41.067392" lon="-81.847938"></trkpt>
      <trkpt lat="41.070278" lon="-81.845509"></trkpt>
      <trkpt lat="41.121521" lon="-81.804306"></trkpt>
      <trkpt lat="41.130985" lon="-81.796947"></trkpt>
      <trkpt lat="41.133261" lon="-81.79559"></trkpt>
      <trkpt lat="41.140736" lon="-81.792269"></trkpt>
      <trkpt lat="41.153455" lon="-81.786981"></trkpt>
      <trkpt lat="41.158036" lon="-81.785774"></trkpt>
      <trkpt lat="41.161718" lon="-81.785299"></trkpt>
      <trkpt lat="41.166034" lon="-81.785231"></trkpt>
      <trkpt lat="41.167682" lon="-81.785351"></trkpt>
      <trkpt lat="41.170945" lon="-81.7859"></trkpt>
      <trkpt lat="41.189039" lon="-81.789659"></trkpt>
      <trkpt lat="41.191449" lon="-81.789823"></trkpt>
      <trkpt lat="41.193433" lon="-81.789398"></trkpt>
      <trkpt lat="41.194084" lon="-81.789471"></trkpt>
      <trkpt lat="41.194308" lon="-81.789634"></trkpt>
      <trkpt lat="41.196478" lon="-81.785616"></trkpt>
      <trkpt lat="41.197148" lon="-81.78466"></trkpt>
      <trkpt lat="41.200695" lon="-81.77802"></trkpt>
      <trkpt lat="41.201362" lon="-81.776555"></trkpt>
      <trkpt lat="41.201562" lon="-81.775581"></trkpt>
      <trkpt lat="41.201998" lon="-81.77545"></trkpt>
      <trkpt lat="41.202317" lon="-81.774999"></trkpt>
      <trkpt lat="41.207955" lon="-81.764451"></trkpt>
      <trkpt lat="41.238439" lon="-81.764391"></trkpt>
      <trkpt lat="41.238404" lon="-81.794952"></trkpt>
      <trkpt lat="41.238507" lon="-81.79624"></trkpt>
      <trkpt lat="41.238759" lon="-81.796995"></trkpt>
      <trkpt lat="41.239365" lon="-81.797682"></trkpt>
      <trkpt lat="41.240663" lon="-81.798557"></trkpt>
      <trkpt lat="41.242868" lon="-81.799649"></trkpt>
      <trkpt lat="41.248384" lon="-81.801569"></trkpt>
      <trkpt lat="41.253621" lon="-81.803135"></trkpt>
      <trkpt lat="41.255695" lon="-81.803613"></trkpt>
      <trkpt lat="41.260387" lon="-81.804296"></trkpt>
      <trkpt lat="41.268538" lon="-81.80496"></trkpt>
      <trkpt lat="41.272422" lon="-81.805527"></trkpt>
      <trkpt lat="41.280146" lon="-81.8071"></trkpt>
      <trkpt lat="41.287108" lon="-81.807882"></trkpt>
      <trkpt lat="41.290986" lon="-81.808155"></trkpt>
      <trkpt lat="41.300456" lon="-81.808225"></trkpt>
      <trkpt lat="41.304871" lon="-81.808529"></trkpt>
      <trkpt lat="41.307188" lon="-81.808996"></trkpt>
      <trkpt lat="41.308997" lon="-81.809535"></trkpt>
      <trkpt lat="41.324379" lon="-81.814759"></trkpt>
      <trkpt lat="41.327488" lon="-81.815761"></trkpt>
      <trkpt lat="41.329602" lon="-81.81622"></trkpt>
      <trkpt lat="41.331321" lon="-81.816477"></trkpt>
      <trkpt lat="41.349425" lon="-81.817648"></trkpt>
      <trkpt lat="41.35102" lon="-81.817877"></trkpt>
      <trkpt lat="41.355309" lon="-81.818841"></trkpt>
      <trkpt lat="41.362185" lon="-81.820733"></trkpt>
      <trkpt lat="41.364741" lon="-81.821331"></trkpt>
      <trkpt lat="41.366033" lon="-81.821495"></trkpt>
      <trkpt lat="41.368237" lon="-81.821509"></trkpt>
      <trkpt lat="41.370104" lon="-81.821244"></trkpt>
      <trkpt lat="41.390737" lon="-81.81609"></trkpt>
      <trkpt lat="41.392902" lon="-81.815602"></trkpt>
      <trkpt lat="41.394165" lon="-81.815486"></trkpt>
      <trkpt lat="41.39542" lon="-81.815546"></trkpt>
      <trkpt lat="41.397132" lon="-81.815809"></trkpt>
      <trkpt lat="41.402374" lon="-81.817743"></trkpt>
      <trkpt lat="41.404505" lon="-81.818148"></trkpt>
      <trkpt lat="41.405957" lon="-81.818186"></trkpt>
      <trkpt lat="41.416504" lon="-81.817478"></trkpt>
      <trkpt lat="41.417674" lon="-81.817565"></trkpt>
      <trkpt lat="41.418858" lon="-81.817877"></trkpt>
      <trkpt lat="41.419582" lon="-81.8182"></trkpt>
      <trkpt lat="41.422442" lon="-81.820126"></trkpt>
      <trkpt lat="41.423274" lon="-81.820329"></trkpt>
      <trkpt lat="41.424263" lon="-81.820161"></trkpt>
      <trkpt lat="41.42504" lon="-81.819708"></trkpt>
      <trkpt lat="41.436052" lon="-81.810802"></trkpt>
      <trkpt lat="41.436554" lon="-81.810312"></trkpt>
      <trkpt lat="41.437342" lon="-81.80926"></trkpt>
      <trkpt lat="41.437929" lon="-81.808167"></trkpt>
      <trkpt lat="41.438371" lon="-81.806962"></trkpt>
      <trkpt lat="41.438667" lon="-81.80566"></trkpt>
      <trkpt lat="41.438796" lon="-81.804228"></trkpt>
      <trkpt lat="41.438488" lon="-81.794308"></trkpt>
      <trkpt lat="41.438516" lon="-81.793151"></trkpt>
      <trkpt lat="41.438697" lon="-81.791865"></trkpt>
      <trkpt lat="41.439195" lon="-81.790127"></trkpt>
      <trkpt lat="41.439707" lon="-81.789038"></trkpt>
      <trkpt lat="41.444206" lon="-81.782309"></trkpt>
      <trkpt lat="41.444759" lon="-81.781193"></trkpt>
      <trkpt lat="41.445079" lon="-81.780204"></trkpt>
      <trkpt lat="41.445354" lon="-81.777975"></trkpt>
      <trkpt lat="41.445272" lon="-81.769932"></trkpt>
      <trkpt lat="41.445646" lon="-81.761434"></trkpt>
      <trkpt lat="41.445906" lon="-81.759933"></trkpt>
      <trkpt lat="41.44631" lon="-81.758559"></trkpt>
      <trkpt lat="41.448403" lon="-81.75352"></trkpt>
      <trkpt lat="41.448864" lon="-81.751692"></trkpt>
      <trkpt lat="41.448912" lon="-81.750256"></trkpt>
      <trkpt lat="41.448662" lon="-81.748728"></trkpt>
      <trkpt lat="41.446532" lon="-81.743612"></trkpt>
      <trkpt lat="41.446254" lon="-81.74271"></trkpt>
      <trkpt lat="41.446111" lon="-81.741384"></trkpt>
      <trkpt lat="41.446209" lon="-81.740317"></trkpt>
      <trkpt lat="41.446652" lon="-81.73881"></trkpt>
      <trkpt lat="41.447312" lon="-81.737259"></trkpt>
      <trkpt lat="41.45035" lon="-81.73181"></trkpt>
      <trkpt lat="41.451066" lon="-81.730178"></trkpt>
      <trkpt lat="41.451417" lon="-81.728868"></trkpt>
      <trkpt lat="41.452227" lon="-81.724315"></trkpt>
      <trkpt lat="41.452969" lon="-81.721271"></trkpt>
      <trkpt lat="41.453718" lon="-81.718983"></trkpt>
      <trkpt lat="41.455573" lon="-81.714145"></trkpt>
      <trkpt lat="41.456" lon="-81.711765"></trkpt>
      <trkpt lat="41.456248" lon="-81.704017"></trkpt>
      <trkpt lat="41.45646" lon="-81.701974"></trkpt>
      <trkpt lat="41.456712" lon="-81.700675"></trkpt>
      <trkpt lat="41.457253" lon="-81.69884"></trkpt>
      <trkpt lat="41.457906" lon="-81.697261"></trkpt>
      <trkpt lat="41.458547" lon="-81.696081"></trkpt>
      <trkpt lat="41.459381" lon="-81.695079"></trkpt>
      <trkpt lat="41.460511" lon="-81.694396"></trkpt>
      <trkpt lat="41.466198" lon="-81.692936"></trkpt>
      <trkpt lat="41.469211" lon="-81.692629"></trkpt>
      <trkpt lat="41.478013" lon="-81.693126"></trkpt>
      <trkpt lat="41.479239" lon="-81.692941"></trkpt>
      <trkpt lat="41.482973" lon="-81.691997"></trkpt>
      <trkpt lat="41.485366" lon="-81.691147"></trkpt>
      <trkpt lat="41.489723" lon="-81.688738"></trkpt>
      <trkpt lat="41.491487" lon="-81.687341"></trkpt>
      <trkpt lat="41.492928" lon="-81.685338"></trkpt>
      <trkpt lat="41.493901" lon="-81.683358"></trkpt>
      <trkpt lat="41.494263" lon="-81.681992"></trkpt>
      <trkpt lat="41.494144" lon="-81.681638"></trkpt>
      <trkpt lat="41.49379" lon="-81.681405"></trkpt>
      <trkpt lat="41.49347" lon="-81.681528"></trkpt>
      <trkpt lat="41.493263" lon="-81.681959"></trkpt>
      <trkpt lat="41.493507" lon="-81.683142"></trkpt>
      <trkpt lat="41.496997" lon="-81.691232"></trkpt>
      <trkpt lat="41.499026" lon="-81.693118"></trkpt>
      <trkpt lat="41.499476" lon="-81.692377"></trkpt>
      <trkpt lat="41.500063" lon="-81.692884"></trkpt>
  </trkseg></trk>
</gpx>
