<?xml version="1.0" encoding="UTF-8"?>
<gpx version="1.1" creator="yatutbuv" xmlns="http://www.topografix.com/GPX/1/1">
  <trk><name>GraphHopper Track</name><trkseg>
      <trkpt lat="49.460156" lon="2.111427"></trkpt>
      <trkpt lat="49.460297" lon="2.110723"></trkpt>
      <trkpt lat="49.45994" lon="2.110298"></trkpt>
      <trkpt lat="49.459707" lon="2.111469"></trkpt>
      <trkpt lat="49.459969" lon="2.111882"></trkpt>
      <trkpt lat="49.460264" lon="2.112024"></trkpt>
      <trkpt lat="49.460361" lon="2.112417"></trkpt>
      <trkpt lat="49.46054" lon="2.11259"></trkpt>
      <trkpt lat="49.460639" lon="2.112425"></trkpt>
      <trkpt lat="49.460527" lon="2.111593"></trkpt>
      <trkpt lat="49.460667" lon="2.110784"></trkpt>
      <trkpt lat="49.460106" lon="2.109938"></trkpt>
      <trkpt lat="49.459975" lon="2.108578"></trkpt>
      <trkpt lat="49.461031" lon="2.103152"></trkpt>
      <trkpt lat="49.461193" lon="2.102557"></trkpt>
      <trkpt lat="49.4614" lon="2.102244"></trkpt>
      <trkpt lat="49.461385" lon="2.101923"></trkpt>
      <trkpt lat="49.461023" lon="2.101735"></trkpt>
      <trkpt lat="49.459856" lon="2.100457"></trkpt>
      <trkpt lat="49.459133" lon="2.099828"></trkpt>
      <trkpt lat="49.458113" lon="2.099286"></trkpt>
      <trkpt lat="49.457265" lon="2.099127"></trkpt>
      <trkpt lat="49.454106" lon="2.099231"></trkpt>
      <trkpt lat="49.453906" lon="2.099171"></trkpt>
      <trkpt lat="49.453622" lon="2.098867"></trkpt>
      <trkpt lat="49.453178" lon="2.099183"></trkpt>
      <trkpt lat="49.452178" lon="2.098899"></trkpt>
      <trkpt lat="49.451959" lon="2.098417"></trkpt>
      <trkpt lat="49.451701" lon="2.098308"></trkpt>
      <trkpt lat="49.451454" lon="2.098704"></trkpt>
      <trkpt lat="49.451697" lon="2.099605"></trkpt>
      <trkpt lat="49.451431" lon="2.100229"></trkpt>
      <trkpt lat="49.450024" lon="2.102189"></trkpt>
      <trkpt lat="49.447569" lon="2.1052"></trkpt>
      <trkpt lat="49.444312" lon="2.109839"></trkpt>
      <trkpt lat="49.443193" lon="2.111114"></trkpt>
      <trkpt lat="49.441964" lon="2.112088"></trkpt>
      <trkpt lat="49.435999" lon="2.115571"></trkpt>
      <trkpt lat="49.433651" lon="2.117321"></trkpt>
      <trkpt lat="49.433352" lon="2.117336"></trkpt>
      <trkpt lat="49.432986" lon="2.11712"></trkpt>
      <trkpt lat="49.4327" lon="2.116216"></trkpt>
      <trkpt lat="49.432538" lon="2.116166"></trkpt>
      <trkpt lat="49.43235" lon="2.116294"></trkpt>
      <trkpt lat="49.432269" lon="2.116781"></trkpt>
      <trkpt lat="49.432531" lon="2.117271"></trkpt>
      <trkpt lat="49.432697" lon="2.117917"></trkpt>
      <trkpt lat="49.432902" lon="2.119896"></trkpt>
      <trkpt lat="49.432909" lon="2.120835"></trkpt>
      <trkpt lat="49.432759" lon="2.121505"></trkpt>
      <trkpt lat="49.432814" lon="2.121741"></trkpt>
      <trkpt lat="49.433085" lon="2.122068"></trkpt>
      <trkpt lat="49.433162" lon="2.122449"></trkpt>
      <trkpt lat="49.43404" lon="2.129516"></trkpt>
      <trkpt lat="49.434022" lon="2.130168"></trkpt>
      <trkpt lat="49.433809" lon="2.13104"></trkpt>
      <trkpt lat="49.433434" lon="2.131711"></trkpt>
      <trkpt lat="49.433017" lon="2.132101"></trkpt>
      <trkpt lat="49.432241" lon="2.132299"></trkpt>
      <trkpt lat="49.431668" lon="2.13208"></trkpt>
      <trkpt lat="49.430082" lon="2.130504"></trkpt>
      <trkpt lat="49.428806" lon="2.129415"></trkpt>
      <trkpt lat="49.427524" lon="2.12846"></trkpt>
      <trkpt lat="49.426199" lon="2.127686"></trkpt>
      <trkpt lat="49.42391" lon="2.126787"></trkpt>
      <trkpt lat="49.420332" lon="2.125765"></trkpt>
      <trkpt lat="49.418748" lon="2.125517"></trkpt>
      <trkpt lat="49.417078" lon="2.125492"></trkpt>
      <trkpt lat="49.415754" lon="2.125635"></trkpt>
      <trkpt lat="49.411654" lon="2.126387"></trkpt>
      <trkpt lat="49.409591" lon="2.126538"></trkpt>
      <trkpt lat="49.407274" lon="2.126421"></trkpt>
      <trkpt lat="49.405681" lon="2.126162"></trkpt>
      <trkpt lat="49.403006" lon="2.125394"></trkpt>
      <trkpt lat="49.401304" lon="2.124666"></trkpt>
      <trkpt lat="49.399586" lon="2.123747"></trkpt>
      <trkpt lat="49.39726" lon="2.122175"></trkpt>
      <trkpt lat="49.39143" lon="2.117808"></trkpt>
      <trkpt lat="49.388983" lon="2.116209"></trkpt>
      <trkpt lat="49.386174" lon="2.114558"></trkpt>
      <trkpt lat="49.381224" lon="2.11211"></trkpt>
      <trkpt lat="49.378189" lon="2.11088"></trkpt>
      <trkpt lat="49.375932" lon="2.110102"></trkpt>
      <trkpt lat="49.372632" lon="2.109156"></trkpt>
      <trkpt lat="49.369368" lon="2.108443"></trkpt>
      <trkpt lat="49.366162" lon="2.107953"></trkpt>
      <trkpt lat="49.363839" lon="2.10773"></trkpt>
      <trkpt lat="49.359102" lon="2.10761"></trkpt>
      <trkpt lat="49.351469" lon="2.108014"></trkpt>
      <trkpt lat="49.348584" lon="2.107835"></trkpt>
      <trkpt lat="49.346623" lon="2.107512"></trkpt>
      <trkpt lat="49.344911" lon="2.107091"></trkpt>
      <trkpt lat="49.343215" lon="2.106544"></trkpt>
      <trkpt lat="49.341081" lon="2.105667"></trkpt>
      <trkpt lat="49.338668" lon="2.104403"></trkpt>
      <trkpt lat="49.336939" lon="2.103316"></trkpt>
      <trkpt lat="49.334758" lon="2.101705"></trkpt>
      <trkpt lat="49.332844" lon="2.100048"></trkpt>
      <trkpt lat="49.329714" lon="2.096774"></trkpt>
      <trkpt lat="49.324414" lon="2.090027"></trkpt>
      <trkpt lat="49.322857" lon="2.088287"></trkpt>
      <trkpt lat="49.320556" lon="2.086135"></trkpt>
      <trkpt lat="49.317845" lon="2.084115"></trkpt>
      <trkpt lat="49.300432" lon="2.073452"></trkpt>
      <trkpt lat="49.298677" lon="2.072521"></trkpt>
      <trkpt lat="49.29696" lon="2.071878"></trkpt>
      <trkpt lat="49.294318" lon="2.071403"></trkpt>
      <trkpt lat="49.292036" lon="2.071467"></trkpt>
      <trkpt lat="49.28984" lon="2.071958"></trkpt>
      <trkpt lat="49.288307" lon="2.072555"></trkpt>
      <trkpt lat="49.286866" lon="2.073332"></trkpt>
      <trkpt lat="49.284968" lon="2.074689"></trkpt>
      <trkpt lat="49.283575" lon="2.075971"></trkpt>
      <trkpt lat="49.282254" lon="2.077438"></trkpt>
      <trkpt lat="49.276096" lon="2.08524"></trkpt>
      <trkpt lat="49.274294" lon="2.087343"></trkpt>
      <trkpt lat="49.271889" lon="2.089564"></trkpt>
      <trkpt lat="49.269957" lon="2.090924"></trkpt>
      <trkpt lat="49.267323" lon="2.092271"></trkpt>
      <trkpt lat="49.266128" lon="2.092708"></trkpt>
      <trkpt lat="49.264344" lon="2.093161"></trkpt>
      <trkpt lat="49.262455" lon="2.093411"></trkpt>
      <trkpt lat="49.26111" lon="2.093443"></trkpt>
      <trkpt lat="49.254615" lon="2.093169"></trkpt>
      <trkpt lat="49.252868" lon="2.093247"></trkpt>
      <trkpt lat="49.251245" lon="2.09351"></trkpt>
      <trkpt lat="49.249853" lon="2.093883"></trkpt>
      <trkpt lat="49.247557" lon="2.094777"></trkpt>
      <trkpt lat="49.244213" lon="2.096637"></trkpt>
      <trkpt lat="49.241247" lon="2.098506"></trkpt>
      <trkpt lat="49.23635" lon="2.101884"></trkpt>
      <trkpt lat="49.233675" lon="2.103894"></trkpt>
      <trkpt lat="49.229756" lon="2.107023"></trkpt>
      <trkpt lat="49.226941" lon="2.109483"></trkpt>
      <trkpt lat="49.225816" lon="2.11059"></trkpt>
      <trkpt lat="49.223997" lon="2.112683"></trkpt>
      <trkpt lat="49.221795" lon="2.115748"></trkpt>
      <trkpt lat="49.219867" lon="2.119083"></trkpt>
      <trkpt lat="49.218247" lon="2.122613"></trkpt>
      <trkpt lat="49.216821" lon="2.126494"></trkpt>
      <trkpt lat="49.215903" lon="2.129679"></trkpt>
      <trkpt lat="49.215357" lon="2.132057"></trkpt>
      <trkpt lat="49.213639" lon="2.141847"></trkpt>
      <trkpt lat="49.212654" lon="2.146343"></trkpt>
      <trkpt lat="49.208099" lon="2.161319"></trkpt>
      <trkpt lat="49.2066" lon="2.165737"></trkpt>
      <trkpt lat="49.20518" lon="2.168797"></trkpt>
      <trkpt lat="49.203248" lon="2.173431"></trkpt>
      <trkpt lat="49.193966" lon="2.193334"></trkpt>
      <trkpt lat="49.192373" lon="2.196386"></trkpt>
      <trkpt lat="49.188434" lon="2.203389"></trkpt>
      <trkpt lat="49.179667" lon="2.220377"></trkpt>
      <trkpt lat="49.178709" lon="2.221886"></trkpt>
      <trkpt lat="49.176964" lon="2.224082"></trkpt>
      <trkpt lat="49.175805" lon="2.225252"></trkpt>
      <trkpt lat="49.174332" lon="2.22643"></trkpt>
      <trkpt lat="49.17207" lon="2.227723"></trkpt>
      <trkpt lat="49.167216" lon="2.229607"></trkpt>
      <trkpt lat="49.165978" lon="2.230288"></trkpt>
      <trkpt lat="49.163507" lon="2.232139"></trkpt>
      <trkpt lat="49.162402" lon="2.23322"></trkpt>
      <trkpt lat="49.160941" lon="2.234934"></trkpt>
      <trkpt lat="49.155599" lon="2.242143"></trkpt>
      <trkpt lat="49.153946" lon="2.244204"></trkpt>
      <trkpt lat="49.152319" lon="2.245725"></trkpt>
      <trkpt lat="49.149968" lon="2.24719"></trkpt>
      <trkpt lat="49.143262" lon="2.250453"></trkpt>
      <trkpt lat="49.139442" lon="2.251977"></trkpt>
      <trkpt lat="49.137453" lon="2.25264"></trkpt>
      <trkpt lat="49.134438" lon="2.253231"></trkpt>
      <trkpt lat="49.130683" lon="2.253427"></trkpt>
      <trkpt lat="49.126426" lon="2.253327"></trkpt>
      <trkpt lat="49.124361" lon="2.253168"></trkpt>
      <trkpt lat="49.119092" lon="2.252496"></trkpt>
      <trkpt lat="49.117814" lon="2.252593"></trkpt>
      <trkpt lat="49.116215" lon="2.252953"></trkpt>
      <trkpt lat="49.114668" lon="2.253598"></trkpt>
      <trkpt lat="49.111765" lon="2.255285"></trkpt>
      <trkpt lat="49.108853" lon="2.256465"></trkpt>
      <trkpt lat="49.107647" lon="2.257092"></trkpt>
      <trkpt lat="49.107091" lon="2.257504"></trkpt>
      <trkpt lat="49.10554" lon="2.259161"></trkpt>
      <trkpt lat="49.104635" lon="2.26056"></trkpt>
      <trkpt lat="49.10417" lon="2.261601"></trkpt>
      <trkpt lat="49.103191" lon="2.264844"></trkpt>
      <trkpt lat="49.102809" lon="2.265732"></trkpt>
      <trkpt lat="49.102207" lon="2.266457"></trkpt>
      <trkpt lat="49.101342" lon="2.266829"></trkpt>
      <trkpt lat="49.100767" lon="2.266767"></trkpt>
      <trkpt lat="49.100056" lon="2.266319"></trkpt>
      <trkpt lat="49.096334" lon="2.261631"></trkpt>
      <trkpt lat="49.095145" lon="2.260485"></trkpt>
      <trkpt lat="49.093564" lon="2.259337"></trkpt>
      <trkpt lat="49.092247" lon="2.258635"></trkpt>
      <trkpt lat="49.090699" lon="2.258101"></trkpt>
      <trkpt lat="49.087067" lon="2.257656"></trkpt>
      <trkpt lat="49.085554" lon="2.257248"></trkpt>
      <trkpt lat="49.084235" lon="2.256661"></trkpt>
      <trkpt lat="49.083192" lon="2.256036"></trkpt>
      <trkpt lat="49.081976" lon="2.255089"></trkpt>
      <trkpt lat="49.080901" lon="2.254043"></trkpt>
      <trkpt lat="49.08005" lon="2.253064"></trkpt>
      <trkpt lat="49.078822" lon="2.25128"></trkpt>
      <trkpt lat="49.074962" lon="2.24381"></trkpt>
      <trkpt lat="49.074248" lon="2.242118"></trkpt>
      <trkpt lat="49.073638" lon="2.239984"></trkpt>
      <trkpt lat="49.073315" lon="2.237936"></trkpt>
      <trkpt lat="49.07313" lon="2.230005"></trkpt>
      <trkpt lat="49.07281" lon="2.227309"></trkpt>
      <trkpt lat="49.072489" lon="2.225819"></trkpt>
      <trkpt lat="49.071991" lon="2.224306"></trkpt>
      <trkpt lat="49.071048" lon="2.222226"></trkpt>
      <trkpt lat="49.070042" lon="2.220661"></trkpt>
      <trkpt lat="49.066472" lon="2.215968"></trkpt>
      <trkpt lat="49.064915" lon="2.214328"></trkpt>
      <trkpt lat="49.064324" lon="2.213855"></trkpt>
      <trkpt lat="49.060761" lon="2.211689"></trkpt>
      <trkpt lat="49.059692" lon="2.210852"></trkpt>
      <trkpt lat="49.058893" lon="2.209985"></trkpt>
      <trkpt lat="49.058145" lon="2.208953"></trkpt>
      <trkpt lat="49.057202" lon="2.207149"></trkpt>
      <trkpt lat="49.055895" lon="2.203451"></trkpt>
      <trkpt lat="49.055017" lon="2.201475"></trkpt>
      <trkpt lat="49.053207" lon="2.198111"></trkpt>
      <trkpt lat="49.052587" lon="2.196654"></trkpt>
      <trkpt lat="49.051931" lon="2.194528"></trkpt>
      <trkpt lat="49.051544" lon="2.192337"></trkpt>
      <trkpt lat="49.051485" lon="2.189945"></trkpt>
      <trkpt lat="49.051722" lon="2.188036"></trkpt>
      <trkpt lat="49.052289" lon="2.185881"></trkpt>
      <trkpt lat="49.052367" lon="2.18475"></trkpt>
      <trkpt lat="49.052221" lon="2.183678"></trkpt>
      <trkpt lat="49.051823" lon="2.182668"></trkpt>
      <trkpt lat="49.05112" lon="2.181848"></trkpt>
      <trkpt lat="49.050371" lon="2.181522"></trkpt>
      <trkpt lat="49.049696" lon="2.181582"></trkpt>
      <trkpt lat="49.048863" lon="2.182124"></trkpt>
      <trkpt lat="49.044527" lon="2.186919"></trkpt>
      <trkpt lat="49.042461" lon="2.188516"></trkpt>
      <trkpt lat="49.039991" lon="2.190713"></trkpt>
      <trkpt lat="49.032267" lon="2.199407"></trkpt>
      <trkpt lat="49.028382" lon="2.203158"></trkpt>
      <trkpt lat="49.027369" lon="2.204429"></trkpt>
      <trkpt lat="49.025435" lon="2.207386"></trkpt>
      <trkpt lat="49.024537" lon="2.208521"></trkpt>
      <trkpt lat="49.022879" lon="2.210182"></trkpt>
      <trkpt lat="49.017526" lon="2.214047"></trkpt>
      <trkpt lat="49.01577" lon="2.215812"></trkpt>
      <trkpt lat="49.014543" lon="2.217463"></trkpt>
      <trkpt lat="49.012907" lon="2.220526"></trkpt>
      <trkpt lat="49.012085" lon="2.222629"></trkpt>
      <trkpt lat="49.011607" lon="2.224239"></trkpt>
      <trkpt lat="49.008008" lon="2.23967"></trkpt>
      <trkpt lat="49.007479" lon="2.241497"></trkpt>
      <trkpt lat="49.006471" lon="2.243488"></trkpt>
      <trkpt lat="49.005481" lon="2.244687"></trkpt>
      <trkpt lat="49.004329" lon="2.245571"></trkpt>
      <trkpt lat="49.00287" lon="2.24613"></trkpt>
      <trkpt lat="48.997692" lon="2.246485"></trkpt>
      <trkpt lat="48.996075" lon="2.246428"></trkpt>
      <trkpt lat="48.994279" lon="2.246084"></trkpt>
      <trkpt lat="48.992705" lon="2.245562"></trkpt>
      <trkpt lat="48.986705" lon="2.242409"></trkpt>
      <trkpt lat="48.984704" lon="2.241633"></trkpt>
      <trkpt lat="48.982862" lon="2.241219"></trkpt>
      <trkpt lat="48.980069" lon="2.240815"></trkpt>
      <trkpt lat="48.977603" lon="2.239856"></trkpt>
      <trkpt lat="48.97689" lon="2.239869"></trkpt>
      <trkpt lat="48.97605" lon="2.240252"></trkpt>
      <trkpt lat="48.975422" lon="2.240894"></trkpt>
      <trkpt lat="48.975041" lon="2.241542"></trkpt>
      <trkpt lat="48.973608" lon="2.245323"></trkpt>
      <trkpt lat="48.972835" lon="2.246788"></trkpt>
      <trkpt lat="48.971765" lon="2.248176"></trkpt>
      <trkpt lat="48.969371" lon="2.250234"></trkpt>
      <trkpt lat="48.968711" lon="2.251019"></trkpt>
      <trkpt lat="48.968" lon="2.252162"></trkpt>
      <trkpt lat="48.967206" lon="2.254016"></trkpt>
      <trkpt lat="48.964603" lon="2.26155"></trkpt>
      <trkpt lat="48.963336" lon="2.264545"></trkpt>
      <trkpt lat="48.958983" lon="2.273302"></trkpt>
      <trkpt lat="48.957932" lon="2.27511"></trkpt>
      <trkpt lat="48.956282" lon="2.277122"></trkpt>
      <trkpt lat="48.954551" lon="2.278482"></trkpt>
      <trkpt lat="48.952547" lon="2.279407"></trkpt>
      <trkpt lat="48.948862" lon="2.280473"></trkpt>
      <trkpt lat="48.947972" lon="2.280953"></trkpt>
      <trkpt lat="48.946911" lon="2.281883"></trkpt>
      <trkpt lat="48.945991" lon="2.283116"></trkpt>
      <trkpt lat="48.941578" lon="2.290925"></trkpt>
      <trkpt lat="48.940141" lon="2.293262"></trkpt>
      <trkpt lat="48.939537" lon="2.294033"></trkpt>
      <trkpt lat="48.938922" lon="2.294236"></trkpt>
      <trkpt lat="48.937934" lon="2.293798"></trkpt>
      <trkpt lat="48.937619" lon="2.293536"></trkpt>
      <trkpt lat="48.937162" lon="2.292506"></trkpt>
      <trkpt lat="48.936554" lon="2.290053"></trkpt>
      <trkpt lat="48.933767" lon="2.276172"></trkpt>
      <trkpt lat="48.933677" lon="2.274807"></trkpt>
      <trkpt lat="48.93379" lon="2.273508"></trkpt>
      <trkpt lat="48.935633" lon="2.264334"></trkpt>
      <trkpt lat="48.935736" lon="2.262161"></trkpt>
      <trkpt lat="48.935607" lon="2.261261"></trkpt>
      <trkpt lat="48.934682" lon="2.258202"></trkpt>
      <trkpt lat="48.933263" lon="2.251298"></trkpt>
      <trkpt lat="48.932184" lon="2.247497"></trkpt>
      <trkpt lat="48.931254" lon="2.244876"></trkpt>
      <trkpt lat="48.930149" lon="2.242402"></trkpt>
      <trkpt lat="48.922924" lon="2.227819"></trkpt>
      <trkpt lat="48.922326" lon="2.226799"></trkpt>
      <trkpt lat="48.921659" lon="2.226013"></trkpt>
      <trkpt lat="48.911911" lon="2.217074"></trkpt>
      <trkpt lat="48.908476" lon="2.213732"></trkpt>
      <trkpt lat="48.906644" lon="2.211106"></trkpt>
      <trkpt lat="48.903483" lon="2.205768"></trkpt>
      <trkpt lat="48.902865" lon="2.203861"></trkpt>
      <trkpt lat="48.902385" lon="2.203001"></trkpt>
      <trkpt lat="48.902346" lon="2.202528"></trkpt>
      <trkpt lat="48.902612" lon="2.201347"></trkpt>
      <trkpt lat="48.902437" lon="2.200244"></trkpt>
      <trkpt lat="48.901932" lon="2.199664"></trkpt>
      <trkpt lat="48.901323" lon="2.199527"></trkpt>
      <trkpt lat="48.900749" lon="2.200004"></trkpt>
      <trkpt lat="48.900424" lon="2.200982"></trkpt>
      <trkpt lat="48.900499" lon="2.201919"></trkpt>
      <trkpt lat="48.901011" lon="2.203515"></trkpt>
      <trkpt lat="48.90104" lon="2.204524"></trkpt>
      <trkpt lat="48.899732" lon="2.211224"></trkpt>
      <trkpt lat="48.89867" lon="2.215619"></trkpt>
      <trkpt lat="48.894937" lon="2.227972"></trkpt>
      <trkpt lat="48.892809" lon="2.234427"></trkpt>
      <trkpt lat="48.891945" lon="2.236544"></trkpt>
      <trkpt lat="48.890811" lon="2.240207"></trkpt>
      <trkpt lat="48.890085" lon="2.243215"></trkpt>
      <trkpt lat="48.887206" lon="2.252511"></trkpt>
      <trkpt lat="48.877193" lon="2.28388"></trkpt>
      <trkpt lat="48.877172" lon="2.283971"></trkpt>
      <trkpt lat="48.877462" lon="2.284156"></trkpt>
      <trkpt lat="48.878593" lon="2.285766"></trkpt>
  </trkseg></trk>
</gpx>
