<?xml version="1.0" encoding="UTF-8"?>
<gpx version="1.1" creator="yatutbuv" xmlns="http://www.topografix.com/GPX/1/1">
  <trk><name>GraphHopper Track</name><trkseg>
      <trkpt lat="49.214965" lon="19.295322"></trkpt>
      <trkpt lat="49.214988" lon="19.296691"></trkpt>
      <trkpt lat="49.215588" lon="19.296753"></trkpt>
      <trkpt lat="49.215609" lon="19.297049"></trkpt>
      <trkpt lat="49.214917" lon="19.297045"></trkpt>
      <trkpt lat="49.214119" lon="19.296841"></trkpt>
      <trkpt lat="49.212593" lon="19.29687"></trkpt>
      <trkpt lat="49.21233" lon="19.298213"></trkpt>
      <trkpt lat="49.211906" lon="19.298827"></trkpt>
      <trkpt lat="49.211585" lon="19.299058"></trkpt>
      <trkpt lat="49.211226" lon="19.299135"></trkpt>
      <trkpt lat="49.210199" lon="19.29906"></trkpt>
      <trkpt lat="49.209346" lon="19.299207"></trkpt>
      <trkpt lat="49.207796" lon="19.30025"></trkpt>
      <trkpt lat="49.206109" lon="19.301156"></trkpt>
      <trkpt lat="49.199895" lon="19.303335"></trkpt>
      <trkpt lat="49.197886" lon="19.304175"></trkpt>
      <trkpt lat="49.197123" lon="19.304336"></trkpt>
      <trkpt lat="49.192775" lon="19.304538"></trkpt>
      <trkpt lat="49.189821" lon="19.305348"></trkpt>
      <trkpt lat="49.185038" lon="19.308178"></trkpt>
      <trkpt lat="49.184407" lon="19.308399"></trkpt>
      <trkpt lat="49.18383" lon="19.308402"></trkpt>
      <trkpt lat="49.183183" lon="19.308189"></trkpt>
      <trkpt lat="49.182806" lon="19.307941"></trkpt>
      <trkpt lat="49.1822" lon="19.307329"></trkpt>
      <trkpt lat="49.181916" lon="19.3068"></trkpt>
      <trkpt lat="49.181522" lon="19.305561"></trkpt>
      <trkpt lat="49.180958" lon="19.302322"></trkpt>
      <trkpt lat="49.180431" lon="19.300367"></trkpt>
      <trkpt lat="49.179946" lon="19.299031"></trkpt>
      <trkpt lat="49.179288" lon="19.29828"></trkpt>
      <trkpt lat="49.178522" lon="19.298014"></trkpt>
      <trkpt lat="49.178022" lon="19.298107"></trkpt>
      <trkpt lat="49.175823" lon="19.299793"></trkpt>
      <trkpt lat="49.175256" lon="19.300011"></trkpt>
      <trkpt lat="49.174809" lon="19.300053"></trkpt>
      <trkpt lat="49.172096" lon="19.299454"></trkpt>
      <trkpt lat="49.1683" lon="19.298024"></trkpt>
      <trkpt lat="49.167342" lon="19.297951"></trkpt>
      <trkpt lat="49.166689" lon="19.298082"></trkpt>
      <trkpt lat="49.166104" lon="19.298344"></trkpt>
      <trkpt lat="49.164318" lon="19.300018"></trkpt>
      <trkpt lat="49.163906" lon="19.300166"></trkpt>
      <trkpt lat="49.163328" lon="19.300114"></trkpt>
      <trkpt lat="49.162773" lon="19.29975"></trkpt>
      <trkpt lat="49.161561" lon="19.298056"></trkpt>
      <trkpt lat="49.160048" lon="19.297352"></trkpt>
      <trkpt lat="49.159487" lon="19.296808"></trkpt>
      <trkpt lat="49.159208" lon="19.296333"></trkpt>
      <trkpt lat="49.158371" lon="19.294161"></trkpt>
      <trkpt lat="49.157723" lon="19.293182"></trkpt>
      <trkpt lat="49.15713" lon="19.292723"></trkpt>
      <trkpt lat="49.155" lon="19.291709"></trkpt>
      <trkpt lat="49.154429" lon="19.291174"></trkpt>
      <trkpt lat="49.15311" lon="19.288476"></trkpt>
      <trkpt lat="49.151493" lon="19.285893"></trkpt>
      <trkpt lat="49.150667" lon="19.285281"></trkpt>
      <trkpt lat="49.149182" lon="19.284876"></trkpt>
      <trkpt lat="49.148124" lon="19.284302"></trkpt>
      <trkpt lat="49.147623" lon="19.28424"></trkpt>
      <trkpt lat="49.147067" lon="19.284571"></trkpt>
      <trkpt lat="49.146824" lon="19.285043"></trkpt>
      <trkpt lat="49.14633" lon="19.287582"></trkpt>
      <trkpt lat="49.145809" lon="19.288216"></trkpt>
      <trkpt lat="49.145351" lon="19.288491"></trkpt>
      <trkpt lat="49.14495" lon="19.288482"></trkpt>
      <trkpt lat="49.1434" lon="19.287632"></trkpt>
      <trkpt lat="49.141649" lon="19.287737"></trkpt>
      <trkpt lat="49.140103" lon="19.287549"></trkpt>
      <trkpt lat="49.138231" lon="19.287603"></trkpt>
      <trkpt lat="49.136849" lon="19.287461"></trkpt>
      <trkpt lat="49.136096" lon="19.287665"></trkpt>
      <trkpt lat="49.134977" lon="19.288515"></trkpt>
      <trkpt lat="49.134156" lon="19.288861"></trkpt>
      <trkpt lat="49.132912" lon="19.28878"></trkpt>
      <trkpt lat="49.130593" lon="19.288172"></trkpt>
      <trkpt lat="49.129511" lon="19.288269"></trkpt>
      <trkpt lat="49.128895" lon="19.288481"></trkpt>
      <trkpt lat="49.127948" lon="19.28903"></trkpt>
      <trkpt lat="49.127364" lon="19.289643"></trkpt>
      <trkpt lat="49.12638" lon="19.292072"></trkpt>
      <trkpt lat="49.125685" lon="19.292935"></trkpt>
      <trkpt lat="49.124244" lon="19.293611"></trkpt>
      <trkpt lat="49.122797" lon="19.294532"></trkpt>
      <trkpt lat="49.12078" lon="19.295596"></trkpt>
      <trkpt lat="49.118923" lon="19.297142"></trkpt>
      <trkpt lat="49.1161" lon="19.298247"></trkpt>
      <trkpt lat="49.11547" lon="19.298291"></trkpt>
      <trkpt lat="49.114138" lon="19.298075"></trkpt>
      <trkpt lat="49.112274" lon="19.298634"></trkpt>
      <trkpt lat="49.110506" lon="19.298747"></trkpt>
      <trkpt lat="49.109766" lon="19.298965"></trkpt>
      <trkpt lat="49.10944" lon="19.299181"></trkpt>
      <trkpt lat="49.109251" lon="19.299138"></trkpt>
      <trkpt lat="49.108804" lon="19.299526"></trkpt>
      <trkpt lat="49.104257" lon="19.302337"></trkpt>
      <trkpt lat="49.103516" lon="19.303044"></trkpt>
      <trkpt lat="49.102881" lon="19.303977"></trkpt>
      <trkpt lat="49.102677" lon="19.304045"></trkpt>
      <trkpt lat="49.10256" lon="19.304423"></trkpt>
      <trkpt lat="49.101603" lon="19.305161"></trkpt>
      <trkpt lat="49.101034" lon="19.305422"></trkpt>
      <trkpt lat="49.096257" lon="19.306053"></trkpt>
      <trkpt lat="49.095155" lon="19.305871"></trkpt>
      <trkpt lat="49.094489" lon="19.305912"></trkpt>
      <trkpt lat="49.093632" lon="19.306202"></trkpt>
      <trkpt lat="49.09231" lon="19.307215"></trkpt>
      <trkpt lat="49.091885" lon="19.307356"></trkpt>
      <trkpt lat="49.091464" lon="19.307351"></trkpt>
      <trkpt lat="49.090981" lon="19.307122"></trkpt>
      <trkpt lat="49.090494" lon="19.306587"></trkpt>
      <trkpt lat="49.090169" lon="19.305965"></trkpt>
      <trkpt lat="49.089737" lon="19.304448"></trkpt>
      <trkpt lat="49.089087" lon="19.303589"></trkpt>
      <trkpt lat="49.08838" lon="19.30329"></trkpt>
      <trkpt lat="49.086033" lon="19.303514"></trkpt>
      <trkpt lat="49.085243" lon="19.302968"></trkpt>
      <trkpt lat="49.084946" lon="19.302516"></trkpt>
      <trkpt lat="49.08257" lon="19.306959"></trkpt>
      <trkpt lat="49.07996" lon="19.311224"></trkpt>
      <trkpt lat="49.077997" lon="19.315025"></trkpt>
      <trkpt lat="49.077797" lon="19.315677"></trkpt>
      <trkpt lat="49.077683" lon="19.316827"></trkpt>
      <trkpt lat="49.078084" lon="19.322525"></trkpt>
      <trkpt lat="49.078812" lon="19.338122"></trkpt>
      <trkpt lat="49.078763" lon="19.348168"></trkpt>
      <trkpt lat="49.079124" lon="19.351821"></trkpt>
      <trkpt lat="49.079975" lon="19.358198"></trkpt>
      <trkpt lat="49.083546" lon="19.376274"></trkpt>
      <trkpt lat="49.084841" lon="19.380925"></trkpt>
      <trkpt lat="49.087175" lon="19.387697"></trkpt>
      <trkpt lat="49.088395" lon="19.392296"></trkpt>
      <trkpt lat="49.088778" lon="19.394581"></trkpt>
      <trkpt lat="49.089284" lon="19.40023"></trkpt>
      <trkpt lat="49.091691" lon="19.415199"></trkpt>
      <trkpt lat="49.093023" lon="19.422519"></trkpt>
      <trkpt lat="49.093513" lon="19.424434"></trkpt>
      <trkpt lat="49.094159" lon="19.426284"></trkpt>
      <trkpt lat="49.095022" lon="19.428154"></trkpt>
      <trkpt lat="49.096389" lon="19.430711"></trkpt>
      <trkpt lat="49.09702" lon="19.432245"></trkpt>
      <trkpt lat="49.097487" lon="19.434401"></trkpt>
      <trkpt lat="49.097591" lon="19.436097"></trkpt>
      <trkpt lat="49.097369" lon="19.438529"></trkpt>
      <trkpt lat="49.096969" lon="19.44008"></trkpt>
      <trkpt lat="49.096493" lon="19.441291"></trkpt>
      <trkpt lat="49.095567" lon="19.442935"></trkpt>
      <trkpt lat="49.092526" lon="19.446831"></trkpt>
      <trkpt lat="49.091813" lon="19.448129"></trkpt>
      <trkpt lat="49.091269" lon="19.449447"></trkpt>
      <trkpt lat="49.089262" lon="19.456335"></trkpt>
      <trkpt lat="49.088764" lon="19.45906"></trkpt>
      <trkpt lat="49.088427" lon="19.462123"></trkpt>
      <trkpt lat="49.087916" lon="19.469808"></trkpt>
      <trkpt lat="49.088008" lon="19.4739"></trkpt>
      <trkpt lat="49.088352" lon="19.476454"></trkpt>
      <trkpt lat="49.088738" lon="19.478369"></trkpt>
      <trkpt lat="49.090145" lon="19.483356"></trkpt>
      <trkpt lat="49.09038" lon="19.485091"></trkpt>
      <trkpt lat="49.090398" lon="19.486883"></trkpt>
      <trkpt lat="49.090254" lon="19.488331"></trkpt>
      <trkpt lat="49.089862" lon="19.490091"></trkpt>
      <trkpt lat="49.08933" lon="19.491547"></trkpt>
      <trkpt lat="49.088192" lon="19.494044"></trkpt>
      <trkpt lat="49.087667" lon="19.495833"></trkpt>
      <trkpt lat="49.087433" lon="19.49734"></trkpt>
      <trkpt lat="49.087361" lon="19.499485"></trkpt>
      <trkpt lat="49.0876" lon="19.501436"></trkpt>
      <trkpt lat="49.088024" lon="19.503134"></trkpt>
      <trkpt lat="49.088677" lon="19.504754"></trkpt>
      <trkpt lat="49.090948" lon="19.509531"></trkpt>
      <trkpt lat="49.09147" lon="19.511226"></trkpt>
      <trkpt lat="49.091758" lon="19.512712"></trkpt>
      <trkpt lat="49.091911" lon="19.515464"></trkpt>
      <trkpt lat="49.091152" lon="19.526814"></trkpt>
      <trkpt lat="49.090812" lon="19.528486"></trkpt>
      <trkpt lat="49.090348" lon="19.529934"></trkpt>
      <trkpt lat="49.087855" lon="19.535206"></trkpt>
      <trkpt lat="49.0871" lon="19.537832"></trkpt>
      <trkpt lat="49.086867" lon="19.539559"></trkpt>
      <trkpt lat="49.086848" lon="19.541109"></trkpt>
      <trkpt lat="49.087491" lon="19.54681"></trkpt>
      <trkpt lat="49.087431" lon="19.548334"></trkpt>
      <trkpt lat="49.087181" lon="19.549679"></trkpt>
      <trkpt lat="49.086399" lon="19.551623"></trkpt>
      <trkpt lat="49.084428" lon="19.554099"></trkpt>
      <trkpt lat="49.083855" lon="19.555087"></trkpt>
      <trkpt lat="49.083244" lon="19.55668"></trkpt>
      <trkpt lat="49.082923" lon="19.558276"></trkpt>
      <trkpt lat="49.081512" lon="19.568793"></trkpt>
      <trkpt lat="49.081374" lon="19.570635"></trkpt>
      <trkpt lat="49.081458" lon="19.573186"></trkpt>
      <trkpt lat="49.082151" lon="19.578598"></trkpt>
      <trkpt lat="49.082086" lon="19.581042"></trkpt>
      <trkpt lat="49.081732" lon="19.583134"></trkpt>
      <trkpt lat="49.081244" lon="19.584697"></trkpt>
      <trkpt lat="49.08053" lon="19.586309"></trkpt>
      <trkpt lat="49.076715" lon="19.593306"></trkpt>
      <trkpt lat="49.075483" lon="19.595306"></trkpt>
      <trkpt lat="49.07514" lon="19.595779"></trkpt>
      <trkpt lat="49.074721" lon="19.596095"></trkpt>
      <trkpt lat="49.073781" lon="19.596171"></trkpt>
      <trkpt lat="49.073429" lon="19.596303"></trkpt>
      <trkpt lat="49.07324" lon="19.596514"></trkpt>
      <trkpt lat="49.073061" lon="19.597081"></trkpt>
      <trkpt lat="49.073066" lon="19.597569"></trkpt>
      <trkpt lat="49.073277" lon="19.598275"></trkpt>
      <trkpt lat="49.073966" lon="19.599336"></trkpt>
      <trkpt lat="49.074306" lon="19.599645"></trkpt>
      <trkpt lat="49.075082" lon="19.600053"></trkpt>
      <trkpt lat="49.077098" lon="19.600054"></trkpt>
      <trkpt lat="49.078025" lon="19.600392"></trkpt>
      <trkpt lat="49.078572" lon="19.600785"></trkpt>
      <trkpt lat="49.079519" lon="19.601635"></trkpt>
      <trkpt lat="49.08085" lon="19.603156"></trkpt>
      <trkpt lat="49.083208" lon="19.60631"></trkpt>
      <trkpt lat="49.083377" lon="19.606683"></trkpt>
      <trkpt lat="49.083453" lon="19.607259"></trkpt>
      <trkpt lat="49.082904" lon="19.609509"></trkpt>
      <trkpt lat="49.083633" lon="19.609735"></trkpt>
      <trkpt lat="49.083433" lon="19.610283"></trkpt>
      <trkpt lat="49.083159" lon="19.611903"></trkpt>
  </trkseg></trk>
</gpx>
