<?xml version="1.0" encoding="UTF-8"?>
<gpx version="1.1" creator="yatutbuv" xmlns="http://www.topografix.com/GPX/1/1">
  <trk><name>GraphHopper Track</name><trkseg>
      <trkpt lat="40.455662" lon="-3.637289"></trkpt>
      <trkpt lat="40.455407" lon="-3.637504"></trkpt>
      <trkpt lat="40.455308" lon="-3.637788"></trkpt>
      <trkpt lat="40.455666" lon="-3.639504"></trkpt>
      <trkpt lat="40.455638" lon="-3.63985"></trkpt>
      <trkpt lat="40.455049" lon="-3.64121"></trkpt>
      <trkpt lat="40.454619" lon="-3.643667"></trkpt>
      <trkpt lat="40.453579" lon="-3.645738"></trkpt>
      <trkpt lat="40.453011" lon="-3.647551"></trkpt>
      <trkpt lat="40.451654" lon="-3.648427"></trkpt>
      <trkpt lat="40.451111" lon="-3.649305"></trkpt>
      <trkpt lat="40.450369" lon="-3.64873"></trkpt>
      <trkpt lat="40.448327" lon="-3.653421"></trkpt>
      <trkpt lat="40.448143" lon="-3.653432"></trkpt>
      <trkpt lat="40.447645" lon="-3.653118"></trkpt>
      <trkpt lat="40.447394" lon="-3.653257"></trkpt>
      <trkpt lat="40.446557" lon="-3.655185"></trkpt>
      <trkpt lat="40.443219" lon="-3.664622"></trkpt>
      <trkpt lat="40.440311" lon="-3.66974"></trkpt>
      <trkpt lat="40.439668" lon="-3.671132"></trkpt>
      <trkpt lat="40.439308" lon="-3.672399"></trkpt>
      <trkpt lat="40.438823" lon="-3.67505"></trkpt>
      <trkpt lat="40.437602" lon="-3.677144"></trkpt>
      <trkpt lat="40.437454" lon="-3.677648"></trkpt>
      <trkpt lat="40.437811" lon="-3.685123"></trkpt>
      <trkpt lat="40.437739" lon="-3.686294"></trkpt>
      <trkpt lat="40.430462" lon="-3.686909"></trkpt>
      <trkpt lat="40.430582" lon="-3.689097"></trkpt>
      <trkpt lat="40.425687" lon="-3.69039"></trkpt>
      <trkpt lat="40.425237" lon="-3.690713"></trkpt>
      <trkpt lat="40.424442" lon="-3.690685"></trkpt>
      <trkpt lat="40.419911" lon="-3.692798"></trkpt>
      <trkpt lat="40.418998" lon="-3.693766"></trkpt>
      <trkpt lat="40.415759" lon="-3.694669"></trkpt>
      <trkpt lat="40.412458" lon="-3.69335"></trkpt>
      <trkpt lat="40.409566" lon="-3.692467"></trkpt>
  </trkseg></trk>
</gpx>
