<?xml version="1.0" encoding="UTF-8"?>
<gpx version="1.1" creator="yatutbuv" xmlns="http://www.topografix.com/GPX/1/1">
  <trk><name>GraphHopper Track</name><trkseg>
      <trkpt lat="44.960786" lon="34.080991"></trkpt>
      <trkpt lat="44.961065" lon="34.081337"></trkpt>
      <trkpt lat="44.960537" lon="34.083293"></trkpt>
      <trkpt lat="44.961212" lon="34.084468"></trkpt>
      <trkpt lat="44.957505" lon="34.088826"></trkpt>
      <trkpt lat="44.952596" lon="34.09688"></trkpt>
      <trkpt lat="44.953593" lon="34.098124"></trkpt>
      <trkpt lat="44.952635" lon="34.099791"></trkpt>
      <trkpt lat="44.952293" lon="34.101735"></trkpt>
      <trkpt lat="44.951894" lon="34.10232"></trkpt>
      <trkpt lat="44.952051" lon="34.103384"></trkpt>
      <trkpt lat="44.950898" lon="34.10674"></trkpt>
      <trkpt lat="44.951144" lon="34.10756"></trkpt>
      <trkpt lat="44.951232" lon="34.108352"></trkpt>
      <trkpt lat="44.950266" lon="34.112318"></trkpt>
      <trkpt lat="44.949438" lon="34.114795"></trkpt>
      <trkpt lat="44.947817" lon="34.118524"></trkpt>
      <trkpt lat="44.945117" lon="34.123757"></trkpt>
      <trkpt lat="44.943949" lon="34.125773"></trkpt>
      <trkpt lat="44.943907" lon="34.126741"></trkpt>
      <trkpt lat="44.937736" lon="34.132125"></trkpt>
      <trkpt lat="44.932527" lon="34.135935"></trkpt>
      <trkpt lat="44.931858" lon="34.136293"></trkpt>
      <trkpt lat="44.926373" lon="34.138279"></trkpt>
      <trkpt lat="44.925852" lon="34.13862"></trkpt>
      <trkpt lat="44.925235" lon="34.139377"></trkpt>
      <trkpt lat="44.92345" lon="34.143388"></trkpt>
      <trkpt lat="44.922855" lon="34.144388"></trkpt>
      <trkpt lat="44.921984" lon="34.145246"></trkpt>
      <trkpt lat="44.916449" lon="34.149864"></trkpt>
      <trkpt lat="44.911823" lon="34.153356"></trkpt>
      <trkpt lat="44.911358" lon="34.153818"></trkpt>
      <trkpt lat="44.910769" lon="34.154792"></trkpt>
      <trkpt lat="44.90982" lon="34.157981"></trkpt>
      <trkpt lat="44.909215" lon="34.159269"></trkpt>
      <trkpt lat="44.908579" lon="34.160332"></trkpt>
      <trkpt lat="44.90639" lon="34.163198"></trkpt>
      <trkpt lat="44.905709" lon="34.164272"></trkpt>
      <trkpt lat="44.904386" lon="34.167783"></trkpt>
      <trkpt lat="44.902805" lon="34.171558"></trkpt>
      <trkpt lat="44.896943" lon="34.179157"></trkpt>
      <trkpt lat="44.894135" lon="34.181942"></trkpt>
      <trkpt lat="44.893123" lon="34.183161"></trkpt>
      <trkpt lat="44.892013" lon="34.184924"></trkpt>
      <trkpt lat="44.890754" lon="34.186189"></trkpt>
      <trkpt lat="44.890325" lon="34.187039"></trkpt>
      <trkpt lat="44.889603" lon="34.190489"></trkpt>
      <trkpt lat="44.888917" lon="34.191823"></trkpt>
      <trkpt lat="44.887421" lon="34.194216"></trkpt>
      <trkpt lat="44.885809" lon="34.19774"></trkpt>
      <trkpt lat="44.885412" lon="34.198344"></trkpt>
      <trkpt lat="44.883185" lon="34.20044"></trkpt>
      <trkpt lat="44.881459" lon="34.202467"></trkpt>
      <trkpt lat="44.879983" lon="34.20458"></trkpt>
      <trkpt lat="44.878881" lon="34.206489"></trkpt>
      <trkpt lat="44.873422" lon="34.222226"></trkpt>
      <trkpt lat="44.872605" lon="34.230279"></trkpt>
      <trkpt lat="44.871852" lon="34.234303"></trkpt>
      <trkpt lat="44.870684" lon="34.236654"></trkpt>
      <trkpt lat="44.868934" lon="34.238287"></trkpt>
      <trkpt lat="44.86853" lon="34.238824"></trkpt>
      <trkpt lat="44.867444" lon="34.242403"></trkpt>
      <trkpt lat="44.86677" lon="34.245354"></trkpt>
      <trkpt lat="44.864744" lon="34.249363"></trkpt>
      <trkpt lat="44.863582" lon="34.252689"></trkpt>
      <trkpt lat="44.862588" lon="34.254104"></trkpt>
      <trkpt lat="44.859749" lon="34.25651"></trkpt>
      <trkpt lat="44.858764" lon="34.258235"></trkpt>
      <trkpt lat="44.856914" lon="34.26464"></trkpt>
      <trkpt lat="44.856768" lon="34.26477"></trkpt>
      <trkpt lat="44.856249" lon="34.266785"></trkpt>
      <trkpt lat="44.856136" lon="34.266826"></trkpt>
      <trkpt lat="44.856403" lon="34.267136"></trkpt>
      <trkpt lat="44.85618" lon="34.274317"></trkpt>
      <trkpt lat="44.855474" lon="34.27791"></trkpt>
      <trkpt lat="44.852977" lon="34.288426"></trkpt>
      <trkpt lat="44.853019" lon="34.289598"></trkpt>
      <trkpt lat="44.853309" lon="34.291849"></trkpt>
      <trkpt lat="44.853414" lon="34.295883"></trkpt>
      <trkpt lat="44.853303" lon="34.296986"></trkpt>
      <trkpt lat="44.852612" lon="34.299597"></trkpt>
      <trkpt lat="44.852789" lon="34.30385"></trkpt>
      <trkpt lat="44.852463" lon="34.304855"></trkpt>
      <trkpt lat="44.848164" lon="34.312948"></trkpt>
      <trkpt lat="44.842745" lon="34.319339"></trkpt>
      <trkpt lat="44.838384" lon="34.321848"></trkpt>
      <trkpt lat="44.831573" lon="34.327931"></trkpt>
      <trkpt lat="44.830197" lon="34.328819"></trkpt>
      <trkpt lat="44.829015" lon="34.329185"></trkpt>
      <trkpt lat="44.827074" lon="34.328475"></trkpt>
      <trkpt lat="44.826531" lon="34.328676"></trkpt>
      <trkpt lat="44.824081" lon="34.330757"></trkpt>
      <trkpt lat="44.82367" lon="34.331326"></trkpt>
      <trkpt lat="44.822482" lon="34.332388"></trkpt>
      <trkpt lat="44.821379" lon="34.333853"></trkpt>
      <trkpt lat="44.819153" lon="34.336041"></trkpt>
      <trkpt lat="44.818316" lon="34.33646"></trkpt>
      <trkpt lat="44.81633" lon="34.33698"></trkpt>
      <trkpt lat="44.815344" lon="34.336959"></trkpt>
      <trkpt lat="44.812848" lon="34.33735"></trkpt>
      <trkpt lat="44.811491" lon="34.338664"></trkpt>
      <trkpt lat="44.810361" lon="34.339311"></trkpt>
      <trkpt lat="44.810062" lon="34.339601"></trkpt>
      <trkpt lat="44.809567" lon="34.341392"></trkpt>
      <trkpt lat="44.809248" lon="34.341833"></trkpt>
      <trkpt lat="44.808642" lon="34.342243"></trkpt>
      <trkpt lat="44.807843" lon="34.3422"></trkpt>
      <trkpt lat="44.806161" lon="34.341486"></trkpt>
      <trkpt lat="44.805556" lon="34.3414"></trkpt>
      <trkpt lat="44.800089" lon="34.341916"></trkpt>
      <trkpt lat="44.798631" lon="34.342297"></trkpt>
      <trkpt lat="44.79766" lon="34.342123"></trkpt>
      <trkpt lat="44.796123" lon="34.341336"></trkpt>
      <trkpt lat="44.794144" lon="34.34125"></trkpt>
      <trkpt lat="44.792495" lon="34.34081"></trkpt>
      <trkpt lat="44.790485" lon="34.340655"></trkpt>
      <trkpt lat="44.788209" lon="34.340724"></trkpt>
      <trkpt lat="44.784672" lon="34.3411"></trkpt>
      <trkpt lat="44.7826" lon="34.340628"></trkpt>
      <trkpt lat="44.779581" lon="34.339705"></trkpt>
      <trkpt lat="44.778104" lon="34.339696"></trkpt>
      <trkpt lat="44.776517" lon="34.340019"></trkpt>
      <trkpt lat="44.775406" lon="34.340046"></trkpt>
      <trkpt lat="44.77478" lon="34.339753"></trkpt>
      <trkpt lat="44.773907" lon="34.339116"></trkpt>
      <trkpt lat="44.773321" lon="34.338906"></trkpt>
      <trkpt lat="44.772228" lon="34.339404"></trkpt>
      <trkpt lat="44.771075" lon="34.340174"></trkpt>
      <trkpt lat="44.768723" lon="34.342305"></trkpt>
      <trkpt lat="44.766941" lon="34.343009"></trkpt>
      <trkpt lat="44.76606" lon="34.343131"></trkpt>
      <trkpt lat="44.765443" lon="34.343013"></trkpt>
      <trkpt lat="44.76297" lon="34.341334"></trkpt>
      <trkpt lat="44.762276" lon="34.34118"></trkpt>
      <trkpt lat="44.76148" lon="34.341373"></trkpt>
      <trkpt lat="44.759793" lon="34.342178"></trkpt>
      <trkpt lat="44.758101" lon="34.342576"></trkpt>
      <trkpt lat="44.757541" lon="34.343052"></trkpt>
      <trkpt lat="44.756362" lon="34.34439"></trkpt>
      <trkpt lat="44.750455" lon="34.348782"></trkpt>
      <trkpt lat="44.749756" lon="34.349748"></trkpt>
      <trkpt lat="44.748867" lon="34.351293"></trkpt>
      <trkpt lat="44.748474" lon="34.351675"></trkpt>
      <trkpt lat="44.748126" lon="34.351862"></trkpt>
      <trkpt lat="44.746765" lon="34.352125"></trkpt>
      <trkpt lat="44.745308" lon="34.352867"></trkpt>
      <trkpt lat="44.741092" lon="34.35448"></trkpt>
      <trkpt lat="44.740934" lon="34.355015"></trkpt>
      <trkpt lat="44.74103" lon="34.355662"></trkpt>
      <trkpt lat="44.741411" lon="34.356276"></trkpt>
      <trkpt lat="44.742399" lon="34.35741"></trkpt>
      <trkpt lat="44.743123" lon="34.357496"></trkpt>
      <trkpt lat="44.745708" lon="34.357075"></trkpt>
      <trkpt lat="44.746003" lon="34.357304"></trkpt>
      <trkpt lat="44.746122" lon="34.357583"></trkpt>
      <trkpt lat="44.746108" lon="34.358124"></trkpt>
      <trkpt lat="44.745816" lon="34.358482"></trkpt>
      <trkpt lat="44.744825" lon="34.359267"></trkpt>
      <trkpt lat="44.744101" lon="34.361009"></trkpt>
      <trkpt lat="44.743687" lon="34.361712"></trkpt>
      <trkpt lat="44.741603" lon="34.36314"></trkpt>
      <trkpt lat="44.740982" lon="34.363313"></trkpt>
      <trkpt lat="44.739565" lon="34.362324"></trkpt>
      <trkpt lat="44.739347" lon="34.362311"></trkpt>
      <trkpt lat="44.739111" lon="34.362496"></trkpt>
      <trkpt lat="44.738951" lon="34.362794"></trkpt>
      <trkpt lat="44.738898" lon="34.363242"></trkpt>
      <trkpt lat="44.739234" lon="34.365302"></trkpt>
      <trkpt lat="44.739265" lon="34.366678"></trkpt>
      <trkpt lat="44.73914" lon="34.368437"></trkpt>
      <trkpt lat="44.73895" lon="34.369104"></trkpt>
      <trkpt lat="44.738409" lon="34.369629"></trkpt>
      <trkpt lat="44.737185" lon="34.369728"></trkpt>
      <trkpt lat="44.736776" lon="34.369923"></trkpt>
      <trkpt lat="44.736028" lon="34.370604"></trkpt>
      <trkpt lat="44.734387" lon="34.372479"></trkpt>
      <trkpt lat="44.733976" lon="34.372786"></trkpt>
      <trkpt lat="44.733291" lon="34.373057"></trkpt>
      <trkpt lat="44.730903" lon="34.373376"></trkpt>
      <trkpt lat="44.730524" lon="34.373337"></trkpt>
      <trkpt lat="44.730029" lon="34.372974"></trkpt>
      <trkpt lat="44.728869" lon="34.371262"></trkpt>
      <trkpt lat="44.728509" lon="34.371041"></trkpt>
      <trkpt lat="44.72815" lon="34.370983"></trkpt>
      <trkpt lat="44.727575" lon="34.371317"></trkpt>
      <trkpt lat="44.726675" lon="34.372585"></trkpt>
      <trkpt lat="44.725234" lon="34.373091"></trkpt>
      <trkpt lat="44.720821" lon="34.373916"></trkpt>
      <trkpt lat="44.719948" lon="34.373902"></trkpt>
      <trkpt lat="44.718473" lon="34.373444"></trkpt>
      <trkpt lat="44.713198" lon="34.370525"></trkpt>
      <trkpt lat="44.712706" lon="34.369955"></trkpt>
      <trkpt lat="44.712323" lon="34.369061"></trkpt>
      <trkpt lat="44.712164" lon="34.367372"></trkpt>
      <trkpt lat="44.712298" lon="34.366087"></trkpt>
      <trkpt lat="44.712817" lon="34.363539"></trkpt>
      <trkpt lat="44.712769" lon="34.362362"></trkpt>
      <trkpt lat="44.712474" lon="34.361613"></trkpt>
      <trkpt lat="44.71229" lon="34.361414"></trkpt>
      <trkpt lat="44.711773" lon="34.36116"></trkpt>
      <trkpt lat="44.711227" lon="34.36129"></trkpt>
      <trkpt lat="44.710677" lon="34.362022"></trkpt>
      <trkpt lat="44.709608" lon="34.364927"></trkpt>
      <trkpt lat="44.70937" lon="34.37064"></trkpt>
      <trkpt lat="44.707258" lon="34.376227"></trkpt>
      <trkpt lat="44.704705" lon="34.381013"></trkpt>
      <trkpt lat="44.702177" lon="34.391831"></trkpt>
      <trkpt lat="44.701704" lon="34.393046"></trkpt>
      <trkpt lat="44.700955" lon="34.394522"></trkpt>
      <trkpt lat="44.700381" lon="34.395169"></trkpt>
      <trkpt lat="44.699286" lon="34.395824"></trkpt>
      <trkpt lat="44.698578" lon="34.395919"></trkpt>
      <trkpt lat="44.696948" lon="34.395518"></trkpt>
      <trkpt lat="44.696503" lon="34.395594"></trkpt>
      <trkpt lat="44.695688" lon="34.396026"></trkpt>
      <trkpt lat="44.693607" lon="34.397476"></trkpt>
      <trkpt lat="44.688882" lon="34.402474"></trkpt>
      <trkpt lat="44.68827" lon="34.402726"></trkpt>
      <trkpt lat="44.684809" lon="34.403149"></trkpt>
      <trkpt lat="44.681907" lon="34.405774"></trkpt>
      <trkpt lat="44.681333" lon="34.406048"></trkpt>
      <trkpt lat="44.68086" lon="34.406033"></trkpt>
      <trkpt lat="44.680408" lon="34.405823"></trkpt>
      <trkpt lat="44.68013" lon="34.405556"></trkpt>
      <trkpt lat="44.679609" lon="34.404525"></trkpt>
      <trkpt lat="44.679489" lon="34.399974"></trkpt>
      <trkpt lat="44.679269" lon="34.39916"></trkpt>
      <trkpt lat="44.678841" lon="34.39852"></trkpt>
      <trkpt lat="44.678601" lon="34.398296"></trkpt>
      <trkpt lat="44.678048" lon="34.398074"></trkpt>
      <trkpt lat="44.6767" lon="34.398008"></trkpt>
      <trkpt lat="44.67631" lon="34.398191"></trkpt>
      <trkpt lat="44.675463" lon="34.399389"></trkpt>
      <trkpt lat="44.674676" lon="34.400085"></trkpt>
      <trkpt lat="44.674239" lon="34.400123"></trkpt>
      <trkpt lat="44.673666" lon="34.400353"></trkpt>
      <trkpt lat="44.673116" lon="34.400099"></trkpt>
      <trkpt lat="44.670767" lon="34.397404"></trkpt>
      <trkpt lat="44.669597" lon="34.394897"></trkpt>
      <trkpt lat="44.669284" lon="34.394612"></trkpt>
      <trkpt lat="44.668334" lon="34.39411"></trkpt>
      <trkpt lat="44.667974" lon="34.393648"></trkpt>
      <trkpt lat="44.667713" lon="34.392932"></trkpt>
      <trkpt lat="44.667264" lon="34.38956"></trkpt>
      <trkpt lat="44.666863" lon="34.388185"></trkpt>
      <trkpt lat="44.666438" lon="34.387574"></trkpt>
      <trkpt lat="44.665942" lon="34.387402"></trkpt>
      <trkpt lat="44.662444" lon="34.38723"></trkpt>
      <trkpt lat="44.658823" lon="34.385208"></trkpt>
      <trkpt lat="44.658259" lon="34.384399"></trkpt>
      <trkpt lat="44.657765" lon="34.382498"></trkpt>
      <trkpt lat="44.657521" lon="34.381969"></trkpt>
      <trkpt lat="44.655498" lon="34.3796"></trkpt>
      <trkpt lat="44.654816" lon="34.379081"></trkpt>
      <trkpt lat="44.654127" lon="34.378927"></trkpt>
      <trkpt lat="44.65232" lon="34.379882"></trkpt>
      <trkpt lat="44.651752" lon="34.38004"></trkpt>
      <trkpt lat="44.651052" lon="34.379972"></trkpt>
      <trkpt lat="44.650434" lon="34.379708"></trkpt>
      <trkpt lat="44.64274" lon="34.374857"></trkpt>
      <trkpt lat="44.642054" lon="34.374078"></trkpt>
      <trkpt lat="44.63756" lon="34.367764"></trkpt>
      <trkpt lat="44.632599" lon="34.361984"></trkpt>
      <trkpt lat="44.632024" lon="34.360698"></trkpt>
      <trkpt lat="44.630906" lon="34.35677"></trkpt>
      <trkpt lat="44.630469" lon="34.355922"></trkpt>
      <trkpt lat="44.630006" lon="34.355449"></trkpt>
      <trkpt lat="44.628638" lon="34.354676"></trkpt>
      <trkpt lat="44.627683" lon="34.354529"></trkpt>
      <trkpt lat="44.617537" lon="34.355306"></trkpt>
      <trkpt lat="44.615028" lon="34.355884"></trkpt>
      <trkpt lat="44.611117" lon="34.358569"></trkpt>
      <trkpt lat="44.610665" lon="34.35867"></trkpt>
      <trkpt lat="44.610069" lon="34.358638"></trkpt>
      <trkpt lat="44.608996" lon="34.358375"></trkpt>
      <trkpt lat="44.607782" lon="34.357851"></trkpt>
      <trkpt lat="44.60724" lon="34.357379"></trkpt>
      <trkpt lat="44.606122" lon="34.355881"></trkpt>
      <trkpt lat="44.603781" lon="34.353958"></trkpt>
      <trkpt lat="44.602534" lon="34.352546"></trkpt>
      <trkpt lat="44.602115" lon="34.352226"></trkpt>
      <trkpt lat="44.60073" lon="34.351597"></trkpt>
      <trkpt lat="44.599752" lon="34.35094"></trkpt>
      <trkpt lat="44.597757" lon="34.348312"></trkpt>
      <trkpt lat="44.5958" lon="34.342848"></trkpt>
      <trkpt lat="44.595613" lon="34.341912"></trkpt>
      <trkpt lat="44.595766" lon="34.339028"></trkpt>
      <trkpt lat="44.595724" lon="34.338583"></trkpt>
      <trkpt lat="44.595367" lon="34.337496"></trkpt>
      <trkpt lat="44.592006" lon="34.331746"></trkpt>
      <trkpt lat="44.589487" lon="34.326902"></trkpt>
      <trkpt lat="44.588782" lon="34.326282"></trkpt>
      <trkpt lat="44.587111" lon="34.325862"></trkpt>
      <trkpt lat="44.586478" lon="34.325543"></trkpt>
      <trkpt lat="44.585637" lon="34.324761"></trkpt>
      <trkpt lat="44.584668" lon="34.323358"></trkpt>
      <trkpt lat="44.584243" lon="34.322912"></trkpt>
      <trkpt lat="44.580926" lon="34.320903"></trkpt>
      <trkpt lat="44.568489" lon="34.303021"></trkpt>
      <trkpt lat="44.567688" lon="34.301495"></trkpt>
      <trkpt lat="44.566778" lon="34.300555"></trkpt>
      <trkpt lat="44.560108" lon="34.291061"></trkpt>
      <trkpt lat="44.559577" lon="34.290992"></trkpt>
      <trkpt lat="44.55817" lon="34.291108"></trkpt>
      <trkpt lat="44.555598" lon="34.289548"></trkpt>
      <trkpt lat="44.55533" lon="34.289659"></trkpt>
      <trkpt lat="44.554747" lon="34.290399"></trkpt>
      <trkpt lat="44.553704" lon="34.290795"></trkpt>
      <trkpt lat="44.55347" lon="34.29111"></trkpt>
      <trkpt lat="44.553251" lon="34.292185"></trkpt>
      <trkpt lat="44.552757" lon="34.293188"></trkpt>
      <trkpt lat="44.552724" lon="34.293466"></trkpt>
      <trkpt lat="44.553546" lon="34.295447"></trkpt>
      <trkpt lat="44.553232" lon="34.296645"></trkpt>
      <trkpt lat="44.552772" lon="34.297465"></trkpt>
      <trkpt lat="44.553548" lon="34.298285"></trkpt>
      <trkpt lat="44.55377" lon="34.298986"></trkpt>
      <trkpt lat="44.553442" lon="34.299113"></trkpt>
      <trkpt lat="44.55265" lon="34.298882"></trkpt>
      <trkpt lat="44.55235" lon="34.298977"></trkpt>
  </trkseg></trk>
</gpx>
