<?xml version="1.0" encoding="UTF-8"?>
<gpx version="1.1" creator="yatutbuv" xmlns="http://www.topografix.com/GPX/1/1">
  <trk><name>2000 Smiferopol (226km)</name><trkseg>
      <trkpt lat="46.427662" lon="33.150996"></trkpt>
      <trkpt lat="46.425992" lon="33.153463"></trkpt>
      <trkpt lat="46.425318" lon="33.155043"></trkpt>
      <trkpt lat="46.426346" lon="33.153699"></trkpt>
      <trkpt lat="46.428072" lon="33.151012"></trkpt>
      <trkpt lat="46.418376" lon="33.168924"></trkpt>
      <trkpt lat="46.382645" lon="33.234189"></trkpt>
      <trkpt lat="46.317574" lon="33.352435"></trkpt>
      <trkpt lat="46.298939" lon="33.38652"></trkpt>
      <trkpt lat="46.202292" lon="33.561705"></trkpt>
      <trkpt lat="46.133289" lon="33.686007"></trkpt>
      <trkpt lat="46.127698" lon="33.696052"></trkpt>
      <trkpt lat="46.126988" lon="33.697159"></trkpt>
      <trkpt lat="46.126194" lon="33.698146"></trkpt>
      <trkpt lat="46.125303" lon="33.699006"></trkpt>
      <trkpt lat="46.124531" lon="33.699592"></trkpt>
      <trkpt lat="46.123266" lon="33.700283"></trkpt>
      <trkpt lat="46.112531" lon="33.703885"></trkpt>
      <trkpt lat="46.108391" lon="33.705393"></trkpt>
      <trkpt lat="46.09157" lon="33.709279"></trkpt>
      <trkpt lat="46.087098" lon="33.710203"></trkpt>
      <trkpt lat="46.050711" lon="33.718691"></trkpt>
      <trkpt lat="46.048499" lon="33.719381"></trkpt>
      <trkpt lat="46.046767" lon="33.720191"></trkpt>
      <trkpt lat="45.977621" lon="33.757139"></trkpt>
      <trkpt lat="45.976832" lon="33.757736"></trkpt>
      <trkpt lat="45.975904" lon="33.758781"></trkpt>
      <trkpt lat="45.965034" lon="33.774568"></trkpt>
      <trkpt lat="45.955323" lon="33.788403"></trkpt>
      <trkpt lat="45.953504" lon="33.790722"></trkpt>
      <trkpt lat="45.934193" lon="33.813803"></trkpt>
      <trkpt lat="45.933176" lon="33.815266"></trkpt>
      <trkpt lat="45.93247" lon="33.816955"></trkpt>
      <trkpt lat="45.931286" lon="33.821364"></trkpt>
      <trkpt lat="45.912677" lon="33.894097"></trkpt>
      <trkpt lat="45.911767" lon="33.897308"></trkpt>
      <trkpt lat="45.910806" lon="33.900254"></trkpt>
      <trkpt lat="45.876226" lon="33.996653"></trkpt>
      <trkpt lat="45.87522" lon="33.998786"></trkpt>
      <trkpt lat="45.874006" lon="34.00053"></trkpt>
      <trkpt lat="45.847694" lon="34.032697"></trkpt>
      <trkpt lat="45.84678" lon="34.034121"></trkpt>
      <trkpt lat="45.846133" lon="34.035788"></trkpt>
      <trkpt lat="45.845749" lon="34.037592"></trkpt>
      <trkpt lat="45.844292" lon="34.047576"></trkpt>
      <trkpt lat="45.84418" lon="34.051443"></trkpt>
      <trkpt lat="45.844496" lon="34.054725"></trkpt>
      <trkpt lat="45.845803" lon="34.061678"></trkpt>
      <trkpt lat="45.849683" lon="34.080514"></trkpt>
      <trkpt lat="45.850618" lon="34.082817"></trkpt>
      <trkpt lat="45.855829" lon="34.0925"></trkpt>
      <trkpt lat="45.856422" lon="34.09422"></trkpt>
      <trkpt lat="45.85674" lon="34.096094"></trkpt>
      <trkpt lat="45.856723" lon="34.09802"></trkpt>
      <trkpt lat="45.855758" lon="34.106296"></trkpt>
      <trkpt lat="45.855286" lon="34.108151"></trkpt>
      <trkpt lat="45.853278" lon="34.114682"></trkpt>
      <trkpt lat="45.839526" lon="34.149466"></trkpt>
      <trkpt lat="45.838533" lon="34.151005"></trkpt>
      <trkpt lat="45.832465" lon="34.158165"></trkpt>
      <trkpt lat="45.806974" lon="34.197407"></trkpt>
      <trkpt lat="45.780778" lon="34.254269"></trkpt>
      <trkpt lat="45.772102" lon="34.277728"></trkpt>
      <trkpt lat="45.751544" lon="34.33402"></trkpt>
      <trkpt lat="45.750999" lon="34.336476"></trkpt>
      <trkpt lat="45.743234" lon="34.395884"></trkpt>
      <trkpt lat="45.742993" lon="34.397113"></trkpt>
      <trkpt lat="45.742561" lon="34.398233"></trkpt>
      <trkpt lat="45.741956" lon="34.399181"></trkpt>
      <trkpt lat="45.741213" lon="34.399906"></trkpt>
      <trkpt lat="45.740369" lon="34.400354"></trkpt>
      <trkpt lat="45.739853" lon="34.400473"></trkpt>
      <trkpt lat="45.738885" lon="34.400401"></trkpt>
      <trkpt lat="45.738168" lon="34.400148"></trkpt>
      <trkpt lat="45.724121" lon="34.393831"></trkpt>
      <trkpt lat="45.719527" lon="34.391281"></trkpt>
      <trkpt lat="45.713113" lon="34.388367"></trkpt>
      <trkpt lat="45.70811" lon="34.386163"></trkpt>
      <trkpt lat="45.705624" lon="34.385377"></trkpt>
      <trkpt lat="45.70357" lon="34.384213"></trkpt>
      <trkpt lat="45.702113" lon="34.38317"></trkpt>
      <trkpt lat="45.70139" lon="34.382787"></trkpt>
      <trkpt lat="45.696947" lon="34.381691"></trkpt>
      <trkpt lat="45.695665" lon="34.381187"></trkpt>
      <trkpt lat="45.605417" lon="34.340769"></trkpt>
      <trkpt lat="45.603039" lon="34.339848"></trkpt>
      <trkpt lat="45.566248" lon="34.323466"></trkpt>
      <trkpt lat="45.517203" lon="34.301844"></trkpt>
      <trkpt lat="45.509398" lon="34.298373"></trkpt>
      <trkpt lat="45.506381" lon="34.296894"></trkpt>
      <trkpt lat="45.496708" lon="34.289639"></trkpt>
      <trkpt lat="45.40454" lon="34.21896"></trkpt>
      <trkpt lat="45.396544" lon="34.21271"></trkpt>
      <trkpt lat="45.298095" lon="34.137015"></trkpt>
      <trkpt lat="45.296787" lon="34.135867"></trkpt>
      <trkpt lat="45.258822" lon="34.106689"></trkpt>
      <trkpt lat="45.257114" lon="34.105531"></trkpt>
      <trkpt lat="45.208526" lon="34.075662"></trkpt>
      <trkpt lat="45.140182" lon="34.033754"></trkpt>
      <trkpt lat="45.138877" lon="34.033084"></trkpt>
      <trkpt lat="45.137459" lon="34.032666"></trkpt>
      <trkpt lat="45.110574" lon="34.026703"></trkpt>
      <trkpt lat="45.102182" lon="34.025114"></trkpt>
      <trkpt lat="45.060166" lon="34.022133"></trkpt>
      <trkpt lat="45.057878" lon="34.022161"></trkpt>
      <trkpt lat="45.055588" lon="34.022577"></trkpt>
      <trkpt lat="45.054763" lon="34.022832"></trkpt>
      <trkpt lat="45.044971" lon="34.027204"></trkpt>
      <trkpt lat="45.022076" lon="34.037812"></trkpt>
      <trkpt lat="45.017608" lon="34.039707"></trkpt>
      <trkpt lat="45.012017" lon="34.042288"></trkpt>
      <trkpt lat="45.010736" lon="34.043151"></trkpt>
      <trkpt lat="45.0093" lon="34.04445"></trkpt>
      <trkpt lat="44.998402" lon="34.056115"></trkpt>
      <trkpt lat="44.996216" lon="34.059165"></trkpt>
      <trkpt lat="44.98522" lon="34.076991"></trkpt>
      <trkpt lat="44.976627" lon="34.086462"></trkpt>
      <trkpt lat="44.974925" lon="34.087852"></trkpt>
      <trkpt lat="44.973122" lon="34.088732"></trkpt>
      <trkpt lat="44.972198" lon="34.088982"></trkpt>
      <trkpt lat="44.971023" lon="34.089129"></trkpt>
      <trkpt lat="44.969308" lon="34.088963"></trkpt>
      <trkpt lat="44.967845" lon="34.08835"></trkpt>
      <trkpt lat="44.967061" lon="34.087771"></trkpt>
      <trkpt lat="44.966193" lon="34.086875"></trkpt>
      <trkpt lat="44.96421" lon="34.084419"></trkpt>
      <trkpt lat="44.96277" lon="34.082271"></trkpt>
      <trkpt lat="44.96108" lon="34.080137"></trkpt>
  </trkseg></trk>
</gpx>
