<?xml version="1.0" encoding="UTF-8"?>
<gpx version="1.1" creator="yatutbuv" xmlns="http://www.topografix.com/GPX/1/1">
  <trk><name>GraphHopper Track</name><trkseg>
      <trkpt lat="46.427262" lon="30.670789"></trkpt>
      <trkpt lat="46.434503" lon="30.667726"></trkpt>
      <trkpt lat="46.434361" lon="30.666822"></trkpt>
      <trkpt lat="46.434889" lon="30.66598"></trkpt>
      <trkpt lat="46.435312" lon="30.665626"></trkpt>
      <trkpt lat="46.435118" lon="30.66427"></trkpt>
      <trkpt lat="46.435539" lon="30.664216"></trkpt>
      <trkpt lat="46.435604" lon="30.663884"></trkpt>
      <trkpt lat="46.437881" lon="30.663839"></trkpt>
      <trkpt lat="46.44464" lon="30.664215"></trkpt>
      <trkpt lat="46.450741" lon="30.664354"></trkpt>
      <trkpt lat="46.45106" lon="30.668909"></trkpt>
      <trkpt lat="46.452294" lon="30.673648"></trkpt>
      <trkpt lat="46.457272" lon="30.682406"></trkpt>
      <trkpt lat="46.457782" lon="30.68348"></trkpt>
      <trkpt lat="46.458977" lon="30.687012"></trkpt>
      <trkpt lat="46.460277" lon="30.689601"></trkpt>
      <trkpt lat="46.460599" lon="30.691773"></trkpt>
      <trkpt lat="46.460713" lon="30.694872"></trkpt>
      <trkpt lat="46.460787" lon="30.713529"></trkpt>
      <trkpt lat="46.464445" lon="30.713536"></trkpt>
      <trkpt lat="46.468736" lon="30.719037"></trkpt>
      <trkpt lat="46.472761" lon="30.725491"></trkpt>
      <trkpt lat="46.471429" lon="30.726979"></trkpt>
      <trkpt lat="46.471539" lon="30.727528"></trkpt>
      <trkpt lat="46.471927" lon="30.727683"></trkpt>
      <trkpt lat="46.472057" lon="30.728033"></trkpt>
      <trkpt lat="46.471076" lon="30.741119"></trkpt>
      <trkpt lat="46.481213" lon="30.742673"></trkpt>
  </trkseg></trk>
</gpx>
