<?xml version="1.0" encoding="UTF-8"?>
<gpx version="1.1" creator="yatutbuv" xmlns="http://www.topografix.com/GPX/1/1">
  <trk><name>GraphHopper Track</name><trkseg>
      <trkpt lat="47.025359" lon="28.861984"></trkpt>
      <trkpt lat="47.025024" lon="28.86112"></trkpt>
      <trkpt lat="47.027207" lon="28.858784"></trkpt>
      <trkpt lat="47.030806" lon="28.855332"></trkpt>
      <trkpt lat="47.031857" lon="28.853939"></trkpt>
      <trkpt lat="47.032533" lon="28.852786"></trkpt>
      <trkpt lat="47.034193" lon="28.849174"></trkpt>
      <trkpt lat="47.035812" lon="28.846599"></trkpt>
      <trkpt lat="47.036524" lon="28.845864"></trkpt>
      <trkpt lat="47.037554" lon="28.845197"></trkpt>
      <trkpt lat="47.03991" lon="28.844182"></trkpt>
      <trkpt lat="47.040733" lon="28.84409"></trkpt>
      <trkpt lat="47.042114" lon="28.844782"></trkpt>
      <trkpt lat="47.044058" lon="28.847277"></trkpt>
      <trkpt lat="47.045337" lon="28.848723"></trkpt>
      <trkpt lat="47.046073" lon="28.848695"></trkpt>
      <trkpt lat="47.054351" lon="28.851623"></trkpt>
      <trkpt lat="47.060149" lon="28.854027"></trkpt>
      <trkpt lat="47.07042" lon="28.859339"></trkpt>
      <trkpt lat="47.076014" lon="28.861017"></trkpt>
      <trkpt lat="47.077431" lon="28.86126"></trkpt>
      <trkpt lat="47.089418" lon="28.862609"></trkpt>
      <trkpt lat="47.093592" lon="28.863228"></trkpt>
      <trkpt lat="47.102204" lon="28.863717"></trkpt>
      <trkpt lat="47.103441" lon="28.863687"></trkpt>
      <trkpt lat="47.105058" lon="28.863446"></trkpt>
      <trkpt lat="47.111214" lon="28.86197"></trkpt>
      <trkpt lat="47.112137" lon="28.861859"></trkpt>
      <trkpt lat="47.11247" lon="28.862119"></trkpt>
      <trkpt lat="47.112916" lon="28.863101"></trkpt>
      <trkpt lat="47.114378" lon="28.864445"></trkpt>
      <trkpt lat="47.114659" lon="28.86491"></trkpt>
      <trkpt lat="47.125985" lon="28.898669"></trkpt>
      <trkpt lat="47.126602" lon="28.900802"></trkpt>
      <trkpt lat="47.127176" lon="28.903999"></trkpt>
      <trkpt lat="47.128563" lon="28.916869"></trkpt>
      <trkpt lat="47.129157" lon="28.919778"></trkpt>
      <trkpt lat="47.130048" lon="28.922522"></trkpt>
      <trkpt lat="47.130757" lon="28.924148"></trkpt>
      <trkpt lat="47.132915" lon="28.928265"></trkpt>
      <trkpt lat="47.139938" lon="28.93926"></trkpt>
      <trkpt lat="47.141621" lon="28.942236"></trkpt>
      <trkpt lat="47.14266" lon="28.944641"></trkpt>
      <trkpt lat="47.153505" lon="28.974355"></trkpt>
      <trkpt lat="47.155598" lon="28.97947"></trkpt>
      <trkpt lat="47.186588" lon="29.044631"></trkpt>
      <trkpt lat="47.188916" lon="29.04975"></trkpt>
      <trkpt lat="47.209074" lon="29.092097"></trkpt>
      <trkpt lat="47.227155" lon="29.130423"></trkpt>
      <trkpt lat="47.228157" lon="29.132959"></trkpt>
      <trkpt lat="47.229178" lon="29.136072"></trkpt>
      <trkpt lat="47.239024" lon="29.168686"></trkpt>
      <trkpt lat="47.239139" lon="29.169377"></trkpt>
      <trkpt lat="47.239567" lon="29.170595"></trkpt>
      <trkpt lat="47.239569" lon="29.171223"></trkpt>
      <trkpt lat="47.239909" lon="29.171677"></trkpt>
      <trkpt lat="47.242734" lon="29.181096"></trkpt>
      <trkpt lat="47.244435" lon="29.185548"></trkpt>
      <trkpt lat="47.245947" lon="29.188265"></trkpt>
      <trkpt lat="47.247263" lon="29.190137"></trkpt>
      <trkpt lat="47.248615" lon="29.191702"></trkpt>
      <trkpt lat="47.252688" lon="29.195564"></trkpt>
      <trkpt lat="47.254365" lon="29.196947"></trkpt>
      <trkpt lat="47.256903" lon="29.198702"></trkpt>
      <trkpt lat="47.258961" lon="29.199841"></trkpt>
      <trkpt lat="47.262319" lon="29.201103"></trkpt>
      <trkpt lat="47.264739" lon="29.201735"></trkpt>
      <trkpt lat="47.272477" lon="29.202385"></trkpt>
      <trkpt lat="47.301505" lon="29.204096"></trkpt>
      <trkpt lat="47.303745" lon="29.204621"></trkpt>
      <trkpt lat="47.305423" lon="29.205307"></trkpt>
      <trkpt lat="47.307181" lon="29.206323"></trkpt>
      <trkpt lat="47.309317" lon="29.208014"></trkpt>
      <trkpt lat="47.311238" lon="29.210039"></trkpt>
      <trkpt lat="47.383909" lon="29.300788"></trkpt>
      <trkpt lat="47.386015" lon="29.303636"></trkpt>
      <trkpt lat="47.40177" lon="29.327316"></trkpt>
  </trkseg></trk>
</gpx>
