<?xml version="1.0" encoding="UTF-8"?>
<gpx version="1.1" creator="yatutbuv" xmlns="http://www.topografix.com/GPX/1/1">
  <trk><name>GraphHopper Track</name><trkseg>
      <trkpt lat="47.450905" lon="8.564511"></trkpt>
      <trkpt lat="47.450621" lon="8.564356"></trkpt>
      <trkpt lat="47.45012" lon="8.564292"></trkpt>
      <trkpt lat="47.449442" lon="8.564671"></trkpt>
      <trkpt lat="47.449166" lon="8.565214"></trkpt>
      <trkpt lat="47.448444" lon="8.567849"></trkpt>
      <trkpt lat="47.448337" lon="8.567929"></trkpt>
      <trkpt lat="47.44804" lon="8.567797"></trkpt>
      <trkpt lat="47.44721" lon="8.56914"></trkpt>
      <trkpt lat="47.446062" lon="8.570177"></trkpt>
      <trkpt lat="47.445401" lon="8.570391"></trkpt>
      <trkpt lat="47.445002" lon="8.570314"></trkpt>
      <trkpt lat="47.44428" lon="8.570421"></trkpt>
      <trkpt lat="47.443802" lon="8.570287"></trkpt>
      <trkpt lat="47.442428" lon="8.569558"></trkpt>
      <trkpt lat="47.44213" lon="8.569273"></trkpt>
      <trkpt lat="47.440985" lon="8.566869"></trkpt>
      <trkpt lat="47.440718" lon="8.565419"></trkpt>
      <trkpt lat="47.440484" lon="8.564743"></trkpt>
      <trkpt lat="47.43899" lon="8.562304"></trkpt>
      <trkpt lat="47.438762" lon="8.561403"></trkpt>
      <trkpt lat="47.438847" lon="8.560146"></trkpt>
      <trkpt lat="47.438768" lon="8.559479"></trkpt>
      <trkpt lat="47.437772" lon="8.55759"></trkpt>
      <trkpt lat="47.437067" lon="8.555594"></trkpt>
      <trkpt lat="47.43215" lon="8.551237"></trkpt>
      <trkpt lat="47.431046" lon="8.550133"></trkpt>
      <trkpt lat="47.431041" lon="8.549665"></trkpt>
      <trkpt lat="47.432943" lon="8.541693"></trkpt>
      <trkpt lat="47.433603" lon="8.53748"></trkpt>
      <trkpt lat="47.433849" lon="8.534614"></trkpt>
      <trkpt lat="47.433938" lon="8.531727"></trkpt>
      <trkpt lat="47.433869" lon="8.52884"></trkpt>
      <trkpt lat="47.433594" lon="8.525531"></trkpt>
      <trkpt lat="47.433016" lon="8.521764"></trkpt>
      <trkpt lat="47.43229" lon="8.518567"></trkpt>
      <trkpt lat="47.431517" lon="8.515879"></trkpt>
      <trkpt lat="47.428724" lon="8.507303"></trkpt>
      <trkpt lat="47.427888" lon="8.504002"></trkpt>
      <trkpt lat="47.42691" lon="8.498367"></trkpt>
      <trkpt lat="47.426276" lon="8.491503"></trkpt>
      <trkpt lat="47.42588" lon="8.488894"></trkpt>
      <trkpt lat="47.423452" lon="8.479558"></trkpt>
      <trkpt lat="47.421845" lon="8.462511"></trkpt>
      <trkpt lat="47.420346" lon="8.450457"></trkpt>
      <trkpt lat="47.419869" lon="8.448316"></trkpt>
      <trkpt lat="47.419312" lon="8.446914"></trkpt>
      <trkpt lat="47.418379" lon="8.445298"></trkpt>
      <trkpt lat="47.416144" lon="8.442237"></trkpt>
      <trkpt lat="47.414916" lon="8.439574"></trkpt>
      <trkpt lat="47.414366" lon="8.437789"></trkpt>
      <trkpt lat="47.412927" lon="8.43185"></trkpt>
      <trkpt lat="47.41169" lon="8.428304"></trkpt>
      <trkpt lat="47.411313" lon="8.427654"></trkpt>
      <trkpt lat="47.409993" lon="8.42615"></trkpt>
      <trkpt lat="47.408205" lon="8.424292"></trkpt>
      <trkpt lat="47.406497" lon="8.422814"></trkpt>
      <trkpt lat="47.404999" lon="8.421929"></trkpt>
      <trkpt lat="47.403627" lon="8.421446"></trkpt>
      <trkpt lat="47.399107" lon="8.420688"></trkpt>
      <trkpt lat="47.397519" lon="8.420175"></trkpt>
      <trkpt lat="47.396044" lon="8.419188"></trkpt>
      <trkpt lat="47.393264" lon="8.416463"></trkpt>
      <trkpt lat="47.391445" lon="8.41494"></trkpt>
      <trkpt lat="47.389698" lon="8.414104"></trkpt>
      <trkpt lat="47.387997" lon="8.413873"></trkpt>
      <trkpt lat="47.386825" lon="8.414017"></trkpt>
      <trkpt lat="47.385971" lon="8.414289"></trkpt>
      <trkpt lat="47.383091" lon="8.415753"></trkpt>
      <trkpt lat="47.379569" lon="8.416953"></trkpt>
      <trkpt lat="47.376097" lon="8.418773"></trkpt>
      <trkpt lat="47.371614" lon="8.420354"></trkpt>
      <trkpt lat="47.369644" lon="8.42146"></trkpt>
      <trkpt lat="47.36708" lon="8.423512"></trkpt>
      <trkpt lat="47.365778" lon="8.424032"></trkpt>
      <trkpt lat="47.364857" lon="8.424154"></trkpt>
      <trkpt lat="47.363824" lon="8.424053"></trkpt>
      <trkpt lat="47.35777" lon="8.421854"></trkpt>
      <trkpt lat="47.356674" lon="8.421605"></trkpt>
      <trkpt lat="47.355469" lon="8.42157"></trkpt>
      <trkpt lat="47.354562" lon="8.421674"></trkpt>
      <trkpt lat="47.352577" lon="8.422419"></trkpt>
      <trkpt lat="47.351343" lon="8.423261"></trkpt>
      <trkpt lat="47.350554" lon="8.423975"></trkpt>
      <trkpt lat="47.348086" lon="8.426879"></trkpt>
      <trkpt lat="47.343945" lon="8.430778"></trkpt>
      <trkpt lat="47.342852" lon="8.432283"></trkpt>
      <trkpt lat="47.341743" lon="8.434416"></trkpt>
      <trkpt lat="47.341115" lon="8.436171"></trkpt>
      <trkpt lat="47.340598" lon="8.43831"></trkpt>
      <trkpt lat="47.340355" lon="8.440128"></trkpt>
      <trkpt lat="47.34027" lon="8.442143"></trkpt>
      <trkpt lat="47.340542" lon="8.445313"></trkpt>
      <trkpt lat="47.341465" lon="8.449336"></trkpt>
      <trkpt lat="47.341682" lon="8.450964"></trkpt>
      <trkpt lat="47.341843" lon="8.454816"></trkpt>
      <trkpt lat="47.341742" lon="8.455944"></trkpt>
      <trkpt lat="47.341498" lon="8.45675"></trkpt>
      <trkpt lat="47.341105" lon="8.457455"></trkpt>
      <trkpt lat="47.340616" lon="8.457995"></trkpt>
      <trkpt lat="47.33936" lon="8.459001"></trkpt>
      <trkpt lat="47.338065" lon="8.45965"></trkpt>
      <trkpt lat="47.336809" lon="8.459822"></trkpt>
      <trkpt lat="47.336" lon="8.459761"></trkpt>
      <trkpt lat="47.334928" lon="8.459436"></trkpt>
      <trkpt lat="47.333492" lon="8.458595"></trkpt>
      <trkpt lat="47.332233" lon="8.457526"></trkpt>
      <trkpt lat="47.303169" lon="8.430635"></trkpt>
      <trkpt lat="47.301921" lon="8.429856"></trkpt>
      <trkpt lat="47.301031" lon="8.429495"></trkpt>
      <trkpt lat="47.299858" lon="8.429235"></trkpt>
      <trkpt lat="47.297864" lon="8.428999"></trkpt>
      <trkpt lat="47.296224" lon="8.428427"></trkpt>
      <trkpt lat="47.290931" lon="8.425069"></trkpt>
      <trkpt lat="47.288857" lon="8.424002"></trkpt>
      <trkpt lat="47.287609" lon="8.423724"></trkpt>
      <trkpt lat="47.285945" lon="8.423822"></trkpt>
      <trkpt lat="47.284902" lon="8.424164"></trkpt>
      <trkpt lat="47.283916" lon="8.424701"></trkpt>
      <trkpt lat="47.280019" lon="8.427449"></trkpt>
      <trkpt lat="47.278853" lon="8.428442"></trkpt>
      <trkpt lat="47.277728" lon="8.429733"></trkpt>
      <trkpt lat="47.276982" lon="8.430881"></trkpt>
      <trkpt lat="47.275176" lon="8.434528"></trkpt>
      <trkpt lat="47.274404" lon="8.435757"></trkpt>
      <trkpt lat="47.273211" lon="8.437092"></trkpt>
      <trkpt lat="47.272024" lon="8.437964"></trkpt>
      <trkpt lat="47.270625" lon="8.438577"></trkpt>
      <trkpt lat="47.261108" lon="8.441518"></trkpt>
      <trkpt lat="47.259305" lon="8.442311"></trkpt>
      <trkpt lat="47.257106" lon="8.443821"></trkpt>
      <trkpt lat="47.249389" lon="8.450463"></trkpt>
      <trkpt lat="47.246432" lon="8.45255"></trkpt>
      <trkpt lat="47.244751" lon="8.453498"></trkpt>
      <trkpt lat="47.243025" lon="8.454294"></trkpt>
      <trkpt lat="47.233035" lon="8.458077"></trkpt>
      <trkpt lat="47.231779" lon="8.458655"></trkpt>
      <trkpt lat="47.23017" lon="8.459811"></trkpt>
      <trkpt lat="47.227422" lon="8.462804"></trkpt>
      <trkpt lat="47.226105" lon="8.463876"></trkpt>
      <trkpt lat="47.21529" lon="8.469889"></trkpt>
      <trkpt lat="47.213299" lon="8.470701"></trkpt>
      <trkpt lat="47.211933" lon="8.470977"></trkpt>
      <trkpt lat="47.210739" lon="8.470972"></trkpt>
      <trkpt lat="47.209067" lon="8.47056"></trkpt>
      <trkpt lat="47.207816" lon="8.469914"></trkpt>
      <trkpt lat="47.206812" lon="8.469165"></trkpt>
      <trkpt lat="47.20588" lon="8.46826"></trkpt>
      <trkpt lat="47.204784" lon="8.466971"></trkpt>
      <trkpt lat="47.185053" lon="8.439682"></trkpt>
      <trkpt lat="47.183455" lon="8.437672"></trkpt>
      <trkpt lat="47.182383" lon="8.436516"></trkpt>
      <trkpt lat="47.180008" lon="8.434514"></trkpt>
      <trkpt lat="47.178057" lon="8.433348"></trkpt>
      <trkpt lat="47.176413" lon="8.432649"></trkpt>
      <trkpt lat="47.174985" lon="8.432238"></trkpt>
      <trkpt lat="47.173285" lon="8.431973"></trkpt>
      <trkpt lat="47.17199" lon="8.431924"></trkpt>
      <trkpt lat="47.169727" lon="8.432052"></trkpt>
      <trkpt lat="47.159817" lon="8.433002"></trkpt>
      <trkpt lat="47.158137" lon="8.432973"></trkpt>
      <trkpt lat="47.156692" lon="8.432766"></trkpt>
      <trkpt lat="47.154793" lon="8.432149"></trkpt>
      <trkpt lat="47.152965" lon="8.431132"></trkpt>
      <trkpt lat="47.151069" lon="8.429554"></trkpt>
      <trkpt lat="47.149765" lon="8.428073"></trkpt>
      <trkpt lat="47.148482" lon="8.426165"></trkpt>
      <trkpt lat="47.14722" lon="8.423652"></trkpt>
      <trkpt lat="47.146215" lon="8.420865"></trkpt>
      <trkpt lat="47.144451" lon="8.415031"></trkpt>
      <trkpt lat="47.14335" lon="8.412378"></trkpt>
      <trkpt lat="47.142163" lon="8.410386"></trkpt>
      <trkpt lat="47.139147" lon="8.406466"></trkpt>
      <trkpt lat="47.13695" lon="8.402401"></trkpt>
      <trkpt lat="47.136134" lon="8.401146"></trkpt>
      <trkpt lat="47.134716" lon="8.399531"></trkpt>
      <trkpt lat="47.133195" lon="8.398356"></trkpt>
      <trkpt lat="47.125477" lon="8.394278"></trkpt>
      <trkpt lat="47.123768" lon="8.393214"></trkpt>
      <trkpt lat="47.12208" lon="8.391492"></trkpt>
      <trkpt lat="47.120818" lon="8.389482"></trkpt>
      <trkpt lat="47.11981" lon="8.386981"></trkpt>
      <trkpt lat="47.119406" lon="8.385296"></trkpt>
      <trkpt lat="47.119146" lon="8.383561"></trkpt>
      <trkpt lat="47.119047" lon="8.381335"></trkpt>
      <trkpt lat="47.119103" lon="8.368957"></trkpt>
      <trkpt lat="47.118915" lon="8.365742"></trkpt>
      <trkpt lat="47.118604" lon="8.363911"></trkpt>
      <trkpt lat="47.118157" lon="8.362225"></trkpt>
      <trkpt lat="47.117444" lon="8.360362"></trkpt>
      <trkpt lat="47.116612" lon="8.358757"></trkpt>
      <trkpt lat="47.115116" lon="8.356679"></trkpt>
      <trkpt lat="47.112844" lon="8.354067"></trkpt>
      <trkpt lat="47.111188" lon="8.352493"></trkpt>
      <trkpt lat="47.1056" lon="8.34792"></trkpt>
      <trkpt lat="47.104164" lon="8.346343"></trkpt>
      <trkpt lat="47.101992" lon="8.343335"></trkpt>
      <trkpt lat="47.100982" lon="8.342188"></trkpt>
      <trkpt lat="47.095871" lon="8.33805"></trkpt>
      <trkpt lat="47.094448" lon="8.336481"></trkpt>
      <trkpt lat="47.093435" lon="8.334861"></trkpt>
      <trkpt lat="47.090409" lon="8.328781"></trkpt>
      <trkpt lat="47.089099" lon="8.326659"></trkpt>
      <trkpt lat="47.087634" lon="8.324754"></trkpt>
      <trkpt lat="47.082882" lon="8.319523"></trkpt>
      <trkpt lat="47.080498" lon="8.316171"></trkpt>
      <trkpt lat="47.078267" lon="8.312099"></trkpt>
      <trkpt lat="47.074697" lon="8.303818"></trkpt>
      <trkpt lat="47.073811" lon="8.302242"></trkpt>
      <trkpt lat="47.071641" lon="8.298983"></trkpt>
      <trkpt lat="47.06953" lon="8.295187"></trkpt>
      <trkpt lat="47.066904" lon="8.28932"></trkpt>
      <trkpt lat="47.066088" lon="8.287844"></trkpt>
      <trkpt lat="47.065222" lon="8.286722"></trkpt>
      <trkpt lat="47.064481" lon="8.286315"></trkpt>
      <trkpt lat="47.063849" lon="8.28626"></trkpt>
      <trkpt lat="47.06263" lon="8.286644"></trkpt>
      <trkpt lat="47.060334" lon="8.287935"></trkpt>
      <trkpt lat="47.059328" lon="8.288814"></trkpt>
      <trkpt lat="47.058442" lon="8.289821"></trkpt>
      <trkpt lat="47.057899" lon="8.290644"></trkpt>
      <trkpt lat="47.055075" lon="8.29583"></trkpt>
      <trkpt lat="47.054382" lon="8.296493"></trkpt>
      <trkpt lat="47.053711" lon="8.296731"></trkpt>
      <trkpt lat="47.053332" lon="8.296741"></trkpt>
      <trkpt lat="47.052389" lon="8.296516"></trkpt>
      <trkpt lat="47.042606" lon="8.293131"></trkpt>
      <trkpt lat="47.041593" lon="8.292905"></trkpt>
      <trkpt lat="47.040835" lon="8.292963"></trkpt>
      <trkpt lat="47.040238" lon="8.293166"></trkpt>
      <trkpt lat="47.037591" lon="8.294961"></trkpt>
      <trkpt lat="47.03677" lon="8.295307"></trkpt>
      <trkpt lat="47.035963" lon="8.295454"></trkpt>
      <trkpt lat="47.035006" lon="8.295395"></trkpt>
      <trkpt lat="47.026239" lon="8.293817"></trkpt>
      <trkpt lat="47.023999" lon="8.293907"></trkpt>
      <trkpt lat="47.021784" lon="8.294546"></trkpt>
      <trkpt lat="47.020567" lon="8.295146"></trkpt>
      <trkpt lat="47.019145" lon="8.296103"></trkpt>
      <trkpt lat="47.017613" lon="8.29748"></trkpt>
      <trkpt lat="47.01684" lon="8.298505"></trkpt>
      <trkpt lat="47.015517" lon="8.301043"></trkpt>
      <trkpt lat="47.014361" lon="8.302129"></trkpt>
      <trkpt lat="47.012869" lon="8.302858"></trkpt>
      <trkpt lat="47.008687" lon="8.304605"></trkpt>
      <trkpt lat="47.007532" lon="8.304871"></trkpt>
      <trkpt lat="47.00626" lon="8.305006"></trkpt>
      <trkpt lat="47.005254" lon="8.305504"></trkpt>
      <trkpt lat="47.004576" lon="8.30626"></trkpt>
      <trkpt lat="47.003096" lon="8.308587"></trkpt>
      <trkpt lat="47.001931" lon="8.310077"></trkpt>
      <trkpt lat="47.00116" lon="8.310779"></trkpt>
      <trkpt lat="47.000304" lon="8.31121"></trkpt>
      <trkpt lat="46.999443" lon="8.311326"></trkpt>
      <trkpt lat="46.998742" lon="8.311221"></trkpt>
      <trkpt lat="46.996795" lon="8.310457"></trkpt>
      <trkpt lat="46.995717" lon="8.309788"></trkpt>
      <trkpt lat="46.993803" lon="8.308107"></trkpt>
      <trkpt lat="46.992923" lon="8.307723"></trkpt>
      <trkpt lat="46.991814" lon="8.307745"></trkpt>
      <trkpt lat="46.989992" lon="8.308458"></trkpt>
      <trkpt lat="46.989341" lon="8.308572"></trkpt>
      <trkpt lat="46.982846" lon="8.30759"></trkpt>
      <trkpt lat="46.981795" lon="8.307662"></trkpt>
      <trkpt lat="46.980911" lon="8.308175"></trkpt>
      <trkpt lat="46.978671" lon="8.311243"></trkpt>
      <trkpt lat="46.977985" lon="8.31241"></trkpt>
      <trkpt lat="46.97733" lon="8.314148"></trkpt>
      <trkpt lat="46.977035" lon="8.315768"></trkpt>
      <trkpt lat="46.976964" lon="8.317019"></trkpt>
      <trkpt lat="46.977184" lon="8.322491"></trkpt>
      <trkpt lat="46.977552" lon="8.324208"></trkpt>
      <trkpt lat="46.978568" lon="8.326832"></trkpt>
      <trkpt lat="46.978883" lon="8.328531"></trkpt>
      <trkpt lat="46.97883" lon="8.330586"></trkpt>
      <trkpt lat="46.978492" lon="8.332107"></trkpt>
      <trkpt lat="46.978096" lon="8.333194"></trkpt>
      <trkpt lat="46.977514" lon="8.334277"></trkpt>
      <trkpt lat="46.972028" lon="8.34133"></trkpt>
      <trkpt lat="46.970306" lon="8.343938"></trkpt>
      <trkpt lat="46.969356" lon="8.345762"></trkpt>
      <trkpt lat="46.968515" lon="8.347754"></trkpt>
      <trkpt lat="46.967893" lon="8.349589"></trkpt>
      <trkpt lat="46.967323" lon="8.351743"></trkpt>
      <trkpt lat="46.966796" lon="8.354678"></trkpt>
      <trkpt lat="46.966547" lon="8.357153"></trkpt>
      <trkpt lat="46.966111" lon="8.368885"></trkpt>
      <trkpt lat="46.965266" lon="8.378832"></trkpt>
      <trkpt lat="46.965109" lon="8.379462"></trkpt>
      <trkpt lat="46.964687" lon="8.380194"></trkpt>
      <trkpt lat="46.96454" lon="8.380729"></trkpt>
      <trkpt lat="46.964633" lon="8.383067"></trkpt>
      <trkpt lat="46.964894" lon="8.384599"></trkpt>
      <trkpt lat="46.964558" lon="8.384852"></trkpt>
      <trkpt lat="46.959773" lon="8.386346"></trkpt>
      <trkpt lat="46.95881" lon="8.386615"></trkpt>
      <trkpt lat="46.958526" lon="8.386526"></trkpt>
      <trkpt lat="46.958218" lon="8.386762"></trkpt>
      <trkpt lat="46.956075" lon="8.387273"></trkpt>
      <trkpt lat="46.954223" lon="8.387491"></trkpt>
      <trkpt lat="46.949158" lon="8.387781"></trkpt>
      <trkpt lat="46.947398" lon="8.388067"></trkpt>
      <trkpt lat="46.945707" lon="8.388671"></trkpt>
      <trkpt lat="46.942959" lon="8.390146"></trkpt>
      <trkpt lat="46.940045" lon="8.390593"></trkpt>
      <trkpt lat="46.939193" lon="8.391236"></trkpt>
      <trkpt lat="46.938969" lon="8.39127"></trkpt>
      <trkpt lat="46.938861" lon="8.391102"></trkpt>
      <trkpt lat="46.938717" lon="8.39123"></trkpt>
      <trkpt lat="46.937967" lon="8.391068"></trkpt>
      <trkpt lat="46.93562" lon="8.391956"></trkpt>
      <trkpt lat="46.932872" lon="8.392542"></trkpt>
      <trkpt lat="46.932579" lon="8.392558"></trkpt>
      <trkpt lat="46.93246" lon="8.392405"></trkpt>
      <trkpt lat="46.932385" lon="8.392511"></trkpt>
      <trkpt lat="46.931594" lon="8.392652"></trkpt>
      <trkpt lat="46.930477" lon="8.393398"></trkpt>
      <trkpt lat="46.927005" lon="8.397245"></trkpt>
      <trkpt lat="46.926077" lon="8.397793"></trkpt>
      <trkpt lat="46.925375" lon="8.397867"></trkpt>
      <trkpt lat="46.911826" lon="8.395761"></trkpt>
      <trkpt lat="46.909432" lon="8.395654"></trkpt>
      <trkpt lat="46.908102" lon="8.395868"></trkpt>
      <trkpt lat="46.90031" lon="8.392209"></trkpt>
      <trkpt lat="46.89731" lon="8.390937"></trkpt>
      <trkpt lat="46.887439" lon="8.382866"></trkpt>
      <trkpt lat="46.88239" lon="8.378493"></trkpt>
      <trkpt lat="46.879291" lon="8.376355"></trkpt>
      <trkpt lat="46.869085" lon="8.37188"></trkpt>
      <trkpt lat="46.867506" lon="8.371561"></trkpt>
      <trkpt lat="46.862994" lon="8.371651"></trkpt>
      <trkpt lat="46.859695" lon="8.371209"></trkpt>
      <trkpt lat="46.856739" lon="8.371947"></trkpt>
      <trkpt lat="46.855528" lon="8.371829"></trkpt>
      <trkpt lat="46.85428" lon="8.371995"></trkpt>
      <trkpt lat="46.852468" lon="8.372992"></trkpt>
      <trkpt lat="46.85145" lon="8.373176"></trkpt>
      <trkpt lat="46.850714" lon="8.373549"></trkpt>
      <trkpt lat="46.849485" lon="8.3737"></trkpt>
      <trkpt lat="46.849036" lon="8.37351"></trkpt>
      <trkpt lat="46.848451" lon="8.372925"></trkpt>
      <trkpt lat="46.847408" lon="8.372514"></trkpt>
      <trkpt lat="46.847372" lon="8.372797"></trkpt>
      <trkpt lat="46.848272" lon="8.373349"></trkpt>
      <trkpt lat="46.84835" lon="8.373599"></trkpt>
      <trkpt lat="46.848163" lon="8.373651"></trkpt>
      <trkpt lat="46.847413" lon="8.373368"></trkpt>
      <trkpt lat="46.847204" lon="8.373447"></trkpt>
      <trkpt lat="46.846956" lon="8.373898"></trkpt>
      <trkpt lat="46.846786" lon="8.375246"></trkpt>
      <trkpt lat="46.846113" lon="8.375845"></trkpt>
      <trkpt lat="46.845765" lon="8.375968"></trkpt>
      <trkpt lat="46.845077" lon="8.375896"></trkpt>
      <trkpt lat="46.844361" lon="8.376205"></trkpt>
      <trkpt lat="46.843513" lon="8.37621"></trkpt>
      <trkpt lat="46.842814" lon="8.37648"></trkpt>
      <trkpt lat="46.842563" lon="8.376419"></trkpt>
      <trkpt lat="46.842104" lon="8.376066"></trkpt>
      <trkpt lat="46.84132" lon="8.376073"></trkpt>
      <trkpt lat="46.8387" lon="8.377006"></trkpt>
      <trkpt lat="46.838553" lon="8.377201"></trkpt>
      <trkpt lat="46.838616" lon="8.377379"></trkpt>
      <trkpt lat="46.839243" lon="8.377099"></trkpt>
      <trkpt lat="46.840611" lon="8.377009"></trkpt>
      <trkpt lat="46.84106" lon="8.376822"></trkpt>
      <trkpt lat="46.841225" lon="8.376971"></trkpt>
      <trkpt lat="46.841156" lon="8.377142"></trkpt>
      <trkpt lat="46.840711" lon="8.377188"></trkpt>
      <trkpt lat="46.839683" lon="8.377581"></trkpt>
      <trkpt lat="46.837385" lon="8.379409"></trkpt>
      <trkpt lat="46.835837" lon="8.37936"></trkpt>
      <trkpt lat="46.83468" lon="8.379124"></trkpt>
      <trkpt lat="46.834217" lon="8.378732"></trkpt>
      <trkpt lat="46.83347" lon="8.377478"></trkpt>
      <trkpt lat="46.833166" lon="8.377237"></trkpt>
      <trkpt lat="46.832519" lon="8.377045"></trkpt>
      <trkpt lat="46.831715" lon="8.377024"></trkpt>
      <trkpt lat="46.830676" lon="8.377567"></trkpt>
      <trkpt lat="46.829981" lon="8.377662"></trkpt>
      <trkpt lat="46.828918" lon="8.37818"></trkpt>
      <trkpt lat="46.828433" lon="8.378624"></trkpt>
      <trkpt lat="46.828102" lon="8.37956"></trkpt>
      <trkpt lat="46.827793" lon="8.380074"></trkpt>
      <trkpt lat="46.826305" lon="8.381023"></trkpt>
      <trkpt lat="46.825294" lon="8.38286"></trkpt>
      <trkpt lat="46.824127" lon="8.385804"></trkpt>
      <trkpt lat="46.823893" lon="8.386146"></trkpt>
      <trkpt lat="46.823673" lon="8.386259"></trkpt>
      <trkpt lat="46.823376" lon="8.386183"></trkpt>
      <trkpt lat="46.822644" lon="8.385016"></trkpt>
      <trkpt lat="46.82225" lon="8.384866"></trkpt>
      <trkpt lat="46.821981" lon="8.384971"></trkpt>
      <trkpt lat="46.820578" lon="8.38619"></trkpt>
      <trkpt lat="46.819817" lon="8.387912"></trkpt>
      <trkpt lat="46.819487" lon="8.391987"></trkpt>
      <trkpt lat="46.818512" lon="8.396585"></trkpt>
      <trkpt lat="46.818178" lon="8.402603"></trkpt>
      <trkpt lat="46.819088" lon="8.403056"></trkpt>
      <trkpt lat="46.8197" lon="8.402812"></trkpt>
      <trkpt lat="46.819947" lon="8.402473"></trkpt>
      <trkpt lat="46.820638" lon="8.402037"></trkpt>
  </trkseg></trk>
</gpx>
