<?xml version="1.0" encoding="UTF-8"?>
<gpx version="1.1" creator="yatutbuv" xmlns="http://www.topografix.com/GPX/1/1">
  <trk><name>GraphHopper Track</name><trkseg>
      <trkpt lat="39.481122" lon="-0.388543"></trkpt>
      <trkpt lat="39.481146" lon="-0.388811"></trkpt>
      <trkpt lat="39.480589" lon="-0.38835"></trkpt>
      <trkpt lat="39.480556" lon="-0.388085"></trkpt>
      <trkpt lat="39.48071" lon="-0.3878"></trkpt>
      <trkpt lat="39.480963" lon="-0.387766"></trkpt>
      <trkpt lat="39.481846" lon="-0.388369"></trkpt>
      <trkpt lat="39.481987" lon="-0.388305"></trkpt>
      <trkpt lat="39.482112" lon="-0.387889"></trkpt>
      <trkpt lat="39.480519" lon="-0.386785"></trkpt>
      <trkpt lat="39.479628" lon="-0.388897"></trkpt>
      <trkpt lat="39.478907" lon="-0.391276"></trkpt>
      <trkpt lat="39.466305" lon="-0.382349"></trkpt>
      <trkpt lat="39.463696" lon="-0.380327"></trkpt>
      <trkpt lat="39.46329" lon="-0.379659"></trkpt>
      <trkpt lat="39.463078" lon="-0.378086"></trkpt>
      <trkpt lat="39.465127" lon="-0.372896"></trkpt>
      <trkpt lat="39.465358" lon="-0.373066"></trkpt>
      <trkpt lat="39.463308" lon="-0.377934"></trkpt>
      <trkpt lat="39.462941" lon="-0.378148"></trkpt>
      <trkpt lat="39.460897" lon="-0.378827"></trkpt>
      <trkpt lat="39.457286" lon="-0.376291"></trkpt>
      <trkpt lat="39.456743" lon="-0.376169"></trkpt>
      <trkpt lat="39.456443" lon="-0.375588"></trkpt>
      <trkpt lat="39.447904" lon="-0.369561"></trkpt>
      <trkpt lat="39.446714" lon="-0.369091"></trkpt>
      <trkpt lat="39.44619" lon="-0.369473"></trkpt>
      <trkpt lat="39.445919" lon="-0.369409"></trkpt>
      <trkpt lat="39.44572" lon="-0.369123"></trkpt>
      <trkpt lat="39.445505" lon="-0.369062"></trkpt>
      <trkpt lat="39.444623" lon="-0.369112"></trkpt>
      <trkpt lat="39.432224" lon="-0.370805"></trkpt>
      <trkpt lat="39.428689" lon="-0.37144"></trkpt>
      <trkpt lat="39.41178" lon="-0.379592"></trkpt>
      <trkpt lat="39.382099" lon="-0.399374"></trkpt>
      <trkpt lat="39.379543" lon="-0.400849"></trkpt>
      <trkpt lat="39.378691" lon="-0.401837"></trkpt>
      <trkpt lat="39.377971" lon="-0.403494"></trkpt>
      <trkpt lat="39.376295" lon="-0.412445"></trkpt>
      <trkpt lat="39.375269" lon="-0.415475"></trkpt>
      <trkpt lat="39.374913" lon="-0.416853"></trkpt>
      <trkpt lat="39.373887" lon="-0.423011"></trkpt>
      <trkpt lat="39.373405" lon="-0.424177"></trkpt>
      <trkpt lat="39.372885" lon="-0.424943"></trkpt>
      <trkpt lat="39.372416" lon="-0.425438"></trkpt>
      <trkpt lat="39.37148" lon="-0.42607"></trkpt>
      <trkpt lat="39.370115" lon="-0.426409"></trkpt>
      <trkpt lat="39.35409" lon="-0.426008"></trkpt>
      <trkpt lat="39.353419" lon="-0.426128"></trkpt>
      <trkpt lat="39.352632" lon="-0.426488"></trkpt>
      <trkpt lat="39.350391" lon="-0.428629"></trkpt>
      <trkpt lat="39.349743" lon="-0.428994"></trkpt>
      <trkpt lat="39.34915" lon="-0.429152"></trkpt>
      <trkpt lat="39.347964" lon="-0.429213"></trkpt>
      <trkpt lat="39.344441" lon="-0.428449"></trkpt>
      <trkpt lat="39.34352" lon="-0.428457"></trkpt>
      <trkpt lat="39.342991" lon="-0.428579"></trkpt>
      <trkpt lat="39.320777" lon="-0.437824"></trkpt>
      <trkpt lat="39.312858" lon="-0.441242"></trkpt>
      <trkpt lat="39.308998" lon="-0.443966"></trkpt>
      <trkpt lat="39.285118" lon="-0.45687"></trkpt>
      <trkpt lat="39.278954" lon="-0.460084"></trkpt>
      <trkpt lat="39.276957" lon="-0.460587"></trkpt>
      <trkpt lat="39.275145" lon="-0.460612"></trkpt>
      <trkpt lat="39.273217" lon="-0.460273"></trkpt>
      <trkpt lat="39.269244" lon="-0.458817"></trkpt>
      <trkpt lat="39.26711" lon="-0.458514"></trkpt>
      <trkpt lat="39.264617" lon="-0.458733"></trkpt>
      <trkpt lat="39.26327" lon="-0.459092"></trkpt>
      <trkpt lat="39.261839" lon="-0.459695"></trkpt>
      <trkpt lat="39.260696" lon="-0.46033"></trkpt>
      <trkpt lat="39.259339" lon="-0.461348"></trkpt>
      <trkpt lat="39.25824" lon="-0.462337"></trkpt>
      <trkpt lat="39.257407" lon="-0.463314"></trkpt>
      <trkpt lat="39.256607" lon="-0.464417"></trkpt>
      <trkpt lat="39.255393" lon="-0.466426"></trkpt>
      <trkpt lat="39.253067" lon="-0.471179"></trkpt>
      <trkpt lat="39.251691" lon="-0.473594"></trkpt>
      <trkpt lat="39.249764" lon="-0.475858"></trkpt>
      <trkpt lat="39.248264" lon="-0.477017"></trkpt>
      <trkpt lat="39.2115" lon="-0.497724"></trkpt>
      <trkpt lat="39.210806" lon="-0.498024"></trkpt>
      <trkpt lat="39.209942" lon="-0.49829"></trkpt>
      <trkpt lat="39.208588" lon="-0.498499"></trkpt>
      <trkpt lat="39.206384" lon="-0.498256"></trkpt>
      <trkpt lat="39.204852" lon="-0.497657"></trkpt>
      <trkpt lat="39.199994" lon="-0.495193"></trkpt>
      <trkpt lat="39.199099" lon="-0.494847"></trkpt>
      <trkpt lat="39.198075" lon="-0.494625"></trkpt>
      <trkpt lat="39.196695" lon="-0.494529"></trkpt>
      <trkpt lat="39.195347" lon="-0.494718"></trkpt>
      <trkpt lat="39.194484" lon="-0.494945"></trkpt>
      <trkpt lat="39.193392" lon="-0.495451"></trkpt>
      <trkpt lat="39.191246" lon="-0.497091"></trkpt>
      <trkpt lat="39.190095" lon="-0.498526"></trkpt>
      <trkpt lat="39.183295" lon="-0.511323"></trkpt>
      <trkpt lat="39.182887" lon="-0.512041"></trkpt>
      <trkpt lat="39.182018" lon="-0.512968"></trkpt>
      <trkpt lat="39.180517" lon="-0.513841"></trkpt>
      <trkpt lat="39.176718" lon="-0.515535"></trkpt>
      <trkpt lat="39.172795" lon="-0.516834"></trkpt>
      <trkpt lat="39.170502" lon="-0.517863"></trkpt>
      <trkpt lat="39.168112" lon="-0.518564"></trkpt>
      <trkpt lat="39.166998" lon="-0.519064"></trkpt>
      <trkpt lat="39.165938" lon="-0.519806"></trkpt>
      <trkpt lat="39.163403" lon="-0.522074"></trkpt>
      <trkpt lat="39.162701" lon="-0.522577"></trkpt>
      <trkpt lat="39.16012" lon="-0.523895"></trkpt>
      <trkpt lat="39.157739" lon="-0.525424"></trkpt>
      <trkpt lat="39.156373" lon="-0.526593"></trkpt>
      <trkpt lat="39.154296" lon="-0.528636"></trkpt>
      <trkpt lat="39.153479" lon="-0.529239"></trkpt>
      <trkpt lat="39.152402" lon="-0.529822"></trkpt>
      <trkpt lat="39.150942" lon="-0.530301"></trkpt>
      <trkpt lat="39.149299" lon="-0.530559"></trkpt>
      <trkpt lat="39.14731" lon="-0.530518"></trkpt>
      <trkpt lat="39.145498" lon="-0.530146"></trkpt>
      <trkpt lat="39.144075" lon="-0.529624"></trkpt>
      <trkpt lat="39.142305" lon="-0.528647"></trkpt>
      <trkpt lat="39.141055" lon="-0.527702"></trkpt>
      <trkpt lat="39.138974" lon="-0.52579"></trkpt>
      <trkpt lat="39.137917" lon="-0.52507"></trkpt>
      <trkpt lat="39.136267" lon="-0.52445"></trkpt>
      <trkpt lat="39.13504" lon="-0.524332"></trkpt>
      <trkpt lat="39.133381" lon="-0.524607"></trkpt>
      <trkpt lat="39.132087" lon="-0.525198"></trkpt>
      <trkpt lat="39.131097" lon="-0.525925"></trkpt>
      <trkpt lat="39.128578" lon="-0.528215"></trkpt>
      <trkpt lat="39.127003" lon="-0.529288"></trkpt>
      <trkpt lat="39.125666" lon="-0.530002"></trkpt>
      <trkpt lat="39.123429" lon="-0.530863"></trkpt>
      <trkpt lat="39.121496" lon="-0.531297"></trkpt>
      <trkpt lat="39.113201" lon="-0.532555"></trkpt>
      <trkpt lat="39.111748" lon="-0.532524"></trkpt>
      <trkpt lat="39.110629" lon="-0.532344"></trkpt>
      <trkpt lat="39.109267" lon="-0.5319"></trkpt>
      <trkpt lat="39.106015" lon="-0.530168"></trkpt>
      <trkpt lat="39.104554" lon="-0.529645"></trkpt>
      <trkpt lat="39.102692" lon="-0.529455"></trkpt>
      <trkpt lat="39.101158" lon="-0.529675"></trkpt>
      <trkpt lat="39.0993" lon="-0.530423"></trkpt>
      <trkpt lat="39.095653" lon="-0.532511"></trkpt>
      <trkpt lat="39.093512" lon="-0.533987"></trkpt>
      <trkpt lat="39.087863" lon="-0.538376"></trkpt>
      <trkpt lat="39.086609" lon="-0.539238"></trkpt>
      <trkpt lat="39.084888" lon="-0.540165"></trkpt>
      <trkpt lat="39.083259" lon="-0.540796"></trkpt>
      <trkpt lat="39.079532" lon="-0.541637"></trkpt>
      <trkpt lat="39.076079" lon="-0.54218"></trkpt>
      <trkpt lat="39.074552" lon="-0.542194"></trkpt>
      <trkpt lat="39.070352" lon="-0.541801"></trkpt>
      <trkpt lat="39.068913" lon="-0.541893"></trkpt>
      <trkpt lat="39.055519" lon="-0.544827"></trkpt>
      <trkpt lat="39.054374" lon="-0.545211"></trkpt>
      <trkpt lat="39.053114" lon="-0.545793"></trkpt>
      <trkpt lat="39.042509" lon="-0.551796"></trkpt>
      <trkpt lat="39.040666" lon="-0.552411"></trkpt>
      <trkpt lat="39.038633" lon="-0.552519"></trkpt>
      <trkpt lat="39.034661" lon="-0.551643"></trkpt>
      <trkpt lat="39.031842" lon="-0.551365"></trkpt>
      <trkpt lat="39.028778" lon="-0.551513"></trkpt>
      <trkpt lat="39.026017" lon="-0.552059"></trkpt>
      <trkpt lat="39.024195" lon="-0.552821"></trkpt>
      <trkpt lat="39.023168" lon="-0.553512"></trkpt>
      <trkpt lat="39.021171" lon="-0.555273"></trkpt>
      <trkpt lat="39.020119" lon="-0.556044"></trkpt>
      <trkpt lat="39.013914" lon="-0.559492"></trkpt>
      <trkpt lat="39.012919" lon="-0.560142"></trkpt>
      <trkpt lat="39.012066" lon="-0.560866"></trkpt>
      <trkpt lat="39.010863" lon="-0.562261"></trkpt>
      <trkpt lat="39.010072" lon="-0.56349"></trkpt>
      <trkpt lat="39.007711" lon="-0.567805"></trkpt>
      <trkpt lat="39.006763" lon="-0.569219"></trkpt>
      <trkpt lat="39.005443" lon="-0.570894"></trkpt>
      <trkpt lat="39.004202" lon="-0.572167"></trkpt>
      <trkpt lat="38.991246" lon="-0.584142"></trkpt>
      <trkpt lat="38.990411" lon="-0.584981"></trkpt>
      <trkpt lat="38.989391" lon="-0.586279"></trkpt>
      <trkpt lat="38.988567" lon="-0.587454"></trkpt>
      <trkpt lat="38.987711" lon="-0.589031"></trkpt>
      <trkpt lat="38.985347" lon="-0.59496"></trkpt>
      <trkpt lat="38.984681" lon="-0.596243"></trkpt>
      <trkpt lat="38.983859" lon="-0.597398"></trkpt>
      <trkpt lat="38.982609" lon="-0.598685"></trkpt>
      <trkpt lat="38.981561" lon="-0.599441"></trkpt>
      <trkpt lat="38.973118" lon="-0.603855"></trkpt>
      <trkpt lat="38.971447" lon="-0.604912"></trkpt>
      <trkpt lat="38.970473" lon="-0.605659"></trkpt>
      <trkpt lat="38.96899" lon="-0.60703"></trkpt>
      <trkpt lat="38.967205" lon="-0.609111"></trkpt>
      <trkpt lat="38.925031" lon="-0.67084"></trkpt>
      <trkpt lat="38.912421" lon="-0.689506"></trkpt>
      <trkpt lat="38.911023" lon="-0.691731"></trkpt>
      <trkpt lat="38.907973" lon="-0.698236"></trkpt>
      <trkpt lat="38.903856" lon="-0.705492"></trkpt>
      <trkpt lat="38.885016" lon="-0.74204"></trkpt>
      <trkpt lat="38.882198" lon="-0.746613"></trkpt>
      <trkpt lat="38.881636" lon="-0.74844"></trkpt>
      <trkpt lat="38.881477" lon="-0.750381"></trkpt>
      <trkpt lat="38.881651" lon="-0.751791"></trkpt>
      <trkpt lat="38.882374" lon="-0.754562"></trkpt>
      <trkpt lat="38.8825" lon="-0.756699"></trkpt>
      <trkpt lat="38.882187" lon="-0.758738"></trkpt>
      <trkpt lat="38.881631" lon="-0.76023"></trkpt>
      <trkpt lat="38.879316" lon="-0.764581"></trkpt>
      <trkpt lat="38.878109" lon="-0.766259"></trkpt>
      <trkpt lat="38.876658" lon="-0.767564"></trkpt>
      <trkpt lat="38.87462" lon="-0.768712"></trkpt>
      <trkpt lat="38.873478" lon="-0.769549"></trkpt>
      <trkpt lat="38.872278" lon="-0.770956"></trkpt>
      <trkpt lat="38.87149" lon="-0.772431"></trkpt>
      <trkpt lat="38.854359" lon="-0.82339"></trkpt>
      <trkpt lat="38.85379" lon="-0.825523"></trkpt>
      <trkpt lat="38.853195" lon="-0.829187"></trkpt>
      <trkpt lat="38.85274" lon="-0.830676"></trkpt>
      <trkpt lat="38.851723" lon="-0.832658"></trkpt>
      <trkpt lat="38.849714" lon="-0.835089"></trkpt>
      <trkpt lat="38.849" lon="-0.836133"></trkpt>
      <trkpt lat="38.845258" lon="-0.843629"></trkpt>
      <trkpt lat="38.843372" lon="-0.846618"></trkpt>
      <trkpt lat="38.842747" lon="-0.848178"></trkpt>
      <trkpt lat="38.842002" lon="-0.851832"></trkpt>
      <trkpt lat="38.841383" lon="-0.853601"></trkpt>
      <trkpt lat="38.84064" lon="-0.854951"></trkpt>
      <trkpt lat="38.838899" lon="-0.857556"></trkpt>
      <trkpt lat="38.837845" lon="-0.859907"></trkpt>
      <trkpt lat="38.830712" lon="-0.881463"></trkpt>
      <trkpt lat="38.830407" lon="-0.882629"></trkpt>
      <trkpt lat="38.830226" lon="-0.884563"></trkpt>
      <trkpt lat="38.830694" lon="-0.887564"></trkpt>
      <trkpt lat="38.830709" lon="-0.888782"></trkpt>
      <trkpt lat="38.830485" lon="-0.889864"></trkpt>
      <trkpt lat="38.829835" lon="-0.891157"></trkpt>
      <trkpt lat="38.829331" lon="-0.891711"></trkpt>
      <trkpt lat="38.828527" lon="-0.892244"></trkpt>
      <trkpt lat="38.82773" lon="-0.892456"></trkpt>
      <trkpt lat="38.826686" lon="-0.892364"></trkpt>
      <trkpt lat="38.818946" lon="-0.890291"></trkpt>
      <trkpt lat="38.816905" lon="-0.889343"></trkpt>
      <trkpt lat="38.813846" lon="-0.887069"></trkpt>
      <trkpt lat="38.81256" lon="-0.886379"></trkpt>
      <trkpt lat="38.811638" lon="-0.886038"></trkpt>
      <trkpt lat="38.810546" lon="-0.885797"></trkpt>
      <trkpt lat="38.808786" lon="-0.885741"></trkpt>
      <trkpt lat="38.807604" lon="-0.885943"></trkpt>
      <trkpt lat="38.80658" lon="-0.886264"></trkpt>
      <trkpt lat="38.796716" lon="-0.890486"></trkpt>
      <trkpt lat="38.794812" lon="-0.891178"></trkpt>
      <trkpt lat="38.792298" lon="-0.891917"></trkpt>
      <trkpt lat="38.789413" lon="-0.89246"></trkpt>
      <trkpt lat="38.786507" lon="-0.892801"></trkpt>
      <trkpt lat="38.783257" lon="-0.892903"></trkpt>
      <trkpt lat="38.779314" lon="-0.892778"></trkpt>
      <trkpt lat="38.777564" lon="-0.892854"></trkpt>
      <trkpt lat="38.774055" lon="-0.89326"></trkpt>
      <trkpt lat="38.764535" lon="-0.894905"></trkpt>
      <trkpt lat="38.763199" lon="-0.895306"></trkpt>
      <trkpt lat="38.761908" lon="-0.895847"></trkpt>
      <trkpt lat="38.760135" lon="-0.896924"></trkpt>
      <trkpt lat="38.758172" lon="-0.898438"></trkpt>
      <trkpt lat="38.757306" lon="-0.899304"></trkpt>
      <trkpt lat="38.755653" lon="-0.901346"></trkpt>
      <trkpt lat="38.754912" lon="-0.902441"></trkpt>
      <trkpt lat="38.748688" lon="-0.914128"></trkpt>
      <trkpt lat="38.747049" lon="-0.916783"></trkpt>
      <trkpt lat="38.745335" lon="-0.918971"></trkpt>
      <trkpt lat="38.743324" lon="-0.920976"></trkpt>
      <trkpt lat="38.741086" lon="-0.922762"></trkpt>
      <trkpt lat="38.739751" lon="-0.923606"></trkpt>
      <trkpt lat="38.733095" lon="-0.927126"></trkpt>
      <trkpt lat="38.731701" lon="-0.928029"></trkpt>
      <trkpt lat="38.730809" lon="-0.928798"></trkpt>
      <trkpt lat="38.72974" lon="-0.929918"></trkpt>
      <trkpt lat="38.728606" lon="-0.93144"></trkpt>
      <trkpt lat="38.723689" lon="-0.940007"></trkpt>
      <trkpt lat="38.722302" lon="-0.94351"></trkpt>
      <trkpt lat="38.72113" lon="-0.947397"></trkpt>
      <trkpt lat="38.720523" lon="-0.949817"></trkpt>
      <trkpt lat="38.719596" lon="-0.954264"></trkpt>
      <trkpt lat="38.717538" lon="-0.966465"></trkpt>
      <trkpt lat="38.717099" lon="-0.97008"></trkpt>
      <trkpt lat="38.71679" lon="-0.974057"></trkpt>
      <trkpt lat="38.716672" lon="-0.977833"></trkpt>
      <trkpt lat="38.716672" lon="-0.985552"></trkpt>
      <trkpt lat="38.716413" lon="-0.989563"></trkpt>
      <trkpt lat="38.716006" lon="-0.992758"></trkpt>
      <trkpt lat="38.715273" lon="-0.995382"></trkpt>
      <trkpt lat="38.714371" lon="-0.99739"></trkpt>
      <trkpt lat="38.712952" lon="-0.999509"></trkpt>
      <trkpt lat="38.711536" lon="-1.000976"></trkpt>
      <trkpt lat="38.709651" lon="-1.002318"></trkpt>
      <trkpt lat="38.708243" lon="-1.002939"></trkpt>
      <trkpt lat="38.707119" lon="-1.003262"></trkpt>
      <trkpt lat="38.703916" lon="-1.003743"></trkpt>
      <trkpt lat="38.702104" lon="-1.004361"></trkpt>
      <trkpt lat="38.700337" lon="-1.005468"></trkpt>
      <trkpt lat="38.697885" lon="-1.007547"></trkpt>
      <trkpt lat="38.696339" lon="-1.008433"></trkpt>
      <trkpt lat="38.695512" lon="-1.008757"></trkpt>
      <trkpt lat="38.692572" lon="-1.009376"></trkpt>
      <trkpt lat="38.691155" lon="-1.00988"></trkpt>
      <trkpt lat="38.689721" lon="-1.01072"></trkpt>
      <trkpt lat="38.686404" lon="-1.013636"></trkpt>
      <trkpt lat="38.684958" lon="-1.014436"></trkpt>
      <trkpt lat="38.682899" lon="-1.01506"></trkpt>
      <trkpt lat="38.680337" lon="-1.015391"></trkpt>
      <trkpt lat="38.679369" lon="-1.015691"></trkpt>
      <trkpt lat="38.678022" lon="-1.016296"></trkpt>
      <trkpt lat="38.675947" lon="-1.017779"></trkpt>
      <trkpt lat="38.668164" lon="-1.02417"></trkpt>
      <trkpt lat="38.666555" lon="-1.025211"></trkpt>
      <trkpt lat="38.665527" lon="-1.025723"></trkpt>
      <trkpt lat="38.660736" lon="-1.027765"></trkpt>
      <trkpt lat="38.658674" lon="-1.029122"></trkpt>
      <trkpt lat="38.657013" lon="-1.030515"></trkpt>
      <trkpt lat="38.655738" lon="-1.031841"></trkpt>
      <trkpt lat="38.651994" lon="-1.036936"></trkpt>
      <trkpt lat="38.650725" lon="-1.038256"></trkpt>
      <trkpt lat="38.648969" lon="-1.039631"></trkpt>
      <trkpt lat="38.64687" lon="-1.040735"></trkpt>
      <trkpt lat="38.645677" lon="-1.041148"></trkpt>
      <trkpt lat="38.643863" lon="-1.041566"></trkpt>
      <trkpt lat="38.641748" lon="-1.041793"></trkpt>
      <trkpt lat="38.640748" lon="-1.041772"></trkpt>
      <trkpt lat="38.638901" lon="-1.041555"></trkpt>
      <trkpt lat="38.630759" lon="-1.039217"></trkpt>
      <trkpt lat="38.628545" lon="-1.038972"></trkpt>
      <trkpt lat="38.626624" lon="-1.039026"></trkpt>
      <trkpt lat="38.624433" lon="-1.039439"></trkpt>
      <trkpt lat="38.619447" lon="-1.041213"></trkpt>
      <trkpt lat="38.615902" lon="-1.042282"></trkpt>
      <trkpt lat="38.613913" lon="-1.042668"></trkpt>
      <trkpt lat="38.607617" lon="-1.043554"></trkpt>
      <trkpt lat="38.605988" lon="-1.043876"></trkpt>
      <trkpt lat="38.602855" lon="-1.044715"></trkpt>
      <trkpt lat="38.598749" lon="-1.046228"></trkpt>
      <trkpt lat="38.597269" lon="-1.046858"></trkpt>
      <trkpt lat="38.594662" lon="-1.04819"></trkpt>
      <trkpt lat="38.592895" lon="-1.049555"></trkpt>
      <trkpt lat="38.592126" lon="-1.050327"></trkpt>
      <trkpt lat="38.58865" lon="-1.054748"></trkpt>
      <trkpt lat="38.587028" lon="-1.056279"></trkpt>
      <trkpt lat="38.585429" lon="-1.057375"></trkpt>
      <trkpt lat="38.5822" lon="-1.058963"></trkpt>
      <trkpt lat="38.580262" lon="-1.06042"></trkpt>
      <trkpt lat="38.578642" lon="-1.062166"></trkpt>
      <trkpt lat="38.577289" lon="-1.064414"></trkpt>
      <trkpt lat="38.576655" lon="-1.065795"></trkpt>
      <trkpt lat="38.575097" lon="-1.070257"></trkpt>
      <trkpt lat="38.573745" lon="-1.072879"></trkpt>
      <trkpt lat="38.570527" lon="-1.077002"></trkpt>
      <trkpt lat="38.569233" lon="-1.078827"></trkpt>
      <trkpt lat="38.567383" lon="-1.082075"></trkpt>
      <trkpt lat="38.566076" lon="-1.085113"></trkpt>
      <trkpt lat="38.563627" lon="-1.092252"></trkpt>
      <trkpt lat="38.562307" lon="-1.095476"></trkpt>
      <trkpt lat="38.561392" lon="-1.097455"></trkpt>
      <trkpt lat="38.558674" lon="-1.102686"></trkpt>
      <trkpt lat="38.55815" lon="-1.104027"></trkpt>
      <trkpt lat="38.557653" lon="-1.105616"></trkpt>
      <trkpt lat="38.557223" lon="-1.107833"></trkpt>
      <trkpt lat="38.556664" lon="-1.114708"></trkpt>
      <trkpt lat="38.555989" lon="-1.117604"></trkpt>
      <trkpt lat="38.555391" lon="-1.119247"></trkpt>
      <trkpt lat="38.553995" lon="-1.12196"></trkpt>
      <trkpt lat="38.553131" lon="-1.123227"></trkpt>
      <trkpt lat="38.551032" lon="-1.12582"></trkpt>
      <trkpt lat="38.549809" lon="-1.12771"></trkpt>
      <trkpt lat="38.547642" lon="-1.132199"></trkpt>
      <trkpt lat="38.545936" lon="-1.135353"></trkpt>
      <trkpt lat="38.543959" lon="-1.138568"></trkpt>
      <trkpt lat="38.542362" lon="-1.140834"></trkpt>
      <trkpt lat="38.539955" lon="-1.143884"></trkpt>
      <trkpt lat="38.538127" lon="-1.145926"></trkpt>
      <trkpt lat="38.535343" lon="-1.14867"></trkpt>
      <trkpt lat="38.524524" lon="-1.158094"></trkpt>
      <trkpt lat="38.521058" lon="-1.160645"></trkpt>
      <trkpt lat="38.516416" lon="-1.163619"></trkpt>
      <trkpt lat="38.513452" lon="-1.165836"></trkpt>
      <trkpt lat="38.509359" lon="-1.169434"></trkpt>
      <trkpt lat="38.506258" lon="-1.172539"></trkpt>
      <trkpt lat="38.504494" lon="-1.17455"></trkpt>
      <trkpt lat="38.501092" lon="-1.178789"></trkpt>
      <trkpt lat="38.499207" lon="-1.181427"></trkpt>
      <trkpt lat="38.497822" lon="-1.183629"></trkpt>
      <trkpt lat="38.493418" lon="-1.191495"></trkpt>
      <trkpt lat="38.483406" lon="-1.210355"></trkpt>
      <trkpt lat="38.481836" lon="-1.212685"></trkpt>
      <trkpt lat="38.480035" lon="-1.214787"></trkpt>
      <trkpt lat="38.477966" lon="-1.216729"></trkpt>
      <trkpt lat="38.474628" lon="-1.219044"></trkpt>
      <trkpt lat="38.470787" lon="-1.220953"></trkpt>
      <trkpt lat="38.465046" lon="-1.22359"></trkpt>
      <trkpt lat="38.462506" lon="-1.225432"></trkpt>
      <trkpt lat="38.460907" lon="-1.227143"></trkpt>
      <trkpt lat="38.460014" lon="-1.228345"></trkpt>
      <trkpt lat="38.458741" lon="-1.230609"></trkpt>
      <trkpt lat="38.457634" lon="-1.233578"></trkpt>
      <trkpt lat="38.457058" lon="-1.23635"></trkpt>
      <trkpt lat="38.456538" lon="-1.241496"></trkpt>
      <trkpt lat="38.455909" lon="-1.244267"></trkpt>
      <trkpt lat="38.455157" lon="-1.246416"></trkpt>
      <trkpt lat="38.454414" lon="-1.247972"></trkpt>
      <trkpt lat="38.453428" lon="-1.249541"></trkpt>
      <trkpt lat="38.452146" lon="-1.25118"></trkpt>
      <trkpt lat="38.45074" lon="-1.252543"></trkpt>
      <trkpt lat="38.449553" lon="-1.253481"></trkpt>
      <trkpt lat="38.447529" lon="-1.254572"></trkpt>
      <trkpt lat="38.446249" lon="-1.255043"></trkpt>
      <trkpt lat="38.444571" lon="-1.255398"></trkpt>
      <trkpt lat="38.443231" lon="-1.255488"></trkpt>
      <trkpt lat="38.441438" lon="-1.255346"></trkpt>
      <trkpt lat="38.440237" lon="-1.255089"></trkpt>
      <trkpt lat="38.438239" lon="-1.254311"></trkpt>
      <trkpt lat="38.437127" lon="-1.253689"></trkpt>
      <trkpt lat="38.435823" lon="-1.252748"></trkpt>
      <trkpt lat="38.433868" lon="-1.250817"></trkpt>
      <trkpt lat="38.425882" lon="-1.239905"></trkpt>
      <trkpt lat="38.424464" lon="-1.238236"></trkpt>
      <trkpt lat="38.423546" lon="-1.237392"></trkpt>
      <trkpt lat="38.421783" lon="-1.236152"></trkpt>
      <trkpt lat="38.419986" lon="-1.23535"></trkpt>
      <trkpt lat="38.419045" lon="-1.235103"></trkpt>
      <trkpt lat="38.417175" lon="-1.234887"></trkpt>
      <trkpt lat="38.415866" lon="-1.234948"></trkpt>
      <trkpt lat="38.414777" lon="-1.235176"></trkpt>
      <trkpt lat="38.412018" lon="-1.236328"></trkpt>
      <trkpt lat="38.403759" lon="-1.240986"></trkpt>
      <trkpt lat="38.400708" lon="-1.242506"></trkpt>
      <trkpt lat="38.379124" lon="-1.251032"></trkpt>
      <trkpt lat="38.376139" lon="-1.252782"></trkpt>
      <trkpt lat="38.37419" lon="-1.25431"></trkpt>
      <trkpt lat="38.373046" lon="-1.255461"></trkpt>
      <trkpt lat="38.370964" lon="-1.257263"></trkpt>
      <trkpt lat="38.369944" lon="-1.25799"></trkpt>
      <trkpt lat="38.368604" lon="-1.258738"></trkpt>
      <trkpt lat="38.367521" lon="-1.25919"></trkpt>
      <trkpt lat="38.366154" lon="-1.259583"></trkpt>
      <trkpt lat="38.362334" lon="-1.260091"></trkpt>
      <trkpt lat="38.360486" lon="-1.260517"></trkpt>
      <trkpt lat="38.358476" lon="-1.261276"></trkpt>
      <trkpt lat="38.356645" lon="-1.26227"></trkpt>
      <trkpt lat="38.354705" lon="-1.263684"></trkpt>
      <trkpt lat="38.353437" lon="-1.264841"></trkpt>
      <trkpt lat="38.342171" lon="-1.27773"></trkpt>
      <trkpt lat="38.339514" lon="-1.280012"></trkpt>
      <trkpt lat="38.335308" lon="-1.282966"></trkpt>
      <trkpt lat="38.333457" lon="-1.284556"></trkpt>
      <trkpt lat="38.33195" lon="-1.286083"></trkpt>
      <trkpt lat="38.322464" lon="-1.297363"></trkpt>
      <trkpt lat="38.321239" lon="-1.298631"></trkpt>
      <trkpt lat="38.319152" lon="-1.300434"></trkpt>
      <trkpt lat="38.316243" lon="-1.302273"></trkpt>
      <trkpt lat="38.313999" lon="-1.30343"></trkpt>
      <trkpt lat="38.290182" lon="-1.315155"></trkpt>
      <trkpt lat="38.287861" lon="-1.316557"></trkpt>
      <trkpt lat="38.285052" lon="-1.318531"></trkpt>
      <trkpt lat="38.283237" lon="-1.319556"></trkpt>
      <trkpt lat="38.280778" lon="-1.32072"></trkpt>
      <trkpt lat="38.278298" lon="-1.321605"></trkpt>
      <trkpt lat="38.271922" lon="-1.323461"></trkpt>
      <trkpt lat="38.268995" lon="-1.324115"></trkpt>
      <trkpt lat="38.267769" lon="-1.324196"></trkpt>
      <trkpt lat="38.266093" lon="-1.324067"></trkpt>
      <trkpt lat="38.263111" lon="-1.323413"></trkpt>
      <trkpt lat="38.261649" lon="-1.323214"></trkpt>
      <trkpt lat="38.260428" lon="-1.323263"></trkpt>
      <trkpt lat="38.259446" lon="-1.323466"></trkpt>
      <trkpt lat="38.258709" lon="-1.323665"></trkpt>
      <trkpt lat="38.257298" lon="-1.324335"></trkpt>
      <trkpt lat="38.253587" lon="-1.326985"></trkpt>
      <trkpt lat="38.251388" lon="-1.328021"></trkpt>
      <trkpt lat="38.250162" lon="-1.328396"></trkpt>
      <trkpt lat="38.248528" lon="-1.328643"></trkpt>
      <trkpt lat="38.246868" lon="-1.328664"></trkpt>
      <trkpt lat="38.245393" lon="-1.32845"></trkpt>
      <trkpt lat="38.243139" lon="-1.327855"></trkpt>
      <trkpt lat="38.240952" lon="-1.326948"></trkpt>
      <trkpt lat="38.238719" lon="-1.32565"></trkpt>
      <trkpt lat="38.236836" lon="-1.324191"></trkpt>
      <trkpt lat="38.234866" lon="-1.322352"></trkpt>
      <trkpt lat="38.233363" lon="-1.320677"></trkpt>
      <trkpt lat="38.232066" lon="-1.318987"></trkpt>
      <trkpt lat="38.230014" lon="-1.315903"></trkpt>
      <trkpt lat="38.228771" lon="-1.314234"></trkpt>
      <trkpt lat="38.227068" lon="-1.312619"></trkpt>
      <trkpt lat="38.224885" lon="-1.311252"></trkpt>
      <trkpt lat="38.22317" lon="-1.31049"></trkpt>
      <trkpt lat="38.221359" lon="-1.310127"></trkpt>
      <trkpt lat="38.219145" lon="-1.31005"></trkpt>
      <trkpt lat="38.217784" lon="-1.310243"></trkpt>
      <trkpt lat="38.216022" lon="-1.310763"></trkpt>
      <trkpt lat="38.215306" lon="-1.311053"></trkpt>
      <trkpt lat="38.213489" lon="-1.312137"></trkpt>
      <trkpt lat="38.199241" lon="-1.323672"></trkpt>
      <trkpt lat="38.197921" lon="-1.324571"></trkpt>
      <trkpt lat="38.195765" lon="-1.32554"></trkpt>
      <trkpt lat="38.194651" lon="-1.325821"></trkpt>
      <trkpt lat="38.193487" lon="-1.325945"></trkpt>
      <trkpt lat="38.191898" lon="-1.325864"></trkpt>
      <trkpt lat="38.190941" lon="-1.325687"></trkpt>
      <trkpt lat="38.187073" lon="-1.324492"></trkpt>
      <trkpt lat="38.185914" lon="-1.323897"></trkpt>
      <trkpt lat="38.185085" lon="-1.323216"></trkpt>
      <trkpt lat="38.184247" lon="-1.322114"></trkpt>
      <trkpt lat="38.182993" lon="-1.319353"></trkpt>
      <trkpt lat="38.181903" lon="-1.317888"></trkpt>
      <trkpt lat="38.18045" lon="-1.316642"></trkpt>
      <trkpt lat="38.17916" lon="-1.31572"></trkpt>
      <trkpt lat="38.17361" lon="-1.312415"></trkpt>
      <trkpt lat="38.171337" lon="-1.310945"></trkpt>
      <trkpt lat="38.168616" lon="-1.308885"></trkpt>
      <trkpt lat="38.167605" lon="-1.307941"></trkpt>
      <trkpt lat="38.166036" lon="-1.306107"></trkpt>
      <trkpt lat="38.164247" lon="-1.303542"></trkpt>
      <trkpt lat="38.162825" lon="-1.301772"></trkpt>
      <trkpt lat="38.160776" lon="-1.300017"></trkpt>
      <trkpt lat="38.157359" lon="-1.297801"></trkpt>
      <trkpt lat="38.156186" lon="-1.296626"></trkpt>
      <trkpt lat="38.155027" lon="-1.294974"></trkpt>
      <trkpt lat="38.153986" lon="-1.292636"></trkpt>
      <trkpt lat="38.153432" lon="-1.290265"></trkpt>
      <trkpt lat="38.153017" lon="-1.287227"></trkpt>
      <trkpt lat="38.152492" lon="-1.28534"></trkpt>
      <trkpt lat="38.151976" lon="-1.284132"></trkpt>
      <trkpt lat="38.150703" lon="-1.282085"></trkpt>
      <trkpt lat="38.146588" lon="-1.276782"></trkpt>
      <trkpt lat="38.145297" lon="-1.275492"></trkpt>
      <trkpt lat="38.14381" lon="-1.274503"></trkpt>
      <trkpt lat="38.140416" lon="-1.273275"></trkpt>
      <trkpt lat="38.138533" lon="-1.272391"></trkpt>
      <trkpt lat="38.137357" lon="-1.271657"></trkpt>
      <trkpt lat="38.135888" lon="-1.270516"></trkpt>
      <trkpt lat="38.133976" lon="-1.268529"></trkpt>
      <trkpt lat="38.133092" lon="-1.267401"></trkpt>
      <trkpt lat="38.125593" lon="-1.256512"></trkpt>
      <trkpt lat="38.122455" lon="-1.25162"></trkpt>
      <trkpt lat="38.119297" lon="-1.246424"></trkpt>
      <trkpt lat="38.116577" lon="-1.242785"></trkpt>
      <trkpt lat="38.115827" lon="-1.241983"></trkpt>
      <trkpt lat="38.114815" lon="-1.241174"></trkpt>
      <trkpt lat="38.112131" lon="-1.239514"></trkpt>
      <trkpt lat="38.11098" lon="-1.239049"></trkpt>
      <trkpt lat="38.108074" lon="-1.238363"></trkpt>
      <trkpt lat="38.106728" lon="-1.237766"></trkpt>
      <trkpt lat="38.104273" lon="-1.23579"></trkpt>
      <trkpt lat="38.097138" lon="-1.229423"></trkpt>
      <trkpt lat="38.09553" lon="-1.22816"></trkpt>
      <trkpt lat="38.092974" lon="-1.226606"></trkpt>
      <trkpt lat="38.085212" lon="-1.222401"></trkpt>
      <trkpt lat="38.084185" lon="-1.221687"></trkpt>
      <trkpt lat="38.082914" lon="-1.22053"></trkpt>
      <trkpt lat="38.081865" lon="-1.219279"></trkpt>
      <trkpt lat="38.080574" lon="-1.217072"></trkpt>
      <trkpt lat="38.078404" lon="-1.211349"></trkpt>
      <trkpt lat="38.077256" lon="-1.209058"></trkpt>
      <trkpt lat="38.075469" lon="-1.206391"></trkpt>
      <trkpt lat="38.072931" lon="-1.203414"></trkpt>
      <trkpt lat="38.071407" lon="-1.201409"></trkpt>
      <trkpt lat="38.070408" lon="-1.199757"></trkpt>
      <trkpt lat="38.068532" lon="-1.195922"></trkpt>
      <trkpt lat="38.067894" lon="-1.194994"></trkpt>
      <trkpt lat="38.066821" lon="-1.193664"></trkpt>
      <trkpt lat="38.065398" lon="-1.192487"></trkpt>
      <trkpt lat="38.064163" lon="-1.191808"></trkpt>
      <trkpt lat="38.062007" lon="-1.191074"></trkpt>
      <trkpt lat="38.060519" lon="-1.190379"></trkpt>
      <trkpt lat="38.058974" lon="-1.18931"></trkpt>
      <trkpt lat="38.057476" lon="-1.187815"></trkpt>
      <trkpt lat="38.056537" lon="-1.18654"></trkpt>
      <trkpt lat="38.055654" lon="-1.184962"></trkpt>
      <trkpt lat="38.054959" lon="-1.18327"></trkpt>
      <trkpt lat="38.053951" lon="-1.180265"></trkpt>
      <trkpt lat="38.053003" lon="-1.178329"></trkpt>
      <trkpt lat="38.052006" lon="-1.176864"></trkpt>
      <trkpt lat="38.049622" lon="-1.174216"></trkpt>
      <trkpt lat="38.048682" lon="-1.172987"></trkpt>
      <trkpt lat="38.047523" lon="-1.171046"></trkpt>
      <trkpt lat="38.045581" lon="-1.166907"></trkpt>
      <trkpt lat="38.044353" lon="-1.165006"></trkpt>
      <trkpt lat="38.042526" lon="-1.163152"></trkpt>
      <trkpt lat="38.040841" lon="-1.161973"></trkpt>
      <trkpt lat="38.03989" lon="-1.161535"></trkpt>
      <trkpt lat="38.038272" lon="-1.160965"></trkpt>
      <trkpt lat="38.036288" lon="-1.160537"></trkpt>
      <trkpt lat="38.035044" lon="-1.160061"></trkpt>
      <trkpt lat="38.03327" lon="-1.158853"></trkpt>
      <trkpt lat="38.031492" lon="-1.157079"></trkpt>
      <trkpt lat="38.030842" lon="-1.156925"></trkpt>
      <trkpt lat="38.029996" lon="-1.156912"></trkpt>
      <trkpt lat="38.029612" lon="-1.157069"></trkpt>
      <trkpt lat="38.02913" lon="-1.15764"></trkpt>
      <trkpt lat="38.02872" lon="-1.158629"></trkpt>
      <trkpt lat="38.027805" lon="-1.161596"></trkpt>
      <trkpt lat="38.027218" lon="-1.162773"></trkpt>
      <trkpt lat="38.026466" lon="-1.1637"></trkpt>
      <trkpt lat="38.025538" lon="-1.164364"></trkpt>
      <trkpt lat="38.024673" lon="-1.164683"></trkpt>
      <trkpt lat="38.017941" lon="-1.165874"></trkpt>
      <trkpt lat="38.017201" lon="-1.166102"></trkpt>
      <trkpt lat="38.014531" lon="-1.167295"></trkpt>
      <trkpt lat="38.012662" lon="-1.167794"></trkpt>
      <trkpt lat="38.010084" lon="-1.16805"></trkpt>
      <trkpt lat="38.008907" lon="-1.167888"></trkpt>
      <trkpt lat="38.007601" lon="-1.167523"></trkpt>
      <trkpt lat="38.005931" lon="-1.166655"></trkpt>
      <trkpt lat="38.004705" lon="-1.165687"></trkpt>
      <trkpt lat="38.00372" lon="-1.16457"></trkpt>
      <trkpt lat="38.002895" lon="-1.163349"></trkpt>
      <trkpt lat="38.001866" lon="-1.161101"></trkpt>
      <trkpt lat="38.000652" lon="-1.156566"></trkpt>
      <trkpt lat="38.000211" lon="-1.155305"></trkpt>
      <trkpt lat="37.99943" lon="-1.153745"></trkpt>
      <trkpt lat="37.9983" lon="-1.152108"></trkpt>
      <trkpt lat="37.996918" lon="-1.150563"></trkpt>
      <trkpt lat="37.995918" lon="-1.149638"></trkpt>
      <trkpt lat="37.993718" lon="-1.147831"></trkpt>
      <trkpt lat="37.992464" lon="-1.147003"></trkpt>
      <trkpt lat="37.991866" lon="-1.146878"></trkpt>
      <trkpt lat="37.990741" lon="-1.147126"></trkpt>
      <trkpt lat="37.990324" lon="-1.146859"></trkpt>
      <trkpt lat="37.990227" lon="-1.146436"></trkpt>
      <trkpt lat="37.990359" lon="-1.14596"></trkpt>
      <trkpt lat="37.992693" lon="-1.141763"></trkpt>
      <trkpt lat="37.992722" lon="-1.14153"></trkpt>
      <trkpt lat="37.991339" lon="-1.140901"></trkpt>
      <trkpt lat="37.990366" lon="-1.140259"></trkpt>
      <trkpt lat="37.988769" lon="-1.138629"></trkpt>
      <trkpt lat="37.985542" lon="-1.137795"></trkpt>
      <trkpt lat="37.98517" lon="-1.13911"></trkpt>
      <trkpt lat="37.985946" lon="-1.139311"></trkpt>
      <trkpt lat="37.985951" lon="-1.139588"></trkpt>
      <trkpt lat="37.985121" lon="-1.139445"></trkpt>
      <trkpt lat="37.985139" lon="-1.139325"></trkpt>
      <trkpt lat="37.984334" lon="-1.139145"></trkpt>
      <trkpt lat="37.983858" lon="-1.139243"></trkpt>
      <trkpt lat="37.982921" lon="-1.139907"></trkpt>
      <trkpt lat="37.984878" lon="-1.141517"></trkpt>
      <trkpt lat="37.990131" lon="-1.145022"></trkpt>
      <trkpt lat="37.994302" lon="-1.148127"></trkpt>
      <trkpt lat="37.99627" lon="-1.149754"></trkpt>
      <trkpt lat="37.997781" lon="-1.151306"></trkpt>
      <trkpt lat="37.999209" lon="-1.15313"></trkpt>
      <trkpt lat="38.00019" lon="-1.154944"></trkpt>
      <trkpt lat="38.000666" lon="-1.156213"></trkpt>
      <trkpt lat="38.001867" lon="-1.160759"></trkpt>
      <trkpt lat="38.002325" lon="-1.161974"></trkpt>
      <trkpt lat="38.002956" lon="-1.163228"></trkpt>
      <trkpt lat="38.004375" lon="-1.16516"></trkpt>
      <trkpt lat="38.005732" lon="-1.166363"></trkpt>
      <trkpt lat="38.006751" lon="-1.166998"></trkpt>
      <trkpt lat="38.008037" lon="-1.167527"></trkpt>
      <trkpt lat="38.009318" lon="-1.167804"></trkpt>
      <trkpt lat="38.010868" lon="-1.167863"></trkpt>
      <trkpt lat="38.012482" lon="-1.167697"></trkpt>
      <trkpt lat="38.013776" lon="-1.167388"></trkpt>
      <trkpt lat="38.017912" lon="-1.165727"></trkpt>
      <trkpt lat="38.024939" lon="-1.164458"></trkpt>
      <trkpt lat="38.02609" lon="-1.163855"></trkpt>
      <trkpt lat="38.026906" lon="-1.163016"></trkpt>
      <trkpt lat="38.027552" lon="-1.161847"></trkpt>
      <trkpt lat="38.028875" lon="-1.157748"></trkpt>
      <trkpt lat="38.029827" lon="-1.1557"></trkpt>
      <trkpt lat="38.030766" lon="-1.154146"></trkpt>
      <trkpt lat="38.032478" lon="-1.151692"></trkpt>
      <trkpt lat="38.038587" lon="-1.143386"></trkpt>
      <trkpt lat="38.041007" lon="-1.139416"></trkpt>
      <trkpt lat="38.042464" lon="-1.136327"></trkpt>
      <trkpt lat="38.04485" lon="-1.129857"></trkpt>
      <trkpt lat="38.045717" lon="-1.127869"></trkpt>
      <trkpt lat="38.047795" lon="-1.123762"></trkpt>
      <trkpt lat="38.04956" lon="-1.12075"></trkpt>
      <trkpt lat="38.050293" lon="-1.119873"></trkpt>
      <trkpt lat="38.051354" lon="-1.11894"></trkpt>
      <trkpt lat="38.052557" lon="-1.118163"></trkpt>
      <trkpt lat="38.055455" lon="-1.116797"></trkpt>
      <trkpt lat="38.056888" lon="-1.115705"></trkpt>
      <trkpt lat="38.058182" lon="-1.114187"></trkpt>
      <trkpt lat="38.059693" lon="-1.111685"></trkpt>
      <trkpt lat="38.060667" lon="-1.110429"></trkpt>
      <trkpt lat="38.064118" lon="-1.107399"></trkpt>
      <trkpt lat="38.0649" lon="-1.106297"></trkpt>
      <trkpt lat="38.065579" lon="-1.105001"></trkpt>
      <trkpt lat="38.066728" lon="-1.10135"></trkpt>
      <trkpt lat="38.067312" lon="-1.100124"></trkpt>
      <trkpt lat="38.068002" lon="-1.099069"></trkpt>
      <trkpt lat="38.069361" lon="-1.097655"></trkpt>
      <trkpt lat="38.070185" lon="-1.097089"></trkpt>
      <trkpt lat="38.072576" lon="-1.095804"></trkpt>
      <trkpt lat="38.073934" lon="-1.094544"></trkpt>
      <trkpt lat="38.074794" lon="-1.093316"></trkpt>
      <trkpt lat="38.076781" lon="-1.089607"></trkpt>
      <trkpt lat="38.077867" lon="-1.08788"></trkpt>
      <trkpt lat="38.080015" lon="-1.084851"></trkpt>
      <trkpt lat="38.083147" lon="-1.081098"></trkpt>
      <trkpt lat="38.08791" lon="-1.076324"></trkpt>
      <trkpt lat="38.089927" lon="-1.0736"></trkpt>
      <trkpt lat="38.091258" lon="-1.071183"></trkpt>
      <trkpt lat="38.092304" lon="-1.068659"></trkpt>
      <trkpt lat="38.092742" lon="-1.067335"></trkpt>
      <trkpt lat="38.093315" lon="-1.064979"></trkpt>
      <trkpt lat="38.093684" lon="-1.06249"></trkpt>
      <trkpt lat="38.094048" lon="-1.057661"></trkpt>
      <trkpt lat="38.094519" lon="-1.055024"></trkpt>
      <trkpt lat="38.095788" lon="-1.050597"></trkpt>
      <trkpt lat="38.097561" lon="-1.045259"></trkpt>
      <trkpt lat="38.099964" lon="-1.038992"></trkpt>
      <trkpt lat="38.101323" lon="-1.035967"></trkpt>
      <trkpt lat="38.102301" lon="-1.034119"></trkpt>
      <trkpt lat="38.103473" lon="-1.032191"></trkpt>
      <trkpt lat="38.104859" lon="-1.030275"></trkpt>
      <trkpt lat="38.108771" lon="-1.025808"></trkpt>
      <trkpt lat="38.109429" lon="-1.024797"></trkpt>
      <trkpt lat="38.110193" lon="-1.023263"></trkpt>
      <trkpt lat="38.111548" lon="-1.018523"></trkpt>
      <trkpt lat="38.112935" lon="-1.012094"></trkpt>
      <trkpt lat="38.113803" lon="-1.008922"></trkpt>
      <trkpt lat="38.114873" lon="-1.005636"></trkpt>
      <trkpt lat="38.116878" lon="-1.000573"></trkpt>
      <trkpt lat="38.117418" lon="-0.998947"></trkpt>
      <trkpt lat="38.118046" lon="-0.996218"></trkpt>
      <trkpt lat="38.118322" lon="-0.993878"></trkpt>
      <trkpt lat="38.118371" lon="-0.991731"></trkpt>
      <trkpt lat="38.118217" lon="-0.986071"></trkpt>
      <trkpt lat="38.118331" lon="-0.982466"></trkpt>
      <trkpt lat="38.118548" lon="-0.979709"></trkpt>
      <trkpt lat="38.118986" lon="-0.976639"></trkpt>
      <trkpt lat="38.119865" lon="-0.973591"></trkpt>
      <trkpt lat="38.120698" lon="-0.971642"></trkpt>
      <trkpt lat="38.123279" lon="-0.966628"></trkpt>
      <trkpt lat="38.125447" lon="-0.96156"></trkpt>
      <trkpt lat="38.126826" lon="-0.958686"></trkpt>
      <trkpt lat="38.128243" lon="-0.956055"></trkpt>
      <trkpt lat="38.130784" lon="-0.951795"></trkpt>
      <trkpt lat="38.132961" lon="-0.947497"></trkpt>
      <trkpt lat="38.134142" lon="-0.945456"></trkpt>
      <trkpt lat="38.135273" lon="-0.943753"></trkpt>
      <trkpt lat="38.13664" lon="-0.941977"></trkpt>
      <trkpt lat="38.137713" lon="-0.940734"></trkpt>
      <trkpt lat="38.140932" lon="-0.937416"></trkpt>
      <trkpt lat="38.142818" lon="-0.935042"></trkpt>
      <trkpt lat="38.143913" lon="-0.933438"></trkpt>
      <trkpt lat="38.14659" lon="-0.928924"></trkpt>
      <trkpt lat="38.148286" lon="-0.926595"></trkpt>
      <trkpt lat="38.150037" lon="-0.924443"></trkpt>
      <trkpt lat="38.150868" lon="-0.923025"></trkpt>
      <trkpt lat="38.151562" lon="-0.921211"></trkpt>
      <trkpt lat="38.151991" lon="-0.918995"></trkpt>
      <trkpt lat="38.151985" lon="-0.916312"></trkpt>
      <trkpt lat="38.151296" lon="-0.912312"></trkpt>
      <trkpt lat="38.151239" lon="-0.910055"></trkpt>
      <trkpt lat="38.151517" lon="-0.907823"></trkpt>
      <trkpt lat="38.152323" lon="-0.90472"></trkpt>
      <trkpt lat="38.153525" lon="-0.901987"></trkpt>
      <trkpt lat="38.156465" lon="-0.897051"></trkpt>
      <trkpt lat="38.15841" lon="-0.893208"></trkpt>
      <trkpt lat="38.160368" lon="-0.888486"></trkpt>
      <trkpt lat="38.162574" lon="-0.881701"></trkpt>
      <trkpt lat="38.163995" lon="-0.877899"></trkpt>
      <trkpt lat="38.166178" lon="-0.87317"></trkpt>
      <trkpt lat="38.168383" lon="-0.869238"></trkpt>
      <trkpt lat="38.170173" lon="-0.866507"></trkpt>
      <trkpt lat="38.173034" lon="-0.862757"></trkpt>
      <trkpt lat="38.174356" lon="-0.861213"></trkpt>
      <trkpt lat="38.177898" lon="-0.857676"></trkpt>
      <trkpt lat="38.178912" lon="-0.856532"></trkpt>
      <trkpt lat="38.183023" lon="-0.851378"></trkpt>
      <trkpt lat="38.184977" lon="-0.849408"></trkpt>
      <trkpt lat="38.188129" lon="-0.846719"></trkpt>
      <trkpt lat="38.190531" lon="-0.84425"></trkpt>
      <trkpt lat="38.192597" lon="-0.84156"></trkpt>
      <trkpt lat="38.195495" lon="-0.836716"></trkpt>
      <trkpt lat="38.196683" lon="-0.835253"></trkpt>
      <trkpt lat="38.198141" lon="-0.834048"></trkpt>
      <trkpt lat="38.201524" lon="-0.831896"></trkpt>
      <trkpt lat="38.202821" lon="-0.831301"></trkpt>
      <trkpt lat="38.205742" lon="-0.830217"></trkpt>
      <trkpt lat="38.207885" lon="-0.82899"></trkpt>
      <trkpt lat="38.208855" lon="-0.828296"></trkpt>
      <trkpt lat="38.210434" lon="-0.826898"></trkpt>
      <trkpt lat="38.212908" lon="-0.82409"></trkpt>
      <trkpt lat="38.214546" lon="-0.821931"></trkpt>
      <trkpt lat="38.216547" lon="-0.818934"></trkpt>
      <trkpt lat="38.217977" lon="-0.816483"></trkpt>
      <trkpt lat="38.219447" lon="-0.813606"></trkpt>
      <trkpt lat="38.221424" lon="-0.809016"></trkpt>
      <trkpt lat="38.223737" lon="-0.801814"></trkpt>
      <trkpt lat="38.226029" lon="-0.797276"></trkpt>
      <trkpt lat="38.227325" lon="-0.794073"></trkpt>
      <trkpt lat="38.228088" lon="-0.792751"></trkpt>
      <trkpt lat="38.228612" lon="-0.792072"></trkpt>
      <trkpt lat="38.229641" lon="-0.79112"></trkpt>
      <trkpt lat="38.233258" lon="-0.788794"></trkpt>
      <trkpt lat="38.235073" lon="-0.787234"></trkpt>
      <trkpt lat="38.236659" lon="-0.785495"></trkpt>
      <trkpt lat="38.238531" lon="-0.783083"></trkpt>
      <trkpt lat="38.241577" lon="-0.780355"></trkpt>
      <trkpt lat="38.242519" lon="-0.778873"></trkpt>
      <trkpt lat="38.243687" lon="-0.77592"></trkpt>
      <trkpt lat="38.244833" lon="-0.774086"></trkpt>
      <trkpt lat="38.246609" lon="-0.771735"></trkpt>
      <trkpt lat="38.249507" lon="-0.768596"></trkpt>
      <trkpt lat="38.250576" lon="-0.767272"></trkpt>
      <trkpt lat="38.252666" lon="-0.764161"></trkpt>
      <trkpt lat="38.254707" lon="-0.762246"></trkpt>
      <trkpt lat="38.255408" lon="-0.761454"></trkpt>
      <trkpt lat="38.256965" lon="-0.758702"></trkpt>
      <trkpt lat="38.257667" lon="-0.757733"></trkpt>
      <trkpt lat="38.258877" lon="-0.756603"></trkpt>
      <trkpt lat="38.259775" lon="-0.756053"></trkpt>
      <trkpt lat="38.263199" lon="-0.75502"></trkpt>
      <trkpt lat="38.264962" lon="-0.75399"></trkpt>
      <trkpt lat="38.266099" lon="-0.752987"></trkpt>
      <trkpt lat="38.268199" lon="-0.750077"></trkpt>
      <trkpt lat="38.269634" lon="-0.748599"></trkpt>
      <trkpt lat="38.270636" lon="-0.74784"></trkpt>
      <trkpt lat="38.273279" lon="-0.74636"></trkpt>
      <trkpt lat="38.275673" lon="-0.744546"></trkpt>
      <trkpt lat="38.278062" lon="-0.743326"></trkpt>
      <trkpt lat="38.27898" lon="-0.742678"></trkpt>
      <trkpt lat="38.280203" lon="-0.741424"></trkpt>
      <trkpt lat="38.281107" lon="-0.740013"></trkpt>
      <trkpt lat="38.281924" lon="-0.737798"></trkpt>
      <trkpt lat="38.282615" lon="-0.733821"></trkpt>
      <trkpt lat="38.283786" lon="-0.730668"></trkpt>
      <trkpt lat="38.284232" lon="-0.729089"></trkpt>
      <trkpt lat="38.284833" lon="-0.72417"></trkpt>
      <trkpt lat="38.285416" lon="-0.721276"></trkpt>
      <trkpt lat="38.286092" lon="-0.7195"></trkpt>
      <trkpt lat="38.286699" lon="-0.71844"></trkpt>
      <trkpt lat="38.28796" lon="-0.716651"></trkpt>
      <trkpt lat="38.288451" lon="-0.715603"></trkpt>
      <trkpt lat="38.288791" lon="-0.714077"></trkpt>
      <trkpt lat="38.288848" lon="-0.711073"></trkpt>
      <trkpt lat="38.289172" lon="-0.709302"></trkpt>
      <trkpt lat="38.289804" lon="-0.707773"></trkpt>
      <trkpt lat="38.291101" lon="-0.705556"></trkpt>
      <trkpt lat="38.291521" lon="-0.704282"></trkpt>
      <trkpt lat="38.292016" lon="-0.700382"></trkpt>
      <trkpt lat="38.293069" lon="-0.696727"></trkpt>
      <trkpt lat="38.293246" lon="-0.695744"></trkpt>
      <trkpt lat="38.293349" lon="-0.694554"></trkpt>
      <trkpt lat="38.293288" lon="-0.691246"></trkpt>
      <trkpt lat="38.293509" lon="-0.689489"></trkpt>
      <trkpt lat="38.296006" lon="-0.681448"></trkpt>
      <trkpt lat="38.297137" lon="-0.677148"></trkpt>
      <trkpt lat="38.298247" lon="-0.672208"></trkpt>
      <trkpt lat="38.299325" lon="-0.666285"></trkpt>
      <trkpt lat="38.300009" lon="-0.661481"></trkpt>
      <trkpt lat="38.300082" lon="-0.658861"></trkpt>
      <trkpt lat="38.29964" lon="-0.655468"></trkpt>
      <trkpt lat="38.299637" lon="-0.65325"></trkpt>
      <trkpt lat="38.299875" lon="-0.651496"></trkpt>
      <trkpt lat="38.300711" lon="-0.647976"></trkpt>
      <trkpt lat="38.300727" lon="-0.646762"></trkpt>
      <trkpt lat="38.300486" lon="-0.644475"></trkpt>
      <trkpt lat="38.300553" lon="-0.643185"></trkpt>
      <trkpt lat="38.300788" lon="-0.642111"></trkpt>
      <trkpt lat="38.301715" lon="-0.639595"></trkpt>
      <trkpt lat="38.301919" lon="-0.638447"></trkpt>
      <trkpt lat="38.30194" lon="-0.636982"></trkpt>
      <trkpt lat="38.301706" lon="-0.634608"></trkpt>
      <trkpt lat="38.301841" lon="-0.632886"></trkpt>
      <trkpt lat="38.303386" lon="-0.627399"></trkpt>
      <trkpt lat="38.304021" lon="-0.622179"></trkpt>
      <trkpt lat="38.304569" lon="-0.619486"></trkpt>
      <trkpt lat="38.305451" lon="-0.616818"></trkpt>
      <trkpt lat="38.306833" lon="-0.613846"></trkpt>
      <trkpt lat="38.307521" lon="-0.612104"></trkpt>
      <trkpt lat="38.308205" lon="-0.609807"></trkpt>
      <trkpt lat="38.30871" lon="-0.607211"></trkpt>
      <trkpt lat="38.308942" lon="-0.604913"></trkpt>
      <trkpt lat="38.308975" lon="-0.602555"></trkpt>
      <trkpt lat="38.308693" lon="-0.599317"></trkpt>
      <trkpt lat="38.308148" lon="-0.596601"></trkpt>
      <trkpt lat="38.306629" lon="-0.591234"></trkpt>
      <trkpt lat="38.306147" lon="-0.588623"></trkpt>
      <trkpt lat="38.305959" lon="-0.586791"></trkpt>
      <trkpt lat="38.305885" lon="-0.585151"></trkpt>
      <trkpt lat="38.305952" lon="-0.582686"></trkpt>
      <trkpt lat="38.306217" lon="-0.580322"></trkpt>
      <trkpt lat="38.306657" lon="-0.578351"></trkpt>
      <trkpt lat="38.307992" lon="-0.574419"></trkpt>
      <trkpt lat="38.308682" lon="-0.571628"></trkpt>
      <trkpt lat="38.309069" lon="-0.570499"></trkpt>
      <trkpt lat="38.309875" lon="-0.568856"></trkpt>
      <trkpt lat="38.311156" lon="-0.567169"></trkpt>
      <trkpt lat="38.312048" lon="-0.566347"></trkpt>
      <trkpt lat="38.314417" lon="-0.564622"></trkpt>
      <trkpt lat="38.31677" lon="-0.56214"></trkpt>
      <trkpt lat="38.318339" lon="-0.560691"></trkpt>
      <trkpt lat="38.320399" lon="-0.559238"></trkpt>
      <trkpt lat="38.322473" lon="-0.558189"></trkpt>
      <trkpt lat="38.323591" lon="-0.557765"></trkpt>
      <trkpt lat="38.324709" lon="-0.557441"></trkpt>
      <trkpt lat="38.327549" lon="-0.55688"></trkpt>
      <trkpt lat="38.328853" lon="-0.556468"></trkpt>
      <trkpt lat="38.330455" lon="-0.555679"></trkpt>
      <trkpt lat="38.331537" lon="-0.554928"></trkpt>
      <trkpt lat="38.333197" lon="-0.553361"></trkpt>
      <trkpt lat="38.333949" lon="-0.55244"></trkpt>
      <trkpt lat="38.337063" lon="-0.547292"></trkpt>
      <trkpt lat="38.339559" lon="-0.544325"></trkpt>
      <trkpt lat="38.339648" lon="-0.543696"></trkpt>
      <trkpt lat="38.339309" lon="-0.541666"></trkpt>
      <trkpt lat="38.336803" lon="-0.532016"></trkpt>
      <trkpt lat="38.336147" lon="-0.529963"></trkpt>
      <trkpt lat="38.334052" lon="-0.524862"></trkpt>
      <trkpt lat="38.333695" lon="-0.523666"></trkpt>
      <trkpt lat="38.333557" lon="-0.522687"></trkpt>
      <trkpt lat="38.333521" lon="-0.51803"></trkpt>
      <trkpt lat="38.333664" lon="-0.515807"></trkpt>
      <trkpt lat="38.335352" lon="-0.508603"></trkpt>
      <trkpt lat="38.335427" lon="-0.507776"></trkpt>
      <trkpt lat="38.335556" lon="-0.507573"></trkpt>
      <trkpt lat="38.33582" lon="-0.507501"></trkpt>
      <trkpt lat="38.336804" lon="-0.507823"></trkpt>
      <trkpt lat="38.339866" lon="-0.508145"></trkpt>
      <trkpt lat="38.34129" lon="-0.507989"></trkpt>
      <trkpt lat="38.34138" lon="-0.507814"></trkpt>
      <trkpt lat="38.34164" lon="-0.507709"></trkpt>
      <trkpt lat="38.342766" lon="-0.503894"></trkpt>
      <trkpt lat="38.343202" lon="-0.494825"></trkpt>
      <trkpt lat="38.343107" lon="-0.494364"></trkpt>
      <trkpt lat="38.343254" lon="-0.494243"></trkpt>
      <trkpt lat="38.344821" lon="-0.494626"></trkpt>
      <trkpt lat="38.345555" lon="-0.494446"></trkpt>
      <trkpt lat="38.345841" lon="-0.496397"></trkpt>
      <trkpt lat="38.346288" lon="-0.496116"></trkpt>
      <trkpt lat="38.346039" lon="-0.494394"></trkpt>
      <trkpt lat="38.344748" lon="-0.494698"></trkpt>
      <trkpt lat="38.343358" lon="-0.49465"></trkpt>
      <trkpt lat="38.343294" lon="-0.494843"></trkpt>
      <trkpt lat="38.342833" lon="-0.504798"></trkpt>
      <trkpt lat="38.342694" lon="-0.505184"></trkpt>
      <trkpt lat="38.342288" lon="-0.505676"></trkpt>
      <trkpt lat="38.341738" lon="-0.50748"></trkpt>
      <trkpt lat="38.341989" lon="-0.508019"></trkpt>
      <trkpt lat="38.339877" lon="-0.50826"></trkpt>
      <trkpt lat="38.336564" lon="-0.50798"></trkpt>
      <trkpt lat="38.33604" lon="-0.508226"></trkpt>
      <trkpt lat="38.334914" lon="-0.511091"></trkpt>
      <trkpt lat="38.334033" lon="-0.514655"></trkpt>
      <trkpt lat="38.333714" lon="-0.51649"></trkpt>
      <trkpt lat="38.333647" lon="-0.518049"></trkpt>
      <trkpt lat="38.333697" lon="-0.522737"></trkpt>
      <trkpt lat="38.333911" lon="-0.524015"></trkpt>
      <trkpt lat="38.336612" lon="-0.530927"></trkpt>
      <trkpt lat="38.339895" lon="-0.543462"></trkpt>
      <trkpt lat="38.340379" lon="-0.544707"></trkpt>
      <trkpt lat="38.3407" lon="-0.545249"></trkpt>
      <trkpt lat="38.34089" lon="-0.545306"></trkpt>
      <trkpt lat="38.341077" lon="-0.545195"></trkpt>
      <trkpt lat="38.341177" lon="-0.544707"></trkpt>
      <trkpt lat="38.341125" lon="-0.544338"></trkpt>
      <trkpt lat="38.340947" lon="-0.544081"></trkpt>
      <trkpt lat="38.340693" lon="-0.54399"></trkpt>
      <trkpt lat="38.340362" lon="-0.544087"></trkpt>
      <trkpt lat="38.339358" lon="-0.544886"></trkpt>
      <trkpt lat="38.338158" lon="-0.546087"></trkpt>
      <trkpt lat="38.336422" lon="-0.548451"></trkpt>
      <trkpt lat="38.334484" lon="-0.551848"></trkpt>
      <trkpt lat="38.333594" lon="-0.55307"></trkpt>
      <trkpt lat="38.33274" lon="-0.553995"></trkpt>
      <trkpt lat="38.331303" lon="-0.555256"></trkpt>
      <trkpt lat="38.329546" lon="-0.556304"></trkpt>
      <trkpt lat="38.327864" lon="-0.556924"></trkpt>
      <trkpt lat="38.324498" lon="-0.557629"></trkpt>
      <trkpt lat="38.322501" lon="-0.558306"></trkpt>
      <trkpt lat="38.320109" lon="-0.559559"></trkpt>
      <trkpt lat="38.317819" lon="-0.561289"></trkpt>
      <trkpt lat="38.314481" lon="-0.56472"></trkpt>
      <trkpt lat="38.311743" lon="-0.56676"></trkpt>
      <trkpt lat="38.31052" lon="-0.568093"></trkpt>
      <trkpt lat="38.309491" lon="-0.569779"></trkpt>
      <trkpt lat="38.308879" lon="-0.571385"></trkpt>
      <trkpt lat="38.308727" lon="-0.572632"></trkpt>
      <trkpt lat="38.30887" lon="-0.574701"></trkpt>
      <trkpt lat="38.308683" lon="-0.575526"></trkpt>
      <trkpt lat="38.308326" lon="-0.576093"></trkpt>
      <trkpt lat="38.307972" lon="-0.576401"></trkpt>
      <trkpt lat="38.30751" lon="-0.576593"></trkpt>
      <trkpt lat="38.307094" lon="-0.576621"></trkpt>
      <trkpt lat="38.305418" lon="-0.576202"></trkpt>
      <trkpt lat="38.303938" lon="-0.575459"></trkpt>
      <trkpt lat="38.302975" lon="-0.574714"></trkpt>
      <trkpt lat="38.30138" lon="-0.573163"></trkpt>
      <trkpt lat="38.300263" lon="-0.572249"></trkpt>
      <trkpt lat="38.298972" lon="-0.571401"></trkpt>
      <trkpt lat="38.295836" lon="-0.569659"></trkpt>
      <trkpt lat="38.294947" lon="-0.568948"></trkpt>
      <trkpt lat="38.293771" lon="-0.567761"></trkpt>
      <trkpt lat="38.292399" lon="-0.565767"></trkpt>
      <trkpt lat="38.291408" lon="-0.563729"></trkpt>
      <trkpt lat="38.290656" lon="-0.561432"></trkpt>
      <trkpt lat="38.290073" lon="-0.558838"></trkpt>
      <trkpt lat="38.289607" lon="-0.558542"></trkpt>
      <trkpt lat="38.288156" lon="-0.558839"></trkpt>
      <trkpt lat="38.287815" lon="-0.558831"></trkpt>
      <trkpt lat="38.287653" lon="-0.558643"></trkpt>
      <trkpt lat="38.287246" lon="-0.555914"></trkpt>
      <trkpt lat="38.286872" lon="-0.554784"></trkpt>
      <trkpt lat="38.286718" lon="-0.553663"></trkpt>
      <trkpt lat="38.286844" lon="-0.553483"></trkpt>
      <trkpt lat="38.287634" lon="-0.553303"></trkpt>
  </trkseg></trk>
</gpx>
