<?xml version="1.0" encoding="UTF-8"?>
<gpx version="1.1" creator="yatutbuv" xmlns="http://www.topografix.com/GPX/1/1">
  <trk><name>GraphHopper Track</name><trkseg>
      <trkpt lat="45.48508" lon="9.204179"></trkpt>
      <trkpt lat="45.484977" lon="9.203942"></trkpt>
      <trkpt lat="45.484636" lon="9.204651"></trkpt>
      <trkpt lat="45.483957" lon="9.203927"></trkpt>
      <trkpt lat="45.484761" lon="9.202269"></trkpt>
      <trkpt lat="45.483865" lon="9.203952"></trkpt>
      <trkpt lat="45.484627" lon="9.204834"></trkpt>
      <trkpt lat="45.484699" lon="9.205339"></trkpt>
      <trkpt lat="45.484445" lon="9.205869"></trkpt>
      <trkpt lat="45.48877" lon="9.210423"></trkpt>
      <trkpt lat="45.485733" lon="9.216708"></trkpt>
      <trkpt lat="45.4858" lon="9.217289"></trkpt>
      <trkpt lat="45.487395" lon="9.220774"></trkpt>
      <trkpt lat="45.490471" lon="9.224506"></trkpt>
      <trkpt lat="45.491594" lon="9.22658"></trkpt>
      <trkpt lat="45.492156" lon="9.229608"></trkpt>
      <trkpt lat="45.49272" lon="9.231257"></trkpt>
      <trkpt lat="45.49423" lon="9.233671"></trkpt>
      <trkpt lat="45.511796" lon="9.256552"></trkpt>
      <trkpt lat="45.512214" lon="9.257527"></trkpt>
      <trkpt lat="45.512378" lon="9.259696"></trkpt>
      <trkpt lat="45.512791" lon="9.261661"></trkpt>
      <trkpt lat="45.51288" lon="9.263099"></trkpt>
      <trkpt lat="45.513209" lon="9.263914"></trkpt>
      <trkpt lat="45.513798" lon="9.264333"></trkpt>
      <trkpt lat="45.514458" lon="9.264207"></trkpt>
      <trkpt lat="45.514831" lon="9.263861"></trkpt>
      <trkpt lat="45.515617" lon="9.262409"></trkpt>
      <trkpt lat="45.51657" lon="9.261971"></trkpt>
      <trkpt lat="45.520092" lon="9.261402"></trkpt>
      <trkpt lat="45.522781" lon="9.260569"></trkpt>
      <trkpt lat="45.523684" lon="9.260587"></trkpt>
      <trkpt lat="45.52447" lon="9.26093"></trkpt>
      <trkpt lat="45.525226" lon="9.261635"></trkpt>
      <trkpt lat="45.525668" lon="9.262331"></trkpt>
      <trkpt lat="45.526436" lon="9.264309"></trkpt>
      <trkpt lat="45.526863" lon="9.265065"></trkpt>
      <trkpt lat="45.527473" lon="9.265792"></trkpt>
      <trkpt lat="45.529285" lon="9.267287"></trkpt>
      <trkpt lat="45.529844" lon="9.267972"></trkpt>
      <trkpt lat="45.53037" lon="9.268902"></trkpt>
      <trkpt lat="45.537507" lon="9.283582"></trkpt>
      <trkpt lat="45.537827" lon="9.284619"></trkpt>
      <trkpt lat="45.537917" lon="9.285617"></trkpt>
      <trkpt lat="45.537849" lon="9.286441"></trkpt>
      <trkpt lat="45.536894" lon="9.2894"></trkpt>
      <trkpt lat="45.536749" lon="9.291312"></trkpt>
      <trkpt lat="45.53886" lon="9.311143"></trkpt>
      <trkpt lat="45.539208" lon="9.312847"></trkpt>
      <trkpt lat="45.539851" lon="9.314394"></trkpt>
      <trkpt lat="45.540894" lon="9.315753"></trkpt>
      <trkpt lat="45.543462" lon="9.317603"></trkpt>
      <trkpt lat="45.544189" lon="9.318389"></trkpt>
      <trkpt lat="45.544794" lon="9.319391"></trkpt>
      <trkpt lat="45.545796" lon="9.321851"></trkpt>
      <trkpt lat="45.546465" lon="9.323199"></trkpt>
      <trkpt lat="45.54725" lon="9.324364"></trkpt>
      <trkpt lat="45.548212" lon="9.3254"></trkpt>
      <trkpt lat="45.549103" lon="9.326127"></trkpt>
      <trkpt lat="45.55025" lon="9.326859"></trkpt>
      <trkpt lat="45.559375" lon="9.332228"></trkpt>
      <trkpt lat="45.561208" lon="9.333913"></trkpt>
      <trkpt lat="45.562553" lon="9.334277"></trkpt>
      <trkpt lat="45.563844" lon="9.335652"></trkpt>
      <trkpt lat="45.564873" lon="9.337404"></trkpt>
      <trkpt lat="45.56578" lon="9.341521"></trkpt>
      <trkpt lat="45.566016" lon="9.342083"></trkpt>
      <trkpt lat="45.566964" lon="9.343374"></trkpt>
      <trkpt lat="45.567496" lon="9.34576"></trkpt>
      <trkpt lat="45.569611" lon="9.360684"></trkpt>
      <trkpt lat="45.574037" lon="9.390306"></trkpt>
      <trkpt lat="45.594588" lon="9.497372"></trkpt>
      <trkpt lat="45.594998" lon="9.499029"></trkpt>
      <trkpt lat="45.596215" lon="9.502954"></trkpt>
      <trkpt lat="45.597027" lon="9.505163"></trkpt>
      <trkpt lat="45.604407" lon="9.527503"></trkpt>
      <trkpt lat="45.612748" lon="9.552041"></trkpt>
      <trkpt lat="45.615073" lon="9.559232"></trkpt>
      <trkpt lat="45.622344" lon="9.580378"></trkpt>
      <trkpt lat="45.623228" lon="9.582827"></trkpt>
      <trkpt lat="45.624134" lon="9.584917"></trkpt>
      <trkpt lat="45.626165" lon="9.588733"></trkpt>
      <trkpt lat="45.631917" lon="9.598902"></trkpt>
      <trkpt lat="45.666245" lon="9.660809"></trkpt>
      <trkpt lat="45.667085" lon="9.662705"></trkpt>
      <trkpt lat="45.668866" lon="9.665867"></trkpt>
      <trkpt lat="45.669297" lon="9.667031"></trkpt>
      <trkpt lat="45.669453" lon="9.668107"></trkpt>
      <trkpt lat="45.669393" lon="9.668998"></trkpt>
      <trkpt lat="45.669088" lon="9.66934"></trkpt>
      <trkpt lat="45.668806" lon="9.669287"></trkpt>
      <trkpt lat="45.668653" lon="9.669114"></trkpt>
      <trkpt lat="45.668571" lon="9.668805"></trkpt>
      <trkpt lat="45.668638" lon="9.66843"></trkpt>
      <trkpt lat="45.668861" lon="9.668169"></trkpt>
      <trkpt lat="45.669157" lon="9.668093"></trkpt>
      <trkpt lat="45.67298" lon="9.669017"></trkpt>
      <trkpt lat="45.674093" lon="9.668995"></trkpt>
      <trkpt lat="45.67485" lon="9.669121"></trkpt>
      <trkpt lat="45.675233" lon="9.669398"></trkpt>
      <trkpt lat="45.675446" lon="9.669926"></trkpt>
      <trkpt lat="45.675457" lon="9.672868"></trkpt>
      <trkpt lat="45.674951" lon="9.678709"></trkpt>
      <trkpt lat="45.675069" lon="9.680609"></trkpt>
      <trkpt lat="45.675358" lon="9.681899"></trkpt>
      <trkpt lat="45.675801" lon="9.68311"></trkpt>
      <trkpt lat="45.678692" lon="9.688969"></trkpt>
      <trkpt lat="45.679198" lon="9.690466"></trkpt>
      <trkpt lat="45.679432" lon="9.69154"></trkpt>
      <trkpt lat="45.679638" lon="9.694141"></trkpt>
      <trkpt lat="45.679405" lon="9.70156"></trkpt>
      <trkpt lat="45.679131" lon="9.703006"></trkpt>
      <trkpt lat="45.678815" lon="9.703978"></trkpt>
      <trkpt lat="45.676695" lon="9.708217"></trkpt>
      <trkpt lat="45.675724" lon="9.710448"></trkpt>
      <trkpt lat="45.673307" lon="9.717195"></trkpt>
      <trkpt lat="45.671902" lon="9.720677"></trkpt>
      <trkpt lat="45.670925" lon="9.722619"></trkpt>
      <trkpt lat="45.66986" lon="9.723065"></trkpt>
      <trkpt lat="45.669335" lon="9.72352"></trkpt>
      <trkpt lat="45.669086" lon="9.723956"></trkpt>
      <trkpt lat="45.668845" lon="9.724624"></trkpt>
      <trkpt lat="45.668699" lon="9.725758"></trkpt>
      <trkpt lat="45.668749" lon="9.726018"></trkpt>
      <trkpt lat="45.668952" lon="9.726174"></trkpt>
      <trkpt lat="45.670599" lon="9.725422"></trkpt>
      <trkpt lat="45.671608" lon="9.724532"></trkpt>
      <trkpt lat="45.671988" lon="9.723986"></trkpt>
      <trkpt lat="45.672166" lon="9.723214"></trkpt>
      <trkpt lat="45.671962" lon="9.722018"></trkpt>
      <trkpt lat="45.672117" lon="9.720938"></trkpt>
      <trkpt lat="45.673203" lon="9.718232"></trkpt>
      <trkpt lat="45.675004" lon="9.7131"></trkpt>
      <trkpt lat="45.675341" lon="9.712727"></trkpt>
      <trkpt lat="45.675555" lon="9.712057"></trkpt>
      <trkpt lat="45.675543" lon="9.71188"></trkpt>
      <trkpt lat="45.674989" lon="9.711513"></trkpt>
      <trkpt lat="45.674748" lon="9.711707"></trkpt>
      <trkpt lat="45.674388" lon="9.712378"></trkpt>
      <trkpt lat="45.674167" lon="9.71238"></trkpt>
      <trkpt lat="45.673242" lon="9.711953"></trkpt>
      <trkpt lat="45.673018" lon="9.711428"></trkpt>
      <trkpt lat="45.673102" lon="9.710269"></trkpt>
      <trkpt lat="45.674312" lon="9.70375"></trkpt>
      <trkpt lat="45.674483" lon="9.70369"></trkpt>
      <trkpt lat="45.674535" lon="9.703535"></trkpt>
  </trkseg></trk>
</gpx>
