<?xml version="1.0" encoding="UTF-8"?>
<gpx version="1.1" creator="yatutbuv" xmlns="http://www.topografix.com/GPX/1/1">
  <trk><name>GraphHopper Track</name><trkseg>
      <trkpt lat="59.411023" lon="24.857493"></trkpt>
      <trkpt lat="59.411053" lon="24.849557"></trkpt>
      <trkpt lat="59.410953" lon="24.849372"></trkpt>
      <trkpt lat="59.41005" lon="24.849364"></trkpt>
      <trkpt lat="59.410055" lon="24.847928"></trkpt>
      <trkpt lat="59.410206" lon="24.84745"></trkpt>
      <trkpt lat="59.411375" lon="24.847388"></trkpt>
      <trkpt lat="59.411425" lon="24.847293"></trkpt>
      <trkpt lat="59.412012" lon="24.843425"></trkpt>
      <trkpt lat="59.412275" lon="24.836697"></trkpt>
      <trkpt lat="59.412221" lon="24.825913"></trkpt>
      <trkpt lat="59.412166" lon="24.824543"></trkpt>
      <trkpt lat="59.411928" lon="24.824665"></trkpt>
      <trkpt lat="59.411876" lon="24.819389"></trkpt>
      <trkpt lat="59.411769" lon="24.819129"></trkpt>
      <trkpt lat="59.410836" lon="24.81822"></trkpt>
      <trkpt lat="59.410308" lon="24.816847"></trkpt>
      <trkpt lat="59.410266" lon="24.816068"></trkpt>
      <trkpt lat="59.410601" lon="24.815246"></trkpt>
      <trkpt lat="59.410634" lon="24.814603"></trkpt>
      <trkpt lat="59.410242" lon="24.813518"></trkpt>
      <trkpt lat="59.408427" lon="24.809831"></trkpt>
      <trkpt lat="59.408075" lon="24.806426"></trkpt>
      <trkpt lat="59.416892" lon="24.795817"></trkpt>
      <trkpt lat="59.424073" lon="24.786"></trkpt>
      <trkpt lat="59.42611" lon="24.780986"></trkpt>
      <trkpt lat="59.427833" lon="24.777563"></trkpt>
      <trkpt lat="59.431342" lon="24.769239"></trkpt>
      <trkpt lat="59.432453" lon="24.76452"></trkpt>
      <trkpt lat="59.432873" lon="24.763404"></trkpt>
      <trkpt lat="59.434462" lon="24.764305"></trkpt>
      <trkpt lat="59.4353" lon="24.764697"></trkpt>
      <trkpt lat="59.435771" lon="24.764763"></trkpt>
      <trkpt lat="59.437515" lon="24.764728"></trkpt>
      <trkpt lat="59.43916" lon="24.763971"></trkpt>
      <trkpt lat="59.439986" lon="24.763446"></trkpt>
      <trkpt lat="59.440071" lon="24.763111"></trkpt>
      <trkpt lat="59.439836" lon="24.761606"></trkpt>
      <trkpt lat="59.439852" lon="24.760489"></trkpt>
      <trkpt lat="59.441005" lon="24.754391"></trkpt>
      <trkpt lat="59.44132" lon="24.7535"></trkpt>
      <trkpt lat="59.442085" lon="24.75272"></trkpt>
      <trkpt lat="59.441949" lon="24.752525"></trkpt>
      <trkpt lat="59.440873" lon="24.753589"></trkpt>
      <trkpt lat="59.440354" lon="24.753607"></trkpt>
      <trkpt lat="59.440167" lon="24.752727"></trkpt>
      <trkpt lat="59.440225" lon="24.751253"></trkpt>
  </trkseg></trk>
</gpx>
