<?xml version="1.0" encoding="UTF-8"?>
<gpx version="1.1" creator="yatutbuv" xmlns="http://www.topografix.com/GPX/1/1">
  <trk><name>GraphHopper Track</name><trkseg>
      <trkpt lat="49.834496" lon="24.009278"></trkpt>
      <trkpt lat="49.834742" lon="24.009518"></trkpt>
      <trkpt lat="49.834803" lon="24.007279"></trkpt>
      <trkpt lat="49.83544" lon="24.005279"></trkpt>
      <trkpt lat="49.83598" lon="24.004625"></trkpt>
      <trkpt lat="49.837121" lon="24.003881"></trkpt>
      <trkpt lat="49.838187" lon="24.006947"></trkpt>
      <trkpt lat="49.842614" lon="24.018201"></trkpt>
      <trkpt lat="49.843209" lon="24.022765"></trkpt>
      <trkpt lat="49.844253" lon="24.024745"></trkpt>
      <trkpt lat="49.844682" lon="24.0268"></trkpt>
      <trkpt lat="49.844758" lon="24.029252"></trkpt>
      <trkpt lat="49.846357" lon="24.029104"></trkpt>
      <trkpt lat="49.847216" lon="24.028537"></trkpt>
      <trkpt lat="49.848043" lon="24.027805"></trkpt>
      <trkpt lat="49.850435" lon="24.026753"></trkpt>
      <trkpt lat="49.850952" lon="24.026836"></trkpt>
      <trkpt lat="49.850716" lon="24.029013"></trkpt>
      <trkpt lat="49.851397" lon="24.030163"></trkpt>
      <trkpt lat="49.853058" lon="24.035284"></trkpt>
      <trkpt lat="49.85401" lon="24.043929"></trkpt>
      <trkpt lat="49.864194" lon="24.052527"></trkpt>
      <trkpt lat="49.864847" lon="24.053601"></trkpt>
      <trkpt lat="49.865576" lon="24.053576"></trkpt>
      <trkpt lat="49.87351" lon="24.060363"></trkpt>
      <trkpt lat="49.87399" lon="24.06085"></trkpt>
      <trkpt lat="49.874233" lon="24.061472"></trkpt>
      <trkpt lat="49.874508" lon="24.061708"></trkpt>
      <trkpt lat="49.874843" lon="24.063842"></trkpt>
      <trkpt lat="49.875034" lon="24.064097"></trkpt>
      <trkpt lat="49.875433" lon="24.064212"></trkpt>
      <trkpt lat="49.883943" lon="24.059383"></trkpt>
      <trkpt lat="49.889797" lon="24.059353"></trkpt>
      <trkpt lat="49.890521" lon="24.059254"></trkpt>
      <trkpt lat="49.909044" lon="24.054435"></trkpt>
      <trkpt lat="49.912912" lon="24.053536"></trkpt>
      <trkpt lat="49.928971" lon="24.052922"></trkpt>
      <trkpt lat="49.929625" lon="24.052666"></trkpt>
      <trkpt lat="49.931755" lon="24.05138"></trkpt>
      <trkpt lat="49.93315" lon="24.051224"></trkpt>
      <trkpt lat="49.934223" lon="24.051398"></trkpt>
      <trkpt lat="49.944721" lon="24.054321"></trkpt>
      <trkpt lat="49.94742" lon="24.054852"></trkpt>
      <trkpt lat="49.949282" lon="24.04108"></trkpt>
      <trkpt lat="49.954441" lon="24.015339"></trkpt>
      <trkpt lat="49.954538" lon="24.014578"></trkpt>
      <trkpt lat="49.954621" lon="24.00931"></trkpt>
  </trkseg></trk>
</gpx>
