<?xml version="1.0" encoding="UTF-8"?>
<gpx version="1.1" creator="yatutbuv" xmlns="http://www.topografix.com/GPX/1/1">
  <trk><name>GraphHopper Track</name><trkseg>
      <trkpt lat="46.630193" lon="32.738783"></trkpt>
      <trkpt lat="46.630149" lon="32.735378"></trkpt>
      <trkpt lat="46.629728" lon="32.735511"></trkpt>
      <trkpt lat="46.628889" lon="32.735539"></trkpt>
      <trkpt lat="46.628983" lon="32.740072"></trkpt>
      <trkpt lat="46.627411" lon="32.739794"></trkpt>
      <trkpt lat="46.625895" lon="32.739258"></trkpt>
      <trkpt lat="46.624933" lon="32.739288"></trkpt>
      <trkpt lat="46.624621" lon="32.739159"></trkpt>
      <trkpt lat="46.624171" lon="32.739556"></trkpt>
      <trkpt lat="46.622812" lon="32.739951"></trkpt>
      <trkpt lat="46.615987" lon="32.740516"></trkpt>
      <trkpt lat="46.61479" lon="32.740785"></trkpt>
      <trkpt lat="46.614213" lon="32.74095"></trkpt>
      <trkpt lat="46.613673" lon="32.741276"></trkpt>
      <trkpt lat="46.612004" lon="32.742479"></trkpt>
      <trkpt lat="46.608999" lon="32.745177"></trkpt>
      <trkpt lat="46.606697" lon="32.746789"></trkpt>
      <trkpt lat="46.605985" lon="32.747098"></trkpt>
      <trkpt lat="46.605384" lon="32.747185"></trkpt>
      <trkpt lat="46.604132" lon="32.747141"></trkpt>
      <trkpt lat="46.60315" lon="32.746903"></trkpt>
      <trkpt lat="46.602846" lon="32.745187"></trkpt>
      <trkpt lat="46.599521" lon="32.734368"></trkpt>
      <trkpt lat="46.598787" lon="32.731634"></trkpt>
      <trkpt lat="46.598656" lon="32.730272"></trkpt>
      <trkpt lat="46.598699" lon="32.729308"></trkpt>
      <trkpt lat="46.599762" lon="32.724223"></trkpt>
      <trkpt lat="46.599929" lon="32.72267"></trkpt>
      <trkpt lat="46.600125" lon="32.717786"></trkpt>
      <trkpt lat="46.599837" lon="32.716626"></trkpt>
      <trkpt lat="46.599091" lon="32.714893"></trkpt>
      <trkpt lat="46.597811" lon="32.713442"></trkpt>
      <trkpt lat="46.595614" lon="32.712507"></trkpt>
      <trkpt lat="46.587943" lon="32.707104"></trkpt>
      <trkpt lat="46.585333" lon="32.706014"></trkpt>
      <trkpt lat="46.58185" lon="32.705402"></trkpt>
      <trkpt lat="46.577758" lon="32.705272"></trkpt>
      <trkpt lat="46.576874" lon="32.705046"></trkpt>
      <trkpt lat="46.576021" lon="32.704578"></trkpt>
      <trkpt lat="46.574753" lon="32.703387"></trkpt>
      <trkpt lat="46.571611" lon="32.699001"></trkpt>
      <trkpt lat="46.570405" lon="32.697108"></trkpt>
      <trkpt lat="46.569806" lon="32.695977"></trkpt>
      <trkpt lat="46.562541" lon="32.679435"></trkpt>
      <trkpt lat="46.561945" lon="32.678275"></trkpt>
      <trkpt lat="46.558919" lon="32.673758"></trkpt>
      <trkpt lat="46.55596" lon="32.670017"></trkpt>
      <trkpt lat="46.555266" lon="32.668856"></trkpt>
      <trkpt lat="46.551473" lon="32.660208"></trkpt>
      <trkpt lat="46.548554" lon="32.651276"></trkpt>
      <trkpt lat="46.545016" lon="32.64561"></trkpt>
      <trkpt lat="46.541891" lon="32.637621"></trkpt>
      <trkpt lat="46.538658" lon="32.630498"></trkpt>
      <trkpt lat="46.532746" lon="32.621847"></trkpt>
      <trkpt lat="46.531586" lon="32.619602"></trkpt>
      <trkpt lat="46.531289" lon="32.618667"></trkpt>
      <trkpt lat="46.531189" lon="32.61787"></trkpt>
      <trkpt lat="46.531089" lon="32.615279"></trkpt>
      <trkpt lat="46.531114" lon="32.609957"></trkpt>
      <trkpt lat="46.532725" lon="32.598993"></trkpt>
      <trkpt lat="46.53275" lon="32.594093"></trkpt>
      <trkpt lat="46.533146" lon="32.582923"></trkpt>
      <trkpt lat="46.533791" lon="32.572078"></trkpt>
      <trkpt lat="46.533692" lon="32.570168"></trkpt>
      <trkpt lat="46.533471" lon="32.568894"></trkpt>
      <trkpt lat="46.530267" lon="32.560457"></trkpt>
      <trkpt lat="46.529669" lon="32.559857"></trkpt>
      <trkpt lat="46.525951" lon="32.557647"></trkpt>
      <trkpt lat="46.525457" lon="32.557236"></trkpt>
      <trkpt lat="46.524153" lon="32.55569"></trkpt>
      <trkpt lat="46.522486" lon="32.553455"></trkpt>
      <trkpt lat="46.512138" lon="32.528188"></trkpt>
      <trkpt lat="46.508706" lon="32.520108"></trkpt>
      <trkpt lat="46.507459" lon="32.517049"></trkpt>
      <trkpt lat="46.506402" lon="32.514001"></trkpt>
      <trkpt lat="46.503164" lon="32.517513"></trkpt>
      <trkpt lat="46.502648" lon="32.517793"></trkpt>
      <trkpt lat="46.495231" lon="32.517871"></trkpt>
      <trkpt lat="46.479555" lon="32.519241"></trkpt>
      <trkpt lat="46.476074" lon="32.519377"></trkpt>
      <trkpt lat="46.475367" lon="32.519602"></trkpt>
      <trkpt lat="46.469953" lon="32.521907"></trkpt>
      <trkpt lat="46.458602" lon="32.531863"></trkpt>
      <trkpt lat="46.440979" lon="32.541819"></trkpt>
      <trkpt lat="46.4395" lon="32.542463"></trkpt>
      <trkpt lat="46.435922" lon="32.542678"></trkpt>
      <trkpt lat="46.434354" lon="32.543407"></trkpt>
      <trkpt lat="46.426131" lon="32.552462"></trkpt>
      <trkpt lat="46.423676" lon="32.558556"></trkpt>
      <trkpt lat="46.416014" lon="32.569929"></trkpt>
      <trkpt lat="46.412493" lon="32.576323"></trkpt>
      <trkpt lat="46.406841" lon="32.580443"></trkpt>
      <trkpt lat="46.399383" lon="32.588511"></trkpt>
      <trkpt lat="46.392783" lon="32.592245"></trkpt>
      <trkpt lat="46.389072" lon="32.594057"></trkpt>
      <trkpt lat="46.387337" lon="32.595163"></trkpt>
      <trkpt lat="46.385945" lon="32.595678"></trkpt>
      <trkpt lat="46.383547" lon="32.595936"></trkpt>
      <trkpt lat="46.345048" lon="32.604562"></trkpt>
      <trkpt lat="46.320438" lon="32.613978"></trkpt>
      <trkpt lat="46.311965" lon="32.619901"></trkpt>
      <trkpt lat="46.31047" lon="32.621254"></trkpt>
      <trkpt lat="46.298953" lon="32.635206"></trkpt>
      <trkpt lat="46.288075" lon="32.648163"></trkpt>
      <trkpt lat="46.287327" lon="32.648686"></trkpt>
      <trkpt lat="46.286795" lon="32.648883"></trkpt>
      <trkpt lat="46.282389" lon="32.649737"></trkpt>
      <trkpt lat="46.282535" lon="32.65323"></trkpt>
      <trkpt lat="46.278597" lon="32.653861"></trkpt>
      <trkpt lat="46.277462" lon="32.653949"></trkpt>
      <trkpt lat="46.277101" lon="32.654039"></trkpt>
      <trkpt lat="46.276568" lon="32.654382"></trkpt>
      <trkpt lat="46.27596" lon="32.655209"></trkpt>
      <trkpt lat="46.242435" lon="32.709886"></trkpt>
      <trkpt lat="46.238511" lon="32.7191"></trkpt>
      <trkpt lat="46.236164" lon="32.728172"></trkpt>
      <trkpt lat="46.235848" lon="32.729054"></trkpt>
      <trkpt lat="46.225277" lon="32.737118"></trkpt>
      <trkpt lat="46.220373" lon="32.740699"></trkpt>
      <trkpt lat="46.217856" lon="32.746156"></trkpt>
      <trkpt lat="46.211193" lon="32.753361"></trkpt>
      <trkpt lat="46.169923" lon="32.805577"></trkpt>
      <trkpt lat="46.16947" lon="32.806266"></trkpt>
      <trkpt lat="46.168388" lon="32.809399"></trkpt>
      <trkpt lat="46.167903" lon="32.810386"></trkpt>
      <trkpt lat="46.16742" lon="32.811031"></trkpt>
      <trkpt lat="46.167079" lon="32.811322"></trkpt>
      <trkpt lat="46.165411" lon="32.811765"></trkpt>
      <trkpt lat="46.163974" lon="32.813049"></trkpt>
      <trkpt lat="46.161353" lon="32.816255"></trkpt>
      <trkpt lat="46.156741" lon="32.82225"></trkpt>
      <trkpt lat="46.141321" lon="32.842575"></trkpt>
      <trkpt lat="46.135361" lon="32.857262"></trkpt>
      <trkpt lat="46.121943" lon="32.891217"></trkpt>
      <trkpt lat="46.119901" lon="32.91003"></trkpt>
  </trkseg></trk>
</gpx>
