<?xml version="1.0" encoding="UTF-8"?>
<gpx version="1.1" creator="yatutbuv" xmlns="http://www.topografix.com/GPX/1/1">
  <trk><name>GraphHopper Track</name><trkseg>
      <trkpt lat="46.938908" lon="32.061038"></trkpt>
      <trkpt lat="46.941459" lon="32.057278"></trkpt>
      <trkpt lat="46.941715" lon="32.057034"></trkpt>
      <trkpt lat="46.942275" lon="32.056799"></trkpt>
      <trkpt lat="46.942405" lon="32.055958"></trkpt>
      <trkpt lat="46.942797" lon="32.055308"></trkpt>
      <trkpt lat="46.956567" lon="32.035209"></trkpt>
      <trkpt lat="46.957059" lon="32.03373"></trkpt>
      <trkpt lat="46.957725" lon="32.033455"></trkpt>
      <trkpt lat="46.963355" lon="32.034036"></trkpt>
      <trkpt lat="46.963867" lon="32.034494"></trkpt>
      <trkpt lat="46.964108" lon="32.034325"></trkpt>
      <trkpt lat="46.966075" lon="32.003799"></trkpt>
      <trkpt lat="46.970289" lon="32.004256"></trkpt>
      <trkpt lat="46.970653" lon="32.00402"></trkpt>
      <trkpt lat="46.97844" lon="31.979386"></trkpt>
      <trkpt lat="46.978002" lon="31.976101"></trkpt>
      <trkpt lat="46.981784" lon="31.970438"></trkpt>
      <trkpt lat="46.989338" lon="31.960356"></trkpt>
      <trkpt lat="46.99002" lon="31.959204"></trkpt>
      <trkpt lat="46.99049" lon="31.958153"></trkpt>
      <trkpt lat="46.992136" lon="31.952945"></trkpt>
      <trkpt lat="46.992547" lon="31.950949"></trkpt>
      <trkpt lat="46.992615" lon="31.948183"></trkpt>
      <trkpt lat="46.992476" lon="31.940791"></trkpt>
      <trkpt lat="46.992372" lon="31.938025"></trkpt>
      <trkpt lat="46.992099" lon="31.936127"></trkpt>
      <trkpt lat="46.986915" lon="31.914632"></trkpt>
      <trkpt lat="46.985521" lon="31.906468"></trkpt>
      <trkpt lat="46.982125" lon="31.888361"></trkpt>
      <trkpt lat="46.981563" lon="31.884843"></trkpt>
      <trkpt lat="46.980464" lon="31.876229"></trkpt>
      <trkpt lat="46.97695" lon="31.844513"></trkpt>
      <trkpt lat="46.976309" lon="31.834174"></trkpt>
      <trkpt lat="46.975646" lon="31.818307"></trkpt>
      <trkpt lat="46.974827" lon="31.80866"></trkpt>
      <trkpt lat="46.974181" lon="31.804806"></trkpt>
      <trkpt lat="46.970942" lon="31.793114"></trkpt>
      <trkpt lat="46.969067" lon="31.785137"></trkpt>
      <trkpt lat="46.967888" lon="31.778983"></trkpt>
      <trkpt lat="46.965694" lon="31.764274"></trkpt>
      <trkpt lat="46.964839" lon="31.760479"></trkpt>
      <trkpt lat="46.962135" lon="31.750106"></trkpt>
      <trkpt lat="46.95426" lon="31.725296"></trkpt>
      <trkpt lat="46.949647" lon="31.706108"></trkpt>
      <trkpt lat="46.942805" lon="31.676605"></trkpt>
      <trkpt lat="46.941061" lon="31.668689"></trkpt>
      <trkpt lat="46.939796" lon="31.663749"></trkpt>
      <trkpt lat="46.93917" lon="31.659331"></trkpt>
      <trkpt lat="46.932616" lon="31.628416"></trkpt>
      <trkpt lat="46.929118" lon="31.616993"></trkpt>
      <trkpt lat="46.928825" lon="31.615751"></trkpt>
      <trkpt lat="46.904494" lon="31.635122"></trkpt>
      <trkpt lat="46.90342" lon="31.635584"></trkpt>
      <trkpt lat="46.89222" lon="31.638847"></trkpt>
      <trkpt lat="46.891148" lon="31.639431"></trkpt>
      <trkpt lat="46.881244" lon="31.645732"></trkpt>
      <trkpt lat="46.878276" lon="31.646629"></trkpt>
      <trkpt lat="46.849051" lon="31.654116"></trkpt>
      <trkpt lat="46.835497" lon="31.65773"></trkpt>
      <trkpt lat="46.826887" lon="31.660278"></trkpt>
      <trkpt lat="46.826215" lon="31.660607"></trkpt>
      <trkpt lat="46.825751" lon="31.661181"></trkpt>
      <trkpt lat="46.825096" lon="31.662683"></trkpt>
      <trkpt lat="46.823019" lon="31.670011"></trkpt>
      <trkpt lat="46.822355" lon="31.676565"></trkpt>
      <trkpt lat="46.822263" lon="31.676979"></trkpt>
      <trkpt lat="46.821957" lon="31.677306"></trkpt>
      <trkpt lat="46.821742" lon="31.677382"></trkpt>
      <trkpt lat="46.815226" lon="31.676392"></trkpt>
      <trkpt lat="46.803015" lon="31.675294"></trkpt>
      <trkpt lat="46.80228" lon="31.674898"></trkpt>
      <trkpt lat="46.796506" lon="31.668498"></trkpt>
      <trkpt lat="46.795634" lon="31.667781"></trkpt>
      <trkpt lat="46.786831" lon="31.663515"></trkpt>
      <trkpt lat="46.783877" lon="31.661773"></trkpt>
      <trkpt lat="46.771759" lon="31.653956"></trkpt>
      <trkpt lat="46.760581" lon="31.64649"></trkpt>
      <trkpt lat="46.752372" lon="31.640835"></trkpt>
      <trkpt lat="46.731204" lon="31.622684"></trkpt>
      <trkpt lat="46.717786" lon="31.614887"></trkpt>
      <trkpt lat="46.711976" lon="31.611394"></trkpt>
      <trkpt lat="46.695337" lon="31.603557"></trkpt>
      <trkpt lat="46.694047" lon="31.602755"></trkpt>
      <trkpt lat="46.678207" lon="31.5912"></trkpt>
      <trkpt lat="46.652567" lon="31.575553"></trkpt>
      <trkpt lat="46.631665" lon="31.561527"></trkpt>
      <trkpt lat="46.625708" lon="31.556688"></trkpt>
      <trkpt lat="46.625056" lon="31.555696"></trkpt>
      <trkpt lat="46.624415" lon="31.554191"></trkpt>
      <trkpt lat="46.623465" lon="31.553103"></trkpt>
      <trkpt lat="46.6208" lon="31.55172"></trkpt>
      <trkpt lat="46.619764" lon="31.550978"></trkpt>
      <trkpt lat="46.617682" lon="31.552189"></trkpt>
      <trkpt lat="46.616988" lon="31.549809"></trkpt>
      <trkpt lat="46.615437" lon="31.550713"></trkpt>
      <trkpt lat="46.613904" lon="31.545745"></trkpt>
  </trkseg></trk>
</gpx>
