<?xml version="1.0" encoding="UTF-8"?>
<gpx version="1.1" creator="yatutbuv" xmlns="http://www.topografix.com/GPX/1/1">
  <trk><name>GraphHopper Track</name><trkseg>
      <trkpt lat="48.734151" lon="-122.487457"></trkpt>
      <trkpt lat="48.734334" lon="-122.48813"></trkpt>
      <trkpt lat="48.733977" lon="-122.488359"></trkpt>
      <trkpt lat="48.733755" lon="-122.488317"></trkpt>
      <trkpt lat="48.733591" lon="-122.488559"></trkpt>
      <trkpt lat="48.732407" lon="-122.489462"></trkpt>
      <trkpt lat="48.731835" lon="-122.490136"></trkpt>
      <trkpt lat="48.731427" lon="-122.490207"></trkpt>
      <trkpt lat="48.731175" lon="-122.490413"></trkpt>
      <trkpt lat="48.730979" lon="-122.488799"></trkpt>
      <trkpt lat="48.730974" lon="-122.487643"></trkpt>
      <trkpt lat="48.726398" lon="-122.48771"></trkpt>
      <trkpt lat="48.726387" lon="-122.485332"></trkpt>
      <trkpt lat="48.726673" lon="-122.484163"></trkpt>
      <trkpt lat="48.728938" lon="-122.481681"></trkpt>
      <trkpt lat="48.72951" lon="-122.480879"></trkpt>
      <trkpt lat="48.733503" lon="-122.471326"></trkpt>
      <trkpt lat="48.733641" lon="-122.469869"></trkpt>
      <trkpt lat="48.731653" lon="-122.468685"></trkpt>
      <trkpt lat="48.731283" lon="-122.468226"></trkpt>
      <trkpt lat="48.731754" lon="-122.467584"></trkpt>
      <trkpt lat="48.732145" lon="-122.467286"></trkpt>
      <trkpt lat="48.732806" lon="-122.466926"></trkpt>
      <trkpt lat="48.732937" lon="-122.46719"></trkpt>
      <trkpt lat="48.733133" lon="-122.467292"></trkpt>
      <trkpt lat="48.734565" lon="-122.467251"></trkpt>
      <trkpt lat="48.739425" lon="-122.467424"></trkpt>
      <trkpt lat="48.742503" lon="-122.467314"></trkpt>
      <trkpt lat="48.74354" lon="-122.466969"></trkpt>
      <trkpt lat="48.746992" lon="-122.46491"></trkpt>
      <trkpt lat="48.754332" lon="-122.461923"></trkpt>
      <trkpt lat="48.755441" lon="-122.461627"></trkpt>
      <trkpt lat="48.764127" lon="-122.461604"></trkpt>
      <trkpt lat="48.766762" lon="-122.461923"></trkpt>
      <trkpt lat="48.770068" lon="-122.462655"></trkpt>
      <trkpt lat="48.771019" lon="-122.462516"></trkpt>
      <trkpt lat="48.771356" lon="-122.462583"></trkpt>
      <trkpt lat="48.775684" lon="-122.450957"></trkpt>
      <trkpt lat="48.777538" lon="-122.441"></trkpt>
      <trkpt lat="48.781911" lon="-122.431267"></trkpt>
      <trkpt lat="48.78897" lon="-122.422004"></trkpt>
      <trkpt lat="48.789384" lon="-122.421588"></trkpt>
      <trkpt lat="48.790862" lon="-122.420639"></trkpt>
      <trkpt lat="48.791247" lon="-122.42022"></trkpt>
      <trkpt lat="48.798154" lon="-122.409654"></trkpt>
      <trkpt lat="48.798864" lon="-122.408197"></trkpt>
      <trkpt lat="48.799795" lon="-122.405045"></trkpt>
      <trkpt lat="48.803256" lon="-122.398857"></trkpt>
      <trkpt lat="48.803835" lon="-122.39734"></trkpt>
      <trkpt lat="48.804109" lon="-122.395586"></trkpt>
      <trkpt lat="48.804144" lon="-122.37893"></trkpt>
      <trkpt lat="48.803667" lon="-122.351464"></trkpt>
      <trkpt lat="48.803749" lon="-122.349984"></trkpt>
      <trkpt lat="48.804103" lon="-122.348792"></trkpt>
      <trkpt lat="48.818129" lon="-122.327101"></trkpt>
      <trkpt lat="48.823913" lon="-122.317874"></trkpt>
      <trkpt lat="48.831385" lon="-122.306635"></trkpt>
      <trkpt lat="48.831677" lon="-122.305996"></trkpt>
      <trkpt lat="48.831999" lon="-122.305636"></trkpt>
      <trkpt lat="48.832158" lon="-122.305136"></trkpt>
      <trkpt lat="48.832527" lon="-122.304938"></trkpt>
      <trkpt lat="48.833129" lon="-122.304303"></trkpt>
      <trkpt lat="48.841075" lon="-122.295259"></trkpt>
      <trkpt lat="48.841805" lon="-122.293773"></trkpt>
      <trkpt lat="48.843133" lon="-122.290203"></trkpt>
      <trkpt lat="48.843331" lon="-122.289283"></trkpt>
      <trkpt lat="48.843282" lon="-122.288849"></trkpt>
      <trkpt lat="48.84353" lon="-122.287927"></trkpt>
      <trkpt lat="48.843588" lon="-122.286958"></trkpt>
      <trkpt lat="48.84342" lon="-122.265768"></trkpt>
      <trkpt lat="48.843101" lon="-122.264103"></trkpt>
      <trkpt lat="48.833032" lon="-122.243112"></trkpt>
      <trkpt lat="48.832223" lon="-122.241179"></trkpt>
      <trkpt lat="48.831754" lon="-122.239361"></trkpt>
      <trkpt lat="48.827962" lon="-122.220469"></trkpt>
      <trkpt lat="48.827367" lon="-122.218709"></trkpt>
      <trkpt lat="48.826906" lon="-122.217818"></trkpt>
      <trkpt lat="48.8212" lon="-122.209727"></trkpt>
      <trkpt lat="48.816586" lon="-122.205037"></trkpt>
      <trkpt lat="48.816207" lon="-122.204121"></trkpt>
      <trkpt lat="48.815925" lon="-122.20275"></trkpt>
      <trkpt lat="48.816164" lon="-122.201745"></trkpt>
      <trkpt lat="48.816442" lon="-122.201087"></trkpt>
      <trkpt lat="48.820406" lon="-122.195793"></trkpt>
      <trkpt lat="48.82105" lon="-122.194701"></trkpt>
      <trkpt lat="48.821464" lon="-122.193093"></trkpt>
      <trkpt lat="48.821722" lon="-122.191108"></trkpt>
      <trkpt lat="48.822435" lon="-122.187791"></trkpt>
      <trkpt lat="48.823143" lon="-122.185753"></trkpt>
      <trkpt lat="48.824393" lon="-122.183057"></trkpt>
      <trkpt lat="48.830072" lon="-122.174716"></trkpt>
      <trkpt lat="48.83276" lon="-122.171092"></trkpt>
      <trkpt lat="48.838624" lon="-122.166801"></trkpt>
      <trkpt lat="48.841351" lon="-122.165607"></trkpt>
      <trkpt lat="48.846192" lon="-122.163071"></trkpt>
      <trkpt lat="48.847579" lon="-122.162196"></trkpt>
      <trkpt lat="48.849054" lon="-122.160624"></trkpt>
      <trkpt lat="48.851328" lon="-122.157117"></trkpt>
      <trkpt lat="48.852438" lon="-122.15579"></trkpt>
      <trkpt lat="48.853005" lon="-122.155289"></trkpt>
      <trkpt lat="48.853676" lon="-122.155043"></trkpt>
      <trkpt lat="48.860523" lon="-122.15355"></trkpt>
      <trkpt lat="48.862596" lon="-122.153512"></trkpt>
      <trkpt lat="48.865791" lon="-122.152299"></trkpt>
      <trkpt lat="48.866486" lon="-122.152246"></trkpt>
      <trkpt lat="48.867511" lon="-122.152658"></trkpt>
      <trkpt lat="48.871698" lon="-122.155917"></trkpt>
      <trkpt lat="48.873147" lon="-122.156664"></trkpt>
      <trkpt lat="48.874346" lon="-122.156979"></trkpt>
      <trkpt lat="48.8781" lon="-122.157179"></trkpt>
      <trkpt lat="48.879397" lon="-122.157192"></trkpt>
      <trkpt lat="48.880588" lon="-122.157"></trkpt>
      <trkpt lat="48.881569" lon="-122.15658"></trkpt>
      <trkpt lat="48.882955" lon="-122.155765"></trkpt>
      <trkpt lat="48.896491" lon="-122.147304"></trkpt>
      <trkpt lat="48.898232" lon="-122.145923"></trkpt>
      <trkpt lat="48.900019" lon="-122.144018"></trkpt>
      <trkpt lat="48.900478" lon="-122.143675"></trkpt>
      <trkpt lat="48.901111" lon="-122.14347"></trkpt>
      <trkpt lat="48.904433" lon="-122.143394"></trkpt>
      <trkpt lat="48.904787" lon="-122.143263"></trkpt>
      <trkpt lat="48.905053" lon="-122.142594"></trkpt>
      <trkpt lat="48.905105" lon="-122.138693"></trkpt>
      <trkpt lat="48.90543" lon="-122.138026"></trkpt>
      <trkpt lat="48.912819" lon="-122.137764"></trkpt>
      <trkpt lat="48.91626" lon="-122.137696"></trkpt>
      <trkpt lat="48.916888" lon="-122.137776"></trkpt>
      <trkpt lat="48.917089" lon="-122.137684"></trkpt>
      <trkpt lat="48.917203" lon="-122.137436"></trkpt>
      <trkpt lat="48.91744" lon="-122.134997"></trkpt>
      <trkpt lat="48.9174" lon="-122.133095"></trkpt>
      <trkpt lat="48.917146" lon="-122.130939"></trkpt>
      <trkpt lat="48.917067" lon="-122.124731"></trkpt>
      <trkpt lat="48.916788" lon="-122.123426"></trkpt>
      <trkpt lat="48.915992" lon="-122.121621"></trkpt>
      <trkpt lat="48.915821" lon="-122.120177"></trkpt>
      <trkpt lat="48.915995" lon="-122.118914"></trkpt>
      <trkpt lat="48.916791" lon="-122.117068"></trkpt>
      <trkpt lat="48.916962" lon="-122.116078"></trkpt>
      <trkpt lat="48.916993" lon="-122.102991"></trkpt>
      <trkpt lat="48.917217" lon="-122.102286"></trkpt>
      <trkpt lat="48.918125" lon="-122.100449"></trkpt>
      <trkpt lat="48.919567" lon="-122.098746"></trkpt>
      <trkpt lat="48.919987" lon="-122.098056"></trkpt>
      <trkpt lat="48.923418" lon="-122.088564"></trkpt>
      <trkpt lat="48.924156" lon="-122.086406"></trkpt>
      <trkpt lat="48.924219" lon="-122.085916"></trkpt>
      <trkpt lat="48.924126" lon="-122.076654"></trkpt>
      <trkpt lat="48.92402" lon="-122.075832"></trkpt>
      <trkpt lat="48.923733" lon="-122.075169"></trkpt>
      <trkpt lat="48.923413" lon="-122.074819"></trkpt>
      <trkpt lat="48.92234" lon="-122.074468"></trkpt>
      <trkpt lat="48.922085" lon="-122.074268"></trkpt>
      <trkpt lat="48.921297" lon="-122.072082"></trkpt>
      <trkpt lat="48.920626" lon="-122.070902"></trkpt>
      <trkpt lat="48.920443" lon="-122.070304"></trkpt>
      <trkpt lat="48.91982" lon="-122.066529"></trkpt>
      <trkpt lat="48.919785" lon="-122.065618"></trkpt>
      <trkpt lat="48.920088" lon="-122.064247"></trkpt>
      <trkpt lat="48.920821" lon="-122.062869"></trkpt>
      <trkpt lat="48.921031" lon="-122.062221"></trkpt>
      <trkpt lat="48.921063" lon="-122.05619"></trkpt>
      <trkpt lat="48.921217" lon="-122.055099"></trkpt>
      <trkpt lat="48.92148" lon="-122.054565"></trkpt>
      <trkpt lat="48.923053" lon="-122.052792"></trkpt>
      <trkpt lat="48.923874" lon="-122.050934"></trkpt>
      <trkpt lat="48.924583" lon="-122.050365"></trkpt>
      <trkpt lat="48.925796" lon="-122.049921"></trkpt>
      <trkpt lat="48.92654" lon="-122.049271"></trkpt>
      <trkpt lat="48.927335" lon="-122.048371"></trkpt>
      <trkpt lat="48.927787" lon="-122.04698"></trkpt>
      <trkpt lat="48.927837" lon="-122.046352"></trkpt>
      <trkpt lat="48.927659" lon="-122.043601"></trkpt>
      <trkpt lat="48.927908" lon="-122.041586"></trkpt>
      <trkpt lat="48.927845" lon="-122.039275"></trkpt>
      <trkpt lat="48.928116" lon="-122.037316"></trkpt>
      <trkpt lat="48.927749" lon="-122.032568"></trkpt>
      <trkpt lat="48.927265" lon="-122.023612"></trkpt>
      <trkpt lat="48.927019" lon="-122.022557"></trkpt>
      <trkpt lat="48.926713" lon="-122.021861"></trkpt>
      <trkpt lat="48.92584" lon="-122.020664"></trkpt>
      <trkpt lat="48.924705" lon="-122.018448"></trkpt>
      <trkpt lat="48.923419" lon="-122.018057"></trkpt>
      <trkpt lat="48.923121" lon="-122.017713"></trkpt>
      <trkpt lat="48.921378" lon="-122.014007"></trkpt>
      <trkpt lat="48.921154" lon="-122.013206"></trkpt>
      <trkpt lat="48.921018" lon="-122.01181"></trkpt>
      <trkpt lat="48.920367" lon="-122.009785"></trkpt>
      <trkpt lat="48.919922" lon="-122.008623"></trkpt>
      <trkpt lat="48.919224" lon="-122.007322"></trkpt>
      <trkpt lat="48.917788" lon="-122.005849"></trkpt>
      <trkpt lat="48.917333" lon="-122.005671"></trkpt>
      <trkpt lat="48.916671" lon="-122.005743"></trkpt>
      <trkpt lat="48.916189" lon="-122.005624"></trkpt>
      <trkpt lat="48.913263" lon="-122.003126"></trkpt>
      <trkpt lat="48.908777" lon="-121.997461"></trkpt>
      <trkpt lat="48.90724" lon="-121.995691"></trkpt>
      <trkpt lat="48.906477" lon="-121.993736"></trkpt>
      <trkpt lat="48.9035" lon="-121.990477"></trkpt>
      <trkpt lat="48.902896" lon="-121.989457"></trkpt>
      <trkpt lat="48.900864" lon="-121.985094"></trkpt>
      <trkpt lat="48.900404" lon="-121.983506"></trkpt>
      <trkpt lat="48.900086" lon="-121.981238"></trkpt>
      <trkpt lat="48.899757" lon="-121.979865"></trkpt>
      <trkpt lat="48.893224" lon="-121.966196"></trkpt>
      <trkpt lat="48.892549" lon="-121.964319"></trkpt>
      <trkpt lat="48.888203" lon="-121.935816"></trkpt>
      <trkpt lat="48.887934" lon="-121.933005"></trkpt>
      <trkpt lat="48.88804" lon="-121.930171"></trkpt>
      <trkpt lat="48.888637" lon="-121.926993"></trkpt>
      <trkpt lat="48.889684" lon="-121.924252"></trkpt>
      <trkpt lat="48.891072" lon="-121.92198"></trkpt>
      <trkpt lat="48.899903" lon="-121.91273"></trkpt>
      <trkpt lat="48.900673" lon="-121.912289"></trkpt>
      <trkpt lat="48.903902" lon="-121.911392"></trkpt>
      <trkpt lat="48.904685" lon="-121.911019"></trkpt>
      <trkpt lat="48.905252" lon="-121.910356"></trkpt>
      <trkpt lat="48.905529" lon="-121.909853"></trkpt>
      <trkpt lat="48.905879" lon="-121.908618"></trkpt>
      <trkpt lat="48.905883" lon="-121.907299"></trkpt>
      <trkpt lat="48.905249" lon="-121.904002"></trkpt>
      <trkpt lat="48.905166" lon="-121.902286"></trkpt>
      <trkpt lat="48.905323" lon="-121.90089"></trkpt>
      <trkpt lat="48.906024" lon="-121.89757"></trkpt>
      <trkpt lat="48.906088" lon="-121.895827"></trkpt>
      <trkpt lat="48.905932" lon="-121.894497"></trkpt>
      <trkpt lat="48.905051" lon="-121.89032"></trkpt>
      <trkpt lat="48.90499" lon="-121.889494"></trkpt>
      <trkpt lat="48.90526" lon="-121.885934"></trkpt>
      <trkpt lat="48.90598" lon="-121.883396"></trkpt>
      <trkpt lat="48.905828" lon="-121.879226"></trkpt>
      <trkpt lat="48.905454" lon="-121.877645"></trkpt>
      <trkpt lat="48.903422" lon="-121.871743"></trkpt>
      <trkpt lat="48.902167" lon="-121.87006"></trkpt>
      <trkpt lat="48.901927" lon="-121.869435"></trkpt>
      <trkpt lat="48.901827" lon="-121.868529"></trkpt>
      <trkpt lat="48.902293" lon="-121.865814"></trkpt>
      <trkpt lat="48.90262" lon="-121.865197"></trkpt>
      <trkpt lat="48.903321" lon="-121.864384"></trkpt>
      <trkpt lat="48.904094" lon="-121.863197"></trkpt>
      <trkpt lat="48.904593" lon="-121.861766"></trkpt>
      <trkpt lat="48.904752" lon="-121.859137"></trkpt>
      <trkpt lat="48.904673" lon="-121.856511"></trkpt>
      <trkpt lat="48.904818" lon="-121.855935"></trkpt>
      <trkpt lat="48.905533" lon="-121.854759"></trkpt>
      <trkpt lat="48.905738" lon="-121.853977"></trkpt>
      <trkpt lat="48.905336" lon="-121.850302"></trkpt>
      <trkpt lat="48.905382" lon="-121.849373"></trkpt>
      <trkpt lat="48.905682" lon="-121.848176"></trkpt>
      <trkpt lat="48.906316" lon="-121.846729"></trkpt>
      <trkpt lat="48.906482" lon="-121.845845"></trkpt>
      <trkpt lat="48.906341" lon="-121.84445"></trkpt>
      <trkpt lat="48.905522" lon="-121.842328"></trkpt>
      <trkpt lat="48.905231" lon="-121.838734"></trkpt>
      <trkpt lat="48.905" lon="-121.83747"></trkpt>
      <trkpt lat="48.905323" lon="-121.835518"></trkpt>
      <trkpt lat="48.905314" lon="-121.834061"></trkpt>
      <trkpt lat="48.905478" lon="-121.832858"></trkpt>
      <trkpt lat="48.90546" lon="-121.831693"></trkpt>
      <trkpt lat="48.905257" lon="-121.830435"></trkpt>
      <trkpt lat="48.905427" lon="-121.827768"></trkpt>
      <trkpt lat="48.905925" lon="-121.826623"></trkpt>
      <trkpt lat="48.908765" lon="-121.822739"></trkpt>
      <trkpt lat="48.908998" lon="-121.821838"></trkpt>
      <trkpt lat="48.90905" lon="-121.820416"></trkpt>
      <trkpt lat="48.909246" lon="-121.819523"></trkpt>
      <trkpt lat="48.909651" lon="-121.81837"></trkpt>
      <trkpt lat="48.910365" lon="-121.817165"></trkpt>
      <trkpt lat="48.910487" lon="-121.816717"></trkpt>
      <trkpt lat="48.910466" lon="-121.815811"></trkpt>
      <trkpt lat="48.910086" lon="-121.814836"></trkpt>
      <trkpt lat="48.909224" lon="-121.81303"></trkpt>
      <trkpt lat="48.90865" lon="-121.812292"></trkpt>
      <trkpt lat="48.907881" lon="-121.811672"></trkpt>
      <trkpt lat="48.907589" lon="-121.811281"></trkpt>
      <trkpt lat="48.907293" lon="-121.810393"></trkpt>
      <trkpt lat="48.907283" lon="-121.809719"></trkpt>
      <trkpt lat="48.907643" lon="-121.808614"></trkpt>
      <trkpt lat="48.908521" lon="-121.80766"></trkpt>
      <trkpt lat="48.908966" lon="-121.806678"></trkpt>
      <trkpt lat="48.909064" lon="-121.804878"></trkpt>
      <trkpt lat="48.909437" lon="-121.802525"></trkpt>
      <trkpt lat="48.909556" lon="-121.801031"></trkpt>
      <trkpt lat="48.909634" lon="-121.798894"></trkpt>
      <trkpt lat="48.90951" lon="-121.795532"></trkpt>
      <trkpt lat="48.909713" lon="-121.7949"></trkpt>
      <trkpt lat="48.91015" lon="-121.794173"></trkpt>
      <trkpt lat="48.911258" lon="-121.793165"></trkpt>
      <trkpt lat="48.911436" lon="-121.792857"></trkpt>
      <trkpt lat="48.911723" lon="-121.79111"></trkpt>
      <trkpt lat="48.912219" lon="-121.789299"></trkpt>
      <trkpt lat="48.912271" lon="-121.786813"></trkpt>
      <trkpt lat="48.912519" lon="-121.784459"></trkpt>
      <trkpt lat="48.912422" lon="-121.78383"></trkpt>
      <trkpt lat="48.912122" lon="-121.783162"></trkpt>
      <trkpt lat="48.911311" lon="-121.782054"></trkpt>
      <trkpt lat="48.910949" lon="-121.780945"></trkpt>
      <trkpt lat="48.909745" lon="-121.776243"></trkpt>
      <trkpt lat="48.909354" lon="-121.773834"></trkpt>
      <trkpt lat="48.909471" lon="-121.772146"></trkpt>
      <trkpt lat="48.909868" lon="-121.77069"></trkpt>
      <trkpt lat="48.911167" lon="-121.767066"></trkpt>
      <trkpt lat="48.911322" lon="-121.765414"></trkpt>
      <trkpt lat="48.911225" lon="-121.762883"></trkpt>
      <trkpt lat="48.911399" lon="-121.760788"></trkpt>
      <trkpt lat="48.911319" lon="-121.760009"></trkpt>
      <trkpt lat="48.910822" lon="-121.758771"></trkpt>
      <trkpt lat="48.910677" lon="-121.757584"></trkpt>
      <trkpt lat="48.910253" lon="-121.756272"></trkpt>
      <trkpt lat="48.909761" lon="-121.755686"></trkpt>
      <trkpt lat="48.908384" lon="-121.754612"></trkpt>
      <trkpt lat="48.907793" lon="-121.753667"></trkpt>
      <trkpt lat="48.907541" lon="-121.752768"></trkpt>
      <trkpt lat="48.907328" lon="-121.750743"></trkpt>
      <trkpt lat="48.906871" lon="-121.748736"></trkpt>
      <trkpt lat="48.906617" lon="-121.745735"></trkpt>
      <trkpt lat="48.906238" lon="-121.743391"></trkpt>
      <trkpt lat="48.905782" lon="-121.741795"></trkpt>
      <trkpt lat="48.905157" lon="-121.740366"></trkpt>
      <trkpt lat="48.90312" lon="-121.736513"></trkpt>
      <trkpt lat="48.90288" lon="-121.735434"></trkpt>
      <trkpt lat="48.902843" lon="-121.734739"></trkpt>
      <trkpt lat="48.902946" lon="-121.727468"></trkpt>
      <trkpt lat="48.903141" lon="-121.726484"></trkpt>
      <trkpt lat="48.903324" lon="-121.725968"></trkpt>
      <trkpt lat="48.904501" lon="-121.723805"></trkpt>
      <trkpt lat="48.905075" lon="-121.722394"></trkpt>
      <trkpt lat="48.907302" lon="-121.715183"></trkpt>
      <trkpt lat="48.907412" lon="-121.708627"></trkpt>
      <trkpt lat="48.907589" lon="-121.707625"></trkpt>
      <trkpt lat="48.908334" lon="-121.705411"></trkpt>
      <trkpt lat="48.908505" lon="-121.704416"></trkpt>
      <trkpt lat="48.90811" lon="-121.699043"></trkpt>
      <trkpt lat="48.908255" lon="-121.695169"></trkpt>
      <trkpt lat="48.907885" lon="-121.694347"></trkpt>
      <trkpt lat="48.906849" lon="-121.693718"></trkpt>
      <trkpt lat="48.906534" lon="-121.693686"></trkpt>
      <trkpt lat="48.905949" lon="-121.693972"></trkpt>
      <trkpt lat="48.90518" lon="-121.695039"></trkpt>
      <trkpt lat="48.904273" lon="-121.695805"></trkpt>
      <trkpt lat="48.903359" lon="-121.695928"></trkpt>
      <trkpt lat="48.902723" lon="-121.695692"></trkpt>
      <trkpt lat="48.902529" lon="-121.695331"></trkpt>
      <trkpt lat="48.900829" lon="-121.689611"></trkpt>
      <trkpt lat="48.898835" lon="-121.686977"></trkpt>
      <trkpt lat="48.8985" lon="-121.68622"></trkpt>
      <trkpt lat="48.898291" lon="-121.685015"></trkpt>
      <trkpt lat="48.897801" lon="-121.684279"></trkpt>
      <trkpt lat="48.897579" lon="-121.683486"></trkpt>
      <trkpt lat="48.897104" lon="-121.682675"></trkpt>
      <trkpt lat="48.895857" lon="-121.681214"></trkpt>
      <trkpt lat="48.894507" lon="-121.680154"></trkpt>
      <trkpt lat="48.893946" lon="-121.679393"></trkpt>
      <trkpt lat="48.892452" lon="-121.677952"></trkpt>
      <trkpt lat="48.89104" lon="-121.676128"></trkpt>
      <trkpt lat="48.889561" lon="-121.674741"></trkpt>
      <trkpt lat="48.888065" lon="-121.672797"></trkpt>
      <trkpt lat="48.887323" lon="-121.671437"></trkpt>
      <trkpt lat="48.886264" lon="-121.670608"></trkpt>
      <trkpt lat="48.885094" lon="-121.669893"></trkpt>
      <trkpt lat="48.882832" lon="-121.669319"></trkpt>
      <trkpt lat="48.881389" lon="-121.668833"></trkpt>
      <trkpt lat="48.880962" lon="-121.668813"></trkpt>
      <trkpt lat="48.880152" lon="-121.668981"></trkpt>
      <trkpt lat="48.879095" lon="-121.669553"></trkpt>
      <trkpt lat="48.877999" lon="-121.669737"></trkpt>
      <trkpt lat="48.877316" lon="-121.67049"></trkpt>
      <trkpt lat="48.877125" lon="-121.670496"></trkpt>
      <trkpt lat="48.876882" lon="-121.67009"></trkpt>
      <trkpt lat="48.876752" lon="-121.668681"></trkpt>
      <trkpt lat="48.876562" lon="-121.668278"></trkpt>
      <trkpt lat="48.876249" lon="-121.668215"></trkpt>
      <trkpt lat="48.875971" lon="-121.668322"></trkpt>
      <trkpt lat="48.87461" lon="-121.669117"></trkpt>
      <trkpt lat="48.874238" lon="-121.668965"></trkpt>
      <trkpt lat="48.873748" lon="-121.66842"></trkpt>
      <trkpt lat="48.873568" lon="-121.668361"></trkpt>
      <trkpt lat="48.873459" lon="-121.66852"></trkpt>
      <trkpt lat="48.873485" lon="-121.668729"></trkpt>
      <trkpt lat="48.874129" lon="-121.669579"></trkpt>
      <trkpt lat="48.874353" lon="-121.670719"></trkpt>
      <trkpt lat="48.874614" lon="-121.670853"></trkpt>
      <trkpt lat="48.875092" lon="-121.670625"></trkpt>
      <trkpt lat="48.875483" lon="-121.670856"></trkpt>
      <trkpt lat="48.875514" lon="-121.671849"></trkpt>
      <trkpt lat="48.875865" lon="-121.672794"></trkpt>
      <trkpt lat="48.876001" lon="-121.673551"></trkpt>
      <trkpt lat="48.875987" lon="-121.67391"></trkpt>
      <trkpt lat="48.875808" lon="-121.674003"></trkpt>
      <trkpt lat="48.875306" lon="-121.672222"></trkpt>
      <trkpt lat="48.873807" lon="-121.67194"></trkpt>
      <trkpt lat="48.873492" lon="-121.671677"></trkpt>
      <trkpt lat="48.872987" lon="-121.670774"></trkpt>
      <trkpt lat="48.871572" lon="-121.668787"></trkpt>
      <trkpt lat="48.871375" lon="-121.667872"></trkpt>
      <trkpt lat="48.871385" lon="-121.666773"></trkpt>
      <trkpt lat="48.871672" lon="-121.665744"></trkpt>
      <trkpt lat="48.871813" lon="-121.665578"></trkpt>
      <trkpt lat="48.872155" lon="-121.665529"></trkpt>
      <trkpt lat="48.872241" lon="-121.665007"></trkpt>
      <trkpt lat="48.872148" lon="-121.664855"></trkpt>
      <trkpt lat="48.871526" lon="-121.664524"></trkpt>
      <trkpt lat="48.871236" lon="-121.664613"></trkpt>
      <trkpt lat="48.870808" lon="-121.665121"></trkpt>
      <trkpt lat="48.870588" lon="-121.665174"></trkpt>
      <trkpt lat="48.870216" lon="-121.665025"></trkpt>
      <trkpt lat="48.870094" lon="-121.664851"></trkpt>
      <trkpt lat="48.869481" lon="-121.663416"></trkpt>
      <trkpt lat="48.869371" lon="-121.662729"></trkpt>
      <trkpt lat="48.869535" lon="-121.661596"></trkpt>
      <trkpt lat="48.869028" lon="-121.66049"></trkpt>
      <trkpt lat="48.869001" lon="-121.659748"></trkpt>
      <trkpt lat="48.868797" lon="-121.659328"></trkpt>
      <trkpt lat="48.868106" lon="-121.658889"></trkpt>
      <trkpt lat="48.867149" lon="-121.658811"></trkpt>
      <trkpt lat="48.866367" lon="-121.658611"></trkpt>
      <trkpt lat="48.865215" lon="-121.658636"></trkpt>
      <trkpt lat="48.864397" lon="-121.658342"></trkpt>
      <trkpt lat="48.86405" lon="-121.658047"></trkpt>
      <trkpt lat="48.863981" lon="-121.657684"></trkpt>
      <trkpt lat="48.864533" lon="-121.656234"></trkpt>
      <trkpt lat="48.865624" lon="-121.655353"></trkpt>
      <trkpt lat="48.866316" lon="-121.655055"></trkpt>
      <trkpt lat="48.86636" lon="-121.65482"></trkpt>
      <trkpt lat="48.866206" lon="-121.654722"></trkpt>
      <trkpt lat="48.865328" lon="-121.655127"></trkpt>
      <trkpt lat="48.864849" lon="-121.655561"></trkpt>
      <trkpt lat="48.863733" lon="-121.65597"></trkpt>
      <trkpt lat="48.862579" lon="-121.656747"></trkpt>
      <trkpt lat="48.860649" lon="-121.657791"></trkpt>
      <trkpt lat="48.8599" lon="-121.658537"></trkpt>
      <trkpt lat="48.859062" lon="-121.658874"></trkpt>
      <trkpt lat="48.858797" lon="-121.659462"></trkpt>
      <trkpt lat="48.858814" lon="-121.659688"></trkpt>
      <trkpt lat="48.858997" lon="-121.659924"></trkpt>
      <trkpt lat="48.859848" lon="-121.659903"></trkpt>
      <trkpt lat="48.862009" lon="-121.660169"></trkpt>
      <trkpt lat="48.863249" lon="-121.660848"></trkpt>
      <trkpt lat="48.865156" lon="-121.66158"></trkpt>
      <trkpt lat="48.865529" lon="-121.661761"></trkpt>
      <trkpt lat="48.865917" lon="-121.662884"></trkpt>
      <trkpt lat="48.866059" lon="-121.662975"></trkpt>
      <trkpt lat="48.866574" lon="-121.662828"></trkpt>
      <trkpt lat="48.866749" lon="-121.663122"></trkpt>
      <trkpt lat="48.866714" lon="-121.663715"></trkpt>
      <trkpt lat="48.866164" lon="-121.664942"></trkpt>
      <trkpt lat="48.86592" lon="-121.665964"></trkpt>
      <trkpt lat="48.864915" lon="-121.667294"></trkpt>
      <trkpt lat="48.864576" lon="-121.668662"></trkpt>
      <trkpt lat="48.864302" lon="-121.668791"></trkpt>
      <trkpt lat="48.864141" lon="-121.668634"></trkpt>
      <trkpt lat="48.864088" lon="-121.668352"></trkpt>
      <trkpt lat="48.865169" lon="-121.664899"></trkpt>
      <trkpt lat="48.865157" lon="-121.664595"></trkpt>
      <trkpt lat="48.865009" lon="-121.664489"></trkpt>
      <trkpt lat="48.864837" lon="-121.664681"></trkpt>
      <trkpt lat="48.864538" lon="-121.665845"></trkpt>
      <trkpt lat="48.863731" lon="-121.667003"></trkpt>
      <trkpt lat="48.863164" lon="-121.668782"></trkpt>
      <trkpt lat="48.862261" lon="-121.670317"></trkpt>
      <trkpt lat="48.862038" lon="-121.671005"></trkpt>
      <trkpt lat="48.862184" lon="-121.671972"></trkpt>
      <trkpt lat="48.862808" lon="-121.672509"></trkpt>
      <trkpt lat="48.863132" lon="-121.672948"></trkpt>
      <trkpt lat="48.863544" lon="-121.674074"></trkpt>
      <trkpt lat="48.863839" lon="-121.674145"></trkpt>
      <trkpt lat="48.864502" lon="-121.673898"></trkpt>
      <trkpt lat="48.86523" lon="-121.674477"></trkpt>
      <trkpt lat="48.865184" lon="-121.675957"></trkpt>
      <trkpt lat="48.86537" lon="-121.676144"></trkpt>
      <trkpt lat="48.865981" lon="-121.676164"></trkpt>
      <trkpt lat="48.866201" lon="-121.676343"></trkpt>
      <trkpt lat="48.866613" lon="-121.677693"></trkpt>
      <trkpt lat="48.866605" lon="-121.678144"></trkpt>
      <trkpt lat="48.866088" lon="-121.678934"></trkpt>
      <trkpt lat="48.865503" lon="-121.679542"></trkpt>
      <trkpt lat="48.86473" lon="-121.679817"></trkpt>
      <trkpt lat="48.863986" lon="-121.680867"></trkpt>
      <trkpt lat="48.863739" lon="-121.680703"></trkpt>
      <trkpt lat="48.863686" lon="-121.679262"></trkpt>
      <trkpt lat="48.863482" lon="-121.678919"></trkpt>
      <trkpt lat="48.863219" lon="-121.678949"></trkpt>
      <trkpt lat="48.862414" lon="-121.679874"></trkpt>
  </trkseg></trk>
</gpx>
