<?xml version="1.0" encoding="UTF-8"?>
<gpx version="1.1" creator="yatutbuv" xmlns="http://www.topografix.com/GPX/1/1">
  <trk><name>GraphHopper Track</name><trkseg>
      <trkpt lat="52.389791" lon="4.838078"></trkpt>
      <trkpt lat="52.389808" lon="4.839041"></trkpt>
      <trkpt lat="52.389606" lon="4.839149"></trkpt>
      <trkpt lat="52.389614" lon="4.841043"></trkpt>
      <trkpt lat="52.391639" lon="4.840964"></trkpt>
      <trkpt lat="52.391634" lon="4.843343"></trkpt>
      <trkpt lat="52.388541" lon="4.844287"></trkpt>
      <trkpt lat="52.380713" lon="4.844702"></trkpt>
      <trkpt lat="52.380135" lon="4.844655"></trkpt>
      <trkpt lat="52.378784" lon="4.844319"></trkpt>
      <trkpt lat="52.374193" lon="4.84244"></trkpt>
      <trkpt lat="52.372221" lon="4.842037"></trkpt>
      <trkpt lat="52.3525" lon="4.842516"></trkpt>
      <trkpt lat="52.351711" lon="4.842455"></trkpt>
      <trkpt lat="52.350693" lon="4.842203"></trkpt>
      <trkpt lat="52.348063" lon="4.841086"></trkpt>
      <trkpt lat="52.346455" lon="4.840852"></trkpt>
      <trkpt lat="52.341333" lon="4.840912"></trkpt>
      <trkpt lat="52.339254" lon="4.841295"></trkpt>
      <trkpt lat="52.338317" lon="4.841767"></trkpt>
      <trkpt lat="52.337809" lon="4.842427"></trkpt>
      <trkpt lat="52.337432" lon="4.843284"></trkpt>
      <trkpt lat="52.337231" lon="4.844175"></trkpt>
      <trkpt lat="52.337131" lon="4.845709"></trkpt>
      <trkpt lat="52.338547" lon="4.874018"></trkpt>
      <trkpt lat="52.338537" lon="4.882157"></trkpt>
      <trkpt lat="52.338291" lon="4.885049"></trkpt>
      <trkpt lat="52.337818" lon="4.88707"></trkpt>
      <trkpt lat="52.337212" lon="4.888699"></trkpt>
      <trkpt lat="52.329702" lon="4.903906"></trkpt>
      <trkpt lat="52.32793" lon="4.90795"></trkpt>
      <trkpt lat="52.326011" lon="4.911954"></trkpt>
      <trkpt lat="52.325658" lon="4.912519"></trkpt>
      <trkpt lat="52.324758" lon="4.913288"></trkpt>
      <trkpt lat="52.322933" lon="4.913978"></trkpt>
      <trkpt lat="52.321718" lon="4.914579"></trkpt>
      <trkpt lat="52.319516" lon="4.915994"></trkpt>
      <trkpt lat="52.318474" lon="4.916807"></trkpt>
      <trkpt lat="52.310471" lon="4.925338"></trkpt>
      <trkpt lat="52.301885" lon="4.934255"></trkpt>
      <trkpt lat="52.300066" lon="4.935992"></trkpt>
      <trkpt lat="52.28485" lon="4.949152"></trkpt>
      <trkpt lat="52.279247" lon="4.953109"></trkpt>
      <trkpt lat="52.274547" lon="4.956729"></trkpt>
      <trkpt lat="52.272048" lon="4.958254"></trkpt>
      <trkpt lat="52.266248" lon="4.96112"></trkpt>
      <trkpt lat="52.262597" lon="4.963459"></trkpt>
      <trkpt lat="52.261156" lon="4.96426"></trkpt>
      <trkpt lat="52.25887" lon="4.965306"></trkpt>
      <trkpt lat="52.247332" lon="4.969818"></trkpt>
      <trkpt lat="52.23453" lon="4.9768"></trkpt>
      <trkpt lat="52.232494" lon="4.978134"></trkpt>
      <trkpt lat="52.230626" lon="4.979539"></trkpt>
      <trkpt lat="52.227069" lon="4.98277"></trkpt>
      <trkpt lat="52.225141" lon="4.984265"></trkpt>
      <trkpt lat="52.223188" lon="4.985319"></trkpt>
      <trkpt lat="52.221417" lon="4.985951"></trkpt>
      <trkpt lat="52.219454" lon="4.986305"></trkpt>
      <trkpt lat="52.217317" lon="4.986362"></trkpt>
      <trkpt lat="52.204952" lon="4.986225"></trkpt>
      <trkpt lat="52.194199" lon="4.986367"></trkpt>
      <trkpt lat="52.183582" lon="4.985961"></trkpt>
      <trkpt lat="52.1815" lon="4.985983"></trkpt>
      <trkpt lat="52.172021" lon="4.986734"></trkpt>
      <trkpt lat="52.167673" lon="4.986941"></trkpt>
      <trkpt lat="52.165825" lon="4.987372"></trkpt>
      <trkpt lat="52.164135" lon="4.988047"></trkpt>
      <trkpt lat="52.161993" lon="4.989324"></trkpt>
      <trkpt lat="52.154792" lon="4.994628"></trkpt>
      <trkpt lat="52.133528" lon="5.009327"></trkpt>
      <trkpt lat="52.131453" lon="5.01097"></trkpt>
      <trkpt lat="52.129627" lon="5.012864"></trkpt>
      <trkpt lat="52.127615" lon="5.015605"></trkpt>
      <trkpt lat="52.12359" lon="5.022248"></trkpt>
      <trkpt lat="52.123131" lon="5.022736"></trkpt>
      <trkpt lat="52.122312" lon="5.023985"></trkpt>
      <trkpt lat="52.119915" lon="5.028062"></trkpt>
      <trkpt lat="52.118601" lon="5.030797"></trkpt>
      <trkpt lat="52.111029" lon="5.049448"></trkpt>
      <trkpt lat="52.109571" lon="5.05262"></trkpt>
      <trkpt lat="52.107763" lon="5.05596"></trkpt>
      <trkpt lat="52.105675" lon="5.05924"></trkpt>
      <trkpt lat="52.103654" lon="5.061942"></trkpt>
      <trkpt lat="52.100867" lon="5.064997"></trkpt>
      <trkpt lat="52.099099" lon="5.06668"></trkpt>
      <trkpt lat="52.097637" lon="5.067867"></trkpt>
      <trkpt lat="52.092912" lon="5.071468"></trkpt>
      <trkpt lat="52.090903" lon="5.072898"></trkpt>
      <trkpt lat="52.089205" lon="5.07389"></trkpt>
      <trkpt lat="52.087825" lon="5.07455"></trkpt>
      <trkpt lat="52.086351" lon="5.075054"></trkpt>
      <trkpt lat="52.083999" lon="5.075352"></trkpt>
      <trkpt lat="52.082232" lon="5.07541"></trkpt>
      <trkpt lat="52.08013" lon="5.075092"></trkpt>
      <trkpt lat="52.078146" lon="5.074493"></trkpt>
      <trkpt lat="52.073637" lon="5.07257"></trkpt>
      <trkpt lat="52.071501" lon="5.07195"></trkpt>
      <trkpt lat="52.070753" lon="5.071572"></trkpt>
      <trkpt lat="52.069995" lon="5.070916"></trkpt>
      <trkpt lat="52.069297" lon="5.069975"></trkpt>
      <trkpt lat="52.067575" lon="5.065943"></trkpt>
      <trkpt lat="52.066979" lon="5.065247"></trkpt>
      <trkpt lat="52.066445" lon="5.064891"></trkpt>
      <trkpt lat="52.065502" lon="5.064719"></trkpt>
      <trkpt lat="52.064557" lon="5.065081"></trkpt>
      <trkpt lat="52.063815" lon="5.065848"></trkpt>
      <trkpt lat="52.063224" lon="5.067048"></trkpt>
      <trkpt lat="52.06278" lon="5.069495"></trkpt>
      <trkpt lat="52.062774" lon="5.075044"></trkpt>
      <trkpt lat="52.062594" lon="5.077915"></trkpt>
      <trkpt lat="52.059803" lon="5.105854"></trkpt>
      <trkpt lat="52.05901" lon="5.110365"></trkpt>
      <trkpt lat="52.056686" lon="5.121009"></trkpt>
      <trkpt lat="52.055544" lon="5.126926"></trkpt>
      <trkpt lat="52.054976" lon="5.131548"></trkpt>
      <trkpt lat="52.054805" lon="5.134611"></trkpt>
      <trkpt lat="52.054802" lon="5.1369"></trkpt>
      <trkpt lat="52.055134" lon="5.142988"></trkpt>
      <trkpt lat="52.055834" lon="5.147588"></trkpt>
      <trkpt lat="52.056978" lon="5.151897"></trkpt>
      <trkpt lat="52.060866" lon="5.164786"></trkpt>
      <trkpt lat="52.061482" lon="5.167623"></trkpt>
      <trkpt lat="52.061749" lon="5.170191"></trkpt>
      <trkpt lat="52.062286" lon="5.186772"></trkpt>
      <trkpt lat="52.062093" lon="5.189554"></trkpt>
      <trkpt lat="52.060214" lon="5.206052"></trkpt>
      <trkpt lat="52.059881" lon="5.209838"></trkpt>
      <trkpt lat="52.058644" lon="5.234418"></trkpt>
      <trkpt lat="52.05791" lon="5.251161"></trkpt>
      <trkpt lat="52.057919" lon="5.253271"></trkpt>
      <trkpt lat="52.058312" lon="5.257666"></trkpt>
      <trkpt lat="52.058967" lon="5.260937"></trkpt>
      <trkpt lat="52.059742" lon="5.263444"></trkpt>
      <trkpt lat="52.062771" lon="5.27099"></trkpt>
      <trkpt lat="52.063587" lon="5.273322"></trkpt>
      <trkpt lat="52.064359" lon="5.276411"></trkpt>
      <trkpt lat="52.064883" lon="5.280153"></trkpt>
      <trkpt lat="52.065008" lon="5.282803"></trkpt>
      <trkpt lat="52.065373" lon="5.324363"></trkpt>
      <trkpt lat="52.06543" lon="5.360397"></trkpt>
      <trkpt lat="52.065171" lon="5.363385"></trkpt>
      <trkpt lat="52.064728" lon="5.366183"></trkpt>
      <trkpt lat="52.060929" lon="5.382182"></trkpt>
      <trkpt lat="52.058339" lon="5.391194"></trkpt>
      <trkpt lat="52.055769" lon="5.399094"></trkpt>
      <trkpt lat="52.054862" lon="5.402279"></trkpt>
      <trkpt lat="52.05381" lon="5.40709"></trkpt>
      <trkpt lat="52.053248" lon="5.410901"></trkpt>
      <trkpt lat="52.052772" lon="5.415223"></trkpt>
      <trkpt lat="52.052358" lon="5.420488"></trkpt>
      <trkpt lat="52.050313" lon="5.469332"></trkpt>
      <trkpt lat="52.048379" lon="5.486405"></trkpt>
      <trkpt lat="52.045855" lon="5.51638"></trkpt>
      <trkpt lat="52.045361" lon="5.519694"></trkpt>
      <trkpt lat="52.043509" lon="5.529675"></trkpt>
      <trkpt lat="52.043141" lon="5.53219"></trkpt>
      <trkpt lat="52.042835" lon="5.537808"></trkpt>
      <trkpt lat="52.042354" lon="5.556448"></trkpt>
      <trkpt lat="52.042123" lon="5.560327"></trkpt>
      <trkpt lat="52.041693" lon="5.56365"></trkpt>
      <trkpt lat="52.040624" lon="5.568453"></trkpt>
      <trkpt lat="52.036519" lon="5.584072"></trkpt>
      <trkpt lat="52.035404" lon="5.58781"></trkpt>
      <trkpt lat="52.033698" lon="5.592474"></trkpt>
      <trkpt lat="52.024158" lon="5.616021"></trkpt>
      <trkpt lat="52.019223" lon="5.629177"></trkpt>
      <trkpt lat="52.0173" lon="5.635358"></trkpt>
      <trkpt lat="52.015913" lon="5.641433"></trkpt>
      <trkpt lat="52.015099" lon="5.646504"></trkpt>
      <trkpt lat="52.012429" lon="5.674617"></trkpt>
      <trkpt lat="52.012281" lon="5.679616"></trkpt>
      <trkpt lat="52.012703" lon="5.690957"></trkpt>
      <trkpt lat="52.013043" lon="5.694738"></trkpt>
      <trkpt lat="52.013532" lon="5.697717"></trkpt>
      <trkpt lat="52.014241" lon="5.700677"></trkpt>
      <trkpt lat="52.015403" lon="5.7042"></trkpt>
      <trkpt lat="52.016485" lon="5.7067"></trkpt>
      <trkpt lat="52.019038" lon="5.712031"></trkpt>
      <trkpt lat="52.020485" lon="5.716007"></trkpt>
      <trkpt lat="52.021508" lon="5.720163"></trkpt>
      <trkpt lat="52.022111" lon="5.724452"></trkpt>
      <trkpt lat="52.022295" lon="5.727622"></trkpt>
      <trkpt lat="52.022262" lon="5.730804"></trkpt>
      <trkpt lat="52.021434" lon="5.746407"></trkpt>
      <trkpt lat="52.021277" lon="5.754387"></trkpt>
      <trkpt lat="52.021406" lon="5.762732"></trkpt>
      <trkpt lat="52.022063" lon="5.778245"></trkpt>
      <trkpt lat="52.022022" lon="5.791755"></trkpt>
      <trkpt lat="52.022189" lon="5.796891"></trkpt>
      <trkpt lat="52.022538" lon="5.801151"></trkpt>
      <trkpt lat="52.022935" lon="5.804342"></trkpt>
      <trkpt lat="52.027873" lon="5.837819"></trkpt>
      <trkpt lat="52.02846" lon="5.843464"></trkpt>
      <trkpt lat="52.028687" lon="5.848606"></trkpt>
      <trkpt lat="52.028657" lon="5.852939"></trkpt>
      <trkpt lat="52.028427" lon="5.857274"></trkpt>
      <trkpt lat="52.028048" lon="5.861158"></trkpt>
      <trkpt lat="52.027512" lon="5.864976"></trkpt>
      <trkpt lat="52.026937" lon="5.868137"></trkpt>
      <trkpt lat="52.026051" lon="5.87208"></trkpt>
      <trkpt lat="52.021671" lon="5.887865"></trkpt>
      <trkpt lat="52.020579" lon="5.892703"></trkpt>
      <trkpt lat="52.019356" lon="5.900046"></trkpt>
      <trkpt lat="52.015865" lon="5.923367"></trkpt>
      <trkpt lat="52.014533" lon="5.931373"></trkpt>
      <trkpt lat="52.013349" lon="5.935638"></trkpt>
      <trkpt lat="52.011936" lon="5.939164"></trkpt>
      <trkpt lat="52.010201" lon="5.942363"></trkpt>
      <trkpt lat="52.008784" lon="5.94435"></trkpt>
      <trkpt lat="52.007387" lon="5.945977"></trkpt>
      <trkpt lat="52.005647" lon="5.947576"></trkpt>
      <trkpt lat="52.004005" lon="5.948744"></trkpt>
      <trkpt lat="51.995985" lon="5.952615"></trkpt>
      <trkpt lat="51.994704" lon="5.953356"></trkpt>
      <trkpt lat="51.993478" lon="5.954235"></trkpt>
      <trkpt lat="51.992234" lon="5.955299"></trkpt>
      <trkpt lat="51.990472" lon="5.957213"></trkpt>
      <trkpt lat="51.989811" lon="5.95805"></trkpt>
      <trkpt lat="51.9881" lon="5.960737"></trkpt>
      <trkpt lat="51.986971" lon="5.962971"></trkpt>
      <trkpt lat="51.985967" lon="5.965379"></trkpt>
      <trkpt lat="51.984728" lon="5.969196"></trkpt>
      <trkpt lat="51.982418" lon="5.977041"></trkpt>
      <trkpt lat="51.98149" lon="5.979387"></trkpt>
      <trkpt lat="51.980546" lon="5.981361"></trkpt>
      <trkpt lat="51.979377" lon="5.98339"></trkpt>
      <trkpt lat="51.977922" lon="5.985465"></trkpt>
      <trkpt lat="51.970155" lon="5.995268"></trkpt>
      <trkpt lat="51.969223" lon="5.996663"></trkpt>
      <trkpt lat="51.967995" lon="5.998879"></trkpt>
      <trkpt lat="51.966822" lon="6.00153"></trkpt>
      <trkpt lat="51.965372" lon="6.005976"></trkpt>
      <trkpt lat="51.957198" lon="6.036637"></trkpt>
      <trkpt lat="51.955325" lon="6.043174"></trkpt>
      <trkpt lat="51.945371" lon="6.07466"></trkpt>
      <trkpt lat="51.943871" lon="6.078779"></trkpt>
      <trkpt lat="51.942147" lon="6.082627"></trkpt>
      <trkpt lat="51.908365" lon="6.152393"></trkpt>
      <trkpt lat="51.906371" lon="6.156313"></trkpt>
      <trkpt lat="51.904562" lon="6.159098"></trkpt>
      <trkpt lat="51.903007" lon="6.160966"></trkpt>
      <trkpt lat="51.901203" lon="6.16284"></trkpt>
      <trkpt lat="51.900196" lon="6.163662"></trkpt>
      <trkpt lat="51.8961" lon="6.16787"></trkpt>
      <trkpt lat="51.895327" lon="6.168877"></trkpt>
      <trkpt lat="51.884927" lon="6.179602"></trkpt>
      <trkpt lat="51.881721" lon="6.183447"></trkpt>
      <trkpt lat="51.879368" lon="6.186712"></trkpt>
      <trkpt lat="51.877713" lon="6.189285"></trkpt>
      <trkpt lat="51.875729" lon="6.192727"></trkpt>
      <trkpt lat="51.872891" lon="6.198341"></trkpt>
      <trkpt lat="51.870737" lon="6.203459"></trkpt>
      <trkpt lat="51.868628" lon="6.209444"></trkpt>
      <trkpt lat="51.86682" lon="6.215717"></trkpt>
      <trkpt lat="51.865452" lon="6.221764"></trkpt>
      <trkpt lat="51.864306" lon="6.228601"></trkpt>
      <trkpt lat="51.863716" lon="6.233415"></trkpt>
      <trkpt lat="51.863305" lon="6.238583"></trkpt>
      <trkpt lat="51.862684" lon="6.254603"></trkpt>
      <trkpt lat="51.862272" lon="6.262421"></trkpt>
      <trkpt lat="51.861819" lon="6.265768"></trkpt>
      <trkpt lat="51.861221" lon="6.268775"></trkpt>
      <trkpt lat="51.860124" lon="6.272495"></trkpt>
      <trkpt lat="51.859257" lon="6.274735"></trkpt>
      <trkpt lat="51.85287" lon="6.288359"></trkpt>
      <trkpt lat="51.84987" lon="6.295017"></trkpt>
      <trkpt lat="51.848516" lon="6.298577"></trkpt>
      <trkpt lat="51.847596" lon="6.301516"></trkpt>
      <trkpt lat="51.846348" lon="6.306899"></trkpt>
      <trkpt lat="51.845773" lon="6.310516"></trkpt>
      <trkpt lat="51.845289" lon="6.315632"></trkpt>
      <trkpt lat="51.844328" lon="6.33137"></trkpt>
      <trkpt lat="51.843869" lon="6.33511"></trkpt>
      <trkpt lat="51.843178" lon="6.338846"></trkpt>
      <trkpt lat="51.842354" lon="6.342177"></trkpt>
      <trkpt lat="51.840996" lon="6.346373"></trkpt>
      <trkpt lat="51.828192" lon="6.380062"></trkpt>
      <trkpt lat="51.826771" lon="6.384351"></trkpt>
      <trkpt lat="51.825606" lon="6.388686"></trkpt>
      <trkpt lat="51.82459" lon="6.393604"></trkpt>
      <trkpt lat="51.824097" lon="6.396766"></trkpt>
      <trkpt lat="51.821616" lon="6.419833"></trkpt>
      <trkpt lat="51.82098" lon="6.424513"></trkpt>
      <trkpt lat="51.819746" lon="6.431216"></trkpt>
      <trkpt lat="51.818842" lon="6.434911"></trkpt>
      <trkpt lat="51.817565" lon="6.439395"></trkpt>
      <trkpt lat="51.804614" lon="6.479036"></trkpt>
      <trkpt lat="51.803393" lon="6.482482"></trkpt>
      <trkpt lat="51.801824" lon="6.485981"></trkpt>
      <trkpt lat="51.79974" lon="6.48936"></trkpt>
      <trkpt lat="51.797442" lon="6.49201"></trkpt>
      <trkpt lat="51.793815" lon="6.494813"></trkpt>
      <trkpt lat="51.788549" lon="6.498321"></trkpt>
      <trkpt lat="51.786744" lon="6.499696"></trkpt>
      <trkpt lat="51.785333" lon="6.501058"></trkpt>
      <trkpt lat="51.784422" lon="6.502132"></trkpt>
      <trkpt lat="51.782707" lon="6.504615"></trkpt>
      <trkpt lat="51.781161" lon="6.507775"></trkpt>
      <trkpt lat="51.780083" lon="6.510615"></trkpt>
      <trkpt lat="51.776136" lon="6.523584"></trkpt>
      <trkpt lat="51.774146" lon="6.529423"></trkpt>
      <trkpt lat="51.770986" lon="6.536843"></trkpt>
      <trkpt lat="51.769534" lon="6.539831"></trkpt>
      <trkpt lat="51.767245" lon="6.544048"></trkpt>
      <trkpt lat="51.756951" lon="6.559954"></trkpt>
      <trkpt lat="51.755401" lon="6.562554"></trkpt>
      <trkpt lat="51.754167" lon="6.56507"></trkpt>
      <trkpt lat="51.753224" lon="6.56739"></trkpt>
      <trkpt lat="51.752591" lon="6.569311"></trkpt>
      <trkpt lat="51.751638" lon="6.572885"></trkpt>
      <trkpt lat="51.747078" lon="6.595393"></trkpt>
      <trkpt lat="51.745874" lon="6.599239"></trkpt>
      <trkpt lat="51.744422" lon="6.602435"></trkpt>
      <trkpt lat="51.743308" lon="6.604345"></trkpt>
      <trkpt lat="51.741386" lon="6.606874"></trkpt>
      <trkpt lat="51.739964" lon="6.60833"></trkpt>
      <trkpt lat="51.738552" lon="6.609424"></trkpt>
      <trkpt lat="51.73724" lon="6.610234"></trkpt>
      <trkpt lat="51.735416" lon="6.611141"></trkpt>
      <trkpt lat="51.720308" lon="6.617781"></trkpt>
      <trkpt lat="51.717096" lon="6.619364"></trkpt>
      <trkpt lat="51.715181" lon="6.620603"></trkpt>
      <trkpt lat="51.713176" lon="6.622336"></trkpt>
      <trkpt lat="51.711536" lon="6.624127"></trkpt>
      <trkpt lat="51.709771" lon="6.626531"></trkpt>
      <trkpt lat="51.708761" lon="6.62818"></trkpt>
      <trkpt lat="51.707115" lon="6.631548"></trkpt>
      <trkpt lat="51.705727" lon="6.635292"></trkpt>
      <trkpt lat="51.705086" lon="6.637419"></trkpt>
      <trkpt lat="51.704029" lon="6.6427"></trkpt>
      <trkpt lat="51.701927" lon="6.656028"></trkpt>
      <trkpt lat="51.701053" lon="6.659449"></trkpt>
      <trkpt lat="51.699976" lon="6.662438"></trkpt>
      <trkpt lat="51.698974" lon="6.664581"></trkpt>
      <trkpt lat="51.697828" lon="6.666555"></trkpt>
      <trkpt lat="51.69621" lon="6.668816"></trkpt>
      <trkpt lat="51.691408" lon="6.674723"></trkpt>
      <trkpt lat="51.689986" lon="6.67696"></trkpt>
      <trkpt lat="51.689096" lon="6.678621"></trkpt>
      <trkpt lat="51.688108" lon="6.680814"></trkpt>
      <trkpt lat="51.687119" lon="6.683523"></trkpt>
      <trkpt lat="51.68307" lon="6.697263"></trkpt>
      <trkpt lat="51.681991" lon="6.700462"></trkpt>
      <trkpt lat="51.681005" lon="6.702784"></trkpt>
      <trkpt lat="51.679925" lon="6.704902"></trkpt>
      <trkpt lat="51.678233" lon="6.707508"></trkpt>
      <trkpt lat="51.676951" lon="6.709117"></trkpt>
      <trkpt lat="51.654745" lon="6.732559"></trkpt>
      <trkpt lat="51.651368" lon="6.735921"></trkpt>
      <trkpt lat="51.649215" lon="6.737612"></trkpt>
      <trkpt lat="51.647264" lon="6.738922"></trkpt>
      <trkpt lat="51.635439" lon="6.746304"></trkpt>
      <trkpt lat="51.633172" lon="6.747924"></trkpt>
      <trkpt lat="51.630697" lon="6.750149"></trkpt>
      <trkpt lat="51.629116" lon="6.751872"></trkpt>
      <trkpt lat="51.6273" lon="6.754119"></trkpt>
      <trkpt lat="51.609778" lon="6.776552"></trkpt>
      <trkpt lat="51.607986" lon="6.778451"></trkpt>
      <trkpt lat="51.606459" lon="6.779707"></trkpt>
      <trkpt lat="51.605472" lon="6.780351"></trkpt>
      <trkpt lat="51.603149" lon="6.781358"></trkpt>
      <trkpt lat="51.601212" lon="6.781829"></trkpt>
      <trkpt lat="51.593995" lon="6.782437"></trkpt>
      <trkpt lat="51.591768" lon="6.782829"></trkpt>
      <trkpt lat="51.590591" lon="6.783197"></trkpt>
      <trkpt lat="51.589524" lon="6.783699"></trkpt>
      <trkpt lat="51.587187" lon="6.785212"></trkpt>
      <trkpt lat="51.585211" lon="6.787097"></trkpt>
      <trkpt lat="51.578598" lon="6.794981"></trkpt>
      <trkpt lat="51.576694" lon="6.796915"></trkpt>
      <trkpt lat="51.574439" lon="6.79888"></trkpt>
      <trkpt lat="51.570751" lon="6.801436"></trkpt>
      <trkpt lat="51.557967" lon="6.809093"></trkpt>
      <trkpt lat="51.556064" lon="6.810502"></trkpt>
      <trkpt lat="51.55508" lon="6.81137"></trkpt>
      <trkpt lat="51.554181" lon="6.812248"></trkpt>
      <trkpt lat="51.552311" lon="6.814394"></trkpt>
      <trkpt lat="51.542514" lon="6.826493"></trkpt>
      <trkpt lat="51.540233" lon="6.829566"></trkpt>
      <trkpt lat="51.53964" lon="6.830228"></trkpt>
      <trkpt lat="51.539129" lon="6.83061"></trkpt>
      <trkpt lat="51.538581" lon="6.830845"></trkpt>
      <trkpt lat="51.537756" lon="6.830892"></trkpt>
      <trkpt lat="51.537295" lon="6.830756"></trkpt>
      <trkpt lat="51.536626" lon="6.830282"></trkpt>
      <trkpt lat="51.536114" lon="6.829606"></trkpt>
      <trkpt lat="51.534133" lon="6.825887"></trkpt>
      <trkpt lat="51.532103" lon="6.822799"></trkpt>
      <trkpt lat="51.530714" lon="6.821019"></trkpt>
      <trkpt lat="51.527797" lon="6.817772"></trkpt>
      <trkpt lat="51.52622" lon="6.816318"></trkpt>
      <trkpt lat="51.524642" lon="6.815208"></trkpt>
      <trkpt lat="51.522758" lon="6.814398"></trkpt>
      <trkpt lat="51.521545" lon="6.81414"></trkpt>
      <trkpt lat="51.520139" lon="6.814116"></trkpt>
      <trkpt lat="51.519127" lon="6.814271"></trkpt>
      <trkpt lat="51.517003" lon="6.815044"></trkpt>
      <trkpt lat="51.516068" lon="6.815566"></trkpt>
      <trkpt lat="51.514611" lon="6.816607"></trkpt>
      <trkpt lat="51.507525" lon="6.822154"></trkpt>
      <trkpt lat="51.506422" lon="6.822586"></trkpt>
      <trkpt lat="51.505008" lon="6.822805"></trkpt>
      <trkpt lat="51.503959" lon="6.822701"></trkpt>
      <trkpt lat="51.502764" lon="6.822301"></trkpt>
      <trkpt lat="51.493395" lon="6.817727"></trkpt>
      <trkpt lat="51.491627" lon="6.81684"></trkpt>
      <trkpt lat="51.491461" lon="6.81663"></trkpt>
      <trkpt lat="51.490032" lon="6.815778"></trkpt>
      <trkpt lat="51.489147" lon="6.81496"></trkpt>
      <trkpt lat="51.488596" lon="6.814092"></trkpt>
      <trkpt lat="51.488025" lon="6.812658"></trkpt>
      <trkpt lat="51.48779" lon="6.81163"></trkpt>
      <trkpt lat="51.487395" lon="6.808144"></trkpt>
      <trkpt lat="51.486954" lon="6.805651"></trkpt>
      <trkpt lat="51.485183" lon="6.800017"></trkpt>
      <trkpt lat="51.48477" lon="6.79811"></trkpt>
      <trkpt lat="51.48464" lon="6.796757"></trkpt>
      <trkpt lat="51.484687" lon="6.794923"></trkpt>
      <trkpt lat="51.484996" lon="6.793071"></trkpt>
      <trkpt lat="51.486138" lon="6.788394"></trkpt>
      <trkpt lat="51.486367" lon="6.786547"></trkpt>
      <trkpt lat="51.486366" lon="6.785041"></trkpt>
      <trkpt lat="51.486197" lon="6.783557"></trkpt>
      <trkpt lat="51.485829" lon="6.781937"></trkpt>
      <trkpt lat="51.485225" lon="6.780385"></trkpt>
      <trkpt lat="51.484016" lon="6.777988"></trkpt>
      <trkpt lat="51.483364" lon="6.775746"></trkpt>
      <trkpt lat="51.48342" lon="6.773696"></trkpt>
      <trkpt lat="51.484102" lon="6.771236"></trkpt>
      <trkpt lat="51.4839" lon="6.770052"></trkpt>
      <trkpt lat="51.483379" lon="6.769476"></trkpt>
      <trkpt lat="51.482819" lon="6.769453"></trkpt>
      <trkpt lat="51.48178" lon="6.770194"></trkpt>
      <trkpt lat="51.481143" lon="6.770429"></trkpt>
      <trkpt lat="51.480238" lon="6.770286"></trkpt>
      <trkpt lat="51.478964" lon="6.769674"></trkpt>
      <trkpt lat="51.474648" lon="6.766304"></trkpt>
      <trkpt lat="51.473464" lon="6.765524"></trkpt>
      <trkpt lat="51.472907" lon="6.765286"></trkpt>
      <trkpt lat="51.471886" lon="6.765061"></trkpt>
      <trkpt lat="51.470677" lon="6.76514"></trkpt>
      <trkpt lat="51.469343" lon="6.765674"></trkpt>
      <trkpt lat="51.466518" lon="6.767647"></trkpt>
      <trkpt lat="51.463738" lon="6.768606"></trkpt>
      <trkpt lat="51.463055" lon="6.769005"></trkpt>
      <trkpt lat="51.462285" lon="6.769688"></trkpt>
      <trkpt lat="51.455817" lon="6.776589"></trkpt>
      <trkpt lat="51.454869" lon="6.777343"></trkpt>
      <trkpt lat="51.453907" lon="6.777761"></trkpt>
      <trkpt lat="51.452312" lon="6.778226"></trkpt>
      <trkpt lat="51.448992" lon="6.778685"></trkpt>
      <trkpt lat="51.446618" lon="6.7786"></trkpt>
      <trkpt lat="51.445326" lon="6.778414"></trkpt>
      <trkpt lat="51.443574" lon="6.777587"></trkpt>
      <trkpt lat="51.439855" lon="6.775545"></trkpt>
      <trkpt lat="51.439232" lon="6.775249"></trkpt>
      <trkpt lat="51.438656" lon="6.775139"></trkpt>
      <trkpt lat="51.437476" lon="6.775243"></trkpt>
      <trkpt lat="51.43563" lon="6.776201"></trkpt>
      <trkpt lat="51.434933" lon="6.776276"></trkpt>
      <trkpt lat="51.434343" lon="6.776139"></trkpt>
      <trkpt lat="51.433718" lon="6.775736"></trkpt>
      <trkpt lat="51.432381" lon="6.774277"></trkpt>
      <trkpt lat="51.431585" lon="6.773679"></trkpt>
      <trkpt lat="51.426209" lon="6.770285"></trkpt>
      <trkpt lat="51.426" lon="6.769843"></trkpt>
      <trkpt lat="51.426098" lon="6.769382"></trkpt>
      <trkpt lat="51.426491" lon="6.769031"></trkpt>
      <trkpt lat="51.427198" lon="6.770428"></trkpt>
      <trkpt lat="51.427677" lon="6.770421"></trkpt>
      <trkpt lat="51.428236" lon="6.77062"></trkpt>
      <trkpt lat="51.42804" lon="6.770414"></trkpt>
  </trkseg></trk>
</gpx>
