<?xml version="1.0" encoding="UTF-8"?>
<gpx version="1.1" creator="yatutbuv" xmlns="http://www.topografix.com/GPX/1/1">
  <trk><name>GraphHopper Track</name><trkseg>
      <trkpt lat="36.899924" lon="30.798419"></trkpt>
      <trkpt lat="36.901417" lon="30.798609"></trkpt>
      <trkpt lat="36.901804" lon="30.798918"></trkpt>
      <trkpt lat="36.901783" lon="30.799152"></trkpt>
      <trkpt lat="36.905371" lon="30.7996"></trkpt>
      <trkpt lat="36.907909" lon="30.800122"></trkpt>
      <trkpt lat="36.907866" lon="30.801546"></trkpt>
      <trkpt lat="36.907951" lon="30.801778"></trkpt>
      <trkpt lat="36.908362" lon="30.801965"></trkpt>
      <trkpt lat="36.90968" lon="30.802145"></trkpt>
      <trkpt lat="36.909789" lon="30.802364"></trkpt>
      <trkpt lat="36.909593" lon="30.804813"></trkpt>
      <trkpt lat="36.909666" lon="30.804961"></trkpt>
      <trkpt lat="36.912084" lon="30.805244"></trkpt>
      <trkpt lat="36.913129" lon="30.805528"></trkpt>
      <trkpt lat="36.914388" lon="30.805545"></trkpt>
      <trkpt lat="36.920063" lon="30.806257"></trkpt>
      <trkpt lat="36.920581" lon="30.80644"></trkpt>
      <trkpt lat="36.921333" lon="30.807016"></trkpt>
      <trkpt lat="36.922509" lon="30.808672"></trkpt>
      <trkpt lat="36.922969" lon="30.808969"></trkpt>
      <trkpt lat="36.92643" lon="30.809203"></trkpt>
      <trkpt lat="36.927131" lon="30.809128"></trkpt>
      <trkpt lat="36.928809" lon="30.808136"></trkpt>
      <trkpt lat="36.930601" lon="30.806484"></trkpt>
      <trkpt lat="36.931533" lon="30.805465"></trkpt>
      <trkpt lat="36.931942" lon="30.805414"></trkpt>
      <trkpt lat="36.93222" lon="30.805597"></trkpt>
      <trkpt lat="36.932402" lon="30.805954"></trkpt>
      <trkpt lat="36.932401" lon="30.806398"></trkpt>
      <trkpt lat="36.932218" lon="30.806745"></trkpt>
      <trkpt lat="36.931936" lon="30.806893"></trkpt>
      <trkpt lat="36.931632" lon="30.80685"></trkpt>
      <trkpt lat="36.931294" lon="30.806541"></trkpt>
      <trkpt lat="36.912092" lon="30.773269"></trkpt>
      <trkpt lat="36.910771" lon="30.771809"></trkpt>
      <trkpt lat="36.903739" lon="30.76601"></trkpt>
      <trkpt lat="36.902651" lon="30.765223"></trkpt>
      <trkpt lat="36.901081" lon="30.76371"></trkpt>
      <trkpt lat="36.900641" lon="30.762965"></trkpt>
      <trkpt lat="36.900573" lon="30.762649"></trkpt>
      <trkpt lat="36.90057" lon="30.762223"></trkpt>
      <trkpt lat="36.900747" lon="30.76159"></trkpt>
      <trkpt lat="36.90194" lon="30.759058"></trkpt>
      <trkpt lat="36.90759" lon="30.748201"></trkpt>
      <trkpt lat="36.90969" lon="30.74215"></trkpt>
      <trkpt lat="36.911107" lon="30.737683"></trkpt>
      <trkpt lat="36.91151" lon="30.736329"></trkpt>
      <trkpt lat="36.911966" lon="30.734108"></trkpt>
      <trkpt lat="36.91349" lon="30.723028"></trkpt>
      <trkpt lat="36.913584" lon="30.721317"></trkpt>
      <trkpt lat="36.913537" lon="30.719415"></trkpt>
      <trkpt lat="36.912425" lon="30.704579"></trkpt>
      <trkpt lat="36.911989" lon="30.701673"></trkpt>
      <trkpt lat="36.906991" lon="30.684578"></trkpt>
      <trkpt lat="36.904745" lon="30.676516"></trkpt>
      <trkpt lat="36.901258" lon="30.664852"></trkpt>
      <trkpt lat="36.900487" lon="30.655789"></trkpt>
      <trkpt lat="36.901504" lon="30.644824"></trkpt>
      <trkpt lat="36.900298" lon="30.636701"></trkpt>
      <trkpt lat="36.900027" lon="30.632606"></trkpt>
      <trkpt lat="36.899758" lon="30.624342"></trkpt>
      <trkpt lat="36.899357" lon="30.621886"></trkpt>
      <trkpt lat="36.898839" lon="30.620987"></trkpt>
      <trkpt lat="36.898269" lon="30.619338"></trkpt>
      <trkpt lat="36.897012" lon="30.619099"></trkpt>
      <trkpt lat="36.896466" lon="30.618865"></trkpt>
      <trkpt lat="36.885294" lon="30.610048"></trkpt>
      <trkpt lat="36.884502" lon="30.6096"></trkpt>
      <trkpt lat="36.883347" lon="30.609485"></trkpt>
      <trkpt lat="36.874615" lon="30.610212"></trkpt>
      <trkpt lat="36.862604" lon="30.609693"></trkpt>
      <trkpt lat="36.86184" lon="30.609555"></trkpt>
      <trkpt lat="36.861052" lon="30.6092"></trkpt>
      <trkpt lat="36.856175" lon="30.606313"></trkpt>
      <trkpt lat="36.842174" lon="30.597758"></trkpt>
      <trkpt lat="36.838875" lon="30.595961"></trkpt>
      <trkpt lat="36.836478" lon="30.595307"></trkpt>
      <trkpt lat="36.83107" lon="30.595297"></trkpt>
      <trkpt lat="36.827021" lon="30.594975"></trkpt>
      <trkpt lat="36.826016" lon="30.594747"></trkpt>
      <trkpt lat="36.823576" lon="30.593762"></trkpt>
      <trkpt lat="36.820648" lon="30.593204"></trkpt>
      <trkpt lat="36.819424" lon="30.59274"></trkpt>
      <trkpt lat="36.817532" lon="30.591483"></trkpt>
      <trkpt lat="36.817146" lon="30.591098"></trkpt>
      <trkpt lat="36.814077" lon="30.587404"></trkpt>
      <trkpt lat="36.813392" lon="30.58714"></trkpt>
      <trkpt lat="36.81237" lon="30.587016"></trkpt>
      <trkpt lat="36.811729" lon="30.586669"></trkpt>
      <trkpt lat="36.809636" lon="30.583848"></trkpt>
      <trkpt lat="36.808969" lon="30.58356"></trkpt>
      <trkpt lat="36.807435" lon="30.583545"></trkpt>
      <trkpt lat="36.806535" lon="30.583128"></trkpt>
      <trkpt lat="36.805933" lon="30.582522"></trkpt>
      <trkpt lat="36.80456" lon="30.580557"></trkpt>
      <trkpt lat="36.802646" lon="30.579465"></trkpt>
      <trkpt lat="36.801668" lon="30.578708"></trkpt>
      <trkpt lat="36.801216" lon="30.57802"></trkpt>
      <trkpt lat="36.799713" lon="30.573484"></trkpt>
      <trkpt lat="36.79917" lon="30.572733"></trkpt>
      <trkpt lat="36.798371" lon="30.572196"></trkpt>
      <trkpt lat="36.797279" lon="30.572056"></trkpt>
      <trkpt lat="36.795278" lon="30.572646"></trkpt>
      <trkpt lat="36.793216" lon="30.573514"></trkpt>
      <trkpt lat="36.792521" lon="30.573667"></trkpt>
      <trkpt lat="36.789837" lon="30.573455"></trkpt>
      <trkpt lat="36.78801" lon="30.573095"></trkpt>
      <trkpt lat="36.787038" lon="30.572584"></trkpt>
      <trkpt lat="36.786074" lon="30.571722"></trkpt>
      <trkpt lat="36.783246" lon="30.567364"></trkpt>
      <trkpt lat="36.78275" lon="30.566829"></trkpt>
      <trkpt lat="36.782016" lon="30.566508"></trkpt>
      <trkpt lat="36.781335" lon="30.56666"></trkpt>
      <trkpt lat="36.78084" lon="30.566954"></trkpt>
      <trkpt lat="36.772794" lon="30.572651"></trkpt>
      <trkpt lat="36.772045" lon="30.572869"></trkpt>
      <trkpt lat="36.770551" lon="30.572521"></trkpt>
      <trkpt lat="36.765" lon="30.569783"></trkpt>
      <trkpt lat="36.764046" lon="30.569521"></trkpt>
      <trkpt lat="36.763093" lon="30.569336"></trkpt>
      <trkpt lat="36.761901" lon="30.569269"></trkpt>
      <trkpt lat="36.760562" lon="30.569334"></trkpt>
      <trkpt lat="36.75905" lon="30.569597"></trkpt>
      <trkpt lat="36.758081" lon="30.569456"></trkpt>
      <trkpt lat="36.75477" lon="30.567999"></trkpt>
      <trkpt lat="36.751024" lon="30.566649"></trkpt>
      <trkpt lat="36.74831" lon="30.565534"></trkpt>
      <trkpt lat="36.746601" lon="30.564115"></trkpt>
      <trkpt lat="36.744324" lon="30.561323"></trkpt>
      <trkpt lat="36.743683" lon="30.560789"></trkpt>
      <trkpt lat="36.738601" lon="30.557165"></trkpt>
      <trkpt lat="36.736608" lon="30.555575"></trkpt>
      <trkpt lat="36.734576" lon="30.554237"></trkpt>
      <trkpt lat="36.733392" lon="30.553756"></trkpt>
      <trkpt lat="36.732647" lon="30.553624"></trkpt>
      <trkpt lat="36.731802" lon="30.55366"></trkpt>
      <trkpt lat="36.730568" lon="30.554129"></trkpt>
      <trkpt lat="36.729782" lon="30.554711"></trkpt>
      <trkpt lat="36.727602" lon="30.556765"></trkpt>
      <trkpt lat="36.726861" lon="30.557315"></trkpt>
      <trkpt lat="36.725595" lon="30.557898"></trkpt>
      <trkpt lat="36.724004" lon="30.558178"></trkpt>
      <trkpt lat="36.721185" lon="30.557688"></trkpt>
      <trkpt lat="36.721154" lon="30.558044"></trkpt>
      <trkpt lat="36.721965" lon="30.561179"></trkpt>
      <trkpt lat="36.721981" lon="30.56161"></trkpt>
      <trkpt lat="36.720281" lon="30.56235"></trkpt>
      <trkpt lat="36.717549" lon="30.563037"></trkpt>
      <trkpt lat="36.715135" lon="30.564706"></trkpt>
      <trkpt lat="36.713359" lon="30.564992"></trkpt>
      <trkpt lat="36.70938" lon="30.566007"></trkpt>
      <trkpt lat="36.70738" lon="30.566349"></trkpt>
      <trkpt lat="36.70588" lon="30.567045"></trkpt>
      <trkpt lat="36.703885" lon="30.568689"></trkpt>
      <trkpt lat="36.702505" lon="30.569465"></trkpt>
      <trkpt lat="36.701677" lon="30.569674"></trkpt>
      <trkpt lat="36.697507" lon="30.569659"></trkpt>
      <trkpt lat="36.695963" lon="30.569855"></trkpt>
      <trkpt lat="36.695683" lon="30.571278"></trkpt>
      <trkpt lat="36.696434" lon="30.571437"></trkpt>
  </trkseg></trk>
</gpx>
