<?xml version="1.0" encoding="UTF-8"?>
<gpx version="1.1" creator="yatutbuv" xmlns="http://www.topografix.com/GPX/1/1">
  <trk><name>GraphHopper Track</name><trkseg>
      <trkpt lat="51.599089" lon="6.150085"></trkpt>
      <trkpt lat="51.599074" lon="6.149275"></trkpt>
      <trkpt lat="51.598961" lon="6.148973"></trkpt>
      <trkpt lat="51.598676" lon="6.148756"></trkpt>
      <trkpt lat="51.596501" lon="6.148655"></trkpt>
      <trkpt lat="51.596268" lon="6.148752"></trkpt>
      <trkpt lat="51.595943" lon="6.149331"></trkpt>
      <trkpt lat="51.595854" lon="6.151626"></trkpt>
      <trkpt lat="51.595706" lon="6.152218"></trkpt>
      <trkpt lat="51.595453" lon="6.152667"></trkpt>
      <trkpt lat="51.594879" lon="6.153021"></trkpt>
      <trkpt lat="51.593846" lon="6.153063"></trkpt>
      <trkpt lat="51.593235" lon="6.15292"></trkpt>
      <trkpt lat="51.592933" lon="6.153021"></trkpt>
      <trkpt lat="51.59162" lon="6.154962"></trkpt>
      <trkpt lat="51.59145" lon="6.155487"></trkpt>
      <trkpt lat="51.591634" lon="6.157343"></trkpt>
      <trkpt lat="51.59329" lon="6.163276"></trkpt>
      <trkpt lat="51.593322" lon="6.163951"></trkpt>
      <trkpt lat="51.593563" lon="6.164288"></trkpt>
      <trkpt lat="51.594439" lon="6.166398"></trkpt>
      <trkpt lat="51.595874" lon="6.169019"></trkpt>
      <trkpt lat="51.596388" lon="6.170419"></trkpt>
      <trkpt lat="51.597087" lon="6.172938"></trkpt>
      <trkpt lat="51.597732" lon="6.172674"></trkpt>
      <trkpt lat="51.602097" lon="6.171871"></trkpt>
      <trkpt lat="51.604079" lon="6.171703"></trkpt>
      <trkpt lat="51.604985" lon="6.17178"></trkpt>
      <trkpt lat="51.60644" lon="6.172099"></trkpt>
      <trkpt lat="51.60969" lon="6.173294"></trkpt>
      <trkpt lat="51.612695" lon="6.174033"></trkpt>
      <trkpt lat="51.613417" lon="6.174392"></trkpt>
      <trkpt lat="51.614251" lon="6.175106"></trkpt>
      <trkpt lat="51.615154" lon="6.176411"></trkpt>
      <trkpt lat="51.617378" lon="6.182301"></trkpt>
      <trkpt lat="51.618104" lon="6.183706"></trkpt>
      <trkpt lat="51.619796" lon="6.186327"></trkpt>
      <trkpt lat="51.620162" lon="6.187146"></trkpt>
      <trkpt lat="51.620129" lon="6.187693"></trkpt>
      <trkpt lat="51.618861" lon="6.190138"></trkpt>
      <trkpt lat="51.61797" lon="6.1924"></trkpt>
      <trkpt lat="51.61743" lon="6.194632"></trkpt>
      <trkpt lat="51.617127" lon="6.197542"></trkpt>
      <trkpt lat="51.617223" lon="6.200324"></trkpt>
      <trkpt lat="51.617561" lon="6.202627"></trkpt>
      <trkpt lat="51.61829" lon="6.204998"></trkpt>
      <trkpt lat="51.619939" lon="6.209222"></trkpt>
      <trkpt lat="51.619178" lon="6.210032"></trkpt>
      <trkpt lat="51.615923" lon="6.214752"></trkpt>
      <trkpt lat="51.612578" lon="6.221316"></trkpt>
      <trkpt lat="51.611533" lon="6.222639"></trkpt>
      <trkpt lat="51.61184" lon="6.223566"></trkpt>
      <trkpt lat="51.612947" lon="6.225207"></trkpt>
      <trkpt lat="51.613469" lon="6.226228"></trkpt>
      <trkpt lat="51.613909" lon="6.227822"></trkpt>
      <trkpt lat="51.615455" lon="6.231661"></trkpt>
      <trkpt lat="51.616131" lon="6.232433"></trkpt>
      <trkpt lat="51.617313" lon="6.233162"></trkpt>
      <trkpt lat="51.617868" lon="6.233701"></trkpt>
      <trkpt lat="51.618464" lon="6.234733"></trkpt>
      <trkpt lat="51.618738" lon="6.235643"></trkpt>
      <trkpt lat="51.618861" lon="6.23657"></trkpt>
      <trkpt lat="51.618974" lon="6.240401"></trkpt>
      <trkpt lat="51.618696" lon="6.243298"></trkpt>
      <trkpt lat="51.618755" lon="6.244703"></trkpt>
      <trkpt lat="51.619583" lon="6.247973"></trkpt>
      <trkpt lat="51.621692" lon="6.253663"></trkpt>
      <trkpt lat="51.621812" lon="6.254755"></trkpt>
      <trkpt lat="51.621642" lon="6.256708"></trkpt>
      <trkpt lat="51.621741" lon="6.25836"></trkpt>
      <trkpt lat="51.623366" lon="6.263868"></trkpt>
      <trkpt lat="51.624421" lon="6.266448"></trkpt>
      <trkpt lat="51.624866" lon="6.268177"></trkpt>
      <trkpt lat="51.625286" lon="6.271078"></trkpt>
      <trkpt lat="51.625074" lon="6.275283"></trkpt>
      <trkpt lat="51.62519" lon="6.276503"></trkpt>
      <trkpt lat="51.625369" lon="6.277208"></trkpt>
      <trkpt lat="51.62734" lon="6.281801"></trkpt>
      <trkpt lat="51.628437" lon="6.283981"></trkpt>
      <trkpt lat="51.629564" lon="6.285689"></trkpt>
      <trkpt lat="51.631111" lon="6.287565"></trkpt>
      <trkpt lat="51.633389" lon="6.289376"></trkpt>
      <trkpt lat="51.635847" lon="6.290613"></trkpt>
      <trkpt lat="51.636501" lon="6.288592"></trkpt>
      <trkpt lat="51.636801" lon="6.288158"></trkpt>
      <trkpt lat="51.637123" lon="6.288156"></trkpt>
      <trkpt lat="51.637306" lon="6.288342"></trkpt>
      <trkpt lat="51.637432" lon="6.288713"></trkpt>
      <trkpt lat="51.63741" lon="6.289077"></trkpt>
      <trkpt lat="51.636074" lon="6.291881"></trkpt>
      <trkpt lat="51.628891" lon="6.305411"></trkpt>
      <trkpt lat="51.622125" lon="6.31761"></trkpt>
      <trkpt lat="51.619799" lon="6.322196"></trkpt>
      <trkpt lat="51.61466" lon="6.33299"></trkpt>
      <trkpt lat="51.612026" lon="6.337929"></trkpt>
      <trkpt lat="51.595944" lon="6.364757"></trkpt>
      <trkpt lat="51.592919" lon="6.370039"></trkpt>
      <trkpt lat="51.589859" lon="6.376372"></trkpt>
      <trkpt lat="51.587779" lon="6.381498"></trkpt>
      <trkpt lat="51.586402" lon="6.385426"></trkpt>
      <trkpt lat="51.58183" lon="6.400075"></trkpt>
      <trkpt lat="51.57857" lon="6.412226"></trkpt>
      <trkpt lat="51.576937" lon="6.419086"></trkpt>
      <trkpt lat="51.567368" lon="6.461776"></trkpt>
      <trkpt lat="51.566539" lon="6.466884"></trkpt>
      <trkpt lat="51.566019" lon="6.471261"></trkpt>
      <trkpt lat="51.564532" lon="6.490623"></trkpt>
      <trkpt lat="51.563536" lon="6.499663"></trkpt>
      <trkpt lat="51.562104" lon="6.509062"></trkpt>
      <trkpt lat="51.561369" lon="6.513046"></trkpt>
      <trkpt lat="51.560013" lon="6.519391"></trkpt>
      <trkpt lat="51.558702" lon="6.524799"></trkpt>
      <trkpt lat="51.557072" lon="6.530721"></trkpt>
      <trkpt lat="51.551421" lon="6.549039"></trkpt>
      <trkpt lat="51.549873" lon="6.553166"></trkpt>
      <trkpt lat="51.548174" lon="6.557008"></trkpt>
      <trkpt lat="51.546763" lon="6.559743"></trkpt>
      <trkpt lat="51.545154" lon="6.562503"></trkpt>
      <trkpt lat="51.542738" lon="6.566034"></trkpt>
      <trkpt lat="51.54052" lon="6.568781"></trkpt>
      <trkpt lat="51.530409" lon="6.58014"></trkpt>
      <trkpt lat="51.528839" lon="6.581595"></trkpt>
      <trkpt lat="51.527052" lon="6.582927"></trkpt>
      <trkpt lat="51.525878" lon="6.583661"></trkpt>
      <trkpt lat="51.523589" lon="6.58473"></trkpt>
      <trkpt lat="51.521082" lon="6.585437"></trkpt>
      <trkpt lat="51.518913" lon="6.58568"></trkpt>
      <trkpt lat="51.516875" lon="6.5856"></trkpt>
      <trkpt lat="51.514632" lon="6.585177"></trkpt>
      <trkpt lat="51.512685" lon="6.584491"></trkpt>
      <trkpt lat="51.510839" lon="6.583555"></trkpt>
      <trkpt lat="51.508935" lon="6.582299"></trkpt>
      <trkpt lat="51.50329" lon="6.578193"></trkpt>
      <trkpt lat="51.500883" lon="6.576951"></trkpt>
      <trkpt lat="51.498469" lon="6.576105"></trkpt>
      <trkpt lat="51.496667" lon="6.575725"></trkpt>
      <trkpt lat="51.493462" lon="6.575537"></trkpt>
      <trkpt lat="51.491424" lon="6.575782"></trkpt>
      <trkpt lat="51.489976" lon="6.576116"></trkpt>
      <trkpt lat="51.48757" lon="6.576976"></trkpt>
      <trkpt lat="51.484576" lon="6.578588"></trkpt>
      <trkpt lat="51.478252" lon="6.583563"></trkpt>
      <trkpt lat="51.47661" lon="6.584718"></trkpt>
      <trkpt lat="51.47411" lon="6.586353"></trkpt>
      <trkpt lat="51.471301" lon="6.587881"></trkpt>
      <trkpt lat="51.467756" lon="6.589415"></trkpt>
      <trkpt lat="51.463127" lon="6.590809"></trkpt>
      <trkpt lat="51.46007" lon="6.591376"></trkpt>
      <trkpt lat="51.456184" lon="6.591847"></trkpt>
      <trkpt lat="51.454903" lon="6.592077"></trkpt>
      <trkpt lat="51.45364" lon="6.592458"></trkpt>
      <trkpt lat="51.451588" lon="6.593403"></trkpt>
      <trkpt lat="51.449879" lon="6.59451"></trkpt>
      <trkpt lat="51.447889" lon="6.596262"></trkpt>
      <trkpt lat="51.443917" lon="6.600187"></trkpt>
      <trkpt lat="51.442273" lon="6.60151"></trkpt>
      <trkpt lat="51.44048" lon="6.602616"></trkpt>
      <trkpt lat="51.436953" lon="6.603936"></trkpt>
      <trkpt lat="51.435362" lon="6.604213"></trkpt>
      <trkpt lat="51.435117" lon="6.604117"></trkpt>
      <trkpt lat="51.434895" lon="6.603792"></trkpt>
      <trkpt lat="51.434827" lon="6.603448"></trkpt>
      <trkpt lat="51.434923" lon="6.602933"></trkpt>
      <trkpt lat="51.435096" lon="6.602683"></trkpt>
      <trkpt lat="51.435381" lon="6.602595"></trkpt>
      <trkpt lat="51.435665" lon="6.602802"></trkpt>
      <trkpt lat="51.435807" lon="6.603205"></trkpt>
      <trkpt lat="51.436191" lon="6.609308"></trkpt>
      <trkpt lat="51.436144" lon="6.615725"></trkpt>
      <trkpt lat="51.435641" lon="6.625528"></trkpt>
      <trkpt lat="51.435602" lon="6.631866"></trkpt>
      <trkpt lat="51.435892" lon="6.638734"></trkpt>
      <trkpt lat="51.436623" lon="6.650441"></trkpt>
      <trkpt lat="51.43729" lon="6.672056"></trkpt>
      <trkpt lat="51.437394" lon="6.67958"></trkpt>
      <trkpt lat="51.437322" lon="6.683197"></trkpt>
      <trkpt lat="51.437134" lon="6.685799"></trkpt>
      <trkpt lat="51.435401" lon="6.695972"></trkpt>
      <trkpt lat="51.435138" lon="6.699391"></trkpt>
      <trkpt lat="51.435167" lon="6.701244"></trkpt>
      <trkpt lat="51.435538" lon="6.706262"></trkpt>
      <trkpt lat="51.437611" lon="6.718381"></trkpt>
      <trkpt lat="51.43819" lon="6.720947"></trkpt>
      <trkpt lat="51.438453" lon="6.723083"></trkpt>
      <trkpt lat="51.438525" lon="6.724974"></trkpt>
      <trkpt lat="51.438335" lon="6.727553"></trkpt>
      <trkpt lat="51.437941" lon="6.729571"></trkpt>
      <trkpt lat="51.437328" lon="6.73147"></trkpt>
      <trkpt lat="51.436103" lon="6.734549"></trkpt>
      <trkpt lat="51.435269" lon="6.737706"></trkpt>
      <trkpt lat="51.435061" lon="6.739013"></trkpt>
      <trkpt lat="51.434819" lon="6.741626"></trkpt>
      <trkpt lat="51.434786" lon="6.743231"></trkpt>
      <trkpt lat="51.434971" lon="6.747983"></trkpt>
      <trkpt lat="51.434858" lon="6.748448"></trkpt>
      <trkpt lat="51.434387" lon="6.749226"></trkpt>
      <trkpt lat="51.434313" lon="6.749667"></trkpt>
      <trkpt lat="51.434591" lon="6.750677"></trkpt>
      <trkpt lat="51.434561" lon="6.751068"></trkpt>
      <trkpt lat="51.43394" lon="6.752154"></trkpt>
      <trkpt lat="51.431839" lon="6.754932"></trkpt>
      <trkpt lat="51.431488" lon="6.755158"></trkpt>
      <trkpt lat="51.431383" lon="6.754784"></trkpt>
      <trkpt lat="51.431596" lon="6.753918"></trkpt>
      <trkpt lat="51.431897" lon="6.753642"></trkpt>
      <trkpt lat="51.432208" lon="6.753591"></trkpt>
      <trkpt lat="51.432968" lon="6.753726"></trkpt>
      <trkpt lat="51.433371" lon="6.754056"></trkpt>
      <trkpt lat="51.434393" lon="6.756305"></trkpt>
  </trkseg></trk>
</gpx>
