<?xml version="1.0" encoding="UTF-8"?>
<gpx version="1.1" creator="yatutbuv" xmlns="http://www.topografix.com/GPX/1/1">
  <trk><name>GraphHopper Track</name><trkseg>
      <trkpt lat="48.922347" lon="24.724292"></trkpt>
      <trkpt lat="48.923932" lon="24.72359"></trkpt>
      <trkpt lat="48.923515" lon="24.72196"></trkpt>
      <trkpt lat="48.919283" lon="24.71838"></trkpt>
      <trkpt lat="48.918595" lon="24.718005"></trkpt>
      <trkpt lat="48.919015" lon="24.71527"></trkpt>
      <trkpt lat="48.918772" lon="24.710836"></trkpt>
      <trkpt lat="48.919533" lon="24.707789"></trkpt>
      <trkpt lat="48.920011" lon="24.706754"></trkpt>
      <trkpt lat="48.920833" lon="24.705698"></trkpt>
      <trkpt lat="48.919754" lon="24.703411"></trkpt>
      <trkpt lat="48.919225" lon="24.702608"></trkpt>
      <trkpt lat="48.918709" lon="24.702033"></trkpt>
      <trkpt lat="48.917676" lon="24.701219"></trkpt>
      <trkpt lat="48.916034" lon="24.698908"></trkpt>
      <trkpt lat="48.913313" lon="24.695822"></trkpt>
      <trkpt lat="48.906253" lon="24.681986"></trkpt>
      <trkpt lat="48.906175" lon="24.681"></trkpt>
      <trkpt lat="48.906019" lon="24.68081"></trkpt>
      <trkpt lat="48.905552" lon="24.680581"></trkpt>
      <trkpt lat="48.87049" lon="24.611764"></trkpt>
      <trkpt lat="48.867946" lon="24.604135"></trkpt>
      <trkpt lat="48.846724" lon="24.58011"></trkpt>
      <trkpt lat="48.8193" lon="24.549831"></trkpt>
      <trkpt lat="48.819171" lon="24.549858"></trkpt>
      <trkpt lat="48.818994" lon="24.550197"></trkpt>
      <trkpt lat="48.807671" lon="24.555205"></trkpt>
      <trkpt lat="48.806964" lon="24.55547"></trkpt>
      <trkpt lat="48.806341" lon="24.555548"></trkpt>
      <trkpt lat="48.805638" lon="24.555463"></trkpt>
      <trkpt lat="48.803746" lon="24.554722"></trkpt>
      <trkpt lat="48.797788" lon="24.552072"></trkpt>
      <trkpt lat="48.796684" lon="24.551463"></trkpt>
      <trkpt lat="48.796081" lon="24.550627"></trkpt>
      <trkpt lat="48.795694" lon="24.549293"></trkpt>
      <trkpt lat="48.794611" lon="24.54007"></trkpt>
      <trkpt lat="48.794613" lon="24.539268"></trkpt>
      <trkpt lat="48.794942" lon="24.53695"></trkpt>
      <trkpt lat="48.79692" lon="24.529738"></trkpt>
      <trkpt lat="48.785762" lon="24.521675"></trkpt>
      <trkpt lat="48.785448" lon="24.521198"></trkpt>
      <trkpt lat="48.785105" lon="24.521397"></trkpt>
      <trkpt lat="48.739673" lon="24.516822"></trkpt>
      <trkpt lat="48.73719" lon="24.516525"></trkpt>
      <trkpt lat="48.736555" lon="24.516343"></trkpt>
      <trkpt lat="48.735413" lon="24.51562"></trkpt>
      <trkpt lat="48.734859" lon="24.515533"></trkpt>
      <trkpt lat="48.734481" lon="24.515621"></trkpt>
      <trkpt lat="48.73407" lon="24.515897"></trkpt>
      <trkpt lat="48.732823" lon="24.517381"></trkpt>
      <trkpt lat="48.732182" lon="24.517959"></trkpt>
      <trkpt lat="48.729304" lon="24.519499"></trkpt>
      <trkpt lat="48.718554" lon="24.523528"></trkpt>
      <trkpt lat="48.718034" lon="24.523974"></trkpt>
      <trkpt lat="48.715174" lon="24.527359"></trkpt>
      <trkpt lat="48.713763" lon="24.528531"></trkpt>
      <trkpt lat="48.713189" lon="24.528696"></trkpt>
      <trkpt lat="48.710974" lon="24.528063"></trkpt>
      <trkpt lat="48.710311" lon="24.528225"></trkpt>
      <trkpt lat="48.709053" lon="24.529555"></trkpt>
      <trkpt lat="48.706563" lon="24.533031"></trkpt>
      <trkpt lat="48.704731" lon="24.534106"></trkpt>
      <trkpt lat="48.704136" lon="24.534703"></trkpt>
      <trkpt lat="48.696092" lon="24.545199"></trkpt>
      <trkpt lat="48.695103" lon="24.546431"></trkpt>
      <trkpt lat="48.694109" lon="24.547419"></trkpt>
      <trkpt lat="48.692422" lon="24.549653"></trkpt>
      <trkpt lat="48.669164" lon="24.563928"></trkpt>
      <trkpt lat="48.66794" lon="24.564845"></trkpt>
      <trkpt lat="48.667603" lon="24.565374"></trkpt>
      <trkpt lat="48.667438" lon="24.565891"></trkpt>
      <trkpt lat="48.664141" lon="24.577872"></trkpt>
      <trkpt lat="48.66337" lon="24.579253"></trkpt>
      <trkpt lat="48.662595" lon="24.57998"></trkpt>
      <trkpt lat="48.655591" lon="24.583191"></trkpt>
      <trkpt lat="48.654967" lon="24.583211"></trkpt>
      <trkpt lat="48.654421" lon="24.582841"></trkpt>
      <trkpt lat="48.654212" lon="24.582569"></trkpt>
      <trkpt lat="48.653136" lon="24.580657"></trkpt>
      <trkpt lat="48.652633" lon="24.580151"></trkpt>
      <trkpt lat="48.637016" lon="24.572436"></trkpt>
      <trkpt lat="48.635649" lon="24.570791"></trkpt>
      <trkpt lat="48.634339" lon="24.568346"></trkpt>
      <trkpt lat="48.633689" lon="24.569043"></trkpt>
      <trkpt lat="48.633317" lon="24.568543"></trkpt>
      <trkpt lat="48.6332" lon="24.568537"></trkpt>
      <trkpt lat="48.632393" lon="24.57009"></trkpt>
      <trkpt lat="48.632034" lon="24.570414"></trkpt>
      <trkpt lat="48.60265" lon="24.578807"></trkpt>
      <trkpt lat="48.600135" lon="24.579986"></trkpt>
      <trkpt lat="48.599204" lon="24.580646"></trkpt>
      <trkpt lat="48.575313" lon="24.602686"></trkpt>
      <trkpt lat="48.574018" lon="24.603617"></trkpt>
      <trkpt lat="48.572553" lon="24.605909"></trkpt>
      <trkpt lat="48.565742" lon="24.61254"></trkpt>
      <trkpt lat="48.555175" lon="24.618189"></trkpt>
      <trkpt lat="48.554931" lon="24.617509"></trkpt>
      <trkpt lat="48.553786" lon="24.618032"></trkpt>
      <trkpt lat="48.552163" lon="24.618573"></trkpt>
      <trkpt lat="48.551568" lon="24.618902"></trkpt>
      <trkpt lat="48.551086" lon="24.618803"></trkpt>
      <trkpt lat="48.550672" lon="24.61889"></trkpt>
      <trkpt lat="48.549295" lon="24.619688"></trkpt>
      <trkpt lat="48.547844" lon="24.620072"></trkpt>
      <trkpt lat="48.54738" lon="24.620492"></trkpt>
      <trkpt lat="48.546659" lon="24.621769"></trkpt>
      <trkpt lat="48.546261" lon="24.621978"></trkpt>
      <trkpt lat="48.545411" lon="24.622159"></trkpt>
      <trkpt lat="48.543639" lon="24.623308"></trkpt>
      <trkpt lat="48.542139" lon="24.626067"></trkpt>
      <trkpt lat="48.541806" lon="24.626262"></trkpt>
      <trkpt lat="48.540697" lon="24.626249"></trkpt>
      <trkpt lat="48.538537" lon="24.627757"></trkpt>
      <trkpt lat="48.538018" lon="24.628295"></trkpt>
      <trkpt lat="48.536677" lon="24.630596"></trkpt>
      <trkpt lat="48.53532" lon="24.63412"></trkpt>
      <trkpt lat="48.534609" lon="24.634811"></trkpt>
      <trkpt lat="48.533972" lon="24.635095"></trkpt>
      <trkpt lat="48.533214" lon="24.635071"></trkpt>
      <trkpt lat="48.532734" lon="24.634824"></trkpt>
      <trkpt lat="48.530405" lon="24.632448"></trkpt>
      <trkpt lat="48.528814" lon="24.630737"></trkpt>
      <trkpt lat="48.526756" lon="24.627317"></trkpt>
      <trkpt lat="48.526016" lon="24.626569"></trkpt>
      <trkpt lat="48.525663" lon="24.626364"></trkpt>
      <trkpt lat="48.522102" lon="24.624778"></trkpt>
      <trkpt lat="48.520921" lon="24.625113"></trkpt>
      <trkpt lat="48.519771" lon="24.625182"></trkpt>
      <trkpt lat="48.519462" lon="24.625111"></trkpt>
      <trkpt lat="48.515337" lon="24.622765"></trkpt>
      <trkpt lat="48.515101" lon="24.622781"></trkpt>
      <trkpt lat="48.513992" lon="24.623385"></trkpt>
      <trkpt lat="48.511141" lon="24.62318"></trkpt>
      <trkpt lat="48.506131" lon="24.620255"></trkpt>
      <trkpt lat="48.504641" lon="24.619197"></trkpt>
      <trkpt lat="48.504358" lon="24.618633"></trkpt>
      <trkpt lat="48.504134" lon="24.616863"></trkpt>
      <trkpt lat="48.503787" lon="24.615525"></trkpt>
      <trkpt lat="48.502426" lon="24.611885"></trkpt>
      <trkpt lat="48.501554" lon="24.61095"></trkpt>
      <trkpt lat="48.499523" lon="24.609372"></trkpt>
      <trkpt lat="48.497896" lon="24.607263"></trkpt>
      <trkpt lat="48.497612" lon="24.606602"></trkpt>
      <trkpt lat="48.49687" lon="24.603885"></trkpt>
      <trkpt lat="48.495801" lon="24.601211"></trkpt>
      <trkpt lat="48.495477" lon="24.600531"></trkpt>
      <trkpt lat="48.494703" lon="24.599409"></trkpt>
      <trkpt lat="48.492472" lon="24.597573"></trkpt>
      <trkpt lat="48.490218" lon="24.595148"></trkpt>
      <trkpt lat="48.489268" lon="24.594406"></trkpt>
      <trkpt lat="48.488559" lon="24.594194"></trkpt>
      <trkpt lat="48.485472" lon="24.594153"></trkpt>
      <trkpt lat="48.48314" lon="24.594578"></trkpt>
      <trkpt lat="48.482547" lon="24.594453"></trkpt>
      <trkpt lat="48.481549" lon="24.5931"></trkpt>
      <trkpt lat="48.480781" lon="24.590983"></trkpt>
      <trkpt lat="48.478251" lon="24.58706"></trkpt>
      <trkpt lat="48.477812" lon="24.586508"></trkpt>
      <trkpt lat="48.47648" lon="24.585358"></trkpt>
      <trkpt lat="48.475884" lon="24.584633"></trkpt>
      <trkpt lat="48.474853" lon="24.582439"></trkpt>
      <trkpt lat="48.473933" lon="24.580147"></trkpt>
      <trkpt lat="48.472409" lon="24.578615"></trkpt>
      <trkpt lat="48.471405" lon="24.577368"></trkpt>
      <trkpt lat="48.469557" lon="24.571222"></trkpt>
      <trkpt lat="48.469048" lon="24.570106"></trkpt>
      <trkpt lat="48.464038" lon="24.565921"></trkpt>
      <trkpt lat="48.460654" lon="24.564818"></trkpt>
      <trkpt lat="48.459069" lon="24.563788"></trkpt>
      <trkpt lat="48.456973" lon="24.561619"></trkpt>
      <trkpt lat="48.454702" lon="24.557356"></trkpt>
      <trkpt lat="48.453709" lon="24.556399"></trkpt>
      <trkpt lat="48.452199" lon="24.555469"></trkpt>
      <trkpt lat="48.449612" lon="24.554155"></trkpt>
      <trkpt lat="48.447388" lon="24.552653"></trkpt>
      <trkpt lat="48.44569" lon="24.552595"></trkpt>
      <trkpt lat="48.443411" lon="24.55079"></trkpt>
      <trkpt lat="48.443" lon="24.550294"></trkpt>
      <trkpt lat="48.442541" lon="24.549382"></trkpt>
      <trkpt lat="48.441929" lon="24.547361"></trkpt>
      <trkpt lat="48.440534" lon="24.545706"></trkpt>
      <trkpt lat="48.439359" lon="24.542432"></trkpt>
      <trkpt lat="48.439117" lon="24.542015"></trkpt>
      <trkpt lat="48.438434" lon="24.541465"></trkpt>
      <trkpt lat="48.438055" lon="24.541456"></trkpt>
      <trkpt lat="48.437785" lon="24.541841"></trkpt>
      <trkpt lat="48.435922" lon="24.550713"></trkpt>
      <trkpt lat="48.435728" lon="24.551195"></trkpt>
      <trkpt lat="48.434842" lon="24.552561"></trkpt>
      <trkpt lat="48.434379" lon="24.553733"></trkpt>
      <trkpt lat="48.434438" lon="24.55501"></trkpt>
      <trkpt lat="48.435061" lon="24.557645"></trkpt>
      <trkpt lat="48.435315" lon="24.560895"></trkpt>
      <trkpt lat="48.435189" lon="24.561574"></trkpt>
      <trkpt lat="48.434054" lon="24.563248"></trkpt>
      <trkpt lat="48.433869" lon="24.563787"></trkpt>
      <trkpt lat="48.433705" lon="24.565264"></trkpt>
      <trkpt lat="48.433783" lon="24.566513"></trkpt>
      <trkpt lat="48.433562" lon="24.566859"></trkpt>
      <trkpt lat="48.432427" lon="24.567216"></trkpt>
      <trkpt lat="48.430629" lon="24.567009"></trkpt>
      <trkpt lat="48.430244" lon="24.567303"></trkpt>
      <trkpt lat="48.429781" lon="24.568163"></trkpt>
      <trkpt lat="48.429717" lon="24.56912"></trkpt>
      <trkpt lat="48.429924" lon="24.573463"></trkpt>
      <trkpt lat="48.430495" lon="24.57531"></trkpt>
      <trkpt lat="48.430698" lon="24.576379"></trkpt>
      <trkpt lat="48.431271" lon="24.581762"></trkpt>
      <trkpt lat="48.431517" lon="24.582814"></trkpt>
      <trkpt lat="48.431721" lon="24.584896"></trkpt>
      <trkpt lat="48.431476" lon="24.586495"></trkpt>
      <trkpt lat="48.429818" lon="24.590849"></trkpt>
      <trkpt lat="48.429557" lon="24.596052"></trkpt>
      <trkpt lat="48.428562" lon="24.598095"></trkpt>
      <trkpt lat="48.426457" lon="24.598379"></trkpt>
      <trkpt lat="48.425496" lon="24.598674"></trkpt>
      <trkpt lat="48.424946" lon="24.599088"></trkpt>
      <trkpt lat="48.424593" lon="24.599519"></trkpt>
      <trkpt lat="48.423904" lon="24.600772"></trkpt>
      <trkpt lat="48.423505" lon="24.601135"></trkpt>
      <trkpt lat="48.423034" lon="24.601181"></trkpt>
      <trkpt lat="48.422521" lon="24.601036"></trkpt>
      <trkpt lat="48.422019" lon="24.600635"></trkpt>
      <trkpt lat="48.421414" lon="24.59981"></trkpt>
      <trkpt lat="48.420404" lon="24.597606"></trkpt>
      <trkpt lat="48.419261" lon="24.596401"></trkpt>
      <trkpt lat="48.418544" lon="24.595991"></trkpt>
      <trkpt lat="48.41757" lon="24.595894"></trkpt>
      <trkpt lat="48.416663" lon="24.596487"></trkpt>
      <trkpt lat="48.415803" lon="24.59759"></trkpt>
      <trkpt lat="48.415134" lon="24.598257"></trkpt>
      <trkpt lat="48.408274" lon="24.604125"></trkpt>
      <trkpt lat="48.407586" lon="24.604109"></trkpt>
      <trkpt lat="48.403802" lon="24.603439"></trkpt>
      <trkpt lat="48.402449" lon="24.60334"></trkpt>
      <trkpt lat="48.402049" lon="24.603132"></trkpt>
      <trkpt lat="48.401642" lon="24.602624"></trkpt>
      <trkpt lat="48.400481" lon="24.600304"></trkpt>
      <trkpt lat="48.400044" lon="24.599719"></trkpt>
      <trkpt lat="48.399679" lon="24.599608"></trkpt>
      <trkpt lat="48.397056" lon="24.599614"></trkpt>
      <trkpt lat="48.396502" lon="24.599529"></trkpt>
      <trkpt lat="48.39401" lon="24.596999"></trkpt>
      <trkpt lat="48.393343" lon="24.59686"></trkpt>
      <trkpt lat="48.390861" lon="24.597257"></trkpt>
      <trkpt lat="48.389907" lon="24.597742"></trkpt>
      <trkpt lat="48.389692" lon="24.597748"></trkpt>
      <trkpt lat="48.388845" lon="24.597325"></trkpt>
      <trkpt lat="48.387469" lon="24.597571"></trkpt>
      <trkpt lat="48.387064" lon="24.59752"></trkpt>
      <trkpt lat="48.386595" lon="24.597065"></trkpt>
      <trkpt lat="48.383529" lon="24.59311"></trkpt>
      <trkpt lat="48.382375" lon="24.591855"></trkpt>
      <trkpt lat="48.379711" lon="24.588318"></trkpt>
      <trkpt lat="48.37899" lon="24.588017"></trkpt>
      <trkpt lat="48.37579" lon="24.587649"></trkpt>
      <trkpt lat="48.373925" lon="24.585639"></trkpt>
      <trkpt lat="48.372182" lon="24.584439"></trkpt>
      <trkpt lat="48.371802" lon="24.583814"></trkpt>
      <trkpt lat="48.371452" lon="24.58282"></trkpt>
      <trkpt lat="48.370226" lon="24.576716"></trkpt>
      <trkpt lat="48.370133" lon="24.575666"></trkpt>
      <trkpt lat="48.370225" lon="24.572747"></trkpt>
      <trkpt lat="48.370118" lon="24.56985"></trkpt>
      <trkpt lat="48.369551" lon="24.566551"></trkpt>
      <trkpt lat="48.369617" lon="24.565658"></trkpt>
      <trkpt lat="48.371233" lon="24.558823"></trkpt>
      <trkpt lat="48.371483" lon="24.557092"></trkpt>
      <trkpt lat="48.371259" lon="24.553014"></trkpt>
      <trkpt lat="48.371023" lon="24.552068"></trkpt>
      <trkpt lat="48.370715" lon="24.551775"></trkpt>
      <trkpt lat="48.370066" lon="24.551925"></trkpt>
      <trkpt lat="48.368475" lon="24.553781"></trkpt>
      <trkpt lat="48.366978" lon="24.554818"></trkpt>
      <trkpt lat="48.365968" lon="24.55699"></trkpt>
      <trkpt lat="48.365258" lon="24.558206"></trkpt>
      <trkpt lat="48.362934" lon="24.560325"></trkpt>
      <trkpt lat="48.357841" lon="24.563777"></trkpt>
      <trkpt lat="48.355646" lon="24.56494"></trkpt>
      <trkpt lat="48.354575" lon="24.565183"></trkpt>
      <trkpt lat="48.353988" lon="24.565497"></trkpt>
      <trkpt lat="48.353394" lon="24.565921"></trkpt>
      <trkpt lat="48.351105" lon="24.568179"></trkpt>
      <trkpt lat="48.349253" lon="24.570392"></trkpt>
      <trkpt lat="48.348605" lon="24.571454"></trkpt>
      <trkpt lat="48.346977" lon="24.578949"></trkpt>
      <trkpt lat="48.345504" lon="24.58009"></trkpt>
      <trkpt lat="48.344851" lon="24.580191"></trkpt>
      <trkpt lat="48.344051" lon="24.579979"></trkpt>
      <trkpt lat="48.343074" lon="24.579264"></trkpt>
      <trkpt lat="48.342707" lon="24.578729"></trkpt>
      <trkpt lat="48.341732" lon="24.576268"></trkpt>
      <trkpt lat="48.341524" lon="24.575408"></trkpt>
      <trkpt lat="48.34072" lon="24.568674"></trkpt>
      <trkpt lat="48.341024" lon="24.564653"></trkpt>
      <trkpt lat="48.341815" lon="24.558414"></trkpt>
      <trkpt lat="48.342092" lon="24.553106"></trkpt>
      <trkpt lat="48.343076" lon="24.547263"></trkpt>
      <trkpt lat="48.342414" lon="24.544463"></trkpt>
      <trkpt lat="48.342233" lon="24.542903"></trkpt>
      <trkpt lat="48.341685" lon="24.540932"></trkpt>
      <trkpt lat="48.341627" lon="24.540001"></trkpt>
      <trkpt lat="48.342393" lon="24.533719"></trkpt>
      <trkpt lat="48.342932" lon="24.528319"></trkpt>
      <trkpt lat="48.34304" lon="24.525968"></trkpt>
      <trkpt lat="48.344943" lon="24.518725"></trkpt>
      <trkpt lat="48.344891" lon="24.517771"></trkpt>
      <trkpt lat="48.344687" lon="24.517335"></trkpt>
      <trkpt lat="48.344818" lon="24.516919"></trkpt>
      <trkpt lat="48.344911" lon="24.514139"></trkpt>
      <trkpt lat="48.34538" lon="24.510064"></trkpt>
      <trkpt lat="48.346149" lon="24.507851"></trkpt>
      <trkpt lat="48.346825" lon="24.506627"></trkpt>
      <trkpt lat="48.347251" lon="24.506362"></trkpt>
      <trkpt lat="48.348196" lon="24.506518"></trkpt>
      <trkpt lat="48.348936" lon="24.506313"></trkpt>
      <trkpt lat="48.350121" lon="24.505181"></trkpt>
      <trkpt lat="48.350372" lon="24.504757"></trkpt>
      <trkpt lat="48.350424" lon="24.504288"></trkpt>
      <trkpt lat="48.350216" lon="24.503683"></trkpt>
      <trkpt lat="48.349264" lon="24.50305"></trkpt>
      <trkpt lat="48.34905" lon="24.502784"></trkpt>
      <trkpt lat="48.348818" lon="24.502432"></trkpt>
      <trkpt lat="48.348634" lon="24.501644"></trkpt>
      <trkpt lat="48.348686" lon="24.498759"></trkpt>
      <trkpt lat="48.348316" lon="24.497114"></trkpt>
      <trkpt lat="48.348794" lon="24.494211"></trkpt>
      <trkpt lat="48.348656" lon="24.491267"></trkpt>
      <trkpt lat="48.349222" lon="24.489242"></trkpt>
      <trkpt lat="48.349106" lon="24.485981"></trkpt>
      <trkpt lat="48.348653" lon="24.484642"></trkpt>
      <trkpt lat="48.348068" lon="24.481185"></trkpt>
      <trkpt lat="48.346893" lon="24.478754"></trkpt>
      <trkpt lat="48.346636" lon="24.47759"></trkpt>
      <trkpt lat="48.346003" lon="24.476445"></trkpt>
      <trkpt lat="48.345136" lon="24.475514"></trkpt>
      <trkpt lat="48.344882" lon="24.474605"></trkpt>
      <trkpt lat="48.345242" lon="24.470244"></trkpt>
      <trkpt lat="48.345703" lon="24.468719"></trkpt>
      <trkpt lat="48.347278" lon="24.466239"></trkpt>
      <trkpt lat="48.348451" lon="24.465079"></trkpt>
      <trkpt lat="48.3492" lon="24.464639"></trkpt>
      <trkpt lat="48.349666" lon="24.463984"></trkpt>
      <trkpt lat="48.34992" lon="24.463305"></trkpt>
      <trkpt lat="48.350166" lon="24.461978"></trkpt>
      <trkpt lat="48.350877" lon="24.460647"></trkpt>
      <trkpt lat="48.351289" lon="24.457937"></trkpt>
      <trkpt lat="48.351209" lon="24.457191"></trkpt>
      <trkpt lat="48.350981" lon="24.456817"></trkpt>
      <trkpt lat="48.350437" lon="24.456262"></trkpt>
      <trkpt lat="48.349577" lon="24.455694"></trkpt>
      <trkpt lat="48.349322" lon="24.455379"></trkpt>
      <trkpt lat="48.348885" lon="24.453957"></trkpt>
      <trkpt lat="48.348134" lon="24.452079"></trkpt>
      <trkpt lat="48.347747" lon="24.450622"></trkpt>
      <trkpt lat="48.34666" lon="24.448372"></trkpt>
      <trkpt lat="48.347479" lon="24.445366"></trkpt>
      <trkpt lat="48.347649" lon="24.44406"></trkpt>
      <trkpt lat="48.348041" lon="24.442882"></trkpt>
      <trkpt lat="48.348257" lon="24.441725"></trkpt>
      <trkpt lat="48.348205" lon="24.439604"></trkpt>
      <trkpt lat="48.347796" lon="24.438226"></trkpt>
      <trkpt lat="48.347863" lon="24.437322"></trkpt>
      <trkpt lat="48.347986" lon="24.436727"></trkpt>
      <trkpt lat="48.348565" lon="24.435493"></trkpt>
      <trkpt lat="48.348596" lon="24.433282"></trkpt>
      <trkpt lat="48.348707" lon="24.432739"></trkpt>
      <trkpt lat="48.349025" lon="24.432155"></trkpt>
      <trkpt lat="48.349562" lon="24.431675"></trkpt>
      <trkpt lat="48.350565" lon="24.431471"></trkpt>
      <trkpt lat="48.351307" lon="24.431177"></trkpt>
      <trkpt lat="48.351818" lon="24.430855"></trkpt>
      <trkpt lat="48.351992" lon="24.430565"></trkpt>
      <trkpt lat="48.351851" lon="24.429772"></trkpt>
      <trkpt lat="48.351534" lon="24.429313"></trkpt>
      <trkpt lat="48.350863" lon="24.42873"></trkpt>
      <trkpt lat="48.350802" lon="24.428216"></trkpt>
      <trkpt lat="48.351283" lon="24.427073"></trkpt>
      <trkpt lat="48.352294" lon="24.426526"></trkpt>
      <trkpt lat="48.352558" lon="24.426173"></trkpt>
      <trkpt lat="48.352694" lon="24.425571"></trkpt>
      <trkpt lat="48.352806" lon="24.423691"></trkpt>
      <trkpt lat="48.353482" lon="24.422625"></trkpt>
      <trkpt lat="48.353692" lon="24.42194"></trkpt>
      <trkpt lat="48.353715" lon="24.421239"></trkpt>
      <trkpt lat="48.353464" lon="24.420382"></trkpt>
      <trkpt lat="48.353391" lon="24.419441"></trkpt>
      <trkpt lat="48.353911" lon="24.41778"></trkpt>
      <trkpt lat="48.353971" lon="24.417206"></trkpt>
      <trkpt lat="48.353839" lon="24.416127"></trkpt>
      <trkpt lat="48.353036" lon="24.414624"></trkpt>
      <trkpt lat="48.35315" lon="24.414199"></trkpt>
      <trkpt lat="48.353654" lon="24.413703"></trkpt>
      <trkpt lat="48.355089" lon="24.412988"></trkpt>
      <trkpt lat="48.355732" lon="24.411911"></trkpt>
      <trkpt lat="48.356285" lon="24.411654"></trkpt>
      <trkpt lat="48.356981" lon="24.411059"></trkpt>
      <trkpt lat="48.357229" lon="24.410979"></trkpt>
      <trkpt lat="48.357295" lon="24.411475"></trkpt>
      <trkpt lat="48.357517" lon="24.411823"></trkpt>
      <trkpt lat="48.358327" lon="24.412126"></trkpt>
      <trkpt lat="48.359285" lon="24.412764"></trkpt>
      <trkpt lat="48.360708" lon="24.415592"></trkpt>
      <trkpt lat="48.360841" lon="24.415545"></trkpt>
      <trkpt lat="48.360897" lon="24.415252"></trkpt>
      <trkpt lat="48.360747" lon="24.41367"></trkpt>
      <trkpt lat="48.360934" lon="24.413206"></trkpt>
      <trkpt lat="48.361245" lon="24.412892"></trkpt>
      <trkpt lat="48.361815" lon="24.414928"></trkpt>
      <trkpt lat="48.362332" lon="24.415175"></trkpt>
      <trkpt lat="48.363124" lon="24.414977"></trkpt>
  </trkseg></trk>
</gpx>
