<?xml version="1.0" encoding="UTF-8"?>
<gpx version="1.1" creator="yatutbuv" xmlns="http://www.topografix.com/GPX/1/1">
  <trk><name>GraphHopper Track</name><trkseg>
      <trkpt lat="22.319717" lon="113.935503"></trkpt>
      <trkpt lat="22.319714" lon="113.936248"></trkpt>
      <trkpt lat="22.31998" lon="113.936608"></trkpt>
      <trkpt lat="22.31986" lon="113.937643"></trkpt>
      <trkpt lat="22.319531" lon="113.938781"></trkpt>
      <trkpt lat="22.318887" lon="113.939426"></trkpt>
      <trkpt lat="22.317758" lon="113.939941"></trkpt>
      <trkpt lat="22.316089" lon="113.940477"></trkpt>
      <trkpt lat="22.315153" lon="113.940559"></trkpt>
      <trkpt lat="22.31437" lon="113.940251"></trkpt>
      <trkpt lat="22.314167" lon="113.940272"></trkpt>
      <trkpt lat="22.314258" lon="113.941415"></trkpt>
      <trkpt lat="22.314463" lon="113.941786"></trkpt>
      <trkpt lat="22.314388" lon="113.941976"></trkpt>
      <trkpt lat="22.314138" lon="113.942063"></trkpt>
      <trkpt lat="22.31389" lon="113.942352"></trkpt>
      <trkpt lat="22.313767" lon="113.943122"></trkpt>
      <trkpt lat="22.314344" lon="113.946334"></trkpt>
      <trkpt lat="22.314226" lon="113.948139"></trkpt>
      <trkpt lat="22.313296" lon="113.951539"></trkpt>
      <trkpt lat="22.312169" lon="113.953845"></trkpt>
      <trkpt lat="22.311997" lon="113.955168"></trkpt>
      <trkpt lat="22.312233" lon="113.957213"></trkpt>
      <trkpt lat="22.312108" lon="113.957925"></trkpt>
      <trkpt lat="22.311621" lon="113.95876"></trkpt>
      <trkpt lat="22.311216" lon="113.959121"></trkpt>
      <trkpt lat="22.309848" lon="113.959947"></trkpt>
      <trkpt lat="22.30846" lon="113.961698"></trkpt>
      <trkpt lat="22.303463" lon="113.970096"></trkpt>
      <trkpt lat="22.30297" lon="113.971106"></trkpt>
      <trkpt lat="22.302483" lon="113.97257"></trkpt>
      <trkpt lat="22.302043" lon="113.974897"></trkpt>
      <trkpt lat="22.302054" lon="113.975751"></trkpt>
      <trkpt lat="22.302267" lon="113.976333"></trkpt>
      <trkpt lat="22.303418" lon="113.978168"></trkpt>
      <trkpt lat="22.30679" lon="113.98432"></trkpt>
      <trkpt lat="22.311613" lon="113.992532"></trkpt>
      <trkpt lat="22.312369" lon="113.993654"></trkpt>
      <trkpt lat="22.313503" lon="113.995016"></trkpt>
      <trkpt lat="22.314617" lon="113.996071"></trkpt>
      <trkpt lat="22.317734" lon="113.998196"></trkpt>
      <trkpt lat="22.318776" lon="113.999098"></trkpt>
      <trkpt lat="22.319809" lon="114.000339"></trkpt>
      <trkpt lat="22.320508" lon="114.001494"></trkpt>
      <trkpt lat="22.324107" lon="114.009476"></trkpt>
      <trkpt lat="22.324652" lon="114.010952"></trkpt>
      <trkpt lat="22.325013" lon="114.012502"></trkpt>
      <trkpt lat="22.325171" lon="114.014009"></trkpt>
      <trkpt lat="22.324983" lon="114.017932"></trkpt>
      <trkpt lat="22.325051" lon="114.019417"></trkpt>
      <trkpt lat="22.325289" lon="114.020794"></trkpt>
      <trkpt lat="22.325877" lon="114.022572"></trkpt>
      <trkpt lat="22.326604" lon="114.023905"></trkpt>
      <trkpt lat="22.327186" lon="114.024671"></trkpt>
      <trkpt lat="22.334839" lon="114.032782"></trkpt>
      <trkpt lat="22.336288" lon="114.035029"></trkpt>
      <trkpt lat="22.336765" lon="114.036361"></trkpt>
      <trkpt lat="22.337548" lon="114.039527"></trkpt>
      <trkpt lat="22.340491" lon="114.045526"></trkpt>
      <trkpt lat="22.34091" lon="114.047373"></trkpt>
      <trkpt lat="22.341252" lon="114.05013"></trkpt>
      <trkpt lat="22.341561" lon="114.051173"></trkpt>
      <trkpt lat="22.342284" lon="114.052452"></trkpt>
      <trkpt lat="22.34658" lon="114.059069"></trkpt>
      <trkpt lat="22.347636" lon="114.061339"></trkpt>
      <trkpt lat="22.353354" lon="114.081706"></trkpt>
      <trkpt lat="22.353739" lon="114.083433"></trkpt>
      <trkpt lat="22.353783" lon="114.084111"></trkpt>
      <trkpt lat="22.353438" lon="114.085414"></trkpt>
      <trkpt lat="22.353064" lon="114.086137"></trkpt>
      <trkpt lat="22.352753" lon="114.086481"></trkpt>
      <trkpt lat="22.352064" lon="114.086824"></trkpt>
      <trkpt lat="22.348793" lon="114.087487"></trkpt>
      <trkpt lat="22.347613" lon="114.087999"></trkpt>
      <trkpt lat="22.346596" lon="114.089152"></trkpt>
      <trkpt lat="22.345654" lon="114.090951"></trkpt>
      <trkpt lat="22.345197" lon="114.092149"></trkpt>
      <trkpt lat="22.344937" lon="114.093911"></trkpt>
      <trkpt lat="22.345068" lon="114.10173"></trkpt>
      <trkpt lat="22.345395" lon="114.10373"></trkpt>
      <trkpt lat="22.34616" lon="114.106"></trkpt>
      <trkpt lat="22.347982" lon="114.109599"></trkpt>
      <trkpt lat="22.350166" lon="114.115266"></trkpt>
      <trkpt lat="22.350612" lon="114.116089"></trkpt>
      <trkpt lat="22.351776" lon="114.11775"></trkpt>
      <trkpt lat="22.352152" lon="114.118539"></trkpt>
      <trkpt lat="22.352493" lon="114.119966"></trkpt>
      <trkpt lat="22.35239" lon="114.121678"></trkpt>
      <trkpt lat="22.351899" lon="114.122898"></trkpt>
      <trkpt lat="22.351219" lon="114.123728"></trkpt>
      <trkpt lat="22.350636" lon="114.124148"></trkpt>
      <trkpt lat="22.349636" lon="114.124499"></trkpt>
      <trkpt lat="22.347617" lon="114.124549"></trkpt>
      <trkpt lat="22.346952" lon="114.124673"></trkpt>
      <trkpt lat="22.345989" lon="114.125023"></trkpt>
      <trkpt lat="22.345081" lon="114.125616"></trkpt>
      <trkpt lat="22.34403" lon="114.126924"></trkpt>
      <trkpt lat="22.343104" lon="114.128895"></trkpt>
      <trkpt lat="22.342066" lon="114.130153"></trkpt>
      <trkpt lat="22.341172" lon="114.13079"></trkpt>
      <trkpt lat="22.338447" lon="114.13208"></trkpt>
      <trkpt lat="22.337396" lon="114.132702"></trkpt>
      <trkpt lat="22.336326" lon="114.133557"></trkpt>
      <trkpt lat="22.335602" lon="114.134343"></trkpt>
      <trkpt lat="22.334538" lon="114.135859"></trkpt>
      <trkpt lat="22.33382" lon="114.137376"></trkpt>
      <trkpt lat="22.330057" lon="114.14721"></trkpt>
      <trkpt lat="22.328797" lon="114.150038"></trkpt>
      <trkpt lat="22.326909" lon="114.152934"></trkpt>
      <trkpt lat="22.325346" lon="114.154789"></trkpt>
      <trkpt lat="22.323363" lon="114.156627"></trkpt>
      <trkpt lat="22.321258" lon="114.15815"></trkpt>
      <trkpt lat="22.318937" lon="114.159371"></trkpt>
      <trkpt lat="22.314441" lon="114.161238"></trkpt>
      <trkpt lat="22.312717" lon="114.161588"></trkpt>
      <trkpt lat="22.311373" lon="114.161678"></trkpt>
      <trkpt lat="22.310003" lon="114.161631"></trkpt>
      <trkpt lat="22.308113" lon="114.161258"></trkpt>
      <trkpt lat="22.306814" lon="114.160761"></trkpt>
      <trkpt lat="22.305109" lon="114.159855"></trkpt>
      <trkpt lat="22.302732" lon="114.15813"></trkpt>
      <trkpt lat="22.289796" lon="114.146218"></trkpt>
      <trkpt lat="22.28926" lon="114.145073"></trkpt>
      <trkpt lat="22.289168" lon="114.144046"></trkpt>
      <trkpt lat="22.289407" lon="114.142989"></trkpt>
      <trkpt lat="22.290174" lon="114.141683"></trkpt>
      <trkpt lat="22.290266" lon="114.141234"></trkpt>
      <trkpt lat="22.290148" lon="114.140862"></trkpt>
      <trkpt lat="22.289892" lon="114.140628"></trkpt>
      <trkpt lat="22.289581" lon="114.140561"></trkpt>
      <trkpt lat="22.289202" lon="114.140712"></trkpt>
      <trkpt lat="22.28901" lon="114.14101"></trkpt>
      <trkpt lat="22.288967" lon="114.14145"></trkpt>
      <trkpt lat="22.289154" lon="114.142597"></trkpt>
      <trkpt lat="22.288982" lon="114.144588"></trkpt>
      <trkpt lat="22.288987" lon="114.146739"></trkpt>
      <trkpt lat="22.287039" lon="114.153436"></trkpt>
      <trkpt lat="22.287016" lon="114.154241"></trkpt>
      <trkpt lat="22.287314" lon="114.156368"></trkpt>
      <trkpt lat="22.287229" lon="114.157282"></trkpt>
      <trkpt lat="22.286997" lon="114.157823"></trkpt>
      <trkpt lat="22.285367" lon="114.160383"></trkpt>
      <trkpt lat="22.283811" lon="114.16313"></trkpt>
      <trkpt lat="22.282987" lon="114.165134"></trkpt>
      <trkpt lat="22.282531" lon="114.167064"></trkpt>
      <trkpt lat="22.282364" lon="114.169081"></trkpt>
      <trkpt lat="22.282408" lon="114.170438"></trkpt>
      <trkpt lat="22.282672" lon="114.17125"></trkpt>
      <trkpt lat="22.283401" lon="114.171907"></trkpt>
      <trkpt lat="22.283651" lon="114.172307"></trkpt>
      <trkpt lat="22.283793" lon="114.174121"></trkpt>
      <trkpt lat="22.282195" lon="114.174333"></trkpt>
      <trkpt lat="22.282035" lon="114.175222"></trkpt>
      <trkpt lat="22.282047" lon="114.176164"></trkpt>
      <trkpt lat="22.282433" lon="114.178309"></trkpt>
      <trkpt lat="22.279395" lon="114.179498"></trkpt>
      <trkpt lat="22.280449" lon="114.182421"></trkpt>
      <trkpt lat="22.279958" lon="114.182628"></trkpt>
      <trkpt lat="22.280149" lon="114.183167"></trkpt>
      <trkpt lat="22.280186" lon="114.184598"></trkpt>
      <trkpt lat="22.279466" lon="114.187017"></trkpt>
      <trkpt lat="22.279538" lon="114.18761"></trkpt>
      <trkpt lat="22.279443" lon="114.187722"></trkpt>
      <trkpt lat="22.279297" lon="114.187668"></trkpt>
      <trkpt lat="22.278893" lon="114.186883"></trkpt>
      <trkpt lat="22.278921" lon="114.186716"></trkpt>
      <trkpt lat="22.279044" lon="114.186736"></trkpt>
      <trkpt lat="22.279011" lon="114.186965"></trkpt>
      <trkpt lat="22.278891" lon="114.186946"></trkpt>
      <trkpt lat="22.279025" lon="114.186107"></trkpt>
      <trkpt lat="22.279492" lon="114.186316"></trkpt>
      <trkpt lat="22.279355" lon="114.186992"></trkpt>
      <trkpt lat="22.279538" lon="114.18761"></trkpt>
      <trkpt lat="22.279393" lon="114.187727"></trkpt>
      <trkpt lat="22.277138" lon="114.18535"></trkpt>
      <trkpt lat="22.277811" lon="114.183744"></trkpt>
      <trkpt lat="22.276631" lon="114.181295"></trkpt>
      <trkpt lat="22.275779" lon="114.180823"></trkpt>
      <trkpt lat="22.274908" lon="114.179948"></trkpt>
      <trkpt lat="22.274383" lon="114.179608"></trkpt>
      <trkpt lat="22.274073" lon="114.179523"></trkpt>
      <trkpt lat="22.273595" lon="114.179578"></trkpt>
      <trkpt lat="22.271483" lon="114.180397"></trkpt>
      <trkpt lat="22.26963" lon="114.180802"></trkpt>
      <trkpt lat="22.25506" lon="114.18019"></trkpt>
      <trkpt lat="22.25416" lon="114.17998"></trkpt>
      <trkpt lat="22.253483" lon="114.179679"></trkpt>
      <trkpt lat="22.250713" lon="114.177636"></trkpt>
      <trkpt lat="22.25024" lon="114.177066"></trkpt>
      <trkpt lat="22.249648" lon="114.175693"></trkpt>
      <trkpt lat="22.24936" lon="114.175461"></trkpt>
      <trkpt lat="22.248934" lon="114.175697"></trkpt>
      <trkpt lat="22.248501" lon="114.176352"></trkpt>
      <trkpt lat="22.246879" lon="114.177151"></trkpt>
      <trkpt lat="22.246354" lon="114.177567"></trkpt>
      <trkpt lat="22.245962" lon="114.178066"></trkpt>
      <trkpt lat="22.245703" lon="114.178765"></trkpt>
      <trkpt lat="22.245209" lon="114.17924"></trkpt>
      <trkpt lat="22.245366" lon="114.180934"></trkpt>
      <trkpt lat="22.245331" lon="114.181981"></trkpt>
      <trkpt lat="22.245446" lon="114.182241"></trkpt>
      <trkpt lat="22.245791" lon="114.182545"></trkpt>
      <trkpt lat="22.245835" lon="114.182763"></trkpt>
      <trkpt lat="22.245661" lon="114.183619"></trkpt>
      <trkpt lat="22.24533" lon="114.184216"></trkpt>
      <trkpt lat="22.245307" lon="114.184543"></trkpt>
      <trkpt lat="22.246032" lon="114.18559"></trkpt>
      <trkpt lat="22.24605" lon="114.185878"></trkpt>
      <trkpt lat="22.245933" lon="114.18635"></trkpt>
      <trkpt lat="22.24469" lon="114.18783"></trkpt>
      <trkpt lat="22.244337" lon="114.188155"></trkpt>
      <trkpt lat="22.243955" lon="114.188309"></trkpt>
      <trkpt lat="22.244337" lon="114.188155"></trkpt>
      <trkpt lat="22.24469" lon="114.18783"></trkpt>
      <trkpt lat="22.245933" lon="114.18635"></trkpt>
      <trkpt lat="22.24605" lon="114.185878"></trkpt>
      <trkpt lat="22.246032" lon="114.18559"></trkpt>
      <trkpt lat="22.245307" lon="114.184543"></trkpt>
      <trkpt lat="22.24533" lon="114.184216"></trkpt>
      <trkpt lat="22.245661" lon="114.183619"></trkpt>
      <trkpt lat="22.245835" lon="114.182763"></trkpt>
      <trkpt lat="22.245791" lon="114.182545"></trkpt>
      <trkpt lat="22.245446" lon="114.182241"></trkpt>
      <trkpt lat="22.245331" lon="114.181981"></trkpt>
      <trkpt lat="22.245366" lon="114.180934"></trkpt>
      <trkpt lat="22.245209" lon="114.17924"></trkpt>
      <trkpt lat="22.245755" lon="114.178689"></trkpt>
      <trkpt lat="22.245962" lon="114.178066"></trkpt>
      <trkpt lat="22.24626" lon="114.177662"></trkpt>
      <trkpt lat="22.246958" lon="114.177048"></trkpt>
      <trkpt lat="22.24789" lon="114.176517"></trkpt>
      <trkpt lat="22.248728" lon="114.175208"></trkpt>
      <trkpt lat="22.249062" lon="114.174993"></trkpt>
      <trkpt lat="22.249347" lon="114.174958"></trkpt>
      <trkpt lat="22.24973" lon="114.175073"></trkpt>
      <trkpt lat="22.250007" lon="114.175341"></trkpt>
      <trkpt lat="22.250336" lon="114.176773"></trkpt>
      <trkpt lat="22.250537" lon="114.177184"></trkpt>
      <trkpt lat="22.25101" lon="114.177674"></trkpt>
      <trkpt lat="22.253783" lon="114.179369"></trkpt>
      <trkpt lat="22.25492" lon="114.179766"></trkpt>
      <trkpt lat="22.27003" lon="114.18042"></trkpt>
      <trkpt lat="22.271343" lon="114.180244"></trkpt>
      <trkpt lat="22.273402" lon="114.179419"></trkpt>
      <trkpt lat="22.273954" lon="114.179318"></trkpt>
      <trkpt lat="22.274348" lon="114.17933"></trkpt>
      <trkpt lat="22.275038" lon="114.179564"></trkpt>
      <trkpt lat="22.276503" lon="114.180763"></trkpt>
      <trkpt lat="22.277175" lon="114.18257"></trkpt>
      <trkpt lat="22.277745" lon="114.183462"></trkpt>
      <trkpt lat="22.277775" lon="114.183897"></trkpt>
      <trkpt lat="22.277135" lon="114.185215"></trkpt>
      <trkpt lat="22.277205" lon="114.185502"></trkpt>
      <trkpt lat="22.277798" lon="114.186068"></trkpt>
      <trkpt lat="22.278958" lon="114.186093"></trkpt>
      <trkpt lat="22.279492" lon="114.186316"></trkpt>
      <trkpt lat="22.279355" lon="114.186992"></trkpt>
      <trkpt lat="22.279488" lon="114.187692"></trkpt>
      <trkpt lat="22.279297" lon="114.187668"></trkpt>
      <trkpt lat="22.278893" lon="114.186883"></trkpt>
      <trkpt lat="22.278921" lon="114.186716"></trkpt>
      <trkpt lat="22.279044" lon="114.186736"></trkpt>
      <trkpt lat="22.279011" lon="114.186965"></trkpt>
      <trkpt lat="22.278891" lon="114.186946"></trkpt>
      <trkpt lat="22.279025" lon="114.186107"></trkpt>
      <trkpt lat="22.27942" lon="114.186248"></trkpt>
      <trkpt lat="22.279586" lon="114.186202"></trkpt>
      <trkpt lat="22.280055" lon="114.184771"></trkpt>
      <trkpt lat="22.280015" lon="114.183192"></trkpt>
      <trkpt lat="22.278256" lon="114.178155"></trkpt>
      <trkpt lat="22.278327" lon="114.178046"></trkpt>
      <trkpt lat="22.279743" lon="114.17755"></trkpt>
      <trkpt lat="22.27951" lon="114.176662"></trkpt>
      <trkpt lat="22.279565" lon="114.176383"></trkpt>
      <trkpt lat="22.27917" lon="114.17231"></trkpt>
      <trkpt lat="22.279343" lon="114.169559"></trkpt>
      <trkpt lat="22.279589" lon="114.168173"></trkpt>
      <trkpt lat="22.279322" lon="114.166169"></trkpt>
      <trkpt lat="22.279526" lon="114.165333"></trkpt>
      <trkpt lat="22.280404" lon="114.163885"></trkpt>
      <trkpt lat="22.280422" lon="114.1637"></trkpt>
      <trkpt lat="22.277769" lon="114.160581"></trkpt>
      <trkpt lat="22.277427" lon="114.158956"></trkpt>
      <trkpt lat="22.276929" lon="114.158084"></trkpt>
      <trkpt lat="22.276378" lon="114.15544"></trkpt>
      <trkpt lat="22.276185" lon="114.155247"></trkpt>
      <trkpt lat="22.275605" lon="114.155033"></trkpt>
      <trkpt lat="22.27512" lon="114.15566"></trkpt>
      <trkpt lat="22.275014" lon="114.156094"></trkpt>
      <trkpt lat="22.274676" lon="114.156683"></trkpt>
      <trkpt lat="22.274564" lon="114.157661"></trkpt>
      <trkpt lat="22.27386" lon="114.15832"></trkpt>
      <trkpt lat="22.274242" lon="114.159025"></trkpt>
      <trkpt lat="22.273947" lon="114.159621"></trkpt>
      <trkpt lat="22.273818" lon="114.159523"></trkpt>
      <trkpt lat="22.273984" lon="114.159256"></trkpt>
      <trkpt lat="22.273964" lon="114.158972"></trkpt>
      <trkpt lat="22.273481" lon="114.15862"></trkpt>
      <trkpt lat="22.273297" lon="114.158172"></trkpt>
      <trkpt lat="22.273181" lon="114.158195"></trkpt>
      <trkpt lat="22.273646" lon="114.159124"></trkpt>
      <trkpt lat="22.273206" lon="114.159702"></trkpt>
      <trkpt lat="22.273216" lon="114.160447"></trkpt>
      <trkpt lat="22.272812" lon="114.161018"></trkpt>
      <trkpt lat="22.272868" lon="114.161793"></trkpt>
      <trkpt lat="22.272367" lon="114.162306"></trkpt>
      <trkpt lat="22.271325" lon="114.162843"></trkpt>
      <trkpt lat="22.270677" lon="114.163484"></trkpt>
      <trkpt lat="22.270273" lon="114.163714"></trkpt>
      <trkpt lat="22.269822" lon="114.163722"></trkpt>
      <trkpt lat="22.269604" lon="114.164462"></trkpt>
      <trkpt lat="22.269636" lon="114.164945"></trkpt>
      <trkpt lat="22.269373" lon="114.165402"></trkpt>
      <trkpt lat="22.269191" lon="114.165484"></trkpt>
      <trkpt lat="22.268927" lon="114.165201"></trkpt>
      <trkpt lat="22.268339" lon="114.163081"></trkpt>
      <trkpt lat="22.267687" lon="114.162191"></trkpt>
      <trkpt lat="22.267536" lon="114.161652"></trkpt>
      <trkpt lat="22.266625" lon="114.160116"></trkpt>
      <trkpt lat="22.266449" lon="114.158829"></trkpt>
      <trkpt lat="22.266732" lon="114.158137"></trkpt>
      <trkpt lat="22.266762" lon="114.157728"></trkpt>
      <trkpt lat="22.266483" lon="114.157122"></trkpt>
      <trkpt lat="22.265683" lon="114.156736"></trkpt>
      <trkpt lat="22.265234" lon="114.155911"></trkpt>
      <trkpt lat="22.264956" lon="114.155921"></trkpt>
      <trkpt lat="22.264474" lon="114.156506"></trkpt>
      <trkpt lat="22.264266" lon="114.156572"></trkpt>
      <trkpt lat="22.263235" lon="114.15551"></trkpt>
      <trkpt lat="22.263078" lon="114.154634"></trkpt>
      <trkpt lat="22.263411" lon="114.153953"></trkpt>
      <trkpt lat="22.263654" lon="114.153873"></trkpt>
      <trkpt lat="22.26384" lon="114.153964"></trkpt>
      <trkpt lat="22.264073" lon="114.154553"></trkpt>
      <trkpt lat="22.264347" lon="114.154762"></trkpt>
      <trkpt lat="22.265402" lon="114.154683"></trkpt>
      <trkpt lat="22.266033" lon="114.153685"></trkpt>
      <trkpt lat="22.265741" lon="114.152841"></trkpt>
      <trkpt lat="22.26594" lon="114.152355"></trkpt>
      <trkpt lat="22.266749" lon="114.15207"></trkpt>
      <trkpt lat="22.266971" lon="114.151844"></trkpt>
      <trkpt lat="22.267109" lon="114.15147"></trkpt>
      <trkpt lat="22.267134" lon="114.151892"></trkpt>
      <trkpt lat="22.266837" lon="114.152185"></trkpt>
      <trkpt lat="22.267198" lon="114.152488"></trkpt>
      <trkpt lat="22.267667" lon="114.152434"></trkpt>
      <trkpt lat="22.269043" lon="114.151594"></trkpt>
      <trkpt lat="22.269177" lon="114.151701"></trkpt>
      <trkpt lat="22.269414" lon="114.151491"></trkpt>
      <trkpt lat="22.269607" lon="114.151526"></trkpt>
      <trkpt lat="22.269858" lon="114.15068"></trkpt>
      <trkpt lat="22.270491" lon="114.150416"></trkpt>
      <trkpt lat="22.270337" lon="114.150221"></trkpt>
  </trkseg></trk>
</gpx>
