<?xml version="1.0" encoding="UTF-8"?>
<gpx version="1.1" creator="yatutbuv" xmlns="http://www.topografix.com/GPX/1/1">
  <trk><name>GraphHopper Track</name><trkseg>
      <trkpt lat="50.521342" lon="30.4505"></trkpt>
      <trkpt lat="50.521211" lon="30.450164"></trkpt>
      <trkpt lat="50.520925" lon="30.449971"></trkpt>
      <trkpt lat="50.520875" lon="30.449857"></trkpt>
      <trkpt lat="50.52099" lon="30.449758"></trkpt>
      <trkpt lat="50.521216" lon="30.449723"></trkpt>
      <trkpt lat="50.533569" lon="30.456639"></trkpt>
      <trkpt lat="50.534066" lon="30.45682"></trkpt>
      <trkpt lat="50.545412" lon="30.456118"></trkpt>
      <trkpt lat="50.552166" lon="30.453872"></trkpt>
      <trkpt lat="50.55514" lon="30.453824"></trkpt>
      <trkpt lat="50.556364" lon="30.453623"></trkpt>
      <trkpt lat="50.558642" lon="30.452975"></trkpt>
      <trkpt lat="50.566325" lon="30.452934"></trkpt>
      <trkpt lat="50.567718" lon="30.484954"></trkpt>
      <trkpt lat="50.567831" lon="30.48586"></trkpt>
      <trkpt lat="50.568184" lon="30.486875"></trkpt>
      <trkpt lat="50.568894" lon="30.487889"></trkpt>
      <trkpt lat="50.570973" lon="30.490065"></trkpt>
      <trkpt lat="50.572024" lon="30.490816"></trkpt>
      <trkpt lat="50.585348" lon="30.496242"></trkpt>
      <trkpt lat="50.588746" lon="30.497797"></trkpt>
      <trkpt lat="50.58937" lon="30.498294"></trkpt>
      <trkpt lat="50.589812" lon="30.498912"></trkpt>
      <trkpt lat="50.59015" lon="30.49962"></trkpt>
      <trkpt lat="50.590436" lon="30.50062"></trkpt>
      <trkpt lat="50.590521" lon="30.502062"></trkpt>
      <trkpt lat="50.590383" lon="30.503074"></trkpt>
      <trkpt lat="50.586553" lon="30.519542"></trkpt>
      <trkpt lat="50.585759" lon="30.523656"></trkpt>
      <trkpt lat="50.58397" lon="30.545453"></trkpt>
      <trkpt lat="50.58395" lon="30.546955"></trkpt>
      <trkpt lat="50.584269" lon="30.548626"></trkpt>
      <trkpt lat="50.584899" lon="30.549576"></trkpt>
      <trkpt lat="50.589277" lon="30.553029"></trkpt>
      <trkpt lat="50.590116" lon="30.553974"></trkpt>
      <trkpt lat="50.590786" lon="30.555318"></trkpt>
      <trkpt lat="50.591598" lon="30.558663"></trkpt>
      <trkpt lat="50.592023" lon="30.559657"></trkpt>
      <trkpt lat="50.59611" lon="30.565992"></trkpt>
      <trkpt lat="50.596281" lon="30.566724"></trkpt>
      <trkpt lat="50.596024" lon="30.572722"></trkpt>
      <trkpt lat="50.596042" lon="30.57444"></trkpt>
      <trkpt lat="50.597269" lon="30.581211"></trkpt>
      <trkpt lat="50.597803" lon="30.582712"></trkpt>
      <trkpt lat="50.598493" lon="30.5841"></trkpt>
      <trkpt lat="50.614201" lon="30.602984"></trkpt>
      <trkpt lat="50.62613" lon="30.617866"></trkpt>
      <trkpt lat="50.629165" lon="30.621812"></trkpt>
      <trkpt lat="50.630707" lon="30.62299"></trkpt>
      <trkpt lat="50.632382" lon="30.623722"></trkpt>
      <trkpt lat="50.649707" lon="30.625801"></trkpt>
      <trkpt lat="50.654294" lon="30.626221"></trkpt>
      <trkpt lat="50.656445" lon="30.626581"></trkpt>
      <trkpt lat="50.663565" lon="30.630009"></trkpt>
      <trkpt lat="50.665549" lon="30.630746"></trkpt>
      <trkpt lat="50.666504" lon="30.630591"></trkpt>
      <trkpt lat="50.67236" lon="30.62897"></trkpt>
      <trkpt lat="50.677639" lon="30.627866"></trkpt>
      <trkpt lat="50.681547" lon="30.627509"></trkpt>
      <trkpt lat="50.682767" lon="30.627138"></trkpt>
      <trkpt lat="50.684156" lon="30.627666"></trkpt>
      <trkpt lat="50.686494" lon="30.62694"></trkpt>
      <trkpt lat="50.686901" lon="30.627028"></trkpt>
      <trkpt lat="50.688147" lon="30.627619"></trkpt>
      <trkpt lat="50.693963" lon="30.630583"></trkpt>
      <trkpt lat="50.695025" lon="30.630876"></trkpt>
      <trkpt lat="50.695659" lon="30.630839"></trkpt>
      <trkpt lat="50.696438" lon="30.630621"></trkpt>
      <trkpt lat="50.712544" lon="30.624024"></trkpt>
      <trkpt lat="50.713713" lon="30.623873"></trkpt>
      <trkpt lat="50.714471" lon="30.624084"></trkpt>
      <trkpt lat="50.716788" lon="30.625573"></trkpt>
      <trkpt lat="50.718087" lon="30.627069"></trkpt>
      <trkpt lat="50.73198" lon="30.648975"></trkpt>
      <trkpt lat="50.735026" lon="30.653147"></trkpt>
      <trkpt lat="50.735858" lon="30.65385"></trkpt>
      <trkpt lat="50.736545" lon="30.654139"></trkpt>
      <trkpt lat="50.73974" lon="30.654483"></trkpt>
      <trkpt lat="50.74094" lon="30.654769"></trkpt>
      <trkpt lat="50.741896" lon="30.655307"></trkpt>
      <trkpt lat="50.743026" lon="30.656312"></trkpt>
      <trkpt lat="50.743721" lon="30.657195"></trkpt>
      <trkpt lat="50.744501" lon="30.658505"></trkpt>
      <trkpt lat="50.750765" lon="30.669472"></trkpt>
      <trkpt lat="50.751313" lon="30.669398"></trkpt>
      <trkpt lat="50.752123" lon="30.668938"></trkpt>
      <trkpt lat="50.761971" lon="30.658991"></trkpt>
      <trkpt lat="50.762954" lon="30.658228"></trkpt>
      <trkpt lat="50.764263" lon="30.657546"></trkpt>
      <trkpt lat="50.764806" lon="30.657428"></trkpt>
      <trkpt lat="50.76715" lon="30.658009"></trkpt>
      <trkpt lat="50.768887" lon="30.657857"></trkpt>
      <trkpt lat="50.769231" lon="30.657946"></trkpt>
      <trkpt lat="50.769627" lon="30.658299"></trkpt>
      <trkpt lat="50.771798" lon="30.661057"></trkpt>
      <trkpt lat="50.77372" lon="30.665614"></trkpt>
      <trkpt lat="50.774524" lon="30.667358"></trkpt>
      <trkpt lat="50.774925" lon="30.667903"></trkpt>
      <trkpt lat="50.775442" lon="30.668322"></trkpt>
      <trkpt lat="50.780693" lon="30.670774"></trkpt>
      <trkpt lat="50.788201" lon="30.673726"></trkpt>
      <trkpt lat="50.788872" lon="30.674083"></trkpt>
      <trkpt lat="50.789456" lon="30.674622"></trkpt>
      <trkpt lat="50.790359" lon="30.675829"></trkpt>
      <trkpt lat="50.795813" lon="30.685754"></trkpt>
      <trkpt lat="50.796091" lon="30.686535"></trkpt>
      <trkpt lat="50.797452" lon="30.692527"></trkpt>
      <trkpt lat="50.798055" lon="30.694003"></trkpt>
      <trkpt lat="50.798492" lon="30.694496"></trkpt>
      <trkpt lat="50.799043" lon="30.694813"></trkpt>
      <trkpt lat="50.8036" lon="30.69619"></trkpt>
      <trkpt lat="50.804676" lon="30.696676"></trkpt>
      <trkpt lat="50.807234" lon="30.698391"></trkpt>
      <trkpt lat="50.808936" lon="30.699836"></trkpt>
      <trkpt lat="50.810903" lon="30.700703"></trkpt>
      <trkpt lat="50.811507" lon="30.701239"></trkpt>
      <trkpt lat="50.813703" lon="30.703873"></trkpt>
      <trkpt lat="50.817238" lon="30.711312"></trkpt>
      <trkpt lat="50.818356" lon="30.713245"></trkpt>
      <trkpt lat="50.823999" lon="30.721983"></trkpt>
      <trkpt lat="50.824501" lon="30.722606"></trkpt>
      <trkpt lat="50.828176" lon="30.725984"></trkpt>
      <trkpt lat="50.833139" lon="30.730914"></trkpt>
      <trkpt lat="50.836577" lon="30.733579"></trkpt>
      <trkpt lat="50.838987" lon="30.736085"></trkpt>
      <trkpt lat="50.838048" lon="30.737085"></trkpt>
      <trkpt lat="50.83841" lon="30.739859"></trkpt>
      <trkpt lat="50.837045" lon="30.739746"></trkpt>
      <trkpt lat="50.836123" lon="30.74026"></trkpt>
      <trkpt lat="50.83465" lon="30.740395"></trkpt>
      <trkpt lat="50.834418" lon="30.740675"></trkpt>
      <trkpt lat="50.834081" lon="30.74085"></trkpt>
      <trkpt lat="50.834223" lon="30.74141"></trkpt>
  </trkseg></trk>
</gpx>
