<?xml version="1.0" encoding="UTF-8"?>
<gpx version="1.1" creator="yatutbuv" xmlns="http://www.topografix.com/GPX/1/1">
  <trk><name>GraphHopper Track</name><trkseg>
      <trkpt lat="43.72991" lon="7.417026"></trkpt>
      <trkpt lat="43.729993" lon="7.417058"></trkpt>
      <trkpt lat="43.730033" lon="7.416928"></trkpt>
      <trkpt lat="43.729885" lon="7.416759"></trkpt>
      <trkpt lat="43.729778" lon="7.417237"></trkpt>
      <trkpt lat="43.729369" lon="7.417707"></trkpt>
      <trkpt lat="43.728802" lon="7.417902"></trkpt>
      <trkpt lat="43.7283" lon="7.417911"></trkpt>
      <trkpt lat="43.728152" lon="7.418555"></trkpt>
      <trkpt lat="43.727733" lon="7.418801"></trkpt>
      <trkpt lat="43.727475" lon="7.41868"></trkpt>
      <trkpt lat="43.727245" lon="7.418314"></trkpt>
      <trkpt lat="43.726695" lon="7.417942"></trkpt>
      <trkpt lat="43.726404" lon="7.417176"></trkpt>
      <trkpt lat="43.726441" lon="7.415374"></trkpt>
      <trkpt lat="43.726853" lon="7.414561"></trkpt>
      <trkpt lat="43.727335" lon="7.413993"></trkpt>
      <trkpt lat="43.727542" lon="7.413996"></trkpt>
      <trkpt lat="43.727819" lon="7.414392"></trkpt>
      <trkpt lat="43.728095" lon="7.414484"></trkpt>
      <trkpt lat="43.728613" lon="7.415164"></trkpt>
      <trkpt lat="43.728639" lon="7.415339"></trkpt>
      <trkpt lat="43.728902" lon="7.415383"></trkpt>
      <trkpt lat="43.729769" lon="7.416624"></trkpt>
      <trkpt lat="43.729917" lon="7.417036"></trkpt>
      <trkpt lat="43.73011" lon="7.417122"></trkpt>
      <trkpt lat="43.731031" lon="7.418376"></trkpt>
      <trkpt lat="43.731947" lon="7.421501"></trkpt>
      <trkpt lat="43.732286" lon="7.422228"></trkpt>
      <trkpt lat="43.732602" lon="7.422293"></trkpt>
      <trkpt lat="43.733116" lon="7.421879"></trkpt>
      <trkpt lat="43.734781" lon="7.421306"></trkpt>
      <trkpt lat="43.735616" lon="7.421208"></trkpt>
      <trkpt lat="43.736354" lon="7.421328"></trkpt>
      <trkpt lat="43.736815" lon="7.421661"></trkpt>
      <trkpt lat="43.736986" lon="7.421947"></trkpt>
      <trkpt lat="43.737452" lon="7.424941"></trkpt>
      <trkpt lat="43.737939" lon="7.426675"></trkpt>
      <trkpt lat="43.73809" lon="7.426899"></trkpt>
      <trkpt lat="43.738277" lon="7.426954"></trkpt>
      <trkpt lat="43.738427" lon="7.426867"></trkpt>
      <trkpt lat="43.739078" lon="7.425767"></trkpt>
      <trkpt lat="43.739526" lon="7.425667"></trkpt>
      <trkpt lat="43.739722" lon="7.42515"></trkpt>
      <trkpt lat="43.741041" lon="7.426042"></trkpt>
      <trkpt lat="43.741602" lon="7.426873"></trkpt>
      <trkpt lat="43.74142" lon="7.427043"></trkpt>
      <trkpt lat="43.740811" lon="7.42684"></trkpt>
      <trkpt lat="43.740167" lon="7.427754"></trkpt>
      <trkpt lat="43.741112" lon="7.428812"></trkpt>
      <trkpt lat="43.740968" lon="7.429091"></trkpt>
      <trkpt lat="43.740679" lon="7.429153"></trkpt>
      <trkpt lat="43.740239" lon="7.429513"></trkpt>
      <trkpt lat="43.740252" lon="7.429723"></trkpt>
      <trkpt lat="43.740831" lon="7.429305"></trkpt>
      <trkpt lat="43.74129" lon="7.430424"></trkpt>
      <trkpt lat="43.743069" lon="7.430708"></trkpt>
      <trkpt lat="43.745854" lon="7.432271"></trkpt>
      <trkpt lat="43.74672" lon="7.433413"></trkpt>
      <trkpt lat="43.747559" lon="7.434827"></trkpt>
      <trkpt lat="43.748236" lon="7.435308"></trkpt>
      <trkpt lat="43.749288" lon="7.437716"></trkpt>
      <trkpt lat="43.749365" lon="7.43849"></trkpt>
      <trkpt lat="43.74943" lon="7.438294"></trkpt>
  </trkseg></trk>
</gpx>
