<?xml version="1.0" encoding="UTF-8"?>
<gpx version="1.1" creator="yatutbuv" xmlns="http://www.topografix.com/GPX/1/1">
  <trk><name>GraphHopper Track</name><trkseg>
      <trkpt lat="44.529249" lon="11.293822"></trkpt>
      <trkpt lat="44.528986" lon="11.292701"></trkpt>
      <trkpt lat="44.528341" lon="11.293072"></trkpt>
      <trkpt lat="44.528034" lon="11.29352"></trkpt>
      <trkpt lat="44.527242" lon="11.293546"></trkpt>
      <trkpt lat="44.526739" lon="11.294495"></trkpt>
      <trkpt lat="44.525953" lon="11.296662"></trkpt>
      <trkpt lat="44.525801" lon="11.296796"></trkpt>
      <trkpt lat="44.52555" lon="11.296702"></trkpt>
      <trkpt lat="44.525125" lon="11.296851"></trkpt>
      <trkpt lat="44.523485" lon="11.296171"></trkpt>
      <trkpt lat="44.52316" lon="11.295988"></trkpt>
      <trkpt lat="44.523006" lon="11.295574"></trkpt>
      <trkpt lat="44.523231" lon="11.294599"></trkpt>
      <trkpt lat="44.523521" lon="11.294424"></trkpt>
      <trkpt lat="44.523737" lon="11.294459"></trkpt>
      <trkpt lat="44.524031" lon="11.294909"></trkpt>
      <trkpt lat="44.524153" lon="11.295992"></trkpt>
      <trkpt lat="44.524607" lon="11.30558"></trkpt>
      <trkpt lat="44.524799" lon="11.307007"></trkpt>
      <trkpt lat="44.525214" lon="11.308776"></trkpt>
      <trkpt lat="44.525909" lon="11.31063"></trkpt>
      <trkpt lat="44.53047" lon="11.320308"></trkpt>
      <trkpt lat="44.53117" lon="11.322296"></trkpt>
      <trkpt lat="44.53182" lon="11.325031"></trkpt>
      <trkpt lat="44.532167" lon="11.327984"></trkpt>
      <trkpt lat="44.532166" lon="11.331129"></trkpt>
      <trkpt lat="44.531795" lon="11.334212"></trkpt>
      <trkpt lat="44.53138" lon="11.336482"></trkpt>
      <trkpt lat="44.530925" lon="11.338017"></trkpt>
      <trkpt lat="44.530586" lon="11.338297"></trkpt>
      <trkpt lat="44.53017" lon="11.338267"></trkpt>
      <trkpt lat="44.528878" lon="11.337714"></trkpt>
      <trkpt lat="44.528541" lon="11.337366"></trkpt>
      <trkpt lat="44.52842" lon="11.336653"></trkpt>
      <trkpt lat="44.528581" lon="11.334966"></trkpt>
      <trkpt lat="44.528942" lon="11.33404"></trkpt>
      <trkpt lat="44.529777" lon="11.33384"></trkpt>
      <trkpt lat="44.52984" lon="11.333407"></trkpt>
      <trkpt lat="44.529642" lon="11.333252"></trkpt>
      <trkpt lat="44.528798" lon="11.333335"></trkpt>
      <trkpt lat="44.528494" lon="11.333257"></trkpt>
      <trkpt lat="44.526958" lon="11.332277"></trkpt>
      <trkpt lat="44.526689" lon="11.331939"></trkpt>
      <trkpt lat="44.526588" lon="11.331559"></trkpt>
      <trkpt lat="44.526643" lon="11.331313"></trkpt>
      <trkpt lat="44.526506" lon="11.331107"></trkpt>
      <trkpt lat="44.526212" lon="11.331115"></trkpt>
      <trkpt lat="44.525665" lon="11.3308"></trkpt>
      <trkpt lat="44.521566" lon="11.329498"></trkpt>
      <trkpt lat="44.518022" lon="11.328567"></trkpt>
      <trkpt lat="44.517584" lon="11.328348"></trkpt>
      <trkpt lat="44.517379" lon="11.328084"></trkpt>
      <trkpt lat="44.516941" lon="11.328244"></trkpt>
      <trkpt lat="44.51373" lon="11.327418"></trkpt>
      <trkpt lat="44.51336" lon="11.326922"></trkpt>
      <trkpt lat="44.511865" lon="11.327665"></trkpt>
      <trkpt lat="44.510949" lon="11.328425"></trkpt>
      <trkpt lat="44.510106" lon="11.328704"></trkpt>
      <trkpt lat="44.506251" lon="11.330862"></trkpt>
      <trkpt lat="44.506127" lon="11.330843"></trkpt>
      <trkpt lat="44.505795" lon="11.331182"></trkpt>
      <trkpt lat="44.503624" lon="11.332536"></trkpt>
      <trkpt lat="44.503183" lon="11.335214"></trkpt>
      <trkpt lat="44.503424" lon="11.335144"></trkpt>
      <trkpt lat="44.504104" lon="11.336487"></trkpt>
      <trkpt lat="44.503841" lon="11.33817"></trkpt>
      <trkpt lat="44.503394" lon="11.337967"></trkpt>
  </trkseg></trk>
</gpx>
