<?xml version="1.0" encoding="UTF-8"?>
<gpx version="1.1" creator="yatutbuv" xmlns="http://www.topografix.com/GPX/1/1">
  <trk><name>GraphHopper Track</name><trkseg>
      <trkpt lat="37.940376" lon="23.94835"></trkpt>
      <trkpt lat="37.940544" lon="23.948708"></trkpt>
      <trkpt lat="37.940498" lon="23.948905"></trkpt>
      <trkpt lat="37.939897" lon="23.949768"></trkpt>
      <trkpt lat="37.939164" lon="23.949103"></trkpt>
      <trkpt lat="37.939067" lon="23.948836"></trkpt>
      <trkpt lat="37.93924" lon="23.94862"></trkpt>
      <trkpt lat="37.939924" lon="23.948655"></trkpt>
      <trkpt lat="37.940336" lon="23.948392"></trkpt>
      <trkpt lat="37.940622" lon="23.947563"></trkpt>
      <trkpt lat="37.940534" lon="23.947096"></trkpt>
      <trkpt lat="37.940327" lon="23.94678"></trkpt>
      <trkpt lat="37.940039" lon="23.946598"></trkpt>
      <trkpt lat="37.939178" lon="23.94638"></trkpt>
      <trkpt lat="37.93843" lon="23.945868"></trkpt>
      <trkpt lat="37.917803" lon="23.926233"></trkpt>
      <trkpt lat="37.91682" lon="23.925094"></trkpt>
      <trkpt lat="37.916238" lon="23.924232"></trkpt>
      <trkpt lat="37.915503" lon="23.922831"></trkpt>
      <trkpt lat="37.914808" lon="23.920933"></trkpt>
      <trkpt lat="37.913358" lon="23.91389"></trkpt>
      <trkpt lat="37.912759" lon="23.911747"></trkpt>
      <trkpt lat="37.912113" lon="23.910024"></trkpt>
      <trkpt lat="37.909748" lon="23.904984"></trkpt>
      <trkpt lat="37.908846" lon="23.902371"></trkpt>
      <trkpt lat="37.908747" lon="23.901721"></trkpt>
      <trkpt lat="37.908818" lon="23.900705"></trkpt>
      <trkpt lat="37.909316" lon="23.899486"></trkpt>
      <trkpt lat="37.911922" lon="23.896982"></trkpt>
      <trkpt lat="37.914915" lon="23.894761"></trkpt>
      <trkpt lat="37.922533" lon="23.890198"></trkpt>
      <trkpt lat="37.924096" lon="23.889362"></trkpt>
      <trkpt lat="37.92706" lon="23.888074"></trkpt>
      <trkpt lat="37.929648" lon="23.887275"></trkpt>
      <trkpt lat="37.932191" lon="23.886753"></trkpt>
      <trkpt lat="37.934331" lon="23.886521"></trkpt>
      <trkpt lat="37.938726" lon="23.886798"></trkpt>
      <trkpt lat="37.942823" lon="23.886475"></trkpt>
      <trkpt lat="37.959071" lon="23.886475"></trkpt>
      <trkpt lat="37.961253" lon="23.88619"></trkpt>
      <trkpt lat="37.963298" lon="23.885564"></trkpt>
      <trkpt lat="37.965688" lon="23.884357"></trkpt>
      <trkpt lat="37.967705" lon="23.882858"></trkpt>
      <trkpt lat="37.978149" lon="23.872104"></trkpt>
      <trkpt lat="37.979615" lon="23.870991"></trkpt>
      <trkpt lat="37.980905" lon="23.870399"></trkpt>
      <trkpt lat="37.982834" lon="23.870033"></trkpt>
      <trkpt lat="37.984426" lon="23.870207"></trkpt>
      <trkpt lat="37.990085" lon="23.872058"></trkpt>
      <trkpt lat="37.992895" lon="23.873189"></trkpt>
      <trkpt lat="37.993696" lon="23.873219"></trkpt>
      <trkpt lat="37.994308" lon="23.873003"></trkpt>
      <trkpt lat="37.994829" lon="23.872591"></trkpt>
      <trkpt lat="37.995192" lon="23.872041"></trkpt>
      <trkpt lat="37.995962" lon="23.869296"></trkpt>
      <trkpt lat="37.997584" lon="23.855214"></trkpt>
      <trkpt lat="37.997695" lon="23.853331"></trkpt>
      <trkpt lat="37.997573" lon="23.851144"></trkpt>
      <trkpt lat="37.996623" lon="23.846378"></trkpt>
      <trkpt lat="37.996676" lon="23.845652"></trkpt>
      <trkpt lat="37.996924" lon="23.844946"></trkpt>
      <trkpt lat="37.997294" lon="23.844367"></trkpt>
      <trkpt lat="37.997642" lon="23.844055"></trkpt>
      <trkpt lat="37.998176" lon="23.843832"></trkpt>
      <trkpt lat="37.998924" lon="23.843818"></trkpt>
      <trkpt lat="37.999645" lon="23.844213"></trkpt>
      <trkpt lat="38.001354" lon="23.845836"></trkpt>
      <trkpt lat="38.002051" lon="23.846154"></trkpt>
      <trkpt lat="38.002744" lon="23.846149"></trkpt>
      <trkpt lat="38.00332" lon="23.845917"></trkpt>
      <trkpt lat="38.005999" lon="23.844096"></trkpt>
      <trkpt lat="38.008715" lon="23.842988"></trkpt>
      <trkpt lat="38.009291" lon="23.842326"></trkpt>
      <trkpt lat="38.009588" lon="23.841443"></trkpt>
      <trkpt lat="38.009615" lon="23.840746"></trkpt>
      <trkpt lat="38.009371" lon="23.83868"></trkpt>
      <trkpt lat="38.009123" lon="23.837983"></trkpt>
      <trkpt lat="38.00869" lon="23.837389"></trkpt>
      <trkpt lat="38.007927" lon="23.836878"></trkpt>
      <trkpt lat="38.007315" lon="23.836734"></trkpt>
      <trkpt lat="38.004831" lon="23.836824"></trkpt>
      <trkpt lat="38.004174" lon="23.836503"></trkpt>
      <trkpt lat="38.003015" lon="23.835321"></trkpt>
      <trkpt lat="38.002113" lon="23.833833"></trkpt>
      <trkpt lat="38.000935" lon="23.831205"></trkpt>
      <trkpt lat="37.999523" lon="23.828676"></trkpt>
      <trkpt lat="37.992785" lon="23.820081"></trkpt>
      <trkpt lat="37.992152" lon="23.818538"></trkpt>
      <trkpt lat="37.991642" lon="23.815728"></trkpt>
      <trkpt lat="37.991163" lon="23.814752"></trkpt>
      <trkpt lat="37.990613" lon="23.814189"></trkpt>
      <trkpt lat="37.990079" lon="23.813866"></trkpt>
      <trkpt lat="37.987835" lon="23.813432"></trkpt>
      <trkpt lat="37.987084" lon="23.813077"></trkpt>
      <trkpt lat="37.986503" lon="23.812621"></trkpt>
      <trkpt lat="37.985642" lon="23.811463"></trkpt>
      <trkpt lat="37.984402" lon="23.808197"></trkpt>
      <trkpt lat="37.983768" lon="23.807255"></trkpt>
      <trkpt lat="37.983022" lon="23.806709"></trkpt>
      <trkpt lat="37.981134" lon="23.806153"></trkpt>
      <trkpt lat="37.980408" lon="23.805779"></trkpt>
      <trkpt lat="37.979809" lon="23.805332"></trkpt>
      <trkpt lat="37.97906" lon="23.80451"></trkpt>
      <trkpt lat="37.978411" lon="23.803223"></trkpt>
      <trkpt lat="37.977782" lon="23.800215"></trkpt>
      <trkpt lat="37.976723" lon="23.797683"></trkpt>
      <trkpt lat="37.976135" lon="23.796765"></trkpt>
      <trkpt lat="37.974896" lon="23.795568"></trkpt>
      <trkpt lat="37.97445" lon="23.794706"></trkpt>
      <trkpt lat="37.97432" lon="23.793958"></trkpt>
      <trkpt lat="37.974429" lon="23.79295"></trkpt>
      <trkpt lat="37.975159" lon="23.790711"></trkpt>
      <trkpt lat="37.975711" lon="23.78993"></trkpt>
      <trkpt lat="37.98337" lon="23.783459"></trkpt>
      <trkpt lat="37.985925" lon="23.781563"></trkpt>
      <trkpt lat="37.987915" lon="23.779734"></trkpt>
      <trkpt lat="37.99075" lon="23.777378"></trkpt>
      <trkpt lat="37.992305" lon="23.776707"></trkpt>
      <trkpt lat="37.993031" lon="23.776016"></trkpt>
      <trkpt lat="37.99307" lon="23.775696"></trkpt>
      <trkpt lat="37.992989" lon="23.775354"></trkpt>
      <trkpt lat="37.990979" lon="23.771259"></trkpt>
      <trkpt lat="37.98952" lon="23.769376"></trkpt>
      <trkpt lat="37.987935" lon="23.766644"></trkpt>
      <trkpt lat="37.986782" lon="23.765283"></trkpt>
      <trkpt lat="37.986054" lon="23.763466"></trkpt>
      <trkpt lat="37.986444" lon="23.76127"></trkpt>
      <trkpt lat="37.985084" lon="23.760183"></trkpt>
      <trkpt lat="37.984255" lon="23.75926"></trkpt>
      <trkpt lat="37.983417" lon="23.758273"></trkpt>
      <trkpt lat="37.982273" lon="23.756284"></trkpt>
      <trkpt lat="37.979894" lon="23.75392"></trkpt>
      <trkpt lat="37.978038" lon="23.751816"></trkpt>
      <trkpt lat="37.977136" lon="23.750568"></trkpt>
      <trkpt lat="37.975342" lon="23.743021"></trkpt>
      <trkpt lat="37.976196" lon="23.736205"></trkpt>
      <trkpt lat="37.976049" lon="23.735524"></trkpt>
      <trkpt lat="37.9762" lon="23.734379"></trkpt>
      <trkpt lat="37.976107" lon="23.734213"></trkpt>
      <trkpt lat="37.975692" lon="23.734002"></trkpt>
      <trkpt lat="37.97505" lon="23.73409"></trkpt>
      <trkpt lat="37.975252" lon="23.732178"></trkpt>
  </trkseg></trk>
</gpx>
