<?xml version="1.0" encoding="UTF-8"?>
<gpx version="1.1" creator="yatutbuv" xmlns="http://www.topografix.com/GPX/1/1">
  <trk><name>GraphHopper Track</name><trkseg>
      <trkpt lat="51.47252" lon="-0.486648"></trkpt>
      <trkpt lat="51.469764" lon="-0.486632"></trkpt>
      <trkpt lat="51.469619" lon="-0.486923"></trkpt>
      <trkpt lat="51.469507" lon="-0.489197"></trkpt>
      <trkpt lat="51.469357" lon="-0.489361"></trkpt>
      <trkpt lat="51.46662" lon="-0.489313"></trkpt>
      <trkpt lat="51.46635" lon="-0.489729"></trkpt>
      <trkpt lat="51.466327" lon="-0.490509"></trkpt>
      <trkpt lat="51.466486" lon="-0.491389"></trkpt>
      <trkpt lat="51.467164" lon="-0.491244"></trkpt>
      <trkpt lat="51.469594" lon="-0.491059"></trkpt>
      <trkpt lat="51.470807" lon="-0.491476"></trkpt>
      <trkpt lat="51.471883" lon="-0.492253"></trkpt>
      <trkpt lat="51.473217" lon="-0.494039"></trkpt>
      <trkpt lat="51.474386" lon="-0.494941"></trkpt>
      <trkpt lat="51.474428" lon="-0.495387"></trkpt>
      <trkpt lat="51.473823" lon="-0.498126"></trkpt>
      <trkpt lat="51.473676" lon="-0.499606"></trkpt>
      <trkpt lat="51.473756" lon="-0.501417"></trkpt>
      <trkpt lat="51.474152" lon="-0.503959"></trkpt>
      <trkpt lat="51.474164" lon="-0.505646"></trkpt>
      <trkpt lat="51.473788" lon="-0.507029"></trkpt>
      <trkpt lat="51.473397" lon="-0.507536"></trkpt>
      <trkpt lat="51.473019" lon="-0.507633"></trkpt>
      <trkpt lat="51.472659" lon="-0.507277"></trkpt>
      <trkpt lat="51.472563" lon="-0.506544"></trkpt>
      <trkpt lat="51.472695" lon="-0.506146"></trkpt>
      <trkpt lat="51.47323" lon="-0.505631"></trkpt>
      <trkpt lat="51.475881" lon="-0.504526"></trkpt>
      <trkpt lat="51.477924" lon="-0.504101"></trkpt>
      <trkpt lat="51.479419" lon="-0.503635"></trkpt>
      <trkpt lat="51.481719" lon="-0.502444"></trkpt>
      <trkpt lat="51.483467" lon="-0.501061"></trkpt>
      <trkpt lat="51.486601" lon="-0.497925"></trkpt>
      <trkpt lat="51.488916" lon="-0.496176"></trkpt>
      <trkpt lat="51.490074" lon="-0.495767"></trkpt>
      <trkpt lat="51.49074" lon="-0.49567"></trkpt>
      <trkpt lat="51.492638" lon="-0.496262"></trkpt>
      <trkpt lat="51.493208" lon="-0.496225"></trkpt>
      <trkpt lat="51.493783" lon="-0.495987"></trkpt>
      <trkpt lat="51.495808" lon="-0.493953"></trkpt>
      <trkpt lat="51.496275" lon="-0.493036"></trkpt>
      <trkpt lat="51.496361" lon="-0.492077"></trkpt>
      <trkpt lat="51.496211" lon="-0.491358"></trkpt>
      <trkpt lat="51.495074" lon="-0.489118"></trkpt>
      <trkpt lat="51.494814" lon="-0.488197"></trkpt>
      <trkpt lat="51.494547" lon="-0.483267"></trkpt>
      <trkpt lat="51.494588" lon="-0.477228"></trkpt>
      <trkpt lat="51.495449" lon="-0.468049"></trkpt>
      <trkpt lat="51.495903" lon="-0.460521"></trkpt>
      <trkpt lat="51.495888" lon="-0.456651"></trkpt>
      <trkpt lat="51.495494" lon="-0.449356"></trkpt>
      <trkpt lat="51.494346" lon="-0.437515"></trkpt>
      <trkpt lat="51.492238" lon="-0.409053"></trkpt>
      <trkpt lat="51.491598" lon="-0.405415"></trkpt>
      <trkpt lat="51.488497" lon="-0.393353"></trkpt>
      <trkpt lat="51.488047" lon="-0.390188"></trkpt>
      <trkpt lat="51.487881" lon="-0.387199"></trkpt>
      <trkpt lat="51.487903" lon="-0.385265"></trkpt>
      <trkpt lat="51.48816" lon="-0.382099"></trkpt>
      <trkpt lat="51.490235" lon="-0.367392"></trkpt>
      <trkpt lat="51.491349" lon="-0.363353"></trkpt>
      <trkpt lat="51.49356" lon="-0.357764"></trkpt>
      <trkpt lat="51.494029" lon="-0.356197"></trkpt>
      <trkpt lat="51.494796" lon="-0.352688"></trkpt>
      <trkpt lat="51.49523" lon="-0.348905"></trkpt>
      <trkpt lat="51.495964" lon="-0.337185"></trkpt>
      <trkpt lat="51.49584" lon="-0.334476"></trkpt>
      <trkpt lat="51.495245" lon="-0.331367"></trkpt>
      <trkpt lat="51.49477" lon="-0.329943"></trkpt>
      <trkpt lat="51.489941" lon="-0.318084"></trkpt>
      <trkpt lat="51.489534" lon="-0.316641"></trkpt>
      <trkpt lat="51.489263" lon="-0.314643"></trkpt>
      <trkpt lat="51.48927" lon="-0.31255"></trkpt>
      <trkpt lat="51.489477" lon="-0.310943"></trkpt>
      <trkpt lat="51.489882" lon="-0.30933"></trkpt>
      <trkpt lat="51.490994" lon="-0.306048"></trkpt>
      <trkpt lat="51.491351" lon="-0.304023"></trkpt>
      <trkpt lat="51.491539" lon="-0.297317"></trkpt>
      <trkpt lat="51.491449" lon="-0.29419"></trkpt>
      <trkpt lat="51.49153" lon="-0.292202"></trkpt>
      <trkpt lat="51.491711" lon="-0.291316"></trkpt>
      <trkpt lat="51.492797" lon="-0.288322"></trkpt>
      <trkpt lat="51.49295" lon="-0.287532"></trkpt>
      <trkpt lat="51.492937" lon="-0.2867"></trkpt>
      <trkpt lat="51.49253" lon="-0.284455"></trkpt>
      <trkpt lat="51.492256" lon="-0.283617"></trkpt>
      <trkpt lat="51.49227" lon="-0.283153"></trkpt>
      <trkpt lat="51.49266" lon="-0.282323"></trkpt>
      <trkpt lat="51.494408" lon="-0.282485"></trkpt>
      <trkpt lat="51.496753" lon="-0.282028"></trkpt>
      <trkpt lat="51.497218" lon="-0.282098"></trkpt>
      <trkpt lat="51.497895" lon="-0.282454"></trkpt>
      <trkpt lat="51.499272" lon="-0.283335"></trkpt>
      <trkpt lat="51.500444" lon="-0.284434"></trkpt>
      <trkpt lat="51.501641" lon="-0.286126"></trkpt>
      <trkpt lat="51.503093" lon="-0.288514"></trkpt>
      <trkpt lat="51.503525" lon="-0.288972"></trkpt>
      <trkpt lat="51.505973" lon="-0.290456"></trkpt>
      <trkpt lat="51.508023" lon="-0.29153"></trkpt>
      <trkpt lat="51.511108" lon="-0.292064"></trkpt>
      <trkpt lat="51.514183" lon="-0.292121"></trkpt>
      <trkpt lat="51.515188" lon="-0.292056"></trkpt>
      <trkpt lat="51.516335" lon="-0.291505"></trkpt>
      <trkpt lat="51.517643" lon="-0.291318"></trkpt>
      <trkpt lat="51.523315" lon="-0.291653"></trkpt>
      <trkpt lat="51.524884" lon="-0.2924"></trkpt>
      <trkpt lat="51.525845" lon="-0.292207"></trkpt>
      <trkpt lat="51.526309" lon="-0.292226"></trkpt>
      <trkpt lat="51.529503" lon="-0.292645"></trkpt>
      <trkpt lat="51.529704" lon="-0.29282"></trkpt>
      <trkpt lat="51.530062" lon="-0.294223"></trkpt>
      <trkpt lat="51.530423" lon="-0.294797"></trkpt>
      <trkpt lat="51.531248" lon="-0.294648"></trkpt>
      <trkpt lat="51.531511" lon="-0.294156"></trkpt>
      <trkpt lat="51.531518" lon="-0.293431"></trkpt>
      <trkpt lat="51.531317" lon="-0.292848"></trkpt>
      <trkpt lat="51.530062" lon="-0.292559"></trkpt>
      <trkpt lat="51.52981" lon="-0.292254"></trkpt>
      <trkpt lat="51.528563" lon="-0.28659"></trkpt>
      <trkpt lat="51.527641" lon="-0.285237"></trkpt>
      <trkpt lat="51.527051" lon="-0.2834"></trkpt>
      <trkpt lat="51.526786" lon="-0.281805"></trkpt>
      <trkpt lat="51.526649" lon="-0.277012"></trkpt>
      <trkpt lat="51.526263" lon="-0.274218"></trkpt>
      <trkpt lat="51.525604" lon="-0.271604"></trkpt>
      <trkpt lat="51.524095" lon="-0.266705"></trkpt>
      <trkpt lat="51.523586" lon="-0.265648"></trkpt>
      <trkpt lat="51.522585" lon="-0.264344"></trkpt>
      <trkpt lat="51.521812" lon="-0.263731"></trkpt>
      <trkpt lat="51.519785" lon="-0.262553"></trkpt>
      <trkpt lat="51.518017" lon="-0.261365"></trkpt>
      <trkpt lat="51.517088" lon="-0.260556"></trkpt>
      <trkpt lat="51.516698" lon="-0.260034"></trkpt>
      <trkpt lat="51.515799" lon="-0.258301"></trkpt>
      <trkpt lat="51.514838" lon="-0.255897"></trkpt>
      <trkpt lat="51.514379" lon="-0.25417"></trkpt>
      <trkpt lat="51.513951" lon="-0.251083"></trkpt>
      <trkpt lat="51.513994" lon="-0.248122"></trkpt>
      <trkpt lat="51.514425" lon="-0.24093"></trkpt>
      <trkpt lat="51.514285" lon="-0.237699"></trkpt>
      <trkpt lat="51.515853" lon="-0.217177"></trkpt>
      <trkpt lat="51.516114" lon="-0.215862"></trkpt>
      <trkpt lat="51.51733" lon="-0.212173"></trkpt>
      <trkpt lat="51.51835" lon="-0.208113"></trkpt>
      <trkpt lat="51.518879" lon="-0.207014"></trkpt>
      <trkpt lat="51.520474" lon="-0.204842"></trkpt>
      <trkpt lat="51.520923" lon="-0.204022"></trkpt>
      <trkpt lat="51.521392" lon="-0.202706"></trkpt>
      <trkpt lat="51.521682" lon="-0.20104"></trkpt>
      <trkpt lat="51.521708" lon="-0.199915"></trkpt>
      <trkpt lat="51.521536" lon="-0.198349"></trkpt>
      <trkpt lat="51.520106" lon="-0.193319"></trkpt>
      <trkpt lat="51.519816" lon="-0.19168"></trkpt>
      <trkpt lat="51.519655" lon="-0.189731"></trkpt>
      <trkpt lat="51.519575" lon="-0.184497"></trkpt>
      <trkpt lat="51.520124" lon="-0.180092"></trkpt>
      <trkpt lat="51.519988" lon="-0.170711"></trkpt>
      <trkpt lat="51.520058" lon="-0.169308"></trkpt>
      <trkpt lat="51.520687" lon="-0.166438"></trkpt>
      <trkpt lat="51.523091" lon="-0.152438"></trkpt>
      <trkpt lat="51.523372" lon="-0.14888"></trkpt>
      <trkpt lat="51.524107" lon="-0.144577"></trkpt>
      <trkpt lat="51.523988" lon="-0.142919"></trkpt>
      <trkpt lat="51.524196" lon="-0.141664"></trkpt>
      <trkpt lat="51.525792" lon="-0.135422"></trkpt>
      <trkpt lat="51.527439" lon="-0.130447"></trkpt>
      <trkpt lat="51.529067" lon="-0.126486"></trkpt>
      <trkpt lat="51.529126" lon="-0.126109"></trkpt>
      <trkpt lat="51.530798" lon="-0.122195"></trkpt>
      <trkpt lat="51.531527" lon="-0.112069"></trkpt>
      <trkpt lat="51.531851" lon="-0.109349"></trkpt>
      <trkpt lat="51.53195" lon="-0.106192"></trkpt>
      <trkpt lat="51.527584" lon="-0.089189"></trkpt>
      <trkpt lat="51.527393" lon="-0.088699"></trkpt>
      <trkpt lat="51.526929" lon="-0.088126"></trkpt>
      <trkpt lat="51.526151" lon="-0.087803"></trkpt>
      <trkpt lat="51.525897" lon="-0.087011"></trkpt>
      <trkpt lat="51.525897" lon="-0.086605"></trkpt>
      <trkpt lat="51.526172" lon="-0.085723"></trkpt>
      <trkpt lat="51.52633" lon="-0.084705"></trkpt>
      <trkpt lat="51.526069" lon="-0.083598"></trkpt>
      <trkpt lat="51.52473" lon="-0.080969"></trkpt>
      <trkpt lat="51.523029" lon="-0.078153"></trkpt>
      <trkpt lat="51.5228" lon="-0.077424"></trkpt>
      <trkpt lat="51.521228" lon="-0.075403"></trkpt>
      <trkpt lat="51.520296" lon="-0.074485"></trkpt>
      <trkpt lat="51.518656" lon="-0.074469"></trkpt>
      <trkpt lat="51.518203" lon="-0.074245"></trkpt>
      <trkpt lat="51.515665" lon="-0.072168"></trkpt>
      <trkpt lat="51.515325" lon="-0.071773"></trkpt>
      <trkpt lat="51.515837" lon="-0.070263"></trkpt>
      <trkpt lat="51.517221" lon="-0.067121"></trkpt>
      <trkpt lat="51.518524" lon="-0.06272"></trkpt>
      <trkpt lat="51.519934" lon="-0.056222"></trkpt>
      <trkpt lat="51.520419" lon="-0.053205"></trkpt>
      <trkpt lat="51.522009" lon="-0.045577"></trkpt>
      <trkpt lat="51.522598" lon="-0.041356"></trkpt>
      <trkpt lat="51.523268" lon="-0.039116"></trkpt>
      <trkpt lat="51.524155" lon="-0.03739"></trkpt>
      <trkpt lat="51.525193" lon="-0.034414"></trkpt>
      <trkpt lat="51.527263" lon="-0.024996"></trkpt>
      <trkpt lat="51.528346" lon="-0.0185"></trkpt>
      <trkpt lat="51.528472" lon="-0.01856"></trkpt>
  </trkseg></trk>
</gpx>
