<?xml version="1.0" encoding="UTF-8"?>
<gpx version="1.1" creator="yatutbuv" xmlns="http://www.topografix.com/GPX/1/1">
  <trk><name>GraphHopper Track</name><trkseg>
      <trkpt lat="49.830668" lon="23.98253"></trkpt>
      <trkpt lat="49.830595" lon="23.982297"></trkpt>
      <trkpt lat="49.828181" lon="23.985321"></trkpt>
      <trkpt lat="49.827437" lon="23.983594"></trkpt>
      <trkpt lat="49.82711" lon="23.98305"></trkpt>
      <trkpt lat="49.826939" lon="23.983005"></trkpt>
      <trkpt lat="49.826456" lon="23.984175"></trkpt>
      <trkpt lat="49.824946" lon="23.989662"></trkpt>
      <trkpt lat="49.820793" lon="23.988469"></trkpt>
      <trkpt lat="49.819006" lon="23.987836"></trkpt>
      <trkpt lat="49.81277" lon="23.984403"></trkpt>
      <trkpt lat="49.812161" lon="23.983424"></trkpt>
      <trkpt lat="49.81191" lon="23.98342"></trkpt>
      <trkpt lat="49.811667" lon="23.983612"></trkpt>
      <trkpt lat="49.811258" lon="23.983575"></trkpt>
      <trkpt lat="49.809091" lon="23.98243"></trkpt>
      <trkpt lat="49.807514" lon="23.981808"></trkpt>
      <trkpt lat="49.806258" lon="23.981529"></trkpt>
      <trkpt lat="49.805725" lon="23.980922"></trkpt>
      <trkpt lat="49.80557" lon="23.980921"></trkpt>
      <trkpt lat="49.805106" lon="23.98125"></trkpt>
      <trkpt lat="49.801153" lon="23.980247"></trkpt>
      <trkpt lat="49.793921" lon="23.979031"></trkpt>
      <trkpt lat="49.791251" lon="23.978651"></trkpt>
      <trkpt lat="49.788617" lon="23.978437"></trkpt>
      <trkpt lat="49.787998" lon="23.977993"></trkpt>
      <trkpt lat="49.787532" lon="23.978397"></trkpt>
      <trkpt lat="49.785206" lon="23.978185"></trkpt>
      <trkpt lat="49.781387" lon="23.976282"></trkpt>
      <trkpt lat="49.778441" lon="23.976237"></trkpt>
      <trkpt lat="49.778048" lon="23.975821"></trkpt>
      <trkpt lat="49.772082" lon="23.993775"></trkpt>
      <trkpt lat="49.771004" lon="23.997685"></trkpt>
      <trkpt lat="49.770046" lon="24.002792"></trkpt>
      <trkpt lat="49.769656" lon="24.005967"></trkpt>
      <trkpt lat="49.769431" lon="24.009161"></trkpt>
      <trkpt lat="49.76926" lon="24.009837"></trkpt>
      <trkpt lat="49.768777" lon="24.01072"></trkpt>
      <trkpt lat="49.767024" lon="24.013293"></trkpt>
      <trkpt lat="49.766431" lon="24.013911"></trkpt>
      <trkpt lat="49.765662" lon="24.014284"></trkpt>
      <trkpt lat="49.763516" lon="24.014344"></trkpt>
      <trkpt lat="49.759565" lon="24.014779"></trkpt>
      <trkpt lat="49.754172" lon="24.014942"></trkpt>
      <trkpt lat="49.750514" lon="24.014739"></trkpt>
      <trkpt lat="49.742698" lon="24.014934"></trkpt>
      <trkpt lat="49.741826" lon="24.014795"></trkpt>
      <trkpt lat="49.708942" lon="23.99879"></trkpt>
      <trkpt lat="49.707647" lon="23.998256"></trkpt>
      <trkpt lat="49.707207" lon="23.998279"></trkpt>
      <trkpt lat="49.706746" lon="23.998491"></trkpt>
      <trkpt lat="49.700127" lon="24.002662"></trkpt>
      <trkpt lat="49.692104" lon="24.004025"></trkpt>
      <trkpt lat="49.679862" lon="24.00511"></trkpt>
      <trkpt lat="49.679286" lon="24.004865"></trkpt>
      <trkpt lat="49.67724" lon="24.00305"></trkpt>
      <trkpt lat="49.676073" lon="24.002577"></trkpt>
      <trkpt lat="49.674741" lon="24.002641"></trkpt>
      <trkpt lat="49.67157" lon="24.003558"></trkpt>
      <trkpt lat="49.670292" lon="24.00367"></trkpt>
      <trkpt lat="49.661162" lon="24.002476"></trkpt>
      <trkpt lat="49.630718" lon="23.995388"></trkpt>
      <trkpt lat="49.626927" lon="23.995207"></trkpt>
      <trkpt lat="49.615327" lon="23.99506"></trkpt>
      <trkpt lat="49.614488" lon="23.99514"></trkpt>
      <trkpt lat="49.612983" lon="23.995574"></trkpt>
      <trkpt lat="49.601692" lon="24.000154"></trkpt>
      <trkpt lat="49.600198" lon="24.000864"></trkpt>
      <trkpt lat="49.597509" lon="24.002469"></trkpt>
      <trkpt lat="49.596826" lon="24.002761"></trkpt>
      <trkpt lat="49.595981" lon="24.002946"></trkpt>
      <trkpt lat="49.595298" lon="24.002949"></trkpt>
      <trkpt lat="49.59442" lon="24.002761"></trkpt>
      <trkpt lat="49.593395" lon="24.002315"></trkpt>
      <trkpt lat="49.578749" lon="23.994311"></trkpt>
      <trkpt lat="49.576589" lon="23.993195"></trkpt>
      <trkpt lat="49.57269" lon="23.99141"></trkpt>
      <trkpt lat="49.571124" lon="23.990913"></trkpt>
      <trkpt lat="49.567367" lon="23.990684"></trkpt>
      <trkpt lat="49.563818" lon="23.989556"></trkpt>
      <trkpt lat="49.55765" lon="23.98838"></trkpt>
      <trkpt lat="49.556852" lon="23.98811"></trkpt>
      <trkpt lat="49.555623" lon="23.987291"></trkpt>
      <trkpt lat="49.554202" lon="23.985778"></trkpt>
      <trkpt lat="49.553576" lon="23.984729"></trkpt>
      <trkpt lat="49.550632" lon="23.97794"></trkpt>
      <trkpt lat="49.547422" lon="23.971708"></trkpt>
      <trkpt lat="49.544646" lon="23.965021"></trkpt>
      <trkpt lat="49.5432" lon="23.958367"></trkpt>
      <trkpt lat="49.542495" lon="23.956499"></trkpt>
      <trkpt lat="49.541999" lon="23.95562"></trkpt>
      <trkpt lat="49.541072" lon="23.954525"></trkpt>
      <trkpt lat="49.540261" lon="23.953937"></trkpt>
      <trkpt lat="49.536944" lon="23.952383"></trkpt>
      <trkpt lat="49.533812" lon="23.950446"></trkpt>
      <trkpt lat="49.532535" lon="23.949896"></trkpt>
      <trkpt lat="49.528911" lon="23.949256"></trkpt>
      <trkpt lat="49.52815" lon="23.949249"></trkpt>
      <trkpt lat="49.527179" lon="23.949511"></trkpt>
      <trkpt lat="49.525102" lon="23.950622"></trkpt>
      <trkpt lat="49.523846" lon="23.95151"></trkpt>
      <trkpt lat="49.52145" lon="23.954169"></trkpt>
      <trkpt lat="49.520917" lon="23.954691"></trkpt>
      <trkpt lat="49.52009" lon="23.955258"></trkpt>
      <trkpt lat="49.518727" lon="23.95569"></trkpt>
      <trkpt lat="49.515611" lon="23.955636"></trkpt>
      <trkpt lat="49.514778" lon="23.95581"></trkpt>
      <trkpt lat="49.514139" lon="23.9561"></trkpt>
      <trkpt lat="49.513394" lon="23.956598"></trkpt>
      <trkpt lat="49.512391" lon="23.957713"></trkpt>
      <trkpt lat="49.509174" lon="23.962575"></trkpt>
      <trkpt lat="49.507306" lon="23.964734"></trkpt>
      <trkpt lat="49.502599" lon="23.968096"></trkpt>
      <trkpt lat="49.501875" lon="23.968868"></trkpt>
      <trkpt lat="49.500231" lon="23.971127"></trkpt>
      <trkpt lat="49.499398" lon="23.971975"></trkpt>
      <trkpt lat="49.498323" lon="23.972607"></trkpt>
      <trkpt lat="49.496648" lon="23.972817"></trkpt>
      <trkpt lat="49.495537" lon="23.972607"></trkpt>
      <trkpt lat="49.494569" lon="23.972099"></trkpt>
      <trkpt lat="49.492191" lon="23.969755"></trkpt>
      <trkpt lat="49.491166" lon="23.968508"></trkpt>
      <trkpt lat="49.490417" lon="23.967092"></trkpt>
      <trkpt lat="49.489942" lon="23.965724"></trkpt>
      <trkpt lat="49.489092" lon="23.960832"></trkpt>
      <trkpt lat="49.488623" lon="23.959264"></trkpt>
      <trkpt lat="49.488139" lon="23.95838"></trkpt>
      <trkpt lat="49.487571" lon="23.957712"></trkpt>
      <trkpt lat="49.486947" lon="23.957249"></trkpt>
      <trkpt lat="49.486278" lon="23.956975"></trkpt>
      <trkpt lat="49.485424" lon="23.956835"></trkpt>
      <trkpt lat="49.479507" lon="23.956563"></trkpt>
      <trkpt lat="49.476441" lon="23.956297"></trkpt>
      <trkpt lat="49.473185" lon="23.956273"></trkpt>
      <trkpt lat="49.453608" lon="23.955288"></trkpt>
      <trkpt lat="49.451805" lon="23.954785"></trkpt>
      <trkpt lat="49.425529" lon="23.94618"></trkpt>
      <trkpt lat="49.411953" lon="23.94185"></trkpt>
      <trkpt lat="49.410881" lon="23.941602"></trkpt>
      <trkpt lat="49.410143" lon="23.941624"></trkpt>
      <trkpt lat="49.408469" lon="23.941921"></trkpt>
      <trkpt lat="49.400363" lon="23.943505"></trkpt>
      <trkpt lat="49.396468" lon="23.944719"></trkpt>
      <trkpt lat="49.393197" lon="23.945922"></trkpt>
      <trkpt lat="49.392399" lon="23.945909"></trkpt>
      <trkpt lat="49.391624" lon="23.945606"></trkpt>
      <trkpt lat="49.390926" lon="23.945048"></trkpt>
      <trkpt lat="49.389479" lon="23.943145"></trkpt>
      <trkpt lat="49.388622" lon="23.942405"></trkpt>
      <trkpt lat="49.33662" lon="23.910702"></trkpt>
      <trkpt lat="49.296422" lon="23.886034"></trkpt>
      <trkpt lat="49.273454" lon="23.871544"></trkpt>
      <trkpt lat="49.271461" lon="23.875493"></trkpt>
      <trkpt lat="49.271265" lon="23.875487"></trkpt>
      <trkpt lat="49.270949" lon="23.875153"></trkpt>
      <trkpt lat="49.268961" lon="23.872686"></trkpt>
      <trkpt lat="49.268728" lon="23.872836"></trkpt>
      <trkpt lat="49.26737" lon="23.875748"></trkpt>
      <trkpt lat="49.266905" lon="23.875949"></trkpt>
      <trkpt lat="49.266168" lon="23.875715"></trkpt>
      <trkpt lat="49.265327" lon="23.874995"></trkpt>
      <trkpt lat="49.261331" lon="23.869014"></trkpt>
      <trkpt lat="49.260455" lon="23.867936"></trkpt>
      <trkpt lat="49.250219" lon="23.859917"></trkpt>
      <trkpt lat="49.248874" lon="23.858548"></trkpt>
      <trkpt lat="49.247307" lon="23.856499"></trkpt>
      <trkpt lat="49.246865" lon="23.85444"></trkpt>
      <trkpt lat="49.246611" lon="23.854324"></trkpt>
      <trkpt lat="49.246159" lon="23.854644"></trkpt>
      <trkpt lat="49.245906" lon="23.854453"></trkpt>
      <trkpt lat="49.245009" lon="23.853144"></trkpt>
      <trkpt lat="49.24304" lon="23.849633"></trkpt>
      <trkpt lat="49.242364" lon="23.847679"></trkpt>
      <trkpt lat="49.241774" lon="23.845347"></trkpt>
      <trkpt lat="49.241399" lon="23.844633"></trkpt>
      <trkpt lat="49.239956" lon="23.842564"></trkpt>
      <trkpt lat="49.2384" lon="23.838705"></trkpt>
      <trkpt lat="49.236632" lon="23.836028"></trkpt>
      <trkpt lat="49.235197" lon="23.832135"></trkpt>
      <trkpt lat="49.232763" lon="23.828579"></trkpt>
      <trkpt lat="49.231232" lon="23.826026"></trkpt>
      <trkpt lat="49.230836" lon="23.824923"></trkpt>
      <trkpt lat="49.23033" lon="23.821966"></trkpt>
      <trkpt lat="49.229652" lon="23.820243"></trkpt>
      <trkpt lat="49.223652" lon="23.811844"></trkpt>
      <trkpt lat="49.222832" lon="23.810395"></trkpt>
      <trkpt lat="49.222347" lon="23.80927"></trkpt>
      <trkpt lat="49.222013" lon="23.807938"></trkpt>
      <trkpt lat="49.221874" lon="23.803521"></trkpt>
      <trkpt lat="49.221621" lon="23.80188"></trkpt>
      <trkpt lat="49.221134" lon="23.800274"></trkpt>
      <trkpt lat="49.220487" lon="23.798927"></trkpt>
      <trkpt lat="49.214005" lon="23.788471"></trkpt>
      <trkpt lat="49.198763" lon="23.764495"></trkpt>
      <trkpt lat="49.196646" lon="23.760748"></trkpt>
      <trkpt lat="49.19227" lon="23.754275"></trkpt>
      <trkpt lat="49.163783" lon="23.717358"></trkpt>
      <trkpt lat="49.150336" lon="23.703641"></trkpt>
      <trkpt lat="49.140742" lon="23.693548"></trkpt>
      <trkpt lat="49.133424" lon="23.685749"></trkpt>
      <trkpt lat="49.128099" lon="23.679375"></trkpt>
      <trkpt lat="49.121336" lon="23.672977"></trkpt>
      <trkpt lat="49.12085" lon="23.672289"></trkpt>
      <trkpt lat="49.119888" lon="23.670514"></trkpt>
      <trkpt lat="49.119544" lon="23.670103"></trkpt>
      <trkpt lat="49.118896" lon="23.66971"></trkpt>
      <trkpt lat="49.11779" lon="23.669597"></trkpt>
      <trkpt lat="49.11713" lon="23.669228"></trkpt>
      <trkpt lat="49.116233" lon="23.668401"></trkpt>
      <trkpt lat="49.115476" lon="23.667328"></trkpt>
      <trkpt lat="49.113517" lon="23.663"></trkpt>
      <trkpt lat="49.113144" lon="23.661859"></trkpt>
      <trkpt lat="49.105571" lon="23.635342"></trkpt>
      <trkpt lat="49.104373" lon="23.630112"></trkpt>
      <trkpt lat="49.102737" lon="23.615662"></trkpt>
      <trkpt lat="49.102708" lon="23.614916"></trkpt>
      <trkpt lat="49.102852" lon="23.613727"></trkpt>
      <trkpt lat="49.103322" lon="23.611458"></trkpt>
      <trkpt lat="49.103658" lon="23.610564"></trkpt>
      <trkpt lat="49.104256" lon="23.609791"></trkpt>
      <trkpt lat="49.107878" lon="23.607267"></trkpt>
      <trkpt lat="49.109259" lon="23.604208"></trkpt>
      <trkpt lat="49.109974" lon="23.602157"></trkpt>
      <trkpt lat="49.110218" lon="23.600531"></trkpt>
      <trkpt lat="49.110119" lon="23.598746"></trkpt>
      <trkpt lat="49.109396" lon="23.594222"></trkpt>
      <trkpt lat="49.108992" lon="23.592748"></trkpt>
      <trkpt lat="49.108762" lon="23.592271"></trkpt>
      <trkpt lat="49.108437" lon="23.591868"></trkpt>
      <trkpt lat="49.107843" lon="23.591514"></trkpt>
      <trkpt lat="49.106851" lon="23.591271"></trkpt>
      <trkpt lat="49.102192" lon="23.59058"></trkpt>
      <trkpt lat="49.101451" lon="23.590336"></trkpt>
      <trkpt lat="49.087659" lon="23.583058"></trkpt>
      <trkpt lat="49.06328" lon="23.553642"></trkpt>
      <trkpt lat="49.062581" lon="23.552583"></trkpt>
      <trkpt lat="49.055311" lon="23.538307"></trkpt>
      <trkpt lat="49.053019" lon="23.533214"></trkpt>
      <trkpt lat="49.052171" lon="23.530396"></trkpt>
      <trkpt lat="49.051457" lon="23.528684"></trkpt>
      <trkpt lat="49.049013" lon="23.525445"></trkpt>
      <trkpt lat="49.048037" lon="23.523276"></trkpt>
      <trkpt lat="49.047764" lon="23.523025"></trkpt>
      <trkpt lat="49.046898" lon="23.52261"></trkpt>
      <trkpt lat="49.046124" lon="23.521993"></trkpt>
      <trkpt lat="49.046551" lon="23.521794"></trkpt>
      <trkpt lat="49.047235" lon="23.520944"></trkpt>
      <trkpt lat="49.04732" lon="23.520926"></trkpt>
      <trkpt lat="49.047496" lon="23.521268"></trkpt>
      <trkpt lat="49.047303" lon="23.521477"></trkpt>
      <trkpt lat="49.045858" lon="23.515767"></trkpt>
      <trkpt lat="49.04529" lon="23.514329"></trkpt>
      <trkpt lat="49.043957" lon="23.512543"></trkpt>
      <trkpt lat="49.043691" lon="23.512015"></trkpt>
      <trkpt lat="49.041504" lon="23.506189"></trkpt>
      <trkpt lat="49.0405" lon="23.504018"></trkpt>
      <trkpt lat="49.039751" lon="23.503134"></trkpt>
      <trkpt lat="49.039129" lon="23.502654"></trkpt>
      <trkpt lat="49.037146" lon="23.501862"></trkpt>
      <trkpt lat="49.036048" lon="23.501713"></trkpt>
      <trkpt lat="49.034737" lon="23.501713"></trkpt>
      <trkpt lat="49.029366" lon="23.501889"></trkpt>
      <trkpt lat="49.02901" lon="23.501822"></trkpt>
      <trkpt lat="49.028585" lon="23.501567"></trkpt>
      <trkpt lat="49.026193" lon="23.498508"></trkpt>
      <trkpt lat="49.025532" lon="23.497386"></trkpt>
      <trkpt lat="49.019262" lon="23.479274"></trkpt>
      <trkpt lat="49.018192" lon="23.476987"></trkpt>
      <trkpt lat="49.017725" lon="23.476317"></trkpt>
      <trkpt lat="49.016143" lon="23.475221"></trkpt>
      <trkpt lat="49.010596" lon="23.473483"></trkpt>
      <trkpt lat="49.009856" lon="23.473128"></trkpt>
      <trkpt lat="49.009198" lon="23.47244"></trkpt>
      <trkpt lat="49.007644" lon="23.469353"></trkpt>
      <trkpt lat="49.006813" lon="23.468895"></trkpt>
      <trkpt lat="49.004762" lon="23.46845"></trkpt>
      <trkpt lat="49.00433" lon="23.468203"></trkpt>
      <trkpt lat="49.004085" lon="23.467822"></trkpt>
      <trkpt lat="49.003094" lon="23.465097"></trkpt>
      <trkpt lat="49.002887" lon="23.465244"></trkpt>
      <trkpt lat="49.002297" lon="23.466513"></trkpt>
      <trkpt lat="49.00194" lon="23.466945"></trkpt>
      <trkpt lat="49.001552" lon="23.467042"></trkpt>
      <trkpt lat="49.000171" lon="23.46659"></trkpt>
      <trkpt lat="48.998757" lon="23.466051"></trkpt>
      <trkpt lat="48.998129" lon="23.465611"></trkpt>
      <trkpt lat="48.996053" lon="23.463433"></trkpt>
      <trkpt lat="48.994988" lon="23.462122"></trkpt>
      <trkpt lat="48.993461" lon="23.461156"></trkpt>
      <trkpt lat="48.992746" lon="23.461022"></trkpt>
      <trkpt lat="48.992158" lon="23.461095"></trkpt>
      <trkpt lat="48.990986" lon="23.461919"></trkpt>
      <trkpt lat="48.989417" lon="23.463242"></trkpt>
      <trkpt lat="48.989202" lon="23.46358"></trkpt>
      <trkpt lat="48.988866" lon="23.464856"></trkpt>
      <trkpt lat="48.988631" lon="23.465269"></trkpt>
      <trkpt lat="48.987041" lon="23.466337"></trkpt>
      <trkpt lat="48.986903" lon="23.466554"></trkpt>
      <trkpt lat="48.986819" lon="23.467155"></trkpt>
      <trkpt lat="48.985434" lon="23.468908"></trkpt>
      <trkpt lat="48.984342" lon="23.469525"></trkpt>
      <trkpt lat="48.982043" lon="23.471501"></trkpt>
      <trkpt lat="48.981575" lon="23.471675"></trkpt>
      <trkpt lat="48.979938" lon="23.471429"></trkpt>
      <trkpt lat="48.977002" lon="23.472506"></trkpt>
      <trkpt lat="48.975402" lon="23.472652"></trkpt>
      <trkpt lat="48.973541" lon="23.473439"></trkpt>
      <trkpt lat="48.971909" lon="23.474454"></trkpt>
      <trkpt lat="48.971707" lon="23.474952"></trkpt>
      <trkpt lat="48.971826" lon="23.476073"></trkpt>
      <trkpt lat="48.971724" lon="23.47677"></trkpt>
      <trkpt lat="48.970774" lon="23.479233"></trkpt>
      <trkpt lat="48.970269" lon="23.480015"></trkpt>
      <trkpt lat="48.969684" lon="23.480557"></trkpt>
      <trkpt lat="48.96755" lon="23.482048"></trkpt>
      <trkpt lat="48.967075" lon="23.48219"></trkpt>
      <trkpt lat="48.966385" lon="23.482191"></trkpt>
      <trkpt lat="48.964596" lon="23.481757"></trkpt>
      <trkpt lat="48.964006" lon="23.481735"></trkpt>
      <trkpt lat="48.960825" lon="23.482595"></trkpt>
      <trkpt lat="48.959926" lon="23.482615"></trkpt>
      <trkpt lat="48.959077" lon="23.482511"></trkpt>
      <trkpt lat="48.958523" lon="23.482294"></trkpt>
      <trkpt lat="48.956094" lon="23.480542"></trkpt>
      <trkpt lat="48.954413" lon="23.480436"></trkpt>
      <trkpt lat="48.953716" lon="23.480567"></trkpt>
      <trkpt lat="48.951889" lon="23.482298"></trkpt>
      <trkpt lat="48.951241" lon="23.483316"></trkpt>
      <trkpt lat="48.950537" lon="23.484723"></trkpt>
      <trkpt lat="48.949642" lon="23.486795"></trkpt>
      <trkpt lat="48.949263" lon="23.489298"></trkpt>
      <trkpt lat="48.948751" lon="23.491011"></trkpt>
      <trkpt lat="48.948336" lon="23.49199"></trkpt>
      <trkpt lat="48.947707" lon="23.492821"></trkpt>
      <trkpt lat="48.946097" lon="23.494326"></trkpt>
      <trkpt lat="48.945458" lon="23.494637"></trkpt>
      <trkpt lat="48.944817" lon="23.49467"></trkpt>
      <trkpt lat="48.944426" lon="23.49461"></trkpt>
      <trkpt lat="48.943727" lon="23.494273"></trkpt>
      <trkpt lat="48.943323" lon="23.493918"></trkpt>
      <trkpt lat="48.942187" lon="23.492446"></trkpt>
      <trkpt lat="48.941962" lon="23.4921"></trkpt>
      <trkpt lat="48.941809" lon="23.491428"></trkpt>
      <trkpt lat="48.941504" lon="23.490828"></trkpt>
      <trkpt lat="48.938246" lon="23.485253"></trkpt>
      <trkpt lat="48.937347" lon="23.484179"></trkpt>
      <trkpt lat="48.936133" lon="23.483218"></trkpt>
      <trkpt lat="48.933487" lon="23.481394"></trkpt>
      <trkpt lat="48.932752" lon="23.48106"></trkpt>
      <trkpt lat="48.930106" lon="23.480936"></trkpt>
      <trkpt lat="48.927586" lon="23.481495"></trkpt>
      <trkpt lat="48.927039" lon="23.481405"></trkpt>
      <trkpt lat="48.926165" lon="23.480834"></trkpt>
      <trkpt lat="48.925178" lon="23.479934"></trkpt>
      <trkpt lat="48.923776" lon="23.477787"></trkpt>
      <trkpt lat="48.922874" lon="23.476672"></trkpt>
      <trkpt lat="48.922062" lon="23.475876"></trkpt>
      <trkpt lat="48.921712" lon="23.475679"></trkpt>
      <trkpt lat="48.920405" lon="23.475404"></trkpt>
      <trkpt lat="48.917889" lon="23.475082"></trkpt>
      <trkpt lat="48.917043" lon="23.474653"></trkpt>
      <trkpt lat="48.916006" lon="23.47349"></trkpt>
      <trkpt lat="48.914893" lon="23.471801"></trkpt>
      <trkpt lat="48.914488" lon="23.471357"></trkpt>
      <trkpt lat="48.914523" lon="23.470903"></trkpt>
      <trkpt lat="48.915213" lon="23.469232"></trkpt>
      <trkpt lat="48.914131" lon="23.468169"></trkpt>
      <trkpt lat="48.913201" lon="23.467913"></trkpt>
      <trkpt lat="48.912819" lon="23.468071"></trkpt>
      <trkpt lat="48.912454" lon="23.467936"></trkpt>
      <trkpt lat="48.911884" lon="23.468"></trkpt>
      <trkpt lat="48.911439" lon="23.468219"></trkpt>
      <trkpt lat="48.910566" lon="23.469265"></trkpt>
      <trkpt lat="48.910016" lon="23.469568"></trkpt>
      <trkpt lat="48.909825" lon="23.470085"></trkpt>
      <trkpt lat="48.909675" lon="23.47021"></trkpt>
      <trkpt lat="48.909825" lon="23.470085"></trkpt>
      <trkpt lat="48.910016" lon="23.469568"></trkpt>
      <trkpt lat="48.910566" lon="23.469265"></trkpt>
      <trkpt lat="48.911439" lon="23.468219"></trkpt>
      <trkpt lat="48.911884" lon="23.468"></trkpt>
      <trkpt lat="48.912454" lon="23.467936"></trkpt>
      <trkpt lat="48.912819" lon="23.468071"></trkpt>
      <trkpt lat="48.913201" lon="23.467913"></trkpt>
      <trkpt lat="48.914131" lon="23.468169"></trkpt>
      <trkpt lat="48.915213" lon="23.469232"></trkpt>
      <trkpt lat="48.914523" lon="23.470903"></trkpt>
      <trkpt lat="48.914488" lon="23.471357"></trkpt>
      <trkpt lat="48.914893" lon="23.471801"></trkpt>
      <trkpt lat="48.916006" lon="23.47349"></trkpt>
      <trkpt lat="48.917043" lon="23.474653"></trkpt>
      <trkpt lat="48.917889" lon="23.475082"></trkpt>
      <trkpt lat="48.920405" lon="23.475404"></trkpt>
      <trkpt lat="48.921712" lon="23.475679"></trkpt>
      <trkpt lat="48.922062" lon="23.475876"></trkpt>
      <trkpt lat="48.922874" lon="23.476672"></trkpt>
      <trkpt lat="48.923776" lon="23.477787"></trkpt>
      <trkpt lat="48.925178" lon="23.479934"></trkpt>
      <trkpt lat="48.926165" lon="23.480834"></trkpt>
      <trkpt lat="48.927039" lon="23.481405"></trkpt>
      <trkpt lat="48.927586" lon="23.481495"></trkpt>
      <trkpt lat="48.930106" lon="23.480936"></trkpt>
      <trkpt lat="48.932752" lon="23.48106"></trkpt>
      <trkpt lat="48.933487" lon="23.481394"></trkpt>
      <trkpt lat="48.936133" lon="23.483218"></trkpt>
      <trkpt lat="48.937347" lon="23.484179"></trkpt>
      <trkpt lat="48.938246" lon="23.485253"></trkpt>
      <trkpt lat="48.941681" lon="23.491152"></trkpt>
      <trkpt lat="48.941962" lon="23.4921"></trkpt>
      <trkpt lat="48.943132" lon="23.493685"></trkpt>
      <trkpt lat="48.943988" lon="23.494435"></trkpt>
      <trkpt lat="48.944426" lon="23.49461"></trkpt>
      <trkpt lat="48.94514" lon="23.494673"></trkpt>
      <trkpt lat="48.945458" lon="23.494637"></trkpt>
      <trkpt lat="48.946097" lon="23.494326"></trkpt>
      <trkpt lat="48.947707" lon="23.492821"></trkpt>
      <trkpt lat="48.948336" lon="23.49199"></trkpt>
      <trkpt lat="48.948751" lon="23.491011"></trkpt>
      <trkpt lat="48.949263" lon="23.489298"></trkpt>
      <trkpt lat="48.949642" lon="23.486795"></trkpt>
      <trkpt lat="48.950537" lon="23.484723"></trkpt>
      <trkpt lat="48.951241" lon="23.483316"></trkpt>
      <trkpt lat="48.951889" lon="23.482298"></trkpt>
      <trkpt lat="48.953716" lon="23.480567"></trkpt>
      <trkpt lat="48.954413" lon="23.480436"></trkpt>
      <trkpt lat="48.956094" lon="23.480542"></trkpt>
      <trkpt lat="48.958523" lon="23.482294"></trkpt>
      <trkpt lat="48.959077" lon="23.482511"></trkpt>
      <trkpt lat="48.959926" lon="23.482615"></trkpt>
      <trkpt lat="48.960825" lon="23.482595"></trkpt>
      <trkpt lat="48.964006" lon="23.481735"></trkpt>
      <trkpt lat="48.964596" lon="23.481757"></trkpt>
      <trkpt lat="48.966385" lon="23.482191"></trkpt>
      <trkpt lat="48.967075" lon="23.48219"></trkpt>
      <trkpt lat="48.96755" lon="23.482048"></trkpt>
      <trkpt lat="48.969684" lon="23.480557"></trkpt>
      <trkpt lat="48.970269" lon="23.480015"></trkpt>
      <trkpt lat="48.970774" lon="23.479233"></trkpt>
      <trkpt lat="48.971724" lon="23.47677"></trkpt>
      <trkpt lat="48.971826" lon="23.476073"></trkpt>
      <trkpt lat="48.971707" lon="23.474952"></trkpt>
      <trkpt lat="48.971909" lon="23.474454"></trkpt>
      <trkpt lat="48.973541" lon="23.473439"></trkpt>
      <trkpt lat="48.975402" lon="23.472652"></trkpt>
      <trkpt lat="48.977002" lon="23.472506"></trkpt>
      <trkpt lat="48.979938" lon="23.471429"></trkpt>
      <trkpt lat="48.981575" lon="23.471675"></trkpt>
      <trkpt lat="48.982043" lon="23.471501"></trkpt>
      <trkpt lat="48.984342" lon="23.469525"></trkpt>
      <trkpt lat="48.985434" lon="23.468908"></trkpt>
      <trkpt lat="48.986819" lon="23.467155"></trkpt>
      <trkpt lat="48.986903" lon="23.466554"></trkpt>
      <trkpt lat="48.987041" lon="23.466337"></trkpt>
      <trkpt lat="48.988631" lon="23.465269"></trkpt>
      <trkpt lat="48.988866" lon="23.464856"></trkpt>
      <trkpt lat="48.989202" lon="23.46358"></trkpt>
      <trkpt lat="48.989417" lon="23.463242"></trkpt>
      <trkpt lat="48.990986" lon="23.461919"></trkpt>
      <trkpt lat="48.992158" lon="23.461095"></trkpt>
      <trkpt lat="48.992746" lon="23.461022"></trkpt>
      <trkpt lat="48.993461" lon="23.461156"></trkpt>
      <trkpt lat="48.994988" lon="23.462122"></trkpt>
      <trkpt lat="48.996053" lon="23.463433"></trkpt>
      <trkpt lat="48.998129" lon="23.465611"></trkpt>
      <trkpt lat="48.998757" lon="23.466051"></trkpt>
      <trkpt lat="49.000171" lon="23.46659"></trkpt>
      <trkpt lat="49.001552" lon="23.467042"></trkpt>
      <trkpt lat="49.00194" lon="23.466945"></trkpt>
      <trkpt lat="49.002297" lon="23.466513"></trkpt>
      <trkpt lat="49.002887" lon="23.465244"></trkpt>
      <trkpt lat="49.003094" lon="23.465097"></trkpt>
      <trkpt lat="49.004085" lon="23.467822"></trkpt>
      <trkpt lat="49.00433" lon="23.468203"></trkpt>
      <trkpt lat="49.004762" lon="23.46845"></trkpt>
      <trkpt lat="49.006813" lon="23.468895"></trkpt>
      <trkpt lat="49.007644" lon="23.469353"></trkpt>
      <trkpt lat="49.009198" lon="23.47244"></trkpt>
      <trkpt lat="49.009856" lon="23.473128"></trkpt>
      <trkpt lat="49.010596" lon="23.473483"></trkpt>
      <trkpt lat="49.016143" lon="23.475221"></trkpt>
      <trkpt lat="49.017586" lon="23.476194"></trkpt>
      <trkpt lat="49.018039" lon="23.476708"></trkpt>
      <trkpt lat="49.019262" lon="23.479274"></trkpt>
      <trkpt lat="49.025532" lon="23.497386"></trkpt>
      <trkpt lat="49.026193" lon="23.498508"></trkpt>
      <trkpt lat="49.028585" lon="23.501567"></trkpt>
      <trkpt lat="49.02901" lon="23.501822"></trkpt>
      <trkpt lat="49.029366" lon="23.501889"></trkpt>
      <trkpt lat="49.034737" lon="23.501713"></trkpt>
      <trkpt lat="49.036048" lon="23.501713"></trkpt>
      <trkpt lat="49.037146" lon="23.501862"></trkpt>
      <trkpt lat="49.039129" lon="23.502654"></trkpt>
      <trkpt lat="49.039751" lon="23.503134"></trkpt>
      <trkpt lat="49.0405" lon="23.504018"></trkpt>
      <trkpt lat="49.041504" lon="23.506189"></trkpt>
      <trkpt lat="49.043691" lon="23.512015"></trkpt>
      <trkpt lat="49.043957" lon="23.512543"></trkpt>
      <trkpt lat="49.04529" lon="23.514329"></trkpt>
      <trkpt lat="49.045858" lon="23.515767"></trkpt>
      <trkpt lat="49.047303" lon="23.521477"></trkpt>
      <trkpt lat="49.047496" lon="23.521268"></trkpt>
      <trkpt lat="49.04732" lon="23.520926"></trkpt>
      <trkpt lat="49.047235" lon="23.520944"></trkpt>
      <trkpt lat="49.046551" lon="23.521794"></trkpt>
      <trkpt lat="49.046124" lon="23.521993"></trkpt>
      <trkpt lat="49.046898" lon="23.52261"></trkpt>
      <trkpt lat="49.047764" lon="23.523025"></trkpt>
      <trkpt lat="49.048037" lon="23.523276"></trkpt>
      <trkpt lat="49.049013" lon="23.525445"></trkpt>
      <trkpt lat="49.051457" lon="23.528684"></trkpt>
      <trkpt lat="49.052171" lon="23.530396"></trkpt>
      <trkpt lat="49.05307" lon="23.5335"></trkpt>
      <trkpt lat="49.055941" lon="23.539626"></trkpt>
      <trkpt lat="49.058718" lon="23.544984"></trkpt>
      <trkpt lat="49.058439" lon="23.545009"></trkpt>
      <trkpt lat="49.057718" lon="23.544663"></trkpt>
      <trkpt lat="49.057253" lon="23.544976"></trkpt>
      <trkpt lat="49.056555" lon="23.544849"></trkpt>
      <trkpt lat="49.055732" lon="23.544159"></trkpt>
      <trkpt lat="49.055454" lon="23.543773"></trkpt>
      <trkpt lat="49.055149" lon="23.541856"></trkpt>
      <trkpt lat="49.054668" lon="23.540628"></trkpt>
      <trkpt lat="49.054424" lon="23.540329"></trkpt>
      <trkpt lat="49.054144" lon="23.540228"></trkpt>
      <trkpt lat="49.052366" lon="23.540406"></trkpt>
      <trkpt lat="49.051571" lon="23.540605"></trkpt>
      <trkpt lat="49.050167" lon="23.541684"></trkpt>
      <trkpt lat="49.048125" lon="23.542791"></trkpt>
      <trkpt lat="49.047478" lon="23.543921"></trkpt>
      <trkpt lat="49.046793" lon="23.54455"></trkpt>
      <trkpt lat="49.046229" lon="23.544701"></trkpt>
      <trkpt lat="49.045653" lon="23.544617"></trkpt>
      <trkpt lat="49.044963" lon="23.54472"></trkpt>
      <trkpt lat="49.044337" lon="23.545028"></trkpt>
      <trkpt lat="49.041732" lon="23.547163"></trkpt>
      <trkpt lat="49.039896" lon="23.547819"></trkpt>
      <trkpt lat="49.039253" lon="23.549252"></trkpt>
      <trkpt lat="49.037292" lon="23.551422"></trkpt>
      <trkpt lat="49.036211" lon="23.553624"></trkpt>
      <trkpt lat="49.035887" lon="23.554837"></trkpt>
      <trkpt lat="49.035966" lon="23.556317"></trkpt>
      <trkpt lat="49.035219" lon="23.559571"></trkpt>
      <trkpt lat="49.035185" lon="23.560993"></trkpt>
      <trkpt lat="49.035047" lon="23.561231"></trkpt>
      <trkpt lat="49.034483" lon="23.561555"></trkpt>
      <trkpt lat="49.033734" lon="23.563137"></trkpt>
      <trkpt lat="49.033778" lon="23.563784"></trkpt>
  </trkseg></trk>
</gpx>
