<?xml version="1.0" encoding="UTF-8"?>
<gpx version="1.1" creator="yatutbuv" xmlns="http://www.topografix.com/GPX/1/1">
  <trk><name>GraphHopper Track</name><trkseg>
      <trkpt lat="51.099239" lon="17.035255"></trkpt>
      <trkpt lat="51.099382" lon="17.035632"></trkpt>
      <trkpt lat="51.099082" lon="17.037988"></trkpt>
      <trkpt lat="51.098989" lon="17.038126"></trkpt>
      <trkpt lat="51.098637" lon="17.038046"></trkpt>
      <trkpt lat="51.098544" lon="17.038269"></trkpt>
      <trkpt lat="51.098645" lon="17.038427"></trkpt>
      <trkpt lat="51.099303" lon="17.038744"></trkpt>
      <trkpt lat="51.098381" lon="17.042571"></trkpt>
      <trkpt lat="51.098" lon="17.043328"></trkpt>
      <trkpt lat="51.096252" lon="17.041369"></trkpt>
      <trkpt lat="51.095773" lon="17.040348"></trkpt>
      <trkpt lat="51.095639" lon="17.039115"></trkpt>
      <trkpt lat="51.095726" lon="17.035989"></trkpt>
      <trkpt lat="51.09478" lon="17.031191"></trkpt>
      <trkpt lat="51.094631" lon="17.030838"></trkpt>
      <trkpt lat="51.087826" lon="17.027541"></trkpt>
      <trkpt lat="51.084049" lon="17.024925"></trkpt>
      <trkpt lat="51.073541" lon="17.015135"></trkpt>
      <trkpt lat="51.073034" lon="17.014317"></trkpt>
      <trkpt lat="51.072281" lon="17.011692"></trkpt>
      <trkpt lat="51.070781" lon="17.010828"></trkpt>
      <trkpt lat="51.065701" lon="17.006908"></trkpt>
      <trkpt lat="51.063751" lon="17.002488"></trkpt>
      <trkpt lat="51.063599" lon="17.001274"></trkpt>
      <trkpt lat="51.063024" lon="17.000252"></trkpt>
      <trkpt lat="51.061212" lon="16.996002"></trkpt>
      <trkpt lat="51.060645" lon="16.994236"></trkpt>
      <trkpt lat="51.059369" lon="16.989096"></trkpt>
      <trkpt lat="51.058926" lon="16.987977"></trkpt>
      <trkpt lat="51.05166" lon="16.975278"></trkpt>
      <trkpt lat="51.050638" lon="16.973899"></trkpt>
      <trkpt lat="51.050502" lon="16.973561"></trkpt>
      <trkpt lat="51.050477" lon="16.973042"></trkpt>
      <trkpt lat="51.050904" lon="16.970463"></trkpt>
      <trkpt lat="51.050805" lon="16.970122"></trkpt>
      <trkpt lat="51.050288" lon="16.969461"></trkpt>
      <trkpt lat="51.050153" lon="16.968693"></trkpt>
      <trkpt lat="51.050427" lon="16.96542"></trkpt>
      <trkpt lat="51.050457" lon="16.96195"></trkpt>
      <trkpt lat="51.050205" lon="16.958352"></trkpt>
      <trkpt lat="51.04985" lon="16.955821"></trkpt>
      <trkpt lat="51.049172" lon="16.952605"></trkpt>
      <trkpt lat="51.04084" lon="16.917265"></trkpt>
      <trkpt lat="51.039689" lon="16.910604"></trkpt>
      <trkpt lat="51.039094" lon="16.905329"></trkpt>
      <trkpt lat="51.035485" lon="16.866709"></trkpt>
      <trkpt lat="51.03512" lon="16.86151"></trkpt>
      <trkpt lat="51.034986" lon="16.855892"></trkpt>
      <trkpt lat="51.035096" lon="16.812381"></trkpt>
      <trkpt lat="51.034991" lon="16.809684"></trkpt>
      <trkpt lat="51.034618" lon="16.806277"></trkpt>
      <trkpt lat="51.033739" lon="16.801941"></trkpt>
      <trkpt lat="51.032948" lon="16.799289"></trkpt>
      <trkpt lat="51.032187" lon="16.797253"></trkpt>
      <trkpt lat="51.030558" lon="16.79387"></trkpt>
      <trkpt lat="51.026433" lon="16.786857"></trkpt>
      <trkpt lat="51.025532" lon="16.785004"></trkpt>
      <trkpt lat="51.02455" lon="16.782506"></trkpt>
      <trkpt lat="51.023344" lon="16.778266"></trkpt>
      <trkpt lat="51.02278" lon="16.775238"></trkpt>
      <trkpt lat="51.02245" lon="16.772563"></trkpt>
      <trkpt lat="51.020129" lon="16.746028"></trkpt>
      <trkpt lat="51.019778" lon="16.740372"></trkpt>
      <trkpt lat="51.019391" lon="16.698881"></trkpt>
      <trkpt lat="51.019522" lon="16.694035"></trkpt>
      <trkpt lat="51.019897" lon="16.690789"></trkpt>
      <trkpt lat="51.020691" lon="16.686936"></trkpt>
      <trkpt lat="51.027375" lon="16.663226"></trkpt>
      <trkpt lat="51.028389" lon="16.658991"></trkpt>
      <trkpt lat="51.034812" lon="16.624258"></trkpt>
      <trkpt lat="51.045769" lon="16.584524"></trkpt>
      <trkpt lat="51.047067" lon="16.578538"></trkpt>
      <trkpt lat="51.051177" lon="16.557099"></trkpt>
      <trkpt lat="51.062584" lon="16.511285"></trkpt>
      <trkpt lat="51.063186" lon="16.507707"></trkpt>
      <trkpt lat="51.066543" lon="16.480709"></trkpt>
      <trkpt lat="51.067314" lon="16.476464"></trkpt>
      <trkpt lat="51.068337" lon="16.47294"></trkpt>
      <trkpt lat="51.074366" lon="16.456056"></trkpt>
      <trkpt lat="51.083348" lon="16.424888"></trkpt>
      <trkpt lat="51.085056" lon="16.420771"></trkpt>
      <trkpt lat="51.086428" lon="16.418349"></trkpt>
      <trkpt lat="51.090875" lon="16.412203"></trkpt>
      <trkpt lat="51.092194" lon="16.410595"></trkpt>
      <trkpt lat="51.093937" lon="16.408935"></trkpt>
      <trkpt lat="51.095351" lon="16.407876"></trkpt>
      <trkpt lat="51.100331" lon="16.405019"></trkpt>
      <trkpt lat="51.101601" lon="16.404167"></trkpt>
      <trkpt lat="51.102826" lon="16.403166"></trkpt>
      <trkpt lat="51.107844" lon="16.398127"></trkpt>
      <trkpt lat="51.109746" lon="16.395516"></trkpt>
      <trkpt lat="51.111336" lon="16.392638"></trkpt>
      <trkpt lat="51.123342" lon="16.368153"></trkpt>
      <trkpt lat="51.124173" lon="16.365944"></trkpt>
      <trkpt lat="51.124858" lon="16.36368"></trkpt>
      <trkpt lat="51.126676" lon="16.356437"></trkpt>
      <trkpt lat="51.127249" lon="16.353716"></trkpt>
      <trkpt lat="51.127762" lon="16.349674"></trkpt>
      <trkpt lat="51.129531" lon="16.31524"></trkpt>
      <trkpt lat="51.129756" lon="16.312578"></trkpt>
      <trkpt lat="51.130268" lon="16.309263"></trkpt>
      <trkpt lat="51.130904" lon="16.30654"></trkpt>
      <trkpt lat="51.131876" lon="16.303475"></trkpt>
      <trkpt lat="51.145947" lon="16.268041"></trkpt>
      <trkpt lat="51.147173" lon="16.264681"></trkpt>
      <trkpt lat="51.147856" lon="16.262264"></trkpt>
      <trkpt lat="51.14859" lon="16.258592"></trkpt>
      <trkpt lat="51.15973" lon="16.192"></trkpt>
      <trkpt lat="51.160246" lon="16.188321"></trkpt>
      <trkpt lat="51.160425" lon="16.185816"></trkpt>
      <trkpt lat="51.162006" lon="16.133631"></trkpt>
      <trkpt lat="51.162241" lon="16.130126"></trkpt>
      <trkpt lat="51.162765" lon="16.126665"></trkpt>
      <trkpt lat="51.168494" lon="16.09563"></trkpt>
      <trkpt lat="51.169294" lon="16.092454"></trkpt>
      <trkpt lat="51.169597" lon="16.091788"></trkpt>
      <trkpt lat="51.169915" lon="16.091472"></trkpt>
      <trkpt lat="51.170454" lon="16.091263"></trkpt>
      <trkpt lat="51.17178" lon="16.091647"></trkpt>
      <trkpt lat="51.173011" lon="16.092372"></trkpt>
      <trkpt lat="51.173458" lon="16.092786"></trkpt>
      <trkpt lat="51.173776" lon="16.093266"></trkpt>
      <trkpt lat="51.174096" lon="16.094364"></trkpt>
      <trkpt lat="51.174031" lon="16.09568"></trkpt>
      <trkpt lat="51.173805" lon="16.09635"></trkpt>
      <trkpt lat="51.173463" lon="16.096885"></trkpt>
      <trkpt lat="51.173147" lon="16.097166"></trkpt>
      <trkpt lat="51.172681" lon="16.09735"></trkpt>
      <trkpt lat="51.172368" lon="16.097339"></trkpt>
      <trkpt lat="51.172107" lon="16.097144"></trkpt>
      <trkpt lat="51.171877" lon="16.096555"></trkpt>
      <trkpt lat="51.171941" lon="16.095857"></trkpt>
      <trkpt lat="51.172485" lon="16.095059"></trkpt>
      <trkpt lat="51.17927" lon="16.088636"></trkpt>
      <trkpt lat="51.180506" lon="16.087796"></trkpt>
      <trkpt lat="51.182206" lon="16.087064"></trkpt>
      <trkpt lat="51.18289" lon="16.086897"></trkpt>
      <trkpt lat="51.184171" lon="16.086791"></trkpt>
      <trkpt lat="51.185186" lon="16.086881"></trkpt>
      <trkpt lat="51.186287" lon="16.087162"></trkpt>
      <trkpt lat="51.187481" lon="16.087683"></trkpt>
      <trkpt lat="51.188423" lon="16.088262"></trkpt>
      <trkpt lat="51.189487" lon="16.089136"></trkpt>
      <trkpt lat="51.190587" lon="16.090332"></trkpt>
      <trkpt lat="51.191986" lon="16.092397"></trkpt>
      <trkpt lat="51.192681" lon="16.093784"></trkpt>
      <trkpt lat="51.193268" lon="16.095216"></trkpt>
      <trkpt lat="51.197711" lon="16.108451"></trkpt>
      <trkpt lat="51.198981" lon="16.111178"></trkpt>
      <trkpt lat="51.200066" lon="16.112958"></trkpt>
      <trkpt lat="51.201698" lon="16.11502"></trkpt>
      <trkpt lat="51.222564" lon="16.137017"></trkpt>
      <trkpt lat="51.224393" lon="16.138727"></trkpt>
      <trkpt lat="51.225416" lon="16.1395"></trkpt>
      <trkpt lat="51.227209" lon="16.140567"></trkpt>
      <trkpt lat="51.229473" lon="16.14143"></trkpt>
      <trkpt lat="51.237613" lon="16.143449"></trkpt>
      <trkpt lat="51.239351" lon="16.144021"></trkpt>
      <trkpt lat="51.241491" lon="16.145178"></trkpt>
      <trkpt lat="51.246402" lon="16.148763"></trkpt>
      <trkpt lat="51.247177" lon="16.149163"></trkpt>
      <trkpt lat="51.248183" lon="16.149503"></trkpt>
      <trkpt lat="51.24936" lon="16.149676"></trkpt>
      <trkpt lat="51.250134" lon="16.149654"></trkpt>
      <trkpt lat="51.255053" lon="16.148989"></trkpt>
      <trkpt lat="51.25727" lon="16.149141"></trkpt>
      <trkpt lat="51.259491" lon="16.149868"></trkpt>
      <trkpt lat="51.262905" lon="16.152008"></trkpt>
      <trkpt lat="51.264173" lon="16.152649"></trkpt>
      <trkpt lat="51.265226" lon="16.153018"></trkpt>
      <trkpt lat="51.267126" lon="16.153314"></trkpt>
      <trkpt lat="51.268829" lon="16.153237"></trkpt>
      <trkpt lat="51.27007" lon="16.152966"></trkpt>
      <trkpt lat="51.276527" lon="16.150654"></trkpt>
      <trkpt lat="51.277929" lon="16.15029"></trkpt>
      <trkpt lat="51.280329" lon="16.15007"></trkpt>
      <trkpt lat="51.282884" lon="16.150399"></trkpt>
      <trkpt lat="51.284761" lon="16.151025"></trkpt>
      <trkpt lat="51.286353" lon="16.151822"></trkpt>
      <trkpt lat="51.292818" lon="16.156104"></trkpt>
      <trkpt lat="51.294698" lon="16.156977"></trkpt>
      <trkpt lat="51.29552" lon="16.157242"></trkpt>
      <trkpt lat="51.297" lon="16.157584"></trkpt>
      <trkpt lat="51.298401" lon="16.157738"></trkpt>
      <trkpt lat="51.303538" lon="16.157795"></trkpt>
      <trkpt lat="51.30605" lon="16.158034"></trkpt>
      <trkpt lat="51.308058" lon="16.158447"></trkpt>
      <trkpt lat="51.311588" lon="16.159507"></trkpt>
      <trkpt lat="51.313831" lon="16.160028"></trkpt>
      <trkpt lat="51.323496" lon="16.16167"></trkpt>
      <trkpt lat="51.326311" lon="16.16225"></trkpt>
      <trkpt lat="51.32948" lon="16.163056"></trkpt>
      <trkpt lat="51.333733" lon="16.164443"></trkpt>
      <trkpt lat="51.345171" lon="16.168556"></trkpt>
      <trkpt lat="51.345795" lon="16.168864"></trkpt>
      <trkpt lat="51.347193" lon="16.169801"></trkpt>
      <trkpt lat="51.351625" lon="16.174347"></trkpt>
      <trkpt lat="51.353171" lon="16.175568"></trkpt>
      <trkpt lat="51.354995" lon="16.17644"></trkpt>
      <trkpt lat="51.35719" lon="16.176866"></trkpt>
      <trkpt lat="51.358843" lon="16.176645"></trkpt>
      <trkpt lat="51.359923" lon="16.176287"></trkpt>
      <trkpt lat="51.364839" lon="16.173716"></trkpt>
      <trkpt lat="51.366572" lon="16.173043"></trkpt>
      <trkpt lat="51.36843" lon="16.172899"></trkpt>
      <trkpt lat="51.37225" lon="16.173653"></trkpt>
      <trkpt lat="51.374619" lon="16.173902"></trkpt>
      <trkpt lat="51.376489" lon="16.173666"></trkpt>
      <trkpt lat="51.377426" lon="16.173401"></trkpt>
      <trkpt lat="51.378781" lon="16.172805"></trkpt>
      <trkpt lat="51.380224" lon="16.171913"></trkpt>
      <trkpt lat="51.382521" lon="16.169849"></trkpt>
      <trkpt lat="51.396704" lon="16.155148"></trkpt>
      <trkpt lat="51.398347" lon="16.153795"></trkpt>
      <trkpt lat="51.399182" lon="16.15328"></trkpt>
      <trkpt lat="51.400103" lon="16.152852"></trkpt>
      <trkpt lat="51.401103" lon="16.152548"></trkpt>
      <trkpt lat="51.402605" lon="16.152373"></trkpt>
      <trkpt lat="51.403989" lon="16.152515"></trkpt>
      <trkpt lat="51.405152" lon="16.152857"></trkpt>
      <trkpt lat="51.40645" lon="16.153512"></trkpt>
      <trkpt lat="51.407571" lon="16.154315"></trkpt>
      <trkpt lat="51.408812" lon="16.155444"></trkpt>
      <trkpt lat="51.412087" lon="16.158897"></trkpt>
      <trkpt lat="51.41301" lon="16.159739"></trkpt>
      <trkpt lat="51.414014" lon="16.160517"></trkpt>
      <trkpt lat="51.415388" lon="16.16126"></trkpt>
      <trkpt lat="51.416731" lon="16.161629"></trkpt>
      <trkpt lat="51.418491" lon="16.161622"></trkpt>
      <trkpt lat="51.419932" lon="16.161204"></trkpt>
      <trkpt lat="51.421225" lon="16.160477"></trkpt>
      <trkpt lat="51.422274" lon="16.159614"></trkpt>
      <trkpt lat="51.423307" lon="16.158454"></trkpt>
      <trkpt lat="51.42467" lon="16.156445"></trkpt>
      <trkpt lat="51.427802" lon="16.151131"></trkpt>
      <trkpt lat="51.428707" lon="16.149908"></trkpt>
      <trkpt lat="51.429611" lon="16.148976"></trkpt>
      <trkpt lat="51.430906" lon="16.14802"></trkpt>
      <trkpt lat="51.431987" lon="16.147506"></trkpt>
      <trkpt lat="51.433363" lon="16.147168"></trkpt>
      <trkpt lat="51.43659" lon="16.146791"></trkpt>
      <trkpt lat="51.437893" lon="16.146529"></trkpt>
      <trkpt lat="51.439017" lon="16.146072"></trkpt>
      <trkpt lat="51.440651" lon="16.145013"></trkpt>
      <trkpt lat="51.441692" lon="16.14394"></trkpt>
      <trkpt lat="51.444919" lon="16.139081"></trkpt>
      <trkpt lat="51.446761" lon="16.136783"></trkpt>
      <trkpt lat="51.44816" lon="16.135308"></trkpt>
      <trkpt lat="51.450774" lon="16.132891"></trkpt>
      <trkpt lat="51.45267" lon="16.130754"></trkpt>
      <trkpt lat="51.454044" lon="16.128839"></trkpt>
      <trkpt lat="51.464529" lon="16.112732"></trkpt>
      <trkpt lat="51.466239" lon="16.109783"></trkpt>
      <trkpt lat="51.469852" lon="16.102199"></trkpt>
      <trkpt lat="51.471144" lon="16.099975"></trkpt>
      <trkpt lat="51.472533" lon="16.098143"></trkpt>
      <trkpt lat="51.474479" lon="16.096299"></trkpt>
      <trkpt lat="51.476386" lon="16.09508"></trkpt>
      <trkpt lat="51.478091" lon="16.09444"></trkpt>
      <trkpt lat="51.480175" lon="16.094184"></trkpt>
      <trkpt lat="51.481397" lon="16.094267"></trkpt>
      <trkpt lat="51.483166" lon="16.094683"></trkpt>
      <trkpt lat="51.484397" lon="16.095211"></trkpt>
      <trkpt lat="51.488535" lon="16.097884"></trkpt>
      <trkpt lat="51.490154" lon="16.098737"></trkpt>
      <trkpt lat="51.491048" lon="16.099078"></trkpt>
      <trkpt lat="51.493198" lon="16.099587"></trkpt>
      <trkpt lat="51.494668" lon="16.099659"></trkpt>
      <trkpt lat="51.496091" lon="16.099547"></trkpt>
      <trkpt lat="51.498222" lon="16.098987"></trkpt>
      <trkpt lat="51.507646" lon="16.095544"></trkpt>
      <trkpt lat="51.509271" lon="16.094735"></trkpt>
      <trkpt lat="51.51127" lon="16.09352"></trkpt>
      <trkpt lat="51.514291" lon="16.091177"></trkpt>
      <trkpt lat="51.516275" lon="16.089236"></trkpt>
      <trkpt lat="51.518648" lon="16.086468"></trkpt>
      <trkpt lat="51.521" lon="16.083112"></trkpt>
      <trkpt lat="51.523148" lon="16.079296"></trkpt>
      <trkpt lat="51.52513" lon="16.074972"></trkpt>
      <trkpt lat="51.526069" lon="16.072514"></trkpt>
      <trkpt lat="51.528584" lon="16.064298"></trkpt>
      <trkpt lat="51.52988" lon="16.060638"></trkpt>
      <trkpt lat="51.531424" lon="16.057388"></trkpt>
      <trkpt lat="51.532669" lon="16.055367"></trkpt>
      <trkpt lat="51.533916" lon="16.053668"></trkpt>
      <trkpt lat="51.535912" lon="16.051537"></trkpt>
      <trkpt lat="51.537915" lon="16.049888"></trkpt>
      <trkpt lat="51.558742" lon="16.034356"></trkpt>
      <trkpt lat="51.559762" lon="16.033388"></trkpt>
      <trkpt lat="51.561092" lon="16.031723"></trkpt>
      <trkpt lat="51.562304" lon="16.029632"></trkpt>
      <trkpt lat="51.563152" lon="16.027615"></trkpt>
      <trkpt lat="51.564953" lon="16.021067"></trkpt>
      <trkpt lat="51.565931" lon="16.018304"></trkpt>
      <trkpt lat="51.566739" lon="16.016439"></trkpt>
      <trkpt lat="51.573361" lon="16.002708"></trkpt>
      <trkpt lat="51.575229" lon="15.997761"></trkpt>
      <trkpt lat="51.577449" lon="15.990557"></trkpt>
      <trkpt lat="51.578455" lon="15.988329"></trkpt>
      <trkpt lat="51.578997" lon="15.987408"></trkpt>
      <trkpt lat="51.579705" lon="15.986376"></trkpt>
      <trkpt lat="51.580739" lon="15.985157"></trkpt>
      <trkpt lat="51.581991" lon="15.984038"></trkpt>
      <trkpt lat="51.583156" lon="15.983287"></trkpt>
      <trkpt lat="51.584909" lon="15.98261"></trkpt>
      <trkpt lat="51.588656" lon="15.982103"></trkpt>
      <trkpt lat="51.590063" lon="15.981739"></trkpt>
      <trkpt lat="51.591864" lon="15.98079"></trkpt>
      <trkpt lat="51.593622" lon="15.979271"></trkpt>
      <trkpt lat="51.595423" lon="15.976773"></trkpt>
      <trkpt lat="51.596749" lon="15.974116"></trkpt>
      <trkpt lat="51.602512" lon="15.957093"></trkpt>
      <trkpt lat="51.603354" lon="15.955098"></trkpt>
      <trkpt lat="51.605061" lon="15.952229"></trkpt>
      <trkpt lat="51.607097" lon="15.949954"></trkpt>
      <trkpt lat="51.60836" lon="15.948951"></trkpt>
      <trkpt lat="51.610132" lon="15.948002"></trkpt>
      <trkpt lat="51.613703" lon="15.946724"></trkpt>
      <trkpt lat="51.614546" lon="15.946315"></trkpt>
      <trkpt lat="51.615671" lon="15.945653"></trkpt>
      <trkpt lat="51.617179" lon="15.944481"></trkpt>
      <trkpt lat="51.618903" lon="15.9427"></trkpt>
      <trkpt lat="51.619984" lon="15.941289"></trkpt>
      <trkpt lat="51.621121" lon="15.939494"></trkpt>
      <trkpt lat="51.622198" lon="15.937397"></trkpt>
      <trkpt lat="51.623299" lon="15.934544"></trkpt>
      <trkpt lat="51.624051" lon="15.931984"></trkpt>
      <trkpt lat="51.624612" lon="15.92925"></trkpt>
      <trkpt lat="51.626237" lon="15.918616"></trkpt>
      <trkpt lat="51.627084" lon="15.91502"></trkpt>
      <trkpt lat="51.627917" lon="15.912502"></trkpt>
      <trkpt lat="51.629637" lon="15.908774"></trkpt>
      <trkpt lat="51.634009" lon="15.901133"></trkpt>
      <trkpt lat="51.635587" lon="15.897941"></trkpt>
      <trkpt lat="51.636982" lon="15.894465"></trkpt>
      <trkpt lat="51.638106" lon="15.891047"></trkpt>
      <trkpt lat="51.63969" lon="15.885595"></trkpt>
      <trkpt lat="51.640438" lon="15.883498"></trkpt>
      <trkpt lat="51.642123" lon="15.87962"></trkpt>
      <trkpt lat="51.643229" lon="15.87739"></trkpt>
      <trkpt lat="51.64546" lon="15.87347"></trkpt>
      <trkpt lat="51.646635" lon="15.870693"></trkpt>
      <trkpt lat="51.647477" lon="15.867931"></trkpt>
      <trkpt lat="51.648056" lon="15.865024"></trkpt>
      <trkpt lat="51.649005" lon="15.856366"></trkpt>
      <trkpt lat="51.649594" lon="15.852629"></trkpt>
      <trkpt lat="51.650201" lon="15.849655"></trkpt>
      <trkpt lat="51.651395" lon="15.845429"></trkpt>
      <trkpt lat="51.652885" lon="15.841306"></trkpt>
      <trkpt lat="51.656973" lon="15.832711"></trkpt>
      <trkpt lat="51.658578" lon="15.828995"></trkpt>
      <trkpt lat="51.6601" lon="15.82508"></trkpt>
      <trkpt lat="51.662286" lon="15.818579"></trkpt>
      <trkpt lat="51.665582" lon="15.806993"></trkpt>
      <trkpt lat="51.667406" lon="15.801676"></trkpt>
      <trkpt lat="51.669613" lon="15.796265"></trkpt>
      <trkpt lat="51.675118" lon="15.78412"></trkpt>
      <trkpt lat="51.676219" lon="15.781432"></trkpt>
      <trkpt lat="51.677702" lon="15.776995"></trkpt>
      <trkpt lat="51.679881" lon="15.768332"></trkpt>
      <trkpt lat="51.680611" lon="15.765959"></trkpt>
      <trkpt lat="51.681343" lon="15.764122"></trkpt>
      <trkpt lat="51.682391" lon="15.761996"></trkpt>
      <trkpt lat="51.683446" lon="15.760286"></trkpt>
      <trkpt lat="51.684442" lon="15.758942"></trkpt>
      <trkpt lat="51.685764" lon="15.7575"></trkpt>
      <trkpt lat="51.686998" lon="15.756426"></trkpt>
      <trkpt lat="51.68848" lon="15.755442"></trkpt>
      <trkpt lat="51.690431" lon="15.754582"></trkpt>
      <trkpt lat="51.691603" lon="15.754278"></trkpt>
      <trkpt lat="51.692815" lon="15.754128"></trkpt>
      <trkpt lat="51.697155" lon="15.754205"></trkpt>
      <trkpt lat="51.699854" lon="15.754002"></trkpt>
      <trkpt lat="51.70302" lon="15.753212"></trkpt>
      <trkpt lat="51.705611" lon="15.752079"></trkpt>
      <trkpt lat="51.708321" lon="15.750405"></trkpt>
      <trkpt lat="51.718016" lon="15.742981"></trkpt>
      <trkpt lat="51.720465" lon="15.740889"></trkpt>
      <trkpt lat="51.723319" lon="15.73793"></trkpt>
      <trkpt lat="51.725747" lon="15.734862"></trkpt>
      <trkpt lat="51.757478" lon="15.689015"></trkpt>
      <trkpt lat="51.759977" lon="15.685539"></trkpt>
      <trkpt lat="51.761927" lon="15.68318"></trkpt>
      <trkpt lat="51.76435" lon="15.680764"></trkpt>
      <trkpt lat="51.766633" lon="15.678895"></trkpt>
      <trkpt lat="51.769749" lon="15.67692"></trkpt>
      <trkpt lat="51.771676" lon="15.675993"></trkpt>
      <trkpt lat="51.77402" lon="15.675149"></trkpt>
      <trkpt lat="51.776295" lon="15.674612"></trkpt>
      <trkpt lat="51.779178" lon="15.67432"></trkpt>
      <trkpt lat="51.781747" lon="15.67441"></trkpt>
      <trkpt lat="51.783267" lon="15.674619"></trkpt>
      <trkpt lat="51.795358" lon="15.676775"></trkpt>
      <trkpt lat="51.797385" lon="15.67702"></trkpt>
      <trkpt lat="51.799135" lon="15.677099"></trkpt>
      <trkpt lat="51.80304" lon="15.67699"></trkpt>
      <trkpt lat="51.820669" lon="15.675047"></trkpt>
      <trkpt lat="51.822374" lon="15.674942"></trkpt>
      <trkpt lat="51.825182" lon="15.675048"></trkpt>
      <trkpt lat="51.83075" lon="15.675848"></trkpt>
      <trkpt lat="51.833299" lon="15.676106"></trkpt>
      <trkpt lat="51.835609" lon="15.676061"></trkpt>
      <trkpt lat="51.837168" lon="15.675843"></trkpt>
      <trkpt lat="51.838479" lon="15.675543"></trkpt>
      <trkpt lat="51.840465" lon="15.674888"></trkpt>
      <trkpt lat="51.843232" lon="15.673591"></trkpt>
      <trkpt lat="51.868267" lon="15.659998"></trkpt>
      <trkpt lat="51.870161" lon="15.658867"></trkpt>
      <trkpt lat="51.871945" lon="15.657493"></trkpt>
      <trkpt lat="51.873731" lon="15.655763"></trkpt>
      <trkpt lat="51.875528" lon="15.653589"></trkpt>
      <trkpt lat="51.87741" lon="15.650677"></trkpt>
      <trkpt lat="51.878576" lon="15.648435"></trkpt>
      <trkpt lat="51.880282" lon="15.644439"></trkpt>
      <trkpt lat="51.898728" lon="15.598249"></trkpt>
      <trkpt lat="51.899927" lon="15.595505"></trkpt>
      <trkpt lat="51.900994" lon="15.59355"></trkpt>
      <trkpt lat="51.902143" lon="15.591814"></trkpt>
      <trkpt lat="51.904022" lon="15.589482"></trkpt>
      <trkpt lat="51.905645" lon="15.5878"></trkpt>
      <trkpt lat="51.910193" lon="15.5836"></trkpt>
      <trkpt lat="51.911784" lon="15.581804"></trkpt>
      <trkpt lat="51.913047" lon="15.580163"></trkpt>
      <trkpt lat="51.92787" lon="15.557066"></trkpt>
      <trkpt lat="51.930081" lon="15.553969"></trkpt>
      <trkpt lat="51.931407" lon="15.55248"></trkpt>
      <trkpt lat="51.933286" lon="15.55081"></trkpt>
      <trkpt lat="51.934786" lon="15.549789"></trkpt>
      <trkpt lat="51.936673" lon="15.548858"></trkpt>
      <trkpt lat="51.937789" lon="15.548465"></trkpt>
      <trkpt lat="51.939238" lon="15.548134"></trkpt>
      <trkpt lat="51.941584" lon="15.547969"></trkpt>
      <trkpt lat="51.942576" lon="15.548038"></trkpt>
      <trkpt lat="51.943992" lon="15.548335"></trkpt>
      <trkpt lat="51.945936" lon="15.549062"></trkpt>
      <trkpt lat="51.94722" lon="15.549769"></trkpt>
      <trkpt lat="51.949023" lon="15.551023"></trkpt>
      <trkpt lat="51.963481" lon="15.562094"></trkpt>
      <trkpt lat="51.965113" lon="15.563224"></trkpt>
      <trkpt lat="51.967082" lon="15.564348"></trkpt>
      <trkpt lat="51.968936" lon="15.565167"></trkpt>
      <trkpt lat="51.970872" lon="15.565776"></trkpt>
      <trkpt lat="51.972155" lon="15.566054"></trkpt>
      <trkpt lat="51.980089" lon="15.567256"></trkpt>
      <trkpt lat="51.981893" lon="15.567726"></trkpt>
      <trkpt lat="51.983577" lon="15.568353"></trkpt>
      <trkpt lat="51.986139" lon="15.56964"></trkpt>
      <trkpt lat="51.993548" lon="15.574019"></trkpt>
      <trkpt lat="51.99522" lon="15.575117"></trkpt>
      <trkpt lat="51.996104" lon="15.575857"></trkpt>
      <trkpt lat="51.997452" lon="15.577299"></trkpt>
      <trkpt lat="51.998653" lon="15.578983"></trkpt>
      <trkpt lat="51.999617" lon="15.580711"></trkpt>
      <trkpt lat="52.000631" lon="15.583092"></trkpt>
      <trkpt lat="52.010711" lon="15.616737"></trkpt>
      <trkpt lat="52.011795" lon="15.619815"></trkpt>
      <trkpt lat="52.012765" lon="15.621935"></trkpt>
      <trkpt lat="52.013818" lon="15.623754"></trkpt>
      <trkpt lat="52.014771" lon="15.625098"></trkpt>
      <trkpt lat="52.016025" lon="15.626517"></trkpt>
      <trkpt lat="52.017318" lon="15.627663"></trkpt>
      <trkpt lat="52.018826" lon="15.628659"></trkpt>
      <trkpt lat="52.020469" lon="15.629382"></trkpt>
      <trkpt lat="52.021833" lon="15.629719"></trkpt>
      <trkpt lat="52.023265" lon="15.629833"></trkpt>
      <trkpt lat="52.024848" lon="15.629665"></trkpt>
      <trkpt lat="52.026404" lon="15.629237"></trkpt>
      <trkpt lat="52.041213" lon="15.623049"></trkpt>
      <trkpt lat="52.044257" lon="15.621916"></trkpt>
      <trkpt lat="52.047163" lon="15.621289"></trkpt>
      <trkpt lat="52.055838" lon="15.620476"></trkpt>
      <trkpt lat="52.057401" lon="15.620165"></trkpt>
      <trkpt lat="52.059907" lon="15.619186"></trkpt>
      <trkpt lat="52.062203" lon="15.617745"></trkpt>
      <trkpt lat="52.065572" lon="15.61477"></trkpt>
      <trkpt lat="52.066682" lon="15.613518"></trkpt>
      <trkpt lat="52.067794" lon="15.611874"></trkpt>
      <trkpt lat="52.076367" lon="15.594372"></trkpt>
      <trkpt lat="52.077829" lon="15.591835"></trkpt>
      <trkpt lat="52.07922" lon="15.589835"></trkpt>
      <trkpt lat="52.081405" lon="15.587285"></trkpt>
      <trkpt lat="52.08342" lon="15.585444"></trkpt>
      <trkpt lat="52.086042" lon="15.583641"></trkpt>
      <trkpt lat="52.088554" lon="15.58249"></trkpt>
      <trkpt lat="52.091094" lon="15.581824"></trkpt>
      <trkpt lat="52.093894" lon="15.581634"></trkpt>
      <trkpt lat="52.096294" lon="15.581924"></trkpt>
      <trkpt lat="52.104267" lon="15.583367"></trkpt>
      <trkpt lat="52.106327" lon="15.583492"></trkpt>
      <trkpt lat="52.109108" lon="15.583243"></trkpt>
      <trkpt lat="52.111898" lon="15.582528"></trkpt>
      <trkpt lat="52.113975" lon="15.581672"></trkpt>
      <trkpt lat="52.120364" lon="15.577924"></trkpt>
      <trkpt lat="52.12309" lon="15.576688"></trkpt>
      <trkpt lat="52.124537" lon="15.576229"></trkpt>
      <trkpt lat="52.126112" lon="15.575883"></trkpt>
      <trkpt lat="52.12764" lon="15.575692"></trkpt>
      <trkpt lat="52.129288" lon="15.575646"></trkpt>
      <trkpt lat="52.146277" lon="15.577504"></trkpt>
      <trkpt lat="52.148618" lon="15.578133"></trkpt>
      <trkpt lat="52.150072" lon="15.578797"></trkpt>
      <trkpt lat="52.15192" lon="15.579954"></trkpt>
      <trkpt lat="52.156876" lon="15.5843"></trkpt>
      <trkpt lat="52.15908" lon="15.585907"></trkpt>
      <trkpt lat="52.160905" lon="15.586835"></trkpt>
      <trkpt lat="52.163256" lon="15.587535"></trkpt>
      <trkpt lat="52.164698" lon="15.58771"></trkpt>
      <trkpt lat="52.166229" lon="15.587689"></trkpt>
      <trkpt lat="52.183463" lon="15.586104"></trkpt>
      <trkpt lat="52.185114" lon="15.585769"></trkpt>
      <trkpt lat="52.187141" lon="15.585134"></trkpt>
      <trkpt lat="52.189958" lon="15.583791"></trkpt>
      <trkpt lat="52.192791" lon="15.581865"></trkpt>
      <trkpt lat="52.195108" lon="15.57979"></trkpt>
      <trkpt lat="52.197121" lon="15.577573"></trkpt>
      <trkpt lat="52.198848" lon="15.575287"></trkpt>
      <trkpt lat="52.204591" lon="15.566304"></trkpt>
      <trkpt lat="52.206704" lon="15.563498"></trkpt>
      <trkpt lat="52.208301" lon="15.561721"></trkpt>
      <trkpt lat="52.210109" lon="15.560021"></trkpt>
      <trkpt lat="52.212604" lon="15.558133"></trkpt>
      <trkpt lat="52.214503" lon="15.55702"></trkpt>
      <trkpt lat="52.216012" lon="15.556325"></trkpt>
      <trkpt lat="52.217852" lon="15.55567"></trkpt>
      <trkpt lat="52.220043" lon="15.555173"></trkpt>
      <trkpt lat="52.222063" lon="15.554976"></trkpt>
      <trkpt lat="52.247408" lon="15.555652"></trkpt>
      <trkpt lat="52.248991" lon="15.555561"></trkpt>
      <trkpt lat="52.250798" lon="15.555189"></trkpt>
      <trkpt lat="52.25283" lon="15.554379"></trkpt>
      <trkpt lat="52.255221" lon="15.552854"></trkpt>
      <trkpt lat="52.256533" lon="15.551713"></trkpt>
      <trkpt lat="52.263292" lon="15.544981"></trkpt>
      <trkpt lat="52.265015" lon="15.543499"></trkpt>
      <trkpt lat="52.266518" lon="15.542401"></trkpt>
      <trkpt lat="52.268783" lon="15.541085"></trkpt>
      <trkpt lat="52.270795" lon="15.540207"></trkpt>
      <trkpt lat="52.272247" lon="15.539743"></trkpt>
      <trkpt lat="52.274314" lon="15.539309"></trkpt>
      <trkpt lat="52.276192" lon="15.539145"></trkpt>
      <trkpt lat="52.27755" lon="15.539162"></trkpt>
      <trkpt lat="52.280302" lon="15.539528"></trkpt>
      <trkpt lat="52.289764" lon="15.542383"></trkpt>
      <trkpt lat="52.292008" lon="15.542933"></trkpt>
      <trkpt lat="52.294152" lon="15.543279"></trkpt>
      <trkpt lat="52.297203" lon="15.543483"></trkpt>
      <trkpt lat="52.300514" lon="15.543411"></trkpt>
      <trkpt lat="52.302739" lon="15.543503"></trkpt>
      <trkpt lat="52.305781" lon="15.543924"></trkpt>
      <trkpt lat="52.307988" lon="15.544448"></trkpt>
      <trkpt lat="52.310705" lon="15.54534"></trkpt>
      <trkpt lat="52.313317" lon="15.546479"></trkpt>
      <trkpt lat="52.327166" lon="15.554158"></trkpt>
      <trkpt lat="52.330341" lon="15.555657"></trkpt>
      <trkpt lat="52.332201" lon="15.556347"></trkpt>
      <trkpt lat="52.334546" lon="15.557024"></trkpt>
      <trkpt lat="52.336821" lon="15.557485"></trkpt>
      <trkpt lat="52.34006" lon="15.557817"></trkpt>
      <trkpt lat="52.343269" lon="15.557764"></trkpt>
      <trkpt lat="52.345686" lon="15.557485"></trkpt>
      <trkpt lat="52.347993" lon="15.55701"></trkpt>
      <trkpt lat="52.35102" lon="15.556088"></trkpt>
      <trkpt lat="52.353096" lon="15.55525"></trkpt>
      <trkpt lat="52.3549" lon="15.554374"></trkpt>
      <trkpt lat="52.366696" lon="15.547902"></trkpt>
      <trkpt lat="52.368639" lon="15.547085"></trkpt>
      <trkpt lat="52.370673" lon="15.5465"></trkpt>
      <trkpt lat="52.372452" lon="15.546203"></trkpt>
      <trkpt lat="52.374232" lon="15.546094"></trkpt>
      <trkpt lat="52.394303" lon="15.546663"></trkpt>
      <trkpt lat="52.396478" lon="15.546578"></trkpt>
      <trkpt lat="52.398891" lon="15.546148"></trkpt>
      <trkpt lat="52.400121" lon="15.545784"></trkpt>
      <trkpt lat="52.401927" lon="15.545065"></trkpt>
      <trkpt lat="52.405679" lon="15.543271"></trkpt>
      <trkpt lat="52.406833" lon="15.542851"></trkpt>
      <trkpt lat="52.408187" lon="15.542631"></trkpt>
      <trkpt lat="52.409637" lon="15.542707"></trkpt>
      <trkpt lat="52.411523" lon="15.543309"></trkpt>
      <trkpt lat="52.412725" lon="15.544005"></trkpt>
      <trkpt lat="52.413531" lon="15.544621"></trkpt>
      <trkpt lat="52.414796" lon="15.545868"></trkpt>
      <trkpt lat="52.419096" lon="15.551096"></trkpt>
      <trkpt lat="52.420464" lon="15.552239"></trkpt>
      <trkpt lat="52.421614" lon="15.552852"></trkpt>
      <trkpt lat="52.422965" lon="15.55328"></trkpt>
      <trkpt lat="52.438484" lon="15.557132"></trkpt>
      <trkpt lat="52.451901" lon="15.562665"></trkpt>
      <trkpt lat="52.454549" lon="15.563574"></trkpt>
      <trkpt lat="52.45665" lon="15.563975"></trkpt>
      <trkpt lat="52.465028" lon="15.564818"></trkpt>
      <trkpt lat="52.466199" lon="15.564674"></trkpt>
      <trkpt lat="52.467071" lon="15.564371"></trkpt>
      <trkpt lat="52.468095" lon="15.563768"></trkpt>
      <trkpt lat="52.469108" lon="15.562886"></trkpt>
      <trkpt lat="52.470042" lon="15.561756"></trkpt>
      <trkpt lat="52.470883" lon="15.560399"></trkpt>
      <trkpt lat="52.471425" lon="15.559257"></trkpt>
      <trkpt lat="52.472397" lon="15.556655"></trkpt>
      <trkpt lat="52.473175" lon="15.555265"></trkpt>
      <trkpt lat="52.474264" lon="15.554069"></trkpt>
      <trkpt lat="52.475001" lon="15.553563"></trkpt>
      <trkpt lat="52.475742" lon="15.553262"></trkpt>
      <trkpt lat="52.476982" lon="15.553135"></trkpt>
      <trkpt lat="52.480275" lon="15.553743"></trkpt>
      <trkpt lat="52.481691" lon="15.553607"></trkpt>
      <trkpt lat="52.483334" lon="15.552971"></trkpt>
      <trkpt lat="52.486597" lon="15.550881"></trkpt>
      <trkpt lat="52.487868" lon="15.550437"></trkpt>
      <trkpt lat="52.489152" lon="15.550299"></trkpt>
      <trkpt lat="52.489978" lon="15.55037"></trkpt>
      <trkpt lat="52.491089" lon="15.550667"></trkpt>
      <trkpt lat="52.497205" lon="15.553531"></trkpt>
      <trkpt lat="52.499136" lon="15.554199"></trkpt>
      <trkpt lat="52.501279" lon="15.554537"></trkpt>
      <trkpt lat="52.502555" lon="15.554532"></trkpt>
      <trkpt lat="52.503879" lon="15.554377"></trkpt>
      <trkpt lat="52.505355" lon="15.554003"></trkpt>
      <trkpt lat="52.507059" lon="15.553326"></trkpt>
      <trkpt lat="52.514219" lon="15.549343"></trkpt>
      <trkpt lat="52.516976" lon="15.547981"></trkpt>
      <trkpt lat="52.519981" lon="15.54667"></trkpt>
      <trkpt lat="52.523774" lon="15.545285"></trkpt>
      <trkpt lat="52.527685" lon="15.544134"></trkpt>
      <trkpt lat="52.530709" lon="15.543456"></trkpt>
      <trkpt lat="52.549624" lon="15.539795"></trkpt>
      <trkpt lat="52.551454" lon="15.539158"></trkpt>
      <trkpt lat="52.553239" lon="15.53811"></trkpt>
      <trkpt lat="52.554611" lon="15.53697"></trkpt>
      <trkpt lat="52.55611" lon="15.535311"></trkpt>
      <trkpt lat="52.557391" lon="15.533468"></trkpt>
      <trkpt lat="52.558712" lon="15.530955"></trkpt>
      <trkpt lat="52.559673" lon="15.528489"></trkpt>
      <trkpt lat="52.560391" lon="15.526047"></trkpt>
      <trkpt lat="52.560931" lon="15.523379"></trkpt>
      <trkpt lat="52.561273" lon="15.520522"></trkpt>
      <trkpt lat="52.561387" lon="15.517835"></trkpt>
      <trkpt lat="52.561327" lon="15.515568"></trkpt>
      <trkpt lat="52.561101" lon="15.513139"></trkpt>
      <trkpt lat="52.560745" lon="15.510893"></trkpt>
      <trkpt lat="52.560131" lon="15.508243"></trkpt>
      <trkpt lat="52.556433" lon="15.494717"></trkpt>
      <trkpt lat="52.55604" lon="15.492889"></trkpt>
      <trkpt lat="52.555767" lon="15.490745"></trkpt>
      <trkpt lat="52.555707" lon="15.487839"></trkpt>
      <trkpt lat="52.556044" lon="15.48471"></trkpt>
      <trkpt lat="52.556726" lon="15.481947"></trkpt>
      <trkpt lat="52.557923" lon="15.479109"></trkpt>
      <trkpt lat="52.558938" lon="15.477505"></trkpt>
      <trkpt lat="52.559718" lon="15.476566"></trkpt>
      <trkpt lat="52.560697" lon="15.475656"></trkpt>
      <trkpt lat="52.561765" lon="15.474933"></trkpt>
      <trkpt lat="52.562999" lon="15.47435"></trkpt>
      <trkpt lat="52.571505" lon="15.471061"></trkpt>
      <trkpt lat="52.572901" lon="15.470386"></trkpt>
      <trkpt lat="52.574256" lon="15.469537"></trkpt>
      <trkpt lat="52.575488" lon="15.468607"></trkpt>
      <trkpt lat="52.577012" lon="15.467151"></trkpt>
      <trkpt lat="52.579141" lon="15.464498"></trkpt>
      <trkpt lat="52.580544" lon="15.462235"></trkpt>
      <trkpt lat="52.58179" lon="15.459892"></trkpt>
      <trkpt lat="52.592845" lon="15.438463"></trkpt>
      <trkpt lat="52.594528" lon="15.435555"></trkpt>
      <trkpt lat="52.596651" lon="15.432444"></trkpt>
      <trkpt lat="52.606033" lon="15.420257"></trkpt>
      <trkpt lat="52.607283" lon="15.418346"></trkpt>
      <trkpt lat="52.60868" lon="15.415874"></trkpt>
      <trkpt lat="52.609957" lon="15.413195"></trkpt>
      <trkpt lat="52.61136" lon="15.40962"></trkpt>
      <trkpt lat="52.612295" lon="15.406685"></trkpt>
      <trkpt lat="52.615939" lon="15.393427"></trkpt>
      <trkpt lat="52.616823" lon="15.390787"></trkpt>
      <trkpt lat="52.618019" lon="15.388229"></trkpt>
      <trkpt lat="52.619285" lon="15.386317"></trkpt>
      <trkpt lat="52.620622" lon="15.384793"></trkpt>
      <trkpt lat="52.635783" lon="15.370517"></trkpt>
      <trkpt lat="52.636955" lon="15.369212"></trkpt>
      <trkpt lat="52.638436" lon="15.367173"></trkpt>
      <trkpt lat="52.639688" lon="15.364992"></trkpt>
      <trkpt lat="52.641028" lon="15.361989"></trkpt>
      <trkpt lat="52.645404" lon="15.34911"></trkpt>
      <trkpt lat="52.64617" lon="15.347128"></trkpt>
      <trkpt lat="52.64691" lon="15.345671"></trkpt>
      <trkpt lat="52.647691" lon="15.344457"></trkpt>
      <trkpt lat="52.648649" lon="15.343322"></trkpt>
      <trkpt lat="52.649926" lon="15.342213"></trkpt>
      <trkpt lat="52.653415" lon="15.339755"></trkpt>
      <trkpt lat="52.654557" lon="15.338575"></trkpt>
      <trkpt lat="52.655615" lon="15.337081"></trkpt>
      <trkpt lat="52.656781" lon="15.334811"></trkpt>
      <trkpt lat="52.668889" lon="15.309061"></trkpt>
      <trkpt lat="52.670244" lon="15.306525"></trkpt>
      <trkpt lat="52.671394" lon="15.30473"></trkpt>
      <trkpt lat="52.676203" lon="15.297928"></trkpt>
      <trkpt lat="52.677211" lon="15.29667"></trkpt>
      <trkpt lat="52.68102" lon="15.29257"></trkpt>
      <trkpt lat="52.684056" lon="15.288579"></trkpt>
      <trkpt lat="52.686598" lon="15.284468"></trkpt>
      <trkpt lat="52.690677" lon="15.277208"></trkpt>
      <trkpt lat="52.691584" lon="15.275407"></trkpt>
      <trkpt lat="52.692132" lon="15.273926"></trkpt>
      <trkpt lat="52.692609" lon="15.272126"></trkpt>
      <trkpt lat="52.693296" lon="15.267794"></trkpt>
      <trkpt lat="52.693773" lon="15.265767"></trkpt>
      <trkpt lat="52.695682" lon="15.260876"></trkpt>
      <trkpt lat="52.696158" lon="15.259326"></trkpt>
      <trkpt lat="52.698131" lon="15.251041"></trkpt>
      <trkpt lat="52.698509" lon="15.248874"></trkpt>
      <trkpt lat="52.698772" lon="15.246345"></trkpt>
      <trkpt lat="52.700436" lon="15.215753"></trkpt>
      <trkpt lat="52.704088" lon="15.176103"></trkpt>
      <trkpt lat="52.704819" lon="15.171264"></trkpt>
      <trkpt lat="52.705701" lon="15.168045"></trkpt>
      <trkpt lat="52.706523" lon="15.165981"></trkpt>
      <trkpt lat="52.707217" lon="15.164599"></trkpt>
      <trkpt lat="52.708737" lon="15.162296"></trkpt>
      <trkpt lat="52.710492" lon="15.160442"></trkpt>
      <trkpt lat="52.711553" lon="15.159667"></trkpt>
      <trkpt lat="52.712486" lon="15.159144"></trkpt>
      <trkpt lat="52.714254" lon="15.158511"></trkpt>
      <trkpt lat="52.715418" lon="15.158343"></trkpt>
      <trkpt lat="52.716586" lon="15.158373"></trkpt>
      <trkpt lat="52.718297" lon="15.158731"></trkpt>
      <trkpt lat="52.720616" lon="15.159631"></trkpt>
      <trkpt lat="52.728706" lon="15.163415"></trkpt>
      <trkpt lat="52.730477" lon="15.164148"></trkpt>
      <trkpt lat="52.732452" lon="15.164655"></trkpt>
      <trkpt lat="52.734048" lon="15.164802"></trkpt>
      <trkpt lat="52.735221" lon="15.164758"></trkpt>
      <trkpt lat="52.73718" lon="15.164403"></trkpt>
      <trkpt lat="52.738852" lon="15.163803"></trkpt>
      <trkpt lat="52.746279" lon="15.160104"></trkpt>
      <trkpt lat="52.747654" lon="15.159238"></trkpt>
      <trkpt lat="52.749101" lon="15.158002"></trkpt>
      <trkpt lat="52.749905" lon="15.15714"></trkpt>
      <trkpt lat="52.75171" lon="15.15465"></trkpt>
      <trkpt lat="52.753217" lon="15.151696"></trkpt>
      <trkpt lat="52.75611" lon="15.144592"></trkpt>
      <trkpt lat="52.758104" lon="15.140676"></trkpt>
      <trkpt lat="52.759571" lon="15.138308"></trkpt>
      <trkpt lat="52.760881" lon="15.136468"></trkpt>
      <trkpt lat="52.762527" lon="15.134466"></trkpt>
      <trkpt lat="52.764069" lon="15.132855"></trkpt>
      <trkpt lat="52.766052" lon="15.131117"></trkpt>
      <trkpt lat="52.768284" lon="15.129552"></trkpt>
      <trkpt lat="52.791338" lon="15.116239"></trkpt>
      <trkpt lat="52.794336" lon="15.114368"></trkpt>
      <trkpt lat="52.796797" lon="15.11249"></trkpt>
      <trkpt lat="52.79815" lon="15.111291"></trkpt>
      <trkpt lat="52.801276" lon="15.108015"></trkpt>
      <trkpt lat="52.803646" lon="15.104993"></trkpt>
      <trkpt lat="52.806262" lon="15.10097"></trkpt>
      <trkpt lat="52.808466" lon="15.096889"></trkpt>
      <trkpt lat="52.812598" lon="15.088639"></trkpt>
      <trkpt lat="52.813774" lon="15.086556"></trkpt>
      <trkpt lat="52.815889" lon="15.083269"></trkpt>
      <trkpt lat="52.817313" lon="15.081327"></trkpt>
      <trkpt lat="52.819488" lon="15.078709"></trkpt>
      <trkpt lat="52.832769" lon="15.064142"></trkpt>
      <trkpt lat="52.834573" lon="15.062032"></trkpt>
      <trkpt lat="52.836275" lon="15.059524"></trkpt>
      <trkpt lat="52.837285" lon="15.057687"></trkpt>
      <trkpt lat="52.840465" lon="15.050662"></trkpt>
      <trkpt lat="52.841836" lon="15.048146"></trkpt>
      <trkpt lat="52.843876" lon="15.045278"></trkpt>
      <trkpt lat="52.846079" lon="15.043007"></trkpt>
      <trkpt lat="52.847891" lon="15.04162"></trkpt>
      <trkpt lat="52.849387" lon="15.04078"></trkpt>
      <trkpt lat="52.854999" lon="15.038688"></trkpt>
      <trkpt lat="52.856613" lon="15.037986"></trkpt>
      <trkpt lat="52.85966" lon="15.036289"></trkpt>
      <trkpt lat="52.862684" lon="15.034087"></trkpt>
      <trkpt lat="52.8688" lon="15.029135"></trkpt>
      <trkpt lat="52.870273" lon="15.028083"></trkpt>
      <trkpt lat="52.872577" lon="15.026752"></trkpt>
      <trkpt lat="52.875095" lon="15.025746"></trkpt>
      <trkpt lat="52.876778" lon="15.025283"></trkpt>
      <trkpt lat="52.900805" lon="15.019977"></trkpt>
      <trkpt lat="52.902865" lon="15.019422"></trkpt>
      <trkpt lat="52.904679" lon="15.018719"></trkpt>
      <trkpt lat="52.907383" lon="15.017207"></trkpt>
      <trkpt lat="52.909625" lon="15.015486"></trkpt>
      <trkpt lat="52.911381" lon="15.013822"></trkpt>
      <trkpt lat="52.913101" lon="15.011855"></trkpt>
      <trkpt lat="52.915026" lon="15.009201"></trkpt>
      <trkpt lat="52.921047" lon="14.998915"></trkpt>
      <trkpt lat="52.924482" lon="14.993667"></trkpt>
      <trkpt lat="52.927277" lon="14.990013"></trkpt>
      <trkpt lat="52.939681" lon="14.975677"></trkpt>
      <trkpt lat="52.942097" lon="14.972391"></trkpt>
      <trkpt lat="52.944621" lon="14.96824"></trkpt>
      <trkpt lat="52.946748" lon="14.964012"></trkpt>
      <trkpt lat="52.948659" lon="14.95939"></trkpt>
      <trkpt lat="52.956717" lon="14.935472"></trkpt>
      <trkpt lat="52.957864" lon="14.932428"></trkpt>
      <trkpt lat="52.959103" lon="14.929534"></trkpt>
      <trkpt lat="52.96145" lon="14.924892"></trkpt>
      <trkpt lat="52.963181" lon="14.922006"></trkpt>
      <trkpt lat="52.974719" lon="14.905724"></trkpt>
      <trkpt lat="52.976757" lon="14.902423"></trkpt>
      <trkpt lat="52.978373" lon="14.899393"></trkpt>
      <trkpt lat="52.980507" lon="14.894671"></trkpt>
      <trkpt lat="52.982212" lon="14.890016"></trkpt>
      <trkpt lat="52.983584" lon="14.885423"></trkpt>
      <trkpt lat="52.986268" lon="14.875437"></trkpt>
      <trkpt lat="52.987358" lon="14.87215"></trkpt>
      <trkpt lat="52.988164" lon="14.870331"></trkpt>
      <trkpt lat="52.989538" lon="14.867936"></trkpt>
      <trkpt lat="52.991053" lon="14.865968"></trkpt>
      <trkpt lat="52.992379" lon="14.86466"></trkpt>
      <trkpt lat="52.993908" lon="14.863534"></trkpt>
      <trkpt lat="52.994963" lon="14.862976"></trkpt>
      <trkpt lat="52.996268" lon="14.862483"></trkpt>
      <trkpt lat="52.997634" lon="14.862205"></trkpt>
      <trkpt lat="53.01888" lon="14.861769"></trkpt>
      <trkpt lat="53.021359" lon="14.861937"></trkpt>
      <trkpt lat="53.023347" lon="14.862213"></trkpt>
      <trkpt lat="53.042507" lon="14.865865"></trkpt>
      <trkpt lat="53.046238" lon="14.866133"></trkpt>
      <trkpt lat="53.049675" lon="14.865999"></trkpt>
      <trkpt lat="53.052719" lon="14.865574"></trkpt>
      <trkpt lat="53.054842" lon="14.865111"></trkpt>
      <trkpt lat="53.067124" lon="14.86202"></trkpt>
      <trkpt lat="53.070883" lon="14.860899"></trkpt>
      <trkpt lat="53.072513" lon="14.860158"></trkpt>
      <trkpt lat="53.074349" lon="14.859118"></trkpt>
      <trkpt lat="53.076261" lon="14.857754"></trkpt>
      <trkpt lat="53.078348" lon="14.855918"></trkpt>
      <trkpt lat="53.080396" lon="14.853709"></trkpt>
      <trkpt lat="53.082369" lon="14.85111"></trkpt>
      <trkpt lat="53.084106" lon="14.848381"></trkpt>
      <trkpt lat="53.085939" lon="14.844875"></trkpt>
      <trkpt lat="53.086849" lon="14.84283"></trkpt>
      <trkpt lat="53.0884" lon="14.838772"></trkpt>
      <trkpt lat="53.095556" lon="14.818696"></trkpt>
      <trkpt lat="53.097196" lon="14.812666"></trkpt>
      <trkpt lat="53.098236" lon="14.807505"></trkpt>
      <trkpt lat="53.09883" lon="14.803569"></trkpt>
      <trkpt lat="53.101737" lon="14.780728"></trkpt>
      <trkpt lat="53.102459" lon="14.776385"></trkpt>
      <trkpt lat="53.103328" lon="14.772527"></trkpt>
      <trkpt lat="53.104248" lon="14.769278"></trkpt>
      <trkpt lat="53.106082" lon="14.764183"></trkpt>
      <trkpt lat="53.108269" lon="14.759531"></trkpt>
      <trkpt lat="53.109577" lon="14.757236"></trkpt>
      <trkpt lat="53.111366" lon="14.754536"></trkpt>
      <trkpt lat="53.129568" lon="14.730754"></trkpt>
      <trkpt lat="53.133139" lon="14.726279"></trkpt>
      <trkpt lat="53.136356" lon="14.723008"></trkpt>
      <trkpt lat="53.139941" lon="14.720197"></trkpt>
      <trkpt lat="53.157509" lon="14.709375"></trkpt>
      <trkpt lat="53.159559" lon="14.707861"></trkpt>
      <trkpt lat="53.161177" lon="14.706404"></trkpt>
      <trkpt lat="53.162959" lon="14.704482"></trkpt>
      <trkpt lat="53.164803" lon="14.702102"></trkpt>
      <trkpt lat="53.167481" lon="14.69833"></trkpt>
      <trkpt lat="53.168545" lon="14.697064"></trkpt>
      <trkpt lat="53.170018" lon="14.695594"></trkpt>
      <trkpt lat="53.171783" lon="14.694227"></trkpt>
      <trkpt lat="53.173927" lon="14.69305"></trkpt>
      <trkpt lat="53.175917" lon="14.692381"></trkpt>
      <trkpt lat="53.177775" lon="14.692089"></trkpt>
      <trkpt lat="53.182497" lon="14.691706"></trkpt>
      <trkpt lat="53.185178" lon="14.69109"></trkpt>
      <trkpt lat="53.186832" lon="14.690515"></trkpt>
      <trkpt lat="53.190068" lon="14.688923"></trkpt>
      <trkpt lat="53.19709" lon="14.684668"></trkpt>
      <trkpt lat="53.199365" lon="14.683068"></trkpt>
      <trkpt lat="53.201904" lon="14.680668"></trkpt>
      <trkpt lat="53.202963" lon="14.679437"></trkpt>
      <trkpt lat="53.204719" lon="14.677029"></trkpt>
      <trkpt lat="53.206762" lon="14.673484"></trkpt>
      <trkpt lat="53.21345" lon="14.659777"></trkpt>
      <trkpt lat="53.215354" lon="14.656189"></trkpt>
      <trkpt lat="53.216984" lon="14.653581"></trkpt>
      <trkpt lat="53.218649" lon="14.651263"></trkpt>
      <trkpt lat="53.22076" lon="14.648751"></trkpt>
      <trkpt lat="53.222919" lon="14.646609"></trkpt>
      <trkpt lat="53.224455" lon="14.645295"></trkpt>
      <trkpt lat="53.227178" lon="14.643389"></trkpt>
      <trkpt lat="53.229717" lon="14.642041"></trkpt>
      <trkpt lat="53.235033" lon="14.639677"></trkpt>
      <trkpt lat="53.238313" lon="14.638409"></trkpt>
      <trkpt lat="53.24278" lon="14.637023"></trkpt>
      <trkpt lat="53.252746" lon="14.634785"></trkpt>
      <trkpt lat="53.255303" lon="14.634015"></trkpt>
      <trkpt lat="53.258314" lon="14.632694"></trkpt>
      <trkpt lat="53.259797" lon="14.631862"></trkpt>
      <trkpt lat="53.262237" lon="14.630227"></trkpt>
      <trkpt lat="53.265467" lon="14.627527"></trkpt>
      <trkpt lat="53.28671" lon="14.6075"></trkpt>
      <trkpt lat="53.288483" lon="14.605696"></trkpt>
      <trkpt lat="53.290988" lon="14.602876"></trkpt>
      <trkpt lat="53.292638" lon="14.600821"></trkpt>
      <trkpt lat="53.301862" lon="14.588266"></trkpt>
      <trkpt lat="53.303379" lon="14.586428"></trkpt>
      <trkpt lat="53.305312" lon="14.584353"></trkpt>
      <trkpt lat="53.307557" lon="14.582295"></trkpt>
      <trkpt lat="53.310029" lon="14.580408"></trkpt>
      <trkpt lat="53.311982" lon="14.579173"></trkpt>
      <trkpt lat="53.314468" lon="14.577898"></trkpt>
      <trkpt lat="53.316624" lon="14.577062"></trkpt>
      <trkpt lat="53.31897" lon="14.576399"></trkpt>
      <trkpt lat="53.332661" lon="14.573305"></trkpt>
      <trkpt lat="53.333793" lon="14.572868"></trkpt>
      <trkpt lat="53.33597" lon="14.571647"></trkpt>
      <trkpt lat="53.337043" lon="14.571204"></trkpt>
      <trkpt lat="53.337902" lon="14.571156"></trkpt>
      <trkpt lat="53.33859" lon="14.571372"></trkpt>
      <trkpt lat="53.339418" lon="14.572085"></trkpt>
      <trkpt lat="53.339954" lon="14.572866"></trkpt>
      <trkpt lat="53.340851" lon="14.575462"></trkpt>
      <trkpt lat="53.344856" lon="14.592896"></trkpt>
      <trkpt lat="53.345383" lon="14.594673"></trkpt>
      <trkpt lat="53.346113" lon="14.596461"></trkpt>
      <trkpt lat="53.347223" lon="14.598403"></trkpt>
      <trkpt lat="53.348356" lon="14.599816"></trkpt>
      <trkpt lat="53.356821" lon="14.607281"></trkpt>
      <trkpt lat="53.357818" lon="14.608307"></trkpt>
      <trkpt lat="53.358489" lon="14.609188"></trkpt>
      <trkpt lat="53.359774" lon="14.611478"></trkpt>
      <trkpt lat="53.3645" lon="14.621405"></trkpt>
      <trkpt lat="53.365069" lon="14.622909"></trkpt>
      <trkpt lat="53.365583" lon="14.624749"></trkpt>
      <trkpt lat="53.366113" lon="14.628297"></trkpt>
      <trkpt lat="53.366175" lon="14.630422"></trkpt>
      <trkpt lat="53.366072" lon="14.632369"></trkpt>
      <trkpt lat="53.36489" lon="14.643352"></trkpt>
      <trkpt lat="53.362448" lon="14.654044"></trkpt>
      <trkpt lat="53.361528" lon="14.664766"></trkpt>
      <trkpt lat="53.361478" lon="14.667435"></trkpt>
      <trkpt lat="53.361725" lon="14.670166"></trkpt>
      <trkpt lat="53.362263" lon="14.672764"></trkpt>
      <trkpt lat="53.366527" lon="14.68843"></trkpt>
      <trkpt lat="53.367344" lon="14.690911"></trkpt>
      <trkpt lat="53.3683" lon="14.693257"></trkpt>
      <trkpt lat="53.369975" lon="14.696469"></trkpt>
      <trkpt lat="53.37141" lon="14.698612"></trkpt>
      <trkpt lat="53.38079" lon="14.709706"></trkpt>
      <trkpt lat="53.382516" lon="14.711408"></trkpt>
      <trkpt lat="53.383702" lon="14.712347"></trkpt>
      <trkpt lat="53.385011" lon="14.71319"></trkpt>
      <trkpt lat="53.403361" lon="14.722892"></trkpt>
      <trkpt lat="53.404764" lon="14.723899"></trkpt>
      <trkpt lat="53.406123" lon="14.725111"></trkpt>
      <trkpt lat="53.408335" lon="14.727687"></trkpt>
      <trkpt lat="53.41037" lon="14.730924"></trkpt>
      <trkpt lat="53.411281" lon="14.732769"></trkpt>
      <trkpt lat="53.412225" lon="14.735043"></trkpt>
      <trkpt lat="53.420804" lon="14.761233"></trkpt>
      <trkpt lat="53.421675" lon="14.763588"></trkpt>
      <trkpt lat="53.422508" lon="14.765394"></trkpt>
      <trkpt lat="53.423602" lon="14.76734"></trkpt>
      <trkpt lat="53.425509" lon="14.769894"></trkpt>
      <trkpt lat="53.426957" lon="14.771295"></trkpt>
      <trkpt lat="53.428587" lon="14.77249"></trkpt>
      <trkpt lat="53.451937" lon="14.786314"></trkpt>
      <trkpt lat="53.454132" lon="14.787442"></trkpt>
      <trkpt lat="53.456314" lon="14.788115"></trkpt>
      <trkpt lat="53.458058" lon="14.78833"></trkpt>
      <trkpt lat="53.468558" lon="14.787706"></trkpt>
      <trkpt lat="53.469883" lon="14.787832"></trkpt>
      <trkpt lat="53.470915" lon="14.788116"></trkpt>
      <trkpt lat="53.518792" lon="14.805717"></trkpt>
      <trkpt lat="53.520282" lon="14.806392"></trkpt>
      <trkpt lat="53.521344" lon="14.807012"></trkpt>
      <trkpt lat="53.525905" lon="14.810355"></trkpt>
      <trkpt lat="53.52694" lon="14.810932"></trkpt>
      <trkpt lat="53.528062" lon="14.811361"></trkpt>
      <trkpt lat="53.528898" lon="14.811534"></trkpt>
      <trkpt lat="53.530416" lon="14.811574"></trkpt>
      <trkpt lat="53.53196" lon="14.811246"></trkpt>
      <trkpt lat="53.533266" lon="14.810671"></trkpt>
      <trkpt lat="53.54859" lon="14.800052"></trkpt>
      <trkpt lat="53.551031" lon="14.798464"></trkpt>
      <trkpt lat="53.552809" lon="14.797512"></trkpt>
      <trkpt lat="53.554671" lon="14.796739"></trkpt>
      <trkpt lat="53.556061" lon="14.796316"></trkpt>
      <trkpt lat="53.558315" lon="14.795901"></trkpt>
      <trkpt lat="53.56033" lon="14.795793"></trkpt>
      <trkpt lat="53.561904" lon="14.795894"></trkpt>
      <trkpt lat="53.563729" lon="14.796201"></trkpt>
      <trkpt lat="53.566405" lon="14.796999"></trkpt>
      <trkpt lat="53.567822" lon="14.797647"></trkpt>
      <trkpt lat="53.569464" lon="14.798581"></trkpt>
      <trkpt lat="53.57207" lon="14.800459"></trkpt>
      <trkpt lat="53.573958" lon="14.802197"></trkpt>
      <trkpt lat="53.575761" lon="14.804167"></trkpt>
      <trkpt lat="53.587787" lon="14.819553"></trkpt>
      <trkpt lat="53.589799" lon="14.821889"></trkpt>
      <trkpt lat="53.591348" lon="14.823218"></trkpt>
      <trkpt lat="53.592597" lon="14.823989"></trkpt>
      <trkpt lat="53.594044" lon="14.824619"></trkpt>
      <trkpt lat="53.595637" lon="14.824985"></trkpt>
      <trkpt lat="53.597019" lon="14.825037"></trkpt>
      <trkpt lat="53.598542" lon="14.824819"></trkpt>
      <trkpt lat="53.601713" lon="14.824118"></trkpt>
      <trkpt lat="53.60417" lon="14.823381"></trkpt>
      <trkpt lat="53.606307" lon="14.82227"></trkpt>
      <trkpt lat="53.611998" lon="14.818542"></trkpt>
      <trkpt lat="53.613573" lon="14.817851"></trkpt>
      <trkpt lat="53.614957" lon="14.817531"></trkpt>
      <trkpt lat="53.615993" lon="14.817463"></trkpt>
      <trkpt lat="53.617073" lon="14.817548"></trkpt>
      <trkpt lat="53.618235" lon="14.817815"></trkpt>
      <trkpt lat="53.621396" lon="14.81884"></trkpt>
      <trkpt lat="53.623349" lon="14.818961"></trkpt>
      <trkpt lat="53.629216" lon="14.818385"></trkpt>
      <trkpt lat="53.634674" lon="14.817292"></trkpt>
      <trkpt lat="53.673336" lon="14.813506"></trkpt>
      <trkpt lat="53.674646" lon="14.813289"></trkpt>
      <trkpt lat="53.67641" lon="14.812702"></trkpt>
      <trkpt lat="53.67789" lon="14.811946"></trkpt>
      <trkpt lat="53.678905" lon="14.8113"></trkpt>
      <trkpt lat="53.681295" lon="14.809139"></trkpt>
      <trkpt lat="53.68261" lon="14.807495"></trkpt>
      <trkpt lat="53.684063" lon="14.80529"></trkpt>
      <trkpt lat="53.68815" lon="14.797792"></trkpt>
      <trkpt lat="53.689466" lon="14.795929"></trkpt>
      <trkpt lat="53.691146" lon="14.794066"></trkpt>
      <trkpt lat="53.711141" lon="14.775755"></trkpt>
      <trkpt lat="53.713144" lon="14.7743"></trkpt>
      <trkpt lat="53.714274" lon="14.773688"></trkpt>
      <trkpt lat="53.715657" lon="14.773119"></trkpt>
      <trkpt lat="53.717549" lon="14.772665"></trkpt>
      <trkpt lat="53.71968" lon="14.772551"></trkpt>
      <trkpt lat="53.732091" lon="14.773963"></trkpt>
      <trkpt lat="53.737244" lon="14.773996"></trkpt>
      <trkpt lat="53.741565" lon="14.774918"></trkpt>
      <trkpt lat="53.743541" lon="14.775075"></trkpt>
      <trkpt lat="53.745119" lon="14.774851"></trkpt>
      <trkpt lat="53.7459" lon="14.774632"></trkpt>
      <trkpt lat="53.74877" lon="14.77356"></trkpt>
      <trkpt lat="53.749786" lon="14.773318"></trkpt>
      <trkpt lat="53.751284" lon="14.773225"></trkpt>
      <trkpt lat="53.752293" lon="14.773322"></trkpt>
      <trkpt lat="53.753643" lon="14.773648"></trkpt>
      <trkpt lat="53.755152" lon="14.774305"></trkpt>
      <trkpt lat="53.758535" lon="14.776428"></trkpt>
      <trkpt lat="53.766747" lon="14.780329"></trkpt>
      <trkpt lat="53.768215" lon="14.780802"></trkpt>
      <trkpt lat="53.769733" lon="14.781045"></trkpt>
      <trkpt lat="53.771568" lon="14.781016"></trkpt>
      <trkpt lat="53.77338" lon="14.78064"></trkpt>
      <trkpt lat="53.781092" lon="14.777407"></trkpt>
      <trkpt lat="53.783224" lon="14.77693"></trkpt>
      <trkpt lat="53.785342" lon="14.776924"></trkpt>
      <trkpt lat="53.79076" lon="14.777876"></trkpt>
      <trkpt lat="53.792483" lon="14.77787"></trkpt>
      <trkpt lat="53.793642" lon="14.777719"></trkpt>
      <trkpt lat="53.794925" lon="14.777403"></trkpt>
      <trkpt lat="53.796445" lon="14.77685"></trkpt>
      <trkpt lat="53.804993" lon="14.773306"></trkpt>
      <trkpt lat="53.806723" lon="14.77237"></trkpt>
      <trkpt lat="53.808589" lon="14.770971"></trkpt>
      <trkpt lat="53.810256" lon="14.769328"></trkpt>
      <trkpt lat="53.811806" lon="14.767404"></trkpt>
      <trkpt lat="53.816931" lon="14.759287"></trkpt>
      <trkpt lat="53.818111" lon="14.757601"></trkpt>
      <trkpt lat="53.819772" lon="14.755824"></trkpt>
      <trkpt lat="53.821308" lon="14.754669"></trkpt>
      <trkpt lat="53.822966" lon="14.753855"></trkpt>
      <trkpt lat="53.826601" lon="14.752864"></trkpt>
      <trkpt lat="53.828265" lon="14.752175"></trkpt>
      <trkpt lat="53.829403" lon="14.751529"></trkpt>
      <trkpt lat="53.830826" lon="14.750513"></trkpt>
      <trkpt lat="53.834057" lon="14.747722"></trkpt>
      <trkpt lat="53.834936" lon="14.747314"></trkpt>
      <trkpt lat="53.835693" lon="14.747294"></trkpt>
      <trkpt lat="53.838288" lon="14.747921"></trkpt>
      <trkpt lat="53.838831" lon="14.748281"></trkpt>
      <trkpt lat="53.839119" lon="14.748666"></trkpt>
      <trkpt lat="53.839215" lon="14.749094"></trkpt>
      <trkpt lat="53.839432" lon="14.749242"></trkpt>
      <trkpt lat="53.839741" lon="14.74884"></trkpt>
      <trkpt lat="53.841284" lon="14.748332"></trkpt>
      <trkpt lat="53.843303" lon="14.747201"></trkpt>
      <trkpt lat="53.844763" lon="14.746943"></trkpt>
      <trkpt lat="53.845957" lon="14.747173"></trkpt>
      <trkpt lat="53.847024" lon="14.747824"></trkpt>
      <trkpt lat="53.849553" lon="14.750604"></trkpt>
      <trkpt lat="53.855616" lon="14.755761"></trkpt>
      <trkpt lat="53.856538" lon="14.756922"></trkpt>
      <trkpt lat="53.858416" lon="14.757818"></trkpt>
      <trkpt lat="53.860658" lon="14.759087"></trkpt>
      <trkpt lat="53.861218" lon="14.759514"></trkpt>
      <trkpt lat="53.861713" lon="14.76022"></trkpt>
      <trkpt lat="53.863704" lon="14.765274"></trkpt>
      <trkpt lat="53.864343" lon="14.766325"></trkpt>
      <trkpt lat="53.869222" lon="14.771559"></trkpt>
      <trkpt lat="53.884096" lon="14.78914"></trkpt>
      <trkpt lat="53.88456" lon="14.789426"></trkpt>
      <trkpt lat="53.88539" lon="14.789681"></trkpt>
      <trkpt lat="53.886922" lon="14.789284"></trkpt>
      <trkpt lat="53.887293" lon="14.789355"></trkpt>
      <trkpt lat="53.888554" lon="14.79055"></trkpt>
      <trkpt lat="53.890198" lon="14.790773"></trkpt>
      <trkpt lat="53.937083" lon="14.81466"></trkpt>
      <trkpt lat="53.937549" lon="14.814824"></trkpt>
      <trkpt lat="53.937997" lon="14.814765"></trkpt>
      <trkpt lat="53.938663" lon="14.814208"></trkpt>
      <trkpt lat="53.949392" lon="14.801203"></trkpt>
      <trkpt lat="53.954581" lon="14.79363"></trkpt>
      <trkpt lat="53.955211" lon="14.792879"></trkpt>
      <trkpt lat="53.956426" lon="14.792015"></trkpt>
      <trkpt lat="53.956987" lon="14.791795"></trkpt>
      <trkpt lat="53.961328" lon="14.792391"></trkpt>
      <trkpt lat="53.961896" lon="14.792123"></trkpt>
      <trkpt lat="53.962449" lon="14.791584"></trkpt>
      <trkpt lat="53.963041" lon="14.790515"></trkpt>
      <trkpt lat="53.963907" lon="14.786691"></trkpt>
      <trkpt lat="53.96427" lon="14.785699"></trkpt>
      <trkpt lat="53.967499" lon="14.781001"></trkpt>
      <trkpt lat="53.968354" lon="14.779812"></trkpt>
      <trkpt lat="53.96877" lon="14.779432"></trkpt>
      <trkpt lat="53.971646" lon="14.785097"></trkpt>
      <trkpt lat="53.973923" lon="14.787818"></trkpt>
      <trkpt lat="53.977395" lon="14.791043"></trkpt>
      <trkpt lat="53.978225" lon="14.792296"></trkpt>
      <trkpt lat="53.979904" lon="14.795249"></trkpt>
      <trkpt lat="53.986986" lon="14.800339"></trkpt>
      <trkpt lat="53.987736" lon="14.801162"></trkpt>
      <trkpt lat="53.988472" lon="14.802754"></trkpt>
      <trkpt lat="53.989331" lon="14.806363"></trkpt>
      <trkpt lat="53.990286" lon="14.809263"></trkpt>
      <trkpt lat="53.992464" lon="14.814676"></trkpt>
      <trkpt lat="53.993077" lon="14.815742"></trkpt>
      <trkpt lat="53.993217" lon="14.816201"></trkpt>
      <trkpt lat="53.993799" lon="14.816282"></trkpt>
      <trkpt lat="53.995242" lon="14.817121"></trkpt>
      <trkpt lat="53.996143" lon="14.817476"></trkpt>
      <trkpt lat="53.997115" lon="14.817287"></trkpt>
      <trkpt lat="53.998395" lon="14.816856"></trkpt>
      <trkpt lat="54.000687" lon="14.816471"></trkpt>
      <trkpt lat="54.001891" lon="14.816607"></trkpt>
      <trkpt lat="54.003749" lon="14.817228"></trkpt>
      <trkpt lat="54.004427" lon="14.817222"></trkpt>
      <trkpt lat="54.006574" lon="14.816872"></trkpt>
      <trkpt lat="54.008426" lon="14.816864"></trkpt>
      <trkpt lat="54.00994" lon="14.816491"></trkpt>
      <trkpt lat="54.010289" lon="14.816517"></trkpt>
      <trkpt lat="54.011275" lon="14.81607"></trkpt>
      <trkpt lat="54.011862" lon="14.815518"></trkpt>
      <trkpt lat="54.012899" lon="14.81415"></trkpt>
      <trkpt lat="54.013986" lon="14.813703"></trkpt>
      <trkpt lat="54.014509" lon="14.81249"></trkpt>
      <trkpt lat="54.014671" lon="14.812254"></trkpt>
      <trkpt lat="54.015081" lon="14.812"></trkpt>
      <trkpt lat="54.015441" lon="14.811901"></trkpt>
      <trkpt lat="54.015864" lon="14.811958"></trkpt>
      <trkpt lat="54.016215" lon="14.811695"></trkpt>
      <trkpt lat="54.028752" lon="14.807202"></trkpt>
      <trkpt lat="54.029368" lon="14.807227"></trkpt>
      <trkpt lat="54.031044" lon="14.807929"></trkpt>
      <trkpt lat="54.032419" lon="14.80757"></trkpt>
      <trkpt lat="54.033233" lon="14.806814"></trkpt>
      <trkpt lat="54.034088" lon="14.80636"></trkpt>
      <trkpt lat="54.034401" lon="14.805856"></trkpt>
      <trkpt lat="54.034462" lon="14.805137"></trkpt>
      <trkpt lat="54.033776" lon="14.800458"></trkpt>
      <trkpt lat="54.033712" lon="14.795989"></trkpt>
      <trkpt lat="54.033201" lon="14.790324"></trkpt>
      <trkpt lat="54.031666" lon="14.783607"></trkpt>
      <trkpt lat="54.029796" lon="14.777354"></trkpt>
      <trkpt lat="54.029649" lon="14.775821"></trkpt>
      <trkpt lat="54.029296" lon="14.775494"></trkpt>
      <trkpt lat="54.028804" lon="14.774269"></trkpt>
      <trkpt lat="54.027985" lon="14.772864"></trkpt>
      <trkpt lat="54.027071" lon="14.769925"></trkpt>
      <trkpt lat="54.026758" lon="14.76844"></trkpt>
      <trkpt lat="54.026493" lon="14.765837"></trkpt>
      <trkpt lat="54.026595" lon="14.763836"></trkpt>
      <trkpt lat="54.027716" lon="14.763707"></trkpt>
      <trkpt lat="54.027787" lon="14.763514"></trkpt>
      <trkpt lat="54.027688" lon="14.763312"></trkpt>
      <trkpt lat="54.027449" lon="14.76024"></trkpt>
      <trkpt lat="54.027452" lon="14.759935"></trkpt>
      <trkpt lat="54.027772" lon="14.759942"></trkpt>
  </trkseg></trk>
</gpx>
