<?xml version="1.0" encoding="UTF-8"?>
<gpx version="1.1" creator="yatutbuv" xmlns="http://www.topografix.com/GPX/1/1">
  <trk><name>GraphHopper Track</name><trkseg>
      <trkpt lat="48.72925" lon="2.369969"></trkpt>
      <trkpt lat="48.729421" lon="2.371454"></trkpt>
      <trkpt lat="48.729545" lon="2.371639"></trkpt>
      <trkpt lat="48.729737" lon="2.371661"></trkpt>
      <trkpt lat="48.729964" lon="2.371495"></trkpt>
      <trkpt lat="48.730071" lon="2.371234"></trkpt>
      <trkpt lat="48.73016" lon="2.370042"></trkpt>
      <trkpt lat="48.73038" lon="2.369526"></trkpt>
      <trkpt lat="48.732644" lon="2.367389"></trkpt>
      <trkpt lat="48.733342" lon="2.366871"></trkpt>
      <trkpt lat="48.734168" lon="2.366429"></trkpt>
      <trkpt lat="48.737599" lon="2.365003"></trkpt>
      <trkpt lat="48.739732" lon="2.363865"></trkpt>
      <trkpt lat="48.740906" lon="2.363656"></trkpt>
      <trkpt lat="48.742115" lon="2.363757"></trkpt>
      <trkpt lat="48.743084" lon="2.364069"></trkpt>
      <trkpt lat="48.744357" lon="2.364816"></trkpt>
      <trkpt lat="48.74725" lon="2.367635"></trkpt>
      <trkpt lat="48.748084" lon="2.368279"></trkpt>
      <trkpt lat="48.749548" lon="2.368946"></trkpt>
      <trkpt lat="48.750466" lon="2.369078"></trkpt>
      <trkpt lat="48.751801" lon="2.36903"></trkpt>
      <trkpt lat="48.75212" lon="2.369157"></trkpt>
      <trkpt lat="48.753049" lon="2.370351"></trkpt>
      <trkpt lat="48.753352" lon="2.370849"></trkpt>
      <trkpt lat="48.753542" lon="2.371636"></trkpt>
      <trkpt lat="48.75324" lon="2.377202"></trkpt>
      <trkpt lat="48.753466" lon="2.37932"></trkpt>
      <trkpt lat="48.753673" lon="2.380005"></trkpt>
      <trkpt lat="48.754565" lon="2.381971"></trkpt>
      <trkpt lat="48.755307" lon="2.382975"></trkpt>
      <trkpt lat="48.75593" lon="2.38353"></trkpt>
      <trkpt lat="48.756731" lon="2.38394"></trkpt>
      <trkpt lat="48.757397" lon="2.384112"></trkpt>
      <trkpt lat="48.758242" lon="2.384139"></trkpt>
      <trkpt lat="48.758966" lon="2.383923"></trkpt>
      <trkpt lat="48.766521" lon="2.378938"></trkpt>
      <trkpt lat="48.767094" lon="2.37871"></trkpt>
      <trkpt lat="48.767646" lon="2.378655"></trkpt>
      <trkpt lat="48.768219" lon="2.378796"></trkpt>
      <trkpt lat="48.768812" lon="2.37916"></trkpt>
      <trkpt lat="48.769227" lon="2.379618"></trkpt>
      <trkpt lat="48.769783" lon="2.380646"></trkpt>
      <trkpt lat="48.770009" lon="2.381454"></trkpt>
      <trkpt lat="48.771719" lon="2.394563"></trkpt>
      <trkpt lat="48.773715" lon="2.402757"></trkpt>
      <trkpt lat="48.773939" lon="2.404513"></trkpt>
      <trkpt lat="48.774017" lon="2.407874"></trkpt>
      <trkpt lat="48.774223" lon="2.409569"></trkpt>
      <trkpt lat="48.774894" lon="2.411596"></trkpt>
      <trkpt lat="48.776123" lon="2.414542"></trkpt>
      <trkpt lat="48.776597" lon="2.416541"></trkpt>
      <trkpt lat="48.776633" lon="2.418343"></trkpt>
      <trkpt lat="48.776015" lon="2.42715"></trkpt>
      <trkpt lat="48.776382" lon="2.436456"></trkpt>
      <trkpt lat="48.77664" lon="2.438043"></trkpt>
      <trkpt lat="48.777115" lon="2.439317"></trkpt>
      <trkpt lat="48.777889" lon="2.440442"></trkpt>
      <trkpt lat="48.778597" lon="2.441027"></trkpt>
      <trkpt lat="48.779597" lon="2.441422"></trkpt>
      <trkpt lat="48.780143" lon="2.441449"></trkpt>
      <trkpt lat="48.785952" lon="2.440289"></trkpt>
      <trkpt lat="48.787427" lon="2.440273"></trkpt>
      <trkpt lat="48.789263" lon="2.440436"></trkpt>
      <trkpt lat="48.79196" lon="2.441088"></trkpt>
      <trkpt lat="48.794139" lon="2.442646"></trkpt>
      <trkpt lat="48.795983" lon="2.443484"></trkpt>
      <trkpt lat="48.797995" lon="2.444899"></trkpt>
      <trkpt lat="48.800712" lon="2.447313"></trkpt>
      <trkpt lat="48.801002" lon="2.448138"></trkpt>
      <trkpt lat="48.801512" lon="2.448768"></trkpt>
      <trkpt lat="48.801986" lon="2.448116"></trkpt>
      <trkpt lat="48.803437" lon="2.445456"></trkpt>
      <trkpt lat="48.813679" lon="2.426093"></trkpt>
      <trkpt lat="48.815395" lon="2.420773"></trkpt>
      <trkpt lat="48.815423" lon="2.420442"></trkpt>
      <trkpt lat="48.81525" lon="2.419986"></trkpt>
      <trkpt lat="48.815044" lon="2.41866"></trkpt>
      <trkpt lat="48.815291" lon="2.420504"></trkpt>
      <trkpt lat="48.816234" lon="2.419882"></trkpt>
      <trkpt lat="48.817286" lon="2.419795"></trkpt>
      <trkpt lat="48.817372" lon="2.422382"></trkpt>
      <trkpt lat="48.817128" lon="2.425452"></trkpt>
      <trkpt lat="48.81739" lon="2.438049"></trkpt>
      <trkpt lat="48.816649" lon="2.444767"></trkpt>
      <trkpt lat="48.816296" lon="2.445874"></trkpt>
      <trkpt lat="48.815612" lon="2.447002"></trkpt>
      <trkpt lat="48.815064" lon="2.447531"></trkpt>
      <trkpt lat="48.814021" lon="2.448156"></trkpt>
      <trkpt lat="48.811795" lon="2.448895"></trkpt>
      <trkpt lat="48.806022" lon="2.448657"></trkpt>
      <trkpt lat="48.804257" lon="2.448433"></trkpt>
      <trkpt lat="48.802852" lon="2.447965"></trkpt>
      <trkpt lat="48.801242" lon="2.44707"></trkpt>
      <trkpt lat="48.799769" lon="2.445943"></trkpt>
      <trkpt lat="48.797601" lon="2.444016"></trkpt>
      <trkpt lat="48.795065" lon="2.442299"></trkpt>
      <trkpt lat="48.793521" lon="2.441498"></trkpt>
      <trkpt lat="48.791657" lon="2.440773"></trkpt>
      <trkpt lat="48.789462" lon="2.440225"></trkpt>
      <trkpt lat="48.787944" lon="2.440051"></trkpt>
      <trkpt lat="48.786282" lon="2.440033"></trkpt>
      <trkpt lat="48.784079" lon="2.440327"></trkpt>
      <trkpt lat="48.780628" lon="2.441151"></trkpt>
      <trkpt lat="48.779875" lon="2.441228"></trkpt>
      <trkpt lat="48.779161" lon="2.441076"></trkpt>
      <trkpt lat="48.778673" lon="2.440838"></trkpt>
      <trkpt lat="48.777967" lon="2.44025"></trkpt>
      <trkpt lat="48.777367" lon="2.439434"></trkpt>
      <trkpt lat="48.776869" lon="2.438351"></trkpt>
      <trkpt lat="48.776568" lon="2.437198"></trkpt>
      <trkpt lat="48.776477" lon="2.436267"></trkpt>
      <trkpt lat="48.77614" lon="2.427086"></trkpt>
      <trkpt lat="48.77675" lon="2.418441"></trkpt>
      <trkpt lat="48.776707" lon="2.416516"></trkpt>
      <trkpt lat="48.776245" lon="2.414526"></trkpt>
      <trkpt lat="48.774656" lon="2.410633"></trkpt>
      <trkpt lat="48.774342" lon="2.409559"></trkpt>
      <trkpt lat="48.774183" lon="2.408392"></trkpt>
      <trkpt lat="48.774064" lon="2.404474"></trkpt>
      <trkpt lat="48.773845" lon="2.402754"></trkpt>
      <trkpt lat="48.773123" lon="2.399529"></trkpt>
      <trkpt lat="48.772412" lon="2.397073"></trkpt>
      <trkpt lat="48.771871" lon="2.394514"></trkpt>
      <trkpt lat="48.770136" lon="2.381354"></trkpt>
      <trkpt lat="48.769726" lon="2.380142"></trkpt>
      <trkpt lat="48.769317" lon="2.379474"></trkpt>
      <trkpt lat="48.76889" lon="2.37901"></trkpt>
      <trkpt lat="48.768244" lon="2.378598"></trkpt>
      <trkpt lat="48.767647" lon="2.378438"></trkpt>
      <trkpt lat="48.766799" lon="2.378556"></trkpt>
      <trkpt lat="48.759197" lon="2.3836"></trkpt>
      <trkpt lat="48.758012" lon="2.383942"></trkpt>
      <trkpt lat="48.757175" lon="2.383888"></trkpt>
      <trkpt lat="48.756707" lon="2.383639"></trkpt>
      <trkpt lat="48.756105" lon="2.383204"></trkpt>
      <trkpt lat="48.755008" lon="2.381874"></trkpt>
      <trkpt lat="48.753872" lon="2.379304"></trkpt>
      <trkpt lat="48.753532" lon="2.378197"></trkpt>
      <trkpt lat="48.753524" lon="2.376106"></trkpt>
      <trkpt lat="48.753962" lon="2.370816"></trkpt>
      <trkpt lat="48.753915" lon="2.367997"></trkpt>
      <trkpt lat="48.754025" lon="2.367569"></trkpt>
      <trkpt lat="48.754175" lon="2.367406"></trkpt>
      <trkpt lat="48.754344" lon="2.367408"></trkpt>
      <trkpt lat="48.754605" lon="2.367683"></trkpt>
      <trkpt lat="48.754895" lon="2.368251"></trkpt>
      <trkpt lat="48.75482" lon="2.368555"></trkpt>
      <trkpt lat="48.754572" lon="2.368749"></trkpt>
      <trkpt lat="48.75087" lon="2.368946"></trkpt>
      <trkpt lat="48.749275" lon="2.368666"></trkpt>
      <trkpt lat="48.748588" lon="2.368408"></trkpt>
      <trkpt lat="48.747457" lon="2.367699"></trkpt>
      <trkpt lat="48.744375" lon="2.364703"></trkpt>
      <trkpt lat="48.743206" lon="2.364008"></trkpt>
      <trkpt lat="48.7423" lon="2.363686"></trkpt>
      <trkpt lat="48.740969" lon="2.363538"></trkpt>
      <trkpt lat="48.739396" lon="2.363779"></trkpt>
      <trkpt lat="48.737467" lon="2.364433"></trkpt>
      <trkpt lat="48.733728" lon="2.365994"></trkpt>
      <trkpt lat="48.733137" lon="2.365825"></trkpt>
      <trkpt lat="48.732761" lon="2.365314"></trkpt>
      <trkpt lat="48.732326" lon="2.363613"></trkpt>
      <trkpt lat="48.731944" lon="2.363969"></trkpt>
      <trkpt lat="48.730494" lon="2.364707"></trkpt>
      <trkpt lat="48.73029" lon="2.364904"></trkpt>
      <trkpt lat="48.730035" lon="2.365699"></trkpt>
      <trkpt lat="48.729839" lon="2.365869"></trkpt>
      <trkpt lat="48.729456" lon="2.365805"></trkpt>
      <trkpt lat="48.728788" lon="2.364861"></trkpt>
      <trkpt lat="48.728476" lon="2.364833"></trkpt>
      <trkpt lat="48.728209" lon="2.36521"></trkpt>
      <trkpt lat="48.728248" lon="2.366763"></trkpt>
      <trkpt lat="48.728564" lon="2.368462"></trkpt>
      <trkpt lat="48.729212" lon="2.369521"></trkpt>
      <trkpt lat="48.72925" lon="2.369969"></trkpt>
  </trkseg></trk>
</gpx>
