<?xml version="1.0" encoding="UTF-8"?>
<gpx version="1.1" creator="yatutbuv" xmlns="http://www.topografix.com/GPX/1/1">
  <trk><name>GraphHopper Track</name><trkseg>
      <trkpt lat="41.610697" lon="41.601988"></trkpt>
      <trkpt lat="41.611084" lon="41.600937"></trkpt>
      <trkpt lat="41.611929" lon="41.599591"></trkpt>
      <trkpt lat="41.61284" lon="41.59681"></trkpt>
      <trkpt lat="41.616934" lon="41.590643"></trkpt>
      <trkpt lat="41.6169" lon="41.590336"></trkpt>
      <trkpt lat="41.618382" lon="41.58751"></trkpt>
      <trkpt lat="41.61824" lon="41.58723"></trkpt>
      <trkpt lat="41.616791" lon="41.586277"></trkpt>
      <trkpt lat="41.616269" lon="41.586546"></trkpt>
      <trkpt lat="41.615395" lon="41.587539"></trkpt>
      <trkpt lat="41.613633" lon="41.59004"></trkpt>
      <trkpt lat="41.611137" lon="41.594035"></trkpt>
      <trkpt lat="41.610807" lon="41.594238"></trkpt>
      <trkpt lat="41.602119" lon="41.607582"></trkpt>
      <trkpt lat="41.601551" lon="41.608343"></trkpt>
      <trkpt lat="41.600275" lon="41.609416"></trkpt>
      <trkpt lat="41.599942" lon="41.609479"></trkpt>
      <trkpt lat="41.600336" lon="41.612513"></trkpt>
      <trkpt lat="41.600673" lon="41.613844"></trkpt>
      <trkpt lat="41.600986" lon="41.614475"></trkpt>
      <trkpt lat="41.600268" lon="41.615676"></trkpt>
      <trkpt lat="41.599894" lon="41.61682"></trkpt>
      <trkpt lat="41.599041" lon="41.618325"></trkpt>
      <trkpt lat="41.599267" lon="41.619136"></trkpt>
      <trkpt lat="41.599755" lon="41.620184"></trkpt>
      <trkpt lat="41.601065" lon="41.622243"></trkpt>
      <trkpt lat="41.601255" lon="41.62273"></trkpt>
      <trkpt lat="41.601753" lon="41.623231"></trkpt>
      <trkpt lat="41.60151" lon="41.624085"></trkpt>
      <trkpt lat="41.601896" lon="41.62473"></trkpt>
      <trkpt lat="41.602149" lon="41.625646"></trkpt>
      <trkpt lat="41.602744" lon="41.626675"></trkpt>
      <trkpt lat="41.602134" lon="41.627517"></trkpt>
      <trkpt lat="41.601541" lon="41.628088"></trkpt>
      <trkpt lat="41.601149" lon="41.631186"></trkpt>
      <trkpt lat="41.601457" lon="41.631723"></trkpt>
      <trkpt lat="41.595763" lon="41.640712"></trkpt>
      <trkpt lat="41.594679" lon="41.642145"></trkpt>
      <trkpt lat="41.595214" lon="41.642148"></trkpt>
      <trkpt lat="41.595976" lon="41.64273"></trkpt>
      <trkpt lat="41.596866" lon="41.642585"></trkpt>
      <trkpt lat="41.597161" lon="41.642847"></trkpt>
      <trkpt lat="41.598269" lon="41.645154"></trkpt>
      <trkpt lat="41.600895" lon="41.651505"></trkpt>
      <trkpt lat="41.602284" lon="41.654408"></trkpt>
      <trkpt lat="41.603858" lon="41.656656"></trkpt>
      <trkpt lat="41.604728" lon="41.657585"></trkpt>
      <trkpt lat="41.607144" lon="41.65951"></trkpt>
      <trkpt lat="41.609683" lon="41.660706"></trkpt>
      <trkpt lat="41.610929" lon="41.661048"></trkpt>
      <trkpt lat="41.612414" lon="41.661227"></trkpt>
      <trkpt lat="41.618566" lon="41.660992"></trkpt>
      <trkpt lat="41.619118" lon="41.66109"></trkpt>
      <trkpt lat="41.620669" lon="41.661494"></trkpt>
      <trkpt lat="41.621855" lon="41.66194"></trkpt>
      <trkpt lat="41.623901" lon="41.663107"></trkpt>
      <trkpt lat="41.625279" lon="41.664327"></trkpt>
      <trkpt lat="41.626418" lon="41.665655"></trkpt>
      <trkpt lat="41.627829" lon="41.66792"></trkpt>
      <trkpt lat="41.628592" lon="41.66967"></trkpt>
      <trkpt lat="41.631223" lon="41.67676"></trkpt>
      <trkpt lat="41.632029" lon="41.678583"></trkpt>
      <trkpt lat="41.633101" lon="41.680488"></trkpt>
      <trkpt lat="41.639638" lon="41.689282"></trkpt>
      <trkpt lat="41.641548" lon="41.691438"></trkpt>
      <trkpt lat="41.643566" lon="41.692996"></trkpt>
      <trkpt lat="41.644663" lon="41.693534"></trkpt>
      <trkpt lat="41.646065" lon="41.694041"></trkpt>
      <trkpt lat="41.647513" lon="41.694489"></trkpt>
      <trkpt lat="41.648637" lon="41.694678"></trkpt>
      <trkpt lat="41.653472" lon="41.69507"></trkpt>
      <trkpt lat="41.655807" lon="41.695081"></trkpt>
      <trkpt lat="41.659501" lon="41.694957"></trkpt>
      <trkpt lat="41.663541" lon="41.694598"></trkpt>
      <trkpt lat="41.664995" lon="41.694639"></trkpt>
      <trkpt lat="41.668461" lon="41.69545"></trkpt>
      <trkpt lat="41.669439" lon="41.695983"></trkpt>
      <trkpt lat="41.670739" lon="41.696926"></trkpt>
      <trkpt lat="41.67468" lon="41.701103"></trkpt>
      <trkpt lat="41.677201" lon="41.703402"></trkpt>
      <trkpt lat="41.678722" lon="41.704522"></trkpt>
      <trkpt lat="41.680646" lon="41.705695"></trkpt>
      <trkpt lat="41.683422" lon="41.707083"></trkpt>
      <trkpt lat="41.685317" lon="41.707837"></trkpt>
      <trkpt lat="41.686282" lon="41.708601"></trkpt>
      <trkpt lat="41.687112" lon="41.709507"></trkpt>
      <trkpt lat="41.688211" lon="41.711532"></trkpt>
      <trkpt lat="41.688814" lon="41.713302"></trkpt>
      <trkpt lat="41.689439" lon="41.715721"></trkpt>
      <trkpt lat="41.690188" lon="41.717621"></trkpt>
      <trkpt lat="41.693382" lon="41.724497"></trkpt>
      <trkpt lat="41.694515" lon="41.726038"></trkpt>
      <trkpt lat="41.695324" lon="41.726734"></trkpt>
      <trkpt lat="41.696012" lon="41.727162"></trkpt>
      <trkpt lat="41.698455" lon="41.728181"></trkpt>
      <trkpt lat="41.699198" lon="41.728771"></trkpt>
      <trkpt lat="41.700018" lon="41.729729"></trkpt>
      <trkpt lat="41.70062" lon="41.730775"></trkpt>
      <trkpt lat="41.701836" lon="41.733947"></trkpt>
      <trkpt lat="41.70311" lon="41.736554"></trkpt>
      <trkpt lat="41.703941" lon="41.737854"></trkpt>
      <trkpt lat="41.706772" lon="41.741518"></trkpt>
      <trkpt lat="41.707801" lon="41.743613"></trkpt>
      <trkpt lat="41.709316" lon="41.747445"></trkpt>
      <trkpt lat="41.710189" lon="41.748807"></trkpt>
      <trkpt lat="41.711574" lon="41.750272"></trkpt>
      <trkpt lat="41.712461" lon="41.75091"></trkpt>
      <trkpt lat="41.713824" lon="41.751569"></trkpt>
      <trkpt lat="41.715385" lon="41.751882"></trkpt>
      <trkpt lat="41.71654" lon="41.751856"></trkpt>
      <trkpt lat="41.718101" lon="41.751482"></trkpt>
      <trkpt lat="41.720929" lon="41.749914"></trkpt>
      <trkpt lat="41.721614" lon="41.749634"></trkpt>
      <trkpt lat="41.722427" lon="41.749388"></trkpt>
      <trkpt lat="41.723735" lon="41.749334"></trkpt>
      <trkpt lat="41.724469" lon="41.749413"></trkpt>
      <trkpt lat="41.725764" lon="41.749796"></trkpt>
      <trkpt lat="41.729707" lon="41.752036"></trkpt>
      <trkpt lat="41.73386" lon="41.754483"></trkpt>
      <trkpt lat="41.735294" lon="41.755525"></trkpt>
      <trkpt lat="41.736893" lon="41.757261"></trkpt>
      <trkpt lat="41.738858" lon="41.760328"></trkpt>
      <trkpt lat="41.739798" lon="41.761332"></trkpt>
      <trkpt lat="41.740794" lon="41.762081"></trkpt>
      <trkpt lat="41.742898" lon="41.763035"></trkpt>
      <trkpt lat="41.74377" lon="41.763696"></trkpt>
      <trkpt lat="41.746033" lon="41.765903"></trkpt>
      <trkpt lat="41.747455" lon="41.766807"></trkpt>
      <trkpt lat="41.748805" lon="41.7673"></trkpt>
      <trkpt lat="41.754724" lon="41.76815"></trkpt>
      <trkpt lat="41.755652" lon="41.768461"></trkpt>
      <trkpt lat="41.756645" lon="41.768995"></trkpt>
      <trkpt lat="41.75749" lon="41.769668"></trkpt>
      <trkpt lat="41.760891" lon="41.77325"></trkpt>
      <trkpt lat="41.766271" lon="41.778559"></trkpt>
      <trkpt lat="41.771613" lon="41.784517"></trkpt>
      <trkpt lat="41.77288" lon="41.785542"></trkpt>
      <trkpt lat="41.774083" lon="41.786173"></trkpt>
      <trkpt lat="41.77461" lon="41.786373"></trkpt>
      <trkpt lat="41.775851" lon="41.786588"></trkpt>
      <trkpt lat="41.779603" lon="41.786588"></trkpt>
      <trkpt lat="41.781051" lon="41.786827"></trkpt>
      <trkpt lat="41.78357" lon="41.787442"></trkpt>
      <trkpt lat="41.786979" lon="41.787518"></trkpt>
      <trkpt lat="41.78914" lon="41.788132"></trkpt>
      <trkpt lat="41.790673" lon="41.788713"></trkpt>
      <trkpt lat="41.792008" lon="41.789638"></trkpt>
      <trkpt lat="41.792436" lon="41.790052"></trkpt>
      <trkpt lat="41.797456" lon="41.79564"></trkpt>
      <trkpt lat="41.798729" lon="41.796567"></trkpt>
      <trkpt lat="41.799899" lon="41.797064"></trkpt>
      <trkpt lat="41.801453" lon="41.797212"></trkpt>
      <trkpt lat="41.802491" lon="41.797029"></trkpt>
      <trkpt lat="41.803938" lon="41.796354"></trkpt>
      <trkpt lat="41.805926" lon="41.795072"></trkpt>
      <trkpt lat="41.807065" lon="41.794665"></trkpt>
      <trkpt lat="41.808606" lon="41.794578"></trkpt>
      <trkpt lat="41.809434" lon="41.794759"></trkpt>
      <trkpt lat="41.810414" lon="41.795151"></trkpt>
      <trkpt lat="41.811416" lon="41.795822"></trkpt>
      <trkpt lat="41.812109" lon="41.796466"></trkpt>
      <trkpt lat="41.813035" lon="41.797753"></trkpt>
      <trkpt lat="41.813576" lon="41.798828"></trkpt>
      <trkpt lat="41.814048" lon="41.800235"></trkpt>
      <trkpt lat="41.816127" lon="41.809043"></trkpt>
      <trkpt lat="41.817181" lon="41.811355"></trkpt>
      <trkpt lat="41.818402" lon="41.812923"></trkpt>
      <trkpt lat="41.820329" lon="41.81438"></trkpt>
      <trkpt lat="41.834857" lon="41.823519"></trkpt>
      <trkpt lat="41.850772" lon="41.835749"></trkpt>
      <trkpt lat="41.852281" lon="41.836714"></trkpt>
      <trkpt lat="41.853655" lon="41.837382"></trkpt>
      <trkpt lat="41.85525" lon="41.837949"></trkpt>
      <trkpt lat="41.856699" lon="41.838273"></trkpt>
      <trkpt lat="41.859039" lon="41.838389"></trkpt>
      <trkpt lat="41.860784" lon="41.838197"></trkpt>
      <trkpt lat="41.862953" lon="41.837538"></trkpt>
      <trkpt lat="41.864618" lon="41.836804"></trkpt>
      <trkpt lat="41.866863" lon="41.835283"></trkpt>
      <trkpt lat="41.868269" lon="41.834017"></trkpt>
      <trkpt lat="41.869253" lon="41.832944"></trkpt>
      <trkpt lat="41.894836" lon="41.801888"></trkpt>
      <trkpt lat="41.895308" lon="41.80153"></trkpt>
      <trkpt lat="41.895948" lon="41.801282"></trkpt>
      <trkpt lat="41.899134" lon="41.801226"></trkpt>
      <trkpt lat="41.897336" lon="41.781824"></trkpt>
      <trkpt lat="41.897932" lon="41.778309"></trkpt>
      <trkpt lat="41.898929" lon="41.77368"></trkpt>
      <trkpt lat="41.903116" lon="41.774089"></trkpt>
      <trkpt lat="41.913312" lon="41.774071"></trkpt>
      <trkpt lat="41.91756" lon="41.7744"></trkpt>
      <trkpt lat="41.923132" lon="41.7737"></trkpt>
      <trkpt lat="41.943227" lon="41.770749"></trkpt>
      <trkpt lat="41.943173" lon="41.769075"></trkpt>
      <trkpt lat="41.94328" lon="41.768866"></trkpt>
      <trkpt lat="41.945782" lon="41.768408"></trkpt>
      <trkpt lat="41.946834" lon="41.768359"></trkpt>
      <trkpt lat="41.947195" lon="41.768467"></trkpt>
      <trkpt lat="41.948781" lon="41.768265"></trkpt>
      <trkpt lat="41.949834" lon="41.767799"></trkpt>
      <trkpt lat="41.952372" lon="41.767549"></trkpt>
      <trkpt lat="41.952817" lon="41.767598"></trkpt>
      <trkpt lat="41.953017" lon="41.766948"></trkpt>
      <trkpt lat="41.95365" lon="41.766018"></trkpt>
      <trkpt lat="41.95358" lon="41.765078"></trkpt>
      <trkpt lat="41.953629" lon="41.766095"></trkpt>
      <trkpt lat="41.953017" lon="41.766948"></trkpt>
      <trkpt lat="41.952817" lon="41.767598"></trkpt>
      <trkpt lat="41.952372" lon="41.767549"></trkpt>
      <trkpt lat="41.949834" lon="41.767799"></trkpt>
      <trkpt lat="41.94896" lon="41.768163"></trkpt>
      <trkpt lat="41.947205" lon="41.768389"></trkpt>
      <trkpt lat="41.945782" lon="41.768408"></trkpt>
      <trkpt lat="41.94328" lon="41.768866"></trkpt>
      <trkpt lat="41.943173" lon="41.769075"></trkpt>
      <trkpt lat="41.943227" lon="41.770749"></trkpt>
      <trkpt lat="41.919301" lon="41.774206"></trkpt>
      <trkpt lat="41.91756" lon="41.7744"></trkpt>
      <trkpt lat="41.915854" lon="41.774241"></trkpt>
      <trkpt lat="41.915765" lon="41.774559"></trkpt>
      <trkpt lat="41.915058" lon="41.774211"></trkpt>
      <trkpt lat="41.91756" lon="41.7744"></trkpt>
      <trkpt lat="41.918375" lon="41.774315"></trkpt>
      <trkpt lat="41.91886" lon="41.774572"></trkpt>
      <trkpt lat="41.91894" lon="41.775197"></trkpt>
      <trkpt lat="41.918786" lon="41.775496"></trkpt>
      <trkpt lat="41.918485" lon="41.775742"></trkpt>
      <trkpt lat="41.916715" lon="41.776776"></trkpt>
      <trkpt lat="41.914783" lon="41.77819"></trkpt>
      <trkpt lat="41.911464" lon="41.781315"></trkpt>
      <trkpt lat="41.887386" lon="41.811025"></trkpt>
      <trkpt lat="41.869253" lon="41.832944"></trkpt>
      <trkpt lat="41.868269" lon="41.834017"></trkpt>
      <trkpt lat="41.866198" lon="41.835792"></trkpt>
      <trkpt lat="41.864618" lon="41.836804"></trkpt>
      <trkpt lat="41.861836" lon="41.837942"></trkpt>
      <trkpt lat="41.859897" lon="41.838312"></trkpt>
      <trkpt lat="41.85767" lon="41.83837"></trkpt>
      <trkpt lat="41.856699" lon="41.838273"></trkpt>
      <trkpt lat="41.854429" lon="41.837698"></trkpt>
      <trkpt lat="41.852281" lon="41.836714"></trkpt>
      <trkpt lat="41.850772" lon="41.835749"></trkpt>
      <trkpt lat="41.834857" lon="41.823519"></trkpt>
      <trkpt lat="41.820329" lon="41.81438"></trkpt>
      <trkpt lat="41.818402" lon="41.812923"></trkpt>
      <trkpt lat="41.817181" lon="41.811355"></trkpt>
      <trkpt lat="41.816127" lon="41.809043"></trkpt>
      <trkpt lat="41.814048" lon="41.800235"></trkpt>
      <trkpt lat="41.813576" lon="41.798828"></trkpt>
      <trkpt lat="41.813035" lon="41.797753"></trkpt>
      <trkpt lat="41.812109" lon="41.796466"></trkpt>
      <trkpt lat="41.811416" lon="41.795822"></trkpt>
      <trkpt lat="41.810414" lon="41.795151"></trkpt>
      <trkpt lat="41.809434" lon="41.794759"></trkpt>
      <trkpt lat="41.808606" lon="41.794578"></trkpt>
      <trkpt lat="41.807065" lon="41.794665"></trkpt>
      <trkpt lat="41.805926" lon="41.795072"></trkpt>
      <trkpt lat="41.803938" lon="41.796354"></trkpt>
      <trkpt lat="41.802491" lon="41.797029"></trkpt>
      <trkpt lat="41.801453" lon="41.797212"></trkpt>
      <trkpt lat="41.799899" lon="41.797064"></trkpt>
      <trkpt lat="41.798729" lon="41.796567"></trkpt>
      <trkpt lat="41.797456" lon="41.79564"></trkpt>
      <trkpt lat="41.792436" lon="41.790052"></trkpt>
      <trkpt lat="41.792008" lon="41.789638"></trkpt>
      <trkpt lat="41.790673" lon="41.788713"></trkpt>
      <trkpt lat="41.78914" lon="41.788132"></trkpt>
      <trkpt lat="41.786979" lon="41.787518"></trkpt>
      <trkpt lat="41.78357" lon="41.787442"></trkpt>
      <trkpt lat="41.781051" lon="41.786827"></trkpt>
      <trkpt lat="41.779603" lon="41.786588"></trkpt>
      <trkpt lat="41.775851" lon="41.786588"></trkpt>
      <trkpt lat="41.77461" lon="41.786373"></trkpt>
      <trkpt lat="41.774083" lon="41.786173"></trkpt>
      <trkpt lat="41.77288" lon="41.785542"></trkpt>
      <trkpt lat="41.771613" lon="41.784517"></trkpt>
      <trkpt lat="41.766271" lon="41.778559"></trkpt>
      <trkpt lat="41.760891" lon="41.77325"></trkpt>
      <trkpt lat="41.75749" lon="41.769668"></trkpt>
      <trkpt lat="41.756645" lon="41.768995"></trkpt>
      <trkpt lat="41.755652" lon="41.768461"></trkpt>
      <trkpt lat="41.754724" lon="41.76815"></trkpt>
      <trkpt lat="41.748805" lon="41.7673"></trkpt>
      <trkpt lat="41.747455" lon="41.766807"></trkpt>
      <trkpt lat="41.746033" lon="41.765903"></trkpt>
      <trkpt lat="41.74377" lon="41.763696"></trkpt>
      <trkpt lat="41.742898" lon="41.763035"></trkpt>
      <trkpt lat="41.740794" lon="41.762081"></trkpt>
      <trkpt lat="41.739798" lon="41.761332"></trkpt>
      <trkpt lat="41.738858" lon="41.760328"></trkpt>
      <trkpt lat="41.736893" lon="41.757261"></trkpt>
      <trkpt lat="41.735294" lon="41.755525"></trkpt>
      <trkpt lat="41.73386" lon="41.754483"></trkpt>
      <trkpt lat="41.729707" lon="41.752036"></trkpt>
      <trkpt lat="41.725764" lon="41.749796"></trkpt>
      <trkpt lat="41.724469" lon="41.749413"></trkpt>
      <trkpt lat="41.723735" lon="41.749334"></trkpt>
      <trkpt lat="41.722427" lon="41.749388"></trkpt>
      <trkpt lat="41.721614" lon="41.749634"></trkpt>
      <trkpt lat="41.720929" lon="41.749914"></trkpt>
      <trkpt lat="41.718101" lon="41.751482"></trkpt>
      <trkpt lat="41.71654" lon="41.751856"></trkpt>
      <trkpt lat="41.715385" lon="41.751882"></trkpt>
      <trkpt lat="41.713824" lon="41.751569"></trkpt>
      <trkpt lat="41.712461" lon="41.75091"></trkpt>
      <trkpt lat="41.711574" lon="41.750272"></trkpt>
      <trkpt lat="41.710189" lon="41.748807"></trkpt>
      <trkpt lat="41.709316" lon="41.747445"></trkpt>
      <trkpt lat="41.707801" lon="41.743613"></trkpt>
      <trkpt lat="41.706772" lon="41.741518"></trkpt>
      <trkpt lat="41.703941" lon="41.737854"></trkpt>
      <trkpt lat="41.70311" lon="41.736554"></trkpt>
      <trkpt lat="41.702062" lon="41.734411"></trkpt>
      <trkpt lat="41.700891" lon="41.731137"></trkpt>
      <trkpt lat="41.700075" lon="41.729627"></trkpt>
      <trkpt lat="41.69923" lon="41.728648"></trkpt>
      <trkpt lat="41.69855" lon="41.728109"></trkpt>
      <trkpt lat="41.697876" lon="41.727735"></trkpt>
      <trkpt lat="41.696018" lon="41.727027"></trkpt>
      <trkpt lat="41.69532" lon="41.726578"></trkpt>
      <trkpt lat="41.694613" lon="41.725917"></trkpt>
      <trkpt lat="41.694015" lon="41.725123"></trkpt>
      <trkpt lat="41.693603" lon="41.724419"></trkpt>
      <trkpt lat="41.689829" lon="41.71628"></trkpt>
      <trkpt lat="41.689205" lon="41.714582"></trkpt>
      <trkpt lat="41.688718" lon="41.712667"></trkpt>
      <trkpt lat="41.688239" lon="41.711484"></trkpt>
      <trkpt lat="41.687112" lon="41.709507"></trkpt>
      <trkpt lat="41.68669" lon="41.708994"></trkpt>
      <trkpt lat="41.685317" lon="41.707837"></trkpt>
      <trkpt lat="41.683422" lon="41.707083"></trkpt>
      <trkpt lat="41.680646" lon="41.705695"></trkpt>
      <trkpt lat="41.678722" lon="41.704522"></trkpt>
      <trkpt lat="41.677201" lon="41.703402"></trkpt>
      <trkpt lat="41.67468" lon="41.701103"></trkpt>
      <trkpt lat="41.670739" lon="41.696926"></trkpt>
      <trkpt lat="41.669439" lon="41.695983"></trkpt>
      <trkpt lat="41.668461" lon="41.69545"></trkpt>
      <trkpt lat="41.664995" lon="41.694639"></trkpt>
      <trkpt lat="41.663541" lon="41.694598"></trkpt>
      <trkpt lat="41.659501" lon="41.694957"></trkpt>
      <trkpt lat="41.655807" lon="41.695081"></trkpt>
      <trkpt lat="41.653472" lon="41.69507"></trkpt>
      <trkpt lat="41.648637" lon="41.694678"></trkpt>
      <trkpt lat="41.647513" lon="41.694489"></trkpt>
      <trkpt lat="41.644663" lon="41.693534"></trkpt>
      <trkpt lat="41.643566" lon="41.692996"></trkpt>
      <trkpt lat="41.642202" lon="41.691986"></trkpt>
      <trkpt lat="41.641222" lon="41.691103"></trkpt>
      <trkpt lat="41.638912" lon="41.688372"></trkpt>
      <trkpt lat="41.633101" lon="41.680488"></trkpt>
      <trkpt lat="41.632029" lon="41.678583"></trkpt>
      <trkpt lat="41.631223" lon="41.67676"></trkpt>
      <trkpt lat="41.628592" lon="41.66967"></trkpt>
      <trkpt lat="41.627829" lon="41.66792"></trkpt>
      <trkpt lat="41.626418" lon="41.665655"></trkpt>
      <trkpt lat="41.625279" lon="41.664327"></trkpt>
      <trkpt lat="41.623901" lon="41.663107"></trkpt>
      <trkpt lat="41.621855" lon="41.66194"></trkpt>
      <trkpt lat="41.620669" lon="41.661494"></trkpt>
      <trkpt lat="41.619118" lon="41.66109"></trkpt>
      <trkpt lat="41.618566" lon="41.660992"></trkpt>
      <trkpt lat="41.612414" lon="41.661227"></trkpt>
      <trkpt lat="41.610929" lon="41.661048"></trkpt>
      <trkpt lat="41.609683" lon="41.660706"></trkpt>
      <trkpt lat="41.607144" lon="41.65951"></trkpt>
      <trkpt lat="41.604728" lon="41.657585"></trkpt>
      <trkpt lat="41.603858" lon="41.656656"></trkpt>
      <trkpt lat="41.602284" lon="41.654408"></trkpt>
      <trkpt lat="41.601641" lon="41.653095"></trkpt>
      <trkpt lat="41.598269" lon="41.645154"></trkpt>
      <trkpt lat="41.595843" lon="41.639846"></trkpt>
      <trkpt lat="41.595566" lon="41.638766"></trkpt>
      <trkpt lat="41.595652" lon="41.638473"></trkpt>
      <trkpt lat="41.596003" lon="41.638164"></trkpt>
      <trkpt lat="41.596331" lon="41.638202"></trkpt>
      <trkpt lat="41.596591" lon="41.63848"></trkpt>
      <trkpt lat="41.596677" lon="41.638945"></trkpt>
      <trkpt lat="41.596589" lon="41.639416"></trkpt>
      <trkpt lat="41.595015" lon="41.641759"></trkpt>
      <trkpt lat="41.576705" lon="41.660478"></trkpt>
      <trkpt lat="41.57646" lon="41.661131"></trkpt>
      <trkpt lat="41.576352" lon="41.664451"></trkpt>
      <trkpt lat="41.576185" lon="41.664935"></trkpt>
      <trkpt lat="41.576073" lon="41.665014"></trkpt>
      <trkpt lat="41.5745" lon="41.665007"></trkpt>
      <trkpt lat="41.573862" lon="41.665178"></trkpt>
      <trkpt lat="41.57292" lon="41.66571"></trkpt>
      <trkpt lat="41.572245" lon="41.6664"></trkpt>
      <trkpt lat="41.571319" lon="41.666996"></trkpt>
      <trkpt lat="41.571065" lon="41.66709"></trkpt>
      <trkpt lat="41.570627" lon="41.667059"></trkpt>
      <trkpt lat="41.570026" lon="41.667311"></trkpt>
      <trkpt lat="41.569361" lon="41.668016"></trkpt>
      <trkpt lat="41.56892" lon="41.66887"></trkpt>
      <trkpt lat="41.568767" lon="41.669579"></trkpt>
      <trkpt lat="41.568788" lon="41.671088"></trkpt>
      <trkpt lat="41.569106" lon="41.673111"></trkpt>
      <trkpt lat="41.56905" lon="41.674149"></trkpt>
      <trkpt lat="41.569243" lon="41.676323"></trkpt>
      <trkpt lat="41.569246" lon="41.678221"></trkpt>
      <trkpt lat="41.568848" lon="41.679951"></trkpt>
      <trkpt lat="41.568356" lon="41.681232"></trkpt>
      <trkpt lat="41.567884" lon="41.683805"></trkpt>
      <trkpt lat="41.567627" lon="41.684521"></trkpt>
      <trkpt lat="41.566776" lon="41.686104"></trkpt>
      <trkpt lat="41.565737" lon="41.690074"></trkpt>
      <trkpt lat="41.565342" lon="41.690852"></trkpt>
      <trkpt lat="41.565081" lon="41.691323"></trkpt>
      <trkpt lat="41.564231" lon="41.692208"></trkpt>
      <trkpt lat="41.563089" lon="41.692971"></trkpt>
      <trkpt lat="41.562357" lon="41.693099"></trkpt>
      <trkpt lat="41.560208" lon="41.692889"></trkpt>
      <trkpt lat="41.558658" lon="41.693054"></trkpt>
      <trkpt lat="41.557985" lon="41.693024"></trkpt>
      <trkpt lat="41.556766" lon="41.692689"></trkpt>
      <trkpt lat="41.555054" lon="41.692424"></trkpt>
      <trkpt lat="41.553974" lon="41.6931"></trkpt>
      <trkpt lat="41.552208" lon="41.695015"></trkpt>
      <trkpt lat="41.551736" lon="41.695764"></trkpt>
      <trkpt lat="41.55147" lon="41.696525"></trkpt>
      <trkpt lat="41.551258" lon="41.697833"></trkpt>
      <trkpt lat="41.551438" lon="41.698891"></trkpt>
      <trkpt lat="41.551416" lon="41.701023"></trkpt>
      <trkpt lat="41.5511" lon="41.702659"></trkpt>
      <trkpt lat="41.550506" lon="41.704129"></trkpt>
      <trkpt lat="41.549927" lon="41.704873"></trkpt>
      <trkpt lat="41.54926" lon="41.705314"></trkpt>
      <trkpt lat="41.545973" lon="41.706128"></trkpt>
      <trkpt lat="41.545393" lon="41.706411"></trkpt>
      <trkpt lat="41.545252" lon="41.706649"></trkpt>
      <trkpt lat="41.545189" lon="41.707076"></trkpt>
      <trkpt lat="41.545376" lon="41.708225"></trkpt>
      <trkpt lat="41.545799" lon="41.709645"></trkpt>
      <trkpt lat="41.545706" lon="41.711501"></trkpt>
      <trkpt lat="41.544697" lon="41.714636"></trkpt>
      <trkpt lat="41.543688" lon="41.715692"></trkpt>
      <trkpt lat="41.543412" lon="41.716117"></trkpt>
      <trkpt lat="41.543282" lon="41.717341"></trkpt>
      <trkpt lat="41.542759" lon="41.718422"></trkpt>
      <trkpt lat="41.542556" lon="41.719204"></trkpt>
      <trkpt lat="41.543319" lon="41.722013"></trkpt>
      <trkpt lat="41.543755" lon="41.722844"></trkpt>
      <trkpt lat="41.543707" lon="41.723321"></trkpt>
      <trkpt lat="41.542981" lon="41.724623"></trkpt>
      <trkpt lat="41.542949" lon="41.72519"></trkpt>
      <trkpt lat="41.543088" lon="41.725902"></trkpt>
      <trkpt lat="41.544092" lon="41.728934"></trkpt>
      <trkpt lat="41.544667" lon="41.729781"></trkpt>
      <trkpt lat="41.545291" lon="41.730423"></trkpt>
      <trkpt lat="41.545594" lon="41.730976"></trkpt>
      <trkpt lat="41.545805" lon="41.731743"></trkpt>
      <trkpt lat="41.545898" lon="41.732647"></trkpt>
      <trkpt lat="41.545826" lon="41.735248"></trkpt>
      <trkpt lat="41.545967" lon="41.736504"></trkpt>
      <trkpt lat="41.547305" lon="41.739784"></trkpt>
      <trkpt lat="41.548108" lon="41.743506"></trkpt>
      <trkpt lat="41.547716" lon="41.745469"></trkpt>
      <trkpt lat="41.547059" lon="41.747827"></trkpt>
      <trkpt lat="41.546226" lon="41.750259"></trkpt>
      <trkpt lat="41.545607" lon="41.751533"></trkpt>
      <trkpt lat="41.545472" lon="41.752621"></trkpt>
      <trkpt lat="41.54576" lon="41.753708"></trkpt>
      <trkpt lat="41.546864" lon="41.754852"></trkpt>
      <trkpt lat="41.54737" lon="41.755576"></trkpt>
      <trkpt lat="41.548223" lon="41.757921"></trkpt>
      <trkpt lat="41.548268" lon="41.758305"></trkpt>
      <trkpt lat="41.546475" lon="41.762122"></trkpt>
      <trkpt lat="41.545173" lon="41.765431"></trkpt>
      <trkpt lat="41.544916" lon="41.766342"></trkpt>
      <trkpt lat="41.544934" lon="41.767703"></trkpt>
      <trkpt lat="41.544714" lon="41.768243"></trkpt>
      <trkpt lat="41.544212" lon="41.768887"></trkpt>
      <trkpt lat="41.543858" lon="41.769753"></trkpt>
      <trkpt lat="41.543888" lon="41.770321"></trkpt>
      <trkpt lat="41.544106" lon="41.771091"></trkpt>
      <trkpt lat="41.545124" lon="41.77418"></trkpt>
      <trkpt lat="41.545583" lon="41.776791"></trkpt>
      <trkpt lat="41.546294" lon="41.777648"></trkpt>
      <trkpt lat="41.546618" lon="41.778781"></trkpt>
      <trkpt lat="41.546708" lon="41.779848"></trkpt>
      <trkpt lat="41.54663" lon="41.780403"></trkpt>
      <trkpt lat="41.546037" lon="41.782024"></trkpt>
      <trkpt lat="41.545374" lon="41.785818"></trkpt>
      <trkpt lat="41.545713" lon="41.787537"></trkpt>
      <trkpt lat="41.545514" lon="41.787834"></trkpt>
      <trkpt lat="41.544713" lon="41.787793"></trkpt>
      <trkpt lat="41.54436" lon="41.787876"></trkpt>
      <trkpt lat="41.544252" lon="41.788089"></trkpt>
      <trkpt lat="41.544264" lon="41.788447"></trkpt>
      <trkpt lat="41.545744" lon="41.789329"></trkpt>
      <trkpt lat="41.546737" lon="41.791042"></trkpt>
      <trkpt lat="41.547369" lon="41.792254"></trkpt>
      <trkpt lat="41.548391" lon="41.795725"></trkpt>
      <trkpt lat="41.548831" lon="41.79661"></trkpt>
      <trkpt lat="41.549194" lon="41.79784"></trkpt>
      <trkpt lat="41.549463" lon="41.798272"></trkpt>
      <trkpt lat="41.549658" lon="41.798448"></trkpt>
      <trkpt lat="41.550441" lon="41.798604"></trkpt>
      <trkpt lat="41.550888" lon="41.798914"></trkpt>
      <trkpt lat="41.55286" lon="41.802216"></trkpt>
      <trkpt lat="41.553438" lon="41.802804"></trkpt>
      <trkpt lat="41.554532" lon="41.802934"></trkpt>
      <trkpt lat="41.555062" lon="41.803255"></trkpt>
      <trkpt lat="41.555921" lon="41.804908"></trkpt>
      <trkpt lat="41.556593" lon="41.807728"></trkpt>
      <trkpt lat="41.55667" lon="41.808639"></trkpt>
      <trkpt lat="41.556966" lon="41.809616"></trkpt>
      <trkpt lat="41.557031" lon="41.810491"></trkpt>
      <trkpt lat="41.557686" lon="41.811314"></trkpt>
      <trkpt lat="41.558637" lon="41.812948"></trkpt>
      <trkpt lat="41.55917" lon="41.814576"></trkpt>
      <trkpt lat="41.559533" lon="41.816198"></trkpt>
      <trkpt lat="41.559578" lon="41.817084"></trkpt>
      <trkpt lat="41.559202" lon="41.818283"></trkpt>
      <trkpt lat="41.559401" lon="41.822207"></trkpt>
      <trkpt lat="41.55962" lon="41.822956"></trkpt>
      <trkpt lat="41.560048" lon="41.823388"></trkpt>
      <trkpt lat="41.560839" lon="41.823383"></trkpt>
      <trkpt lat="41.561781" lon="41.823758"></trkpt>
      <trkpt lat="41.564653" lon="41.826359"></trkpt>
      <trkpt lat="41.565178" lon="41.827046"></trkpt>
      <trkpt lat="41.565592" lon="41.827918"></trkpt>
      <trkpt lat="41.565813" lon="41.828664"></trkpt>
      <trkpt lat="41.565894" lon="41.829551"></trkpt>
      <trkpt lat="41.565271" lon="41.832252"></trkpt>
      <trkpt lat="41.565407" lon="41.833054"></trkpt>
      <trkpt lat="41.566061" lon="41.834068"></trkpt>
      <trkpt lat="41.566495" lon="41.835386"></trkpt>
      <trkpt lat="41.566575" lon="41.835885"></trkpt>
      <trkpt lat="41.566393" lon="41.837818"></trkpt>
      <trkpt lat="41.56701" lon="41.840664"></trkpt>
      <trkpt lat="41.567667" lon="41.842608"></trkpt>
      <trkpt lat="41.568134" lon="41.843554"></trkpt>
      <trkpt lat="41.569328" lon="41.845163"></trkpt>
      <trkpt lat="41.569641" lon="41.8458"></trkpt>
      <trkpt lat="41.569704" lon="41.847737"></trkpt>
      <trkpt lat="41.570256" lon="41.849084"></trkpt>
      <trkpt lat="41.570819" lon="41.851085"></trkpt>
      <trkpt lat="41.570798" lon="41.852294"></trkpt>
      <trkpt lat="41.570619" lon="41.85301"></trkpt>
      <trkpt lat="41.570244" lon="41.853784"></trkpt>
      <trkpt lat="41.57028" lon="41.854264"></trkpt>
      <trkpt lat="41.570741" lon="41.855025"></trkpt>
      <trkpt lat="41.572389" lon="41.856479"></trkpt>
      <trkpt lat="41.572734" lon="41.856983"></trkpt>
      <trkpt lat="41.572823" lon="41.857457"></trkpt>
      <trkpt lat="41.572363" lon="41.858404"></trkpt>
  </trkseg></trk>
</gpx>
