<?xml version="1.0" encoding="UTF-8"?>
<gpx version="1.1" creator="yatutbuv" xmlns="http://www.topografix.com/GPX/1/1">
  <trk><name>GraphHopper Track</name><trkseg>
      <trkpt lat="48.55448" lon="-1.50981"></trkpt>
      <trkpt lat="48.554511" lon="-1.510229"></trkpt>
      <trkpt lat="48.555216" lon="-1.510174"></trkpt>
      <trkpt lat="48.556151" lon="-1.509819"></trkpt>
      <trkpt lat="48.556442" lon="-1.509836"></trkpt>
      <trkpt lat="48.556703" lon="-1.509315"></trkpt>
      <trkpt lat="48.557358" lon="-1.509278"></trkpt>
      <trkpt lat="48.55745" lon="-1.509115"></trkpt>
      <trkpt lat="48.557815" lon="-1.509263"></trkpt>
      <trkpt lat="48.561143" lon="-1.509414"></trkpt>
      <trkpt lat="48.561692" lon="-1.509548"></trkpt>
      <trkpt lat="48.56254" lon="-1.50996"></trkpt>
      <trkpt lat="48.563311" lon="-1.510655"></trkpt>
      <trkpt lat="48.564105" lon="-1.511608"></trkpt>
      <trkpt lat="48.56528" lon="-1.512466"></trkpt>
      <trkpt lat="48.566153" lon="-1.512707"></trkpt>
      <trkpt lat="48.567526" lon="-1.512831"></trkpt>
      <trkpt lat="48.577775" lon="-1.512447"></trkpt>
      <trkpt lat="48.583845" lon="-1.511434"></trkpt>
      <trkpt lat="48.590046" lon="-1.509954"></trkpt>
      <trkpt lat="48.590982" lon="-1.510081"></trkpt>
      <trkpt lat="48.592533" lon="-1.510563"></trkpt>
      <trkpt lat="48.593128" lon="-1.510948"></trkpt>
      <trkpt lat="48.594367" lon="-1.512063"></trkpt>
      <trkpt lat="48.594688" lon="-1.512209"></trkpt>
      <trkpt lat="48.595801" lon="-1.512421"></trkpt>
      <trkpt lat="48.597987" lon="-1.513072"></trkpt>
      <trkpt lat="48.599647" lon="-1.513041"></trkpt>
      <trkpt lat="48.604388" lon="-1.511601"></trkpt>
      <trkpt lat="48.608045" lon="-1.510216"></trkpt>
      <trkpt lat="48.608157" lon="-1.509834"></trkpt>
      <trkpt lat="48.607955" lon="-1.508233"></trkpt>
      <trkpt lat="48.60795" lon="-1.50708"></trkpt>
      <trkpt lat="48.60828" lon="-1.503547"></trkpt>
      <trkpt lat="48.608545" lon="-1.503325"></trkpt>
      <trkpt lat="48.609423" lon="-1.503657"></trkpt>
      <trkpt lat="48.609666" lon="-1.503494"></trkpt>
      <trkpt lat="48.610738" lon="-1.50074"></trkpt>
      <trkpt lat="48.611073" lon="-1.500135"></trkpt>
      <trkpt lat="48.611066" lon="-1.499947"></trkpt>
      <trkpt lat="48.611189" lon="-1.499911"></trkpt>
      <trkpt lat="48.611908" lon="-1.498336"></trkpt>
      <trkpt lat="48.612214" lon="-1.498129"></trkpt>
      <trkpt lat="48.613868" lon="-1.499236"></trkpt>
      <trkpt lat="48.614238" lon="-1.499175"></trkpt>
      <trkpt lat="48.613842" lon="-1.501855"></trkpt>
      <trkpt lat="48.613962" lon="-1.506396"></trkpt>
      <trkpt lat="48.613807" lon="-1.510144"></trkpt>
      <trkpt lat="48.617496" lon="-1.510896"></trkpt>
  </trkseg></trk>
</gpx>
