<?xml version="1.0" encoding="UTF-8"?>
<gpx version="1.1" creator="yatutbuv" xmlns="http://www.topografix.com/GPX/1/1">
  <trk><name>GraphHopper Track</name><trkseg>
      <trkpt lat="48.609274" lon="22.301735"></trkpt>
      <trkpt lat="48.609938" lon="22.302187"></trkpt>
      <trkpt lat="48.611303" lon="22.302602"></trkpt>
      <trkpt lat="48.612255" lon="22.303339"></trkpt>
      <trkpt lat="48.612466" lon="22.303179"></trkpt>
      <trkpt lat="48.61354" lon="22.304171"></trkpt>
      <trkpt lat="48.613922" lon="22.303684"></trkpt>
      <trkpt lat="48.617558" lon="22.30165"></trkpt>
      <trkpt lat="48.617386" lon="22.300887"></trkpt>
      <trkpt lat="48.618295" lon="22.299671"></trkpt>
      <trkpt lat="48.619999" lon="22.296579"></trkpt>
      <trkpt lat="48.620017" lon="22.295338"></trkpt>
      <trkpt lat="48.621281" lon="22.289912"></trkpt>
      <trkpt lat="48.62143" lon="22.287991"></trkpt>
      <trkpt lat="48.621655" lon="22.287398"></trkpt>
      <trkpt lat="48.622021" lon="22.286977"></trkpt>
      <trkpt lat="48.624684" lon="22.28502"></trkpt>
      <trkpt lat="48.625227" lon="22.285055"></trkpt>
      <trkpt lat="48.625418" lon="22.284595"></trkpt>
      <trkpt lat="48.625649" lon="22.284458"></trkpt>
      <trkpt lat="48.628977" lon="22.287625"></trkpt>
      <trkpt lat="48.629819" lon="22.285905"></trkpt>
      <trkpt lat="48.635596" lon="22.276685"></trkpt>
      <trkpt lat="48.641229" lon="22.268776"></trkpt>
      <trkpt lat="48.641918" lon="22.267992"></trkpt>
      <trkpt lat="48.642307" lon="22.267779"></trkpt>
      <trkpt lat="48.644291" lon="22.267175"></trkpt>
      <trkpt lat="48.652711" lon="22.265549"></trkpt>
      <trkpt lat="48.653499" lon="22.265809"></trkpt>
      <trkpt lat="48.65408" lon="22.265631"></trkpt>
      <trkpt lat="48.654552" lon="22.265251"></trkpt>
      <trkpt lat="48.655002" lon="22.265181"></trkpt>
      <trkpt lat="48.65533" lon="22.265343"></trkpt>
      <trkpt lat="48.655822" lon="22.26525"></trkpt>
      <trkpt lat="48.656485" lon="22.264849"></trkpt>
      <trkpt lat="48.657314" lon="22.264688"></trkpt>
      <trkpt lat="48.656943" lon="22.263679"></trkpt>
      <trkpt lat="48.655203" lon="22.261416"></trkpt>
      <trkpt lat="48.654854" lon="22.260437"></trkpt>
      <trkpt lat="48.654768" lon="22.259845"></trkpt>
      <trkpt lat="48.654791" lon="22.258711"></trkpt>
      <trkpt lat="48.655068" lon="22.257595"></trkpt>
      <trkpt lat="48.655707" lon="22.256489"></trkpt>
      <trkpt lat="48.656591" lon="22.255634"></trkpt>
      <trkpt lat="48.657246" lon="22.255344"></trkpt>
      <trkpt lat="48.658357" lon="22.25526"></trkpt>
      <trkpt lat="48.66748" lon="22.25755"></trkpt>
      <trkpt lat="48.668189" lon="22.257481"></trkpt>
      <trkpt lat="48.669121" lon="22.257139"></trkpt>
      <trkpt lat="48.670089" lon="22.256424"></trkpt>
      <trkpt lat="48.67818" lon="22.249336"></trkpt>
      <trkpt lat="48.688014" lon="22.239326"></trkpt>
      <trkpt lat="48.710805" lon="22.221569"></trkpt>
      <trkpt lat="48.722969" lon="22.214569"></trkpt>
      <trkpt lat="48.724329" lon="22.213652"></trkpt>
      <trkpt lat="48.726755" lon="22.21167"></trkpt>
      <trkpt lat="48.727475" lon="22.211536"></trkpt>
      <trkpt lat="48.730527" lon="22.211344"></trkpt>
      <trkpt lat="48.735072" lon="22.210681"></trkpt>
      <trkpt lat="48.737468" lon="22.209635"></trkpt>
      <trkpt lat="48.73811" lon="22.208938"></trkpt>
      <trkpt lat="48.738536" lon="22.207901"></trkpt>
      <trkpt lat="48.741493" lon="22.191821"></trkpt>
      <trkpt lat="48.744526" lon="22.183385"></trkpt>
      <trkpt lat="48.755117" lon="22.149841"></trkpt>
      <trkpt lat="48.764115" lon="22.105587"></trkpt>
      <trkpt lat="48.766579" lon="22.072013"></trkpt>
      <trkpt lat="48.766041" lon="22.066116"></trkpt>
      <trkpt lat="48.765972" lon="22.056558"></trkpt>
      <trkpt lat="48.766802" lon="22.0447"></trkpt>
      <trkpt lat="48.767223" lon="22.031137"></trkpt>
      <trkpt lat="48.762477" lon="21.999947"></trkpt>
      <trkpt lat="48.761881" lon="21.996703"></trkpt>
      <trkpt lat="48.757243" lon="21.978249"></trkpt>
      <trkpt lat="48.745344" lon="21.938654"></trkpt>
      <trkpt lat="48.745104" lon="21.926664"></trkpt>
      <trkpt lat="48.745131" lon="21.925621"></trkpt>
      <trkpt lat="48.745316" lon="21.925053"></trkpt>
      <trkpt lat="48.745131" lon="21.924552"></trkpt>
      <trkpt lat="48.7451" lon="21.922987"></trkpt>
      <trkpt lat="48.745424" lon="21.913887"></trkpt>
      <trkpt lat="48.745647" lon="21.912687"></trkpt>
      <trkpt lat="48.746302" lon="21.910648"></trkpt>
      <trkpt lat="48.748627" lon="21.906475"></trkpt>
      <trkpt lat="48.749053" lon="21.90591"></trkpt>
      <trkpt lat="48.749341" lon="21.905729"></trkpt>
      <trkpt lat="48.74939" lon="21.905437"></trkpt>
      <trkpt lat="48.749304" lon="21.905249"></trkpt>
      <trkpt lat="48.749001" lon="21.905131"></trkpt>
      <trkpt lat="48.748587" lon="21.904725"></trkpt>
      <trkpt lat="48.733739" lon="21.885002"></trkpt>
      <trkpt lat="48.732944" lon="21.883847"></trkpt>
      <trkpt lat="48.731388" lon="21.880923"></trkpt>
      <trkpt lat="48.731064" lon="21.880076"></trkpt>
      <trkpt lat="48.730956" lon="21.879108"></trkpt>
      <trkpt lat="48.731008" lon="21.87775"></trkpt>
      <trkpt lat="48.73141" lon="21.874563"></trkpt>
      <trkpt lat="48.731337" lon="21.873285"></trkpt>
      <trkpt lat="48.726712" lon="21.86082"></trkpt>
      <trkpt lat="48.725499" lon="21.855678"></trkpt>
      <trkpt lat="48.72501" lon="21.85491"></trkpt>
      <trkpt lat="48.723449" lon="21.853523"></trkpt>
      <trkpt lat="48.722164" lon="21.85191"></trkpt>
      <trkpt lat="48.716424" lon="21.841435"></trkpt>
      <trkpt lat="48.699033" lon="21.811416"></trkpt>
      <trkpt lat="48.69834" lon="21.809799"></trkpt>
      <trkpt lat="48.697953" lon="21.808197"></trkpt>
      <trkpt lat="48.698185" lon="21.807259"></trkpt>
      <trkpt lat="48.699049" lon="21.806469"></trkpt>
      <trkpt lat="48.699384" lon="21.805746"></trkpt>
      <trkpt lat="48.699357" lon="21.801062"></trkpt>
      <trkpt lat="48.698773" lon="21.796574"></trkpt>
      <trkpt lat="48.698885" lon="21.792762"></trkpt>
      <trkpt lat="48.699" lon="21.791959"></trkpt>
      <trkpt lat="48.699793" lon="21.789114"></trkpt>
      <trkpt lat="48.700575" lon="21.784431"></trkpt>
      <trkpt lat="48.701705" lon="21.779663"></trkpt>
      <trkpt lat="48.702282" lon="21.772948"></trkpt>
      <trkpt lat="48.702695" lon="21.762538"></trkpt>
      <trkpt lat="48.700569" lon="21.742931"></trkpt>
      <trkpt lat="48.698852" lon="21.709771"></trkpt>
      <trkpt lat="48.69932" lon="21.707783"></trkpt>
      <trkpt lat="48.699596" lon="21.707161"></trkpt>
      <trkpt lat="48.699587" lon="21.706493"></trkpt>
      <trkpt lat="48.703316" lon="21.67914"></trkpt>
      <trkpt lat="48.703343" lon="21.678194"></trkpt>
      <trkpt lat="48.703214" lon="21.677005"></trkpt>
      <trkpt lat="48.702087" lon="21.672314"></trkpt>
      <trkpt lat="48.701862" lon="21.670819"></trkpt>
      <trkpt lat="48.702236" lon="21.661677"></trkpt>
      <trkpt lat="48.70226" lon="21.658621"></trkpt>
      <trkpt lat="48.702907" lon="21.651312"></trkpt>
      <trkpt lat="48.703307" lon="21.648588"></trkpt>
      <trkpt lat="48.703838" lon="21.642703"></trkpt>
      <trkpt lat="48.706311" lon="21.624778"></trkpt>
      <trkpt lat="48.706793" lon="21.623247"></trkpt>
      <trkpt lat="48.707831" lon="21.621748"></trkpt>
      <trkpt lat="48.724405" lon="21.606129"></trkpt>
      <trkpt lat="48.727329" lon="21.601233"></trkpt>
      <trkpt lat="48.729178" lon="21.594984"></trkpt>
      <trkpt lat="48.731018" lon="21.585821"></trkpt>
      <trkpt lat="48.732864" lon="21.582055"></trkpt>
      <trkpt lat="48.73308" lon="21.581406"></trkpt>
      <trkpt lat="48.73422" lon="21.574207"></trkpt>
      <trkpt lat="48.735503" lon="21.570067"></trkpt>
      <trkpt lat="48.735772" lon="21.568345"></trkpt>
      <trkpt lat="48.73578" lon="21.566788"></trkpt>
      <trkpt lat="48.735472" lon="21.564977"></trkpt>
      <trkpt lat="48.734643" lon="21.562803"></trkpt>
      <trkpt lat="48.734486" lon="21.562092"></trkpt>
      <trkpt lat="48.73453" lon="21.56124"></trkpt>
      <trkpt lat="48.73522" lon="21.558988"></trkpt>
      <trkpt lat="48.735407" lon="21.555732"></trkpt>
      <trkpt lat="48.735294" lon="21.554576"></trkpt>
      <trkpt lat="48.734687" lon="21.551503"></trkpt>
      <trkpt lat="48.734587" lon="21.550152"></trkpt>
      <trkpt lat="48.734712" lon="21.549162"></trkpt>
      <trkpt lat="48.735149" lon="21.547325"></trkpt>
      <trkpt lat="48.735417" lon="21.545262"></trkpt>
      <trkpt lat="48.735679" lon="21.54451"></trkpt>
      <trkpt lat="48.736692" lon="21.542802"></trkpt>
      <trkpt lat="48.736969" lon="21.541714"></trkpt>
      <trkpt lat="48.737011" lon="21.540786"></trkpt>
      <trkpt lat="48.736755" lon="21.539669"></trkpt>
      <trkpt lat="48.736448" lon="21.539087"></trkpt>
      <trkpt lat="48.736107" lon="21.538725"></trkpt>
      <trkpt lat="48.735711" lon="21.5385"></trkpt>
      <trkpt lat="48.735072" lon="21.538435"></trkpt>
      <trkpt lat="48.733708" lon="21.539135"></trkpt>
      <trkpt lat="48.733442" lon="21.53902"></trkpt>
      <trkpt lat="48.733253" lon="21.538759"></trkpt>
      <trkpt lat="48.73316" lon="21.538122"></trkpt>
      <trkpt lat="48.733362" lon="21.537676"></trkpt>
      <trkpt lat="48.733603" lon="21.537501"></trkpt>
      <trkpt lat="48.736226" lon="21.537182"></trkpt>
      <trkpt lat="48.738546" lon="21.536073"></trkpt>
      <trkpt lat="48.738902" lon="21.53562"></trkpt>
      <trkpt lat="48.74121" lon="21.531571"></trkpt>
      <trkpt lat="48.74187" lon="21.530921"></trkpt>
      <trkpt lat="48.743101" lon="21.530149"></trkpt>
      <trkpt lat="48.743514" lon="21.529465"></trkpt>
      <trkpt lat="48.743652" lon="21.528921"></trkpt>
      <trkpt lat="48.743659" lon="21.528163"></trkpt>
      <trkpt lat="48.743514" lon="21.527539"></trkpt>
      <trkpt lat="48.742424" lon="21.525658"></trkpt>
      <trkpt lat="48.741624" lon="21.523643"></trkpt>
      <trkpt lat="48.74016" lon="21.517649"></trkpt>
      <trkpt lat="48.739928" lon="21.51602"></trkpt>
      <trkpt lat="48.739852" lon="21.501289"></trkpt>
      <trkpt lat="48.739553" lon="21.489585"></trkpt>
      <trkpt lat="48.738971" lon="21.4748"></trkpt>
      <trkpt lat="48.7391" lon="21.471195"></trkpt>
      <trkpt lat="48.739039" lon="21.470561"></trkpt>
      <trkpt lat="48.738785" lon="21.46982"></trkpt>
      <trkpt lat="48.738353" lon="21.469256"></trkpt>
      <trkpt lat="48.735202" lon="21.467185"></trkpt>
      <trkpt lat="48.733382" lon="21.46561"></trkpt>
      <trkpt lat="48.733008" lon="21.465054"></trkpt>
      <trkpt lat="48.73156" lon="21.462035"></trkpt>
      <trkpt lat="48.731472" lon="21.460943"></trkpt>
      <trkpt lat="48.73243" lon="21.456966"></trkpt>
      <trkpt lat="48.732514" lon="21.455537"></trkpt>
      <trkpt lat="48.73235" lon="21.454742"></trkpt>
      <trkpt lat="48.731779" lon="21.453196"></trkpt>
      <trkpt lat="48.730128" lon="21.449776"></trkpt>
      <trkpt lat="48.729719" lon="21.448697"></trkpt>
      <trkpt lat="48.729287" lon="21.446974"></trkpt>
      <trkpt lat="48.729099" lon="21.445258"></trkpt>
      <trkpt lat="48.72914" lon="21.443219"></trkpt>
      <trkpt lat="48.729337" lon="21.441865"></trkpt>
      <trkpt lat="48.729701" lon="21.440466"></trkpt>
      <trkpt lat="48.72993" lon="21.439807"></trkpt>
      <trkpt lat="48.730269" lon="21.439367"></trkpt>
      <trkpt lat="48.730269" lon="21.439169"></trkpt>
      <trkpt lat="48.730154" lon="21.439089"></trkpt>
      <trkpt lat="48.729811" lon="21.439213"></trkpt>
      <trkpt lat="48.724321" lon="21.437787"></trkpt>
      <trkpt lat="48.724104" lon="21.437359"></trkpt>
      <trkpt lat="48.724424" lon="21.436518"></trkpt>
      <trkpt lat="48.724696" lon="21.434267"></trkpt>
      <trkpt lat="48.726609" lon="21.42917"></trkpt>
      <trkpt lat="48.727402" lon="21.426308"></trkpt>
      <trkpt lat="48.727989" lon="21.422406"></trkpt>
      <trkpt lat="48.728147" lon="21.415308"></trkpt>
      <trkpt lat="48.728449" lon="21.412741"></trkpt>
      <trkpt lat="48.729254" lon="21.409539"></trkpt>
      <trkpt lat="48.730811" lon="21.405527"></trkpt>
      <trkpt lat="48.731368" lon="21.403667"></trkpt>
      <trkpt lat="48.731786" lon="21.401637"></trkpt>
      <trkpt lat="48.732401" lon="21.397577"></trkpt>
      <trkpt lat="48.732792" lon="21.395967"></trkpt>
      <trkpt lat="48.733316" lon="21.394351"></trkpt>
      <trkpt lat="48.734024" lon="21.392692"></trkpt>
      <trkpt lat="48.734934" lon="21.391066"></trkpt>
      <trkpt lat="48.73735" lon="21.387406"></trkpt>
      <trkpt lat="48.738877" lon="21.38385"></trkpt>
      <trkpt lat="48.740653" lon="21.38029"></trkpt>
      <trkpt lat="48.741457" lon="21.378182"></trkpt>
      <trkpt lat="48.742053" lon="21.375884"></trkpt>
      <trkpt lat="48.7425" lon="21.372273"></trkpt>
      <trkpt lat="48.742758" lon="21.361744"></trkpt>
      <trkpt lat="48.742403" lon="21.358601"></trkpt>
      <trkpt lat="48.741177" lon="21.353104"></trkpt>
      <trkpt lat="48.740918" lon="21.350939"></trkpt>
      <trkpt lat="48.740841" lon="21.348984"></trkpt>
      <trkpt lat="48.740931" lon="21.346698"></trkpt>
      <trkpt lat="48.741237" lon="21.344332"></trkpt>
      <trkpt lat="48.741631" lon="21.342517"></trkpt>
      <trkpt lat="48.742224" lon="21.340583"></trkpt>
      <trkpt lat="48.743244" lon="21.338205"></trkpt>
      <trkpt lat="48.744496" lon="21.33609"></trkpt>
      <trkpt lat="48.745878" lon="21.334401"></trkpt>
      <trkpt lat="48.747708" lon="21.332839"></trkpt>
      <trkpt lat="48.748804" lon="21.332194"></trkpt>
      <trkpt lat="48.750056" lon="21.331682"></trkpt>
      <trkpt lat="48.753647" lon="21.330837"></trkpt>
      <trkpt lat="48.755481" lon="21.330208"></trkpt>
      <trkpt lat="48.760081" lon="21.327824"></trkpt>
      <trkpt lat="48.762739" lon="21.326688"></trkpt>
      <trkpt lat="48.764957" lon="21.326019"></trkpt>
      <trkpt lat="48.768865" lon="21.325162"></trkpt>
      <trkpt lat="48.77131" lon="21.324144"></trkpt>
      <trkpt lat="48.773714" lon="21.322481"></trkpt>
      <trkpt lat="48.775485" lon="21.320748"></trkpt>
      <trkpt lat="48.77657" lon="21.31941"></trkpt>
      <trkpt lat="48.778856" lon="21.316153"></trkpt>
      <trkpt lat="48.780188" lon="21.314661"></trkpt>
      <trkpt lat="48.781682" lon="21.313494"></trkpt>
      <trkpt lat="48.783226" lon="21.31274"></trkpt>
      <trkpt lat="48.784238" lon="21.312453"></trkpt>
      <trkpt lat="48.785475" lon="21.312317"></trkpt>
      <trkpt lat="48.786923" lon="21.312433"></trkpt>
      <trkpt lat="48.790185" lon="21.313038"></trkpt>
      <trkpt lat="48.791803" lon="21.313092"></trkpt>
      <trkpt lat="48.793207" lon="21.31296"></trkpt>
      <trkpt lat="48.795291" lon="21.312493"></trkpt>
      <trkpt lat="48.804221" lon="21.309783"></trkpt>
      <trkpt lat="48.807061" lon="21.309299"></trkpt>
      <trkpt lat="48.810194" lon="21.309392"></trkpt>
      <trkpt lat="48.815022" lon="21.310159"></trkpt>
      <trkpt lat="48.817254" lon="21.310402"></trkpt>
      <trkpt lat="48.818625" lon="21.310454"></trkpt>
      <trkpt lat="48.821335" lon="21.310334"></trkpt>
      <trkpt lat="48.824815" lon="21.309697"></trkpt>
      <trkpt lat="48.827996" lon="21.30866"></trkpt>
      <trkpt lat="48.830202" lon="21.307639"></trkpt>
      <trkpt lat="48.832958" lon="21.306026"></trkpt>
      <trkpt lat="48.835896" lon="21.303848"></trkpt>
      <trkpt lat="48.839047" lon="21.300913"></trkpt>
      <trkpt lat="48.841084" lon="21.298623"></trkpt>
      <trkpt lat="48.844233" lon="21.294292"></trkpt>
      <trkpt lat="48.846933" lon="21.289576"></trkpt>
      <trkpt lat="48.854151" lon="21.274431"></trkpt>
      <trkpt lat="48.855785" lon="21.271366"></trkpt>
      <trkpt lat="48.857913" lon="21.267957"></trkpt>
      <trkpt lat="48.860216" lon="21.264791"></trkpt>
      <trkpt lat="48.862947" lon="21.261635"></trkpt>
      <trkpt lat="48.865391" lon="21.25926"></trkpt>
      <trkpt lat="48.867438" lon="21.257569"></trkpt>
      <trkpt lat="48.869686" lon="21.255986"></trkpt>
      <trkpt lat="48.871341" lon="21.255004"></trkpt>
      <trkpt lat="48.873016" lon="21.254083"></trkpt>
      <trkpt lat="48.876161" lon="21.252655"></trkpt>
      <trkpt lat="48.879115" lon="21.251553"></trkpt>
      <trkpt lat="48.882565" lon="21.25049"></trkpt>
      <trkpt lat="48.886535" lon="21.249587"></trkpt>
      <trkpt lat="48.889222" lon="21.249143"></trkpt>
      <trkpt lat="48.892015" lon="21.248849"></trkpt>
      <trkpt lat="48.89627" lon="21.248695"></trkpt>
      <trkpt lat="48.898871" lon="21.248776"></trkpt>
      <trkpt lat="48.902217" lon="21.249078"></trkpt>
      <trkpt lat="48.905097" lon="21.249523"></trkpt>
      <trkpt lat="48.908012" lon="21.250134"></trkpt>
      <trkpt lat="48.910383" lon="21.250768"></trkpt>
      <trkpt lat="48.913446" lon="21.251757"></trkpt>
      <trkpt lat="48.91846" lon="21.253821"></trkpt>
      <trkpt lat="48.925829" lon="21.257506"></trkpt>
      <trkpt lat="48.928863" lon="21.258726"></trkpt>
      <trkpt lat="48.931111" lon="21.25928"></trkpt>
      <trkpt lat="48.93339" lon="21.259631"></trkpt>
      <trkpt lat="48.935083" lon="21.259722"></trkpt>
      <trkpt lat="48.936931" lon="21.259667"></trkpt>
      <trkpt lat="48.938985" lon="21.259415"></trkpt>
      <trkpt lat="48.940969" lon="21.258962"></trkpt>
      <trkpt lat="48.943105" lon="21.258261"></trkpt>
      <trkpt lat="48.945455" lon="21.257235"></trkpt>
      <trkpt lat="48.961338" lon="21.247821"></trkpt>
      <trkpt lat="48.962901" lon="21.246699"></trkpt>
      <trkpt lat="48.964419" lon="21.245224"></trkpt>
      <trkpt lat="48.965818" lon="21.243447"></trkpt>
      <trkpt lat="48.967057" lon="21.24139"></trkpt>
      <trkpt lat="48.969101" lon="21.236395"></trkpt>
      <trkpt lat="48.973541" lon="21.223859"></trkpt>
      <trkpt lat="48.974351" lon="21.221997"></trkpt>
      <trkpt lat="48.974978" lon="21.220876"></trkpt>
      <trkpt lat="48.976129" lon="21.219041"></trkpt>
      <trkpt lat="48.977288" lon="21.217604"></trkpt>
      <trkpt lat="48.978599" lon="21.21627"></trkpt>
      <trkpt lat="48.979876" lon="21.21521"></trkpt>
      <trkpt lat="48.983268" lon="21.213224"></trkpt>
      <trkpt lat="48.986077" lon="21.210988"></trkpt>
      <trkpt lat="48.987568" lon="21.210348"></trkpt>
      <trkpt lat="48.990652" lon="21.210158"></trkpt>
      <trkpt lat="48.991805" lon="21.209811"></trkpt>
      <trkpt lat="48.993229" lon="21.208881"></trkpt>
      <trkpt lat="48.994068" lon="21.208004"></trkpt>
      <trkpt lat="48.994649" lon="21.207201"></trkpt>
      <trkpt lat="48.995698" lon="21.205052"></trkpt>
      <trkpt lat="48.996342" lon="21.202925"></trkpt>
      <trkpt lat="48.996689" lon="21.200609"></trkpt>
      <trkpt lat="48.99711" lon="21.196187"></trkpt>
      <trkpt lat="48.997654" lon="21.193703"></trkpt>
      <trkpt lat="48.998262" lon="21.191917"></trkpt>
      <trkpt lat="48.999982" lon="21.188072"></trkpt>
      <trkpt lat="49.001046" lon="21.185327"></trkpt>
      <trkpt lat="49.00194" lon="21.182194"></trkpt>
      <trkpt lat="49.002414" lon="21.179844"></trkpt>
      <trkpt lat="49.002884" lon="21.17518"></trkpt>
      <trkpt lat="49.002895" lon="21.166402"></trkpt>
      <trkpt lat="49.002969" lon="21.16419"></trkpt>
      <trkpt lat="49.003219" lon="21.161786"></trkpt>
      <trkpt lat="49.003745" lon="21.158516"></trkpt>
      <trkpt lat="49.007463" lon="21.141547"></trkpt>
      <trkpt lat="49.007941" lon="21.137114"></trkpt>
      <trkpt lat="49.007942" lon="21.133076"></trkpt>
      <trkpt lat="49.007575" lon="21.129095"></trkpt>
      <trkpt lat="49.006793" lon="21.124994"></trkpt>
      <trkpt lat="49.00557" lon="21.120928"></trkpt>
      <trkpt lat="49.002514" lon="21.112145"></trkpt>
      <trkpt lat="49.001763" lon="21.10935"></trkpt>
      <trkpt lat="49.001278" lon="21.106734"></trkpt>
      <trkpt lat="49.000981" lon="21.103893"></trkpt>
      <trkpt lat="49.000905" lon="21.101815"></trkpt>
      <trkpt lat="49.001156" lon="21.094598"></trkpt>
      <trkpt lat="49.000992" lon="21.08994"></trkpt>
      <trkpt lat="48.999702" lon="21.078252"></trkpt>
      <trkpt lat="48.999274" lon="21.076229"></trkpt>
      <trkpt lat="48.997917" lon="21.071858"></trkpt>
      <trkpt lat="48.997475" lon="21.069862"></trkpt>
      <trkpt lat="48.997315" lon="21.067567"></trkpt>
      <trkpt lat="48.997518" lon="21.065054"></trkpt>
      <trkpt lat="48.997935" lon="21.063209"></trkpt>
      <trkpt lat="48.998369" lon="21.061921"></trkpt>
      <trkpt lat="48.998992" lon="21.060603"></trkpt>
      <trkpt lat="48.999966" lon="21.059147"></trkpt>
      <trkpt lat="49.001258" lon="21.057873"></trkpt>
      <trkpt lat="49.003445" lon="21.056531"></trkpt>
      <trkpt lat="49.004739" lon="21.055572"></trkpt>
      <trkpt lat="49.006188" lon="21.054078"></trkpt>
      <trkpt lat="49.007032" lon="21.052913"></trkpt>
      <trkpt lat="49.008222" lon="21.050757"></trkpt>
      <trkpt lat="49.010299" lon="21.045785"></trkpt>
      <trkpt lat="49.011746" lon="21.043395"></trkpt>
      <trkpt lat="49.012511" lon="21.042451"></trkpt>
      <trkpt lat="49.013802" lon="21.041193"></trkpt>
      <trkpt lat="49.017107" lon="21.039011"></trkpt>
      <trkpt lat="49.018146" lon="21.038128"></trkpt>
      <trkpt lat="49.019639" lon="21.036292"></trkpt>
      <trkpt lat="49.020876" lon="21.034172"></trkpt>
      <trkpt lat="49.022844" lon="21.029696"></trkpt>
      <trkpt lat="49.024965" lon="21.025695"></trkpt>
      <trkpt lat="49.026021" lon="21.022668"></trkpt>
      <trkpt lat="49.026465" lon="21.020695"></trkpt>
      <trkpt lat="49.026629" lon="21.01932"></trkpt>
      <trkpt lat="49.026725" lon="21.016492"></trkpt>
      <trkpt lat="49.026463" lon="21.012294"></trkpt>
      <trkpt lat="49.026443" lon="21.009271"></trkpt>
      <trkpt lat="49.026547" lon="21.007109"></trkpt>
      <trkpt lat="49.026995" lon="21.002556"></trkpt>
      <trkpt lat="49.027058" lon="21.000652"></trkpt>
      <trkpt lat="49.02675" lon="20.996958"></trkpt>
      <trkpt lat="49.026039" lon="20.994022"></trkpt>
      <trkpt lat="49.0249" lon="20.991295"></trkpt>
      <trkpt lat="49.023269" lon="20.988581"></trkpt>
      <trkpt lat="49.022604" lon="20.987178"></trkpt>
      <trkpt lat="49.020868" lon="20.980843"></trkpt>
      <trkpt lat="49.019166" lon="20.977055"></trkpt>
      <trkpt lat="49.018565" lon="20.975181"></trkpt>
      <trkpt lat="49.018291" lon="20.97353"></trkpt>
      <trkpt lat="49.018208" lon="20.972229"></trkpt>
      <trkpt lat="49.018299" lon="20.967468"></trkpt>
      <trkpt lat="49.018115" lon="20.964737"></trkpt>
      <trkpt lat="49.017592" lon="20.962238"></trkpt>
      <trkpt lat="49.015736" lon="20.957113"></trkpt>
      <trkpt lat="49.015304" lon="20.955476"></trkpt>
      <trkpt lat="49.015085" lon="20.953387"></trkpt>
      <trkpt lat="49.015014" lon="20.948512"></trkpt>
      <trkpt lat="49.014771" lon="20.947168"></trkpt>
      <trkpt lat="49.014315" lon="20.945693"></trkpt>
      <trkpt lat="49.013543" lon="20.944029"></trkpt>
      <trkpt lat="49.012647" lon="20.942753"></trkpt>
      <trkpt lat="49.000574" lon="20.92972"></trkpt>
      <trkpt lat="48.999282" lon="20.92794"></trkpt>
      <trkpt lat="48.997981" lon="20.925447"></trkpt>
      <trkpt lat="48.9972" lon="20.923323"></trkpt>
      <trkpt lat="48.996485" lon="20.92039"></trkpt>
      <trkpt lat="48.996137" lon="20.917544"></trkpt>
      <trkpt lat="48.996045" lon="20.914665"></trkpt>
      <trkpt lat="48.996171" lon="20.90756"></trkpt>
      <trkpt lat="48.996658" lon="20.902959"></trkpt>
      <trkpt lat="48.997662" lon="20.897137"></trkpt>
      <trkpt lat="48.998315" lon="20.894257"></trkpt>
      <trkpt lat="48.999496" lon="20.890452"></trkpt>
      <trkpt lat="49.007828" lon="20.868331"></trkpt>
      <trkpt lat="49.009622" lon="20.863018"></trkpt>
      <trkpt lat="49.010078" lon="20.861084"></trkpt>
      <trkpt lat="49.010694" lon="20.85741"></trkpt>
      <trkpt lat="49.011018" lon="20.85355"></trkpt>
      <trkpt lat="49.011052" lon="20.851017"></trkpt>
      <trkpt lat="49.010994" lon="20.848821"></trkpt>
      <trkpt lat="49.010606" lon="20.844863"></trkpt>
      <trkpt lat="49.009474" lon="20.838871"></trkpt>
      <trkpt lat="49.009203" lon="20.836673"></trkpt>
      <trkpt lat="49.009176" lon="20.834113"></trkpt>
      <trkpt lat="49.00957" lon="20.826837"></trkpt>
      <trkpt lat="49.009492" lon="20.824263"></trkpt>
      <trkpt lat="49.009174" lon="20.820769"></trkpt>
      <trkpt lat="49.00887" lon="20.81487"></trkpt>
      <trkpt lat="49.008911" lon="20.811858"></trkpt>
      <trkpt lat="49.009156" lon="20.808092"></trkpt>
      <trkpt lat="49.009102" lon="20.805362"></trkpt>
      <trkpt lat="49.008908" lon="20.803666"></trkpt>
      <trkpt lat="49.007714" lon="20.797197"></trkpt>
      <trkpt lat="49.007091" lon="20.792853"></trkpt>
      <trkpt lat="49.006596" lon="20.787192"></trkpt>
      <trkpt lat="49.006442" lon="20.782568"></trkpt>
      <trkpt lat="49.006492" lon="20.778655"></trkpt>
      <trkpt lat="49.006676" lon="20.775169"></trkpt>
      <trkpt lat="49.006934" lon="20.772168"></trkpt>
      <trkpt lat="49.007859" lon="20.764372"></trkpt>
      <trkpt lat="49.008087" lon="20.761458"></trkpt>
      <trkpt lat="49.008142" lon="20.758624"></trkpt>
      <trkpt lat="49.007916" lon="20.752421"></trkpt>
      <trkpt lat="49.007945" lon="20.749572"></trkpt>
      <trkpt lat="49.008417" lon="20.738704"></trkpt>
      <trkpt lat="49.009037" lon="20.731489"></trkpt>
      <trkpt lat="49.009149" lon="20.728464"></trkpt>
      <trkpt lat="49.008927" lon="20.723544"></trkpt>
      <trkpt lat="49.00658" lon="20.698021"></trkpt>
      <trkpt lat="49.006442" lon="20.694577"></trkpt>
      <trkpt lat="49.006463" lon="20.691128"></trkpt>
      <trkpt lat="49.006714" lon="20.68665"></trkpt>
      <trkpt lat="49.007065" lon="20.683422"></trkpt>
      <trkpt lat="49.009474" lon="20.668509"></trkpt>
      <trkpt lat="49.009669" lon="20.665515"></trkpt>
      <trkpt lat="49.009383" lon="20.662558"></trkpt>
      <trkpt lat="49.007507" lon="20.653559"></trkpt>
      <trkpt lat="49.006768" lon="20.649195"></trkpt>
      <trkpt lat="49.006304" lon="20.644"></trkpt>
      <trkpt lat="49.006246" lon="20.639593"></trkpt>
      <trkpt lat="49.006485" lon="20.635234"></trkpt>
      <trkpt lat="49.006916" lon="20.631584"></trkpt>
      <trkpt lat="49.007592" lon="20.627853"></trkpt>
      <trkpt lat="49.00992" lon="20.617445"></trkpt>
      <trkpt lat="49.010285" lon="20.614816"></trkpt>
      <trkpt lat="49.010372" lon="20.612132"></trkpt>
      <trkpt lat="49.010023" lon="20.605214"></trkpt>
      <trkpt lat="49.009711" lon="20.602435"></trkpt>
      <trkpt lat="49.009178" lon="20.599246"></trkpt>
      <trkpt lat="49.008665" lon="20.596937"></trkpt>
      <trkpt lat="49.006699" lon="20.589991"></trkpt>
      <trkpt lat="49.006179" lon="20.587807"></trkpt>
      <trkpt lat="49.005715" lon="20.585081"></trkpt>
      <trkpt lat="49.004994" lon="20.57837"></trkpt>
      <trkpt lat="49.004405" lon="20.574559"></trkpt>
      <trkpt lat="49.003365" lon="20.57008"></trkpt>
      <trkpt lat="49.001191" lon="20.562646"></trkpt>
      <trkpt lat="49.000656" lon="20.559542"></trkpt>
      <trkpt lat="49.00048" lon="20.556561"></trkpt>
      <trkpt lat="49.000597" lon="20.553831"></trkpt>
      <trkpt lat="49.001046" lon="20.550795"></trkpt>
      <trkpt lat="49.002253" lon="20.544863"></trkpt>
      <trkpt lat="49.002519" lon="20.542693"></trkpt>
      <trkpt lat="49.002603" lon="20.54074"></trkpt>
      <trkpt lat="49.002569" lon="20.539207"></trkpt>
      <trkpt lat="49.002314" lon="20.536582"></trkpt>
      <trkpt lat="49.001148" lon="20.529252"></trkpt>
      <trkpt lat="49.000793" lon="20.525975"></trkpt>
      <trkpt lat="49.000639" lon="20.52295"></trkpt>
      <trkpt lat="49.000676" lon="20.519301"></trkpt>
      <trkpt lat="49.002074" lon="20.50452"></trkpt>
      <trkpt lat="49.002283" lon="20.499737"></trkpt>
      <trkpt lat="49.002577" lon="20.486826"></trkpt>
      <trkpt lat="49.002839" lon="20.483784"></trkpt>
      <trkpt lat="49.003369" lon="20.480632"></trkpt>
      <trkpt lat="49.00407" lon="20.477763"></trkpt>
      <trkpt lat="49.008163" lon="20.464061"></trkpt>
      <trkpt lat="49.00901" lon="20.461889"></trkpt>
      <trkpt lat="49.010375" lon="20.459158"></trkpt>
      <trkpt lat="49.014007" lon="20.453715"></trkpt>
      <trkpt lat="49.015727" lon="20.45077"></trkpt>
      <trkpt lat="49.019124" lon="20.442617"></trkpt>
      <trkpt lat="49.020124" lon="20.440775"></trkpt>
      <trkpt lat="49.02096" lon="20.439612"></trkpt>
      <trkpt lat="49.022689" lon="20.437868"></trkpt>
      <trkpt lat="49.024463" lon="20.436768"></trkpt>
      <trkpt lat="49.026015" lon="20.436246"></trkpt>
      <trkpt lat="49.029895" lon="20.435767"></trkpt>
      <trkpt lat="49.031031" lon="20.435364"></trkpt>
      <trkpt lat="49.031943" lon="20.434849"></trkpt>
      <trkpt lat="49.032949" lon="20.434075"></trkpt>
      <trkpt lat="49.033862" lon="20.433128"></trkpt>
      <trkpt lat="49.035124" lon="20.43135"></trkpt>
      <trkpt lat="49.03583" lon="20.429863"></trkpt>
      <trkpt lat="49.036948" lon="20.426545"></trkpt>
      <trkpt lat="49.037384" lon="20.423838"></trkpt>
      <trkpt lat="49.03758" lon="20.419615"></trkpt>
      <trkpt lat="49.037312" lon="20.412038"></trkpt>
      <trkpt lat="49.037367" lon="20.407669"></trkpt>
      <trkpt lat="49.037689" lon="20.404856"></trkpt>
      <trkpt lat="49.038055" lon="20.403092"></trkpt>
      <trkpt lat="49.03853" lon="20.401527"></trkpt>
      <trkpt lat="49.039936" lon="20.398204"></trkpt>
      <trkpt lat="49.043596" lon="20.391061"></trkpt>
      <trkpt lat="49.044819" lon="20.388009"></trkpt>
      <trkpt lat="49.045801" lon="20.384863"></trkpt>
      <trkpt lat="49.047558" lon="20.377064"></trkpt>
      <trkpt lat="49.04846" lon="20.373611"></trkpt>
      <trkpt lat="49.049851" lon="20.369742"></trkpt>
      <trkpt lat="49.051284" lon="20.3667"></trkpt>
      <trkpt lat="49.052498" lon="20.364622"></trkpt>
      <trkpt lat="49.053907" lon="20.362589"></trkpt>
      <trkpt lat="49.056267" lon="20.359915"></trkpt>
      <trkpt lat="49.057369" lon="20.358877"></trkpt>
      <trkpt lat="49.059133" lon="20.357529"></trkpt>
      <trkpt lat="49.06284" lon="20.354998"></trkpt>
      <trkpt lat="49.06398" lon="20.353997"></trkpt>
      <trkpt lat="49.065016" lon="20.35289"></trkpt>
      <trkpt lat="49.066857" lon="20.350296"></trkpt>
      <trkpt lat="49.067842" lon="20.348461"></trkpt>
      <trkpt lat="49.068505" lon="20.346921"></trkpt>
      <trkpt lat="49.069615" lon="20.343497"></trkpt>
      <trkpt lat="49.070232" lon="20.340455"></trkpt>
      <trkpt lat="49.071208" lon="20.330563"></trkpt>
      <trkpt lat="49.071966" lon="20.325089"></trkpt>
      <trkpt lat="49.073061" lon="20.320129"></trkpt>
      <trkpt lat="49.075069" lon="20.313107"></trkpt>
      <trkpt lat="49.075631" lon="20.310244"></trkpt>
      <trkpt lat="49.075894" lon="20.308014"></trkpt>
      <trkpt lat="49.076017" lon="20.303562"></trkpt>
      <trkpt lat="49.075518" lon="20.295365"></trkpt>
      <trkpt lat="49.076065" lon="20.286508"></trkpt>
      <trkpt lat="49.075935" lon="20.284292"></trkpt>
      <trkpt lat="49.075547" lon="20.281769"></trkpt>
      <trkpt lat="49.074638" lon="20.278653"></trkpt>
      <trkpt lat="49.073602" lon="20.276354"></trkpt>
      <trkpt lat="49.068478" lon="20.268368"></trkpt>
      <trkpt lat="49.067665" lon="20.267037"></trkpt>
      <trkpt lat="49.066879" lon="20.265462"></trkpt>
      <trkpt lat="49.065751" lon="20.262212"></trkpt>
      <trkpt lat="49.065053" lon="20.258411"></trkpt>
      <trkpt lat="49.064831" lon="20.256214"></trkpt>
      <trkpt lat="49.064721" lon="20.252497"></trkpt>
      <trkpt lat="49.065099" lon="20.242505"></trkpt>
      <trkpt lat="49.065051" lon="20.237625"></trkpt>
      <trkpt lat="49.064747" lon="20.23322"></trkpt>
      <trkpt lat="49.063012" lon="20.215365"></trkpt>
      <trkpt lat="49.062797" lon="20.21121"></trkpt>
      <trkpt lat="49.062864" lon="20.208668"></trkpt>
      <trkpt lat="49.063136" lon="20.20573"></trkpt>
      <trkpt lat="49.064589" lon="20.197892"></trkpt>
      <trkpt lat="49.06497" lon="20.194493"></trkpt>
      <trkpt lat="49.064932" lon="20.19155"></trkpt>
      <trkpt lat="49.064351" lon="20.185843"></trkpt>
      <trkpt lat="49.064456" lon="20.182436"></trkpt>
      <trkpt lat="49.064911" lon="20.179608"></trkpt>
      <trkpt lat="49.066236" lon="20.174139"></trkpt>
      <trkpt lat="49.066829" lon="20.171074"></trkpt>
      <trkpt lat="49.067175" lon="20.168326"></trkpt>
      <trkpt lat="49.067368" lon="20.164623"></trkpt>
      <trkpt lat="49.067327" lon="20.162112"></trkpt>
      <trkpt lat="49.067016" lon="20.158313"></trkpt>
      <trkpt lat="49.064911" lon="20.150988"></trkpt>
      <trkpt lat="49.064546" lon="20.149124"></trkpt>
      <trkpt lat="49.064263" lon="20.146058"></trkpt>
      <trkpt lat="49.064359" lon="20.143696"></trkpt>
      <trkpt lat="49.064754" lon="20.141257"></trkpt>
      <trkpt lat="49.065246" lon="20.139502"></trkpt>
      <trkpt lat="49.069627" lon="20.128976"></trkpt>
      <trkpt lat="49.070762" lon="20.125717"></trkpt>
      <trkpt lat="49.071303" lon="20.12367"></trkpt>
      <trkpt lat="49.071853" lon="20.120843"></trkpt>
      <trkpt lat="49.072137" lon="20.118622"></trkpt>
      <trkpt lat="49.072339" lon="20.115691"></trkpt>
      <trkpt lat="49.072349" lon="20.111712"></trkpt>
      <trkpt lat="49.07218" lon="20.108544"></trkpt>
      <trkpt lat="49.071813" lon="20.105129"></trkpt>
      <trkpt lat="49.070979" lon="20.100445"></trkpt>
      <trkpt lat="49.070273" lon="20.097631"></trkpt>
      <trkpt lat="49.069267" lon="20.094714"></trkpt>
      <trkpt lat="49.068317" lon="20.092617"></trkpt>
      <trkpt lat="49.065845" lon="20.088041"></trkpt>
      <trkpt lat="49.064754" lon="20.085324"></trkpt>
      <trkpt lat="49.064242" lon="20.083573"></trkpt>
      <trkpt lat="49.063839" lon="20.081593"></trkpt>
      <trkpt lat="49.063481" lon="20.077697"></trkpt>
      <trkpt lat="49.063611" lon="20.074358"></trkpt>
      <trkpt lat="49.064046" lon="20.071535"></trkpt>
      <trkpt lat="49.064529" lon="20.069589"></trkpt>
      <trkpt lat="49.066145" lon="20.064254"></trkpt>
      <trkpt lat="49.066709" lon="20.061454"></trkpt>
      <trkpt lat="49.067092" lon="20.058255"></trkpt>
      <trkpt lat="49.067355" lon="20.052868"></trkpt>
      <trkpt lat="49.067592" lon="20.050552"></trkpt>
      <trkpt lat="49.068161" lon="20.047613"></trkpt>
      <trkpt lat="49.069315" lon="20.042933"></trkpt>
      <trkpt lat="49.069836" lon="20.039234"></trkpt>
      <trkpt lat="49.069939" lon="20.035714"></trkpt>
      <trkpt lat="49.069484" lon="20.028444"></trkpt>
      <trkpt lat="49.069471" lon="20.024772"></trkpt>
      <trkpt lat="49.069702" lon="20.021306"></trkpt>
      <trkpt lat="49.070376" lon="20.014739"></trkpt>
      <trkpt lat="49.070473" lon="20.011186"></trkpt>
      <trkpt lat="49.070322" lon="20.008495"></trkpt>
      <trkpt lat="49.069524" lon="20.00141"></trkpt>
      <trkpt lat="49.06945" lon="19.998365"></trkpt>
      <trkpt lat="49.069826" lon="19.994289"></trkpt>
      <trkpt lat="49.071144" lon="19.987704"></trkpt>
      <trkpt lat="49.071417" lon="19.98441"></trkpt>
      <trkpt lat="49.071221" lon="19.980814"></trkpt>
      <trkpt lat="49.070852" lon="19.978788"></trkpt>
      <trkpt lat="49.070304" lon="19.97668"></trkpt>
      <trkpt lat="49.068928" lon="19.972946"></trkpt>
      <trkpt lat="49.065724" lon="19.965557"></trkpt>
      <trkpt lat="49.064582" lon="19.961936"></trkpt>
      <trkpt lat="49.063931" lon="19.958058"></trkpt>
      <trkpt lat="49.063815" lon="19.954297"></trkpt>
      <trkpt lat="49.064197" lon="19.950509"></trkpt>
      <trkpt lat="49.065713" lon="19.944248"></trkpt>
      <trkpt lat="49.066043" lon="19.942431"></trkpt>
      <trkpt lat="49.066329" lon="19.940077"></trkpt>
      <trkpt lat="49.066932" lon="19.93241"></trkpt>
      <trkpt lat="49.067365" lon="19.929323"></trkpt>
      <trkpt lat="49.068138" lon="19.925393"></trkpt>
      <trkpt lat="49.070041" lon="19.917035"></trkpt>
      <trkpt lat="49.070705" lon="19.913128"></trkpt>
      <trkpt lat="49.071175" lon="19.907866"></trkpt>
      <trkpt lat="49.071123" lon="19.902701"></trkpt>
      <trkpt lat="49.070823" lon="19.899484"></trkpt>
      <trkpt lat="49.070356" lon="19.89642"></trkpt>
      <trkpt lat="49.069675" lon="19.893402"></trkpt>
      <trkpt lat="49.068882" lon="19.890649"></trkpt>
      <trkpt lat="49.066967" lon="19.885428"></trkpt>
      <trkpt lat="49.058342" lon="19.863912"></trkpt>
      <trkpt lat="49.057039" lon="19.859594"></trkpt>
      <trkpt lat="49.056394" lon="19.856444"></trkpt>
      <trkpt lat="49.056053" lon="19.854007"></trkpt>
      <trkpt lat="49.055796" lon="19.850758"></trkpt>
      <trkpt lat="49.055836" lon="19.845778"></trkpt>
      <trkpt lat="49.056255" lon="19.841743"></trkpt>
      <trkpt lat="49.05756" lon="19.833951"></trkpt>
      <trkpt lat="49.057751" lon="19.831948"></trkpt>
      <trkpt lat="49.057757" lon="19.828807"></trkpt>
      <trkpt lat="49.057389" lon="19.82561"></trkpt>
      <trkpt lat="49.056236" lon="19.820256"></trkpt>
      <trkpt lat="49.055758" lon="19.817035"></trkpt>
      <trkpt lat="49.055688" lon="19.814156"></trkpt>
      <trkpt lat="49.055933" lon="19.808371"></trkpt>
      <trkpt lat="49.055662" lon="19.804529"></trkpt>
      <trkpt lat="49.055299" lon="19.802524"></trkpt>
      <trkpt lat="49.05478" lon="19.800599"></trkpt>
      <trkpt lat="49.052332" lon="19.793912"></trkpt>
      <trkpt lat="49.051768" lon="19.791905"></trkpt>
      <trkpt lat="49.051198" lon="19.788523"></trkpt>
      <trkpt lat="49.051068" lon="19.785592"></trkpt>
      <trkpt lat="49.051261" lon="19.782663"></trkpt>
      <trkpt lat="49.05172" lon="19.780009"></trkpt>
      <trkpt lat="49.058818" lon="19.753762"></trkpt>
      <trkpt lat="49.059294" lon="19.751282"></trkpt>
      <trkpt lat="49.059538" lon="19.748581"></trkpt>
      <trkpt lat="49.059567" lon="19.746947"></trkpt>
      <trkpt lat="49.059414" lon="19.744366"></trkpt>
      <trkpt lat="49.058776" lon="19.739798"></trkpt>
      <trkpt lat="49.058204" lon="19.737104"></trkpt>
      <trkpt lat="49.057545" lon="19.734697"></trkpt>
      <trkpt lat="49.055317" lon="19.727698"></trkpt>
      <trkpt lat="49.054374" lon="19.724292"></trkpt>
      <trkpt lat="49.053633" lon="19.720181"></trkpt>
      <trkpt lat="49.053386" lon="19.716101"></trkpt>
      <trkpt lat="49.053605" lon="19.712091"></trkpt>
      <trkpt lat="49.054151" lon="19.708788"></trkpt>
      <trkpt lat="49.054693" lon="19.706638"></trkpt>
      <trkpt lat="49.056745" lon="19.700151"></trkpt>
      <trkpt lat="49.057305" lon="19.697131"></trkpt>
      <trkpt lat="49.057457" lon="19.695189"></trkpt>
      <trkpt lat="49.057454" lon="19.693113"></trkpt>
      <trkpt lat="49.056501" lon="19.68443"></trkpt>
      <trkpt lat="49.056455" lon="19.681666"></trkpt>
      <trkpt lat="49.056668" lon="19.679212"></trkpt>
      <trkpt lat="49.05806" lon="19.668047"></trkpt>
      <trkpt lat="49.058695" lon="19.663808"></trkpt>
      <trkpt lat="49.059351" lon="19.660747"></trkpt>
      <trkpt lat="49.060368" lon="19.657432"></trkpt>
      <trkpt lat="49.064439" lon="19.647701"></trkpt>
      <trkpt lat="49.065274" lon="19.645444"></trkpt>
      <trkpt lat="49.066407" lon="19.641685"></trkpt>
      <trkpt lat="49.067121" lon="19.638629"></trkpt>
      <trkpt lat="49.068257" lon="19.632013"></trkpt>
      <trkpt lat="49.068958" lon="19.628746"></trkpt>
      <trkpt lat="49.069798" lon="19.625943"></trkpt>
      <trkpt lat="49.071588" lon="19.620713"></trkpt>
      <trkpt lat="49.072398" lon="19.617474"></trkpt>
      <trkpt lat="49.072915" lon="19.613846"></trkpt>
      <trkpt lat="49.073246" lon="19.607215"></trkpt>
      <trkpt lat="49.073541" lon="19.604023"></trkpt>
      <trkpt lat="49.074291" lon="19.601323"></trkpt>
      <trkpt lat="49.074543" lon="19.600855"></trkpt>
      <trkpt lat="49.075025" lon="19.600371"></trkpt>
      <trkpt lat="49.075705" lon="19.600039"></trkpt>
      <trkpt lat="49.07672" lon="19.600015"></trkpt>
      <trkpt lat="49.077384" lon="19.60012"></trkpt>
      <trkpt lat="49.078129" lon="19.60046"></trkpt>
      <trkpt lat="49.079641" lon="19.601762"></trkpt>
      <trkpt lat="49.08085" lon="19.603156"></trkpt>
      <trkpt lat="49.083208" lon="19.60631"></trkpt>
      <trkpt lat="49.083377" lon="19.606683"></trkpt>
      <trkpt lat="49.083453" lon="19.607259"></trkpt>
      <trkpt lat="49.082904" lon="19.609509"></trkpt>
      <trkpt lat="49.083633" lon="19.609735"></trkpt>
      <trkpt lat="49.083433" lon="19.610283"></trkpt>
      <trkpt lat="49.083159" lon="19.611903"></trkpt>
  </trkseg></trk>
</gpx>
