<?xml version='1.0' encoding='utf-8'?>
<gpx xmlns="http://www.topografix.com/GPX/1/1" version="1.1" creator="Yatutbuv"><trk><trkseg><trkpt lon="16.620441" lat="49.199749" /><trkpt lon="16.613935" lat="49.19822" /><trkpt lon="16.616431" lat="49.195098" /><trkpt lon="16.616395" lat="49.194497" /><trkpt lon="16.615224" lat="49.191845" /><trkpt lon="16.614439" lat="49.190963" /><trkpt lon="16.614541" lat="49.189748" /><trkpt lon="16.614714" lat="49.189402" /><trkpt lon="16.61621" lat="49.188056" /><trkpt lon="16.617514" lat="49.187911" /><trkpt lon="16.619144" lat="49.187272" /><trkpt lon="16.622201" lat="49.184287" /><trkpt lon="16.622253" lat="49.184011" /><trkpt lon="16.621553" lat="49.182579" /><trkpt lon="16.621407" lat="49.180517" /><trkpt lon="16.621779" lat="49.175885" /><trkpt lon="16.621956" lat="49.17532" /><trkpt lon="16.628083" lat="49.16718" /><trkpt lon="16.631545" lat="49.164811" /><trkpt lon="16.632069" lat="49.164401" /><trkpt lon="16.632308" lat="49.163979" /><trkpt lon="16.631972" lat="49.162111" /><trkpt lon="16.630286" lat="49.157126" /><trkpt lon="16.629878" lat="49.154561" /><trkpt lon="16.629881" lat="49.151854" /><trkpt lon="16.630479" lat="49.148809" /><trkpt lon="16.631095" lat="49.147029" /><trkpt lon="16.632949" lat="49.143145" /><trkpt lon="16.647349" lat="49.117717" /><trkpt lon="16.650703" lat="49.110876" /><trkpt lon="16.652865" lat="49.105213" /><trkpt lon="16.654271" lat="49.100806" /><trkpt lon="16.660187" lat="49.077682" /><trkpt lon="16.661499" lat="49.073468" /><trkpt lon="16.662817" lat="49.07002" /><trkpt lon="16.664752" lat="49.065771" /><trkpt lon="16.666992" lat="49.061664" /><trkpt lon="16.675366" lat="49.048333" /><trkpt lon="16.677596" lat="49.0444" /><trkpt lon="16.679705" lat="49.040329" /><trkpt lon="16.681588" lat="49.036136" /><trkpt lon="16.682858" lat="49.032819" /><trkpt lon="16.684322" lat="49.028284" /><trkpt lon="16.685589" lat="49.023453" /><trkpt lon="16.686201" lat="49.020365" /><trkpt lon="16.687098" lat="49.013075" /><trkpt lon="16.687612" lat="49.002731" /><trkpt lon="16.688018" lat="48.999452" /><trkpt lon="16.688782" lat="48.995881" /><trkpt lon="16.690264" lat="48.991501" /><trkpt lon="16.691282" lat="48.989181" /><trkpt lon="16.693444" lat="48.985185" /><trkpt lon="16.695869" lat="48.981617" /><trkpt lon="16.699294" lat="48.977467" /><trkpt lon="16.703477" lat="48.973338" /><trkpt lon="16.707976" lat="48.969663" /><trkpt lon="16.715561" lat="48.963882" /><trkpt lon="16.723643" lat="48.956297" /><trkpt lon="16.726228" lat="48.954417" /><trkpt lon="16.733321" lat="48.950247" /><trkpt lon="16.735447" lat="48.948511" /><trkpt lon="16.736796" lat="48.946996" /><trkpt lon="16.73791" lat="48.945242" /><trkpt lon="16.739726" lat="48.940794" /><trkpt lon="16.740284" lat="48.939807" /><trkpt lon="16.741388" lat="48.938438" /><trkpt lon="16.742812" lat="48.937066" /><trkpt lon="16.744385" lat="48.935831" /><trkpt lon="16.747217" lat="48.933967" /><trkpt lon="16.757676" lat="48.927871" /><trkpt lon="16.761829" lat="48.924943" /><trkpt lon="16.766511" lat="48.921131" /><trkpt lon="16.776901" lat="48.912101" /><trkpt lon="16.79081" lat="48.901502" /><trkpt lon="16.797619" lat="48.896027" /><trkpt lon="16.804368" lat="48.890195" /><trkpt lon="16.80908" lat="48.885851" /><trkpt lon="16.822741" lat="48.87249" /><trkpt lon="16.830991" lat="48.864859" /><trkpt lon="16.860272" lat="48.840058" /><trkpt lon="16.891828" lat="48.811201" /><trkpt lon="16.901065" lat="48.803317" /><trkpt lon="16.922326" lat="48.785763" /><trkpt lon="16.929594" lat="48.778974" /><trkpt lon="16.94196" lat="48.765851" /><trkpt lon="16.94615" lat="48.761772" /><trkpt lon="16.951775" lat="48.756845" /><trkpt lon="16.967953" lat="48.743992" /><trkpt lon="16.972904" lat="48.739392" /><trkpt lon="16.975561" lat="48.736424" /><trkpt lon="16.978412" lat="48.732657" /><trkpt lon="16.980368" lat="48.72956" /><trkpt lon="16.982463" lat="48.72541" /><trkpt lon="16.983717" lat="48.722178" /><trkpt lon="16.98506" lat="48.717777" /><trkpt lon="16.985892" lat="48.714477" /><trkpt lon="16.986943" lat="48.708552" /><trkpt lon="16.987447" lat="48.701519" /><trkpt lon="16.987135" lat="48.687243" /><trkpt lon="16.987363" lat="48.680869" /><trkpt lon="16.987601" lat="48.677927" /><trkpt lon="16.988477" lat="48.671808" /><trkpt lon="16.989186" lat="48.668153" /><trkpt lon="16.990435" lat="48.663105" /><trkpt lon="16.99253" lat="48.656451" /><trkpt lon="16.995725" lat="48.648987" /><trkpt lon="16.997644" lat="48.645438" /><trkpt lon="17.002917" lat="48.636952" /><trkpt lon="17.005421" lat="48.632531" /><trkpt lon="17.007472" lat="48.62849" /><trkpt lon="17.009522" lat="48.623858" /><trkpt lon="17.011344" lat="48.619109" /><trkpt lon="17.013149" lat="48.613366" /><trkpt lon="17.014606" lat="48.607339" /><trkpt lon="17.015385" lat="48.603021" /><trkpt lon="17.015984" lat="48.598014" /><trkpt lon="17.016235" lat="48.593957" /><trkpt lon="17.016157" lat="48.585563" /><trkpt lon="17.015631" lat="48.580084" /><trkpt lon="17.014904" lat="48.575295" /><trkpt lon="17.014099" lat="48.571298" /><trkpt lon="17.012106" lat="48.563424" /><trkpt lon="17.011424" lat="48.558775" /><trkpt lon="17.011265" lat="48.555863" /><trkpt lon="17.011309" lat="48.552775" /><trkpt lon="17.011661" lat="48.549184" /><trkpt lon="17.012172" lat="48.546236" /><trkpt lon="17.013367" lat="48.541758" /><trkpt lon="17.015563" lat="48.536184" /><trkpt lon="17.017548" lat="48.532377" /><trkpt lon="17.027699" lat="48.515385" /><trkpt lon="17.029536" lat="48.511718" /><trkpt lon="17.030915" lat="48.507889" /><trkpt lon="17.031712" lat="48.504382" /><trkpt lon="17.032072" lat="48.501259" /><trkpt lon="17.032096" lat="48.497956" /><trkpt lon="17.031613" lat="48.48708" /><trkpt lon="17.031846" lat="48.482164" /><trkpt lon="17.032426" lat="48.477576" /><trkpt lon="17.033678" lat="48.471895" /><trkpt lon="17.03463" lat="48.468713" /><trkpt lon="17.035801" lat="48.465318" /><trkpt lon="17.039867" lat="48.455181" /><trkpt lon="17.041237" lat="48.450801" /><trkpt lon="17.042481" lat="48.444855" /><trkpt lon="17.042938" lat="48.440513" /><trkpt lon="17.042979" lat="48.435099" /><trkpt lon="17.042557" lat="48.430402" /><trkpt lon="17.041412" lat="48.424534" /><trkpt lon="17.040099" lat="48.420155" /><trkpt lon="17.038596" lat="48.416264" /><trkpt lon="17.036694" lat="48.412216" /><trkpt lon="17.035523" lat="48.41009" /><trkpt lon="17.029644" lat="48.400682" /><trkpt lon="17.027432" lat="48.396606" /><trkpt lon="17.025567" lat="48.392628" /><trkpt lon="17.022872" lat="48.385582" /><trkpt lon="17.021472" lat="48.38069" /><trkpt lon="17.020744" lat="48.37732" /><trkpt lon="17.02013" lat="48.373756" /><trkpt lon="17.019622" lat="48.369013" /><trkpt lon="17.019511" lat="48.365566" /><trkpt lon="17.019687" lat="48.360257" /><trkpt lon="17.019889" lat="48.357583" /><trkpt lon="17.02059" lat="48.352823" /><trkpt lon="17.02308" lat="48.341765" /><trkpt lon="17.023732" lat="48.337689" /><trkpt lon="17.024057" lat="48.333096" /><trkpt lon="17.023834" lat="48.32798" /><trkpt lon="17.022933" lat="48.322434" /><trkpt lon="17.021688" lat="48.317978" /><trkpt lon="17.020193" lat="48.313968" /><trkpt lon="17.016506" lat="48.306605" /><trkpt lon="17.014256" lat="48.301558" /><trkpt lon="17.011604" lat="48.293991" /><trkpt lon="17.009971" lat="48.287144" /><trkpt lon="17.008954" lat="48.279993" /><trkpt lon="17.00871" lat="48.27615" /><trkpt lon="17.008663" lat="48.272008" /><trkpt lon="17.009003" lat="48.266256" /><trkpt lon="17.009922" lat="48.259883" /><trkpt lon="17.011256" lat="48.254044" /><trkpt lon="17.012657" lat="48.249474" /><trkpt lon="17.014325" lat="48.244978" /><trkpt lon="17.0166" lat="48.239903" /><trkpt lon="17.020241" lat="48.233199" /><trkpt lon="17.02327" lat="48.228459" /><trkpt lon="17.026917" lat="48.223452" /><trkpt lon="17.033542" lat="48.21527" /><trkpt lon="17.0377" lat="48.208939" /><trkpt lon="17.039961" lat="48.204631" /><trkpt lon="17.041633" lat="48.200751" /><trkpt lon="17.042793" lat="48.197478" /><trkpt lon="17.045009" lat="48.189684" /><trkpt lon="17.045501" lat="48.188432" /><trkpt lon="17.046319" lat="48.186992" /><trkpt lon="17.047606" lat="48.185371" /><trkpt lon="17.048835" lat="48.184187" /><trkpt lon="17.051436" lat="48.182343" /><trkpt lon="17.054358" lat="48.180915" /><trkpt lon="17.059608" lat="48.179061" /><trkpt lon="17.061671" lat="48.177762" /><trkpt lon="17.062452" lat="48.1769" /><trkpt lon="17.062972" lat="48.175948" /><trkpt lon="17.064493" lat="48.170751" /><trkpt lon="17.065611" lat="48.168774" /><trkpt lon="17.066703" lat="48.167635" /><trkpt lon="17.068468" lat="48.166363" /><trkpt lon="17.073538" lat="48.164001" /><trkpt lon="17.07479" lat="48.162912" /><trkpt lon="17.075667" lat="48.161649" /><trkpt lon="17.076145" lat="48.159722" /><trkpt lon="17.076249" lat="48.150166" /><trkpt lon="17.075913" lat="48.146398" /><trkpt lon="17.07455" lat="48.138531" /><trkpt lon="17.074273" lat="48.135169" /><trkpt lon="17.07449" lat="48.130931" /><trkpt lon="17.075382" lat="48.126577" /><trkpt lon="17.076957" lat="48.12229" /><trkpt lon="17.07871" lat="48.118904" /><trkpt lon="17.080941" lat="48.115493" /><trkpt lon="17.083451" lat="48.11216" /><trkpt lon="17.08517" lat="48.110141" /><trkpt lon="17.087466" lat="48.107894" /><trkpt lon="17.092877" lat="48.103982" /><trkpt lon="17.094623" lat="48.102475" /><trkpt lon="17.096516" lat="48.100265" /><trkpt lon="17.097568" lat="48.098484" /><trkpt lon="17.098293" lat="48.096618" /><trkpt lon="17.098674" lat="48.094699" /><trkpt lon="17.098805" lat="48.088925" /><trkpt lon="17.099134" lat="48.085735" /><trkpt lon="17.101178" lat="48.077083" /><trkpt lon="17.10107" lat="48.075749" /><trkpt lon="17.10071" lat="48.074864" /><trkpt lon="17.100198" lat="48.074171" /><trkpt lon="17.099326" lat="48.073405" /><trkpt lon="17.097801" lat="48.072598" /><trkpt lon="17.089634" lat="48.069772" /><trkpt lon="17.085988" lat="48.068975" /><trkpt lon="17.082068" lat="48.068907" /><trkpt lon="17.078647" lat="48.069494" /><trkpt lon="17.070688" lat="48.071759" /><trkpt lon="17.065732" lat="48.072991" /><trkpt lon="17.056677" lat="48.076195" /><trkpt lon="17.046364" lat="48.080392" /><trkpt lon="17.042667" lat="48.081487" /><trkpt lon="17.03937" lat="48.082012" /><trkpt lon="17.034606" lat="48.082106" /><trkpt lon="17.030587" lat="48.081593" /><trkpt lon="17.027467" lat="48.080769" /><trkpt lon="17.025429" lat="48.079997" /><trkpt lon="17.023113" lat="48.078825" /><trkpt lon="17.019837" lat="48.076643" /><trkpt lon="17.016068" lat="48.073839" /><trkpt lon="17.01337" lat="48.071064" /><trkpt lon="17.010676" lat="48.066864" /><trkpt lon="17.009233" lat="48.065142" /><trkpt lon="17.007726" lat="48.063668" /><trkpt lon="17.003765" lat="48.060416" /><trkpt lon="16.999453" lat="48.056445" /><trkpt lon="16.997081" lat="48.053551" /><trkpt lon="16.995711" lat="48.051364" /><trkpt lon="16.994911" lat="48.049714" /><trkpt lon="16.992572" lat="48.043793" /><trkpt lon="16.991822" lat="48.042315" /><trkpt lon="16.990826" lat="48.040899" /><trkpt lon="16.989759" lat="48.039719" /><trkpt lon="16.987347" lat="48.037827" /><trkpt lon="16.984663" lat="48.036341" /><trkpt lon="16.981569" lat="48.035151" /><trkpt lon="16.977787" lat="48.034295" /><trkpt lon="16.970602" lat="48.033347" /><trkpt lon="16.966765" lat="48.03258" /><trkpt lon="16.962446" lat="48.031162" /><trkpt lon="16.955246" lat="48.027929" /><trkpt lon="16.950983" lat="48.026663" /><trkpt lon="16.946939" lat="48.025902" /><trkpt lon="16.942749" lat="48.025514" /><trkpt lon="16.93699" lat="48.025619" /><trkpt lon="16.931516" lat="48.0264" /><trkpt lon="16.926804" lat="48.027681" /><trkpt lon="16.92362" lat="48.028932" /><trkpt lon="16.920537" lat="48.030497" /><trkpt lon="16.908475" lat="48.038606" /><trkpt lon="16.905609" lat="48.039681" /><trkpt lon="16.902367" lat="48.040148" /><trkpt lon="16.899111" lat="48.039921" /><trkpt lon="16.896138" lat="48.039086" /><trkpt lon="16.884042" lat="48.032599" /><trkpt lon="16.881757" lat="48.031652" /><trkpt lon="16.877229" lat="48.030237" /><trkpt lon="16.874263" lat="48.029569" /><trkpt lon="16.871169" lat="48.029089" /><trkpt lon="16.867041" lat="48.028746" /><trkpt lon="16.859574" lat="48.028675" /><trkpt lon="16.856967" lat="48.028384" /><trkpt lon="16.853518" lat="48.027593" /><trkpt lon="16.850388" lat="48.026436" /><trkpt lon="16.841232" lat="48.021501" /><trkpt lon="16.839334" lat="48.020838" /><trkpt lon="16.83823" lat="48.020933" /><trkpt lon="16.837541" lat="48.021333" /><trkpt lon="16.836016" lat="48.024592" /><trkpt lon="16.835093" lat="48.026037" /><trkpt lon="16.833393" lat="48.027933" /><trkpt lon="16.831403" lat="48.029567" /><trkpt lon="16.829225" lat="48.030903" /><trkpt lon="16.826614" lat="48.032097" /><trkpt lon="16.8174" lat="48.03487" /><trkpt lon="16.81646" lat="48.035459" /><trkpt lon="16.815583" lat="48.03686" /><trkpt lon="16.808731" lat="48.034025" /><trkpt lon="16.806216" lat="48.033581" /><trkpt lon="16.80526" lat="48.033682" /><trkpt lon="16.805034" lat="48.033474" /><trkpt lon="16.803963" lat="48.033148" /><trkpt lon="16.796484" lat="48.031766" /><trkpt lon="16.79576" lat="48.03168" /><trkpt lon="16.795157" lat="48.031856" /><trkpt lon="16.794687" lat="48.031472" /><trkpt lon="16.79341" lat="48.031152" /><trkpt lon="16.788198" lat="48.029071" /><trkpt lon="16.785082" lat="48.027521" /><trkpt lon="16.782365" lat="48.027483" /><trkpt lon="16.780958" lat="48.027792" /><trkpt lon="16.780471" lat="48.028203" /><trkpt lon="16.780201" lat="48.028214" /><trkpt lon="16.780118" lat="48.028015" /><trkpt lon="16.780331" lat="48.027818" /><trkpt lon="16.779387" lat="48.026038" /><trkpt lon="16.778611" lat="48.024845" /><trkpt lon="16.778151" lat="48.024959" /><trkpt lon="16.778532" lat="48.025718" /><trkpt lon="16.779035" lat="48.025598" /><trkpt lon="16.778611" lat="48.024845" /><trkpt lon="16.78051" lat="48.02424" /><trkpt lon="16.781247" lat="48.023735" /><trkpt lon="16.781316" lat="48.023399" /><trkpt lon="16.780553" lat="48.022105" /><trkpt lon="16.780624" lat="48.021897" /><trkpt lon="16.781608" lat="48.021906" /><trkpt lon="16.783911" lat="48.020894" /><trkpt lon="16.786025" lat="48.020582" /><trkpt lon="16.793563" lat="48.018071" /><trkpt lon="16.796711" lat="48.017535" /><trkpt lon="16.803951" lat="48.016912" /><trkpt lon="16.80689" lat="48.016389" /><trkpt lon="16.809784" lat="48.015658" /><trkpt lon="16.812465" lat="48.014714" /><trkpt lon="16.814883" lat="48.013626" /><trkpt lon="16.82072" lat="48.010227" /><trkpt lon="16.82401" lat="48.008617" /><trkpt lon="16.827685" lat="48.007135" /><trkpt lon="16.833089" lat="48.005363" /><trkpt lon="16.832687" lat="48.0047" /><trkpt lon="16.832631" lat="48.004033" /><trkpt lon="16.833495" lat="48.00312" /><trkpt lon="16.833604" lat="48.002452" /><trkpt lon="16.832379" lat="47.996802" /><trkpt lon="16.832202" lat="47.994788" /><trkpt lon="16.832441" lat="47.991938" /><trkpt lon="16.833233" lat="47.989138" /><trkpt lon="16.834473" lat="47.986572" /><trkpt lon="16.836273" lat="47.984033" /><trkpt lon="16.838633" lat="47.981592" /><trkpt lon="16.841786" lat="47.979152" /><trkpt lon="16.841976" lat="47.97873" /><trkpt lon="16.841998" lat="47.977916" /><trkpt lon="16.843264" lat="47.977118" /><trkpt lon="16.84301" lat="47.976643" /><trkpt lon="16.838879" lat="47.973376" /><trkpt lon="16.838264" lat="47.973194" /><trkpt lon="16.837552" lat="47.973534" /><trkpt lon="16.836992" lat="47.973476" /><trkpt lon="16.836516" lat="47.973314" /><trkpt lon="16.836291" lat="47.973032" /><trkpt lon="16.836395" lat="47.972588" /><trkpt lon="16.837492" lat="47.971515" /><trkpt lon="16.83795" lat="47.970797" /><trkpt lon="16.83816" lat="47.968119" /><trkpt lon="16.837799" lat="47.965628" /><trkpt lon="16.835575" lat="47.959072" /><trkpt lon="16.83563" lat="47.958074" /><trkpt lon="16.835894" lat="47.957314" /><trkpt lon="16.83577" lat="47.956968" /><trkpt lon="16.836211" lat="47.956644" /><trkpt lon="16.836998" lat="47.953614" /><trkpt lon="16.83691" lat="47.953043" /><trkpt lon="16.836241" lat="47.951751" /><trkpt lon="16.840011" lat="47.949933" /><trkpt lon="16.843663" lat="47.94839" /><trkpt lon="16.847237" lat="47.946135" /><trkpt lon="16.849099" lat="47.944241" /><trkpt lon="16.848472" lat="47.943841" /><trkpt lon="16.846744" lat="47.94217" /><trkpt lon="16.840388" lat="47.935158" /><trkpt lon="16.836304" lat="47.930446" /><trkpt lon="16.83678" lat="47.930251" /><trkpt lon="16.836304" lat="47.930446" /><trkpt lon="16.840388" lat="47.935158" /><trkpt lon="16.846744" lat="47.94217" /><trkpt lon="16.848472" lat="47.943841" /><trkpt lon="16.849099" lat="47.944241" /><trkpt lon="16.847237" lat="47.946135" /><trkpt lon="16.843663" lat="47.94839" /><trkpt lon="16.833194" lat="47.952996" /><trkpt lon="16.830341" lat="47.95498" /><trkpt lon="16.827416" lat="47.956088" /><trkpt lon="16.824776" lat="47.957498" /><trkpt lon="16.819723" lat="47.961334" /><trkpt lon="16.81644" lat="47.96493" /><trkpt lon="16.814078" lat="47.966766" /><trkpt lon="16.81327" lat="47.967501" /><trkpt lon="16.813186" lat="47.967866" /><trkpt lon="16.813016" lat="47.967969" /><trkpt lon="16.807322" lat="47.966768" /><trkpt lon="16.805346" lat="47.966069" /><trkpt lon="16.802249" lat="47.964691" /><trkpt lon="16.801129" lat="47.964592" /><trkpt lon="16.800139" lat="47.964231" /><trkpt lon="16.796151" lat="47.964416" /><trkpt lon="16.79245" lat="47.96416" /><trkpt lon="16.789413" lat="47.964762" /><trkpt lon="16.779858" lat="47.965462" /><trkpt lon="16.77797" lat="47.96535" /><trkpt lon="16.776565" lat="47.965054" /><trkpt lon="16.774744" lat="47.964355" /><trkpt lon="16.757933" lat="47.954716" /><trkpt lon="16.751192" lat="47.95154" /><trkpt lon="16.749994" lat="47.951191" /><trkpt lon="16.745651" lat="47.950462" /><trkpt lon="16.744744" lat="47.950477" /><trkpt lon="16.744222" lat="47.950183" /><trkpt lon="16.739723" lat="47.949049" /><trkpt lon="16.738397" lat="47.948855" /><trkpt lon="16.735611" lat="47.948764" /><trkpt lon="16.735001" lat="47.948598" /><trkpt lon="16.734497" lat="47.948147" /><trkpt lon="16.733711" lat="47.946446" /><trkpt lon="16.730445" lat="47.942915" /><trkpt lon="16.723808" lat="47.934572" /><trkpt lon="16.722733" lat="47.933445" /><trkpt lon="16.714067" lat="47.928002" /><trkpt lon="16.70411" lat="47.921052" /><trkpt lon="16.699891" lat="47.918451" /><trkpt lon="16.698487" lat="47.917376" /><trkpt lon="16.696793" lat="47.915766" /><trkpt lon="16.696203" lat="47.915584" /><trkpt lon="16.694939" lat="47.915631" /><trkpt lon="16.693511" lat="47.914862" /><trkpt lon="16.692114" lat="47.913344" /><trkpt lon="16.689448" lat="47.911441" /><trkpt lon="16.688115" lat="47.910935" /><trkpt lon="16.685332" lat="47.910762" /><trkpt lon="16.681601" lat="47.909986" /><trkpt lon="16.673161" lat="47.908879" /><trkpt lon="16.668558" lat="47.907743" /><trkpt lon="16.665127" lat="47.907489" /><trkpt lon="16.663045" lat="47.907098" /><trkpt lon="16.660363" lat="47.905967" /><trkpt lon="16.659302" lat="47.905187" /><trkpt lon="16.658061" lat="47.903882" /><trkpt lon="16.653491" lat="47.900997" /><trkpt lon="16.651141" lat="47.897934" /><trkpt lon="16.647759" lat="47.894463" /><trkpt lon="16.647275" lat="47.893597" /><trkpt lon="16.647844" lat="47.890322" /><trkpt lon="16.647304" lat="47.885311" /><trkpt lon="16.647308" lat="47.883699" /><trkpt lon="16.647785" lat="47.881318" /><trkpt lon="16.647992" lat="47.878953" /><trkpt lon="16.649216" lat="47.87682" /><trkpt lon="16.649465" lat="47.875606" /><trkpt lon="16.649135" lat="47.874176" /><trkpt lon="16.647207" lat="47.868767" /><trkpt lon="16.646758" lat="47.868542" /><trkpt lon="16.643551" lat="47.868068" /><trkpt lon="16.639978" lat="47.867023" /><trkpt lon="16.638165" lat="47.866689" /><trkpt lon="16.635476" lat="47.866516" /><trkpt lon="16.630619" lat="47.866626" /><trkpt lon="16.628202" lat="47.866397" /><trkpt lon="16.625073" lat="47.865716" /><trkpt lon="16.622307" lat="47.864686" /><trkpt lon="16.611675" lat="47.859305" /><trkpt lon="16.609324" lat="47.857872" /><trkpt lon="16.607483" lat="47.856239" /><trkpt lon="16.60627" lat="47.854677" /><trkpt lon="16.60543" lat="47.852974" /><trkpt lon="16.604417" lat="47.850058" /><trkpt lon="16.603651" lat="47.848889" /><trkpt lon="16.602713" lat="47.847874" /><trkpt lon="16.602057" lat="47.847377" /><trkpt lon="16.601526" lat="47.847299" /><trkpt lon="16.601484" lat="47.846966" /><trkpt lon="16.601151" lat="47.84664" /><trkpt lon="16.599685" lat="47.845812" /><trkpt lon="16.59765" lat="47.844993" /><trkpt lon="16.595771" lat="47.844492" /><trkpt lon="16.590135" lat="47.843422" /><trkpt lon="16.585206" lat="47.842817" /><trkpt lon="16.579418" lat="47.842471" /><trkpt lon="16.572612" lat="47.842489" /><trkpt lon="16.564643" lat="47.843324" /><trkpt lon="16.54484" lat="47.845794" /><trkpt lon="16.544624" lat="47.844816" /><trkpt lon="16.544952" lat="47.843914" /><trkpt lon="16.550471" lat="47.835755" /><trkpt lon="16.551435" lat="47.833991" /><trkpt lon="16.551572" lat="47.83288" /><trkpt lon="16.551305" lat="47.831821" /><trkpt lon="16.550806" lat="47.831056" /><trkpt lon="16.550002" lat="47.830312" /><trkpt lon="16.543507" lat="47.827101" /><trkpt lon="16.539269" lat="47.825663" /><trkpt lon="16.535537" lat="47.824936" /><trkpt lon="16.526253" lat="47.823752" /><trkpt lon="16.518336" lat="47.822189" /><trkpt lon="16.509235" lat="47.819862" /><trkpt lon="16.498732" lat="47.816511" /><trkpt lon="16.492712" lat="47.81423" /><trkpt lon="16.487261" lat="47.811731" /><trkpt lon="16.483359" lat="47.809594" /><trkpt lon="16.475754" lat="47.804934" /><trkpt lon="16.472168" lat="47.802994" /><trkpt lon="16.468797" lat="47.801397" /><trkpt lon="16.463438" lat="47.799259" /><trkpt lon="16.453296" lat="47.796022" /><trkpt lon="16.449942" lat="47.794531" /><trkpt lon="16.446303" lat="47.792241" /><trkpt lon="16.443375" lat="47.789564" /><trkpt lon="16.429989" lat="47.772664" /><trkpt lon="16.427731" lat="47.770108" /><trkpt lon="16.425349" lat="47.767769" /><trkpt lon="16.422022" lat="47.764956" /><trkpt lon="16.418211" lat="47.762218" /><trkpt lon="16.413516" lat="47.7594" /><trkpt lon="16.410156" lat="47.757799" /><trkpt lon="16.40801" lat="47.757274" /><trkpt lon="16.406016" lat="47.757159" /><trkpt lon="16.404129" lat="47.757373" /><trkpt lon="16.402313" lat="47.757895" /><trkpt lon="16.399235" lat="47.759494" /><trkpt lon="16.388077" lat="47.766356" /><trkpt lon="16.383697" lat="47.76874" /><trkpt lon="16.377645" lat="47.771731" /><trkpt lon="16.369759" lat="47.775109" /><trkpt lon="16.353074" lat="47.781542" /><trkpt lon="16.35039" lat="47.782391" /><trkpt lon="16.345734" lat="47.783153" /><trkpt lon="16.337083" lat="47.78357" /><trkpt lon="16.325414" lat="47.784518" /><trkpt lon="16.320996" lat="47.784729" /><trkpt lon="16.31113" lat="47.784748" /><trkpt lon="16.307007" lat="47.785062" /><trkpt lon="16.304529" lat="47.785413" /><trkpt lon="16.297622" lat="47.787045" /><trkpt lon="16.269304" lat="47.794858" /><trkpt lon="16.266944" lat="47.795598" /><trkpt lon="16.263295" lat="47.797037" /><trkpt lon="16.261815" lat="47.797438" /><trkpt lon="16.259793" lat="47.797433" /><trkpt lon="16.258835" lat="47.79717" /><trkpt lon="16.257747" lat="47.796572" /><trkpt lon="16.25726" lat="47.796104" /><trkpt lon="16.256829" lat="47.79538" /><trkpt lon="16.25661" lat="47.793445" /><trkpt lon="16.256186" lat="47.792189" /><trkpt lon="16.253809" lat="47.789002" /><trkpt lon="16.252628" lat="47.78769" /><trkpt lon="16.251101" lat="47.786431" /><trkpt lon="16.249589" lat="47.785536" /><trkpt lon="16.247569" lat="47.784689" /><trkpt lon="16.245357" lat="47.784104" /><trkpt lon="16.242206" lat="47.783733" /><trkpt lon="16.238764" lat="47.783926" /><trkpt lon="16.236342" lat="47.784458" /><trkpt lon="16.231513" lat="47.78606" /><trkpt lon="16.227041" lat="47.787244" /><trkpt lon="16.222277" lat="47.788062" /><trkpt lon="16.217108" lat="47.78849" /><trkpt lon="16.212004" lat="47.788456" /><trkpt lon="16.208031" lat="47.78804" /><trkpt lon="16.204731" lat="47.787033" /><trkpt lon="16.202565" lat="47.785737" /><trkpt lon="16.2018" lat="47.784807" /><trkpt lon="16.201563" lat="47.783582" /><trkpt lon="16.201953" lat="47.782474" /><trkpt lon="16.203558" lat="47.78049" /><trkpt lon="16.204174" lat="47.778758" /><trkpt lon="16.204303" lat="47.771855" /><trkpt lon="16.203828" lat="47.76767" /><trkpt lon="16.202955" lat="47.764602" /><trkpt lon="16.201569" lat="47.761499" /><trkpt lon="16.199752" lat="47.758534" /><trkpt lon="16.196574" lat="47.754758" /><trkpt lon="16.193227" lat="47.751778" /><trkpt lon="16.190897" lat="47.750034" /><trkpt lon="16.188356" lat="47.74844" /><trkpt lon="16.151098" lat="47.728461" /><trkpt lon="16.138716" lat="47.721147" /><trkpt lon="16.135388" lat="47.718761" /><trkpt lon="16.13307" lat="47.71663" /><trkpt lon="16.131298" lat="47.714377" /><trkpt lon="16.130198" lat="47.712352" /><trkpt lon="16.129595" lat="47.710761" /><trkpt lon="16.129126" lat="47.708771" /><trkpt lon="16.129015" lat="47.706813" /><trkpt lon="16.129111" lat="47.705439" /><trkpt lon="16.130214" lat="47.699117" /><trkpt lon="16.130228" lat="47.696788" /><trkpt lon="16.130038" lat="47.695199" /><trkpt lon="16.129456" lat="47.693008" /><trkpt lon="16.128668" lat="47.691096" /><trkpt lon="16.124268" lat="47.683606" /><trkpt lon="16.123646" lat="47.682041" /><trkpt lon="16.123369" lat="47.680762" /><trkpt lon="16.123309" lat="47.679662" /><trkpt lon="16.123533" lat="47.678037" /><trkpt lon="16.124155" lat="47.676348" /><trkpt lon="16.126197" lat="47.67208" /><trkpt lon="16.126578" lat="47.67064" /><trkpt lon="16.126724" lat="47.668841" /><trkpt lon="16.12624" lat="47.664539" /><trkpt lon="16.12352" lat="47.651287" /><trkpt lon="16.123284" lat="47.648066" /><trkpt lon="16.123499" lat="47.646097" /><trkpt lon="16.124035" lat="47.644179" /><trkpt lon="16.126569" lat="47.638153" /><trkpt lon="16.128173" lat="47.633729" /><trkpt lon="16.129951" lat="47.629898" /><trkpt lon="16.1329" lat="47.624888" /><trkpt lon="16.133212" lat="47.623839" /><trkpt lon="16.133063" lat="47.622192" /><trkpt lon="16.130401" lat="47.616419" /><trkpt lon="16.129632" lat="47.614101" /><trkpt lon="16.12891" lat="47.61101" /><trkpt lon="16.128839" lat="47.61009" /><trkpt lon="16.128991" lat="47.609161" /><trkpt lon="16.130203" lat="47.606678" /><trkpt lon="16.130292" lat="47.605479" /><trkpt lon="16.13006" lat="47.604692" /><trkpt lon="16.129299" lat="47.603626" /><trkpt lon="16.128565" lat="47.603027" /><trkpt lon="16.125848" lat="47.601543" /><trkpt lon="16.124717" lat="47.600311" /><trkpt lon="16.12426" lat="47.598935" /><trkpt lon="16.123749" lat="47.595146" /><trkpt lon="16.123392" lat="47.594354" /><trkpt lon="16.122805" lat="47.593624" /><trkpt lon="16.121072" lat="47.592487" /><trkpt lon="16.116513" lat="47.590432" /><trkpt lon="16.112518" lat="47.589789" /><trkpt lon="16.110611" lat="47.589111" /><trkpt lon="16.109565" lat="47.58841" /><trkpt lon="16.108896" lat="47.587699" /><trkpt lon="16.108441" lat="47.586838" /><trkpt lon="16.108279" lat="47.585716" /><trkpt lon="16.108509" lat="47.584744" /><trkpt lon="16.109292" lat="47.583211" /><trkpt lon="16.110049" lat="47.580515" /><trkpt lon="16.11075" lat="47.57954" /><trkpt lon="16.11211" lat="47.578225" /><trkpt lon="16.112814" lat="47.576943" /><trkpt lon="16.112886" lat="47.575913" /><trkpt lon="16.112412" lat="47.573954" /><trkpt lon="16.112437" lat="47.573244" /><trkpt lon="16.112953" lat="47.571962" /><trkpt lon="16.114308" lat="47.570414" /><trkpt lon="16.11483" lat="47.569471" /><trkpt lon="16.11498" lat="47.568622" /><trkpt lon="16.114857" lat="47.566586" /><trkpt lon="16.115342" lat="47.565337" /><trkpt lon="16.11598" lat="47.564584" /><trkpt lon="16.116859" lat="47.563925" /><trkpt lon="16.120327" lat="47.562281" /><trkpt lon="16.122775" lat="47.55982" /><trkpt lon="16.124095" lat="47.558851" /><trkpt lon="16.128037" lat="47.556946" /><trkpt lon="16.12917" lat="47.556008" /><trkpt lon="16.129645" lat="47.55532" /><trkpt lon="16.129942" lat="47.554431" /><trkpt lon="16.129764" lat="47.552142" /><trkpt lon="16.129937" lat="47.551237" /><trkpt lon="16.130628" lat="47.55009" /><trkpt lon="16.13251" lat="47.548134" /><trkpt lon="16.132885" lat="47.54724" /><trkpt lon="16.132918" lat="47.546099" /><trkpt lon="16.132459" lat="47.544984" /><trkpt lon="16.13175" lat="47.544183" /><trkpt lon="16.130577" lat="47.543396" /><trkpt lon="16.129503" lat="47.542973" /><trkpt lon="16.128162" lat="47.542685" /><trkpt lon="16.126697" lat="47.542625" /><trkpt lon="16.122697" lat="47.543287" /><trkpt lon="16.121173" lat="47.543329" /><trkpt lon="16.119817" lat="47.543169" /><trkpt lon="16.118092" lat="47.542673" /><trkpt lon="16.11572" lat="47.54147" /><trkpt lon="16.112539" lat="47.540417" /><trkpt lon="16.110965" lat="47.539394" /><trkpt lon="16.110062" lat="47.538137" /><trkpt lon="16.109827" lat="47.536876" /><trkpt lon="16.109952" lat="47.53615" /><trkpt lon="16.110698" lat="47.534355" /><trkpt lon="16.110979" lat="47.531655" /><trkpt lon="16.112116" lat="47.529707" /><trkpt lon="16.112341" lat="47.529047" /><trkpt lon="16.112353" lat="47.528029" /><trkpt lon="16.112062" lat="47.527196" /><trkpt lon="16.111056" lat="47.525962" /><trkpt lon="16.108362" lat="47.523911" /><trkpt lon="16.101028" lat="47.519826" /><trkpt lon="16.099782" lat="47.518596" /><trkpt lon="16.099398" lat="47.517726" /><trkpt lon="16.099293" lat="47.516786" /><trkpt lon="16.099625" lat="47.515588" /><trkpt lon="16.103393" lat="47.510697" /><trkpt lon="16.104586" lat="47.509574" /><trkpt lon="16.105597" lat="47.50892" /><trkpt lon="16.106834" lat="47.508338" /><trkpt lon="16.109772" lat="47.507321" /><trkpt lon="16.111178" lat="47.506485" /><trkpt lon="16.112071" lat="47.505606" /><trkpt lon="16.112492" lat="47.504942" /><trkpt lon="16.112853" lat="47.503776" /><trkpt lon="16.112821" lat="47.502866" /><trkpt lon="16.11243" lat="47.501767" /><trkpt lon="16.111887" lat="47.501016" /><trkpt lon="16.110259" lat="47.499751" /><trkpt lon="16.108312" lat="47.499017" /><trkpt lon="16.104266" lat="47.498461" /><trkpt lon="16.102805" lat="47.497964" /><trkpt lon="16.101658" lat="47.49728" /><trkpt lon="16.097932" lat="47.494277" /><trkpt lon="16.097161" lat="47.493068" /><trkpt lon="16.097022" lat="47.491733" /><trkpt lon="16.09732" lat="47.490771" /><trkpt lon="16.098769" lat="47.488414" /><trkpt lon="16.098911" lat="47.487144" /><trkpt lon="16.098722" lat="47.486338" /><trkpt lon="16.098017" lat="47.485176" /><trkpt lon="16.097309" lat="47.484516" /><trkpt lon="16.094808" lat="47.483074" /><trkpt lon="16.093847" lat="47.482291" /><trkpt lon="16.093352" lat="47.481657" /><trkpt lon="16.092937" lat="47.480542" /><trkpt lon="16.09297" lat="47.479468" /><trkpt lon="16.093327" lat="47.478577" /><trkpt lon="16.094099" lat="47.477634" /><trkpt lon="16.095585" lat="47.476243" /><trkpt lon="16.096332" lat="47.475038" /><trkpt lon="16.097316" lat="47.470083" /><trkpt lon="16.097306" lat="47.46864" /><trkpt lon="16.096518" lat="47.466079" /><trkpt lon="16.096579" lat="47.464064" /><trkpt lon="16.096963" lat="47.460729" /><trkpt lon="16.09806" lat="47.456539" /><trkpt lon="16.097872" lat="47.455504" /><trkpt lon="16.096901" lat="47.453473" /><trkpt lon="16.096831" lat="47.452529" /><trkpt lon="16.09696" lat="47.451879" /><trkpt lon="16.098049" lat="47.449385" /><trkpt lon="16.098787" lat="47.445924" /><trkpt lon="16.098529" lat="47.444834" /><trkpt lon="16.097213" lat="47.442663" /><trkpt lon="16.09705" lat="47.441336" /><trkpt lon="16.097484" lat="47.440106" /><trkpt lon="16.100618" lat="47.43534" /><trkpt lon="16.100797" lat="47.434571" /><trkpt lon="16.100649" lat="47.433415" /><trkpt lon="16.099968" lat="47.432278" /><trkpt lon="16.098018" lat="47.430654" /><trkpt lon="16.097021" lat="47.429469" /><trkpt lon="16.096458" lat="47.428065" /><trkpt lon="16.096345" lat="47.425519" /><trkpt lon="16.09602" lat="47.424696" /><trkpt lon="16.095231" lat="47.423758" /><trkpt lon="16.093756" lat="47.422731" /><trkpt lon="16.092275" lat="47.421961" /><trkpt lon="16.088304" lat="47.420506" /><trkpt lon="16.087193" lat="47.419912" /><trkpt lon="16.08479" lat="47.417546" /><trkpt lon="16.083641" lat="47.416879" /><trkpt lon="16.081623" lat="47.416029" /><trkpt lon="16.080541" lat="47.415312" /><trkpt lon="16.079773" lat="47.414452" /><trkpt lon="16.079259" lat="47.413085" /><trkpt lon="16.07911" lat="47.410887" /><trkpt lon="16.079187" lat="47.409325" /><trkpt lon="16.079446" lat="47.40844" /><trkpt lon="16.080959" lat="47.405115" /><trkpt lon="16.081347" lat="47.403041" /><trkpt lon="16.08134" lat="47.401262" /><trkpt lon="16.08101" lat="47.397966" /><trkpt lon="16.081054" lat="47.396555" /><trkpt lon="16.081302" lat="47.395188" /><trkpt lon="16.081745" lat="47.393874" /><trkpt lon="16.082673" lat="47.392097" /><trkpt lon="16.087333" lat="47.386268" /><trkpt lon="16.088555" lat="47.3841" /><trkpt lon="16.08935" lat="47.382186" /><trkpt lon="16.089941" lat="47.37997" /><trkpt lon="16.090207" lat="47.377222" /><trkpt lon="16.090042" lat="47.374871" /><trkpt lon="16.089622" lat="47.372888" /><trkpt lon="16.088807" lat="47.370633" /><trkpt lon="16.087469" lat="47.368148" /><trkpt lon="16.081302" lat="47.358795" /><trkpt lon="16.079505" lat="47.356785" /><trkpt lon="16.072427" lat="47.350468" /><trkpt lon="16.069357" lat="47.347085" /><trkpt lon="16.066979" lat="47.343895" /><trkpt lon="16.064786" lat="47.340207" /><trkpt lon="16.063439" lat="47.337332" /><trkpt lon="16.062246" lat="47.333936" /><trkpt lon="16.061573" lat="47.33116" /><trkpt lon="16.06112" lat="47.328062" /><trkpt lon="16.060983" lat="47.324821" /><trkpt lon="16.061147" lat="47.322003" /><trkpt lon="16.06162" lat="47.318908" /><trkpt lon="16.062332" lat="47.316112" /><trkpt lon="16.063501" lat="47.312854" /><trkpt lon="16.068351" lat="47.303049" /><trkpt lon="16.069441" lat="47.30026" /><trkpt lon="16.069845" lat="47.298661" /><trkpt lon="16.07013" lat="47.296262" /><trkpt lon="16.070036" lat="47.293878" /><trkpt lon="16.069679" lat="47.291906" /><trkpt lon="16.068933" lat="47.289648" /><trkpt lon="16.067761" lat="47.287318" /><trkpt lon="16.065978" lat="47.284763" /><trkpt lon="16.063964" lat="47.282596" /><trkpt lon="16.061627" lat="47.280616" /><trkpt lon="16.058514" lat="47.278563" /><trkpt lon="16.055844" lat="47.277179" /><trkpt lon="16.052475" lat="47.27579" /><trkpt lon="16.049185" lat="47.274768" /><trkpt lon="16.045064" lat="47.273876" /><trkpt lon="16.041755" lat="47.273442" /><trkpt lon="16.037674" lat="47.273226" /><trkpt lon="16.034861" lat="47.273278" /><trkpt lon="16.031221" lat="47.273581" /><trkpt lon="16.022007" lat="47.275042" /><trkpt lon="16.019018" lat="47.275377" /><trkpt lon="16.016325" lat="47.275418" /><trkpt lon="16.013703" lat="47.275171" /><trkpt lon="16.00978" lat="47.274214" /><trkpt lon="16.008052" lat="47.273526" /><trkpt lon="16.006324" lat="47.272613" /><trkpt lon="16.004596" lat="47.271412" /><trkpt lon="16.003242" lat="47.270141" /><trkpt lon="16.00202" lat="47.268557" /><trkpt lon="16.001444" lat="47.267484" /><trkpt lon="16.000872" lat="47.265761" /><trkpt lon="16.000693" lat="47.264096" /><trkpt lon="16.000806" lat="47.26259" /><trkpt lon="16.001812" lat="47.256956" /><trkpt lon="16.001844" lat="47.255758" /><trkpt lon="16.001611" lat="47.253895" /><trkpt lon="16.000922" lat="47.251713" /><trkpt lon="15.997655" lat="47.245368" /><trkpt lon="15.996807" lat="47.24341" /><trkpt lon="15.995398" lat="47.238947" /><trkpt lon="15.994843" lat="47.235666" /><trkpt lon="15.994679" lat="47.232644" /><trkpt lon="15.995357" lat="47.223657" /><trkpt lon="15.995193" lat="47.220109" /><trkpt lon="15.994324" lat="47.216513" /><trkpt lon="15.991016" lat="47.208627" /><trkpt lon="15.990484" lat="47.206519" /><trkpt lon="15.990256" lat="47.203835" /><trkpt lon="15.990596" lat="47.200593" /><trkpt lon="15.991412" lat="47.197916" /><trkpt lon="15.992481" lat="47.195712" /><trkpt lon="15.995533" lat="47.19059" /><trkpt lon="15.996484" lat="47.188447" /><trkpt lon="15.997058" lat="47.186531" /><trkpt lon="15.997459" lat="47.183361" /><trkpt lon="15.997379" lat="47.181477" /><trkpt lon="15.996789" lat="47.177306" /><trkpt lon="15.996923" lat="47.174926" /><trkpt lon="16.001024" lat="47.162726" /><trkpt lon="16.001396" lat="47.160141" /><trkpt lon="16.00127" lat="47.157826" /><trkpt lon="16.000496" lat="47.154971" /><trkpt lon="15.998968" lat="47.152114" /><trkpt lon="15.992316" lat="47.144174" /><trkpt lon="15.990606" lat="47.141897" /><trkpt lon="15.988931" lat="47.139299" /><trkpt lon="15.986822" lat="47.135139" /><trkpt lon="15.985367" lat="47.131022" /><trkpt lon="15.984506" lat="47.127014" /><trkpt lon="15.984154" lat="47.122692" /><trkpt lon="15.984214" lat="47.118546" /><trkpt lon="15.984866" lat="47.107477" /><trkpt lon="15.984846" lat="47.104845" /><trkpt lon="15.984359" lat="47.101411" /><trkpt lon="15.983227" lat="47.098031" /><trkpt lon="15.981309" lat="47.094527" /><trkpt lon="15.979904" lat="47.092628" /><trkpt lon="15.978087" lat="47.090604" /><trkpt lon="15.976368" lat="47.089003" /><trkpt lon="15.973747" lat="47.086955" /><trkpt lon="15.969967" lat="47.084613" /><trkpt lon="15.965187" lat="47.082388" /><trkpt lon="15.959773" lat="47.080609" /><trkpt lon="15.954969" lat="47.07956" /><trkpt lon="15.948609" lat="47.078846" /><trkpt lon="15.942098" lat="47.078843" /><trkpt lon="15.930394" lat="47.079814" /><trkpt lon="15.923594" lat="47.08014" /><trkpt lon="15.914122" lat="47.080084" /><trkpt lon="15.899062" lat="47.07949" /><trkpt lon="15.892963" lat="47.079683" /><trkpt lon="15.889205" lat="47.080205" /><trkpt lon="15.88391" lat="47.081525" /><trkpt lon="15.880826" lat="47.082661" /><trkpt lon="15.872031" lat="47.086654" /><trkpt lon="15.86942" lat="47.087545" /><trkpt lon="15.866402" lat="47.088292" /><trkpt lon="15.862492" lat="47.088877" /><trkpt lon="15.84401" lat="47.090395" /><trkpt lon="15.839554" lat="47.09098" /><trkpt lon="15.834717" lat="47.092225" /><trkpt lon="15.820446" lat="47.097643" /><trkpt lon="15.816937" lat="47.098646" /><trkpt lon="15.812591" lat="47.09923" /><trkpt lon="15.799445" lat="47.099497" /><trkpt lon="15.793148" lat="47.100062" /><trkpt lon="15.786228" lat="47.101417" /><trkpt lon="15.772736" lat="47.105222" /><trkpt lon="15.768969" lat="47.105738" /><trkpt lon="15.766842" lat="47.105691" /><trkpt lon="15.764899" lat="47.105451" /><trkpt lon="15.762808" lat="47.104944" /><trkpt lon="15.760907" lat="47.104233" /><trkpt lon="15.758594" lat="47.102952" /><trkpt lon="15.750162" lat="47.097499" /><trkpt lon="15.74726" lat="47.095925" /><trkpt lon="15.744405" lat="47.094712" /><trkpt lon="15.739231" lat="47.093216" /><trkpt lon="15.733528" lat="47.092413" /><trkpt lon="15.730699" lat="47.092315" /><trkpt lon="15.727349" lat="47.092433" /><trkpt lon="15.72243" lat="47.093112" /><trkpt lon="15.720002" lat="47.093676" /><trkpt lon="15.716021" lat="47.094886" /><trkpt lon="15.706722" lat="47.09841" /><trkpt lon="15.703767" lat="47.099315" /><trkpt lon="15.699253" lat="47.100037" /><trkpt lon="15.696669" lat="47.1001" /><trkpt lon="15.694266" lat="47.099941" /><trkpt lon="15.690422" lat="47.099203" /><trkpt lon="15.686947" lat="47.097947" /><trkpt lon="15.684333" lat="47.096516" /><trkpt lon="15.680301" lat="47.093705" /><trkpt lon="15.677878" lat="47.092427" /><trkpt lon="15.675316" lat="47.091358" /><trkpt lon="15.672223" lat="47.09041" /><trkpt lon="15.665162" lat="47.088959" /><trkpt lon="15.661638" lat="47.088062" /><trkpt lon="15.657973" lat="47.086842" /><trkpt lon="15.654644" lat="47.085423" /><trkpt lon="15.649665" lat="47.082637" /><trkpt lon="15.646225" lat="47.080057" /><trkpt lon="15.644325" lat="47.078296" /><trkpt lon="15.640309" lat="47.073792" /><trkpt lon="15.6389" lat="47.072588" /><trkpt lon="15.636448" lat="47.071127" /><trkpt lon="15.633705" lat="47.070112" /><trkpt lon="15.625571" lat="47.068485" /><trkpt lon="15.62144" lat="47.067479" /><trkpt lon="15.611728" lat="47.06427" /><trkpt lon="15.609256" lat="47.063658" /><trkpt lon="15.605532" lat="47.06307" /><trkpt lon="15.599671" lat="47.062504" /><trkpt lon="15.59542" lat="47.061736" /><trkpt lon="15.593198" lat="47.061596" /><trkpt lon="15.590617" lat="47.061757" /><trkpt lon="15.58812" lat="47.062264" /><trkpt lon="15.583759" lat="47.063591" /><trkpt lon="15.58029" lat="47.064045" /><trkpt lon="15.57674" lat="47.063844" /><trkpt lon="15.570529" lat="47.06271" /><trkpt lon="15.568314" lat="47.062626" /><trkpt lon="15.563033" lat="47.062854" /><trkpt lon="15.560611" lat="47.062647" /><trkpt lon="15.558974" lat="47.062321" /><trkpt lon="15.556884" lat="47.061663" /><trkpt lon="15.552681" lat="47.059514" /><trkpt lon="15.550069" lat="47.058499" /><trkpt lon="15.543541" lat="47.057225" /><trkpt lon="15.541268" lat="47.056524" /><trkpt lon="15.538599" lat="47.055135" /><trkpt lon="15.536816" lat="47.053645" /><trkpt lon="15.535356" lat="47.051625" /><trkpt lon="15.533773" lat="47.048158" /><trkpt lon="15.532459" lat="47.046535" /><trkpt lon="15.530951" lat="47.045298" /><trkpt lon="15.527871" lat="47.043763" /><trkpt lon="15.525757" lat="47.043156" /><trkpt lon="15.520506" lat="47.042196" /><trkpt lon="15.518398" lat="47.041663" /><trkpt lon="15.515878" lat="47.040767" /><trkpt lon="15.513675" lat="47.039693" /><trkpt lon="15.51105" lat="47.037901" /><trkpt lon="15.50952" lat="47.036467" /><trkpt lon="15.505593" lat="47.031062" /><trkpt lon="15.503616" lat="47.028872" /><trkpt lon="15.500716" lat="47.02633" /><trkpt lon="15.497446" lat="47.024065" /><trkpt lon="15.494455" lat="47.022396" /><trkpt lon="15.491848" lat="47.021203" /><trkpt lon="15.489375" lat="47.020727" /><trkpt lon="15.488667" lat="47.02076" /><trkpt lon="15.487339" lat="47.021146" /><trkpt lon="15.486032" lat="47.022181" /><trkpt lon="15.483599" lat="47.026166" /><trkpt lon="15.478435" lat="47.032608" /><trkpt lon="15.476737" lat="47.034421" /><trkpt lon="15.474145" lat="47.036511" /><trkpt lon="15.463472" lat="47.043852" /><trkpt lon="15.461321" lat="47.046195" /><trkpt lon="15.460238" lat="47.046786" /><trkpt lon="15.459388" lat="47.047003" /><trkpt lon="15.453788" lat="47.047418" /><trkpt lon="15.447766" lat="47.055445" /><trkpt lon="15.447066" lat="47.056036" /><trkpt lon="15.442684" lat="47.064139" /><trkpt lon="15.442686" lat="47.064456" /><trkpt lon="15.443517" lat="47.065274" /><trkpt lon="15.444329" lat="47.065715" /><trkpt lon="15.446087" lat="47.066332" /><trkpt lon="15.447741" lat="47.066489" /><trkpt lon="15.450033" lat="47.067389" /><trkpt lon="15.445215" lat="47.069579" /><trkpt lon="15.442532" lat="47.068224" /><trkpt lon="15.438357" lat="47.066482" /><trkpt lon="15.434289" lat="47.066407" /><trkpt lon="15.433621" lat="47.0619" /><trkpt lon="15.434581" lat="47.057648" /><trkpt lon="15.429837" lat="47.057106" /><trkpt lon="15.426874" lat="47.056996" /><trkpt lon="15.428287" lat="47.051825" /><trkpt lon="15.429675" lat="47.045638" /><trkpt lon="15.429606" lat="47.04459" /><trkpt lon="15.429" lat="47.043012" /><trkpt lon="15.429001" lat="47.042184" /><trkpt lon="15.429827" lat="47.040391" /><trkpt lon="15.430269" lat="47.038481" /><trkpt lon="15.43033" lat="47.036509" /><trkpt lon="15.431217" lat="47.032726" /><trkpt lon="15.431458" lat="47.030955" /><trkpt lon="15.439303" lat="47.018153" /><trkpt lon="15.439348" lat="47.017417" /><trkpt lon="15.440084" lat="47.017088" /><trkpt lon="15.442385" lat="47.013525" /><trkpt lon="15.442403" lat="47.013224" /><trkpt lon="15.440737" lat="47.012598" /><trkpt lon="15.44054" lat="47.012799" /><trkpt lon="15.440656" lat="47.012975" /><trkpt lon="15.44054" lat="47.012799" /><trkpt lon="15.440737" lat="47.012598" /><trkpt lon="15.44183" lat="47.012994" /><trkpt lon="15.436458" lat="47.012128" /><trkpt lon="15.434487" lat="47.012309" /><trkpt lon="15.434479" lat="47.012641" /><trkpt lon="15.435523" lat="47.013548" /><trkpt lon="15.435977" lat="47.013545" /><trkpt lon="15.436374" lat="47.013168" /><trkpt lon="15.437864" lat="47.010118" /><trkpt lon="15.438336" lat="47.009526" /><trkpt lon="15.438337" lat="47.009148" /><trkpt lon="15.438151" lat="47.009022" /><trkpt lon="15.435815" lat="47.007977" /><trkpt lon="15.422723" lat="47.00388" /><trkpt lon="15.41629" lat="47.001498" /><trkpt lon="15.412687" lat="46.999838" /><trkpt lon="15.409766" lat="46.998226" /><trkpt lon="15.404943" lat="46.994864" /><trkpt lon="15.401783" lat="46.992018" /><trkpt lon="15.398725" lat="46.988374" /><trkpt lon="15.395942" lat="46.983987" /><trkpt lon="15.391017" lat="46.974901" /><trkpt lon="15.38737" lat="46.968985" /><trkpt lon="15.384264" lat="46.964513" /><trkpt lon="15.380351" lat="46.959518" /><trkpt lon="15.377883" lat="46.957176" /><trkpt lon="15.375013" lat="46.955263" /><trkpt lon="15.371677" lat="46.9539" /><trkpt lon="15.368586" lat="46.953264" /><trkpt lon="15.365915" lat="46.953111" /><trkpt lon="15.363191" lat="46.953303" /><trkpt lon="15.360047" lat="46.954003" /><trkpt lon="15.357983" lat="46.954793" /><trkpt lon="15.354412" lat="46.956812" /><trkpt lon="15.344527" lat="46.963452" /><trkpt lon="15.335719" lat="46.96856" /><trkpt lon="15.327191" lat="46.972814" /><trkpt lon="15.317655" lat="46.976846" /><trkpt lon="15.310695" lat="46.979359" /><trkpt lon="15.305865" lat="46.980662" /><trkpt lon="15.300525" lat="46.981509" /><trkpt lon="15.294541" lat="46.981817" /><trkpt lon="15.288442" lat="46.981455" /><trkpt lon="15.280717" lat="46.980483" /><trkpt lon="15.273764" lat="46.97932" /><trkpt lon="15.268254" lat="46.978151" /><trkpt lon="15.265823" lat="46.977414" /><trkpt lon="15.264262" lat="46.976705" /><trkpt lon="15.257971" lat="46.972084" /><trkpt lon="15.256413" lat="46.971282" /><trkpt lon="15.254538" lat="46.970821" /><trkpt lon="15.249486" lat="46.970641" /><trkpt lon="15.247343" lat="46.969996" /><trkpt lon="15.246064" lat="46.969229" /><trkpt lon="15.245196" lat="46.968347" /><trkpt lon="15.244639" lat="46.967349" /><trkpt lon="15.243411" lat="46.964326" /><trkpt lon="15.240473" lat="46.960632" /><trkpt lon="15.240084" lat="46.959608" /><trkpt lon="15.239739" lat="46.955918" /><trkpt lon="15.23911" lat="46.954498" /><trkpt lon="15.238135" lat="46.953315" /><trkpt lon="15.236532" lat="46.952143" /><trkpt lon="15.234309" lat="46.95122" /><trkpt lon="15.231586" lat="46.950758" /><trkpt lon="15.23016" lat="46.950742" /><trkpt lon="15.228572" lat="46.950937" /><trkpt lon="15.222736" lat="46.952607" /><trkpt lon="15.221529" lat="46.953141" /><trkpt lon="15.219995" lat="46.954357" /><trkpt lon="15.219305" lat="46.95554" /><trkpt lon="15.219102" lat="46.956399" /><trkpt lon="15.218886" lat="46.96145" /><trkpt lon="15.218353" lat="46.964141" /><trkpt lon="15.21702" lat="46.967411" /><trkpt lon="15.216336" lat="46.968276" /><trkpt lon="15.215301" lat="46.968955" /><trkpt lon="15.213586" lat="46.969458" /><trkpt lon="15.212017" lat="46.969492" /><trkpt lon="15.210832" lat="46.969254" /><trkpt lon="15.208137" lat="46.968186" /><trkpt lon="15.206867" lat="46.968025" /><trkpt lon="15.205762" lat="46.968102" /><trkpt lon="15.204342" lat="46.968568" /><trkpt lon="15.199879" lat="46.970894" /><trkpt lon="15.198921" lat="46.971827" /><trkpt lon="15.197563" lat="46.973946" /><trkpt lon="15.196813" lat="46.974567" /><trkpt lon="15.195788" lat="46.975028" /><trkpt lon="15.194103" lat="46.97526" /><trkpt lon="15.190831" lat="46.974737" /><trkpt lon="15.188838" lat="46.974714" /><trkpt lon="15.187554" lat="46.974977" /><trkpt lon="15.181784" lat="46.976766" /><trkpt lon="15.17568" lat="46.977036" /><trkpt lon="15.173934" lat="46.977431" /><trkpt lon="15.170026" lat="46.978716" /><trkpt lon="15.166083" lat="46.978544" /><trkpt lon="15.164608" lat="46.978791" /><trkpt lon="15.163264" lat="46.979498" /><trkpt lon="15.160481" lat="46.982277" /><trkpt lon="15.159164" lat="46.983341" /><trkpt lon="15.156821" lat="46.984754" /><trkpt lon="15.151733" lat="46.987438" /><trkpt lon="15.149625" lat="46.989372" /><trkpt lon="15.148571" lat="46.990096" /><trkpt lon="15.141349" lat="46.993076" /><trkpt lon="15.139156" lat="46.993644" /><trkpt lon="15.137496" lat="46.993835" /><trkpt lon="15.135833" lat="46.993663" /><trkpt lon="15.133939" lat="46.993022" /><trkpt lon="15.129607" lat="46.990375" /><trkpt lon="15.12802" lat="46.989618" /><trkpt lon="15.124737" lat="46.988404" /><trkpt lon="15.123118" lat="46.987388" /><trkpt lon="15.122321" lat="46.986502" /><trkpt lon="15.120888" lat="46.984001" /><trkpt lon="15.118423" lat="46.981895" /><trkpt lon="15.117585" lat="46.980875" /><trkpt lon="15.116969" lat="46.979808" /><trkpt lon="15.116345" lat="46.977857" /><trkpt lon="15.115822" lat="46.97685" /><trkpt lon="15.114902" lat="46.975998" /><trkpt lon="15.112375" lat="46.974318" /><trkpt lon="15.111645" lat="46.973371" /><trkpt lon="15.111386" lat="46.972707" /><trkpt lon="15.111356" lat="46.972118" /><trkpt lon="15.111907" lat="46.969545" /><trkpt lon="15.111493" lat="46.968371" /><trkpt lon="15.110414" lat="46.967441" /><trkpt lon="15.108664" lat="46.966865" /><trkpt lon="15.10622" lat="46.966948" /><trkpt lon="15.102062" lat="46.967986" /><trkpt lon="15.099578" lat="46.968406" /><trkpt lon="15.093862" lat="46.968549" /><trkpt lon="15.091994" lat="46.968755" /><trkpt lon="15.090056" lat="46.969274" /><trkpt lon="15.086673" lat="46.970752" /><trkpt lon="15.084576" lat="46.971408" /><trkpt lon="15.081935" lat="46.971766" /><trkpt lon="15.079556" lat="46.971689" /><trkpt lon="15.077722" lat="46.971374" /><trkpt lon="15.075868" lat="46.970782" /><trkpt lon="15.063183" lat="46.964777" /><trkpt lon="15.060461" lat="46.963661" /><trkpt lon="15.057706" lat="46.962809" /><trkpt lon="15.055182" lat="46.962253" /><trkpt lon="15.052444" lat="46.961856" /><trkpt lon="15.050734" lat="46.961781" /><trkpt lon="15.048928" lat="46.961958" /><trkpt lon="15.047557" lat="46.962328" /><trkpt lon="15.044377" lat="46.963918" /><trkpt lon="15.042955" lat="46.964444" /><trkpt lon="15.038688" lat="46.965099" /><trkpt lon="15.03755" lat="46.965417" /><trkpt lon="15.036313" lat="46.965993" /><trkpt lon="15.033601" lat="46.967877" /><trkpt lon="15.031866" lat="46.968627" /><trkpt lon="15.030106" lat="46.968993" /><trkpt lon="15.028188" lat="46.969045" /><trkpt lon="15.026538" lat="46.968828" /><trkpt lon="15.024753" lat="46.968365" /><trkpt lon="15.021509" lat="46.967118" /><trkpt lon="15.019391" lat="46.965969" /><trkpt lon="15.013548" lat="46.961501" /><trkpt lon="15.010674" lat="46.959759" /><trkpt lon="15.007068" lat="46.958155" /><trkpt lon="15.003926" lat="46.957385" /><trkpt lon="15.00191" lat="46.957278" /><trkpt lon="14.999826" lat="46.95746" /><trkpt lon="14.994704" lat="46.958637" /><trkpt lon="14.990864" lat="46.959205" /><trkpt lon="14.987376" lat="46.959286" /><trkpt lon="14.977015" lat="46.958739" /><trkpt lon="14.971582" lat="46.958941" /><trkpt lon="14.967531" lat="46.959507" /><trkpt lon="14.959386" lat="46.961059" /><trkpt lon="14.956074" lat="46.961499" /><trkpt lon="14.945878" lat="46.962313" /><trkpt lon="14.941784" lat="46.96239" /><trkpt lon="14.937103" lat="46.961822" /><trkpt lon="14.92841" lat="46.959372" /><trkpt lon="14.925681" lat="46.958752" /><trkpt lon="14.922793" lat="46.958428" /><trkpt lon="14.913454" lat="46.958168" /><trkpt lon="14.907344" lat="46.957035" /><trkpt lon="14.902195" lat="46.956473" /><trkpt lon="14.899246" lat="46.955746" /><trkpt lon="14.891531" lat="46.952802" /><trkpt lon="14.888858" lat="46.952035" /><trkpt lon="14.885304" lat="46.951447" /><trkpt lon="14.879221" lat="46.950965" /><trkpt lon="14.877479" lat="46.950594" /><trkpt lon="14.87558" lat="46.949805" /><trkpt lon="14.873825" lat="46.948727" /><trkpt lon="14.872523" lat="46.947606" /><trkpt lon="14.871226" lat="46.945902" /><trkpt lon="14.87065" lat="46.944565" /><trkpt lon="14.870445" lat="46.942902" /><trkpt lon="14.87121" lat="46.938922" /><trkpt lon="14.871231" lat="46.937795" /><trkpt lon="14.870647" lat="46.936366" /><trkpt lon="14.869818" lat="46.93546" /><trkpt lon="14.869006" lat="46.934885" /><trkpt lon="14.866771" lat="46.934028" /><trkpt lon="14.864429" lat="46.933814" /><trkpt lon="14.856234" lat="46.934978" /><trkpt lon="14.853992" lat="46.935069" /><trkpt lon="14.85208" lat="46.934949" /><trkpt lon="14.849607" lat="46.934463" /><trkpt lon="14.847747" lat="46.933806" /><trkpt lon="14.846418" lat="46.933141" /><trkpt lon="14.84482" lat="46.932012" /><trkpt lon="14.843304" lat="46.930357" /><trkpt lon="14.842246" lat="46.928474" /><trkpt lon="14.838573" lat="46.917249" /><trkpt lon="14.837747" lat="46.915762" /><trkpt lon="14.836676" lat="46.914678" /><trkpt lon="14.832856" lat="46.911642" /><trkpt lon="14.822384" lat="46.902632" /><trkpt lon="14.820858" lat="46.90073" /><trkpt lon="14.819877" lat="46.898962" /><trkpt lon="14.819398" lat="46.896858" /><trkpt lon="14.819477" lat="46.895883" /><trkpt lon="14.819838" lat="46.894747" /><trkpt lon="14.820595" lat="46.893537" /><trkpt lon="14.826749" lat="46.88702" /><trkpt lon="14.828836" lat="46.884332" /><trkpt lon="14.829518" lat="46.882994" /><trkpt lon="14.832305" lat="46.87582" /><trkpt lon="14.835628" lat="46.869153" /><trkpt lon="14.836001" lat="46.868036" /><trkpt lon="14.836125" lat="46.866821" /><trkpt lon="14.835875" lat="46.86538" /><trkpt lon="14.834397" lat="46.862236" /><trkpt lon="14.834048" lat="46.860659" /><trkpt lon="14.834234" lat="46.858973" /><trkpt lon="14.835374" lat="46.856176" /><trkpt lon="14.835623" lat="46.854828" /><trkpt lon="14.835215" lat="46.851464" /><trkpt lon="14.83528" lat="46.849021" /><trkpt lon="14.834809" lat="46.847596" /><trkpt lon="14.833726" lat="46.846137" /><trkpt lon="14.832397" lat="46.845082" /><trkpt lon="14.831027" lat="46.844378" /><trkpt lon="14.826733" lat="46.842719" /><trkpt lon="14.824891" lat="46.841624" /><trkpt lon="14.823708" lat="46.840581" /><trkpt lon="14.821272" lat="46.83766" /><trkpt lon="14.819751" lat="46.835244" /><trkpt lon="14.818706" lat="46.83298" /><trkpt lon="14.818189" lat="46.830975" /><trkpt lon="14.818094" lat="46.828773" /><trkpt lon="14.818427" lat="46.826799" /><trkpt lon="14.819058" lat="46.825006" /><trkpt lon="14.821331" lat="46.820031" /><trkpt lon="14.822544" lat="46.815992" /><trkpt lon="14.82288" lat="46.813757" /><trkpt lon="14.822978" lat="46.811501" /><trkpt lon="14.822676" lat="46.808053" /><trkpt lon="14.822053" lat="46.805382" /><trkpt lon="14.820956" lat="46.802411" /><trkpt lon="14.81279" lat="46.786666" /><trkpt lon="14.811633" lat="46.784078" /><trkpt lon="14.810654" lat="46.780924" /><trkpt lon="14.810315" lat="46.777888" /><trkpt lon="14.810534" lat="46.775161" /><trkpt lon="14.811592" lat="46.770349" /><trkpt lon="14.814511" lat="46.761614" /><trkpt lon="14.815593" lat="46.757733" /><trkpt lon="14.816095" lat="46.754911" /><trkpt lon="14.816007" lat="46.753402" /><trkpt lon="14.815302" lat="46.751289" /><trkpt lon="14.813867" lat="46.749229" /><trkpt lon="14.807542" lat="46.743927" /><trkpt lon="14.806359" lat="46.742624" /><trkpt lon="14.80531" lat="46.741142" /><trkpt lon="14.804344" lat="46.739142" /><trkpt lon="14.803294" lat="46.735466" /><trkpt lon="14.801346" lat="46.731784" /><trkpt lon="14.800844" lat="46.730525" /><trkpt lon="14.799737" lat="46.726272" /><trkpt lon="14.799023" lat="46.72477" /><trkpt lon="14.798214" lat="46.723543" /><trkpt lon="14.79683" lat="46.721948" /><trkpt lon="14.79564" lat="46.720899" /><trkpt lon="14.792824" lat="46.719045" /><trkpt lon="14.790949" lat="46.718158" /><trkpt lon="14.781064" lat="46.714274" /><trkpt lon="14.779367" lat="46.71313" /><trkpt lon="14.778552" lat="46.712056" /><trkpt lon="14.778177" lat="46.710844" /><trkpt lon="14.778258" lat="46.709686" /><trkpt lon="14.778845" lat="46.707863" /><trkpt lon="14.778858" lat="46.706737" /><trkpt lon="14.778654" lat="46.705908" /><trkpt lon="14.777737" lat="46.704613" /><trkpt lon="14.776608" lat="46.70378" /><trkpt lon="14.774789" lat="46.703048" /><trkpt lon="14.771395" lat="46.702459" /><trkpt lon="14.770173" lat="46.702104" /><trkpt lon="14.767112" lat="46.700482" /><trkpt lon="14.764965" lat="46.699843" /><trkpt lon="14.762766" lat="46.69976" /><trkpt lon="14.758243" lat="46.700402" /><trkpt lon="14.755794" lat="46.700163" /><trkpt lon="14.753555" lat="46.699467" /><trkpt lon="14.74917" lat="46.697218" /><trkpt lon="14.747227" lat="46.696441" /><trkpt lon="14.743883" lat="46.695605" /><trkpt lon="14.740955" lat="46.695149" /><trkpt lon="14.738456" lat="46.694976" /><trkpt lon="14.735633" lat="46.695164" /><trkpt lon="14.73342" lat="46.69563" /><trkpt lon="14.728281" lat="46.697244" /><trkpt lon="14.726169" lat="46.697639" /><trkpt lon="14.723077" lat="46.697777" /><trkpt lon="14.719987" lat="46.697406" /><trkpt lon="14.717921" lat="46.696848" /><trkpt lon="14.715779" lat="46.695929" /><trkpt lon="14.707756" lat="46.691416" /><trkpt lon="14.701101" lat="46.688385" /><trkpt lon="14.694985" lat="46.686484" /><trkpt lon="14.686232" lat="46.684283" /><trkpt lon="14.682014" lat="46.683504" /><trkpt lon="14.675812" lat="46.682971" /><trkpt lon="14.670219" lat="46.683077" /><trkpt lon="14.664524" lat="46.683756" /><trkpt lon="14.658232" lat="46.685054" /><trkpt lon="14.654322" lat="46.685293" /><trkpt lon="14.652246" lat="46.685087" /><trkpt lon="14.650375" lat="46.684701" /><trkpt lon="14.63581" lat="46.679867" /><trkpt lon="14.633442" lat="46.679238" /><trkpt lon="14.630858" lat="46.67881" /><trkpt lon="14.61102" lat="46.678123" /><trkpt lon="14.60651" lat="46.678281" /><trkpt lon="14.599647" lat="46.678794" /><trkpt lon="14.59775" lat="46.678628" /><trkpt lon="14.595859" lat="46.678242" /><trkpt lon="14.594272" lat="46.677712" /><trkpt lon="14.592503" lat="46.676856" /><trkpt lon="14.588322" lat="46.67374" /><trkpt lon="14.58698" lat="46.672922" /><trkpt lon="14.585165" lat="46.672217" /><trkpt lon="14.57999" lat="46.670886" /><trkpt lon="14.578388" lat="46.67017" /><trkpt lon="14.576596" lat="46.668998" /><trkpt lon="14.574836" lat="46.667083" /><trkpt lon="14.573268" lat="46.663568" /><trkpt lon="14.57157" lat="46.661034" /><trkpt lon="14.568687" lat="46.658213" /><trkpt lon="14.564527" lat="46.654694" /><trkpt lon="14.563393" lat="46.653475" /><trkpt lon="14.562405" lat="46.651918" /><trkpt lon="14.561017" lat="46.648765" /><trkpt lon="14.560152" lat="46.647608" /><trkpt lon="14.559341" lat="46.646869" /><trkpt lon="14.557793" lat="46.645918" /><trkpt lon="14.556181" lat="46.645296" /><trkpt lon="14.554474" lat="46.64491" /><trkpt lon="14.553113" lat="46.64478" /><trkpt lon="14.551189" lat="46.644841" /><trkpt lon="14.549628" lat="46.645103" /><trkpt lon="14.548201" lat="46.645541" /><trkpt lon="14.546706" lat="46.646238" /><trkpt lon="14.54191" lat="46.649159" /><trkpt lon="14.53818" lat="46.65215" /><trkpt lon="14.536623" lat="46.653143" /><trkpt lon="14.533983" lat="46.65406" /><trkpt lon="14.531153" lat="46.654365" /><trkpt lon="14.527715" lat="46.65416" /><trkpt lon="14.52488" lat="46.653666" /><trkpt lon="14.522407" lat="46.652967" /><trkpt lon="14.516674" lat="46.650741" /><trkpt lon="14.512579" lat="46.649982" /><trkpt lon="14.510814" lat="46.649489" /><trkpt lon="14.508863" lat="46.648529" /><trkpt lon="14.505742" lat="46.646117" /><trkpt lon="14.504058" lat="46.645304" /><trkpt lon="14.502453" lat="46.644837" /><trkpt lon="14.500225" lat="46.64456" /><trkpt lon="14.495526" lat="46.644642" /><trkpt lon="14.49202" lat="46.644326" /><trkpt lon="14.460227" lat="46.638584" /><trkpt lon="14.454344" lat="46.637866" /><trkpt lon="14.451224" lat="46.637783" /><trkpt lon="14.447642" lat="46.638005" /><trkpt lon="14.445634" lat="46.638408" /><trkpt lon="14.44027" lat="46.639951" /><trkpt lon="14.4332" lat="46.640553" /><trkpt lon="14.430863" lat="46.64128" /><trkpt lon="14.428039" lat="46.642799" /><trkpt lon="14.425769" lat="46.643611" /><trkpt lon="14.414118" lat="46.645754" /><trkpt lon="14.411313" lat="46.645912" /><trkpt lon="14.408986" lat="46.645782" /><trkpt lon="14.407114" lat="46.645497" /><trkpt lon="14.402116" lat="46.644323" /><trkpt lon="14.398385" lat="46.644109" /><trkpt lon="14.396347" lat="46.644305" /><trkpt lon="14.394496" lat="46.64469" /><trkpt lon="14.390631" lat="46.645981" /><trkpt lon="14.388409" lat="46.646553" /><trkpt lon="14.385647" lat="46.646818" /><trkpt lon="14.383596" lat="46.646746" /><trkpt lon="14.381742" lat="46.646447" /><trkpt lon="14.379938" lat="46.645897" /><trkpt lon="14.375382" lat="46.64347" /><trkpt lon="14.374567" lat="46.64349" /><trkpt lon="14.374276" lat="46.644122" /><trkpt lon="14.37273" lat="46.643896" /><trkpt lon="14.371617" lat="46.643293" /><trkpt lon="14.371253" lat="46.642705" /><trkpt lon="14.37116" lat="46.641099" /><trkpt lon="14.370607" lat="46.640036" /><trkpt lon="14.370242" lat="46.638623" /><trkpt lon="14.369947" lat="46.638446" /><trkpt lon="14.37022" lat="46.638253" /><trkpt lon="14.370303" lat="46.636535" /><trkpt lon="14.369747" lat="46.634366" /><trkpt lon="14.369338" lat="46.633691" /><trkpt lon="14.366967" lat="46.631295" /><trkpt lon="14.366521" lat="46.630514" /><trkpt lon="14.365582" lat="46.629722" /><trkpt lon="14.364444" lat="46.629381" /><trkpt lon="14.363295" lat="46.629297" /><trkpt lon="14.359326" lat="46.629447" /><trkpt lon="14.355859" lat="46.62993" /><trkpt lon="14.353664" lat="46.629841" /><trkpt lon="14.349653" lat="46.628977" /><trkpt lon="14.346325" lat="46.627696" /><trkpt lon="14.339914" lat="46.625733" /><trkpt lon="14.335905" lat="46.625183" /><trkpt lon="14.332847" lat="46.625308" /><trkpt lon="14.330507" lat="46.624973" /><trkpt lon="14.329603" lat="46.624782" /><trkpt lon="14.328983" lat="46.623726" /><trkpt lon="14.328465" lat="46.623355" /><trkpt lon="14.327429" lat="46.624288" /><trkpt lon="14.327225" lat="46.624153" /></trkseg></trk></gpx>