<?xml version='1.0' encoding='utf-8'?>
<gpx xmlns="http://www.topografix.com/GPX/1/1" version="1.1" creator="Yatutbuv"><trk><trkseg><trkpt lon="1.665497" lat="41.198906" /><trkpt lon="1.673916" lat="41.199759" /><trkpt lon="1.673138" lat="41.201677" /><trkpt lon="1.67407" lat="41.202199" /><trkpt lon="1.673026" lat="41.203193" /><trkpt lon="1.672454" lat="41.20349" /><trkpt lon="1.671299" lat="41.20449" /><trkpt lon="1.67002" lat="41.206224" /><trkpt lon="1.66983" lat="41.206769" /><trkpt lon="1.670608" lat="41.20701" /><trkpt lon="1.670667" lat="41.206869" /><trkpt lon="1.663316" lat="41.205046" /><trkpt lon="1.660406" lat="41.204767" /><trkpt lon="1.659756" lat="41.2051" /><trkpt lon="1.658703" lat="41.20654" /><trkpt lon="1.658197" lat="41.207565" /><trkpt lon="1.658212" lat="41.208368" /><trkpt lon="1.660278" lat="41.209962" /><trkpt lon="1.661971" lat="41.211857" /><trkpt lon="1.663213" lat="41.212931" /><trkpt lon="1.665243" lat="41.213971" /><trkpt lon="1.668323" lat="41.21479" /><trkpt lon="1.670619" lat="41.215769" /><trkpt lon="1.672584" lat="41.217147" /><trkpt lon="1.674787" lat="41.219471" /><trkpt lon="1.676231" lat="41.221712" /><trkpt lon="1.67697" lat="41.223563" /><trkpt lon="1.677439" lat="41.225538" /><trkpt lon="1.677701" lat="41.228105" /><trkpt lon="1.678118" lat="41.229538" /><trkpt lon="1.678843" lat="41.23083" /><trkpt lon="1.680523" lat="41.232731" /><trkpt lon="1.68144" lat="41.234148" /><trkpt lon="1.681821" lat="41.235336" /><trkpt lon="1.682076" lat="41.237682" /><trkpt lon="1.682442" lat="41.238829" /><trkpt lon="1.68314" lat="41.24001" /><trkpt lon="1.68414" lat="41.241074" /><trkpt lon="1.686103" lat="41.242356" /><trkpt lon="1.689741" lat="41.243847" /><trkpt lon="1.693823" lat="41.246661" /><trkpt lon="1.697324" lat="41.248243" /><trkpt lon="1.700612" lat="41.249087" /><trkpt lon="1.708464" lat="41.249816" /><trkpt lon="1.710977" lat="41.250213" /><trkpt lon="1.713868" lat="41.25092" /><trkpt lon="1.719879" lat="41.253175" /><trkpt lon="1.725313" lat="41.254365" /><trkpt lon="1.729459" lat="41.255652" /><trkpt lon="1.731097" lat="41.256623" /><trkpt lon="1.731836" lat="41.257465" /><trkpt lon="1.732204" lat="41.25821" /><trkpt lon="1.733147" lat="41.263848" /><trkpt lon="1.733846" lat="41.269259" /><trkpt lon="1.734055" lat="41.271056" /><trkpt lon="1.73393" lat="41.272357" /><trkpt lon="1.73348" lat="41.273809" /><trkpt lon="1.732697" lat="41.275164" /><trkpt lon="1.730621" lat="41.277514" /><trkpt lon="1.72997" lat="41.278571" /><trkpt lon="1.72932" lat="41.28036" /><trkpt lon="1.72895" lat="41.283503" /><trkpt lon="1.728657" lat="41.284461" /><trkpt lon="1.727716" lat="41.286083" /><trkpt lon="1.726012" lat="41.28826" /><trkpt lon="1.725295" lat="41.290028" /><trkpt lon="1.725194" lat="41.290879" /><trkpt lon="1.725307" lat="41.292115" /><trkpt lon="1.725817" lat="41.294287" /><trkpt lon="1.726975" lat="41.297838" /><trkpt lon="1.727066" lat="41.298714" /><trkpt lon="1.726936" lat="41.299559" /><trkpt lon="1.725978" lat="41.301417" /><trkpt lon="1.724558" lat="41.302672" /><trkpt lon="1.722845" lat="41.303714" /><trkpt lon="1.722168" lat="41.304437" /><trkpt lon="1.721767" lat="41.305448" /><trkpt lon="1.722232" lat="41.30973" /><trkpt lon="1.723869" lat="41.312823" /><trkpt lon="1.724285" lat="41.313919" /><trkpt lon="1.724662" lat="41.316721" /><trkpt lon="1.726258" lat="41.319558" /><trkpt lon="1.726165" lat="41.320775" /><trkpt lon="1.725319" lat="41.321893" /><trkpt lon="1.723981" lat="41.322555" /><trkpt lon="1.715639" lat="41.323488" /><trkpt lon="1.714551" lat="41.323826" /><trkpt lon="1.713596" lat="41.32435" /><trkpt lon="1.712425" lat="41.325608" /><trkpt lon="1.712042" lat="41.326565" /><trkpt lon="1.711908" lat="41.327477" /><trkpt lon="1.712298" lat="41.328417" /><trkpt lon="1.713406" lat="41.329233" /><trkpt lon="1.713523" lat="41.32965" /><trkpt lon="1.713426" lat="41.330025" /><trkpt lon="1.712399" lat="41.330987" /><trkpt lon="1.711921" lat="41.331719" /><trkpt lon="1.71154" lat="41.331707" /><trkpt lon="1.709526" lat="41.332839" /><trkpt lon="1.70914" lat="41.333214" /><trkpt lon="1.709544" lat="41.333585" /><trkpt lon="1.710986" lat="41.334024" /><trkpt lon="1.712075" lat="41.334037" /><trkpt lon="1.712781" lat="41.333761" /><trkpt lon="1.713259" lat="41.333348" /><trkpt lon="1.71355" lat="41.332681" /><trkpt lon="1.713482" lat="41.332199" /><trkpt lon="1.713126" lat="41.331914" /><trkpt lon="1.712697" lat="41.331887" /><trkpt lon="1.712286" lat="41.332077" /><trkpt lon="1.712144" lat="41.332446" /><trkpt lon="1.713996" lat="41.334313" /><trkpt lon="1.715763" lat="41.336523" /><trkpt lon="1.71676" lat="41.338202" /><trkpt lon="1.717626" lat="41.340325" /><trkpt lon="1.718163" lat="41.343223" /><trkpt lon="1.718149" lat="41.347987" /><trkpt lon="1.718852" lat="41.350366" /><trkpt lon="1.720139" lat="41.352428" /><trkpt lon="1.723532" lat="41.355867" /><trkpt lon="1.72459" lat="41.357379" /><trkpt lon="1.725251" lat="41.358765" /><trkpt lon="1.725725" lat="41.360834" /><trkpt lon="1.725836" lat="41.364914" /><trkpt lon="1.726232" lat="41.366396" /><trkpt lon="1.726742" lat="41.36754" /><trkpt lon="1.727618" lat="41.36889" /><trkpt lon="1.728735" lat="41.370141" /><trkpt lon="1.729671" lat="41.370975" /><trkpt lon="1.73302" lat="41.373273" /><trkpt lon="1.734785" lat="41.374977" /><trkpt lon="1.735993" lat="41.376767" /><trkpt lon="1.737526" lat="41.380096" /><trkpt lon="1.738719" lat="41.381702" /><trkpt lon="1.739698" lat="41.382671" /><trkpt lon="1.741465" lat="41.383971" /><trkpt lon="1.743113" lat="41.384855" /><trkpt lon="1.744931" lat="41.385556" /><trkpt lon="1.748058" lat="41.38625" /><trkpt lon="1.753902" lat="41.386795" /><trkpt lon="1.757339" lat="41.387821" /><trkpt lon="1.760025" lat="41.389266" /><trkpt lon="1.763527" lat="41.392078" /><trkpt lon="1.765414" lat="41.393272" /><trkpt lon="1.767866" lat="41.394398" /><trkpt lon="1.772056" lat="41.39591" /><trkpt lon="1.774287" lat="41.397154" /><trkpt lon="1.776336" lat="41.398869" /><trkpt lon="1.777934" lat="41.401025" /><trkpt lon="1.778679" lat="41.40275" /><trkpt lon="1.779236" lat="41.405412" /><trkpt lon="1.779791" lat="41.407057" /><trkpt lon="1.780568" lat="41.408453" /><trkpt lon="1.781458" lat="41.409598" /><trkpt lon="1.783875" lat="41.411665" /><trkpt lon="1.788119" lat="41.414009" /><trkpt lon="1.791312" lat="41.416526" /><trkpt lon="1.793678" lat="41.417928" /><trkpt lon="1.795652" lat="41.418708" /><trkpt lon="1.797569" lat="41.419208" /><trkpt lon="1.805282" lat="41.419974" /><trkpt lon="1.813691" lat="41.4218" /><trkpt lon="1.822512" lat="41.422831" /><trkpt lon="1.825813" lat="41.423522" /><trkpt lon="1.828706" lat="41.424496" /><trkpt lon="1.831397" lat="41.425841" /><trkpt lon="1.833555" lat="41.427251" /><trkpt lon="1.835999" lat="41.429138" /><trkpt lon="1.837733" lat="41.430705" /><trkpt lon="1.838907" lat="41.432061" /><trkpt lon="1.839642" lat="41.433247" /><trkpt lon="1.840827" lat="41.436602" /><trkpt lon="1.84186" lat="41.43831" /><trkpt lon="1.843552" lat="41.439978" /><trkpt lon="1.845697" lat="41.441297" /><trkpt lon="1.848806" lat="41.44236" /><trkpt lon="1.854374" lat="41.443201" /><trkpt lon="1.860314" lat="41.444865" /><trkpt lon="1.863044" lat="41.445214" /><trkpt lon="1.8679" lat="41.445358" /><trkpt lon="1.86993" lat="41.445686" /><trkpt lon="1.872193" lat="41.44635" /><trkpt lon="1.875196" lat="41.447825" /><trkpt lon="1.879734" lat="41.45148" /><trkpt lon="1.885184" lat="41.454366" /><trkpt lon="1.889272" lat="41.457487" /><trkpt lon="1.89084" lat="41.45835" /><trkpt lon="1.893533" lat="41.459341" /><trkpt lon="1.900258" lat="41.461305" /><trkpt lon="1.902182" lat="41.461719" /><trkpt lon="1.903951" lat="41.462846" /><trkpt lon="1.905711" lat="41.463003" /><trkpt lon="1.907394" lat="41.46343" /><trkpt lon="1.909867" lat="41.464945" /><trkpt lon="1.912454" lat="41.46566" /><trkpt lon="1.912913" lat="41.465945" /><trkpt lon="1.913012" lat="41.466425" /><trkpt lon="1.912301" lat="41.4675" /><trkpt lon="1.911136" lat="41.471246" /><trkpt lon="1.90859" lat="41.476082" /><trkpt lon="1.907946" lat="41.47771" /><trkpt lon="1.907364" lat="41.48026" /><trkpt lon="1.907236" lat="41.482362" /><trkpt lon="1.907489" lat="41.484662" /><trkpt lon="1.908132" lat="41.486604" /><trkpt lon="1.909544" lat="41.488474" /><trkpt lon="1.912039" lat="41.490422" /><trkpt lon="1.912501" lat="41.491337" /><trkpt lon="1.912486" lat="41.492276" /><trkpt lon="1.91058" lat="41.496489" /><trkpt lon="1.90876" lat="41.499775" /><trkpt lon="1.908752" lat="41.500486" /><trkpt lon="1.90925" lat="41.502404" /><trkpt lon="1.90895" lat="41.503568" /><trkpt lon="1.907894" lat="41.504644" /><trkpt lon="1.905905" lat="41.50563" /><trkpt lon="1.903752" lat="41.50834" /><trkpt lon="1.901095" lat="41.511177" /><trkpt lon="1.900276" lat="41.512239" /><trkpt lon="1.899263" lat="41.514106" /><trkpt lon="1.898625" lat="41.515419" /><trkpt lon="1.898164" lat="41.516999" /><trkpt lon="1.898222" lat="41.518802" /><trkpt lon="1.897927" lat="41.521036" /><trkpt lon="1.898423" lat="41.522482" /><trkpt lon="1.89928" lat="41.52334" /><trkpt lon="1.900577" lat="41.524069" /><trkpt lon="1.904002" lat="41.524812" /><trkpt lon="1.905178" lat="41.525304" /><trkpt lon="1.905746" lat="41.525827" /><trkpt lon="1.906049" lat="41.526474" /><trkpt lon="1.905928" lat="41.527645" /><trkpt lon="1.904278" lat="41.531017" /><trkpt lon="1.903722" lat="41.531501" /><trkpt lon="1.901629" lat="41.532447" /><trkpt lon="1.90088" lat="41.532949" /><trkpt lon="1.898181" lat="41.536079" /><trkpt lon="1.897278" lat="41.536562" /><trkpt lon="1.896377" lat="41.536804" /><trkpt lon="1.894046" lat="41.536912" /><trkpt lon="1.893606" lat="41.537472" /><trkpt lon="1.893931" lat="41.538414" /><trkpt lon="1.894987" lat="41.538351" /><trkpt lon="1.896444" lat="41.542423" /><trkpt lon="1.897528" lat="41.543696" /><trkpt lon="1.898043" lat="41.543979" /><trkpt lon="1.899536" lat="41.544092" /><trkpt lon="1.901386" lat="41.543899" /><trkpt lon="1.902279" lat="41.54449" /><trkpt lon="1.903313" lat="41.544684" /><trkpt lon="1.90378" lat="41.545382" /><trkpt lon="1.903861" lat="41.546477" /><trkpt lon="1.904452" lat="41.547006" /><trkpt lon="1.904892" lat="41.54817" /><trkpt lon="1.906515" lat="41.549108" /><trkpt lon="1.906954" lat="41.549614" /><trkpt lon="1.907564" lat="41.549845" /><trkpt lon="1.908249" lat="41.550633" /><trkpt lon="1.908903" lat="41.550984" /><trkpt lon="1.90903" lat="41.551756" /><trkpt lon="1.909419" lat="41.55231" /><trkpt lon="1.909547" lat="41.553575" /><trkpt lon="1.910297" lat="41.554199" /><trkpt lon="1.910185" lat="41.554443" /><trkpt lon="1.909363" lat="41.554964" /><trkpt lon="1.909693" lat="41.555995" /><trkpt lon="1.910223" lat="41.556022" /><trkpt lon="1.911229" lat="41.555414" /><trkpt lon="1.912538" lat="41.556118" /><trkpt lon="1.913551" lat="41.556205" /><trkpt lon="1.915975" lat="41.556987" /><trkpt lon="1.916926" lat="41.55685" /><trkpt lon="1.917253" lat="41.557011" /><trkpt lon="1.917321" lat="41.557378" /><trkpt lon="1.916325" lat="41.557731" /><trkpt lon="1.916216" lat="41.557974" /><trkpt lon="1.917334" lat="41.558249" /><trkpt lon="1.919444" lat="41.559358" /><trkpt lon="1.919845" lat="41.560294" /><trkpt lon="1.919364" lat="41.56093" /><trkpt lon="1.919627" lat="41.561344" /><trkpt lon="1.919583" lat="41.562413" /><trkpt lon="1.92009" lat="41.562686" /><trkpt lon="1.92141" lat="41.563891" /><trkpt lon="1.920928" lat="41.564675" /><trkpt lon="1.921442" lat="41.565196" /><trkpt lon="1.922131" lat="41.566733" /><trkpt lon="1.92341" lat="41.567077" /><trkpt lon="1.923753" lat="41.567652" /><trkpt lon="1.923617" lat="41.568076" /><trkpt lon="1.923144" lat="41.56859" /><trkpt lon="1.922676" lat="41.568815" /><trkpt lon="1.922018" lat="41.568857" /><trkpt lon="1.920706" lat="41.569917" /><trkpt lon="1.921094" lat="41.571676" /><trkpt lon="1.920969" lat="41.572227" /><trkpt lon="1.919501" lat="41.573626" /><trkpt lon="1.919625" lat="41.574183" /><trkpt lon="1.920376" lat="41.5747" /><trkpt lon="1.920227" lat="41.575034" /><trkpt lon="1.919687" lat="41.575405" /><trkpt lon="1.919795" lat="41.575836" /><trkpt lon="1.919454" lat="41.576582" /><trkpt lon="1.920169" lat="41.577995" /><trkpt lon="1.920252" lat="41.579136" /><trkpt lon="1.92009" lat="41.580035" /><trkpt lon="1.920315" lat="41.580615" /><trkpt lon="1.92141" lat="41.581981" /><trkpt lon="1.921213" lat="41.583069" /><trkpt lon="1.921809" lat="41.583882" /><trkpt lon="1.921701" lat="41.58452" /><trkpt lon="1.921851" lat="41.585196" /><trkpt lon="1.921017" lat="41.585425" /><trkpt lon="1.920828" lat="41.586211" /><trkpt lon="1.918815" lat="41.586609" /><trkpt lon="1.909428" lat="41.589665" /><trkpt lon="1.908574" lat="41.590294" /><trkpt lon="1.907022" lat="41.59249" /><trkpt lon="1.906004" lat="41.59337" /><trkpt lon="1.904658" lat="41.594037" /><trkpt lon="1.902179" lat="41.594706" /><trkpt lon="1.900958" lat="41.595393" /><trkpt lon="1.900118" lat="41.596314" /><trkpt lon="1.899089" lat="41.598634" /><trkpt lon="1.897332" lat="41.601116" /><trkpt lon="1.896747" lat="41.602546" /><trkpt lon="1.896252" lat="41.604755" /><trkpt lon="1.895889" lat="41.605495" /><trkpt lon="1.89475" lat="41.606737" /><trkpt lon="1.892768" lat="41.607902" /><trkpt lon="1.891603" lat="41.608863" /><trkpt lon="1.89092" lat="41.609891" /><trkpt lon="1.890099" lat="41.612271" /><trkpt lon="1.88891" lat="41.613749" /><trkpt lon="1.887989" lat="41.614428" /><trkpt lon="1.885657" lat="41.615644" /><trkpt lon="1.884692" lat="41.61637" /><trkpt lon="1.883799" lat="41.617424" /><trkpt lon="1.882622" lat="41.61926" /><trkpt lon="1.881277" lat="41.620268" /><trkpt lon="1.880192" lat="41.620708" /><trkpt lon="1.879042" lat="41.620953" /><trkpt lon="1.875993" lat="41.620921" /><trkpt lon="1.875021" lat="41.621044" /><trkpt lon="1.873702" lat="41.621538" /><trkpt lon="1.872781" lat="41.622266" /><trkpt lon="1.872116" lat="41.623501" /><trkpt lon="1.872055" lat="41.626144" /><trkpt lon="1.871644" lat="41.628117" /><trkpt lon="1.870962" lat="41.629518" /><trkpt lon="1.869661" lat="41.631179" /><trkpt lon="1.869412" lat="41.632056" /><trkpt lon="1.869517" lat="41.632807" /><trkpt lon="1.869911" lat="41.63355" /><trkpt lon="1.871937" lat="41.635192" /><trkpt lon="1.872782" lat="41.636346" /><trkpt lon="1.873137" lat="41.637697" /><trkpt lon="1.873076" lat="41.638572" /><trkpt lon="1.872796" lat="41.639385" /><trkpt lon="1.871832" lat="41.640643" /><trkpt lon="1.870984" lat="41.641284" /><trkpt lon="1.868698" lat="41.642448" /><trkpt lon="1.866317" lat="41.644037" /><trkpt lon="1.864418" lat="41.644895" /><trkpt lon="1.863389" lat="41.645577" /><trkpt lon="1.862417" lat="41.646769" /><trkpt lon="1.862077" lat="41.647866" /><trkpt lon="1.862216" lat="41.649156" /><trkpt lon="1.862943" lat="41.650421" /><trkpt lon="1.863557" lat="41.650972" /><trkpt lon="1.865774" lat="41.652278" /><trkpt lon="1.866806" lat="41.653376" /><trkpt lon="1.867315" lat="41.6544" /><trkpt lon="1.867873" lat="41.656366" /><trkpt lon="1.869135" lat="41.658495" /><trkpt lon="1.870818" lat="41.660102" /><trkpt lon="1.874146" lat="41.662216" /><trkpt lon="1.87524" lat="41.663338" /><trkpt lon="1.876194" lat="41.665299" /><trkpt lon="1.876465" lat="41.666658" /><trkpt lon="1.876476" lat="41.667801" /><trkpt lon="1.87612" lat="41.670348" /><trkpt lon="1.875993" lat="41.67271" /><trkpt lon="1.875756" lat="41.673802" /><trkpt lon="1.875018" lat="41.675458" /><trkpt lon="1.873434" lat="41.677384" /><trkpt lon="1.870576" lat="41.679642" /><trkpt lon="1.869646" lat="41.681079" /><trkpt lon="1.869421" lat="41.682438" /><trkpt lon="1.870261" lat="41.685412" /><trkpt lon="1.870346" lat="41.6865" /><trkpt lon="1.870221" lat="41.687759" /><trkpt lon="1.869891" lat="41.688766" /><trkpt lon="1.868672" lat="41.690679" /><trkpt lon="1.866252" lat="41.693202" /><trkpt lon="1.865367" lat="41.694389" /><trkpt lon="1.865071" lat="41.695803" /><trkpt lon="1.865471" lat="41.697604" /><trkpt lon="1.865327" lat="41.698858" /><trkpt lon="1.864777" lat="41.699817" /><trkpt lon="1.863012" lat="41.701485" /><trkpt lon="1.86243" lat="41.702312" /><trkpt lon="1.861586" lat="41.70591" /><trkpt lon="1.861051" lat="41.706789" /><trkpt lon="1.859555" lat="41.708578" /><trkpt lon="1.859131" lat="41.709427" /><trkpt lon="1.858879" lat="41.710413" /><trkpt lon="1.858951" lat="41.71177" /><trkpt lon="1.859315" lat="41.712771" /><trkpt lon="1.860163" lat="41.713944" /><trkpt lon="1.861018" lat="41.714731" /><trkpt lon="1.863671" lat="41.716287" /><trkpt lon="1.864341" lat="41.71691" /><trkpt lon="1.865014" lat="41.717891" /><trkpt lon="1.8654" lat="41.719677" /><trkpt lon="1.864914" lat="41.723289" /><trkpt lon="1.865066" lat="41.725798" /><trkpt lon="1.865694" lat="41.728085" /><trkpt lon="1.867049" lat="41.730688" /><trkpt lon="1.868501" lat="41.732525" /><trkpt lon="1.871424" lat="41.735317" /><trkpt lon="1.872784" lat="41.736905" /><trkpt lon="1.873793" lat="41.738522" /><trkpt lon="1.875047" lat="41.741269" /><trkpt lon="1.876226" lat="41.742857" /><trkpt lon="1.87722" lat="41.743846" /><trkpt lon="1.880633" lat="41.746354" /><trkpt lon="1.883454" lat="41.749273" /><trkpt lon="1.884497" lat="41.750774" /><trkpt lon="1.885643" lat="41.753107" /><trkpt lon="1.885935" lat="41.754508" /><trkpt lon="1.885903" lat="41.756" /><trkpt lon="1.885341" lat="41.757806" /><trkpt lon="1.884196" lat="41.759247" /><trkpt lon="1.881168" lat="41.761266" /><trkpt lon="1.880161" lat="41.762165" /><trkpt lon="1.879297" lat="41.763226" /><trkpt lon="1.878528" lat="41.764771" /><trkpt lon="1.878144" lat="41.766173" /><trkpt lon="1.878152" lat="41.767681" /><trkpt lon="1.878351" lat="41.768637" /><trkpt lon="1.879013" lat="41.770346" /><trkpt lon="1.880201" lat="41.772004" /><trkpt lon="1.887334" lat="41.780387" /><trkpt lon="1.89822" lat="41.793789" /><trkpt lon="1.898825" lat="41.795039" /><trkpt lon="1.899009" lat="41.796272" /><trkpt lon="1.898209" lat="41.802404" /><trkpt lon="1.897315" lat="41.807281" /><trkpt lon="1.896102" lat="41.815523" /><trkpt lon="1.895538" lat="41.816382" /><trkpt lon="1.893005" lat="41.818231" /><trkpt lon="1.891784" lat="41.819538" /><trkpt lon="1.890218" lat="41.822293" /><trkpt lon="1.887296" lat="41.826569" /><trkpt lon="1.885" lat="41.830816" /><trkpt lon="1.883634" lat="41.832516" /><trkpt lon="1.881267" lat="41.834686" /><trkpt lon="1.880466" lat="41.836183" /><trkpt lon="1.880425" lat="41.837402" /><trkpt lon="1.880904" lat="41.838728" /><trkpt lon="1.881476" lat="41.839596" /><trkpt lon="1.884115" lat="41.842706" /><trkpt lon="1.884555" lat="41.843456" /><trkpt lon="1.884726" lat="41.844938" /><trkpt lon="1.884474" lat="41.846107" /><trkpt lon="1.884196" lat="41.846737" /><trkpt lon="1.883276" lat="41.847909" /><trkpt lon="1.881107" lat="41.849806" /><trkpt lon="1.878196" lat="41.853131" /><trkpt lon="1.876637" lat="41.854262" /><trkpt lon="1.873254" lat="41.855623" /><trkpt lon="1.872052" lat="41.856596" /><trkpt lon="1.871396" lat="41.857877" /><trkpt lon="1.870704" lat="41.861695" /><trkpt lon="1.870742" lat="41.863513" /><trkpt lon="1.871368" lat="41.865203" /><trkpt lon="1.876351" lat="41.872236" /><trkpt lon="1.876566" lat="41.873698" /><trkpt lon="1.876139" lat="41.875401" /><trkpt lon="1.876105" lat="41.876208" /><trkpt lon="1.876387" lat="41.877225" /><trkpt lon="1.877226" lat="41.878997" /><trkpt lon="1.87731" lat="41.879827" /><trkpt lon="1.876385" lat="41.882958" /><trkpt lon="1.87692" lat="41.885349" /><trkpt lon="1.876935" lat="41.886269" /><trkpt lon="1.876707" lat="41.88716" /><trkpt lon="1.875837" lat="41.888733" /><trkpt lon="1.872654" lat="41.892476" /><trkpt lon="1.870464" lat="41.896049" /><trkpt lon="1.869487" lat="41.898013" /><trkpt lon="1.869475" lat="41.899481" /><trkpt lon="1.870013" lat="41.900644" /><trkpt lon="1.870961" lat="41.901627" /><trkpt lon="1.87728" lat="41.906241" /><trkpt lon="1.880076" lat="41.90872" /><trkpt lon="1.880634" lat="41.909406" /><trkpt lon="1.881523" lat="41.91131" /><trkpt lon="1.881619" lat="41.913652" /><trkpt lon="1.881887" lat="41.914665" /><trkpt lon="1.882596" lat="41.915761" /><trkpt lon="1.88444" lat="41.917567" /><trkpt lon="1.884914" lat="41.919138" /><trkpt lon="1.884636" lat="41.920328" /><trkpt lon="1.884306" lat="41.920896" /><trkpt lon="1.882051" lat="41.923011" /><trkpt lon="1.880962" lat="41.924872" /><trkpt lon="1.878853" lat="41.927713" /><trkpt lon="1.878139" lat="41.928953" /><trkpt lon="1.876326" lat="41.935249" /><trkpt lon="1.876448" lat="41.936696" /><trkpt lon="1.877367" lat="41.93982" /><trkpt lon="1.8775" lat="41.94236" /><trkpt lon="1.877772" lat="41.943426" /><trkpt lon="1.878431" lat="41.944553" /><trkpt lon="1.87932" lat="41.945442" /><trkpt lon="1.881643" lat="41.947061" /><trkpt lon="1.882632" lat="41.948214" /><trkpt lon="1.883463" lat="41.950388" /><trkpt lon="1.884114" lat="41.953876" /><trkpt lon="1.885364" lat="41.956309" /><trkpt lon="1.88811" lat="41.963429" /><trkpt lon="1.888692" lat="41.964365" /><trkpt lon="1.890297" lat="41.966144" /><trkpt lon="1.890637" lat="41.966722" /><trkpt lon="1.890963" lat="41.967694" /><trkpt lon="1.891022" lat="41.968777" /><trkpt lon="1.890525" lat="41.970562" /><trkpt lon="1.888395" lat="41.975449" /><trkpt lon="1.886669" lat="41.980006" /><trkpt lon="1.883979" lat="41.986133" /><trkpt lon="1.883943" lat="41.987691" /><trkpt lon="1.884696" lat="41.990337" /><trkpt lon="1.884767" lat="41.991157" /><trkpt lon="1.884609" lat="41.992251" /><trkpt lon="1.88411" lat="41.993633" /><trkpt lon="1.882136" lat="41.997034" /><trkpt lon="1.881282" lat="42.0004" /><trkpt lon="1.881329" lat="42.003787" /><trkpt lon="1.881654" lat="42.005363" /><trkpt lon="1.882798" lat="42.008939" /><trkpt lon="1.882868" lat="42.010182" /><trkpt lon="1.88271" lat="42.011117" /><trkpt lon="1.882222" lat="42.012357" /><trkpt lon="1.878451" lat="42.019445" /><trkpt lon="1.878088" lat="42.020636" /><trkpt lon="1.877814" lat="42.023163" /><trkpt lon="1.876994" lat="42.025394" /><trkpt lon="1.876597" lat="42.027309" /><trkpt lon="1.875948" lat="42.028496" /><trkpt lon="1.874327" lat="42.03018" /><trkpt lon="1.873643" lat="42.031893" /><trkpt lon="1.873643" lat="42.032797" /><trkpt lon="1.873859" lat="42.033636" /><trkpt lon="1.875236" lat="42.036839" /><trkpt lon="1.875444" lat="42.038105" /><trkpt lon="1.875293" lat="42.041356" /><trkpt lon="1.875584" lat="42.042246" /><trkpt lon="1.876419" lat="42.043779" /><trkpt lon="1.876624" lat="42.044629" /><trkpt lon="1.875926" lat="42.050352" /><trkpt lon="1.87558" lat="42.060364" /><trkpt lon="1.874062" lat="42.073645" /><trkpt lon="1.873391" lat="42.074979" /><trkpt lon="1.872133" lat="42.07625" /><trkpt lon="1.871103" lat="42.076895" /><trkpt lon="1.865153" lat="42.079857" /><trkpt lon="1.862506" lat="42.081514" /><trkpt lon="1.860005" lat="42.083493" /><trkpt lon="1.856847" lat="42.08659" /><trkpt lon="1.856433" lat="42.087319" /><trkpt lon="1.855874" lat="42.089001" /><trkpt lon="1.854217" lat="42.091395" /><trkpt lon="1.854121" lat="42.092195" /><trkpt lon="1.854365" lat="42.094265" /><trkpt lon="1.853662" lat="42.097194" /><trkpt lon="1.853907" lat="42.098145" /><trkpt lon="1.854543" lat="42.09903" /><trkpt lon="1.855342" lat="42.099623" /><trkpt lon="1.857283" lat="42.100598" /><trkpt lon="1.858589" lat="42.101522" /><trkpt lon="1.859108" lat="42.102079" /><trkpt lon="1.859483" lat="42.102971" /><trkpt lon="1.859742" lat="42.104399" /><trkpt lon="1.859732" lat="42.106286" /><trkpt lon="1.859382" lat="42.106941" /><trkpt lon="1.85834" lat="42.107954" /><trkpt lon="1.858193" lat="42.108582" /><trkpt lon="1.858575" lat="42.109268" /><trkpt lon="1.859827" lat="42.110307" /><trkpt lon="1.860028" lat="42.110958" /><trkpt lon="1.859999" lat="42.111453" /><trkpt lon="1.859116" lat="42.112981" /><trkpt lon="1.858299" lat="42.113854" /><trkpt lon="1.856405" lat="42.115136" /><trkpt lon="1.855975" lat="42.115693" /><trkpt lon="1.85584" lat="42.116257" /><trkpt lon="1.856206" lat="42.117098" /><trkpt lon="1.857834" lat="42.118293" /><trkpt lon="1.858273" lat="42.119051" /><trkpt lon="1.858082" lat="42.12002" /><trkpt lon="1.856994" lat="42.121016" /><trkpt lon="1.856722" lat="42.12168" /><trkpt lon="1.857265" lat="42.122792" /><trkpt lon="1.857372" lat="42.123917" /><trkpt lon="1.857654" lat="42.124655" /><trkpt lon="1.858344" lat="42.125354" /><trkpt lon="1.860765" lat="42.126283" /><trkpt lon="1.862068" lat="42.127338" /><trkpt lon="1.864022" lat="42.127873" /><trkpt lon="1.864488" lat="42.128305" /><trkpt lon="1.864701" lat="42.128766" /><trkpt lon="1.864466" lat="42.130084" /><trkpt lon="1.863091" lat="42.132731" /><trkpt lon="1.862812" lat="42.134558" /><trkpt lon="1.863581" lat="42.137193" /><trkpt lon="1.863935" lat="42.137767" /><trkpt lon="1.865097" lat="42.138785" /><trkpt lon="1.865342" lat="42.139176" /><trkpt lon="1.865663" lat="42.141485" /><trkpt lon="1.865097" lat="42.142379" /><trkpt lon="1.862884" lat="42.143927" /><trkpt lon="1.862568" lat="42.144557" /><trkpt lon="1.86256" lat="42.145037" /><trkpt lon="1.862834" lat="42.145677" /><trkpt lon="1.863466" lat="42.146213" /><trkpt lon="1.866009" lat="42.14698" /><trkpt lon="1.866437" lat="42.147495" /><trkpt lon="1.866505" lat="42.147961" /><trkpt lon="1.866311" lat="42.148441" /><trkpt lon="1.865518" lat="42.14942" /><trkpt lon="1.865449" lat="42.149908" /><trkpt lon="1.865635" lat="42.150993" /><trkpt lon="1.865481" lat="42.151465" /><trkpt lon="1.865066" lat="42.151904" /><trkpt lon="1.864067" lat="42.152218" /><trkpt lon="1.861272" lat="42.151989" /><trkpt lon="1.860231" lat="42.152118" /><trkpt lon="1.85921" lat="42.15251" /><trkpt lon="1.858191" lat="42.153417" /><trkpt lon="1.857864" lat="42.154145" /><trkpt lon="1.85787" lat="42.154889" /><trkpt lon="1.858936" lat="42.156922" /><trkpt lon="1.859124" lat="42.158049" /><trkpt lon="1.858737" lat="42.159002" /><trkpt lon="1.858236" lat="42.159569" /><trkpt lon="1.85592" lat="42.160744" /><trkpt lon="1.855402" lat="42.161262" /><trkpt lon="1.855228" lat="42.161778" /><trkpt lon="1.855342" lat="42.162382" /><trkpt lon="1.856215" lat="42.163394" /><trkpt lon="1.856358" lat="42.163819" /><trkpt lon="1.856229" lat="42.164193" /><trkpt lon="1.855335" lat="42.165012" /><trkpt lon="1.855192" lat="42.16561" /><trkpt lon="1.856007" lat="42.16709" /><trkpt lon="1.856347" lat="42.168729" /><trkpt lon="1.858235" lat="42.170681" /><trkpt lon="1.859979" lat="42.17146" /><trkpt lon="1.861669" lat="42.174227" /><trkpt lon="1.861677" lat="42.174944" /><trkpt lon="1.861097" lat="42.176748" /><trkpt lon="1.861321" lat="42.1775" /><trkpt lon="1.863539" lat="42.179523" /><trkpt lon="1.864531" lat="42.181346" /><trkpt lon="1.867279" lat="42.18337" /><trkpt lon="1.867846" lat="42.184281" /><trkpt lon="1.86755" lat="42.186339" /><trkpt lon="1.867721" lat="42.187823" /><trkpt lon="1.868245" lat="42.189352" /><trkpt lon="1.869041" lat="42.190863" /><trkpt lon="1.869501" lat="42.193837" /><trkpt lon="1.870544" lat="42.195106" /><trkpt lon="1.870917" lat="42.195844" /><trkpt lon="1.870639" lat="42.196609" /><trkpt lon="1.869107" lat="42.197343" /><trkpt lon="1.868669" lat="42.19787" /><trkpt lon="1.868717" lat="42.199246" /><trkpt lon="1.869197" lat="42.200119" /><trkpt lon="1.869223" lat="42.200653" /><trkpt lon="1.868262" lat="42.203038" /><trkpt lon="1.867294" lat="42.20453" /><trkpt lon="1.867048" lat="42.205279" /><trkpt lon="1.867136" lat="42.206015" /><trkpt lon="1.867491" lat="42.206961" /><trkpt lon="1.868832" lat="42.207952" /><trkpt lon="1.869229" lat="42.208993" /><trkpt lon="1.869158" lat="42.209518" /><trkpt lon="1.868454" lat="42.210509" /><trkpt lon="1.868342" lat="42.21094" /><trkpt lon="1.868425" lat="42.211283" /><trkpt lon="1.869691" lat="42.213101" /><trkpt lon="1.869635" lat="42.213539" /><trkpt lon="1.868808" lat="42.215101" /><trkpt lon="1.868948" lat="42.216432" /><trkpt lon="1.869347" lat="42.217771" /><trkpt lon="1.87014" lat="42.219044" /><trkpt lon="1.872038" lat="42.221237" /><trkpt lon="1.873228" lat="42.224427" /><trkpt lon="1.874104" lat="42.225734" /><trkpt lon="1.875476" lat="42.227332" /><trkpt lon="1.876722" lat="42.227996" /><trkpt lon="1.879035" lat="42.228225" /><trkpt lon="1.880264" lat="42.228614" /><trkpt lon="1.88209" lat="42.23025" /><trkpt lon="1.883451" lat="42.23111" /><trkpt lon="1.883861" lat="42.231671" /><trkpt lon="1.883984" lat="42.232301" /><trkpt lon="1.88377" lat="42.232989" /><trkpt lon="1.883023" lat="42.233707" /><trkpt lon="1.879925" lat="42.234849" /><trkpt lon="1.877782" lat="42.236153" /><trkpt lon="1.876127" lat="42.23691" /><trkpt lon="1.875524" lat="42.237424" /><trkpt lon="1.873857" lat="42.239887" /><trkpt lon="1.873571" lat="42.241485" /><trkpt lon="1.872139" lat="42.242736" /><trkpt lon="1.869329" lat="42.245941" /><trkpt lon="1.868856" lat="42.248192" /><trkpt lon="1.867893" lat="42.249927" /><trkpt lon="1.867496" lat="42.252027" /><trkpt lon="1.867068" lat="42.252796" /><trkpt lon="1.865712" lat="42.254346" /><trkpt lon="1.865459" lat="42.255098" /><trkpt lon="1.865348" lat="42.256518" /><trkpt lon="1.864861" lat="42.257331" /><trkpt lon="1.86401" lat="42.257926" /><trkpt lon="1.863254" lat="42.258182" /><trkpt lon="1.859923" lat="42.258178" /><trkpt lon="1.857897" lat="42.258624" /><trkpt lon="1.855905" lat="42.259829" /><trkpt lon="1.854956" lat="42.260993" /><trkpt lon="1.853068" lat="42.261858" /><trkpt lon="1.852718" lat="42.262425" /><trkpt lon="1.852511" lat="42.263336" /><trkpt lon="1.85257" lat="42.264715" /><trkpt lon="1.852147" lat="42.26574" /><trkpt lon="1.85216" lat="42.2663" /><trkpt lon="1.853146" lat="42.26777" /><trkpt lon="1.854184" lat="42.268804" /><trkpt lon="1.854673" lat="42.27073" /><trkpt lon="1.853782" lat="42.272302" /><trkpt lon="1.852914" lat="42.277375" /><trkpt lon="1.852306" lat="42.278719" /><trkpt lon="1.852369" lat="42.279404" /><trkpt lon="1.85302" lat="42.280563" /><trkpt lon="1.852949" lat="42.281193" /><trkpt lon="1.850291" lat="42.283756" /><trkpt lon="1.850062" lat="42.284522" /><trkpt lon="1.850127" lat="42.285027" /><trkpt lon="1.850697" lat="42.286032" /><trkpt lon="1.851395" lat="42.286818" /><trkpt lon="1.852881" lat="42.28787" /><trkpt lon="1.853753" lat="42.288763" /><trkpt lon="1.857721" lat="42.290386" /><trkpt lon="1.858462" lat="42.291021" /><trkpt lon="1.859131" lat="42.292384" /><trkpt lon="1.859633" lat="42.292892" /><trkpt lon="1.860202" lat="42.29323" /><trkpt lon="1.862566" lat="42.293926" /><trkpt lon="1.863216" lat="42.294546" /><trkpt lon="1.863339" lat="42.295226" /><trkpt lon="1.863111" lat="42.295784" /><trkpt lon="1.854657" lat="42.308189" /><trkpt lon="1.837649" lat="42.334451" /><trkpt lon="1.837539" lat="42.334828" /><trkpt lon="1.837696" lat="42.335427" /><trkpt lon="1.838746" lat="42.33661" /><trkpt lon="1.839003" lat="42.337746" /><trkpt lon="1.839686" lat="42.338915" /><trkpt lon="1.839613" lat="42.33967" /><trkpt lon="1.839077" lat="42.340237" /><trkpt lon="1.837863" lat="42.340872" /><trkpt lon="1.834028" lat="42.341791" /><trkpt lon="1.833115" lat="42.342308" /><trkpt lon="1.832711" lat="42.34282" /><trkpt lon="1.832506" lat="42.343512" /><trkpt lon="1.832636" lat="42.344206" /><trkpt lon="1.833336" lat="42.345809" /><trkpt lon="1.83326" lat="42.346855" /><trkpt lon="1.832533" lat="42.348027" /><trkpt lon="1.831137" lat="42.348921" /><trkpt lon="1.829783" lat="42.349261" /><trkpt lon="1.828025" lat="42.349197" /><trkpt lon="1.826873" lat="42.348826" /><trkpt lon="1.824648" lat="42.347482" /><trkpt lon="1.823516" lat="42.347222" /><trkpt lon="1.822314" lat="42.347222" /><trkpt lon="1.820055" lat="42.347582" /><trkpt lon="1.818468" lat="42.348058" /><trkpt lon="1.816657" lat="42.348927" /><trkpt lon="1.8152" lat="42.350046" /><trkpt lon="1.814027" lat="42.351536" /><trkpt lon="1.813616" lat="42.352518" /><trkpt lon="1.813412" lat="42.35361" /><trkpt lon="1.813671" lat="42.354773" /><trkpt lon="1.815072" lat="42.356591" /><trkpt lon="1.815196" lat="42.357775" /><trkpt lon="1.814774" lat="42.358705" /><trkpt lon="1.813575" lat="42.360042" /><trkpt lon="1.813267" lat="42.361242" /><trkpt lon="1.813469" lat="42.362083" /><trkpt lon="1.814307" lat="42.363069" /><trkpt lon="1.815241" lat="42.363464" /><trkpt lon="1.816044" lat="42.36332" /><trkpt lon="1.816215" lat="42.363077" /><trkpt lon="1.816095" lat="42.362829" /><trkpt lon="1.815247" lat="42.362695" /><trkpt lon="1.812323" lat="42.36325" /><trkpt lon="1.809022" lat="42.363119" /><trkpt lon="1.806469" lat="42.362837" /><trkpt lon="1.805001" lat="42.362941" /><trkpt lon="1.804094" lat="42.363191" /><trkpt lon="1.80289" lat="42.363903" /><trkpt lon="1.801792" lat="42.365032" /><trkpt lon="1.801268" lat="42.366098" /><trkpt lon="1.800599" lat="42.36871" /><trkpt lon="1.799784" lat="42.369776" /><trkpt lon="1.799661" lat="42.370245" /><trkpt lon="1.798334" lat="42.370346" /><trkpt lon="1.792699" lat="42.371822" /><trkpt lon="1.78862" lat="42.373425" /><trkpt lon="1.785362" lat="42.373819" /><trkpt lon="1.783192" lat="42.374837" /><trkpt lon="1.781948" lat="42.375087" /><trkpt lon="1.778378" lat="42.374929" /><trkpt lon="1.777552" lat="42.374757" /><trkpt lon="1.776063" lat="42.373979" /><trkpt lon="1.774982" lat="42.372998" /><trkpt lon="1.774343" lat="42.372767" /><trkpt lon="1.773632" lat="42.372954" /><trkpt lon="1.772076" lat="42.374115" /><trkpt lon="1.770483" lat="42.374446" /><trkpt lon="1.769306" lat="42.374262" /><trkpt lon="1.767391" lat="42.373459" /><trkpt lon="1.766199" lat="42.37315" /><trkpt lon="1.761893" lat="42.372793" /><trkpt lon="1.75879" lat="42.373362" /><trkpt lon="1.756101" lat="42.373151" /><trkpt lon="1.752465" lat="42.373913" /><trkpt lon="1.745054" lat="42.372889" /><trkpt lon="1.741471" lat="42.373392" /><trkpt lon="1.740182" lat="42.373302" /><trkpt lon="1.739198" lat="42.372919" /><trkpt lon="1.734518" lat="42.370044" /><trkpt lon="1.732973" lat="42.369404" /><trkpt lon="1.726308" lat="42.368473" /><trkpt lon="1.72341" lat="42.366977" /><trkpt lon="1.71904" lat="42.366321" /><trkpt lon="1.716222" lat="42.365403" /><trkpt lon="1.713536" lat="42.365033" /><trkpt lon="1.710595" lat="42.364038" /><trkpt lon="1.709338" lat="42.363964" /><trkpt lon="1.706642" lat="42.364235" /><trkpt lon="1.70597" lat="42.364148" /><trkpt lon="1.705188" lat="42.363607" /><trkpt lon="1.703174" lat="42.360177" /><trkpt lon="1.702217" lat="42.359244" /><trkpt lon="1.701431" lat="42.359008" /><trkpt lon="1.698053" lat="42.359866" /><trkpt lon="1.694464" lat="42.359717" /><trkpt lon="1.693031" lat="42.359503" /><trkpt lon="1.690839" lat="42.360362" /><trkpt lon="1.689456" lat="42.360547" /><trkpt lon="1.687487" lat="42.360417" /><trkpt lon="1.685008" lat="42.359523" /><trkpt lon="1.683758" lat="42.359592" /><trkpt lon="1.683004" lat="42.359993" /><trkpt lon="1.682387" lat="42.360822" /><trkpt lon="1.681888" lat="42.36193" /><trkpt lon="1.681573" lat="42.363533" /><trkpt lon="1.681312" lat="42.364053" /><trkpt lon="1.679235" lat="42.365721" /><trkpt lon="1.67843" lat="42.366137" /><trkpt lon="1.677686" lat="42.366297" /><trkpt lon="1.675842" lat="42.366043" /><trkpt lon="1.670197" lat="42.363067" /><trkpt lon="1.668742" lat="42.36248" /><trkpt lon="1.667484" lat="42.362262" /><trkpt lon="1.666286" lat="42.36249" /><trkpt lon="1.664406" lat="42.363916" /><trkpt lon="1.66382" lat="42.364189" /><trkpt lon="1.660654" lat="42.364796" /><trkpt lon="1.660134" lat="42.365143" /><trkpt lon="1.658988" lat="42.366346" /><trkpt lon="1.658345" lat="42.366699" /><trkpt lon="1.657447" lat="42.366915" /><trkpt lon="1.656044" lat="42.366812" /><trkpt lon="1.654854" lat="42.366117" /><trkpt lon="1.65445" lat="42.365598" /><trkpt lon="1.654354" lat="42.36446" /><trkpt lon="1.654023" lat="42.364104" /><trkpt lon="1.650865" lat="42.364293" /><trkpt lon="1.649687" lat="42.364838" /><trkpt lon="1.647367" lat="42.366771" /><trkpt lon="1.647111" lat="42.367316" /><trkpt lon="1.646546" lat="42.369781" /><trkpt lon="1.645655" lat="42.371132" /><trkpt lon="1.644722" lat="42.371982" /><trkpt lon="1.643533" lat="42.372648" /><trkpt lon="1.640381" lat="42.373376" /><trkpt lon="1.637643" lat="42.374346" /><trkpt lon="1.636251" lat="42.374515" /><trkpt lon="1.63451" lat="42.374219" /><trkpt lon="1.633056" lat="42.374463" /><trkpt lon="1.632455" lat="42.374406" /><trkpt lon="1.630417" lat="42.373058" /><trkpt lon="1.629216" lat="42.372721" /><trkpt lon="1.621811" lat="42.372535" /><trkpt lon="1.620999" lat="42.372198" /><trkpt lon="1.619679" lat="42.371118" /><trkpt lon="1.618522" lat="42.370673" /><trkpt lon="1.6152" lat="42.369621" /><trkpt lon="1.61242" lat="42.369095" /><trkpt lon="1.610816" lat="42.3692" /><trkpt lon="1.608994" lat="42.370441" /><trkpt lon="1.607709" lat="42.370872" /><trkpt lon="1.601739" lat="42.371392" /><trkpt lon="1.600121" lat="42.371108" /><trkpt lon="1.598495" lat="42.370532" /><trkpt lon="1.597473" lat="42.369345" /><trkpt lon="1.596434" lat="42.368803" /><trkpt lon="1.592246" lat="42.368352" /><trkpt lon="1.588758" lat="42.366905" /><trkpt lon="1.588207" lat="42.366477" /><trkpt lon="1.587931" lat="42.365944" /><trkpt lon="1.58822" lat="42.363817" /><trkpt lon="1.587955" lat="42.362751" /><trkpt lon="1.586376" lat="42.360901" /><trkpt lon="1.585137" lat="42.360355" /><trkpt lon="1.58277" lat="42.360379" /><trkpt lon="1.579933" lat="42.359076" /><trkpt lon="1.579039" lat="42.359083" /><trkpt lon="1.578358" lat="42.359343" /><trkpt lon="1.57697" lat="42.361101" /><trkpt lon="1.576438" lat="42.361479" /><trkpt lon="1.574235" lat="42.362094" /><trkpt lon="1.573531" lat="42.362133" /><trkpt lon="1.570773" lat="42.361117" /><trkpt lon="1.569179" lat="42.359777" /><trkpt lon="1.566649" lat="42.359044" /><trkpt lon="1.563354" lat="42.359673" /><trkpt lon="1.561099" lat="42.35936" /><trkpt lon="1.558669" lat="42.35947" /><trkpt lon="1.557755" lat="42.359334" /><trkpt lon="1.555324" lat="42.358472" /><trkpt lon="1.553638" lat="42.358521" /><trkpt lon="1.550389" lat="42.35786" /><trkpt lon="1.547045" lat="42.358631" /><trkpt lon="1.545084" lat="42.358893" /><trkpt lon="1.543908" lat="42.358861" /><trkpt lon="1.542426" lat="42.358372" /><trkpt lon="1.542018" lat="42.357992" /><trkpt lon="1.541468" lat="42.357054" /><trkpt lon="1.540684" lat="42.356677" /><trkpt lon="1.538145" lat="42.356913" /><trkpt lon="1.5363" lat="42.356628" /><trkpt lon="1.534442" lat="42.357064" /><trkpt lon="1.533293" lat="42.357083" /><trkpt lon="1.530499" lat="42.356771" /><trkpt lon="1.526341" lat="42.355679" /><trkpt lon="1.525125" lat="42.355846" /><trkpt lon="1.522294" lat="42.356731" /><trkpt lon="1.517652" lat="42.359342" /><trkpt lon="1.513954" lat="42.360157" /><trkpt lon="1.51247" lat="42.359904" /><trkpt lon="1.507572" lat="42.357574" /><trkpt lon="1.506598" lat="42.357368" /><trkpt lon="1.505486" lat="42.357359" /><trkpt lon="1.503564" lat="42.357445" /><trkpt lon="1.49797" lat="42.358171" /><trkpt lon="1.49403" lat="42.359052" /><trkpt lon="1.491707" lat="42.359994" /><trkpt lon="1.488538" lat="42.360177" /><trkpt lon="1.48417" lat="42.361174" /><trkpt lon="1.480057" lat="42.361729" /><trkpt lon="1.479144" lat="42.361762" /><trkpt lon="1.474785" lat="42.361063" /><trkpt lon="1.472392" lat="42.360985" /><trkpt lon="1.465438" lat="42.361466" /><trkpt lon="1.462887" lat="42.361992" /><trkpt lon="1.458999" lat="42.36198" /><trkpt lon="1.456721" lat="42.362652" /><trkpt lon="1.456127" lat="42.363022" /><trkpt lon="1.455522" lat="42.364247" /><trkpt lon="1.454936" lat="42.36642" /><trkpt lon="1.45498" lat="42.36701" /><trkpt lon="1.455657" lat="42.369154" /><trkpt lon="1.455732" lat="42.370084" /><trkpt lon="1.455571" lat="42.370622" /><trkpt lon="1.45446" lat="42.372513" /><trkpt lon="1.454291" lat="42.373381" /><trkpt lon="1.454356" lat="42.374078" /><trkpt lon="1.454958" lat="42.375399" /><trkpt lon="1.458361" lat="42.379095" /><trkpt lon="1.458953" lat="42.380039" /><trkpt lon="1.459399" lat="42.38116" /><trkpt lon="1.459781" lat="42.383223" /><trkpt lon="1.460071" lat="42.386333" /><trkpt lon="1.462198" lat="42.390813" /><trkpt lon="1.462086" lat="42.391993" /><trkpt lon="1.461259" lat="42.393732" /><trkpt lon="1.461099" lat="42.394649" /><trkpt lon="1.461378" lat="42.395863" /><trkpt lon="1.462761" lat="42.397842" /><trkpt lon="1.463052" lat="42.398698" /><trkpt lon="1.462941" lat="42.399997" /><trkpt lon="1.462511" lat="42.401275" /><trkpt lon="1.462553" lat="42.402101" /><trkpt lon="1.462947" lat="42.402815" /><trkpt lon="1.463505" lat="42.403306" /><trkpt lon="1.466627" lat="42.404871" /><trkpt lon="1.468129" lat="42.405853" /><trkpt lon="1.468774" lat="42.406654" /><trkpt lon="1.469103" lat="42.407784" /><trkpt lon="1.468785" lat="42.409854" /><trkpt lon="1.468337" lat="42.410835" /><trkpt lon="1.467527" lat="42.411619" /><trkpt lon="1.465198" lat="42.412932" /><trkpt lon="1.464515" lat="42.41392" /><trkpt lon="1.464418" lat="42.414689" /><trkpt lon="1.464923" lat="42.416322" /><trkpt lon="1.464912" lat="42.417647" /><trkpt lon="1.464494" lat="42.418449" /><trkpt lon="1.462415" lat="42.421203" /><trkpt lon="1.462111" lat="42.423339" /><trkpt lon="1.461763" lat="42.424619" /><trkpt lon="1.461846" lat="42.425557" /><trkpt lon="1.463041" lat="42.427025" /><trkpt lon="1.46538" lat="42.428458" /><trkpt lon="1.466509" lat="42.429336" /><trkpt lon="1.46682" lat="42.430128" /><trkpt lon="1.466596" lat="42.431152" /><trkpt lon="1.466679" lat="42.431617" /><trkpt lon="1.472093" lat="42.434786" /><trkpt lon="1.473815" lat="42.436218" /><trkpt lon="1.475227" lat="42.436548" /><trkpt lon="1.475766" lat="42.436841" /><trkpt lon="1.47658" lat="42.438248" /><trkpt lon="1.476678" lat="42.439177" /><trkpt lon="1.477613" lat="42.440975" /><trkpt lon="1.478076" lat="42.441496" /><trkpt lon="1.479262" lat="42.442252" /><trkpt lon="1.481755" lat="42.44485" /><trkpt lon="1.482093" lat="42.445615" /><trkpt lon="1.481985" lat="42.44581" /><trkpt lon="1.482161" lat="42.446159" /><trkpt lon="1.482088" lat="42.447461" /><trkpt lon="1.48234" lat="42.448169" /><trkpt lon="1.483054" lat="42.448849" /><trkpt lon="1.484753" lat="42.449797" /><trkpt lon="1.485889" lat="42.450663" /><trkpt lon="1.486279" lat="42.4511" /><trkpt lon="1.486844" lat="42.452358" /><trkpt lon="1.487117" lat="42.452549" /><trkpt lon="1.487133" lat="42.453676" /><trkpt lon="1.486488" lat="42.455713" /><trkpt lon="1.486757" lat="42.45685" /><trkpt lon="1.487287" lat="42.457682" /><trkpt lon="1.488128" lat="42.4584" /><trkpt lon="1.490321" lat="42.461575" /><trkpt lon="1.490411" lat="42.461994" /><trkpt lon="1.489755" lat="42.464602" /><trkpt lon="1.489808" lat="42.464992" /><trkpt lon="1.491558" lat="42.466261" /><trkpt lon="1.492057" lat="42.466951" /><trkpt lon="1.49163" lat="42.467154" /><trkpt lon="1.491557" lat="42.46767" /><trkpt lon="1.492028" lat="42.469393" /><trkpt lon="1.492023" lat="42.4701" /><trkpt lon="1.490646" lat="42.472975" /><trkpt lon="1.49051" lat="42.473549" /><trkpt lon="1.490846" lat="42.474999" /><trkpt lon="1.490712" lat="42.477007" /><trkpt lon="1.489462" lat="42.479774" /><trkpt lon="1.489683" lat="42.481508" /><trkpt lon="1.491075" lat="42.484048" /><trkpt lon="1.491785" lat="42.484536" /><trkpt lon="1.492673" lat="42.484822" /><trkpt lon="1.493938" lat="42.485692" /><trkpt lon="1.494542" lat="42.486307" /><trkpt lon="1.494756" lat="42.486754" /><trkpt lon="1.494737" lat="42.487755" /><trkpt lon="1.494886" lat="42.488051" /><trkpt lon="1.495562" lat="42.488593" /><trkpt lon="1.496397" lat="42.489585" /><trkpt lon="1.496435" lat="42.490883" /><trkpt lon="1.496709" lat="42.491305" /><trkpt lon="1.499303" lat="42.492753" /><trkpt lon="1.501378" lat="42.494132" /><trkpt lon="1.503464" lat="42.495028" /><trkpt lon="1.505331" lat="42.495202" /><trkpt lon="1.50776" lat="42.496658" /><trkpt lon="1.51086" lat="42.498138" /><trkpt lon="1.510907" lat="42.498459" /><trkpt lon="1.513733" lat="42.502101" /><trkpt lon="1.51621" lat="42.503532" /><trkpt lon="1.517076" lat="42.503695" /><trkpt lon="1.519403" lat="42.503466" /><trkpt lon="1.521804" lat="42.504496" /><trkpt lon="1.527593" lat="42.50532" /><trkpt lon="1.522699" lat="42.504669" /><trkpt lon="1.522105" lat="42.50479" /><trkpt lon="1.521949" lat="42.504638" /><trkpt lon="1.522155" lat="42.50452" /><trkpt lon="1.528309" lat="42.505267" /><trkpt lon="1.54333" lat="42.5082" /><trkpt lon="1.544356" lat="42.508532" /><trkpt lon="1.544984" lat="42.508522" /><trkpt lon="1.546476" lat="42.508137" /><trkpt lon="1.547222" lat="42.508304" /><trkpt lon="1.547616" lat="42.508668" /><trkpt lon="1.548118" lat="42.509847" /><trkpt lon="1.548365" lat="42.509956" /><trkpt lon="1.548747" lat="42.511124" /><trkpt lon="1.550662" lat="42.512146" /><trkpt lon="1.551397" lat="42.512943" /><trkpt lon="1.552684" lat="42.513526" /><trkpt lon="1.553346" lat="42.514225" /><trkpt lon="1.554148" lat="42.515678" /><trkpt lon="1.554215" lat="42.516068" /><trkpt lon="1.553963" lat="42.516825" /><trkpt lon="1.554363" lat="42.517302" /><trkpt lon="1.555003" lat="42.517735" /><trkpt lon="1.555672" lat="42.517791" /><trkpt lon="1.555767" lat="42.518119" /><trkpt lon="1.556377" lat="42.518615" /><trkpt lon="1.556985" lat="42.519624" /><trkpt lon="1.558206" lat="42.52086" /><trkpt lon="1.559184" lat="42.521681" /><trkpt lon="1.561516" lat="42.523205" /><trkpt lon="1.562705" lat="42.524492" /><trkpt lon="1.56607" lat="42.525705" /><trkpt lon="1.567791" lat="42.526969" /><trkpt lon="1.569369" lat="42.527778" /><trkpt lon="1.571433" lat="42.529218" /><trkpt lon="1.572918" lat="42.529524" /><trkpt lon="1.573768" lat="42.530634" /><trkpt lon="1.574836" lat="42.531272" /><trkpt lon="1.577185" lat="42.531708" /><trkpt lon="1.57943" lat="42.531764" /><trkpt lon="1.579796" lat="42.531598" /><trkpt lon="1.580242" lat="42.531736" /><trkpt lon="1.582971" lat="42.531803" /><trkpt lon="1.583904" lat="42.532303" /><trkpt lon="1.58617" lat="42.53411" /><trkpt lon="1.588248" lat="42.535209" /><trkpt lon="1.589242" lat="42.536917" /><trkpt lon="1.591156" lat="42.53778" /><trkpt lon="1.591635" lat="42.538198" /><trkpt lon="1.591888" lat="42.539966" /><trkpt lon="1.592408" lat="42.540929" /><trkpt lon="1.591781" lat="42.541782" /><trkpt lon="1.591583" lat="42.542643" /><trkpt lon="1.5919" lat="42.544281" /><trkpt lon="1.591414" lat="42.545658" /><trkpt lon="1.59185" lat="42.547375" /><trkpt lon="1.591525" lat="42.549356" /><trkpt lon="1.591063" lat="42.550951" /><trkpt lon="1.588881" lat="42.552969" /><trkpt lon="1.588533" lat="42.555331" /><trkpt lon="1.588762" lat="42.556147" /><trkpt lon="1.588785" lat="42.557798" /><trkpt lon="1.589238" lat="42.558785" /><trkpt lon="1.58931" lat="42.55948" /><trkpt lon="1.590188" lat="42.560821" /><trkpt lon="1.590415" lat="42.562652" /><trkpt lon="1.591024" lat="42.563809" /><trkpt lon="1.593249" lat="42.564378" /><trkpt lon="1.593352" lat="42.565433" /><trkpt lon="1.594459" lat="42.566186" /><trkpt lon="1.595137" lat="42.566244" /><trkpt lon="1.597283" lat="42.565738" /><trkpt lon="1.600126" lat="42.56668" /><trkpt lon="1.601059" lat="42.567219" /><trkpt lon="1.601376" lat="42.567214" /><trkpt lon="1.601617" lat="42.567525" /><trkpt lon="1.602661" lat="42.568087" /><trkpt lon="1.604382" lat="42.568737" /><trkpt lon="1.604966" lat="42.570203" /><trkpt lon="1.605514" lat="42.570567" /><trkpt lon="1.607807" lat="42.571038" /><trkpt lon="1.609078" lat="42.571498" /><trkpt lon="1.610889" lat="42.571435" /><trkpt lon="1.612184" lat="42.572004" /><trkpt lon="1.613671" lat="42.572088" /><trkpt lon="1.617609" lat="42.573278" /><trkpt lon="1.618893" lat="42.574083" /><trkpt lon="1.620538" lat="42.574394" /><trkpt lon="1.621399" lat="42.574722" /><trkpt lon="1.622668" lat="42.575732" /><trkpt lon="1.624956" lat="42.576398" /><trkpt lon="1.62558" lat="42.576862" /><trkpt lon="1.626101" lat="42.577563" /><trkpt lon="1.626529" lat="42.57777" /><trkpt lon="1.628432" lat="42.577705" /><trkpt lon="1.630637" lat="42.578547" /><trkpt lon="1.634216" lat="42.577986" /><trkpt lon="1.634673" lat="42.578249" /><trkpt lon="1.63695" lat="42.578838" /><trkpt lon="1.638776" lat="42.578766" /><trkpt lon="1.640679" lat="42.579464" /><trkpt lon="1.645713" lat="42.579753" /><trkpt lon="1.646379" lat="42.580131" /><trkpt lon="1.64721" lat="42.580307" /><trkpt lon="1.649229" lat="42.579681" /><trkpt lon="1.64977" lat="42.578999" /><trkpt lon="1.650251" lat="42.578723" /><trkpt lon="1.654416" lat="42.577654" /><trkpt lon="1.655757" lat="42.577682" /><trkpt lon="1.657018" lat="42.578179" /><trkpt lon="1.65982" lat="42.580092" /><trkpt lon="1.662052" lat="42.582129" /><trkpt lon="1.663286" lat="42.583722" /><trkpt lon="1.663949" lat="42.583925" /><trkpt lon="1.664476" lat="42.583705" /><trkpt lon="1.664655" lat="42.583381" /><trkpt lon="1.664434" lat="42.581298" /><trkpt lon="1.663923" lat="42.580118" /><trkpt lon="1.663695" lat="42.579092" /><trkpt lon="1.66301" lat="42.578111" /><trkpt lon="1.66316" lat="42.57765" /><trkpt lon="1.668375" lat="42.576603" /><trkpt lon="1.671889" lat="42.575313" /><trkpt lon="1.673652" lat="42.574029" /><trkpt lon="1.674264" lat="42.57377" /><trkpt lon="1.675352" lat="42.572712" /><trkpt lon="1.676625" lat="42.571762" /><trkpt lon="1.678172" lat="42.569836" /><trkpt lon="1.678599" lat="42.568263" /><trkpt lon="1.678584" lat="42.567319" /><trkpt lon="1.67945" lat="42.565825" /><trkpt lon="1.679715" lat="42.564485" /><trkpt lon="1.681798" lat="42.562381" /><trkpt lon="1.683175" lat="42.561217" /><trkpt lon="1.684186" lat="42.560698" /><trkpt lon="1.688881" lat="42.557374" /><trkpt lon="1.69187" lat="42.55401" /><trkpt lon="1.695086" lat="42.551732" /><trkpt lon="1.697326" lat="42.548539" /><trkpt lon="1.698698" lat="42.547322" /><trkpt lon="1.700779" lat="42.546171" /><trkpt lon="1.703778" lat="42.545238" /><trkpt lon="1.705944" lat="42.544735" /><trkpt lon="1.711566" lat="42.544193" /><trkpt lon="1.7217" lat="42.544721" /><trkpt lon="1.72766" lat="42.545345" /><trkpt lon="1.730996" lat="42.545885" /><trkpt lon="1.732286" lat="42.546343" /><trkpt lon="1.73401" lat="42.547392" /><trkpt lon="1.734448" lat="42.547484" /><trkpt lon="1.73471" lat="42.548035" /><trkpt lon="1.735739" lat="42.548646" /><trkpt lon="1.737094" lat="42.548998" /><trkpt lon="1.738021" lat="42.548938" /><trkpt lon="1.737973" lat="42.549682" /><trkpt lon="1.738268" lat="42.550418" /><trkpt lon="1.739862" lat="42.55259" /><trkpt lon="1.740976" lat="42.553764" /><trkpt lon="1.742859" lat="42.554758" /><trkpt lon="1.747801" lat="42.55842" /><trkpt lon="1.749285" lat="42.558861" /><trkpt lon="1.750022" lat="42.558944" /><trkpt lon="1.751883" lat="42.558734" /><trkpt lon="1.753396" lat="42.558925" /><trkpt lon="1.755176" lat="42.558916" /><trkpt lon="1.757691" lat="42.559438" /><trkpt lon="1.758884" lat="42.560092" /><trkpt lon="1.760008" lat="42.560389" /><trkpt lon="1.763642" lat="42.560442" /><trkpt lon="1.765358" lat="42.560241" /><trkpt lon="1.765804" lat="42.56004" /><trkpt lon="1.767062" lat="42.55861" /><trkpt lon="1.767561" lat="42.557386" /><trkpt lon="1.768277" lat="42.556864" /><trkpt lon="1.768739" lat="42.556784" /><trkpt lon="1.769566" lat="42.557887" /><trkpt lon="1.770654" lat="42.558433" /><trkpt lon="1.771126" lat="42.559111" /><trkpt lon="1.772465" lat="42.560252" /><trkpt lon="1.775032" lat="42.560955" /><trkpt lon="1.776038" lat="42.560783" /><trkpt lon="1.776824" lat="42.56122" /><trkpt lon="1.77746" lat="42.561003" /><trkpt lon="1.777833" lat="42.560626" /><trkpt lon="1.778236" lat="42.560627" /><trkpt lon="1.778668" lat="42.562026" /><trkpt lon="1.779766" lat="42.56295" /><trkpt lon="1.78108" lat="42.563251" /><trkpt lon="1.781391" lat="42.563956" /><trkpt lon="1.782044" lat="42.564287" /><trkpt lon="1.782071" lat="42.564468" /><trkpt lon="1.78151" lat="42.564357" /><trkpt lon="1.780502" lat="42.563717" /><trkpt lon="1.779388" lat="42.563713" /><trkpt lon="1.77776" lat="42.563396" /><trkpt lon="1.777328" lat="42.562991" /><trkpt lon="1.776973" lat="42.562883" /><trkpt lon="1.776631" lat="42.56296" /><trkpt lon="1.775997" lat="42.56344" /><trkpt lon="1.773623" lat="42.56349" /><trkpt lon="1.772859" lat="42.563652" /><trkpt lon="1.77147" lat="42.563344" /><trkpt lon="1.771223" lat="42.563621" /><trkpt lon="1.771457" lat="42.563772" /><trkpt lon="1.772213" lat="42.563723" /><trkpt lon="1.774157" lat="42.564423" /><trkpt lon="1.774984" lat="42.564419" /><trkpt lon="1.776571" lat="42.565223" /><trkpt lon="1.77791" lat="42.565621" /><trkpt lon="1.780338" lat="42.567235" /><trkpt lon="1.781117" lat="42.56808" /><trkpt lon="1.785179" lat="42.570608" /><trkpt lon="1.785999" lat="42.570871" /><trkpt lon="1.787377" lat="42.571798" /><trkpt lon="1.788103" lat="42.571685" /><trkpt lon="1.788743" lat="42.571899" /><trkpt lon="1.788964" lat="42.572347" /><trkpt lon="1.790019" lat="42.573524" /><trkpt lon="1.794501" lat="42.576319" /><trkpt lon="1.796235" lat="42.578709" /><trkpt lon="1.796807" lat="42.579227" /><trkpt lon="1.796828" lat="42.579908" /><trkpt lon="1.797685" lat="42.58074" /><trkpt lon="1.797781" lat="42.581956" /><trkpt lon="1.798023" lat="42.582457" /><trkpt lon="1.798147" lat="42.583347" /><trkpt lon="1.798918" lat="42.584896" /><trkpt lon="1.799701" lat="42.585726" /><trkpt lon="1.80146" lat="42.586463" /><trkpt lon="1.802247" lat="42.587155" /><trkpt lon="1.802272" lat="42.587359" /><trkpt lon="1.801848" lat="42.58744" /><trkpt lon="1.801385" lat="42.586768" /><trkpt lon="1.799722" lat="42.586424" /><trkpt lon="1.799135" lat="42.585864" /><trkpt lon="1.798852" lat="42.5859" /><trkpt lon="1.798802" lat="42.586157" /><trkpt lon="1.802064" lat="42.587945" /><trkpt lon="1.802788" lat="42.588488" /><trkpt lon="1.803701" lat="42.588871" /><trkpt lon="1.804414" lat="42.58956" /><trkpt lon="1.805214" lat="42.58992" /><trkpt lon="1.80652" lat="42.591647" /><trkpt lon="1.807683" lat="42.592479" /><trkpt lon="1.807609" lat="42.592712" /><trkpt lon="1.807309" lat="42.592672" /><trkpt lon="1.807002" lat="42.592233" /><trkpt lon="1.806007" lat="42.59156" /><trkpt lon="1.80482" lat="42.590392" /><trkpt lon="1.800503" lat="42.589158" /><trkpt lon="1.79897" lat="42.588093" /><trkpt lon="1.798597" lat="42.58812" /><trkpt lon="1.798316" lat="42.588355" /><trkpt lon="1.7984" lat="42.588593" /><trkpt lon="1.798926" lat="42.588794" /><trkpt lon="1.799069" lat="42.589123" /><trkpt lon="1.800136" lat="42.58997" /><trkpt lon="1.803008" lat="42.591096" /><trkpt lon="1.803418" lat="42.591559" /><trkpt lon="1.803678" lat="42.592374" /><trkpt lon="1.80407" lat="42.59286" /><trkpt lon="1.804447" lat="42.59377" /><trkpt lon="1.806354" lat="42.594474" /><trkpt lon="1.807344" lat="42.595098" /><trkpt lon="1.808277" lat="42.596197" /><trkpt lon="1.809344" lat="42.597887" /><trkpt lon="1.811235" lat="42.600078" /><trkpt lon="1.812611" lat="42.603601" /><trkpt lon="1.813798" lat="42.605359" /><trkpt lon="1.814245" lat="42.605821" /><trkpt lon="1.815483" lat="42.606345" /><trkpt lon="1.816943" lat="42.607842" /><trkpt lon="1.819051" lat="42.610422" /><trkpt lon="1.819578" lat="42.611371" /><trkpt lon="1.819753" lat="42.612244" /><trkpt lon="1.820352" lat="42.613097" /><trkpt lon="1.820227" lat="42.613362" /><trkpt lon="1.819835" lat="42.613248" /><trkpt lon="1.81933" lat="42.611693" /><trkpt lon="1.818597" lat="42.610668" /><trkpt lon="1.817884" lat="42.610192" /><trkpt lon="1.817467" lat="42.61021" /><trkpt lon="1.817282" lat="42.610426" /><trkpt lon="1.818577" lat="42.612503" /><trkpt lon="1.818455" lat="42.614096" /><trkpt lon="1.81973" lat="42.615679" /><trkpt lon="1.820032" lat="42.616541" /><trkpt lon="1.820078" lat="42.617778" /><trkpt lon="1.820486" lat="42.619232" /><trkpt lon="1.82236" lat="42.621048" /><trkpt lon="1.822363" lat="42.623051" /><trkpt lon="1.822718" lat="42.623454" /><trkpt lon="1.823776" lat="42.624142" /><trkpt lon="1.824649" lat="42.626472" /><trkpt lon="1.825832" lat="42.627804" /><trkpt lon="1.825949" lat="42.629513" /><trkpt lon="1.825682" lat="42.630365" /><trkpt lon="1.825823" lat="42.631672" /><trkpt lon="1.827777" lat="42.633549" /><trkpt lon="1.828929" lat="42.635431" /><trkpt lon="1.829676" lat="42.637418" /><trkpt lon="1.830115" lat="42.639531" /><trkpt lon="1.831847" lat="42.642423" /><trkpt lon="1.832081" lat="42.64564" /><trkpt lon="1.832361" lat="42.646714" /><trkpt lon="1.834484" lat="42.650277" /><trkpt lon="1.834814" lat="42.651162" /><trkpt lon="1.835074" lat="42.652445" /><trkpt lon="1.834978" lat="42.654495" /><trkpt lon="1.835618" lat="42.655421" /><trkpt lon="1.835876" lat="42.656856" /><trkpt lon="1.835758" lat="42.658288" /><trkpt lon="1.836515" lat="42.660176" /><trkpt lon="1.836621" lat="42.660973" /><trkpt lon="1.83524" lat="42.663447" /><trkpt lon="1.834246" lat="42.663777" /><trkpt lon="1.833734" lat="42.664793" /><trkpt lon="1.834057" lat="42.665689" /><trkpt lon="1.835213" lat="42.666675" /><trkpt lon="1.835064" lat="42.667399" /><trkpt lon="1.835291" lat="42.667959" /><trkpt lon="1.835705" lat="42.670831" /><trkpt lon="1.835585" lat="42.671626" /><trkpt lon="1.835898" lat="42.673443" /><trkpt lon="1.835127" lat="42.674728" /><trkpt lon="1.835285" lat="42.676007" /><trkpt lon="1.834467" lat="42.676956" /><trkpt lon="1.832997" lat="42.678002" /><trkpt lon="1.830824" lat="42.679253" /><trkpt lon="1.829987" lat="42.6804" /><trkpt lon="1.829314" lat="42.680906" /><trkpt lon="1.828626" lat="42.681855" /><trkpt lon="1.827906" lat="42.682236" /><trkpt lon="1.827292" lat="42.68289" /><trkpt lon="1.826878" lat="42.683637" /><trkpt lon="1.824014" lat="42.684604" /><trkpt lon="1.823096" lat="42.686187" /><trkpt lon="1.823254" lat="42.686639" /><trkpt lon="1.824574" lat="42.687449" /><trkpt lon="1.824603" lat="42.687645" /><trkpt lon="1.824277" lat="42.688081" /><trkpt lon="1.824285" lat="42.688522" /><trkpt lon="1.825121" lat="42.690337" /><trkpt lon="1.825336" lat="42.691553" /><trkpt lon="1.826232" lat="42.691756" /><trkpt lon="1.826911" lat="42.692481" /><trkpt lon="1.827273" lat="42.692635" /><trkpt lon="1.829444" lat="42.692026" /><trkpt lon="1.830868" lat="42.692111" /><trkpt lon="1.831261" lat="42.69235" /><trkpt lon="1.833359" lat="42.694752" /><trkpt lon="1.834583" lat="42.697268" /><trkpt lon="1.834679" lat="42.698659" /><trkpt lon="1.834371" lat="42.699498" /><trkpt lon="1.834231" lat="42.700723" /><trkpt lon="1.835117" lat="42.703391" /><trkpt lon="1.836596" lat="42.705203" /><trkpt lon="1.836817" lat="42.705936" /><trkpt lon="1.836518" lat="42.706873" /><trkpt lon="1.836613" lat="42.707192" /><trkpt lon="1.836298" lat="42.707593" /><trkpt lon="1.835378" lat="42.711055" /><trkpt lon="1.835343" lat="42.714066" /><trkpt lon="1.835147" lat="42.715342" /><trkpt lon="1.832972" lat="42.720948" /><trkpt lon="1.832394" lat="42.72194" /><trkpt lon="1.831629" lat="42.722767" /><trkpt lon="1.830543" lat="42.72356" /><trkpt lon="1.829408" lat="42.724104" /><trkpt lon="1.827346" lat="42.724637" /><trkpt lon="1.825638" lat="42.724721" /><trkpt lon="1.82218" lat="42.724415" /><trkpt lon="1.819711" lat="42.724472" /><trkpt lon="1.810954" lat="42.72605" /><trkpt lon="1.808756" lat="42.727064" /><trkpt lon="1.80444" lat="42.730138" /><trkpt lon="1.800975" lat="42.731881" /><trkpt lon="1.799313" lat="42.7326" /><trkpt lon="1.795329" lat="42.733842" /><trkpt lon="1.791135" lat="42.735451" /><trkpt lon="1.790436" lat="42.735948" /><trkpt lon="1.790059" lat="42.736486" /><trkpt lon="1.78971" lat="42.738368" /><trkpt lon="1.789234" lat="42.739117" /><trkpt lon="1.78843" lat="42.739499" /><trkpt lon="1.785645" lat="42.740033" /><trkpt lon="1.783302" lat="42.741461" /><trkpt lon="1.779567" lat="42.743049" /><trkpt lon="1.778872" lat="42.743668" /><trkpt lon="1.778219" lat="42.744673" /><trkpt lon="1.776629" lat="42.745696" /><trkpt lon="1.774597" lat="42.748124" /><trkpt lon="1.773175" lat="42.749122" /><trkpt lon="1.770486" lat="42.754579" /><trkpt lon="1.77035" lat="42.755076" /><trkpt lon="1.770696" lat="42.756" /><trkpt lon="1.770622" lat="42.75648" /><trkpt lon="1.768844" lat="42.758417" /><trkpt lon="1.767872" lat="42.759033" /><trkpt lon="1.76456" lat="42.760217" /><trkpt lon="1.762441" lat="42.760413" /><trkpt lon="1.761269" lat="42.761222" /><trkpt lon="1.755357" lat="42.763417" /><trkpt lon="1.753133" lat="42.764046" /><trkpt lon="1.74915" lat="42.765627" /><trkpt lon="1.746289" lat="42.765937" /><trkpt lon="1.743706" lat="42.767171" /><trkpt lon="1.741926" lat="42.76826" /><trkpt lon="1.739227" lat="42.768742" /><trkpt lon="1.735959" lat="42.770502" /><trkpt lon="1.733676" lat="42.770275" /><trkpt lon="1.731957" lat="42.770683" /><trkpt lon="1.708624" lat="42.772237" /><trkpt lon="1.706271" lat="42.772889" /><trkpt lon="1.70094" lat="42.773858" /><trkpt lon="1.697414" lat="42.775568" /><trkpt lon="1.696961" lat="42.775882" /><trkpt lon="1.696628" lat="42.77638" /><trkpt lon="1.694881" lat="42.782589" /><trkpt lon="1.694604" lat="42.784837" /><trkpt lon="1.694298" lat="42.785752" /><trkpt lon="1.693268" lat="42.78703" /><trkpt lon="1.690501" lat="42.788959" /><trkpt lon="1.689179" lat="42.789553" /><trkpt lon="1.685921" lat="42.790236" /><trkpt lon="1.684471" lat="42.790698" /><trkpt lon="1.679399" lat="42.793528" /><trkpt lon="1.67373" lat="42.795112" /><trkpt lon="1.668003" lat="42.797712" /><trkpt lon="1.661464" lat="42.799029" /><trkpt lon="1.652629" lat="42.800458" /><trkpt lon="1.651465" lat="42.800817" /><trkpt lon="1.640221" lat="42.809749" /><trkpt lon="1.633259" lat="42.813566" /><trkpt lon="1.623729" lat="42.818334" /><trkpt lon="1.622913" lat="42.818866" /><trkpt lon="1.622134" lat="42.819647" /><trkpt lon="1.621194" lat="42.821191" /><trkpt lon="1.617499" lat="42.826015" /><trkpt lon="1.614751" lat="42.828015" /><trkpt lon="1.610236" lat="42.83068" /><trkpt lon="1.608858" lat="42.831874" /><trkpt lon="1.608273" lat="42.832523" /><trkpt lon="1.6075" lat="42.833787" /><trkpt lon="1.607026" lat="42.835208" /><trkpt lon="1.605732" lat="42.836953" /><trkpt lon="1.604492" lat="42.837686" /><trkpt lon="1.604416" lat="42.837888" /><trkpt lon="1.603839" lat="42.838005" /><trkpt lon="1.602937" lat="42.838909" /><trkpt lon="1.601853" lat="42.844114" /><trkpt lon="1.600033" lat="42.846819" /><trkpt lon="1.599347" lat="42.850132" /><trkpt lon="1.59863" lat="42.850225" /><trkpt lon="1.594992" lat="42.851493" /><trkpt lon="1.592442" lat="42.852384" /><trkpt lon="1.591674" lat="42.852813" /><trkpt lon="1.591545" lat="42.853189" /><trkpt lon="1.591621" lat="42.853582" /><trkpt lon="1.592744" lat="42.855319" /><trkpt lon="1.600571" lat="42.86177" /><trkpt lon="1.606122" lat="42.867259" /><trkpt lon="1.607179" lat="42.867992" /><trkpt lon="1.608515" lat="42.868648" /><trkpt lon="1.616696" lat="42.871928" /><trkpt lon="1.619666" lat="42.873791" /><trkpt lon="1.621368" lat="42.87541" /><trkpt lon="1.622102" lat="42.876479" /><trkpt lon="1.62271" lat="42.878047" /><trkpt lon="1.622841" lat="42.879195" /><trkpt lon="1.622806" lat="42.882414" /><trkpt lon="1.623281" lat="42.883969" /><trkpt lon="1.62389" lat="42.884745" /><trkpt lon="1.626348" lat="42.886762" /><trkpt lon="1.627175" lat="42.887817" /><trkpt lon="1.629427" lat="42.892366" /><trkpt lon="1.630359" lat="42.894827" /><trkpt lon="1.632698" lat="42.898467" /><trkpt lon="1.633529" lat="42.899343" /><trkpt lon="1.636207" lat="42.901412" /><trkpt lon="1.6375" lat="42.903005" /><trkpt lon="1.637956" lat="42.904208" /><trkpt lon="1.639075" lat="42.911391" /><trkpt lon="1.639125" lat="42.913302" /><trkpt lon="1.638466" lat="42.917975" /><trkpt lon="1.638106" lat="42.919117" /><trkpt lon="1.632409" lat="42.928231" /><trkpt lon="1.631002" lat="42.929852" /><trkpt lon="1.627937" lat="42.93283" /><trkpt lon="1.627156" lat="42.933886" /><trkpt lon="1.62297" lat="42.942513" /><trkpt lon="1.622286" lat="42.944417" /><trkpt lon="1.622345" lat="42.951174" /><trkpt lon="1.624367" lat="42.95771" /><trkpt lon="1.624963" lat="42.960694" /><trkpt lon="1.625075" lat="42.963497" /><trkpt lon="1.624657" lat="42.966425" /><trkpt lon="1.622782" lat="42.974017" /><trkpt lon="1.622366" lat="42.976295" /><trkpt lon="1.622499" lat="42.978661" /><trkpt lon="1.622924" lat="42.980239" /><trkpt lon="1.623967" lat="42.982661" /><trkpt lon="1.624035" lat="42.984388" /><trkpt lon="1.620894" lat="42.994414" /><trkpt lon="1.620421" lat="42.995405" /><trkpt lon="1.619578" lat="42.996484" /><trkpt lon="1.615984" lat="42.999693" /><trkpt lon="1.615697" lat="43.000574" /><trkpt lon="1.615829" lat="43.001612" /><trkpt lon="1.615279" lat="43.002353" /><trkpt lon="1.615221" lat="43.002657" /><trkpt lon="1.613961" lat="43.002732" /><trkpt lon="1.613219" lat="43.003158" /><trkpt lon="1.613652" lat="43.004196" /><trkpt lon="1.613885" lat="43.005505" /><trkpt lon="1.613669" lat="43.008508" /><trkpt lon="1.613175" lat="43.009921" /><trkpt lon="1.611306" lat="43.011429" /><trkpt lon="1.610685" lat="43.0126" /><trkpt lon="1.608589" lat="43.012227" /><trkpt lon="1.60806" lat="43.012384" /><trkpt lon="1.606457" lat="43.014588" /><trkpt lon="1.606051" lat="43.014903" /><trkpt lon="1.591477" lat="43.023353" /><trkpt lon="1.589124" lat="43.024244" /><trkpt lon="1.546289" lat="43.034384" /><trkpt lon="1.540599" lat="43.036503" /><trkpt lon="1.534522" lat="43.040138" /><trkpt lon="1.532802" lat="43.041923" /><trkpt lon="1.531935" lat="43.042568" /><trkpt lon="1.503091" lat="43.055092" /><trkpt lon="1.502501" lat="43.055467" /><trkpt lon="1.50143" lat="43.056608" /><trkpt lon="1.500661" lat="43.05703" /><trkpt lon="1.498671" lat="43.057476" /><trkpt lon="1.496816" lat="43.057586" /><trkpt lon="1.495566" lat="43.058039" /><trkpt lon="1.492016" lat="43.060239" /><trkpt lon="1.489715" lat="43.062243" /><trkpt lon="1.487036" lat="43.065295" /><trkpt lon="1.485847" lat="43.065628" /><trkpt lon="1.484671" lat="43.067116" /><trkpt lon="1.484092" lat="43.067521" /><trkpt lon="1.481026" lat="43.067587" /><trkpt lon="1.480058" lat="43.06781" /><trkpt lon="1.479106" lat="43.068367" /><trkpt lon="1.478554" lat="43.069359" /><trkpt lon="1.477405" lat="43.069982" /><trkpt lon="1.475181" lat="43.069659" /><trkpt lon="1.474703" lat="43.069801" /><trkpt lon="1.473991" lat="43.070448" /><trkpt lon="1.473378" lat="43.07063" /><trkpt lon="1.472207" lat="43.070499" /><trkpt lon="1.470398" lat="43.070736" /><trkpt lon="1.468813" lat="43.070665" /><trkpt lon="1.467565" lat="43.070951" /><trkpt lon="1.466863" lat="43.071622" /><trkpt lon="1.465695" lat="43.071787" /><trkpt lon="1.463222" lat="43.072643" /><trkpt lon="1.46079" lat="43.072929" /><trkpt lon="1.458596" lat="43.072731" /><trkpt lon="1.456556" lat="43.073281" /><trkpt lon="1.455616" lat="43.073252" /><trkpt lon="1.455151" lat="43.073704" /><trkpt lon="1.453403" lat="43.074184" /><trkpt lon="1.452598" lat="43.074725" /><trkpt lon="1.448923" lat="43.075083" /><trkpt lon="1.447751" lat="43.075819" /><trkpt lon="1.447386" lat="43.076541" /><trkpt lon="1.443621" lat="43.077948" /><trkpt lon="1.443566" lat="43.078101" /><trkpt lon="1.443807" lat="43.078347" /><trkpt lon="1.443509" lat="43.078727" /><trkpt lon="1.443606" lat="43.079076" /><trkpt lon="1.443502" lat="43.079248" /><trkpt lon="1.44256" lat="43.079179" /><trkpt lon="1.441913" lat="43.079329" /><trkpt lon="1.441067" lat="43.079609" /><trkpt lon="1.440665" lat="43.08007" /><trkpt lon="1.440144" lat="43.08007" /><trkpt lon="1.439485" lat="43.080408" /><trkpt lon="1.437221" lat="43.082541" /><trkpt lon="1.436807" lat="43.083192" /><trkpt lon="1.4364" lat="43.082812" /><trkpt lon="1.436023" lat="43.082739" /><trkpt lon="1.434864" lat="43.08301" /><trkpt lon="1.433721" lat="43.083548" /><trkpt lon="1.432392" lat="43.083576" /><trkpt lon="1.431342" lat="43.082961" /><trkpt lon="1.429789" lat="43.083159" /><trkpt lon="1.428505" lat="43.083922" /><trkpt lon="1.425256" lat="43.084549" /><trkpt lon="1.423973" lat="43.085346" /><trkpt lon="1.42021" lat="43.086319" /><trkpt lon="1.419702" lat="43.086563" /><trkpt lon="1.417319" lat="43.088444" /><trkpt lon="1.416776" lat="43.088698" /><trkpt lon="1.407948" lat="43.090411" /><trkpt lon="1.405884" lat="43.091233" /><trkpt lon="1.405154" lat="43.092141" /><trkpt lon="1.404719" lat="43.092448" /><trkpt lon="1.398686" lat="43.094519" /><trkpt lon="1.394507" lat="43.096851" /><trkpt lon="1.393694" lat="43.097562" /><trkpt lon="1.393139" lat="43.098615" /><trkpt lon="1.392246" lat="43.099301" /><trkpt lon="1.374257" lat="43.108667" /><trkpt lon="1.374109" lat="43.108879" /><trkpt lon="1.373705" lat="43.108954" /><trkpt lon="1.342927" lat="43.125022" /><trkpt lon="1.341845" lat="43.125713" /><trkpt lon="1.338032" lat="43.128841" /><trkpt lon="1.321958" lat="43.133043" /><trkpt lon="1.321362" lat="43.133475" /><trkpt lon="1.320787" lat="43.134232" /><trkpt lon="1.320474" lat="43.137305" /><trkpt lon="1.319905" lat="43.138285" /><trkpt lon="1.319538" lat="43.139376" /><trkpt lon="1.318753" lat="43.140401" /><trkpt lon="1.318076" lat="43.140907" /><trkpt lon="1.311114" lat="43.144616" /><trkpt lon="1.310391" lat="43.144627" /><trkpt lon="1.308292" lat="43.143938" /><trkpt lon="1.306944" lat="43.144007" /><trkpt lon="1.274181" lat="43.163538" /><trkpt lon="1.24238" lat="43.182965" /><trkpt lon="1.24156" lat="43.183825" /><trkpt lon="1.231389" lat="43.198214" /><trkpt lon="1.227749" lat="43.203094" /><trkpt lon="1.227684" lat="43.203385" /><trkpt lon="1.228429" lat="43.205534" /><trkpt lon="1.226871" lat="43.20537" /><trkpt lon="1.225348" lat="43.205447" /><trkpt lon="1.225325" lat="43.20623" /><trkpt lon="1.220583" lat="43.20959" /><trkpt lon="1.218768" lat="43.210459" /><trkpt lon="1.214992" lat="43.211548" /><trkpt lon="1.212825" lat="43.21325" /><trkpt lon="1.209987" lat="43.214167" /><trkpt lon="1.208858" lat="43.21522" /><trkpt lon="1.206452" lat="43.216988" /><trkpt lon="1.205272" lat="43.217407" /><trkpt lon="1.204777" lat="43.217808" /><trkpt lon="1.203465" lat="43.217988" /><trkpt lon="1.201638" lat="43.218571" /><trkpt lon="1.199956" lat="43.219602" /><trkpt lon="1.197989" lat="43.220335" /><trkpt lon="1.19447" lat="43.2222" /><trkpt lon="1.191803" lat="43.222377" /><trkpt lon="1.191081" lat="43.22269" /><trkpt lon="1.190656" lat="43.223054" /><trkpt lon="1.187246" lat="43.227953" /><trkpt lon="1.18566" lat="43.231487" /><trkpt lon="1.184562" lat="43.235152" /><trkpt lon="1.182123" lat="43.234578" /><trkpt lon="1.177105" lat="43.232974" /><trkpt lon="1.175901" lat="43.232924" /><trkpt lon="1.173026" lat="43.233164" /><trkpt lon="1.172394" lat="43.23337" /><trkpt lon="1.170605" lat="43.234669" /><trkpt lon="1.169668" lat="43.235083" /><trkpt lon="1.169043" lat="43.235987" /><trkpt lon="1.167542" lat="43.237322" /><trkpt lon="1.165127" lat="43.241381" /><trkpt lon="1.164161" lat="43.241939" /><trkpt lon="1.162715" lat="43.241805" /><trkpt lon="1.160422" lat="43.24047" /><trkpt lon="1.159234" lat="43.24033" /><trkpt lon="1.156581" lat="43.24197" /><trkpt lon="1.153525" lat="43.244749" /><trkpt lon="1.153376" lat="43.244684" /><trkpt lon="1.153073" lat="43.243878" /><trkpt lon="1.151297" lat="43.242206" /><trkpt lon="1.150569" lat="43.241807" /><trkpt lon="1.148239" lat="43.242506" /><trkpt lon="1.14461" lat="43.242869" /><trkpt lon="1.143823" lat="43.243247" /><trkpt lon="1.14294" lat="43.24395" /><trkpt lon="1.141154" lat="43.245741" /><trkpt lon="1.137395" lat="43.248736" /><trkpt lon="1.133464" lat="43.249814" /><trkpt lon="1.126863" lat="43.251952" /><trkpt lon="1.124305" lat="43.25318" /><trkpt lon="1.124057" lat="43.253179" /><trkpt lon="1.11873" lat="43.25584" /><trkpt lon="1.116455" lat="43.256715" /><trkpt lon="1.11553" lat="43.257427" /><trkpt lon="1.115371" lat="43.258197" /><trkpt lon="1.114725" lat="43.258483" /><trkpt lon="1.112308" lat="43.260694" /><trkpt lon="1.112916" lat="43.260937" /><trkpt lon="1.114189" lat="43.260337" /><trkpt lon="1.114239" lat="43.260044" /><trkpt lon="1.113916" lat="43.259628" /><trkpt lon="1.029062" lat="43.21008" /><trkpt lon="1.026821" lat="43.208963" /><trkpt lon="1.024993" lat="43.208319" /><trkpt lon="1.018911" lat="43.207115" /><trkpt lon="1.015401" lat="43.205942" /><trkpt lon="0.987909" lat="43.192987" /><trkpt lon="0.984809" lat="43.191242" /><trkpt lon="0.982079" lat="43.18886" /><trkpt lon="0.980708" lat="43.187096" /><trkpt lon="0.980044" lat="43.185578" /><trkpt lon="0.978986" lat="43.179233" /><trkpt lon="0.978212" lat="43.177098" /><trkpt lon="0.976994" lat="43.175183" /><trkpt lon="0.974373" lat="43.172279" /><trkpt lon="0.973458" lat="43.170952" /><trkpt lon="0.972926" lat="43.169759" /><trkpt lon="0.971746" lat="43.165872" /><trkpt lon="0.97084" lat="43.164299" /><trkpt lon="0.968302" lat="43.161332" /><trkpt lon="0.967366" lat="43.159863" /><trkpt lon="0.96186" lat="43.147401" /><trkpt lon="0.960669" lat="43.145076" /><trkpt lon="0.958757" lat="43.142063" /><trkpt lon="0.955766" lat="43.138439" /><trkpt lon="0.953647" lat="43.136335" /><trkpt lon="0.950626" lat="43.133815" /><trkpt lon="0.94741" lat="43.131578" /><trkpt lon="0.94512" lat="43.130211" /><trkpt lon="0.939586" lat="43.127516" /><trkpt lon="0.930852" lat="43.123919" /><trkpt lon="0.9207" lat="43.118155" /><trkpt lon="0.917237" lat="43.116841" /><trkpt lon="0.914785" lat="43.116339" /><trkpt lon="0.9123" lat="43.116139" /><trkpt lon="0.910004" lat="43.116206" /><trkpt lon="0.907405" lat="43.116566" /><trkpt lon="0.903594" lat="43.117361" /><trkpt lon="0.900616" lat="43.118248" /><trkpt lon="0.898882" lat="43.118951" /><trkpt lon="0.892258" lat="43.122344" /><trkpt lon="0.89017" lat="43.123143" /><trkpt lon="0.887524" lat="43.123874" /><trkpt lon="0.882895" lat="43.124545" /><trkpt lon="0.874642" lat="43.124635" /><trkpt lon="0.870713" lat="43.125092" /><trkpt lon="0.867514" lat="43.125814" /><trkpt lon="0.852644" lat="43.129834" /><trkpt lon="0.84707" lat="43.131082" /><trkpt lon="0.835383" lat="43.1333" /><trkpt lon="0.832654" lat="43.133524" /><trkpt lon="0.830475" lat="43.13346" /><trkpt lon="0.828112" lat="43.133134" /><trkpt lon="0.826395" lat="43.132721" /><trkpt lon="0.808281" lat="43.126948" /><trkpt lon="0.806028" lat="43.126384" /><trkpt lon="0.803065" lat="43.125889" /><trkpt lon="0.798821" lat="43.125648" /><trkpt lon="0.783237" lat="43.125854" /><trkpt lon="0.770049" lat="43.125208" /><trkpt lon="0.759476" lat="43.125147" /><trkpt lon="0.75344" lat="43.124943" /><trkpt lon="0.748816" lat="43.124532" /><trkpt lon="0.742375" lat="43.12349" /><trkpt lon="0.738608" lat="43.12324" /><trkpt lon="0.735206" lat="43.123436" /><trkpt lon="0.728165" lat="43.124523" /><trkpt lon="0.725296" lat="43.12466" /><trkpt lon="0.722892" lat="43.124568" /><trkpt lon="0.719634" lat="43.124124" /><trkpt lon="0.71175" lat="43.122269" /><trkpt lon="0.702928" lat="43.120526" /><trkpt lon="0.70007" lat="43.119735" /><trkpt lon="0.692668" lat="43.117298" /><trkpt lon="0.689088" lat="43.116378" /><trkpt lon="0.685737" lat="43.115774" /><trkpt lon="0.676271" lat="43.114506" /><trkpt lon="0.672166" lat="43.114122" /><trkpt lon="0.668478" lat="43.114056" /><trkpt lon="0.655346" lat="43.114954" /><trkpt lon="0.650151" lat="43.115131" /><trkpt lon="0.645791" lat="43.114976" /><trkpt lon="0.641068" lat="43.114482" /><trkpt lon="0.63618" lat="43.113645" /><trkpt lon="0.621397" lat="43.11067" /><trkpt lon="0.615328" lat="43.109151" /><trkpt lon="0.604613" lat="43.106081" /><trkpt lon="0.586713" lat="43.10188" /><trkpt lon="0.58347" lat="43.100852" /><trkpt lon="0.577999" lat="43.098324" /><trkpt lon="0.576206" lat="43.097693" /><trkpt lon="0.573757" lat="43.097099" /><trkpt lon="0.569895" lat="43.096796" /><trkpt lon="0.562806" lat="43.097368" /><trkpt lon="0.560843" lat="43.097369" /><trkpt lon="0.557825" lat="43.097108" /><trkpt lon="0.554571" lat="43.096501" /><trkpt lon="0.545009" lat="43.093742" /><trkpt lon="0.540765" lat="43.092802" /><trkpt lon="0.52673" lat="43.091124" /><trkpt lon="0.52318" lat="43.090853" /><trkpt lon="0.519528" lat="43.090961" /><trkpt lon="0.511234" lat="43.091741" /><trkpt lon="0.506506" lat="43.092533" /><trkpt lon="0.502643" lat="43.09383" /><trkpt lon="0.495524" lat="43.097378" /><trkpt lon="0.489973" lat="43.099575" /><trkpt lon="0.473343" lat="43.104303" /><trkpt lon="0.464202" lat="43.107404" /><trkpt lon="0.460845" lat="43.108147" /><trkpt lon="0.4576" lat="43.108483" /><trkpt lon="0.454319" lat="43.108467" /><trkpt lon="0.45116" lat="43.10812" /><trkpt lon="0.42268" lat="43.103605" /><trkpt lon="0.417125" lat="43.102441" /><trkpt lon="0.407515" lat="43.09987" /><trkpt lon="0.402923" lat="43.099265" /><trkpt lon="0.397552" lat="43.099278" /><trkpt lon="0.38748" lat="43.100717" /><trkpt lon="0.383361" lat="43.100986" /><trkpt lon="0.37967" lat="43.10089" /><trkpt lon="0.354261" lat="43.099158" /><trkpt lon="0.348368" lat="43.099376" /><trkpt lon="0.344093" lat="43.100133" /><trkpt lon="0.341294" lat="43.101029" /><trkpt lon="0.338818" lat="43.102224" /><trkpt lon="0.33701" lat="43.103381" /><trkpt lon="0.333852" lat="43.106056" /><trkpt lon="0.332446" lat="43.106838" /><trkpt lon="0.330203" lat="43.107306" /><trkpt lon="0.327512" lat="43.107119" /><trkpt lon="0.325619" lat="43.107182" /><trkpt lon="0.323796" lat="43.107765" /><trkpt lon="0.322471" lat="43.108773" /><trkpt lon="0.321938" lat="43.109527" /><trkpt lon="0.321681" lat="43.110265" /><trkpt lon="0.321621" lat="43.111152" /><trkpt lon="0.321926" lat="43.11355" /><trkpt lon="0.32083" lat="43.116708" /><trkpt lon="0.320502" lat="43.119936" /><trkpt lon="0.319977" lat="43.121819" /><trkpt lon="0.318619" lat="43.125072" /><trkpt lon="0.316494" lat="43.128159" /><trkpt lon="0.315685" lat="43.129681" /><trkpt lon="0.313795" lat="43.135836" /><trkpt lon="0.312888" lat="43.137631" /><trkpt lon="0.311667" lat="43.139411" /><trkpt lon="0.309433" lat="43.141796" /><trkpt lon="0.30648" lat="43.144048" /><trkpt lon="0.297762" lat="43.148666" /><trkpt lon="0.29595" lat="43.149862" /><trkpt lon="0.293817" lat="43.151794" /><trkpt lon="0.29035" lat="43.15555" /><trkpt lon="0.289388" lat="43.156402" /><trkpt lon="0.286452" lat="43.158432" /><trkpt lon="0.284438" lat="43.160634" /><trkpt lon="0.283058" lat="43.161418" /><trkpt lon="0.281687" lat="43.161726" /><trkpt lon="0.280471" lat="43.161727" /><trkpt lon="0.277125" lat="43.161221" /><trkpt lon="0.275111" lat="43.161391" /><trkpt lon="0.273745" lat="43.161792" /><trkpt lon="0.270368" lat="43.163257" /><trkpt lon="0.267573" lat="43.16402" /><trkpt lon="0.265067" lat="43.164156" /><trkpt lon="0.259578" lat="43.16398" /><trkpt lon="0.258014" lat="43.164091" /><trkpt lon="0.255981" lat="43.164534" /><trkpt lon="0.254731" lat="43.164996" /><trkpt lon="0.253153" lat="43.165842" /><trkpt lon="0.246946" lat="43.170974" /><trkpt lon="0.244325" lat="43.172723" /><trkpt lon="0.242932" lat="43.17346" /><trkpt lon="0.241365" lat="43.174141" /><trkpt lon="0.238846" lat="43.174947" /><trkpt lon="0.236675" lat="43.175388" /><trkpt lon="0.230951" lat="43.176098" /><trkpt lon="0.229382" lat="43.176531" /><trkpt lon="0.227732" lat="43.17725" /><trkpt lon="0.225721" lat="43.178713" /><trkpt lon="0.22456" lat="43.180193" /><trkpt lon="0.223969" lat="43.181561" /><trkpt lon="0.223242" lat="43.185003" /><trkpt lon="0.222359" lat="43.187354" /><trkpt lon="0.221592" lat="43.188797" /><trkpt lon="0.218421" lat="43.193389" /><trkpt lon="0.217009" lat="43.195244" /><trkpt lon="0.215578" lat="43.196574" /><trkpt lon="0.21405" lat="43.197583" /><trkpt lon="0.212606" lat="43.198264" /><trkpt lon="0.209323" lat="43.199174" /><trkpt lon="0.205257" lat="43.199873" /><trkpt lon="0.203277" lat="43.199971" /><trkpt lon="0.201033" lat="43.199515" /><trkpt lon="0.196351" lat="43.197737" /><trkpt lon="0.194218" lat="43.197342" /><trkpt lon="0.191423" lat="43.197186" /><trkpt lon="0.187727" lat="43.197594" /><trkpt lon="0.175683" lat="43.200054" /><trkpt lon="0.17341" lat="43.200344" /><trkpt lon="0.170471" lat="43.200283" /><trkpt lon="0.164966" lat="43.199415" /><trkpt lon="0.16121" lat="43.199126" /><trkpt lon="0.157857" lat="43.199212" /><trkpt lon="0.153954" lat="43.19975" /><trkpt lon="0.151005" lat="43.200603" /><trkpt lon="0.14917" lat="43.201549" /><trkpt lon="0.148306" lat="43.202268" /><trkpt lon="0.146223" lat="43.204824" /><trkpt lon="0.145396" lat="43.205603" /><trkpt lon="0.14414" lat="43.206462" /><trkpt lon="0.142492" lat="43.207268" /><trkpt lon="0.14057" lat="43.207857" /><trkpt lon="0.133884" lat="43.209196" /><trkpt lon="0.129914" lat="43.210304" /><trkpt lon="0.125879" lat="43.211851" /><trkpt lon="0.117478" lat="43.21572" /><trkpt lon="0.115527" lat="43.21629" /><trkpt lon="0.11298" lat="43.216646" /><trkpt lon="0.110869" lat="43.216653" /><trkpt lon="0.086946" lat="43.21472" /><trkpt lon="0.081295" lat="43.213962" /><trkpt lon="0.052729" lat="43.209041" /><trkpt lon="0.048666" lat="43.208774" /><trkpt lon="0.045213" lat="43.208985" /><trkpt lon="0.041729" lat="43.20963" /><trkpt lon="0.038134" lat="43.210816" /><trkpt lon="0.029168" lat="43.215357" /><trkpt lon="0.02182" lat="43.218146" /><trkpt lon="0.021511" lat="43.218548" /><trkpt lon="0.021447" lat="43.218971" /><trkpt lon="0.021876" lat="43.219662" /><trkpt lon="0.02375" lat="43.220677" /><trkpt lon="0.026237" lat="43.222421" /><trkpt lon="0.026716" lat="43.222603" /><trkpt lon="0.026765" lat="43.223033" /><trkpt lon="0.026266" lat="43.223187" /><trkpt lon="0.025741" lat="43.222883" /><trkpt lon="0.022027" lat="43.221899" /><trkpt lon="0.020031" lat="43.221156" /><trkpt lon="0.017726" lat="43.219738" /><trkpt lon="0.016639" lat="43.218695" /><trkpt lon="0.015453" lat="43.216908" /><trkpt lon="0.011599" lat="43.209189" /><trkpt lon="0.01044" lat="43.206422" /><trkpt lon="0.006449" lat="43.199953" /><trkpt lon="0.006452" lat="43.198835" /><trkpt lon="0.006838" lat="43.198067" /><trkpt lon="0.009818" lat="43.194989" /><trkpt lon="0.010639" lat="43.193692" /><trkpt lon="0.010835" lat="43.192808" /><trkpt lon="0.010774" lat="43.191807" /><trkpt lon="0.010531" lat="43.191087" /><trkpt lon="0.00909" lat="43.188556" /><trkpt lon="0.009023" lat="43.187381" /><trkpt lon="0.00966" lat="43.18627" /><trkpt lon="0.011976" lat="43.184557" /><trkpt lon="0.012465" lat="43.183925" /><trkpt lon="0.012815" lat="43.183154" /><trkpt lon="0.012939" lat="43.182316" /><trkpt lon="0.012609" lat="43.180982" /><trkpt lon="0.011996" lat="43.180147" /><trkpt lon="0.010826" lat="43.17927" /><trkpt lon="0.007679" lat="43.178076" /><trkpt lon="0.006104" lat="43.177212" /><trkpt lon="-0.007032" lat="43.166495" /><trkpt lon="-0.011915" lat="43.1633" /><trkpt lon="-0.018966" lat="43.157695" /><trkpt lon="-0.019848" lat="43.156783" /><trkpt lon="-0.020307" lat="43.156029" /><trkpt lon="-0.027849" lat="43.139175" /><trkpt lon="-0.02675" lat="43.133642" /><trkpt lon="-0.026819" lat="43.13314" /><trkpt lon="-0.027807" lat="43.13091" /><trkpt lon="-0.027918" lat="43.130227" /><trkpt lon="-0.026935" lat="43.124616" /><trkpt lon="-0.027308" lat="43.123269" /><trkpt lon="-0.045028" lat="43.100534" /><trkpt lon="-0.046302" lat="43.095776" /><trkpt lon="-0.046111" lat="43.094855" /><trkpt lon="-0.046233" lat="43.093491" /><trkpt lon="-0.046129" lat="43.089628" /><trkpt lon="-0.046983" lat="43.08935" /><trkpt lon="-0.047783" lat="43.089551" /><trkpt lon="-0.048924" lat="43.089015" /><trkpt lon="-0.049681" lat="43.088889" /><trkpt lon="-0.053754" lat="43.089886" /><trkpt lon="-0.054918" lat="43.091889" /><trkpt lon="-0.054637" lat="43.092346" /><trkpt lon="-0.054185" lat="43.092761" /><trkpt lon="-0.054099" lat="43.092687" /></trkseg></trk></gpx>