<?xml version='1.0' encoding='utf-8'?>
<gpx xmlns="http://www.topografix.com/GPX/1/1" version="1.1" creator="Yatutbuv"><trk><trkseg><trkpt lon="6.25134" lat="49.115808" /><trkpt lon="6.251514" lat="49.115894" /><trkpt lon="6.251304" lat="49.116082" /><trkpt lon="6.249143" lat="49.115018" /><trkpt lon="6.247392" lat="49.114961" /><trkpt lon="6.247167" lat="49.118039" /><trkpt lon="6.247832" lat="49.118549" /><trkpt lon="6.247831" lat="49.118822" /><trkpt lon="6.24758" lat="49.119025" /><trkpt lon="6.247168" lat="49.119082" /><trkpt lon="6.246345" lat="49.118842" /><trkpt lon="6.244946" lat="49.119082" /><trkpt lon="6.243038" lat="49.119685" /><trkpt lon="6.240346" lat="49.119636" /><trkpt lon="6.239651" lat="49.119869" /><trkpt lon="6.238715" lat="49.119481" /><trkpt lon="6.23709" lat="49.119473" /><trkpt lon="6.23611" lat="49.119835" /><trkpt lon="6.235216" lat="49.120554" /><trkpt lon="6.234967" lat="49.121017" /><trkpt lon="6.234995" lat="49.12141" /><trkpt lon="6.235849" lat="49.122615" /><trkpt lon="6.239189" lat="49.125301" /><trkpt lon="6.240233" lat="49.126335" /><trkpt lon="6.244324" lat="49.132091" /><trkpt lon="6.245376" lat="49.133034" /><trkpt lon="6.247391" lat="49.134452" /><trkpt lon="6.248219" lat="49.135513" /><trkpt lon="6.248464" lat="49.136358" /><trkpt lon="6.248399" lat="49.137228" /><trkpt lon="6.247996" lat="49.138089" /><trkpt lon="6.246915" lat="49.139399" /><trkpt lon="6.246633" lat="49.140067" /><trkpt lon="6.246728" lat="49.142504" /><trkpt lon="6.247768" lat="49.145529" /><trkpt lon="6.251973" lat="49.152625" /><trkpt lon="6.253057" lat="49.155789" /><trkpt lon="6.253295" lat="49.157559" /><trkpt lon="6.253258" lat="49.159418" /><trkpt lon="6.252803" lat="49.161645" /><trkpt lon="6.251044" lat="49.166527" /><trkpt lon="6.250817" lat="49.167552" /><trkpt lon="6.250637" lat="49.172623" /><trkpt lon="6.250307" lat="49.174728" /><trkpt lon="6.249283" lat="49.177151" /><trkpt lon="6.248121" lat="49.178789" /><trkpt lon="6.247176" lat="49.17983" /><trkpt lon="6.2455" lat="49.181262" /><trkpt lon="6.242134" lat="49.183281" /><trkpt lon="6.239258" lat="49.184417" /><trkpt lon="6.230787" lat="49.186616" /><trkpt lon="6.226891" lat="49.187995" /><trkpt lon="6.222505" lat="49.190268" /><trkpt lon="6.216417" lat="49.193994" /><trkpt lon="6.213248" lat="49.195653" /><trkpt lon="6.210381" lat="49.196872" /><trkpt lon="6.204705" lat="49.198556" /><trkpt lon="6.195414" lat="49.200214" /><trkpt lon="6.192061" lat="49.200571" /><trkpt lon="6.178133" lat="49.20148" /><trkpt lon="6.177625" lat="49.201765" /><trkpt lon="6.177245" lat="49.202437" /><trkpt lon="6.176022" lat="49.203116" /><trkpt lon="6.175503" lat="49.204324" /><trkpt lon="6.175149" lat="49.206374" /><trkpt lon="6.174666" lat="49.214745" /><trkpt lon="6.174779" lat="49.217623" /><trkpt lon="6.175185" lat="49.219312" /><trkpt lon="6.1758" lat="49.220898" /><trkpt lon="6.17792" lat="49.224794" /><trkpt lon="6.17865" lat="49.226619" /><trkpt lon="6.179071" lat="49.228381" /><trkpt lon="6.179592" lat="49.233209" /><trkpt lon="6.180782" lat="49.236658" /><trkpt lon="6.181057" lat="49.238833" /><trkpt lon="6.18085" lat="49.240376" /><trkpt lon="6.180422" lat="49.241623" /><trkpt lon="6.177357" lat="49.246588" /><trkpt lon="6.176889" lat="49.24761" /><trkpt lon="6.176399" lat="49.249294" /><trkpt lon="6.176268" lat="49.251748" /><trkpt lon="6.177356" lat="49.259695" /><trkpt lon="6.177339" lat="49.262617" /><trkpt lon="6.176859" lat="49.264743" /><trkpt lon="6.175165" lat="49.269559" /><trkpt lon="6.173851" lat="49.274879" /><trkpt lon="6.173243" lat="49.278049" /><trkpt lon="6.172659" lat="49.282705" /><trkpt lon="6.172956" lat="49.284245" /><trkpt lon="6.175824" lat="49.291029" /><trkpt lon="6.177087" lat="49.292479" /><trkpt lon="6.180944" lat="49.295345" /><trkpt lon="6.182061" lat="49.296414" /><trkpt lon="6.183353" lat="49.298266" /><trkpt lon="6.184067" lat="49.300306" /><trkpt lon="6.184101" lat="49.302419" /><trkpt lon="6.182676" lat="49.310327" /><trkpt lon="6.182494" lat="49.31341" /><trkpt lon="6.182553" lat="49.315305" /><trkpt lon="6.182738" lat="49.317237" /><trkpt lon="6.183366" lat="49.320551" /><trkpt lon="6.18546" lat="49.327546" /><trkpt lon="6.185765" lat="49.33117" /><trkpt lon="6.185514" lat="49.333483" /><trkpt lon="6.185079" lat="49.335251" /><trkpt lon="6.184366" lat="49.337138" /><trkpt lon="6.183346" lat="49.33906" /><trkpt lon="6.181131" lat="49.34206" /><trkpt lon="6.178906" lat="49.344138" /><trkpt lon="6.17622" lat="49.345776" /><trkpt lon="6.173083" lat="49.346974" /><trkpt lon="6.168778" lat="49.3478" /><trkpt lon="6.155807" lat="49.348914" /><trkpt lon="6.144137" lat="49.350875" /><trkpt lon="6.139843" lat="49.35092" /><trkpt lon="6.134926" lat="49.350557" /><trkpt lon="6.131556" lat="49.350068" /><trkpt lon="6.12942" lat="49.349654" /><trkpt lon="6.127143" lat="49.348991" /><trkpt lon="6.121644" lat="49.346626" /><trkpt lon="6.119831" lat="49.346036" /><trkpt lon="6.117022" lat="49.345739" /><trkpt lon="6.114522" lat="49.346011" /><trkpt lon="6.112035" lat="49.346898" /><trkpt lon="6.110133" lat="49.348299" /><trkpt lon="6.106808" lat="49.353447" /><trkpt lon="6.106099" lat="49.355365" /><trkpt lon="6.105952" lat="49.357617" /><trkpt lon="6.106873" lat="49.361828" /><trkpt lon="6.106953" lat="49.363331" /><trkpt lon="6.106818" lat="49.369384" /><trkpt lon="6.10609" lat="49.375534" /><trkpt lon="6.10628" lat="49.379641" /><trkpt lon="6.107234" lat="49.383853" /><trkpt lon="6.110179" lat="49.392225" /><trkpt lon="6.110802" lat="49.394432" /><trkpt lon="6.11123" lat="49.396828" /><trkpt lon="6.112037" lat="49.404465" /><trkpt lon="6.11207" lat="49.407106" /><trkpt lon="6.111917" lat="49.408845" /><trkpt lon="6.110545" lat="49.416781" /><trkpt lon="6.11048" lat="49.418879" /><trkpt lon="6.110618" lat="49.420969" /><trkpt lon="6.111179" lat="49.423897" /><trkpt lon="6.111914" lat="49.426159" /><trkpt lon="6.113067" lat="49.428724" /><trkpt lon="6.115868" lat="49.433924" /><trkpt lon="6.117538" lat="49.438326" /><trkpt lon="6.120617" lat="49.45197" /><trkpt lon="6.121258" lat="49.456197" /><trkpt lon="6.121671" lat="49.460959" /><trkpt lon="6.121707" lat="49.467088" /><trkpt lon="6.121206" lat="49.476872" /><trkpt lon="6.120344" lat="49.479703" /><trkpt lon="6.118534" lat="49.4834" /><trkpt lon="6.117528" lat="49.486435" /><trkpt lon="6.117227" lat="49.488425" /><trkpt lon="6.117272" lat="49.494276" /><trkpt lon="6.117132" lat="49.496621" /><trkpt lon="6.116347" lat="49.500648" /><trkpt lon="6.114972" lat="49.50474" /><trkpt lon="6.11458" lat="49.506532" /><trkpt lon="6.114476" lat="49.508106" /><trkpt lon="6.114605" lat="49.509799" /><trkpt lon="6.115055" lat="49.511777" /><trkpt lon="6.116422" lat="49.516271" /><trkpt lon="6.116646" lat="49.517916" /><trkpt lon="6.116654" lat="49.519482" /><trkpt lon="6.11652" lat="49.520684" /><trkpt lon="6.11601" lat="49.52265" /><trkpt lon="6.114171" lat="49.527168" /><trkpt lon="6.113516" lat="49.529365" /><trkpt lon="6.113302" lat="49.531159" /><trkpt lon="6.113424" lat="49.533338" /><trkpt lon="6.114358" lat="49.536538" /><trkpt lon="6.11583" lat="49.539159" /><trkpt lon="6.117201" lat="49.540857" /><trkpt lon="6.118752" lat="49.542402" /><trkpt lon="6.123503" lat="49.546499" /><trkpt lon="6.125793" lat="49.548811" /><trkpt lon="6.128073" lat="49.552132" /><trkpt lon="6.129335" lat="49.555103" /><trkpt lon="6.129717" lat="49.556551" /><trkpt lon="6.12999" lat="49.558897" /><trkpt lon="6.129855" lat="49.561419" /><trkpt lon="6.129618" lat="49.562617" /><trkpt lon="6.129043" lat="49.564509" /><trkpt lon="6.128276" lat="49.566228" /><trkpt lon="6.125964" lat="49.570178" /><trkpt lon="6.124985" lat="49.5722" /><trkpt lon="6.124571" lat="49.573586" /><trkpt lon="6.124467" lat="49.575263" /><trkpt lon="6.125035" lat="49.577365" /><trkpt lon="6.125466" lat="49.578187" /><trkpt lon="6.126547" lat="49.57956" /><trkpt lon="6.128606" lat="49.581424" /><trkpt lon="6.132341" lat="49.583882" /><trkpt lon="6.134183" lat="49.58537" /><trkpt lon="6.13404" lat="49.587554" /><trkpt lon="6.132989" lat="49.589236" /><trkpt lon="6.132813" lat="49.589854" /><trkpt lon="6.132927" lat="49.59067" /><trkpt lon="6.133736" lat="49.592272" /><trkpt lon="6.133906" lat="49.593092" /><trkpt lon="6.133815" lat="49.593717" /><trkpt lon="6.13322" lat="49.594837" /><trkpt lon="6.133221" lat="49.596006" /><trkpt lon="6.13354" lat="49.596929" /><trkpt lon="6.134018" lat="49.597486" /><trkpt lon="6.135785" lat="49.598813" /><trkpt lon="6.136888" lat="49.600804" /><trkpt lon="6.136988" lat="49.601232" /><trkpt lon="6.136915" lat="49.601967" /><trkpt lon="6.136395" lat="49.602807" /><trkpt lon="6.135742" lat="49.602667" /><trkpt lon="6.135124" lat="49.602812" /><trkpt lon="6.135612" lat="49.604172" /><trkpt lon="6.134714" lat="49.604277" /><trkpt lon="6.13457" lat="49.603346" /><trkpt lon="6.135859" lat="49.60386" /><trkpt lon="6.13674" lat="49.603804" /><trkpt lon="6.137002" lat="49.604327" /><trkpt lon="6.13754" lat="49.604676" /><trkpt lon="6.138292" lat="49.606054" /><trkpt lon="6.138173" lat="49.606364" /><trkpt lon="6.138451" lat="49.606486" /><trkpt lon="6.1405" lat="49.606993" /><trkpt lon="6.14269" lat="49.607947" /><trkpt lon="6.144841" lat="49.608383" /><trkpt lon="6.145742" lat="49.6084" /><trkpt lon="6.147747" lat="49.607935" /><trkpt lon="6.149578" lat="49.607999" /><trkpt lon="6.150407" lat="49.60843" /><trkpt lon="6.151587" lat="49.609946" /><trkpt lon="6.152623" lat="49.61049" /><trkpt lon="6.157679" lat="49.611726" /><trkpt lon="6.160508" lat="49.612827" /><trkpt lon="6.16589" lat="49.614429" /><trkpt lon="6.169759" lat="49.615217" /><trkpt lon="6.174252" lat="49.614831" /><trkpt lon="6.175478" lat="49.614931" /><trkpt lon="6.17807" lat="49.615479" /><trkpt lon="6.179012" lat="49.615238" /><trkpt lon="6.179728" lat="49.615412" /><trkpt lon="6.18001" lat="49.615844" /><trkpt lon="6.179768" lat="49.616413" /><trkpt lon="6.180007" lat="49.617103" /><trkpt lon="6.179928" lat="49.617439" /><trkpt lon="6.179174" lat="49.618449" /><trkpt lon="6.179046" lat="49.62036" /><trkpt lon="6.179337" lat="49.621751" /><trkpt lon="6.18153" lat="49.626002" /><trkpt lon="6.182087" lat="49.627653" /><trkpt lon="6.18221" lat="49.62933" /><trkpt lon="6.181738" lat="49.63323" /><trkpt lon="6.181827" lat="49.634123" /><trkpt lon="6.182177" lat="49.635219" /><trkpt lon="6.183423" lat="49.637058" /><trkpt lon="6.185389" lat="49.638563" /><trkpt lon="6.187901" lat="49.639708" /><trkpt lon="6.191622" lat="49.640727" /><trkpt lon="6.197418" lat="49.641618" /><trkpt lon="6.209504" lat="49.642649" /><trkpt lon="6.213722" lat="49.642722" /><trkpt lon="6.217202" lat="49.642554" /><trkpt lon="6.223237" lat="49.641757" /><trkpt lon="6.227112" lat="49.640879" /><trkpt lon="6.230723" lat="49.63978" /><trkpt lon="6.236011" lat="49.63789" /><trkpt lon="6.238836" lat="49.637168" /><trkpt lon="6.241741" lat="49.636788" /><trkpt lon="6.244442" lat="49.63673" /><trkpt lon="6.248345" lat="49.637093" /><trkpt lon="6.252685" lat="49.637797" /><trkpt lon="6.263838" lat="49.640386" /><trkpt lon="6.268445" lat="49.641247" /><trkpt lon="6.277937" lat="49.642518" /><trkpt lon="6.28335" lat="49.642929" /><trkpt lon="6.291513" lat="49.64313" /><trkpt lon="6.298307" lat="49.642983" /><trkpt lon="6.308753" lat="49.642485" /><trkpt lon="6.3131" lat="49.642533" /><trkpt lon="6.318261" lat="49.643214" /><trkpt lon="6.321307" lat="49.643972" /><trkpt lon="6.323593" lat="49.644755" /><trkpt lon="6.326408" lat="49.645993" /><trkpt lon="6.328466" lat="49.647154" /><trkpt lon="6.33736" lat="49.6533" /><trkpt lon="6.343396" lat="49.657143" /><trkpt lon="6.348213" lat="49.659784" /><trkpt lon="6.351962" lat="49.661608" /><trkpt lon="6.355031" lat="49.662825" /><trkpt lon="6.358426" lat="49.663775" /><trkpt lon="6.369742" lat="49.665632" /><trkpt lon="6.37272" lat="49.666356" /><trkpt lon="6.375949" lat="49.667435" /><trkpt lon="6.379459" lat="49.669054" /><trkpt lon="6.387151" lat="49.673416" /><trkpt lon="6.390475" lat="49.67513" /><trkpt lon="6.401576" lat="49.680347" /><trkpt lon="6.404572" lat="49.681613" /><trkpt lon="6.408046" lat="49.682672" /><trkpt lon="6.411594" lat="49.683395" /><trkpt lon="6.415115" lat="49.683796" /><trkpt lon="6.421905" lat="49.684261" /><trkpt lon="6.425104" lat="49.684884" /><trkpt lon="6.427589" lat="49.685737" /><trkpt lon="6.433701" lat="49.68864" /><trkpt lon="6.440674" lat="49.690862" /><trkpt lon="6.449045" lat="49.693975" /><trkpt lon="6.451847" lat="49.694664" /><trkpt lon="6.457821" lat="49.695561" /><trkpt lon="6.459846" lat="49.696115" /><trkpt lon="6.462146" lat="49.697033" /><trkpt lon="6.463848" lat="49.697985" /><trkpt lon="6.465329" lat="49.699062" /><trkpt lon="6.46915" lat="49.702894" /><trkpt lon="6.471161" lat="49.704461" /><trkpt lon="6.474305" lat="49.706167" /><trkpt lon="6.478027" lat="49.707655" /><trkpt lon="6.480951" lat="49.709036" /><trkpt lon="6.482825" lat="49.710218" /><trkpt lon="6.484731" lat="49.711796" /><trkpt lon="6.486619" lat="49.71407" /><trkpt lon="6.487665" lat="49.716093" /><trkpt lon="6.488112" lat="49.71766" /><trkpt lon="6.488494" lat="49.722981" /><trkpt lon="6.489417" lat="49.725289" /><trkpt lon="6.490566" lat="49.726809" /><trkpt lon="6.492125" lat="49.728251" /><trkpt lon="6.49384" lat="49.729505" /><trkpt lon="6.495731" lat="49.73061" /><trkpt lon="6.498173" lat="49.731786" /><trkpt lon="6.501551" lat="49.733016" /><trkpt lon="6.504612" lat="49.73381" /><trkpt lon="6.506995" lat="49.734235" /><trkpt lon="6.511661" lat="49.734712" /><trkpt lon="6.522182" lat="49.735002" /><trkpt lon="6.526308" lat="49.735381" /><trkpt lon="6.532903" lat="49.736383" /><trkpt lon="6.537914" lat="49.737479" /><trkpt lon="6.543016" lat="49.738916" /><trkpt lon="6.550415" lat="49.741706" /><trkpt lon="6.555695" lat="49.74428" /><trkpt lon="6.561323" lat="49.747753" /><trkpt lon="6.572187" lat="49.756494" /><trkpt lon="6.579263" lat="49.761476" /><trkpt lon="6.585549" lat="49.765152" /><trkpt lon="6.590556" lat="49.767644" /><trkpt lon="6.597258" lat="49.770617" /><trkpt lon="6.60597" lat="49.773759" /><trkpt lon="6.616168" lat="49.776602" /><trkpt lon="6.629595" lat="49.779437" /><trkpt lon="6.632698" lat="49.780435" /><trkpt lon="6.635309" lat="49.781628" /><trkpt lon="6.639682" lat="49.784221" /><trkpt lon="6.642359" lat="49.786165" /><trkpt lon="6.645784" lat="49.789098" /><trkpt lon="6.654552" lat="49.798221" /><trkpt lon="6.655406" lat="49.79883" /><trkpt lon="6.656547" lat="49.799313" /><trkpt lon="6.657775" lat="49.799582" /><trkpt lon="6.663778" lat="49.800217" /><trkpt lon="6.66741" lat="49.800882" /><trkpt lon="6.671914" lat="49.802025" /><trkpt lon="6.68028" lat="49.804625" /><trkpt lon="6.683577" lat="49.805121" /><trkpt lon="6.685227" lat="49.805054" /><trkpt lon="6.687235" lat="49.804688" /><trkpt lon="6.688997" lat="49.804051" /><trkpt lon="6.691893" lat="49.802642" /><trkpt lon="6.693439" lat="49.802186" /><trkpt lon="6.707185" lat="49.800341" /><trkpt lon="6.707856" lat="49.800099" /><trkpt lon="6.708586" lat="49.799492" /><trkpt lon="6.709258" lat="49.799401" /><trkpt lon="6.710043" lat="49.799836" /><trkpt lon="6.710182" lat="49.800432" /><trkpt lon="6.709517" lat="49.801297" /><trkpt lon="6.708474" lat="49.802091" /><trkpt lon="6.708422" lat="49.8025" /><trkpt lon="6.709031" lat="49.802885" /><trkpt lon="6.710972" lat="49.803599" /><trkpt lon="6.713223" lat="49.804275" /><trkpt lon="6.747706" lat="49.811721" /><trkpt lon="6.750378" lat="49.812589" /><trkpt lon="6.751456" lat="49.812785" /><trkpt lon="6.753592" lat="49.812596" /><trkpt lon="6.75472" lat="49.81213" /><trkpt lon="6.756109" lat="49.811303" /><trkpt lon="6.761155" lat="49.807746" /><trkpt lon="6.761654" lat="49.807072" /><trkpt lon="6.761351" lat="49.806473" /><trkpt lon="6.760603" lat="49.8062" /><trkpt lon="6.759756" lat="49.806286" /><trkpt lon="6.759107" lat="49.806721" /><trkpt lon="6.758715" lat="49.807455" /><trkpt lon="6.75799" lat="49.811413" /><trkpt lon="6.757944" lat="49.815024" /><trkpt lon="6.758367" lat="49.818207" /><trkpt lon="6.760475" lat="49.828677" /><trkpt lon="6.761735" lat="49.831154" /><trkpt lon="6.763618" lat="49.833294" /><trkpt lon="6.76678" lat="49.835574" /><trkpt lon="6.797557" lat="49.853859" /><trkpt lon="6.800841" lat="49.856261" /><trkpt lon="6.807784" lat="49.861856" /><trkpt lon="6.812884" lat="49.865293" /><trkpt lon="6.819155" lat="49.868559" /><trkpt lon="6.842128" lat="49.879259" /><trkpt lon="6.845882" lat="49.881575" /><trkpt lon="6.848248" lat="49.883814" /><trkpt lon="6.849325" lat="49.885105" /><trkpt lon="6.850302" lat="49.886664" /><trkpt lon="6.850886" lat="49.887945" /><trkpt lon="6.85138" lat="49.889621" /><trkpt lon="6.855474" lat="49.915808" /><trkpt lon="6.856125" lat="49.918379" /><trkpt lon="6.857451" lat="49.920788" /><trkpt lon="6.859405" lat="49.922931" /><trkpt lon="6.861573" lat="49.924596" /><trkpt lon="6.868444" lat="49.928225" /><trkpt lon="6.871517" lat="49.93022" /><trkpt lon="6.873417" lat="49.932296" /><trkpt lon="6.875309" lat="49.935695" /><trkpt lon="6.876009" lat="49.936672" /><trkpt lon="6.87724" lat="49.937896" /><trkpt lon="6.880181" lat="49.940216" /><trkpt lon="6.881427" lat="49.941558" /><trkpt lon="6.882253" lat="49.942916" /><trkpt lon="6.882812" lat="49.944846" /><trkpt lon="6.882957" lat="49.955034" /><trkpt lon="6.883196" lat="49.956977" /><trkpt lon="6.883751" lat="49.958465" /><trkpt lon="6.884378" lat="49.95955" /><trkpt lon="6.88638" lat="49.961957" /><trkpt lon="6.889069" lat="49.964398" /><trkpt lon="6.892714" lat="49.967015" /><trkpt lon="6.905932" lat="49.974824" /><trkpt lon="6.909428" lat="49.977174" /><trkpt lon="6.922163" lat="49.98767" /><trkpt lon="6.92453" lat="49.989991" /><trkpt lon="6.925367" lat="49.991136" /><trkpt lon="6.926182" lat="49.992638" /><trkpt lon="6.9307" lat="50.003631" /><trkpt lon="6.932154" lat="50.006723" /><trkpt lon="6.933693" lat="50.00924" /><trkpt lon="6.938333" lat="50.015714" /><trkpt lon="6.93906" lat="50.017001" /><trkpt lon="6.939455" lat="50.018437" /><trkpt lon="6.939505" lat="50.019405" /><trkpt lon="6.938974" lat="50.021476" /><trkpt lon="6.938424" lat="50.022431" /><trkpt lon="6.93748" lat="50.023551" /><trkpt lon="6.93526" lat="50.025209" /><trkpt lon="6.933051" lat="50.026194" /><trkpt lon="6.930415" lat="50.026884" /><trkpt lon="6.922438" lat="50.027664" /><trkpt lon="6.920339" lat="50.028035" /><trkpt lon="6.917699" lat="50.029051" /><trkpt lon="6.916614" lat="50.029736" /><trkpt lon="6.915491" lat="50.030776" /><trkpt lon="6.914555" lat="50.032276" /><trkpt lon="6.914251" lat="50.033906" /><trkpt lon="6.91444" lat="50.035078" /><trkpt lon="6.916465" lat="50.040722" /><trkpt lon="6.916487" lat="50.041997" /><trkpt lon="6.916053" lat="50.043505" /><trkpt lon="6.91529" lat="50.044721" /><trkpt lon="6.913879" lat="50.046092" /><trkpt lon="6.912599" lat="50.046925" /><trkpt lon="6.907778" lat="50.049461" /><trkpt lon="6.906148" lat="50.050686" /><trkpt lon="6.90535" lat="50.051505" /><trkpt lon="6.904113" lat="50.053431" /><trkpt lon="6.901442" lat="50.059976" /><trkpt lon="6.900893" lat="50.060878" /><trkpt lon="6.899923" lat="50.061964" /><trkpt lon="6.898418" lat="50.063083" /><trkpt lon="6.896394" lat="50.064062" /><trkpt lon="6.884722" lat="50.067623" /><trkpt lon="6.881714" lat="50.068775" /><trkpt lon="6.878721" lat="50.070444" /><trkpt lon="6.877227" lat="50.071578" /><trkpt lon="6.875809" lat="50.072941" /><trkpt lon="6.874222" lat="50.075123" /><trkpt lon="6.873297" lat="50.077341" /><trkpt lon="6.869864" lat="50.092727" /><trkpt lon="6.869362" lat="50.094356" /><trkpt lon="6.868783" lat="50.095553" /><trkpt lon="6.867123" lat="50.097826" /><trkpt lon="6.854186" lat="50.111231" /><trkpt lon="6.852967" lat="50.112963" /><trkpt lon="6.852376" lat="50.11466" /><trkpt lon="6.852293" lat="50.116243" /><trkpt lon="6.852704" lat="50.117963" /><trkpt lon="6.859756" lat="50.133166" /><trkpt lon="6.860684" lat="50.134802" /><trkpt lon="6.862057" lat="50.136298" /><trkpt lon="6.863499" lat="50.137378" /><trkpt lon="6.870077" lat="50.140973" /><trkpt lon="6.872143" lat="50.142351" /><trkpt lon="6.87361" lat="50.143614" /><trkpt lon="6.880527" lat="50.150479" /><trkpt lon="6.881664" lat="50.152217" /><trkpt lon="6.882143" lat="50.15367" /><trkpt lon="6.882258" lat="50.155115" /><trkpt lon="6.881957" lat="50.160484" /><trkpt lon="6.882271" lat="50.161755" /><trkpt lon="6.882877" lat="50.162815" /><trkpt lon="6.884561" lat="50.164407" /><trkpt lon="6.891211" lat="50.168587" /><trkpt lon="6.893007" lat="50.170133" /><trkpt lon="6.893995" lat="50.171424" /><trkpt lon="6.894581" lat="50.172503" /><trkpt lon="6.897433" lat="50.179162" /><trkpt lon="6.899551" lat="50.182429" /><trkpt lon="6.900809" lat="50.183829" /><trkpt lon="6.902478" lat="50.185244" /><trkpt lon="6.904421" lat="50.186505" /><trkpt lon="6.906186" lat="50.187409" /><trkpt lon="6.908572" lat="50.188354" /><trkpt lon="6.911039" lat="50.189067" /><trkpt lon="6.951037" lat="50.198134" /><trkpt lon="6.954676" lat="50.199328" /><trkpt lon="6.968101" lat="50.204573" /><trkpt lon="6.970075" lat="50.205497" /><trkpt lon="6.971581" lat="50.206476" /><trkpt lon="6.975804" lat="50.210362" /><trkpt lon="6.977835" lat="50.211679" /><trkpt lon="6.979462" lat="50.212311" /><trkpt lon="6.980872" lat="50.21266" /><trkpt lon="6.985601" lat="50.213216" /><trkpt lon="6.98755" lat="50.2136" /><trkpt lon="6.989814" lat="50.214321" /><trkpt lon="6.99222" lat="50.215517" /><trkpt lon="6.993578" lat="50.216486" /><trkpt lon="6.994577" lat="50.21743" /><trkpt lon="6.999075" lat="50.223078" /><trkpt lon="7.000658" lat="50.224741" /><trkpt lon="7.002933" lat="50.226488" /><trkpt lon="7.004999" lat="50.227677" /><trkpt lon="7.006863" lat="50.22853" /><trkpt lon="7.035769" lat="50.239636" /><trkpt lon="7.037783" lat="50.240313" /><trkpt lon="7.040186" lat="50.240817" /><trkpt lon="7.043418" lat="50.241043" /><trkpt lon="7.045836" lat="50.240892" /><trkpt lon="7.059117" lat="50.238239" /><trkpt lon="7.062763" lat="50.237737" /><trkpt lon="7.066739" lat="50.237696" /><trkpt lon="7.076407" lat="50.238301" /><trkpt lon="7.078896" lat="50.238089" /><trkpt lon="7.081757" lat="50.237467" /><trkpt lon="7.083927" lat="50.23666" /><trkpt lon="7.085839" lat="50.235613" /><trkpt lon="7.111391" lat="50.218887" /><trkpt lon="7.113212" lat="50.218028" /><trkpt lon="7.115459" lat="50.217305" /><trkpt lon="7.117625" lat="50.216882" /><trkpt lon="7.119867" lat="50.216688" /><trkpt lon="7.123125" lat="50.216822" /><trkpt lon="7.126712" lat="50.217566" /><trkpt lon="7.144982" lat="50.224371" /><trkpt lon="7.147522" lat="50.225074" /><trkpt lon="7.150084" lat="50.22549" /><trkpt lon="7.152782" lat="50.22568" /><trkpt lon="7.16484" lat="50.225788" /><trkpt lon="7.171522" lat="50.226561" /><trkpt lon="7.175453" lat="50.227362" /><trkpt lon="7.203901" lat="50.234268" /><trkpt lon="7.207808" lat="50.23539" /><trkpt lon="7.210334" lat="50.23646" /><trkpt lon="7.212524" lat="50.237801" /><trkpt lon="7.214432" lat="50.239512" /><trkpt lon="7.215706" lat="50.241277" /><trkpt lon="7.216273" lat="50.242526" /><trkpt lon="7.216668" lat="50.244198" /><trkpt lon="7.216792" lat="50.25003" /><trkpt lon="7.217387" lat="50.252868" /><trkpt lon="7.218813" lat="50.255913" /><trkpt lon="7.223675" lat="50.263817" /><trkpt lon="7.225384" lat="50.265631" /><trkpt lon="7.226976" lat="50.266843" /><trkpt lon="7.237448" lat="50.272952" /><trkpt lon="7.240387" lat="50.275242" /><trkpt lon="7.241501" lat="50.276471" /><trkpt lon="7.242544" lat="50.277973" /><trkpt lon="7.244941" lat="50.28291" /><trkpt lon="7.245796" lat="50.284254" /><trkpt lon="7.248405" lat="50.287202" /><trkpt lon="7.252409" lat="50.291126" /><trkpt lon="7.254347" lat="50.29261" /><trkpt lon="7.255824" lat="50.293486" /><trkpt lon="7.259654" lat="50.295033" /><trkpt lon="7.284093" lat="50.301631" /><trkpt lon="7.28672" lat="50.302615" /><trkpt lon="7.288699" lat="50.303866" /><trkpt lon="7.289925" lat="50.305099" /><trkpt lon="7.290685" lat="50.3063" /><trkpt lon="7.292243" lat="50.309567" /><trkpt lon="7.293543" lat="50.311179" /><trkpt lon="7.295096" lat="50.312432" /><trkpt lon="7.297595" lat="50.313819" /><trkpt lon="7.300182" lat="50.314851" /><trkpt lon="7.303259" lat="50.315759" /><trkpt lon="7.306854" lat="50.316439" /><trkpt lon="7.310513" lat="50.316762" /><trkpt lon="7.315966" lat="50.316618" /><trkpt lon="7.328289" lat="50.315418" /><trkpt lon="7.335543" lat="50.315241" /><trkpt lon="7.341107" lat="50.315418" /><trkpt lon="7.344746" lat="50.3157" /><trkpt lon="7.353427" lat="50.316864" /><trkpt lon="7.358241" lat="50.317877" /><trkpt lon="7.360629" lat="50.318666" /><trkpt lon="7.36303" lat="50.319884" /><trkpt lon="7.367529" lat="50.323013" /><trkpt lon="7.370974" lat="50.324969" /><trkpt lon="7.374533" lat="50.326416" /><trkpt lon="7.37917" lat="50.327673" /><trkpt lon="7.382982" lat="50.32827" /><trkpt lon="7.386725" lat="50.32852" /><trkpt lon="7.391702" lat="50.328347" /><trkpt lon="7.400114" lat="50.32737" /><trkpt lon="7.402777" lat="50.327483" /><trkpt lon="7.405568" lat="50.328073" /><trkpt lon="7.407649" lat="50.328905" /><trkpt lon="7.40976" lat="50.330234" /><trkpt lon="7.420389" lat="50.339096" /><trkpt lon="7.422723" lat="50.340315" /><trkpt lon="7.425549" lat="50.341218" /><trkpt lon="7.428237" lat="50.341661" /><trkpt lon="7.430701" lat="50.341761" /><trkpt lon="7.446227" lat="50.340885" /><trkpt lon="7.450436" lat="50.340795" /><trkpt lon="7.45469" lat="50.341161" /><trkpt lon="7.458613" lat="50.342165" /><trkpt lon="7.460386" lat="50.342943" /><trkpt lon="7.462006" lat="50.343891" /><trkpt lon="7.493432" lat="50.365069" /><trkpt lon="7.49763" lat="50.367553" /><trkpt lon="7.500839" lat="50.368989" /><trkpt lon="7.504287" lat="50.370206" /><trkpt lon="7.519389" lat="50.37508" /><trkpt lon="7.530126" lat="50.378031" /><trkpt lon="7.532026" lat="50.378696" /><trkpt lon="7.534359" lat="50.379821" /><trkpt lon="7.536165" lat="50.381113" /><trkpt lon="7.537784" lat="50.382934" /><trkpt lon="7.538608" lat="50.384501" /><trkpt lon="7.540298" lat="50.38877" /><trkpt lon="7.54135" lat="50.390218" /><trkpt lon="7.542546" lat="50.39134" /><trkpt lon="7.544959" lat="50.392853" /><trkpt lon="7.554338" lat="50.396787" /><trkpt lon="7.559959" lat="50.399796" /><trkpt lon="7.564207" lat="50.402584" /><trkpt lon="7.577451" lat="50.412176" /><trkpt lon="7.579696" lat="50.413453" /><trkpt lon="7.581304" lat="50.413978" /><trkpt lon="7.583234" lat="50.414218" /><trkpt lon="7.584943" lat="50.414127" /><trkpt lon="7.586436" lat="50.413783" /><trkpt lon="7.588245" lat="50.41293" /><trkpt lon="7.592935" lat="50.409724" /><trkpt lon="7.594645" lat="50.408719" /><trkpt lon="7.59722" lat="50.407788" /><trkpt lon="7.600015" lat="50.407052" /><trkpt lon="7.601455" lat="50.40691" /><trkpt lon="7.603335" lat="50.407019" /><trkpt lon="7.604769" lat="50.407329" /><trkpt lon="7.606168" lat="50.407886" /><trkpt lon="7.607763" lat="50.409008" /><trkpt lon="7.608453" lat="50.409866" /><trkpt lon="7.608896" lat="50.410731" /><trkpt lon="7.609293" lat="50.412105" /><trkpt lon="7.609792" lat="50.41546" /><trkpt lon="7.610882" lat="50.418069" /><trkpt lon="7.612256" lat="50.419939" /><trkpt lon="7.614552" lat="50.422033" /><trkpt lon="7.616031" lat="50.423049" /><trkpt lon="7.617978" lat="50.424091" /><trkpt lon="7.629292" lat="50.428801" /><trkpt lon="7.631077" lat="50.429693" /><trkpt lon="7.63391" lat="50.431338" /><trkpt lon="7.6514" lat="50.442623" /><trkpt lon="7.652987" lat="50.44342" /><trkpt lon="7.654857" lat="50.443956" /><trkpt lon="7.657117" lat="50.444188" /><trkpt lon="7.662354" lat="50.443816" /><trkpt lon="7.66512" lat="50.443956" /><trkpt lon="7.66776" lat="50.444667" /><trkpt lon="7.672952" lat="50.446772" /><trkpt lon="7.675415" lat="50.447311" /><trkpt lon="7.678164" lat="50.447326" /><trkpt lon="7.683879" lat="50.446129" /><trkpt lon="7.686431" lat="50.446036" /><trkpt lon="7.688634" lat="50.446367" /><trkpt lon="7.693351" lat="50.448034" /><trkpt lon="7.69694" lat="50.448753" /><trkpt lon="7.70461" lat="50.449415" /><trkpt lon="7.715599" lat="50.449572" /><trkpt lon="7.71873" lat="50.449856" /><trkpt lon="7.726991" lat="50.451749" /><trkpt lon="7.729712" lat="50.452021" /><trkpt lon="7.73438" lat="50.452112" /><trkpt lon="7.73691" lat="50.452479" /><trkpt lon="7.763303" lat="50.459017" /><trkpt lon="7.765795" lat="50.459444" /><trkpt lon="7.767797" lat="50.459396" /><trkpt lon="7.769655" lat="50.459033" /><trkpt lon="7.773787" lat="50.457116" /><trkpt lon="7.775059" lat="50.456166" /><trkpt lon="7.776092" lat="50.455131" /><trkpt lon="7.778569" lat="50.451637" /><trkpt lon="7.779556" lat="50.450559" /><trkpt lon="7.781544" lat="50.449191" /><trkpt lon="7.783607" lat="50.448315" /><trkpt lon="7.786939" lat="50.447601" /><trkpt lon="7.803255" lat="50.445455" /><trkpt lon="7.807348" lat="50.445126" /><trkpt lon="7.813111" lat="50.445235" /><trkpt lon="7.824304" lat="50.446152" /><trkpt lon="7.834484" lat="50.445867" /><trkpt lon="7.846351" lat="50.44631" /><trkpt lon="7.848526" lat="50.446529" /><trkpt lon="7.850865" lat="50.447104" /><trkpt lon="7.853158" lat="50.448098" /><trkpt lon="7.85864" lat="50.452014" /><trkpt lon="7.860402" lat="50.452987" /><trkpt lon="7.862916" lat="50.453922" /><trkpt lon="7.8663" lat="50.454574" /><trkpt lon="7.873549" lat="50.454903" /><trkpt lon="7.877356" lat="50.454908" /><trkpt lon="7.891426" lat="50.453949" /><trkpt lon="7.895828" lat="50.453098" /><trkpt lon="7.899529" lat="50.451792" /><trkpt lon="7.910064" lat="50.44668" /><trkpt lon="7.911875" lat="50.44556" /><trkpt lon="7.913686" lat="50.444102" /><trkpt lon="7.915227" lat="50.442419" /><trkpt lon="7.916271" lat="50.440806" /><trkpt lon="7.918445" lat="50.434784" /><trkpt lon="7.91938" lat="50.433096" /><trkpt lon="7.920897" lat="50.431483" /><trkpt lon="7.925329" lat="50.428126" /><trkpt lon="7.926701" lat="50.42642" /><trkpt lon="7.9273" lat="50.424661" /><trkpt lon="7.928087" lat="50.418845" /><trkpt lon="7.928871" lat="50.416975" /><trkpt lon="7.929813" lat="50.415829" /><trkpt lon="7.931239" lat="50.414683" /><trkpt lon="7.932975" lat="50.413753" /><trkpt lon="7.934368" lat="50.413235" /><trkpt lon="7.936647" lat="50.412703" /><trkpt lon="7.939226" lat="50.412487" /><trkpt lon="7.941569" lat="50.41262" /><trkpt lon="7.946249" lat="50.41333" /><trkpt lon="7.94834" lat="50.413431" /><trkpt lon="7.975867" lat="50.412214" /><trkpt lon="7.984572" lat="50.412417" /><trkpt lon="7.988293" lat="50.41216" /><trkpt lon="7.990932" lat="50.411705" /><trkpt lon="7.994106" lat="50.410822" /><trkpt lon="8.004637" lat="50.406462" /><trkpt lon="8.006863" lat="50.405691" /><trkpt lon="8.010125" lat="50.404832" /><trkpt lon="8.013765" lat="50.404206" /><trkpt lon="8.018367" lat="50.403874" /><trkpt lon="8.048618" lat="50.403669" /><trkpt lon="8.058203" lat="50.403219" /><trkpt lon="8.060181" lat="50.402961" /><trkpt lon="8.063502" lat="50.401957" /><trkpt lon="8.071409" lat="50.39892" /><trkpt lon="8.073039" lat="50.398068" /><trkpt lon="8.073319" lat="50.397775" /><trkpt lon="8.073416" lat="50.397395" /><trkpt lon="8.073034" lat="50.397093" /><trkpt lon="8.072613" lat="50.397052" /><trkpt lon="8.072141" lat="50.397224" /><trkpt lon="8.071572" lat="50.397998" /><trkpt lon="8.070638" lat="50.39861" /><trkpt lon="8.070529" lat="50.399053" /><trkpt lon="8.092353" lat="50.435277" /><trkpt lon="8.09409" lat="50.437459" /><trkpt lon="8.096135" lat="50.439278" /><trkpt lon="8.110806" lat="50.449397" /><trkpt lon="8.113061" lat="50.451297" /><trkpt lon="8.113956" lat="50.45253" /><trkpt lon="8.114479" lat="50.453851" /><trkpt lon="8.114676" lat="50.454883" /><trkpt lon="8.114857" lat="50.458329" /><trkpt lon="8.115278" lat="50.459999" /><trkpt lon="8.116148" lat="50.461315" /><trkpt lon="8.117802" lat="50.4626" /><trkpt lon="8.119707" lat="50.463413" /><trkpt lon="8.121526" lat="50.463823" /><trkpt lon="8.123897" lat="50.464021" /><trkpt lon="8.129849" lat="50.46408" /><trkpt lon="8.131719" lat="50.464398" /><trkpt lon="8.133028" lat="50.46482" /><trkpt lon="8.13454" lat="50.465616" /><trkpt lon="8.135694" lat="50.466551" /><trkpt lon="8.14069" lat="50.471546" /><trkpt lon="8.142375" lat="50.473015" /><trkpt lon="8.144741" lat="50.474422" /><trkpt lon="8.148989" lat="50.476343" /><trkpt lon="8.15065" lat="50.476724" /><trkpt lon="8.152613" lat="50.476871" /><trkpt lon="8.157789" lat="50.476245" /><trkpt lon="8.160278" lat="50.476205" /><trkpt lon="8.163059" lat="50.476683" /><trkpt lon="8.164981" lat="50.477423" /><trkpt lon="8.166612" lat="50.478471" /><trkpt lon="8.16791" lat="50.479948" /><trkpt lon="8.16844" lat="50.481238" /><trkpt lon="8.168801" lat="50.484369" /><trkpt lon="8.169664" lat="50.486037" /><trkpt lon="8.176938" lat="50.493542" /><trkpt lon="8.1778" lat="50.494171" /><trkpt lon="8.179023" lat="50.494762" /><trkpt lon="8.183147" lat="50.495919" /><trkpt lon="8.186623" lat="50.497829" /><trkpt lon="8.190908" lat="50.498855" /><trkpt lon="8.194208" lat="50.499429" /><trkpt lon="8.19722" lat="50.499763" /><trkpt lon="8.201021" lat="50.499927" /><trkpt lon="8.212004" lat="50.499394" /><trkpt lon="8.215364" lat="50.498973" /><trkpt lon="8.220613" lat="50.497927" /><trkpt lon="8.222578" lat="50.497863" /><trkpt lon="8.224851" lat="50.498296" /><trkpt lon="8.228519" lat="50.499983" /><trkpt lon="8.23034" lat="50.500581" /><trkpt lon="8.235419" lat="50.501189" /><trkpt lon="8.236822" lat="50.50152" /><trkpt lon="8.23847" lat="50.502232" /><trkpt lon="8.239752" lat="50.503202" /><trkpt lon="8.242773" lat="50.507633" /><trkpt lon="8.243924" lat="50.508748" /><trkpt lon="8.245472" lat="50.509836" /><trkpt lon="8.250762" lat="50.51252" /><trkpt lon="8.254538" lat="50.514751" /><trkpt lon="8.256705" lat="50.515671" /><trkpt lon="8.259987" lat="50.516497" /><trkpt lon="8.268309" lat="50.517382" /><trkpt lon="8.270065" lat="50.517833" /><trkpt lon="8.271536" lat="50.518432" /><trkpt lon="8.273005" lat="50.519266" /><trkpt lon="8.274121" lat="50.520194" /><trkpt lon="8.276761" lat="50.52354" /><trkpt lon="8.278257" lat="50.524921" /><trkpt lon="8.279826" lat="50.525821" /><trkpt lon="8.284488" lat="50.527871" /><trkpt lon="8.288356" lat="50.530584" /><trkpt lon="8.289911" lat="50.531424" /><trkpt lon="8.292548" lat="50.532081" /><trkpt lon="8.295496" lat="50.531999" /><trkpt lon="8.306711" lat="50.529004" /><trkpt lon="8.308612" lat="50.528678" /><trkpt lon="8.310695" lat="50.528734" /><trkpt lon="8.312873" lat="50.529397" /><trkpt lon="8.324043" lat="50.5366" /><trkpt lon="8.328643" lat="50.538584" /><trkpt lon="8.330783" lat="50.539813" /><trkpt lon="8.331974" lat="50.540909" /><trkpt lon="8.333783" lat="50.54373" /><trkpt lon="8.334882" lat="50.545065" /><trkpt lon="8.33641" lat="50.54617" /><trkpt lon="8.338279" lat="50.546941" /><trkpt lon="8.339873" lat="50.547319" /><trkpt lon="8.342305" lat="50.547537" /><trkpt lon="8.344542" lat="50.547444" /><trkpt lon="8.346455" lat="50.547144" /><trkpt lon="8.349641" lat="50.54609" /><trkpt lon="8.355802" lat="50.542734" /><trkpt lon="8.358911" lat="50.541564" /><trkpt lon="8.360918" lat="50.541136" /><trkpt lon="8.363613" lat="50.540858" /><trkpt lon="8.366557" lat="50.540813" /><trkpt lon="8.368897" lat="50.540997" /><trkpt lon="8.371909" lat="50.541552" /><trkpt lon="8.374541" lat="50.542491" /><trkpt lon="8.376314" lat="50.543507" /><trkpt lon="8.380414" lat="50.546689" /><trkpt lon="8.383212" lat="50.548121" /><trkpt lon="8.395246" lat="50.551664" /><trkpt lon="8.400004" lat="50.552802" /><trkpt lon="8.402704" lat="50.553154" /><trkpt lon="8.405658" lat="50.553279" /><trkpt lon="8.410978" lat="50.552968" /><trkpt lon="8.417519" lat="50.551925" /><trkpt lon="8.42704" lat="50.54952" /><trkpt lon="8.42943" lat="50.549347" /><trkpt lon="8.431144" lat="50.54952" /><trkpt lon="8.432957" lat="50.549925" /><trkpt lon="8.434459" lat="50.550538" /><trkpt lon="8.443876" lat="50.556805" /><trkpt lon="8.445366" lat="50.55752" /><trkpt lon="8.447113" lat="50.558016" /><trkpt lon="8.449436" lat="50.558221" /><trkpt lon="8.453513" lat="50.557638" /><trkpt lon="8.455173" lat="50.557573" /><trkpt lon="8.456785" lat="50.557698" /><trkpt lon="8.461186" lat="50.558446" /><trkpt lon="8.468181" lat="50.558459" /><trkpt lon="8.475234" lat="50.559617" /><trkpt lon="8.481823" lat="50.561906" /><trkpt lon="8.483595" lat="50.5623" /><trkpt lon="8.486087" lat="50.562244" /><trkpt lon="8.489766" lat="50.561279" /><trkpt lon="8.49177" lat="50.561178" /><trkpt lon="8.493642" lat="50.561528" /><trkpt lon="8.497803" lat="50.563216" /><trkpt lon="8.500297" lat="50.563809" /><trkpt lon="8.502836" lat="50.563894" /><trkpt lon="8.508297" lat="50.563544" /><trkpt lon="8.509694" lat="50.563681" /><trkpt lon="8.514249" lat="50.565023" /><trkpt lon="8.518994" lat="50.565703" /><trkpt lon="8.521359" lat="50.566263" /><trkpt lon="8.53403" lat="50.571366" /><trkpt lon="8.536747" lat="50.572108" /><trkpt lon="8.538557" lat="50.572341" /><trkpt lon="8.541698" lat="50.572178" /><trkpt lon="8.545574" lat="50.571043" /><trkpt lon="8.547869" lat="50.570682" /><trkpt lon="8.557488" lat="50.571111" /><trkpt lon="8.559134" lat="50.571013" /><trkpt lon="8.564695" lat="50.569705" /><trkpt lon="8.567262" lat="50.569271" /><trkpt lon="8.576658" lat="50.568736" /><trkpt lon="8.578979" lat="50.568401" /><trkpt lon="8.585315" lat="50.566924" /><trkpt lon="8.588591" lat="50.566351" /><trkpt lon="8.597242" lat="50.565557" /><trkpt lon="8.60442" lat="50.564553" /><trkpt lon="8.606707" lat="50.564372" /><trkpt lon="8.611275" lat="50.564305" /><trkpt lon="8.625351" lat="50.564604" /><trkpt lon="8.627904" lat="50.564883" /><trkpt lon="8.630513" lat="50.565403" /><trkpt lon="8.63674" lat="50.567297" /><trkpt lon="8.638888" lat="50.56776" /><trkpt lon="8.642998" lat="50.568015" /><trkpt lon="8.64427" lat="50.56769" /><trkpt lon="8.644303" lat="50.567347" /><trkpt lon="8.643902" lat="50.567117" /><trkpt lon="8.642951" lat="50.567101" /><trkpt lon="8.642074" lat="50.567432" /><trkpt lon="8.641546" lat="50.568" /><trkpt lon="8.641546" lat="50.568733" /><trkpt lon="8.644395" lat="50.572195" /><trkpt lon="8.646277" lat="50.575882" /><trkpt lon="8.650512" lat="50.581641" /><trkpt lon="8.651457" lat="50.583951" /><trkpt lon="8.651726" lat="50.585838" /><trkpt lon="8.651828" lat="50.588143" /><trkpt lon="8.652369" lat="50.589981" /><trkpt lon="8.653321" lat="50.591539" /><trkpt lon="8.656666" lat="50.595564" /><trkpt lon="8.657454" lat="50.597562" /><trkpt lon="8.65748" lat="50.598876" /><trkpt lon="8.656892" lat="50.600698" /><trkpt lon="8.653231" lat="50.605996" /><trkpt lon="8.653382" lat="50.606522" /><trkpt lon="8.65619" lat="50.607687" /><trkpt lon="8.660269" lat="50.61002" /><trkpt lon="8.662378" lat="50.611736" /><trkpt lon="8.667224" lat="50.616686" /><trkpt lon="8.668915" lat="50.618098" /><trkpt lon="8.67209" lat="50.620078" /><trkpt lon="8.674951" lat="50.621375" /><trkpt lon="8.679851" lat="50.622865" /><trkpt lon="8.683353" lat="50.62347" /><trkpt lon="8.6864" lat="50.623731" /><trkpt lon="8.694643" lat="50.623859" /><trkpt lon="8.697792" lat="50.624226" /><trkpt lon="8.701058" lat="50.624876" /><trkpt lon="8.704471" lat="50.625927" /><trkpt lon="8.707543" lat="50.627255" /><trkpt lon="8.710069" lat="50.628678" /><trkpt lon="8.714205" lat="50.631364" /><trkpt lon="8.717109" lat="50.632785" /><trkpt lon="8.720878" lat="50.63404" /><trkpt lon="8.724486" lat="50.634759" /><trkpt lon="8.726952" lat="50.635018" /><trkpt lon="8.729904" lat="50.635098" /><trkpt lon="8.735518" lat="50.634621" /><trkpt lon="8.741046" lat="50.633539" /><trkpt lon="8.753275" lat="50.630465" /><trkpt lon="8.757077" lat="50.629776" /><trkpt lon="8.760963" lat="50.629312" /><trkpt lon="8.765727" lat="50.629059" /><trkpt lon="8.769541" lat="50.629105" /><trkpt lon="8.78229" lat="50.630135" /><trkpt lon="8.785911" lat="50.629961" /><trkpt lon="8.790125" lat="50.629238" /><trkpt lon="8.793011" lat="50.628372" /><trkpt lon="8.795613" lat="50.627281" /><trkpt lon="8.799099" lat="50.625481" /><trkpt lon="8.802341" lat="50.623501" /><trkpt lon="8.805156" lat="50.621553" /><trkpt lon="8.807994" lat="50.619339" /><trkpt lon="8.810766" lat="50.616849" /><trkpt lon="8.813915" lat="50.613508" /><trkpt lon="8.815325" lat="50.612427" /><trkpt lon="8.816909" lat="50.611691" /><trkpt lon="8.820377" lat="50.610739" /><trkpt lon="8.823225" lat="50.609547" /><trkpt lon="8.824574" lat="50.609289" /><trkpt lon="8.826151" lat="50.609219" /><trkpt lon="8.828694" lat="50.609665" /><trkpt lon="8.829922" lat="50.610244" /><trkpt lon="8.831636" lat="50.611468" /><trkpt lon="8.83248" lat="50.611811" /><trkpt lon="8.833769" lat="50.612047" /><trkpt lon="8.861115" lat="50.612027" /><trkpt lon="8.864246" lat="50.612196" /><trkpt lon="8.867796" lat="50.612766" /><trkpt lon="8.871716" lat="50.613919" /><trkpt lon="8.902416" lat="50.625332" /><trkpt lon="8.942163" lat="50.638004" /><trkpt lon="8.945029" lat="50.63859" /><trkpt lon="8.948395" lat="50.639" /><trkpt lon="8.96583" lat="50.640021" /><trkpt lon="8.969325" lat="50.64035" /><trkpt lon="8.985477" lat="50.642689" /><trkpt lon="8.994222" lat="50.644482" /><trkpt lon="8.996402" lat="50.645223" /><trkpt lon="8.998384" lat="50.646218" /><trkpt lon="9.012421" lat="50.654767" /><trkpt lon="9.015133" lat="50.656682" /><trkpt lon="9.017122" lat="50.658531" /><trkpt lon="9.019178" lat="50.661204" /><trkpt lon="9.022438" lat="50.667616" /><trkpt lon="9.024016" lat="50.670311" /><trkpt lon="9.031206" lat="50.680222" /><trkpt lon="9.032477" lat="50.681433" /><trkpt lon="9.036241" lat="50.684118" /><trkpt lon="9.037428" lat="50.685276" /><trkpt lon="9.038321" lat="50.686736" /><trkpt lon="9.040026" lat="50.691448" /><trkpt lon="9.041094" lat="50.693656" /><trkpt lon="9.044748" lat="50.698546" /><trkpt lon="9.046979" lat="50.700741" /><trkpt lon="9.049254" lat="50.702428" /><trkpt lon="9.051799" lat="50.703882" /><trkpt lon="9.061988" lat="50.708208" /><trkpt lon="9.065536" lat="50.710046" /><trkpt lon="9.072819" lat="50.71445" /><trkpt lon="9.075853" lat="50.71575" /><trkpt lon="9.077936" lat="50.716351" /><trkpt lon="9.080172" lat="50.716779" /><trkpt lon="9.084311" lat="50.717047" /><trkpt lon="9.086544" lat="50.716899" /><trkpt lon="9.102398" lat="50.714718" /><trkpt lon="9.104955" lat="50.714506" /><trkpt lon="9.108043" lat="50.714573" /><trkpt lon="9.11446" lat="50.715355" /><trkpt lon="9.117699" lat="50.715553" /><trkpt lon="9.135299" lat="50.71502" /><trkpt lon="9.137764" lat="50.714811" /><trkpt lon="9.140523" lat="50.714343" /><trkpt lon="9.150717" lat="50.711842" /><trkpt lon="9.155943" lat="50.711344" /><trkpt lon="9.159963" lat="50.711367" /><trkpt lon="9.175796" lat="50.712456" /><trkpt lon="9.178279" lat="50.712353" /><trkpt lon="9.184903" lat="50.71154" /><trkpt lon="9.187346" lat="50.711632" /><trkpt lon="9.189361" lat="50.71194" /><trkpt lon="9.191731" lat="50.71262" /><trkpt lon="9.193846" lat="50.71359" /><trkpt lon="9.209024" lat="50.72252" /><trkpt lon="9.21113" lat="50.723387" /><trkpt lon="9.226691" lat="50.728688" /><trkpt lon="9.229335" lat="50.729856" /><trkpt lon="9.234839" lat="50.732856" /><trkpt lon="9.239703" lat="50.734754" /><trkpt lon="9.244376" lat="50.735856" /><trkpt lon="9.254364" lat="50.737246" /><trkpt lon="9.25935" lat="50.738134" /><trkpt lon="9.276371" lat="50.742375" /><trkpt lon="9.280505" lat="50.74281" /><trkpt lon="9.287802" lat="50.742927" /><trkpt lon="9.290897" lat="50.743427" /><trkpt lon="9.292933" lat="50.744077" /><trkpt lon="9.294789" lat="50.74498" /><trkpt lon="9.296229" lat="50.745943" /><trkpt lon="9.297342" lat="50.747006" /><trkpt lon="9.30076" lat="50.750944" /><trkpt lon="9.302612" lat="50.75261" /><trkpt lon="9.305093" lat="50.754149" /><trkpt lon="9.307139" lat="50.755058" /><trkpt lon="9.309066" lat="50.755704" /><trkpt lon="9.313581" lat="50.756571" /><trkpt lon="9.318148" lat="50.756694" /><trkpt lon="9.321618" lat="50.756302" /><trkpt lon="9.33218" lat="50.754372" /><trkpt lon="9.335879" lat="50.754242" /><trkpt lon="9.339198" lat="50.754655" /><trkpt lon="9.354859" lat="50.758189" /><trkpt lon="9.361772" lat="50.760222" /><trkpt lon="9.367124" lat="50.761274" /><trkpt lon="9.369788" lat="50.762219" /><trkpt lon="9.372394" lat="50.763735" /><trkpt lon="9.375541" lat="50.76665" /><trkpt lon="9.377557" lat="50.768055" /><trkpt lon="9.385285" lat="50.771463" /><trkpt lon="9.393126" lat="50.774682" /><trkpt lon="9.394719" lat="50.775557" /><trkpt lon="9.398269" lat="50.7779" /><trkpt lon="9.401645" lat="50.779242" /><trkpt lon="9.428777" lat="50.785686" /><trkpt lon="9.440707" lat="50.788157" /><trkpt lon="9.443649" lat="50.789371" /><trkpt lon="9.447747" lat="50.791915" /><trkpt lon="9.450432" lat="50.792761" /><trkpt lon="9.452581" lat="50.792975" /><trkpt lon="9.455369" lat="50.792722" /><trkpt lon="9.462955" lat="50.790419" /><trkpt lon="9.464915" lat="50.789989" /><trkpt lon="9.467608" lat="50.789908" /><trkpt lon="9.469652" lat="50.79023" /><trkpt lon="9.471901" lat="50.791061" /><trkpt lon="9.475811" lat="50.793616" /><trkpt lon="9.478532" lat="50.794784" /><trkpt lon="9.484536" lat="50.796801" /><trkpt lon="9.486653" lat="50.797218" /><trkpt lon="9.491573" lat="50.797822" /><trkpt lon="9.495111" lat="50.799051" /><trkpt lon="9.498089" lat="50.800604" /><trkpt lon="9.500896" lat="50.803245" /><trkpt lon="9.502444" lat="50.804294" /><trkpt lon="9.507814" lat="50.80679" /><trkpt lon="9.510246" lat="50.807546" /><trkpt lon="9.512476" lat="50.807894" /><trkpt lon="9.514103" lat="50.80796" /><trkpt lon="9.516232" lat="50.807815" /><trkpt lon="9.520049" lat="50.807216" /><trkpt lon="9.522388" lat="50.807138" /><trkpt lon="9.532671" lat="50.807938" /><trkpt lon="9.535125" lat="50.808438" /><trkpt lon="9.537137" lat="50.809183" /><trkpt lon="9.538347" lat="50.809821" /><trkpt lon="9.545136" lat="50.814725" /><trkpt lon="9.549956" lat="50.817391" /><trkpt lon="9.551171" lat="50.817915" /><trkpt lon="9.553231" lat="50.818429" /><trkpt lon="9.554743" lat="50.818549" /><trkpt lon="9.559802" lat="50.818179" /><trkpt lon="9.562638" lat="50.818391" /><trkpt lon="9.565109" lat="50.819131" /><trkpt lon="9.56863" lat="50.820788" /><trkpt lon="9.570011" lat="50.82181" /><trkpt lon="9.571028" lat="50.822926" /><trkpt lon="9.574061" lat="50.828395" /><trkpt lon="9.578241" lat="50.833767" /><trkpt lon="9.579408" lat="50.835743" /><trkpt lon="9.580732" lat="50.837494" /><trkpt lon="9.581741" lat="50.838421" /><trkpt lon="9.583183" lat="50.839045" /><trkpt lon="9.587252" lat="50.839817" /><trkpt lon="9.590143" lat="50.840557" /><trkpt lon="9.592128" lat="50.84085" /><trkpt lon="9.595023" lat="50.840761" /><trkpt lon="9.600068" lat="50.839664" /><trkpt lon="9.602985" lat="50.839439" /><trkpt lon="9.605729" lat="50.839667" /><trkpt lon="9.611895" lat="50.840869" /><trkpt lon="9.617146" lat="50.841047" /><trkpt lon="9.618967" lat="50.841252" /><trkpt lon="9.621761" lat="50.842156" /><trkpt lon="9.628498" lat="50.845801" /><trkpt lon="9.631525" lat="50.847121" /><trkpt lon="9.634788" lat="50.847961" /><trkpt lon="9.640352" lat="50.848928" /><trkpt lon="9.642304" lat="50.849024" /><trkpt lon="9.644257" lat="50.84882" /><trkpt lon="9.650082" lat="50.846887" /><trkpt lon="9.656684" lat="50.846096" /><trkpt lon="9.661695" lat="50.845843" /><trkpt lon="9.667862" lat="50.846206" /><trkpt lon="9.674596" lat="50.846822" /><trkpt lon="9.676824" lat="50.847439" /><trkpt lon="9.680346" lat="50.848863" /><trkpt lon="9.682237" lat="50.84941" /><trkpt lon="9.700931" lat="50.852961" /><trkpt lon="9.702976" lat="50.85312" /><trkpt lon="9.711748" lat="50.853151" /><trkpt lon="9.726809" lat="50.853634" /><trkpt lon="9.729528" lat="50.854091" /><trkpt lon="9.733787" lat="50.855859" /><trkpt lon="9.736565" lat="50.856488" /><trkpt lon="9.739233" lat="50.856494" /><trkpt lon="9.745143" lat="50.855368" /><trkpt lon="9.748742" lat="50.855154" /><trkpt lon="9.75173" lat="50.855534" /><trkpt lon="9.756388" lat="50.856885" /><trkpt lon="9.757833" lat="50.857137" /><trkpt lon="9.764163" lat="50.857078" /><trkpt lon="9.767251" lat="50.857554" /><trkpt lon="9.770091" lat="50.858689" /><trkpt lon="9.774288" lat="50.861726" /><trkpt lon="9.775441" lat="50.862339" /><trkpt lon="9.77728" lat="50.862953" /><trkpt lon="9.781496" lat="50.863842" /><trkpt lon="9.78325" lat="50.864522" /><trkpt lon="9.784175" lat="50.865072" /><trkpt lon="9.785527" lat="50.866271" /><trkpt lon="9.786229" lat="50.86741" /><trkpt lon="9.786475" lat="50.868343" /><trkpt lon="9.786446" lat="50.870371" /><trkpt lon="9.78663" lat="50.871661" /><trkpt lon="9.787184" lat="50.872773" /><trkpt lon="9.787882" lat="50.873632" /><trkpt lon="9.793504" lat="50.878083" /><trkpt lon="9.799835" lat="50.880929" /><trkpt lon="9.805104" lat="50.883083" /><trkpt lon="9.807499" lat="50.883896" /><trkpt lon="9.811157" lat="50.884913" /><trkpt lon="9.814513" lat="50.885607" /><trkpt lon="9.82135" lat="50.886382" /><trkpt lon="9.831417" lat="50.886856" /><trkpt lon="9.835234" lat="50.887187" /><trkpt lon="9.83857" lat="50.887697" /><trkpt lon="9.84231" lat="50.888545" /><trkpt lon="9.847889" lat="50.890505" /><trkpt lon="9.850513" lat="50.891682" /><trkpt lon="9.859751" lat="50.896598" /><trkpt lon="9.867133" lat="50.89946" /><trkpt lon="9.87588" lat="50.903377" /><trkpt lon="9.877844" lat="50.904646" /><trkpt lon="9.881328" lat="50.908493" /><trkpt lon="9.883468" lat="50.90995" /><trkpt lon="9.890895" lat="50.912858" /><trkpt lon="9.892169" lat="50.913513" /><trkpt lon="9.896851" lat="50.916529" /><trkpt lon="9.903691" lat="50.918533" /><trkpt lon="9.906947" lat="50.919909" /><trkpt lon="9.911448" lat="50.922215" /><trkpt lon="9.912272" lat="50.922882" /><trkpt lon="9.913118" lat="50.923952" /><trkpt lon="9.913663" lat="50.924967" /><trkpt lon="9.914598" lat="50.927526" /><trkpt lon="9.915234" lat="50.928438" /><trkpt lon="9.915985" lat="50.929157" /><trkpt lon="9.917248" lat="50.929968" /><trkpt lon="9.9238" lat="50.932905" /><trkpt lon="9.925242" lat="50.933757" /><trkpt lon="9.926115" lat="50.934433" /><trkpt lon="9.930683" lat="50.938844" /><trkpt lon="9.934633" lat="50.942041" /><trkpt lon="9.935901" lat="50.942908" /><trkpt lon="9.938166" lat="50.943953" /><trkpt lon="9.940503" lat="50.944622" /><trkpt lon="9.942671" lat="50.944946" /><trkpt lon="9.95468" lat="50.944936" /><trkpt lon="9.957041" lat="50.945106" /><trkpt lon="9.960026" lat="50.945575" /><trkpt lon="9.963294" lat="50.946439" /><trkpt lon="9.965318" lat="50.947196" /><trkpt lon="9.973071" lat="50.951091" /><trkpt lon="9.974414" lat="50.951631" /><trkpt lon="9.98" lat="50.953209" /><trkpt lon="9.985941" lat="50.955455" /><trkpt lon="9.988039" lat="50.955922" /><trkpt lon="9.989878" lat="50.956132" /><trkpt lon="9.996524" lat="50.956256" /><trkpt lon="9.999298" lat="50.956553" /><trkpt lon="10.001468" lat="50.957057" /><trkpt lon="10.011924" lat="50.960362" /><trkpt lon="10.013879" lat="50.960824" /><trkpt lon="10.017136" lat="50.96107" /><trkpt lon="10.019791" lat="50.960831" /><trkpt lon="10.022319" lat="50.960169" /><trkpt lon="10.026268" lat="50.958457" /><trkpt lon="10.02879" lat="50.957697" /><trkpt lon="10.031174" lat="50.957319" /><trkpt lon="10.034498" lat="50.957287" /><trkpt lon="10.036969" lat="50.957618" /><trkpt lon="10.039111" lat="50.958169" /><trkpt lon="10.05161" lat="50.961927" /><trkpt lon="10.055031" lat="50.9631" /><trkpt lon="10.057623" lat="50.964572" /><trkpt lon="10.066809" lat="50.971144" /><trkpt lon="10.068682" lat="50.972732" /><trkpt lon="10.069695" lat="50.974148" /><trkpt lon="10.070193" lat="50.975351" /><trkpt lon="10.070937" lat="50.981722" /><trkpt lon="10.071274" lat="50.982742" /><trkpt lon="10.072026" lat="50.983958" /><trkpt lon="10.073265" lat="50.985168" /><trkpt lon="10.074965" lat="50.98625" /><trkpt lon="10.08226" lat="50.989086" /><trkpt lon="10.083386" lat="50.989665" /><trkpt lon="10.084712" lat="50.990641" /><trkpt lon="10.087718" lat="50.99399" /><trkpt lon="10.088465" lat="50.99502" /><trkpt lon="10.091534" lat="51.001948" /><trkpt lon="10.092108" lat="51.002796" /><trkpt lon="10.093164" lat="51.003844" /><trkpt lon="10.09499" lat="51.005057" /><trkpt lon="10.101075" lat="51.007964" /><trkpt lon="10.103951" lat="51.010197" /><trkpt lon="10.105722" lat="51.011322" /><trkpt lon="10.115925" lat="51.016096" /><trkpt lon="10.117949" lat="51.016737" /><trkpt lon="10.119677" lat="51.017069" /><trkpt lon="10.12263" lat="51.017224" /><trkpt lon="10.137586" lat="51.016313" /><trkpt lon="10.140125" lat="51.015816" /><trkpt lon="10.149944" lat="51.013122" /><trkpt lon="10.165237" lat="51.00953" /><trkpt lon="10.19253" lat="51.005654" /><trkpt lon="10.195387" lat="51.005695" /><trkpt lon="10.198106" lat="51.00621" /><trkpt lon="10.205678" lat="51.009235" /><trkpt lon="10.209867" lat="51.010402" /><trkpt lon="10.214072" lat="51.011042" /><trkpt lon="10.218384" lat="51.011213" /><trkpt lon="10.222392" lat="51.010969" /><trkpt lon="10.239728" lat="51.009027" /><trkpt lon="10.245176" lat="51.008173" /><trkpt lon="10.257705" lat="51.005861" /><trkpt lon="10.261721" lat="51.005419" /><trkpt lon="10.265014" lat="51.005291" /><trkpt lon="10.271152" lat="51.005606" /><trkpt lon="10.275587" lat="51.006304" /><trkpt lon="10.279171" lat="51.007198" /><trkpt lon="10.288664" lat="51.010321" /><trkpt lon="10.294297" lat="51.011837" /><trkpt lon="10.301817" lat="51.013381" /><trkpt lon="10.308991" lat="51.01438" /><trkpt lon="10.314312" lat="51.01484" /><trkpt lon="10.320712" lat="51.015086" /><trkpt lon="10.326498" lat="51.015022" /><trkpt lon="10.335971" lat="51.014558" /><trkpt lon="10.340567" lat="51.014617" /><trkpt lon="10.346372" lat="51.015248" /><trkpt lon="10.35475" lat="51.016699" /><trkpt lon="10.360288" lat="51.017154" /><trkpt lon="10.36619" lat="51.017015" /><trkpt lon="10.372211" lat="51.016189" /><trkpt lon="10.377879" lat="51.014717" /><trkpt lon="10.382023" lat="51.013108" /><trkpt lon="10.385386" lat="51.011361" /><trkpt lon="10.391338" lat="51.007817" /><trkpt lon="10.396071" lat="51.005386" /><trkpt lon="10.409101" lat="50.999849" /><trkpt lon="10.413658" lat="50.998184" /><trkpt lon="10.420316" lat="50.996595" /><trkpt lon="10.465412" lat="50.98818" /><trkpt lon="10.468984" lat="50.987213" /><trkpt lon="10.472596" lat="50.985916" /><trkpt lon="10.474924" lat="50.984889" /><trkpt lon="10.4789" lat="50.982642" /><trkpt lon="10.482498" lat="50.979873" /><trkpt lon="10.485458" lat="50.976619" /><trkpt lon="10.487106" lat="50.973959" /><trkpt lon="10.487849" lat="50.972249" /><trkpt lon="10.488437" lat="50.970355" /><trkpt lon="10.488797" lat="50.967601" /><trkpt lon="10.488603" lat="50.964719" /><trkpt lon="10.48618" lat="50.9555" /><trkpt lon="10.485785" lat="50.953451" /><trkpt lon="10.485696" lat="50.952096" /><trkpt lon="10.48585" lat="50.949926" /><trkpt lon="10.48626" lat="50.948149" /><trkpt lon="10.486992" lat="50.946267" /><trkpt lon="10.48841" lat="50.943854" /><trkpt lon="10.49018" lat="50.941706" /><trkpt lon="10.492979" lat="50.939226" /><trkpt lon="10.500478" lat="50.934439" /><trkpt lon="10.508153" lat="50.929187" /><trkpt lon="10.512969" lat="50.926534" /><trkpt lon="10.517226" lat="50.924701" /><trkpt lon="10.519624" lat="50.92384" /><trkpt lon="10.526662" lat="50.92192" /><trkpt lon="10.530337" lat="50.921231" /><trkpt lon="10.534549" lat="50.92066" /><trkpt lon="10.544056" lat="50.920019" /><trkpt lon="10.564632" lat="50.91949" /><trkpt lon="10.567426" lat="50.919269" /><trkpt lon="10.5709" lat="50.918741" /><trkpt lon="10.574973" lat="50.917717" /><trkpt lon="10.579292" lat="50.916061" /><trkpt lon="10.589231" lat="50.910464" /><trkpt lon="10.593154" lat="50.908655" /><trkpt lon="10.595339" lat="50.907903" /><trkpt lon="10.598684" lat="50.907021" /><trkpt lon="10.603937" lat="50.906233" /><trkpt lon="10.609034" lat="50.906072" /><trkpt lon="10.622514" lat="50.906727" /><trkpt lon="10.634286" lat="50.906988" /><trkpt lon="10.650815" lat="50.908101" /><trkpt lon="10.655893" lat="50.908173" /><trkpt lon="10.659693" lat="50.907855" /><trkpt lon="10.661933" lat="50.907497" /><trkpt lon="10.683305" lat="50.902535" /><trkpt lon="10.686956" lat="50.901917" /><trkpt lon="10.691735" lat="50.901391" /><trkpt lon="10.700164" lat="50.901194" /><trkpt lon="10.732164" lat="50.901458" /><trkpt lon="10.73603" lat="50.901304" /><trkpt lon="10.739687" lat="50.900871" /><trkpt lon="10.745131" lat="50.899625" /><trkpt lon="10.749638" lat="50.897932" /><trkpt lon="10.753928" lat="50.895691" /><trkpt lon="10.763213" lat="50.88991" /><trkpt lon="10.766956" lat="50.888057" /><trkpt lon="10.76997" lat="50.886842" /><trkpt lon="10.774248" lat="50.885436" /><trkpt lon="10.792011" lat="50.880143" /><trkpt lon="10.795874" lat="50.879366" /><trkpt lon="10.800118" lat="50.878909" /><trkpt lon="10.834973" lat="50.876645" /><trkpt lon="10.83827" lat="50.876588" /><trkpt lon="10.840732" lat="50.876781" /><trkpt lon="10.844223" lat="50.87744" /><trkpt lon="10.847064" lat="50.878361" /><trkpt lon="10.870631" lat="50.888915" /><trkpt lon="10.87482" lat="50.890215" /><trkpt lon="10.878939" lat="50.891014" /><trkpt lon="10.904635" lat="50.893585" /><trkpt lon="10.909132" lat="50.893868" /><trkpt lon="10.915494" lat="50.893757" /><trkpt lon="10.938692" lat="50.892296" /><trkpt lon="10.94281" lat="50.892332" /><trkpt lon="10.946437" lat="50.892609" /><trkpt lon="10.952798" lat="50.8937" /><trkpt lon="10.997164" lat="50.904051" /><trkpt lon="11.000418" lat="50.904671" /><trkpt lon="11.036777" lat="50.908498" /><trkpt lon="11.042815" lat="50.908923" /><trkpt lon="11.066566" lat="50.909985" /><trkpt lon="11.071023" lat="50.910379" /><trkpt lon="11.073961" lat="50.910812" /><trkpt lon="11.084359" lat="50.9127" /><trkpt lon="11.089788" lat="50.913898" /><trkpt lon="11.108971" lat="50.918889" /><trkpt lon="11.118089" lat="50.921715" /><trkpt lon="11.121563" lat="50.922391" /><trkpt lon="11.130062" lat="50.923453" /><trkpt lon="11.134442" lat="50.924604" /><trkpt lon="11.143076" lat="50.928216" /><trkpt lon="11.145958" lat="50.929612" /><trkpt lon="11.148422" lat="50.931257" /><trkpt lon="11.153826" lat="50.935957" /><trkpt lon="11.156567" lat="50.937646" /><trkpt lon="11.165835" lat="50.94206" /><trkpt lon="11.168203" lat="50.943017" /><trkpt lon="11.171484" lat="50.944027" /><trkpt lon="11.188454" lat="50.947817" /><trkpt lon="11.192842" lat="50.948562" /><trkpt lon="11.196409" lat="50.948859" /><trkpt lon="11.229201" lat="50.950301" /><trkpt lon="11.233894" lat="50.950171" /><trkpt lon="11.256642" lat="50.948291" /><trkpt lon="11.276015" lat="50.947469" /><trkpt lon="11.302961" lat="50.943229" /><trkpt lon="11.316119" lat="50.943112" /><trkpt lon="11.323417" lat="50.942472" /><trkpt lon="11.328337" lat="50.94162" /><trkpt lon="11.342393" lat="50.938374" /><trkpt lon="11.34632" lat="50.937729" /><trkpt lon="11.351934" lat="50.937439" /><trkpt lon="11.365279" lat="50.937939" /><trkpt lon="11.368679" lat="50.937851" /><trkpt lon="11.372039" lat="50.937412" /><trkpt lon="11.38007" lat="50.935786" /><trkpt lon="11.383595" lat="50.934616" /><trkpt lon="11.386141" lat="50.933373" /><trkpt lon="11.402683" lat="50.92296" /><trkpt lon="11.405555" lat="50.920647" /><trkpt lon="11.417265" lat="50.909701" /><trkpt lon="11.421238" lat="50.906687" /><trkpt lon="11.425677" lat="50.904159" /><trkpt lon="11.439351" lat="50.89755" /><trkpt lon="11.443834" lat="50.895524" /><trkpt lon="11.448713" lat="50.893822" /><trkpt lon="11.453676" lat="50.892556" /><trkpt lon="11.465676" lat="50.889887" /><trkpt lon="11.472051" lat="50.88806" /><trkpt lon="11.479349" lat="50.88542" /><trkpt lon="11.501205" lat="50.87669" /><trkpt lon="11.504732" lat="50.875704" /><trkpt lon="11.508137" lat="50.875148" /><trkpt lon="11.512631" lat="50.874907" /><trkpt lon="11.516717" lat="50.875187" /><trkpt lon="11.519799" lat="50.875722" /><trkpt lon="11.52682" lat="50.877741" /><trkpt lon="11.529919" lat="50.878391" /><trkpt lon="11.5337" lat="50.878772" /><trkpt lon="11.537467" lat="50.878761" /><trkpt lon="11.540929" lat="50.878282" /><trkpt lon="11.582349" lat="50.87057" /><trkpt lon="11.586426" lat="50.870259" /><trkpt lon="11.590366" lat="50.870697" /><trkpt lon="11.593334" lat="50.871592" /><trkpt lon="11.595133" lat="50.872426" /><trkpt lon="11.607385" lat="50.879094" /><trkpt lon="11.609799" lat="50.879912" /><trkpt lon="11.612304" lat="50.880296" /><trkpt lon="11.61437" lat="50.880315" /><trkpt lon="11.616941" lat="50.88007" /><trkpt lon="11.640199" lat="50.876553" /><trkpt lon="11.647906" lat="50.875922" /><trkpt lon="11.652353" lat="50.875896" /><trkpt lon="11.657602" lat="50.876207" /><trkpt lon="11.669934" lat="50.877839" /><trkpt lon="11.673229" lat="50.877908" /><trkpt lon="11.726098" lat="50.873382" /><trkpt lon="11.728959" lat="50.872734" /><trkpt lon="11.731141" lat="50.871965" /><trkpt lon="11.739993" lat="50.867491" /><trkpt lon="11.743516" lat="50.866091" /><trkpt lon="11.745987" lat="50.865424" /><trkpt lon="11.748668" lat="50.864941" /><trkpt lon="11.751627" lat="50.864674" /><trkpt lon="11.753924" lat="50.864647" /><trkpt lon="11.759045" lat="50.865148" /><trkpt lon="11.780928" lat="50.869456" /><trkpt lon="11.784889" lat="50.870593" /><trkpt lon="11.797239" lat="50.874875" /><trkpt lon="11.801469" lat="50.875753" /><trkpt lon="11.825724" lat="50.877871" /><trkpt lon="11.847849" lat="50.880327" /><trkpt lon="11.848612" lat="50.880216" /><trkpt lon="11.849041" lat="50.879849" /><trkpt lon="11.849008" lat="50.879408" /><trkpt lon="11.848474" lat="50.879042" /><trkpt lon="11.847547" lat="50.879048" /><trkpt lon="11.846974" lat="50.879492" /><trkpt lon="11.845953" lat="50.886065" /><trkpt lon="11.845719" lat="50.886681" /><trkpt lon="11.843682" lat="50.898627" /><trkpt lon="11.840005" lat="50.922502" /><trkpt lon="11.836371" lat="50.935103" /><trkpt lon="11.834135" lat="50.94449" /><trkpt lon="11.833961" lat="50.94608" /><trkpt lon="11.834049" lat="50.946776" /><trkpt lon="11.834548" lat="50.948203" /><trkpt lon="11.838155" lat="50.953411" /><trkpt lon="11.839486" lat="50.954892" /><trkpt lon="11.840711" lat="50.955867" /><trkpt lon="11.842952" lat="50.957087" /><trkpt lon="11.855493" lat="50.962248" /><trkpt lon="11.857101" lat="50.963136" /><trkpt lon="11.858431" lat="50.964138" /><trkpt lon="11.859453" lat="50.965168" /><trkpt lon="11.860309" lat="50.966423" /><trkpt lon="11.862985" lat="50.972207" /><trkpt lon="11.863733" lat="50.973503" /><trkpt lon="11.865101" lat="50.975025" /><trkpt lon="11.867009" lat="50.976412" /><trkpt lon="11.869175" lat="50.977455" /><trkpt lon="11.871511" lat="50.978197" /><trkpt lon="11.9003" lat="50.98546" /><trkpt lon="11.903814" lat="50.986551" /><trkpt lon="11.908408" lat="50.98868" /><trkpt lon="11.910251" lat="50.989831" /><trkpt lon="11.913432" lat="50.992408" /><trkpt lon="11.915436" lat="50.994784" /><trkpt lon="11.92651" lat="51.012449" /><trkpt lon="11.939443" lat="51.033728" /><trkpt lon="11.940588" lat="51.036228" /><trkpt lon="11.94099" lat="51.037897" /><trkpt lon="11.94164" lat="51.045331" /><trkpt lon="11.942374" lat="51.047966" /><trkpt lon="11.943446" lat="51.049988" /><trkpt lon="11.951933" lat="51.063097" /><trkpt lon="11.953237" lat="51.065514" /><trkpt lon="11.954349" lat="51.068274" /><trkpt lon="11.955236" lat="51.071636" /><trkpt lon="11.955597" lat="51.074916" /><trkpt lon="11.956104" lat="51.11622" /><trkpt lon="11.956373" lat="51.118483" /><trkpt lon="11.956881" lat="51.120426" /><trkpt lon="11.958323" lat="51.123809" /><trkpt lon="11.959485" lat="51.125671" /><trkpt lon="11.961171" lat="51.127849" /><trkpt lon="11.99909" lat="51.170958" /><trkpt lon="12.017382" lat="51.197403" /><trkpt lon="12.019822" lat="51.200194" /><trkpt lon="12.02204" lat="51.202225" /><trkpt lon="12.036806" lat="51.214265" /><trkpt lon="12.0698" lat="51.247711" /><trkpt lon="12.073073" lat="51.250547" /><trkpt lon="12.076699" lat="51.253144" /><trkpt lon="12.079395" lat="51.254765" /><trkpt lon="12.111735" lat="51.272958" /><trkpt lon="12.119776" lat="51.279064" /><trkpt lon="12.132855" lat="51.287522" /><trkpt lon="12.149773" lat="51.301275" /><trkpt lon="12.151895" lat="51.303375" /><trkpt lon="12.174713" lat="51.328869" /><trkpt lon="12.185676" lat="51.344631" /><trkpt lon="12.186582" lat="51.34669" /><trkpt lon="12.18715" lat="51.349033" /><trkpt lon="12.189403" lat="51.360857" /><trkpt lon="12.18951" lat="51.363878" /><trkpt lon="12.189079" lat="51.36614" /><trkpt lon="12.180977" lat="51.391417" /><trkpt lon="12.180737" lat="51.392901" /><trkpt lon="12.180712" lat="51.394681" /><trkpt lon="12.181154" lat="51.397186" /><trkpt lon="12.181714" lat="51.398703" /><trkpt lon="12.183127" lat="51.401343" /><trkpt lon="12.214764" lat="51.456298" /><trkpt lon="12.21627" lat="51.460177" /><trkpt lon="12.216685" lat="51.462283" /><trkpt lon="12.216841" lat="51.464597" /><trkpt lon="12.216671" lat="51.46698" /><trkpt lon="12.216193" lat="51.469509" /><trkpt lon="12.214801" lat="51.476101" /><trkpt lon="12.213855" lat="51.479194" /><trkpt lon="12.212724" lat="51.481573" /><trkpt lon="12.211596" lat="51.483367" /><trkpt lon="12.204513" lat="51.492932" /><trkpt lon="12.203251" lat="51.49516" /><trkpt lon="12.202406" lat="51.497712" /><trkpt lon="12.198231" lat="51.513312" /><trkpt lon="12.197626" lat="51.515993" /><trkpt lon="12.197336" lat="51.518086" /><trkpt lon="12.196962" lat="51.52977" /><trkpt lon="12.196356" lat="51.533272" /><trkpt lon="12.187957" lat="51.555901" /><trkpt lon="12.18733" lat="51.558508" /><trkpt lon="12.187261" lat="51.560202" /><trkpt lon="12.187472" lat="51.561956" /><trkpt lon="12.190949" lat="51.57462" /><trkpt lon="12.191153" lat="51.576322" /><trkpt lon="12.191043" lat="51.578327" /><trkpt lon="12.190168" lat="51.581344" /><trkpt lon="12.183665" lat="51.596366" /><trkpt lon="12.183229" lat="51.598537" /><trkpt lon="12.183231" lat="51.600856" /><trkpt lon="12.183537" lat="51.60253" /><trkpt lon="12.18413" lat="51.604304" /><trkpt lon="12.196905" lat="51.63514" /><trkpt lon="12.199461" lat="51.642045" /><trkpt lon="12.200329" lat="51.64499" /><trkpt lon="12.201214" lat="51.648568" /><trkpt lon="12.216254" lat="51.728106" /><trkpt lon="12.217629" lat="51.734727" /><trkpt lon="12.21937" lat="51.739438" /><trkpt lon="12.22179" lat="51.743837" /><trkpt lon="12.225371" lat="51.748869" /><trkpt lon="12.236412" lat="51.762973" /><trkpt lon="12.238771" lat="51.765116" /><trkpt lon="12.240848" lat="51.76658" /><trkpt lon="12.262988" lat="51.778482" /><trkpt lon="12.265989" lat="51.780415" /><trkpt lon="12.267928" lat="51.782122" /><trkpt lon="12.270012" lat="51.78454" /><trkpt lon="12.273606" lat="51.790317" /><trkpt lon="12.274505" lat="51.791473" /><trkpt lon="12.285104" lat="51.804017" /><trkpt lon="12.288146" lat="51.806493" /><trkpt lon="12.299225" lat="51.813203" /><trkpt lon="12.302031" lat="51.815205" /><trkpt lon="12.307222" lat="51.820222" /><trkpt lon="12.318741" lat="51.831813" /><trkpt lon="12.320476" lat="51.834153" /><trkpt lon="12.327163" lat="51.845026" /><trkpt lon="12.328355" lat="51.846528" /><trkpt lon="12.330747" lat="51.848894" /><trkpt lon="12.333061" lat="51.850686" /><trkpt lon="12.335151" lat="51.852042" /><trkpt lon="12.339162" lat="51.854102" /><trkpt lon="12.364223" lat="51.864916" /><trkpt lon="12.36952" lat="51.866875" /><trkpt lon="12.377752" lat="51.869594" /><trkpt lon="12.381108" lat="51.87099" /><trkpt lon="12.384135" lat="51.872557" /><trkpt lon="12.386365" lat="51.873982" /><trkpt lon="12.388336" lat="51.875476" /><trkpt lon="12.391072" lat="51.87809" /><trkpt lon="12.410223" lat="51.900242" /><trkpt lon="12.412208" lat="51.902119" /><trkpt lon="12.413678" lat="51.903245" /><trkpt lon="12.416234" lat="51.904825" /><trkpt lon="12.434046" lat="51.913663" /><trkpt lon="12.436262" lat="51.914983" /><trkpt lon="12.438231" lat="51.916431" /><trkpt lon="12.439872" lat="51.917928" /><trkpt lon="12.441245" lat="51.919498" /><trkpt lon="12.442967" lat="51.922282" /><trkpt lon="12.446584" lat="51.930755" /><trkpt lon="12.448777" lat="51.935157" /><trkpt lon="12.456779" lat="51.954095" /><trkpt lon="12.457978" lat="51.955834" /><trkpt lon="12.459657" lat="51.957668" /><trkpt lon="12.462878" lat="51.960238" /><trkpt lon="12.46639" lat="51.962206" /><trkpt lon="12.483215" lat="51.969752" /><trkpt lon="12.486001" lat="51.970642" /><trkpt lon="12.506513" lat="51.976139" /><trkpt lon="12.529171" lat="51.984055" /><trkpt lon="12.532199" lat="51.985215" /><trkpt lon="12.535589" lat="51.986792" /><trkpt lon="12.539299" lat="51.98891" /><trkpt lon="12.556299" lat="52.000418" /><trkpt lon="12.55938" lat="52.002734" /><trkpt lon="12.568465" lat="52.010535" /><trkpt lon="12.571483" lat="52.012464" /><trkpt lon="12.574118" lat="52.013762" /><trkpt lon="12.5956" lat="52.022667" /><trkpt lon="12.598944" lat="52.024716" /><trkpt lon="12.603407" lat="52.02876" /><trkpt lon="12.605019" lat="52.029821" /><trkpt lon="12.606667" lat="52.030671" /><trkpt lon="12.609452" lat="52.03165" /><trkpt lon="12.614959" lat="52.032964" /><trkpt lon="12.617707" lat="52.034049" /><trkpt lon="12.619038" lat="52.034795" /><trkpt lon="12.620437" lat="52.03583" /><trkpt lon="12.624115" lat="52.039781" /><trkpt lon="12.626168" lat="52.04147" /><trkpt lon="12.628215" lat="52.042543" /><trkpt lon="12.639761" lat="52.047594" /><trkpt lon="12.642799" lat="52.04928" /><trkpt lon="12.645532" lat="52.051299" /><trkpt lon="12.647187" lat="52.05288" /><trkpt lon="12.648336" lat="52.054269" /><trkpt lon="12.65836" lat="52.069616" /><trkpt lon="12.66068" lat="52.072777" /><trkpt lon="12.662805" lat="52.075234" /><trkpt lon="12.665728" lat="52.078247" /><trkpt lon="12.670299" lat="52.082269" /><trkpt lon="12.684549" lat="52.092465" /><trkpt lon="12.696567" lat="52.098789" /><trkpt lon="12.703089" lat="52.103204" /><trkpt lon="12.71161" lat="52.109262" /><trkpt lon="12.714796" lat="52.111279" /><trkpt lon="12.717616" lat="52.112711" /><trkpt lon="12.736574" lat="52.120812" /><trkpt lon="12.738998" lat="52.121971" /><trkpt lon="12.741378" lat="52.123357" /><trkpt lon="12.743938" lat="52.125227" /><trkpt lon="12.748952" lat="52.129555" /><trkpt lon="12.783707" lat="52.159912" /><trkpt lon="12.785469" lat="52.161358" /><trkpt lon="12.788107" lat="52.163066" /><trkpt lon="12.792173" lat="52.165005" /><trkpt lon="12.796139" lat="52.166292" /><trkpt lon="12.827073" lat="52.173626" /><trkpt lon="12.832197" lat="52.175241" /><trkpt lon="12.834876" lat="52.176447" /><trkpt lon="12.837968" lat="52.178246" /><trkpt lon="12.849765" lat="52.187396" /><trkpt lon="12.852408" lat="52.189053" /><trkpt lon="12.854235" lat="52.189982" /><trkpt lon="12.856522" lat="52.190943" /><trkpt lon="12.859764" lat="52.192023" /><trkpt lon="12.871166" lat="52.194667" /><trkpt lon="12.874087" lat="52.195517" /><trkpt lon="12.878633" lat="52.197415" /><trkpt lon="12.880326" lat="52.198333" /><trkpt lon="12.882676" lat="52.19989" /><trkpt lon="12.887368" lat="52.204074" /><trkpt lon="12.913177" lat="52.228045" /><trkpt lon="12.915218" lat="52.230418" /><trkpt lon="12.916004" lat="52.231642" /><trkpt lon="12.916835" lat="52.233429" /><trkpt lon="12.917389" lat="52.235371" /><trkpt lon="12.917622" lat="52.237339" /><trkpt lon="12.917481" lat="52.239454" /><trkpt lon="12.916965" lat="52.241493" /><trkpt lon="12.916092" lat="52.243399" /><trkpt lon="12.908592" lat="52.256396" /><trkpt lon="12.907649" lat="52.258856" /><trkpt lon="12.90734" lat="52.261367" /><trkpt lon="12.907671" lat="52.264254" /><trkpt lon="12.915521" lat="52.287498" /><trkpt lon="12.916099" lat="52.288497" /><trkpt lon="12.916848" lat="52.289247" /><trkpt lon="12.91884" lat="52.290412" /><trkpt lon="12.920583" lat="52.290951" /><trkpt lon="12.973086" lat="52.302894" /><trkpt lon="12.975665" lat="52.303345" /><trkpt lon="12.978674" lat="52.303591" /><trkpt lon="13.012231" lat="52.30324" /><trkpt lon="13.01587" lat="52.302663" /><trkpt lon="13.02912" lat="52.298939" /><trkpt lon="13.032099" lat="52.29844" /><trkpt lon="13.034405" lat="52.298324" /><trkpt lon="13.036099" lat="52.298402" /><trkpt lon="13.038593" lat="52.298789" /><trkpt lon="13.043809" lat="52.300457" /><trkpt lon="13.04715" lat="52.301077" /><trkpt lon="13.049618" lat="52.301173" /><trkpt lon="13.056679" lat="52.300828" /><trkpt lon="13.082931" lat="52.300048" /><trkpt lon="13.085821" lat="52.300333" /><trkpt lon="13.098569" lat="52.302746" /><trkpt lon="13.101445" lat="52.302927" /><trkpt lon="13.125532" lat="52.302325" /><trkpt lon="13.144542" lat="52.300831" /><trkpt lon="13.156109" lat="52.300818" /><trkpt lon="13.181557" lat="52.298921" /><trkpt lon="13.18572" lat="52.299229" /><trkpt lon="13.195297" lat="52.301506" /><trkpt lon="13.199269" lat="52.302023" /><trkpt lon="13.248556" lat="52.300359" /><trkpt lon="13.250972" lat="52.300559" /><trkpt lon="13.253619" lat="52.301077" /><trkpt lon="13.273323" lat="52.307594" /><trkpt lon="13.276796" lat="52.308338" /><trkpt lon="13.279415" lat="52.308595" /><trkpt lon="13.283071" lat="52.308533" /><trkpt lon="13.293324" lat="52.307389" /><trkpt lon="13.302434" lat="52.307202" /><trkpt lon="13.325439" lat="52.305526" /><trkpt lon="13.329727" lat="52.305695" /><trkpt lon="13.34802" lat="52.307626" /><trkpt lon="13.35104" lat="52.30778" /><trkpt lon="13.374258" lat="52.307601" /><trkpt lon="13.392616" lat="52.306397" /><trkpt lon="13.39892" lat="52.306146" /><trkpt lon="13.422516" lat="52.305811" /><trkpt lon="13.439988" lat="52.306083" /><trkpt lon="13.442964" lat="52.306315" /><trkpt lon="13.446045" lat="52.30676" /><trkpt lon="13.503441" lat="52.318421" /><trkpt lon="13.507602" lat="52.3191" /><trkpt lon="13.512687" lat="52.319328" /><trkpt lon="13.529377" lat="52.318409" /><trkpt lon="13.534361" lat="52.318342" /><trkpt lon="13.544137" lat="52.318642" /><trkpt lon="13.548384" lat="52.318232" /><trkpt lon="13.54967" lat="52.318247" /><trkpt lon="13.551392" lat="52.318662" /><trkpt lon="13.552581" lat="52.319346" /><trkpt lon="13.554518" lat="52.321218" /><trkpt lon="13.555078" lat="52.321958" /><trkpt lon="13.555381" lat="52.322691" /><trkpt lon="13.555314" lat="52.32393" /><trkpt lon="13.554475" lat="52.326252" /><trkpt lon="13.554031" lat="52.327999" /><trkpt lon="13.553885" lat="52.331899" /><trkpt lon="13.554173" lat="52.33544" /><trkpt lon="13.555188" lat="52.341266" /><trkpt lon="13.555387" lat="52.344444" /><trkpt lon="13.555218" lat="52.345989" /><trkpt lon="13.554408" lat="52.34863" /><trkpt lon="13.54886" lat="52.35884" /><trkpt lon="13.548274" lat="52.360875" /><trkpt lon="13.548202" lat="52.361837" /><trkpt lon="13.5484" lat="52.362946" /><trkpt lon="13.548762" lat="52.363593" /><trkpt lon="13.549333" lat="52.364124" /><trkpt lon="13.55149" lat="52.365053" /><trkpt lon="13.552639" lat="52.3653" /><trkpt lon="13.556037" lat="52.365406" /><trkpt lon="13.556995" lat="52.365683" /><trkpt lon="13.557668" lat="52.366073" /><trkpt lon="13.55946" lat="52.36585" /><trkpt lon="13.564817" lat="52.367345" /><trkpt lon="13.564449" lat="52.367841" /></trkseg></trk></gpx>