<?xml version='1.0' encoding='utf-8'?>
<gpx xmlns="http://www.topografix.com/GPX/1/1" version="1.1" creator="Yatutbuv"><trk><trkseg><trkpt lon="15.577186" lat="49.411453" /><trkpt lon="15.577324" lat="49.411023" /><trkpt lon="15.577643" lat="49.410918" /><trkpt lon="15.577762" lat="49.411052" /><trkpt lon="15.579234" lat="49.410102" /><trkpt lon="15.579474" lat="49.410257" /><trkpt lon="15.579021" lat="49.411664" /><trkpt lon="15.579073" lat="49.413797" /><trkpt lon="15.578845" lat="49.41665" /><trkpt lon="15.579163" lat="49.417916" /><trkpt lon="15.580008" lat="49.419143" /><trkpt lon="15.581398" lat="49.420257" /><trkpt lon="15.588199" lat="49.42392" /><trkpt lon="15.590429" lat="49.425748" /><trkpt lon="15.604201" lat="49.4398" /><trkpt lon="15.607954" lat="49.443881" /><trkpt lon="15.609146" lat="49.445495" /><trkpt lon="15.61035" lat="49.44785" /><trkpt lon="15.610912" lat="49.449589" /><trkpt lon="15.611417" lat="49.452379" /><trkpt lon="15.61169" lat="49.452543" /><trkpt lon="15.612139" lat="49.452517" /><trkpt lon="15.612553" lat="49.452289" /><trkpt lon="15.612839" lat="49.451903" /><trkpt lon="15.612793" lat="49.451568" /><trkpt lon="15.612516" lat="49.451354" /><trkpt lon="15.611915" lat="49.451297" /><trkpt lon="15.608601" lat="49.452439" /><trkpt lon="15.604656" lat="49.453383" /><trkpt lon="15.596367" lat="49.454229" /><trkpt lon="15.593575" lat="49.454721" /><trkpt lon="15.590547" lat="49.455619" /><trkpt lon="15.588108" lat="49.456675" /><trkpt lon="15.586485" lat="49.457604" /><trkpt lon="15.584903" lat="49.458779" /><trkpt lon="15.580309" lat="49.463431" /><trkpt lon="15.578512" lat="49.464968" /><trkpt lon="15.576047" lat="49.466371" /><trkpt lon="15.571454" lat="49.468209" /><trkpt lon="15.569341" lat="49.469466" /><trkpt lon="15.567809" lat="49.470858" /><trkpt lon="15.5655" lat="49.474218" /><trkpt lon="15.564675" lat="49.475161" /><trkpt lon="15.562665" lat="49.476696" /><trkpt lon="15.559906" lat="49.477975" /><trkpt lon="15.557069" lat="49.478707" /><trkpt lon="15.540919" lat="49.481131" /><trkpt lon="15.534299" lat="49.482344" /><trkpt lon="15.529925" lat="49.483427" /><trkpt lon="15.513119" lat="49.488094" /><trkpt lon="15.491916" lat="49.492858" /><trkpt lon="15.488705" lat="49.493754" /><trkpt lon="15.485333" lat="49.494946" /><trkpt lon="15.482348" lat="49.4963" /><trkpt lon="15.478524" lat="49.498535" /><trkpt lon="15.476385" lat="49.500128" /><trkpt lon="15.472548" lat="49.503396" /><trkpt lon="15.466129" lat="49.507625" /><trkpt lon="15.463895" lat="49.509576" /><trkpt lon="15.460569" lat="49.513599" /><trkpt lon="15.458794" lat="49.515134" /><trkpt lon="15.456159" lat="49.516617" /><trkpt lon="15.453487" lat="49.517572" /><trkpt lon="15.45" lat="49.518239" /><trkpt lon="15.44661" lat="49.51835" /><trkpt lon="15.444398" lat="49.518157" /><trkpt lon="15.438064" lat="49.517093" /><trkpt lon="15.429388" lat="49.516485" /><trkpt lon="15.419486" lat="49.515228" /><trkpt lon="15.414211" lat="49.514998" /><trkpt lon="15.409846" lat="49.515174" /><trkpt lon="15.405283" lat="49.515728" /><trkpt lon="15.399777" lat="49.516938" /><trkpt lon="15.385042" lat="49.521893" /><trkpt lon="15.381441" lat="49.522905" /><trkpt lon="15.378051" lat="49.523657" /><trkpt lon="15.374231" lat="49.524272" /><trkpt lon="15.370175" lat="49.524704" /><trkpt lon="15.35283" lat="49.525794" /><trkpt lon="15.347972" lat="49.526715" /><trkpt lon="15.34409" lat="49.527971" /><trkpt lon="15.341297" lat="49.529246" /><trkpt lon="15.3387" lat="49.530801" /><trkpt lon="15.336513" lat="49.532504" /><trkpt lon="15.334315" lat="49.53485" /><trkpt lon="15.33304" lat="49.536776" /><trkpt lon="15.332081" lat="49.538799" /><trkpt lon="15.329721" lat="49.546916" /><trkpt lon="15.328095" lat="49.550487" /><trkpt lon="15.326861" lat="49.552243" /><trkpt lon="15.324839" lat="49.554396" /><trkpt lon="15.323072" lat="49.555811" /><trkpt lon="15.3211" lat="49.557116" /><trkpt lon="15.318667" lat="49.558421" /><trkpt lon="15.31649" lat="49.559359" /><trkpt lon="15.312239" lat="49.560699" /><trkpt lon="15.307823" lat="49.561532" /><trkpt lon="15.299694" lat="49.562349" /><trkpt lon="15.296494" lat="49.562932" /><trkpt lon="15.294384" lat="49.5635" /><trkpt lon="15.290301" lat="49.564952" /><trkpt lon="15.283948" lat="49.567897" /><trkpt lon="15.275034" lat="49.571155" /><trkpt lon="15.272588" lat="49.572394" /><trkpt lon="15.269928" lat="49.574125" /><trkpt lon="15.268065" lat="49.575663" /><trkpt lon="15.259891" lat="49.583174" /><trkpt lon="15.256456" lat="49.585753" /><trkpt lon="15.252926" lat="49.587623" /><trkpt lon="15.244794" lat="49.591007" /><trkpt lon="15.23582" lat="49.595888" /><trkpt lon="15.231147" lat="49.597869" /><trkpt lon="15.226536" lat="49.599011" /><trkpt lon="15.223888" lat="49.599269" /><trkpt lon="15.221633" lat="49.599247" /><trkpt lon="15.21949" lat="49.599002" /><trkpt lon="15.217305" lat="49.598503" /><trkpt lon="15.212904" lat="49.596937" /><trkpt lon="15.210591" lat="49.596378" /><trkpt lon="15.207174" lat="49.596066" /><trkpt lon="15.20374" lat="49.596323" /><trkpt lon="15.200306" lat="49.597217" /><trkpt lon="15.194781" lat="49.59966" /><trkpt lon="15.18769" lat="49.601407" /><trkpt lon="15.177561" lat="49.60473" /><trkpt lon="15.17237" lat="49.605785" /><trkpt lon="15.146017" lat="49.610132" /><trkpt lon="15.143309" lat="49.610844" /><trkpt lon="15.140899" lat="49.611892" /><trkpt lon="15.138634" lat="49.613467" /><trkpt lon="15.136981" lat="49.615396" /><trkpt lon="15.131416" lat="49.626874" /><trkpt lon="15.129288" lat="49.631677" /><trkpt lon="15.128113" lat="49.635277" /><trkpt lon="15.115798" lat="49.677599" /><trkpt lon="15.115052" lat="49.679426" /><trkpt lon="15.113569" lat="49.68161" /><trkpt lon="15.111222" lat="49.68382" /><trkpt lon="15.108103" lat="49.685767" /><trkpt lon="15.105577" lat="49.686866" /><trkpt lon="15.096949" lat="49.689845" /><trkpt lon="15.095336" lat="49.690691" /><trkpt lon="15.093687" lat="49.691918" /><trkpt lon="15.092501" lat="49.693218" /><trkpt lon="15.091688" lat="49.69463" /><trkpt lon="15.091329" lat="49.695878" /><trkpt lon="15.090769" lat="49.699628" /><trkpt lon="15.089856" lat="49.701944" /><trkpt lon="15.088995" lat="49.703225" /><trkpt lon="15.087856" lat="49.704471" /><trkpt lon="15.086296" lat="49.705757" /><trkpt lon="15.084737" lat="49.706755" /><trkpt lon="15.082092" lat="49.707988" /><trkpt lon="15.079734" lat="49.708757" /><trkpt lon="15.058466" lat="49.714063" /><trkpt lon="15.056377" lat="49.714914" /><trkpt lon="15.053849" lat="49.716524" /><trkpt lon="15.052676" lat="49.717653" /><trkpt lon="15.051767" lat="49.718916" /><trkpt lon="15.04046" lat="49.737629" /><trkpt lon="15.039411" lat="49.739063" /><trkpt lon="15.037158" lat="49.741255" /><trkpt lon="15.032574" lat="49.744318" /><trkpt lon="15.031051" lat="49.745508" /><trkpt lon="15.027435" lat="49.749492" /><trkpt lon="15.025894" lat="49.750845" /><trkpt lon="15.023679" lat="49.752089" /><trkpt lon="15.021489" lat="49.752884" /><trkpt lon="15.018536" lat="49.75343" /><trkpt lon="15.016214" lat="49.753523" /><trkpt lon="15.014267" lat="49.753394" /><trkpt lon="15.012209" lat="49.753032" /><trkpt lon="15.003054" lat="49.750618" /><trkpt lon="14.998487" lat="49.749809" /><trkpt lon="14.992938" lat="49.749447" /><trkpt lon="14.99042" lat="49.749502" /><trkpt lon="14.986677" lat="49.749836" /><trkpt lon="14.982163" lat="49.750664" /><trkpt lon="14.976658" lat="49.752388" /><trkpt lon="14.973454" lat="49.753887" /><trkpt lon="14.968614" lat="49.75676" /><trkpt lon="14.966323" lat="49.757757" /><trkpt lon="14.963922" lat="49.758392" /><trkpt lon="14.958601" lat="49.759291" /><trkpt lon="14.955932" lat="49.760206" /><trkpt lon="14.953987" lat="49.761302" /><trkpt lon="14.952674" lat="49.762381" /><trkpt lon="14.951594" lat="49.763698" /><trkpt lon="14.950069" lat="49.766088" /><trkpt lon="14.948609" lat="49.767569" /><trkpt lon="14.938971" lat="49.773575" /><trkpt lon="14.936941" lat="49.775303" /><trkpt lon="14.927048" lat="49.788339" /><trkpt lon="14.926118" lat="49.789811" /><trkpt lon="14.924268" lat="49.793558" /><trkpt lon="14.923299" lat="49.794707" /><trkpt lon="14.922353" lat="49.795519" /><trkpt lon="14.920618" lat="49.796603" /><trkpt lon="14.91874" lat="49.797439" /><trkpt lon="14.889674" lat="49.808682" /><trkpt lon="14.884293" lat="49.811226" /><trkpt lon="14.88142" lat="49.813018" /><trkpt lon="14.878468" lat="49.815352" /><trkpt lon="14.865475" lat="49.82774" /><trkpt lon="14.863602" lat="49.829163" /><trkpt lon="14.860955" lat="49.830737" /><trkpt lon="14.856368" lat="49.832703" /><trkpt lon="14.850494" lat="49.834244" /><trkpt lon="14.824457" lat="49.839742" /><trkpt lon="14.820437" lat="49.840338" /><trkpt lon="14.805873" lat="49.841889" /><trkpt lon="14.803024" lat="49.842668" /><trkpt lon="14.800948" lat="49.843644" /><trkpt lon="14.799644" lat="49.844526" /><trkpt lon="14.798648" lat="49.845436" /><trkpt lon="14.797351" lat="49.847309" /><trkpt lon="14.796833" lat="49.849354" /><trkpt lon="14.797141" lat="49.853193" /><trkpt lon="14.79694" lat="49.854677" /><trkpt lon="14.796513" lat="49.855839" /><trkpt lon="14.795958" lat="49.856795" /><trkpt lon="14.794494" lat="49.858457" /><trkpt lon="14.793009" lat="49.859581" /><trkpt lon="14.787894" lat="49.862863" /><trkpt lon="14.782648" lat="49.867185" /><trkpt lon="14.780986" lat="49.868215" /><trkpt lon="14.777594" lat="49.869534" /><trkpt lon="14.771322" lat="49.870803" /><trkpt lon="14.767777" lat="49.871859" /><trkpt lon="14.764691" lat="49.873168" /><trkpt lon="14.761446" lat="49.875095" /><trkpt lon="14.75957" lat="49.876801" /><trkpt lon="14.758006" lat="49.878983" /><trkpt lon="14.75731" lat="49.880692" /><trkpt lon="14.756232" lat="49.885528" /><trkpt lon="14.755638" lat="49.886811" /><trkpt lon="14.754722" lat="49.888099" /><trkpt lon="14.753051" lat="49.889691" /><trkpt lon="14.747406" lat="49.893689" /><trkpt lon="14.744966" lat="49.89568" /><trkpt lon="14.734866" lat="49.905151" /><trkpt lon="14.732833" lat="49.906847" /><trkpt lon="14.729967" lat="49.908611" /><trkpt lon="14.727469" lat="49.909718" /><trkpt lon="14.723732" lat="49.91085" /><trkpt lon="14.716157" lat="49.912507" /><trkpt lon="14.71394" lat="49.913325" /><trkpt lon="14.711458" lat="49.914622" /><trkpt lon="14.710053" lat="49.915606" /><trkpt lon="14.708588" lat="49.91691" /><trkpt lon="14.702" lat="49.924504" /><trkpt lon="14.698406" lat="49.927818" /><trkpt lon="14.693524" lat="49.931566" /><trkpt lon="14.685578" lat="49.936292" /><trkpt lon="14.681565" lat="49.937819" /><trkpt lon="14.650407" lat="49.946271" /><trkpt lon="14.64816" lat="49.947064" /><trkpt lon="14.646597" lat="49.947866" /><trkpt lon="14.644985" lat="49.94896" /><trkpt lon="14.621145" lat="49.968607" /><trkpt lon="14.617685" lat="49.971747" /><trkpt lon="14.60996" lat="49.978169" /><trkpt lon="14.60931" lat="49.979196" /><trkpt lon="14.609094" lat="49.981203" /><trkpt lon="14.608637" lat="49.981886" /><trkpt lon="14.607876" lat="49.982413" /><trkpt lon="14.606216" lat="49.982874" /><trkpt lon="14.604309" lat="49.982708" /><trkpt lon="14.602919" lat="49.982016" /><trkpt lon="14.601417" lat="49.979789" /><trkpt lon="14.600171" lat="49.979028" /><trkpt lon="14.591644" lat="49.97673" /><trkpt lon="14.567889" lat="49.970754" /><trkpt lon="14.563354" lat="49.969179" /><trkpt lon="14.551591" lat="49.964401" /><trkpt lon="14.547805" lat="49.963259" /><trkpt lon="14.545107" lat="49.962783" /><trkpt lon="14.541867" lat="49.962528" /><trkpt lon="14.531951" lat="49.96278" /><trkpt lon="14.526866" lat="49.962611" /><trkpt lon="14.522171" lat="49.96209" /><trkpt lon="14.514432" lat="49.960783" /><trkpt lon="14.511239" lat="49.960593" /><trkpt lon="14.507599" lat="49.960824" /><trkpt lon="14.504354" lat="49.961463" /><trkpt lon="14.50164" lat="49.962363" /><trkpt lon="14.498751" lat="49.963818" /><trkpt lon="14.497081" lat="49.964995" /><trkpt lon="14.495043" lat="49.967092" /><trkpt lon="14.494497" lat="49.96786" /><trkpt lon="14.491854" lat="49.972839" /><trkpt lon="14.490807" lat="49.974218" /><trkpt lon="14.489565" lat="49.975418" /><trkpt lon="14.487747" lat="49.976756" /><trkpt lon="14.485749" lat="49.977842" /><trkpt lon="14.483447" lat="49.978762" /><trkpt lon="14.480743" lat="49.9795" /><trkpt lon="14.478136" lat="49.979922" /><trkpt lon="14.475382" lat="49.980094" /><trkpt lon="14.461978" lat="49.979611" /><trkpt lon="14.454526" lat="49.979816" /><trkpt lon="14.449584" lat="49.980242" /><trkpt lon="14.435858" lat="49.981894" /><trkpt lon="14.429389" lat="49.982358" /><trkpt lon="14.426308" lat="49.982264" /><trkpt lon="14.416954" lat="49.981375" /><trkpt lon="14.414606" lat="49.981281" /><trkpt lon="14.409847" lat="49.981502" /><trkpt lon="14.40584" lat="49.982113" /><trkpt lon="14.401498" lat="49.983317" /><trkpt lon="14.377713" lat="49.992666" /><trkpt lon="14.376174" lat="49.993548" /><trkpt lon="14.374982" lat="49.99455" /><trkpt lon="14.372352" lat="49.997893" /><trkpt lon="14.371677" lat="49.998544" /><trkpt lon="14.370081" lat="49.999577" /><trkpt lon="14.368477" lat="50.00023" /><trkpt lon="14.366109" lat="50.000711" /><trkpt lon="14.363588" lat="50.000745" /><trkpt lon="14.354593" lat="49.99895" /><trkpt lon="14.351963" lat="49.998742" /><trkpt lon="14.34875" lat="49.999088" /><trkpt lon="14.3469" lat="49.999624" /><trkpt lon="14.345609" lat="50.000192" /><trkpt lon="14.344361" lat="50.000951" /><trkpt lon="14.343325" lat="50.001828" /><trkpt lon="14.342625" lat="50.002666" /><trkpt lon="14.34199" lat="50.003874" /><trkpt lon="14.341711" lat="50.005125" /><trkpt lon="14.341094" lat="50.011741" /><trkpt lon="14.340375" lat="50.013984" /><trkpt lon="14.339428" lat="50.015651" /><trkpt lon="14.337892" lat="50.017491" /><trkpt lon="14.336043" lat="50.019083" /><trkpt lon="14.333717" lat="50.020554" /><trkpt lon="14.331276" lat="50.021693" /><trkpt lon="14.327679" lat="50.02284" /><trkpt lon="14.323556" lat="50.023555" /><trkpt lon="14.299251" lat="50.025078" /><trkpt lon="14.296271" lat="50.025389" /><trkpt lon="14.293281" lat="50.025984" /><trkpt lon="14.29051" lat="50.026909" /><trkpt lon="14.288758" lat="50.027736" /><trkpt lon="14.281678" lat="50.032501" /><trkpt lon="14.275866" lat="50.035063" /><trkpt lon="14.274343" lat="50.035905" /><trkpt lon="14.273178" lat="50.036748" /><trkpt lon="14.271942" lat="50.037959" /><trkpt lon="14.271103" lat="50.039145" /><trkpt lon="14.270515" lat="50.040477" /><trkpt lon="14.270255" lat="50.041818" /><trkpt lon="14.2703" lat="50.043088" /><trkpt lon="14.270585" lat="50.044234" /><trkpt lon="14.271319" lat="50.045698" /><trkpt lon="14.272245" lat="50.046516" /><trkpt lon="14.274602" lat="50.047509" /><trkpt lon="14.275629" lat="50.048686" /><trkpt lon="14.276156" lat="50.049619" /><trkpt lon="14.276553" lat="50.051782" /><trkpt lon="14.277353" lat="50.053685" /><trkpt lon="14.278439" lat="50.053877" /><trkpt lon="14.278892" lat="50.053598" /><trkpt lon="14.280399" lat="50.053967" /><trkpt lon="14.286059" lat="50.05621" /><trkpt lon="14.287056" lat="50.056254" /><trkpt lon="14.288109" lat="50.055731" /><trkpt lon="14.288794" lat="50.05506" /><trkpt lon="14.288054" lat="50.054796" /><trkpt lon="14.287643" lat="50.054895" /><trkpt lon="14.287623" lat="50.055129" /><trkpt lon="14.287794" lat="50.055251" /><trkpt lon="14.288287" lat="50.055176" /><trkpt lon="14.290089" lat="50.053097" /><trkpt lon="14.28868" lat="50.052467" /><trkpt lon="14.288573" lat="50.052584" /><trkpt lon="14.289374" lat="50.053076" /><trkpt lon="14.288342" lat="50.052817" /><trkpt lon="14.288115" lat="50.053041" /><trkpt lon="14.287893" lat="50.052949" /><trkpt lon="14.288764" lat="50.052064" /><trkpt lon="14.290459" lat="50.052733" /><trkpt lon="14.288287" lat="50.055176" /><trkpt lon="14.287794" lat="50.055251" /><trkpt lon="14.287596" lat="50.055036" /><trkpt lon="14.287807" lat="50.054811" /><trkpt lon="14.288794" lat="50.05506" /><trkpt lon="14.291095" lat="50.05264" /><trkpt lon="14.291076" lat="50.052426" /><trkpt lon="14.289228" lat="50.051352" /><trkpt lon="14.278285" lat="50.049529" /><trkpt lon="14.274789" lat="50.049156" /><trkpt lon="14.262848" lat="50.04868" /><trkpt lon="14.258748" lat="50.048207" /><trkpt lon="14.253755" lat="50.047311" /><trkpt lon="14.247073" lat="50.045584" /><trkpt lon="14.235029" lat="50.041841" /><trkpt lon="14.226276" lat="50.038802" /><trkpt lon="14.220223" lat="50.036267" /><trkpt lon="14.215287" lat="50.033623" /><trkpt lon="14.210314" lat="50.030227" /><trkpt lon="14.206726" lat="50.027119" /><trkpt lon="14.199807" lat="50.020475" /><trkpt lon="14.197129" lat="50.018331" /><trkpt lon="14.194503" lat="50.016503" /><trkpt lon="14.189124" lat="50.013366" /><trkpt lon="14.176593" lat="50.007404" /><trkpt lon="14.172546" lat="50.004878" /><trkpt lon="14.170775" lat="50.003469" /><trkpt lon="14.16873" lat="50.001507" /><trkpt lon="14.164064" lat="49.995999" /><trkpt lon="14.162445" lat="49.994617" /><trkpt lon="14.160765" lat="49.993558" /><trkpt lon="14.159214" lat="49.992856" /><trkpt lon="14.156984" lat="49.992136" /><trkpt lon="14.147476" lat="49.99028" /><trkpt lon="14.143482" lat="49.989063" /><trkpt lon="14.140555" lat="49.987496" /><trkpt lon="14.134527" lat="49.982958" /><trkpt lon="14.132445" lat="49.981854" /><trkpt lon="14.130669" lat="49.981157" /><trkpt lon="14.127191" lat="49.980274" /><trkpt lon="14.117865" lat="49.978723" /><trkpt lon="14.114545" lat="49.977796" /><trkpt lon="14.111973" lat="49.976836" /><trkpt lon="14.10969" lat="49.975811" /><trkpt lon="14.106364" lat="49.974032" /><trkpt lon="14.096181" lat="49.967486" /><trkpt lon="14.093424" lat="49.965871" /><trkpt lon="14.089264" lat="49.963782" /><trkpt lon="14.084749" lat="49.96193" /><trkpt lon="14.080885" lat="49.960628" /><trkpt lon="14.077213" lat="49.959599" /><trkpt lon="14.062346" lat="49.956362" /><trkpt lon="14.055053" lat="49.954426" /><trkpt lon="14.047813" lat="49.951933" /><trkpt lon="14.041011" lat="49.949025" /><trkpt lon="14.033602" lat="49.945053" /><trkpt lon="14.027217" lat="49.94076" /><trkpt lon="14.0226" lat="49.936965" /><trkpt lon="14.013017" lat="49.927726" /><trkpt lon="14.008958" lat="49.924162" /><trkpt lon="14.004258" lat="49.920738" /><trkpt lon="13.999729" lat="49.918045" /><trkpt lon="13.995324" lat="49.915761" /><trkpt lon="13.989262" lat="49.91305" /><trkpt lon="13.968433" lat="49.905243" /><trkpt lon="13.96346" lat="49.902904" /><trkpt lon="13.954567" lat="49.898273" /><trkpt lon="13.94802" lat="49.895326" /><trkpt lon="13.944176" lat="49.893908" /><trkpt lon="13.939484" lat="49.892457" /><trkpt lon="13.925479" lat="49.888975" /><trkpt lon="13.920661" lat="49.88701" /><trkpt lon="13.918827" lat="49.885984" /><trkpt lon="13.915933" lat="49.884" /><trkpt lon="13.904368" lat="49.873813" /><trkpt lon="13.89637" lat="49.867883" /><trkpt lon="13.890729" lat="49.864272" /><trkpt lon="13.88595" lat="49.861514" /><trkpt lon="13.880583" lat="49.858694" /><trkpt lon="13.874467" lat="49.855808" /><trkpt lon="13.86677" lat="49.852617" /><trkpt lon="13.859618" lat="49.850048" /><trkpt lon="13.851221" lat="49.847458" /><trkpt lon="13.843582" lat="49.845474" /><trkpt lon="13.838512" lat="49.844341" /><trkpt lon="13.830589" lat="49.842835" /><trkpt lon="13.793496" lat="49.837241" /><trkpt lon="13.789509" lat="49.836346" /><trkpt lon="13.786165" lat="49.835079" /><trkpt lon="13.783439" lat="49.833534" /><trkpt lon="13.781548" lat="49.832036" /><trkpt lon="13.776911" lat="49.826822" /><trkpt lon="13.773655" lat="49.823899" /><trkpt lon="13.770415" lat="49.821708" /><trkpt lon="13.765018" lat="49.818625" /><trkpt lon="13.76377" lat="49.817769" /><trkpt lon="13.762063" lat="49.816281" /><trkpt lon="13.760837" lat="49.814893" /><trkpt lon="13.759489" lat="49.812704" /><trkpt lon="13.756833" lat="49.806471" /><trkpt lon="13.755831" lat="49.804629" /><trkpt lon="13.754382" lat="49.802843" /><trkpt lon="13.752452" lat="49.80114" /><trkpt lon="13.750223" lat="49.799706" /><trkpt lon="13.748024" lat="49.798644" /><trkpt lon="13.731601" lat="49.792646" /><trkpt lon="13.726945" lat="49.790729" /><trkpt lon="13.72238" lat="49.7885" /><trkpt lon="13.715216" lat="49.784554" /><trkpt lon="13.712867" lat="49.783549" /><trkpt lon="13.709149" lat="49.782487" /><trkpt lon="13.705373" lat="49.781923" /><trkpt lon="13.694826" lat="49.781806" /><trkpt lon="13.688134" lat="49.781153" /><trkpt lon="13.679186" lat="49.77956" /><trkpt lon="13.670861" lat="49.77742" /><trkpt lon="13.664177" lat="49.775188" /><trkpt lon="13.656636" lat="49.772009" /><trkpt lon="13.65196" lat="49.769597" /><trkpt lon="13.64361" lat="49.764523" /><trkpt lon="13.639286" lat="49.762369" /><trkpt lon="13.634902" lat="49.760675" /><trkpt lon="13.628979" lat="49.759009" /><trkpt lon="13.623417" lat="49.757997" /><trkpt lon="13.576396" lat="49.752476" /><trkpt lon="13.56957" lat="49.751381" /><trkpt lon="13.563758" lat="49.750101" /><trkpt lon="13.55645" lat="49.747981" /><trkpt lon="13.552298" lat="49.746528" /><trkpt lon="13.542933" lat="49.74269" /><trkpt lon="13.536436" lat="49.74073" /><trkpt lon="13.529221" lat="49.739347" /><trkpt lon="13.518649" lat="49.738304" /><trkpt lon="13.515956" lat="49.737892" /><trkpt lon="13.513001" lat="49.73722" /><trkpt lon="13.510559" lat="49.736467" /><trkpt lon="13.50722" lat="49.735106" /><trkpt lon="13.50022" lat="49.73124" /><trkpt lon="13.497714" lat="49.730106" /><trkpt lon="13.495573" lat="49.729397" /><trkpt lon="13.491067" lat="49.728568" /><trkpt lon="13.483753" lat="49.72817" /><trkpt lon="13.478773" lat="49.727406" /><trkpt lon="13.47077" lat="49.7252" /><trkpt lon="13.464235" lat="49.722785" /><trkpt lon="13.461299" lat="49.721405" /><trkpt lon="13.459054" lat="49.720138" /><trkpt lon="13.451474" lat="49.71511" /><trkpt lon="13.442178" lat="49.710497" /><trkpt lon="13.43803" lat="49.70789" /><trkpt lon="13.435892" lat="49.70617" /><trkpt lon="13.434788" lat="49.705747" /><trkpt lon="13.432987" lat="49.705796" /><trkpt lon="13.42529" lat="49.707772" /><trkpt lon="13.422118" lat="49.709291" /><trkpt lon="13.420444" lat="49.710468" /><trkpt lon="13.418734" lat="49.711937" /><trkpt lon="13.417946" lat="49.712742" /><trkpt lon="13.417385" lat="49.71373" /><trkpt lon="13.417234" lat="49.714424" /><trkpt lon="13.417259" lat="49.717361" /><trkpt lon="13.417057" lat="49.719031" /><trkpt lon="13.416236" lat="49.720677" /><trkpt lon="13.416154" lat="49.721517" /><trkpt lon="13.415693" lat="49.721865" /><trkpt lon="13.415341" lat="49.722841" /><trkpt lon="13.408854" lat="49.721902" /><trkpt lon="13.40634" lat="49.721226" /><trkpt lon="13.403719" lat="49.720271" /><trkpt lon="13.399412" lat="49.724823" /><trkpt lon="13.397064" lat="49.725038" /><trkpt lon="13.393405" lat="49.724689" /><trkpt lon="13.390754" lat="49.725252" /><trkpt lon="13.387699" lat="49.72547" /><trkpt lon="13.387269" lat="49.724487" /><trkpt lon="13.387222" lat="49.722387" /><trkpt lon="13.386987" lat="49.721709" /><trkpt lon="13.385702" lat="49.720776" /><trkpt lon="13.38549" lat="49.721026" /><trkpt lon="13.383915" lat="49.721111" /></trkseg></trk></gpx>