<?xml version='1.0' encoding='utf-8'?>
<gpx xmlns="http://www.topografix.com/GPX/1/1" version="1.1" creator="Yatutbuv"><trk><trkseg><trkpt lon="12.821111" lat="45.57742" /><trkpt lon="12.821004" lat="45.577191" /><trkpt lon="12.821116" lat="45.577165" /><trkpt lon="12.822884" lat="45.580942" /><trkpt lon="12.823134" lat="45.581207" /><trkpt lon="12.824312" lat="45.581477" /><trkpt lon="12.827018" lat="45.580852" /><trkpt lon="12.828046" lat="45.58105" /><trkpt lon="12.82815" lat="45.581349" /><trkpt lon="12.827456" lat="45.581601" /><trkpt lon="12.827354" lat="45.581996" /><trkpt lon="12.827768" lat="45.582651" /><trkpt lon="12.828127" lat="45.58288" /><trkpt lon="12.836478" lat="45.585334" /><trkpt lon="12.852675" lat="45.591263" /><trkpt lon="12.85301" lat="45.591309" /><trkpt lon="12.853512" lat="45.591116" /><trkpt lon="12.853709" lat="45.591238" /><trkpt lon="12.853792" lat="45.591567" /><trkpt lon="12.854206" lat="45.591847" /><trkpt lon="12.860275" lat="45.594356" /><trkpt lon="12.872664" lat="45.603231" /><trkpt lon="12.873244" lat="45.60384" /><trkpt lon="12.87496" lat="45.606404" /><trkpt lon="12.875341" lat="45.60666" /><trkpt lon="12.875357" lat="45.60702" /><trkpt lon="12.875958" lat="45.607923" /><trkpt lon="12.876694" lat="45.608222" /><trkpt lon="12.86079" lat="45.629422" /><trkpt lon="12.859355" lat="45.632255" /><trkpt lon="12.858627" lat="45.633217" /><trkpt lon="12.857537" lat="45.634108" /><trkpt lon="12.8563" lat="45.634761" /><trkpt lon="12.846998" lat="45.637781" /><trkpt lon="12.844953" lat="45.638943" /><trkpt lon="12.844215" lat="45.639737" /><trkpt lon="12.843699" lat="45.640668" /><trkpt lon="12.843314" lat="45.641979" /><trkpt lon="12.843432" lat="45.642073" /><trkpt lon="12.843326" lat="45.642217" /><trkpt lon="12.843437" lat="45.642724" /><trkpt lon="12.843301" lat="45.644931" /><trkpt lon="12.842985" lat="45.645843" /><trkpt lon="12.842361" lat="45.646765" /><trkpt lon="12.841191" lat="45.647787" /><trkpt lon="12.83079" lat="45.654809" /><trkpt lon="12.851547" lat="45.672165" /><trkpt lon="12.852021" lat="45.673047" /><trkpt lon="12.852011" lat="45.673547" /><trkpt lon="12.846969" lat="45.685525" /><trkpt lon="12.846372" lat="45.686292" /><trkpt lon="12.84464" lat="45.687298" /><trkpt lon="12.844948" lat="45.693701" /><trkpt lon="12.845155" lat="45.694464" /><trkpt lon="12.845707" lat="45.695426" /><trkpt lon="12.846922" lat="45.696404" /><trkpt lon="12.855626" lat="45.701025" /><trkpt lon="12.857548" lat="45.701847" /><trkpt lon="12.883992" lat="45.709238" /><trkpt lon="12.916418" lat="45.722217" /><trkpt lon="12.955915" lat="45.733062" /><trkpt lon="12.95656" lat="45.733047" /><trkpt lon="12.956917" lat="45.73336" /><trkpt lon="12.960052" lat="45.73447" /><trkpt lon="12.966025" lat="45.736249" /><trkpt lon="12.971146" lat="45.738579" /><trkpt lon="12.983137" lat="45.746709" /><trkpt lon="12.988511" lat="45.747813" /><trkpt lon="12.990407" lat="45.74795" /><trkpt lon="12.99046" lat="45.748135" /><trkpt lon="12.989996" lat="45.748766" /><trkpt lon="12.985784" lat="45.761582" /><trkpt lon="12.985096" lat="45.765686" /><trkpt lon="12.984631" lat="45.769199" /><trkpt lon="12.984727" lat="45.769434" /><trkpt lon="12.985211" lat="45.769755" /><trkpt lon="12.985895" lat="45.769815" /><trkpt lon="12.988423" lat="45.769523" /><trkpt lon="12.99073" lat="45.769031" /><trkpt lon="12.992181" lat="45.768937" /><trkpt lon="12.993885" lat="45.769264" /><trkpt lon="12.99803" lat="45.770509" /><trkpt lon="12.998327" lat="45.770711" /><trkpt lon="12.998376" lat="45.770987" /><trkpt lon="12.997721" lat="45.772194" /><trkpt lon="12.998932" lat="45.772555" /><trkpt lon="13.000727" lat="45.77353" /><trkpt lon="13.003527" lat="45.774456" /><trkpt lon="13.003264" lat="45.775666" /><trkpt lon="13.003566" lat="45.775842" /><trkpt lon="13.008503" lat="45.775557" /><trkpt lon="13.012136" lat="45.774741" /><trkpt lon="13.019273" lat="45.77191" /><trkpt lon="13.023155" lat="45.773386" /><trkpt lon="13.022657" lat="45.773868" /><trkpt lon="13.022008" lat="45.776249" /><trkpt lon="13.02149" lat="45.780348" /><trkpt lon="13.021556" lat="45.782247" /><trkpt lon="13.022158" lat="45.78469" /><trkpt lon="13.024786" lat="45.790642" /><trkpt lon="13.024856" lat="45.79169" /><trkpt lon="13.023546" lat="45.796932" /><trkpt lon="13.022122" lat="45.799915" /><trkpt lon="13.021559" lat="45.801791" /><trkpt lon="13.02158" lat="45.80501" /><trkpt lon="13.022093" lat="45.806276" /><trkpt lon="13.021993" lat="45.807164" /><trkpt lon="13.021068" lat="45.808354" /><trkpt lon="13.019629" lat="45.811898" /><trkpt lon="13.017913" lat="45.815093" /><trkpt lon="13.017684" lat="45.816263" /><trkpt lon="13.017791" lat="45.81669" /><trkpt lon="13.018145" lat="45.817134" /><trkpt lon="13.019424" lat="45.817617" /><trkpt lon="13.028956" lat="45.818495" /><trkpt lon="13.032798" lat="45.819058" /><trkpt lon="13.045497" lat="45.822575" /><trkpt lon="13.052183" lat="45.824081" /><trkpt lon="13.104604" lat="45.83172" /><trkpt lon="13.111587" lat="45.833103" /><trkpt lon="13.115227" lat="45.834091" /><trkpt lon="13.17523" lat="45.853728" /><trkpt lon="13.216721" lat="45.866301" /><trkpt lon="13.25811" lat="45.881541" /><trkpt lon="13.263228" lat="45.883867" /><trkpt lon="13.283021" lat="45.894529" /><trkpt lon="13.285345" lat="45.895622" /><trkpt lon="13.287964" lat="45.896189" /><trkpt lon="13.290064" lat="45.896177" /><trkpt lon="13.292193" lat="45.895882" /><trkpt lon="13.31576" lat="45.890767" /><trkpt lon="13.398148" lat="45.870311" /><trkpt lon="13.402058" lat="45.869051" /><trkpt lon="13.433185" lat="45.856267" /><trkpt lon="13.436529" lat="45.855444" /><trkpt lon="13.457242" lat="45.852377" /><trkpt lon="13.460997" lat="45.851566" /><trkpt lon="13.464092" lat="45.850469" /><trkpt lon="13.481906" lat="45.843163" /><trkpt lon="13.483641" lat="45.842623" /><trkpt lon="13.485729" lat="45.842244" /><trkpt lon="13.487906" lat="45.842142" /><trkpt lon="13.489743" lat="45.842278" /><trkpt lon="13.494053" lat="45.843012" /><trkpt lon="13.497551" lat="45.843174" /><trkpt lon="13.500605" lat="45.842754" /><trkpt lon="13.506215" lat="45.841318" /><trkpt lon="13.509028" lat="45.839897" /><trkpt lon="13.511495" lat="45.837922" /><trkpt lon="13.513258" lat="45.835707" /><trkpt lon="13.515242" lat="45.832237" /><trkpt lon="13.517261" lat="45.830078" /><trkpt lon="13.518666" lat="45.82906" /><trkpt lon="13.522584" lat="45.826781" /><trkpt lon="13.526839" lat="45.823172" /><trkpt lon="13.530243" lat="45.821063" /><trkpt lon="13.534067" lat="45.819428" /><trkpt lon="13.544474" lat="45.816086" /><trkpt lon="13.547874" lat="45.815597" /><trkpt lon="13.550138" lat="45.815554" /><trkpt lon="13.55375" lat="45.815763" /><trkpt lon="13.556545" lat="45.81533" /><trkpt lon="13.558806" lat="45.814272" /><trkpt lon="13.562346" lat="45.811287" /><trkpt lon="13.564262" lat="45.810158" /><trkpt lon="13.566258" lat="45.809502" /><trkpt lon="13.572212" lat="45.808379" /><trkpt lon="13.573883" lat="45.807754" /><trkpt lon="13.575096" lat="45.807062" /><trkpt lon="13.578076" lat="45.804826" /><trkpt lon="13.581309" lat="45.802112" /><trkpt lon="13.587424" lat="45.793401" /><trkpt lon="13.588682" lat="45.792222" /><trkpt lon="13.591781" lat="45.790232" /><trkpt lon="13.593211" lat="45.789037" /><trkpt lon="13.599139" lat="45.780524" /><trkpt lon="13.600111" lat="45.779526" /><trkpt lon="13.601422" lat="45.778667" /><trkpt lon="13.602989" lat="45.778025" /><trkpt lon="13.604153" lat="45.777738" /><trkpt lon="13.614542" lat="45.775749" /><trkpt lon="13.632417" lat="45.774539" /><trkpt lon="13.63745" lat="45.774112" /><trkpt lon="13.639638" lat="45.773722" /><trkpt lon="13.640972" lat="45.773233" /><trkpt lon="13.642212" lat="45.772506" /><trkpt lon="13.647997" lat="45.767539" /><trkpt lon="13.650211" lat="45.766194" /><trkpt lon="13.652763" lat="45.76523" /><trkpt lon="13.664216" lat="45.761659" /><trkpt lon="13.668572" lat="45.760171" /><trkpt lon="13.67004" lat="45.759527" /><trkpt lon="13.671765" lat="45.758192" /><trkpt lon="13.675904" lat="45.75269" /><trkpt lon="13.677125" lat="45.751476" /><trkpt lon="13.679019" lat="45.749963" /><trkpt lon="13.691079" lat="45.74289" /><trkpt lon="13.725807" lat="45.720661" /><trkpt lon="13.728774" lat="45.718556" /><trkpt lon="13.728916" lat="45.718295" /><trkpt lon="13.72885" lat="45.717767" /><trkpt lon="13.72814" lat="45.717546" /><trkpt lon="13.727846" lat="45.714763" /><trkpt lon="13.728099" lat="45.714366" /><trkpt lon="13.729757" lat="45.709362" /><trkpt lon="13.730729" lat="45.70851" /><trkpt lon="13.73039" lat="45.708362" /><trkpt lon="13.730172" lat="45.708044" /><trkpt lon="13.731104" lat="45.70719" /><trkpt lon="13.732139" lat="45.705883" /><trkpt lon="13.733143" lat="45.703376" /><trkpt lon="13.734298" lat="45.701753" /><trkpt lon="13.7343" lat="45.701154" /><trkpt lon="13.734052" lat="45.700764" /><trkpt lon="13.73292" lat="45.700932" /><trkpt lon="13.732758" lat="45.700826" /><trkpt lon="13.734318" lat="45.700452" /><trkpt lon="13.734992" lat="45.700963" /><trkpt lon="13.735281" lat="45.700955" /><trkpt lon="13.736288" lat="45.700227" /><trkpt lon="13.737815" lat="45.69852" /><trkpt lon="13.739034" lat="45.697952" /><trkpt lon="13.741584" lat="45.696355" /><trkpt lon="13.743179" lat="45.694777" /><trkpt lon="13.744211" lat="45.693293" /><trkpt lon="13.74426" lat="45.692505" /><trkpt lon="13.744514" lat="45.691877" /><trkpt lon="13.745647" lat="45.691103" /><trkpt lon="13.744483" lat="45.691616" /><trkpt lon="13.744021" lat="45.692154" /><trkpt lon="13.743856" lat="45.692671" /><trkpt lon="13.744198" lat="45.691037" /><trkpt lon="13.746169" lat="45.689353" /><trkpt lon="13.749021" lat="45.687171" /><trkpt lon="13.749412" lat="45.687021" /><trkpt lon="13.749754" lat="45.686433" /><trkpt lon="13.750085" lat="45.686386" /><trkpt lon="13.749716" lat="45.685621" /><trkpt lon="13.74906" lat="45.685122" /><trkpt lon="13.752483" lat="45.681844" /><trkpt lon="13.754372" lat="45.679768" /><trkpt lon="13.75452" lat="45.679358" /><trkpt lon="13.75451" lat="45.676987" /><trkpt lon="13.755259" lat="45.675641" /><trkpt lon="13.757697" lat="45.672691" /><trkpt lon="13.75801" lat="45.671765" /><trkpt lon="13.759258" lat="45.669593" /><trkpt lon="13.759162" lat="45.669248" /><trkpt lon="13.759857" lat="45.669072" /><trkpt lon="13.761436" lat="45.667569" /><trkpt lon="13.762141" lat="45.667282" /><trkpt lon="13.763491" lat="45.665766" /><trkpt lon="13.765398" lat="45.665435" /><trkpt lon="13.766781" lat="45.66495" /><trkpt lon="13.769299" lat="45.663453" /><trkpt lon="13.772738" lat="45.65751" /><trkpt lon="13.772582" lat="45.657308" /><trkpt lon="13.771827" lat="45.657038" /><trkpt lon="13.769224" lat="45.652125" /><trkpt lon="13.768707" lat="45.651469" /><trkpt lon="13.77035" lat="45.650552" /><trkpt lon="13.774025" lat="45.649651" /><trkpt lon="13.773846" lat="45.649258" /><trkpt lon="13.774732" lat="45.649267" /><trkpt lon="13.775576" lat="45.649044" /><trkpt lon="13.776759" lat="45.64798" /><trkpt lon="13.775386" lat="45.648531" /><trkpt lon="13.774685" lat="45.648503" /><trkpt lon="13.773272" lat="45.647978" /><trkpt lon="13.771984" lat="45.647873" /><trkpt lon="13.771722" lat="45.647502" /><trkpt lon="13.771505" lat="45.647535" /><trkpt lon="13.771722" lat="45.647502" /><trkpt lon="13.771715" lat="45.646868" /><trkpt lon="13.77277" lat="45.64678" /><trkpt lon="13.772918" lat="45.646553" /><trkpt lon="13.772807" lat="45.646168" /><trkpt lon="13.773504" lat="45.645989" /><trkpt lon="13.77286" lat="45.645684" /><trkpt lon="13.778432" lat="45.644135" /><trkpt lon="13.781136" lat="45.641801" /><trkpt lon="13.781193" lat="45.641563" /><trkpt lon="13.781581" lat="45.64147" /><trkpt lon="13.783786" lat="45.639426" /><trkpt lon="13.784004" lat="45.639441" /><trkpt lon="13.784428" lat="45.640032" /><trkpt lon="13.785206" lat="45.639112" /><trkpt lon="13.787129" lat="45.637835" /><trkpt lon="13.787896" lat="45.63711" /><trkpt lon="13.791267" lat="45.636725" /><trkpt lon="13.796322" lat="45.63701" /><trkpt lon="13.801781" lat="45.637523" /><trkpt lon="13.804889" lat="45.638127" /><trkpt lon="13.80917" lat="45.638402" /><trkpt lon="13.811464" lat="45.638423" /><trkpt lon="13.812058" lat="45.638268" /><trkpt lon="13.817346" lat="45.637995" /><trkpt lon="13.824516" lat="45.636563" /><trkpt lon="13.830559" lat="45.635112" /><trkpt lon="13.83491" lat="45.63379" /><trkpt lon="13.836131" lat="45.633119" /><trkpt lon="13.838309" lat="45.633385" /><trkpt lon="13.840521" lat="45.633117" /><trkpt lon="13.840289" lat="45.633589" /><trkpt lon="13.838471" lat="45.634785" /><trkpt lon="13.836147" lat="45.637994" /><trkpt lon="13.838959" lat="45.636158" /><trkpt lon="13.83992" lat="45.635945" /><trkpt lon="13.841726" lat="45.63602" /><trkpt lon="13.842719" lat="45.635728" /><trkpt lon="13.843278" lat="45.635206" /><trkpt lon="13.843622" lat="45.635104" /><trkpt lon="13.843952" lat="45.635371" /><trkpt lon="13.843765" lat="45.636633" /><trkpt lon="13.843941" lat="45.636992" /><trkpt lon="13.844344" lat="45.637293" /><trkpt lon="13.864586" lat="45.641963" /><trkpt lon="13.87246" lat="45.64602" /><trkpt lon="13.879049" lat="45.651891" /><trkpt lon="13.881325" lat="45.654926" /><trkpt lon="13.882092" lat="45.655424" /><trkpt lon="13.881606" lat="45.655601" /><trkpt lon="13.880984" lat="45.655591" /><trkpt lon="13.881017" lat="45.655426" /><trkpt lon="13.881784" lat="45.655347" /><trkpt lon="13.88117" lat="45.654737" /><trkpt lon="13.879296" lat="45.652166" /><trkpt lon="13.872632" lat="45.646153" /><trkpt lon="13.865467" lat="45.642382" /><trkpt lon="13.863935" lat="45.642722" /><trkpt lon="13.863572" lat="45.642978" /><trkpt lon="13.863247" lat="45.642934" /><trkpt lon="13.862883" lat="45.643598" /><trkpt lon="13.8627" lat="45.644495" /><trkpt lon="13.861562" lat="45.645255" /><trkpt lon="13.857371" lat="45.646907" /><trkpt lon="13.851912" lat="45.648614" /><trkpt lon="13.850336" lat="45.6493" /><trkpt lon="13.849679" lat="45.649845" /><trkpt lon="13.848328" lat="45.652431" /><trkpt lon="13.84275" lat="45.654873" /><trkpt lon="13.83986" lat="45.656761" /><trkpt lon="13.839166" lat="45.65768" /><trkpt lon="13.83884" lat="45.658799" /><trkpt lon="13.837739" lat="45.659389" /><trkpt lon="13.836526" lat="45.660479" /><trkpt lon="13.831707" lat="45.66571" /><trkpt lon="13.82897" lat="45.669056" /><trkpt lon="13.826823" lat="45.670845" /><trkpt lon="13.825461" lat="45.671655" /><trkpt lon="13.824814" lat="45.672631" /><trkpt lon="13.822465" lat="45.674197" /><trkpt lon="13.821181" lat="45.674822" /><trkpt lon="13.8207" lat="45.674572" /><trkpt lon="13.820105" lat="45.6745" /><trkpt lon="13.819183" lat="45.674854" /><trkpt lon="13.815717" lat="45.681169" /><trkpt lon="13.814247" lat="45.683174" /><trkpt lon="13.811229" lat="45.686769" /><trkpt lon="13.809305" lat="45.689602" /><trkpt lon="13.80692" lat="45.694806" /><trkpt lon="13.805671" lat="45.697005" /><trkpt lon="13.804717" lat="45.698193" /><trkpt lon="13.803381" lat="45.699315" /><trkpt lon="13.801246" lat="45.7007" /><trkpt lon="13.799211" lat="45.701642" /><trkpt lon="13.79655" lat="45.702441" /><trkpt lon="13.793733" lat="45.702878" /><trkpt lon="13.791758" lat="45.702956" /><trkpt lon="13.786952" lat="45.702539" /><trkpt lon="13.775536" lat="45.700498" /><trkpt lon="13.771532" lat="45.700186" /><trkpt lon="13.766615" lat="45.700269" /><trkpt lon="13.762977" lat="45.700675" /><trkpt lon="13.759051" lat="45.701469" /><trkpt lon="13.752091" lat="45.70317" /><trkpt lon="13.749938" lat="45.703973" /><trkpt lon="13.748456" lat="45.704871" /><trkpt lon="13.746127" lat="45.706776" /><trkpt lon="13.737892" lat="45.71263" /><trkpt lon="13.728968" lat="45.718762" /><trkpt lon="13.691686" lat="45.742646" /><trkpt lon="13.679074" lat="45.750077" /><trkpt lon="13.677661" lat="45.751163" /><trkpt lon="13.676011" lat="45.752752" /><trkpt lon="13.671662" lat="45.758487" /><trkpt lon="13.669824" lat="45.759767" /><trkpt lon="13.662419" lat="45.762389" /><trkpt lon="13.651079" lat="45.765987" /><trkpt lon="13.648926" lat="45.767079" /><trkpt lon="13.647872" lat="45.767955" /><trkpt lon="13.647693" lat="45.76848" /><trkpt lon="13.64782" lat="45.768829" /><trkpt lon="13.648345" lat="45.769141" /><trkpt lon="13.648908" lat="45.769122" /><trkpt lon="13.649334" lat="45.768855" /><trkpt lon="13.649429" lat="45.768625" /><trkpt lon="13.649385" lat="45.768311" /><trkpt lon="13.649069" lat="45.767914" /><trkpt lon="13.646637" lat="45.76621" /><trkpt lon="13.645727" lat="45.766145" /><trkpt lon="13.645241" lat="45.766512" /><trkpt lon="13.644418" lat="45.767701" /><trkpt lon="13.644093" lat="45.767783" /><trkpt lon="13.643216" lat="45.767577" /><trkpt lon="13.639244" lat="45.770221" /><trkpt lon="13.639006" lat="45.770511" /><trkpt lon="13.635364" lat="45.77252" /><trkpt lon="13.634311" lat="45.773451" /><trkpt lon="13.63386" lat="45.773645" /><trkpt lon="13.633266" lat="45.773671" /><trkpt lon="13.626954" lat="45.77277" /><trkpt lon="13.617501" lat="45.773548" /><trkpt lon="13.613972" lat="45.774651" /><trkpt lon="13.611512" lat="45.774826" /><trkpt lon="13.609374" lat="45.774504" /><trkpt lon="13.608601" lat="45.774583" /><trkpt lon="13.600884" lat="45.777122" /><trkpt lon="13.597151" lat="45.780392" /><trkpt lon="13.597016" lat="45.780729" /><trkpt lon="13.596877" lat="45.783218" /><trkpt lon="13.59644" lat="45.78397" /><trkpt lon="13.594161" lat="45.785102" /><trkpt lon="13.593896" lat="45.785476" /><trkpt lon="13.593698" lat="45.786317" /><trkpt lon="13.593335" lat="45.786757" /><trkpt lon="13.591055" lat="45.788573" /><trkpt lon="13.586627" lat="45.791598" /><trkpt lon="13.580836" lat="45.797245" /><trkpt lon="13.579749" lat="45.797899" /><trkpt lon="13.577917" lat="45.798589" /><trkpt lon="13.573435" lat="45.800142" /><trkpt lon="13.570912" lat="45.800553" /><trkpt lon="13.570471" lat="45.800844" /><trkpt lon="13.570578" lat="45.801036" /><trkpt lon="13.577711" lat="45.802774" /><trkpt lon="13.579229" lat="45.802914" /><trkpt lon="13.579751" lat="45.803188" /><trkpt lon="13.581298" lat="45.803457" /><trkpt lon="13.582232" lat="45.803293" /><trkpt lon="13.582448" lat="45.802951" /><trkpt lon="13.582182" lat="45.802593" /><trkpt lon="13.581779" lat="45.802505" /><trkpt lon="13.581245" lat="45.802637" /><trkpt lon="13.579212" lat="45.804082" /><trkpt lon="13.578039" lat="45.805351" /><trkpt lon="13.577068" lat="45.805819" /><trkpt lon="13.574758" lat="45.807427" /><trkpt lon="13.573492" lat="45.808057" /><trkpt lon="13.571263" lat="45.808714" /><trkpt lon="13.56593" lat="45.809692" /><trkpt lon="13.563957" lat="45.810419" /><trkpt lon="13.562447" lat="45.811358" /><trkpt lon="13.558896" lat="45.814344" /><trkpt lon="13.55696" lat="45.815298" /><trkpt lon="13.55438" lat="45.815824" /><trkpt lon="13.548472" lat="45.815655" /><trkpt lon="13.544521" lat="45.816172" /><trkpt lon="13.534131" lat="45.819516" /><trkpt lon="13.530308" lat="45.821149" /><trkpt lon="13.526939" lat="45.823244" /><trkpt lon="13.522666" lat="45.826859" /><trkpt lon="13.519231" lat="45.828839" /><trkpt lon="13.517369" lat="45.830143" /><trkpt lon="13.515367" lat="45.832287" /><trkpt lon="13.513376" lat="45.835748" /><trkpt lon="13.511945" lat="45.83763" /><trkpt lon="13.509851" lat="45.839473" /><trkpt lon="13.506918" lat="45.841156" /><trkpt lon="13.504905" lat="45.841834" /><trkpt lon="13.501311" lat="45.842705" /><trkpt lon="13.49756" lat="45.843271" /><trkpt lon="13.494362" lat="45.843143" /><trkpt lon="13.4884" lat="45.842252" /><trkpt lon="13.48592" lat="45.842316" /><trkpt lon="13.483719" lat="45.842699" /><trkpt lon="13.481411" lat="45.843464" /><trkpt lon="13.463293" lat="45.850901" /><trkpt lon="13.460295" lat="45.851895" /><trkpt lon="13.45728" lat="45.852491" /><trkpt lon="13.436524" lat="45.855542" /><trkpt lon="13.433211" lat="45.856355" /><trkpt lon="13.409187" lat="45.866319" /><trkpt lon="13.401484" lat="45.86938" /><trkpt lon="13.398868" lat="45.870217" /><trkpt lon="13.315777" lat="45.89086" /><trkpt lon="13.29349" lat="45.895722" /><trkpt lon="13.289177" lat="45.896883" /><trkpt lon="13.286519" lat="45.89705" /><trkpt lon="13.284566" lat="45.896673" /><trkpt lon="13.283547" lat="45.896239" /><trkpt lon="13.279655" lat="45.893005" /><trkpt lon="13.278086" lat="45.891965" /><trkpt lon="13.264617" lat="45.884709" /><trkpt lon="13.260879" lat="45.882849" /><trkpt lon="13.253522" lat="45.879903" /><trkpt lon="13.220018" lat="45.867612" /><trkpt lon="13.213242" lat="45.865248" /><trkpt lon="13.174259" lat="45.853559" /><trkpt lon="13.115214" lat="45.834273" /><trkpt lon="13.110916" lat="45.833128" /><trkpt lon="13.103546" lat="45.831702" /><trkpt lon="13.052029" lat="45.824189" /><trkpt lon="13.047538" lat="45.823206" /><trkpt lon="13.035343" lat="45.819762" /><trkpt lon="13.031778" lat="45.818962" /><trkpt lon="13.028956" lat="45.818598" /><trkpt lon="13.020858" lat="45.817989" /><trkpt lon="13.019763" lat="45.818102" /><trkpt lon="13.018293" lat="45.818969" /><trkpt lon="13.017399" lat="45.818825" /><trkpt lon="13.017114" lat="45.818209" /><trkpt lon="13.017709" lat="45.815272" /><trkpt lon="13.019499" lat="45.811899" /><trkpt lon="13.020617" lat="45.809085" /><trkpt lon="13.021314" lat="45.80538" /><trkpt lon="13.021326" lat="45.80309" /><trkpt lon="13.02106" lat="45.802054" /><trkpt lon="13.020676" lat="45.801542" /><trkpt lon="13.0201" lat="45.801193" /><trkpt lon="13.019228" lat="45.801001" /><trkpt lon="13.018573" lat="45.801171" /><trkpt lon="13.018266" lat="45.801658" /><trkpt lon="13.017878" lat="45.801844" /><trkpt lon="13.017251" lat="45.801746" /><trkpt lon="13.017003" lat="45.801361" /><trkpt lon="13.017729" lat="45.80056" /><trkpt lon="13.018323" lat="45.798839" /><trkpt lon="13.019375" lat="45.793797" /><trkpt lon="13.019794" lat="45.793027" /><trkpt lon="13.019661" lat="45.792652" /><trkpt lon="12.996108" lat="45.778394" /><trkpt lon="12.996915" lat="45.777174" /><trkpt lon="12.995819" lat="45.775504" /><trkpt lon="12.996479" lat="45.774809" /><trkpt lon="12.99836" lat="45.771028" /><trkpt lon="12.998238" lat="45.770617" /><trkpt lon="12.993232" lat="45.769105" /><trkpt lon="12.992181" lat="45.768937" /><trkpt lon="12.99073" lat="45.769031" /><trkpt lon="12.988206" lat="45.769555" /><trkpt lon="12.985358" lat="45.769878" /><trkpt lon="12.984545" lat="45.769773" /><trkpt lon="12.985567" lat="45.762436" /><trkpt lon="12.989996" lat="45.748766" /><trkpt lon="12.989911" lat="45.748188" /><trkpt lon="12.983993" lat="45.746972" /><trkpt lon="12.982788" lat="45.746541" /><trkpt lon="12.971146" lat="45.738579" /><trkpt lon="12.966025" lat="45.736249" /><trkpt lon="12.960052" lat="45.73447" /><trkpt lon="12.956384" lat="45.733166" /><trkpt lon="12.916418" lat="45.722217" /><trkpt lon="12.883992" lat="45.709238" /><trkpt lon="12.857548" lat="45.701847" /><trkpt lon="12.855626" lat="45.701025" /><trkpt lon="12.846922" lat="45.696404" /><trkpt lon="12.845707" lat="45.695426" /><trkpt lon="12.845155" lat="45.694464" /><trkpt lon="12.844948" lat="45.693701" /><trkpt lon="12.84464" lat="45.687298" /><trkpt lon="12.846372" lat="45.686292" /><trkpt lon="12.846969" lat="45.685525" /><trkpt lon="12.852011" lat="45.673547" /><trkpt lon="12.852021" lat="45.673047" /><trkpt lon="12.851547" lat="45.672165" /><trkpt lon="12.83079" lat="45.654809" /><trkpt lon="12.841191" lat="45.647787" /><trkpt lon="12.842361" lat="45.646765" /><trkpt lon="12.842985" lat="45.645843" /><trkpt lon="12.843337" lat="45.644698" /><trkpt lon="12.843432" lat="45.642587" /><trkpt lon="12.843326" lat="45.642217" /><trkpt lon="12.843069" lat="45.642087" /><trkpt lon="12.843383" lat="45.641887" /><trkpt lon="12.84402" lat="45.640029" /><trkpt lon="12.844953" lat="45.638943" /><trkpt lon="12.846998" lat="45.637781" /><trkpt lon="12.8563" lat="45.634761" /><trkpt lon="12.857537" lat="45.634108" /><trkpt lon="12.858627" lat="45.633217" /><trkpt lon="12.859355" lat="45.632255" /><trkpt lon="12.86079" lat="45.629422" /><trkpt lon="12.876208" lat="45.608846" /><trkpt lon="12.876306" lat="45.608509" /><trkpt lon="12.875357" lat="45.60702" /><trkpt lon="12.875003" lat="45.606774" /><trkpt lon="12.87496" lat="45.606404" /><trkpt lon="12.873244" lat="45.60384" /><trkpt lon="12.872664" lat="45.603231" /><trkpt lon="12.860275" lat="45.594356" /><trkpt lon="12.853695" lat="45.59158" /><trkpt lon="12.852582" lat="45.591286" /><trkpt lon="12.835889" lat="45.585137" /><trkpt lon="12.828455" lat="45.582992" /><trkpt lon="12.827733" lat="45.582883" /><trkpt lon="12.827185" lat="45.583112" /><trkpt lon="12.826521" lat="45.583105" /><trkpt lon="12.826061" lat="45.582776" /><trkpt lon="12.826053" lat="45.582334" /><trkpt lon="12.826311" lat="45.582086" /><trkpt lon="12.827117" lat="45.581837" /><trkpt lon="12.827317" lat="45.581569" /><trkpt lon="12.827181" lat="45.581311" /><trkpt lon="12.826413" lat="45.581082" /><trkpt lon="12.824218" lat="45.581551" /><trkpt lon="12.822985" lat="45.581217" /><trkpt lon="12.821111" lat="45.57742" /></trkseg></trk></gpx>