<?xml version='1.0' encoding='utf-8'?>
<gpx xmlns="http://www.topografix.com/GPX/1/1" version="1.1" creator="Yatutbuv"><trk><trkseg><trkpt lon="11.30583" lat="47.23648" /><trkpt lon="11.305797" lat="47.236933" /><trkpt lon="11.307039" lat="47.236946" /><trkpt lon="11.308471" lat="47.236639" /><trkpt lon="11.308613" lat="47.237142" /><trkpt lon="11.311188" lat="47.237459" /><trkpt lon="11.312052" lat="47.239833" /><trkpt lon="11.313537" lat="47.240271" /><trkpt lon="11.314121" lat="47.240607" /><trkpt lon="11.314318" lat="47.240886" /><trkpt lon="11.314402" lat="47.241539" /><trkpt lon="11.314839" lat="47.241966" /><trkpt lon="11.314873" lat="47.242701" /><trkpt lon="11.31519" lat="47.242959" /><trkpt lon="11.316981" lat="47.242957" /><trkpt lon="11.317916" lat="47.243691" /><trkpt lon="11.318851" lat="47.244052" /><trkpt lon="11.319647" lat="47.244234" /><trkpt lon="11.320703" lat="47.244119" /><trkpt lon="11.321339" lat="47.244734" /><trkpt lon="11.321729" lat="47.244906" /><trkpt lon="11.328022" lat="47.245901" /><trkpt lon="11.331685" lat="47.246696" /><trkpt lon="11.335137" lat="47.248069" /><trkpt lon="11.339235" lat="47.249326" /><trkpt lon="11.34443" lat="47.25032" /><trkpt lon="11.34846" lat="47.250039" /><trkpt lon="11.35276" lat="47.250231" /><trkpt lon="11.359295" lat="47.249907" /><trkpt lon="11.367392" lat="47.250126" /><trkpt lon="11.369159" lat="47.250464" /><trkpt lon="11.370039" lat="47.251157" /><trkpt lon="11.37043" lat="47.251844" /><trkpt lon="11.370865" lat="47.252088" /><trkpt lon="11.372189" lat="47.252375" /><trkpt lon="11.375168" lat="47.253604" /><trkpt lon="11.381153" lat="47.255173" /><trkpt lon="11.382632" lat="47.256887" /><trkpt lon="11.382956" lat="47.257582" /><trkpt lon="11.380514" lat="47.258769" /><trkpt lon="11.385953" lat="47.263486" /><trkpt lon="11.387499" lat="47.264408" /><trkpt lon="11.390382" lat="47.266606" /><trkpt lon="11.390774" lat="47.267052" /><trkpt lon="11.390295" lat="47.267363" /><trkpt lon="11.390452" lat="47.267497" /><trkpt lon="11.390295" lat="47.267363" /><trkpt lon="11.390625" lat="47.267193" /><trkpt lon="11.39042" lat="47.266943" /><trkpt lon="11.387448" lat="47.264778" /><trkpt lon="11.379278" lat="47.257766" /><trkpt lon="11.376119" lat="47.25547" /><trkpt lon="11.375095" lat="47.254492" /><trkpt lon="11.374918" lat="47.253712" /><trkpt lon="11.373594" lat="47.253353" /><trkpt lon="11.372054" lat="47.252417" /><trkpt lon="11.369304" lat="47.251758" /><trkpt lon="11.368723" lat="47.25185" /><trkpt lon="11.368736" lat="47.252059" /><trkpt lon="11.369107" lat="47.252219" /><trkpt lon="11.370477" lat="47.252308" /><trkpt lon="11.378368" lat="47.253542" /><trkpt lon="11.379773" lat="47.253513" /><trkpt lon="11.383534" lat="47.252973" /><trkpt lon="11.388098" lat="47.253403" /><trkpt lon="11.390282" lat="47.253053" /><trkpt lon="11.394994" lat="47.251144" /><trkpt lon="11.396375" lat="47.250891" /><trkpt lon="11.39838" lat="47.250783" /><trkpt lon="11.401034" lat="47.251208" /><trkpt lon="11.404219" lat="47.252443" /><trkpt lon="11.406052" lat="47.252903" /><trkpt lon="11.414859" lat="47.254229" /><trkpt lon="11.418514" lat="47.254009" /><trkpt lon="11.424432" lat="47.255509" /><trkpt lon="11.428933" lat="47.256977" /><trkpt lon="11.432859" lat="47.2585" /><trkpt lon="11.436772" lat="47.260361" /><trkpt lon="11.438633" lat="47.260969" /><trkpt lon="11.44137" lat="47.261408" /><trkpt lon="11.45027" lat="47.262066" /><trkpt lon="11.453114" lat="47.26258" /><trkpt lon="11.45565" lat="47.263591" /><trkpt lon="11.459638" lat="47.266259" /><trkpt lon="11.462005" lat="47.267587" /><trkpt lon="11.463757" lat="47.268307" /><trkpt lon="11.46641" lat="47.269037" /><trkpt lon="11.482962" lat="47.272072" /><trkpt lon="11.485731" lat="47.272196" /><trkpt lon="11.493964" lat="47.271665" /><trkpt lon="11.496716" lat="47.271841" /><trkpt lon="11.499243" lat="47.27242" /><trkpt lon="11.505268" lat="47.274856" /><trkpt lon="11.507893" lat="47.275536" /><trkpt lon="11.510821" lat="47.275791" /><trkpt lon="11.517996" lat="47.27571" /><trkpt lon="11.522249" lat="47.276104" /><trkpt lon="11.535851" lat="47.278506" /><trkpt lon="11.548045" lat="47.281077" /><trkpt lon="11.551824" lat="47.282415" /><trkpt lon="11.553957" lat="47.283504" /><trkpt lon="11.555837" lat="47.284724" /><trkpt lon="11.559154" lat="47.287587" /><trkpt lon="11.564764" lat="47.293806" /><trkpt lon="11.566682" lat="47.295612" /><trkpt lon="11.567849" lat="47.296435" /><trkpt lon="11.569751" lat="47.297452" /><trkpt lon="11.57318" lat="47.298638" /><trkpt lon="11.576915" lat="47.299247" /><trkpt lon="11.587352" lat="47.300014" /><trkpt lon="11.590481" lat="47.299953" /><trkpt lon="11.595868" lat="47.299299" /><trkpt lon="11.598866" lat="47.299164" /><trkpt lon="11.601349" lat="47.299403" /><trkpt lon="11.604528" lat="47.30022" /><trkpt lon="11.606968" lat="47.301332" /><trkpt lon="11.6132" lat="47.305453" /><trkpt lon="11.615888" lat="47.306744" /><trkpt lon="11.61868" lat="47.307534" /><trkpt lon="11.627083" lat="47.308591" /><trkpt lon="11.630653" lat="47.309493" /><trkpt lon="11.633616" lat="47.310778" /><trkpt lon="11.638876" lat="47.314054" /><trkpt lon="11.640851" lat="47.314984" /><trkpt lon="11.644262" lat="47.316042" /><trkpt lon="11.652133" lat="47.317478" /><trkpt lon="11.656759" lat="47.318771" /><trkpt lon="11.667879" lat="47.323289" /><trkpt lon="11.672605" lat="47.325627" /><trkpt lon="11.675488" lat="47.327534" /><trkpt lon="11.678284" lat="47.329781" /><trkpt lon="11.681129" lat="47.332414" /><trkpt lon="11.683197" lat="47.33467" /><trkpt lon="11.684395" lat="47.336394" /><trkpt lon="11.685262" lat="47.338079" /><trkpt lon="11.687238" lat="47.343587" /><trkpt lon="11.688078" lat="47.345044" /><trkpt lon="11.689186" lat="47.34645" /><trkpt lon="11.690991" lat="47.34815" /><trkpt lon="11.696467" lat="47.352445" /><trkpt lon="11.697965" lat="47.354079" /><trkpt lon="11.700253" lat="47.356984" /><trkpt lon="11.701277" lat="47.35797" /><trkpt lon="11.702704" lat="47.359041" /><trkpt lon="11.704236" lat="47.359925" /><trkpt lon="11.706209" lat="47.360779" /><trkpt lon="11.708764" lat="47.361518" /><trkpt lon="11.725473" lat="47.364733" /><trkpt lon="11.729172" lat="47.365896" /><trkpt lon="11.732665" lat="47.367646" /><trkpt lon="11.742636" lat="47.373521" /><trkpt lon="11.746424" lat="47.375935" /><trkpt lon="11.752623" lat="47.380371" /><trkpt lon="11.755556" lat="47.382279" /><trkpt lon="11.757499" lat="47.38329" /><trkpt lon="11.760101" lat="47.384374" /><trkpt lon="11.763145" lat="47.38532" /><trkpt lon="11.766122" lat="47.385878" /><trkpt lon="11.768565" lat="47.386005" /><trkpt lon="11.775382" lat="47.385738" /><trkpt lon="11.778529" lat="47.386078" /><trkpt lon="11.781975" lat="47.387085" /><trkpt lon="11.790511" lat="47.390544" /><trkpt lon="11.793305" lat="47.391911" /><trkpt lon="11.795297" lat="47.393317" /><trkpt lon="11.797338" lat="47.395563" /><trkpt lon="11.799148" lat="47.39896" /><trkpt lon="11.800484" lat="47.400749" /><trkpt lon="11.802558" lat="47.402414" /><trkpt lon="11.805185" lat="47.403698" /><trkpt lon="11.808223" lat="47.404527" /><trkpt lon="11.812214" lat="47.405122" /><trkpt lon="11.814695" lat="47.40528" /><trkpt lon="11.823446" lat="47.40533" /><trkpt lon="11.827793" lat="47.405936" /><trkpt lon="11.829878" lat="47.406479" /><trkpt lon="11.833697" lat="47.407841" /><trkpt lon="11.841994" lat="47.411315" /><trkpt lon="11.8464" lat="47.413457" /><trkpt lon="11.84889" lat="47.415073" /><trkpt lon="11.850925" lat="47.416841" /><trkpt lon="11.855509" lat="47.422231" /><trkpt lon="11.857652" lat="47.424186" /><trkpt lon="11.860004" lat="47.42575" /><trkpt lon="11.867967" lat="47.430367" /><trkpt lon="11.87118" lat="47.432701" /><trkpt lon="11.876706" lat="47.437115" /><trkpt lon="11.879423" lat="47.438961" /><trkpt lon="11.883661" lat="47.440939" /><trkpt lon="11.894721" lat="47.444021" /><trkpt lon="11.898605" lat="47.445382" /><trkpt lon="11.901857" lat="47.446778" /><trkpt lon="11.907053" lat="47.449605" /><trkpt lon="11.909735" lat="47.45143" /><trkpt lon="11.91589" lat="47.456033" /><trkpt lon="11.918711" lat="47.457553" /><trkpt lon="11.922035" lat="47.458508" /><trkpt lon="11.933301" lat="47.460156" /><trkpt lon="11.937382" lat="47.461178" /><trkpt lon="11.947018" lat="47.465271" /><trkpt lon="11.971481" lat="47.473726" /><trkpt lon="11.975319" lat="47.475353" /><trkpt lon="11.981032" lat="47.478085" /><trkpt lon="11.983627" lat="47.478955" /><trkpt lon="11.987435" lat="47.479604" /><trkpt lon="11.995296" lat="47.480057" /><trkpt lon="11.999885" lat="47.480532" /><trkpt lon="12.004453" lat="47.481289" /><trkpt lon="12.011514" lat="47.482899" /><trkpt lon="12.014666" lat="47.483412" /><trkpt lon="12.017776" lat="47.483657" /><trkpt lon="12.027543" lat="47.483901" /><trkpt lon="12.031729" lat="47.484303" /><trkpt lon="12.03618" lat="47.484983" /><trkpt lon="12.041099" lat="47.486063" /><trkpt lon="12.046956" lat="47.487845" /><trkpt lon="12.052107" lat="47.489938" /><trkpt lon="12.055925" lat="47.492" /><trkpt lon="12.057228" lat="47.493107" /><trkpt lon="12.057841" lat="47.493848" /><trkpt lon="12.058393" lat="47.49476" /><trkpt lon="12.058838" lat="47.496096" /><trkpt lon="12.058871" lat="47.497809" /><trkpt lon="12.058051" lat="47.501675" /><trkpt lon="12.058141" lat="47.502835" /><trkpt lon="12.058652" lat="47.504235" /><trkpt lon="12.059539" lat="47.505583" /><trkpt lon="12.062305" lat="47.508926" /><trkpt lon="12.063425" lat="47.510593" /><trkpt lon="12.064427" lat="47.512686" /><trkpt lon="12.065852" lat="47.516691" /><trkpt lon="12.066896" lat="47.518603" /><trkpt lon="12.068226" lat="47.520407" /><trkpt lon="12.070515" lat="47.522676" /><trkpt lon="12.078851" lat="47.528986" /><trkpt lon="12.080762" lat="47.530201" /><trkpt lon="12.082941" lat="47.531226" /><trkpt lon="12.086517" lat="47.532247" /><trkpt lon="12.095124" lat="47.533255" /><trkpt lon="12.100836" lat="47.534514" /><trkpt lon="12.105907" lat="47.536347" /><trkpt lon="12.108937" lat="47.537862" /><trkpt lon="12.111556" lat="47.539499" /><trkpt lon="12.113918" lat="47.541316" /><trkpt lon="12.116024" lat="47.543366" /><trkpt lon="12.117629" lat="47.545337" /><trkpt lon="12.120637" lat="47.549784" /><trkpt lon="12.123158" lat="47.552418" /><trkpt lon="12.125971" lat="47.554494" /><trkpt lon="12.132885" lat="47.558589" /><trkpt lon="12.134794" lat="47.560045" /><trkpt lon="12.13647" lat="47.561637" /><trkpt lon="12.138632" lat="47.564351" /><trkpt lon="12.150348" lat="47.580696" /><trkpt lon="12.152148" lat="47.582693" /><trkpt lon="12.154248" lat="47.584607" /><trkpt lon="12.15669" lat="47.586428" /><trkpt lon="12.159995" lat="47.588393" /><trkpt lon="12.169797" lat="47.592734" /><trkpt lon="12.172284" lat="47.594004" /><trkpt lon="12.174014" lat="47.595117" /><trkpt lon="12.178412" lat="47.598417" /><trkpt lon="12.180878" lat="47.599943" /><trkpt lon="12.183795" lat="47.601283" /><trkpt lon="12.191103" lat="47.603844" /><trkpt lon="12.195302" lat="47.605949" /><trkpt lon="12.198312" lat="47.60812" /><trkpt lon="12.200672" lat="47.610623" /><trkpt lon="12.201694" lat="47.612382" /><trkpt lon="12.202479" lat="47.61506" /><trkpt lon="12.202552" lat="47.617701" /><trkpt lon="12.202013" lat="47.622644" /><trkpt lon="12.20167" lat="47.624531" /><trkpt lon="12.200799" lat="47.627479" /><trkpt lon="12.19943" lat="47.630412" /><trkpt lon="12.19225" lat="47.641962" /><trkpt lon="12.185451" lat="47.654731" /><trkpt lon="12.184313" lat="47.657477" /><trkpt lon="12.182825" lat="47.664391" /><trkpt lon="12.182083" lat="47.666285" /><trkpt lon="12.180846" lat="47.668058" /><trkpt lon="12.179834" lat="47.669109" /><trkpt lon="12.173463" lat="47.673803" /><trkpt lon="12.170662" lat="47.676217" /><trkpt lon="12.16852" lat="47.678586" /><trkpt lon="12.16661" lat="47.681272" /><trkpt lon="12.165247" lat="47.683893" /><trkpt lon="12.164399" lat="47.686148" /><trkpt lon="12.161829" lat="47.697391" /><trkpt lon="12.160668" lat="47.700104" /><trkpt lon="12.159876" lat="47.701461" /><trkpt lon="12.158549" lat="47.703249" /><trkpt lon="12.156888" lat="47.705098" /><trkpt lon="12.143666" lat="47.718696" /><trkpt lon="12.139097" lat="47.723638" /><trkpt lon="12.134966" lat="47.728757" /><trkpt lon="12.125968" lat="47.740754" /><trkpt lon="12.119831" lat="47.74792" /><trkpt lon="12.113436" lat="47.754493" /><trkpt lon="12.106281" lat="47.761142" /><trkpt lon="12.103329" lat="47.764136" /><trkpt lon="12.100746" lat="47.767094" /><trkpt lon="12.098629" lat="47.769894" /><trkpt lon="12.095276" lat="47.775343" /><trkpt lon="12.093017" lat="47.780211" /><trkpt lon="12.09137" lat="47.785423" /><trkpt lon="12.090556" lat="47.789548" /><trkpt lon="12.090313" lat="47.791625" /><trkpt lon="12.089969" lat="47.798164" /><trkpt lon="12.090323" lat="47.800284" /><trkpt lon="12.090772" lat="47.801571" /><trkpt lon="12.0922" lat="47.803944" /><trkpt lon="12.094794" lat="47.806765" /><trkpt lon="12.096399" lat="47.807811" /><trkpt lon="12.098042" lat="47.808499" /><trkpt lon="12.100372" lat="47.808989" /><trkpt lon="12.102653" lat="47.809102" /><trkpt lon="12.144485" lat="47.805376" /><trkpt lon="12.155214" lat="47.8047" /><trkpt lon="12.170849" lat="47.802556" /><trkpt lon="12.185814" lat="47.802144" /><trkpt lon="12.188682" lat="47.801535" /><trkpt lon="12.190415" lat="47.800846" /><trkpt lon="12.194888" lat="47.798059" /><trkpt lon="12.197309" lat="47.796943" /><trkpt lon="12.200105" lat="47.796192" /><trkpt lon="12.202291" lat="47.795949" /><trkpt lon="12.205325" lat="47.795993" /><trkpt lon="12.21128" lat="47.796749" /><trkpt lon="12.21739" lat="47.796346" /><trkpt lon="12.219229" lat="47.796389" /><trkpt lon="12.227752" lat="47.797632" /><trkpt lon="12.232707" lat="47.798091" /><trkpt lon="12.245395" lat="47.797949" /><trkpt lon="12.252927" lat="47.798331" /><trkpt lon="12.257346" lat="47.798906" /><trkpt lon="12.262375" lat="47.799861" /><trkpt lon="12.267442" lat="47.801237" /><trkpt lon="12.274552" lat="47.803473" /><trkpt lon="12.276668" lat="47.803889" /><trkpt lon="12.278938" lat="47.804118" /><trkpt lon="12.294569" lat="47.804008" /><trkpt lon="12.302219" lat="47.803319" /><trkpt lon="12.306872" lat="47.802242" /><trkpt lon="12.308628" lat="47.801978" /><trkpt lon="12.311884" lat="47.801953" /><trkpt lon="12.315168" lat="47.802508" /><trkpt lon="12.332201" lat="47.806166" /><trkpt lon="12.34115" lat="47.809315" /><trkpt lon="12.353485" lat="47.812231" /><trkpt lon="12.359446" lat="47.814606" /><trkpt lon="12.367582" lat="47.81599" /><trkpt lon="12.371394" lat="47.817159" /><trkpt lon="12.377675" lat="47.820332" /><trkpt lon="12.379718" lat="47.821663" /><trkpt lon="12.381507" lat="47.823319" /><trkpt lon="12.382807" lat="47.8248" /><trkpt lon="12.385905" lat="47.829458" /><trkpt lon="12.387219" lat="47.830932" /><trkpt lon="12.389555" lat="47.832491" /><trkpt lon="12.391321" lat="47.833238" /><trkpt lon="12.392871" lat="47.833674" /><trkpt lon="12.394602" lat="47.833975" /><trkpt lon="12.396594" lat="47.834101" /><trkpt lon="12.408269" lat="47.83337" /><trkpt lon="12.418107" lat="47.833971" /><trkpt lon="12.436495" lat="47.833806" /><trkpt lon="12.439643" lat="47.834128" /><trkpt lon="12.442444" lat="47.834633" /><trkpt lon="12.449141" lat="47.836645" /><trkpt lon="12.452807" lat="47.837387" /><trkpt lon="12.48005" lat="47.838782" /><trkpt lon="12.48439" lat="47.838651" /><trkpt lon="12.488697" lat="47.838031" /><trkpt lon="12.516195" lat="47.831277" /><trkpt lon="12.528551" lat="47.829219" /><trkpt lon="12.540436" lat="47.828233" /><trkpt lon="12.546997" lat="47.82749" /><trkpt lon="12.552745" lat="47.827274" /><trkpt lon="12.558806" lat="47.82642" /><trkpt lon="12.561642" lat="47.826233" /><trkpt lon="12.565177" lat="47.826362" /><trkpt lon="12.573113" lat="47.82735" /><trkpt lon="12.583907" lat="47.828379" /><trkpt lon="12.597563" lat="47.827899" /><trkpt lon="12.607035" lat="47.828628" /><trkpt lon="12.609749" lat="47.828697" /><trkpt lon="12.612729" lat="47.828497" /><trkpt lon="12.617874" lat="47.82762" /><trkpt lon="12.6201" lat="47.827532" /><trkpt lon="12.621794" lat="47.82767" /><trkpt lon="12.630056" lat="47.829057" /><trkpt lon="12.633866" lat="47.829228" /><trkpt lon="12.64235" lat="47.828438" /><trkpt lon="12.64508" lat="47.827779" /><trkpt lon="12.651394" lat="47.825882" /><trkpt lon="12.654488" lat="47.825269" /><trkpt lon="12.65802" lat="47.825101" /><trkpt lon="12.668413" lat="47.825461" /><trkpt lon="12.670492" lat="47.825241" /><trkpt lon="12.674884" lat="47.82443" /><trkpt lon="12.677188" lat="47.824325" /><trkpt lon="12.68064" lat="47.824806" /><trkpt lon="12.688842" lat="47.827479" /><trkpt lon="12.699364" lat="47.828819" /><trkpt lon="12.709739" lat="47.829209" /><trkpt lon="12.722881" lat="47.829172" /><trkpt lon="12.726082" lat="47.829537" /><trkpt lon="12.734737" lat="47.830926" /><trkpt lon="12.737223" lat="47.831148" /><trkpt lon="12.740528" lat="47.831036" /><trkpt lon="12.743441" lat="47.830552" /><trkpt lon="12.746405" lat="47.829614" /><trkpt lon="12.751569" lat="47.827183" /><trkpt lon="12.753596" lat="47.826636" /><trkpt lon="12.755922" lat="47.826346" /><trkpt lon="12.770248" lat="47.827144" /><trkpt lon="12.7778" lat="47.826561" /><trkpt lon="12.780626" lat="47.826542" /><trkpt lon="12.784538" lat="47.826916" /><trkpt lon="12.794322" lat="47.828781" /><trkpt lon="12.797526" lat="47.829189" /><trkpt lon="12.809599" lat="47.829011" /><trkpt lon="12.811711" lat="47.82872" /><trkpt lon="12.813936" lat="47.828146" /><trkpt lon="12.81941" lat="47.826056" /><trkpt lon="12.821799" lat="47.824731" /><trkpt lon="12.827724" lat="47.819966" /><trkpt lon="12.83389" lat="47.813044" /><trkpt lon="12.836055" lat="47.811129" /><trkpt lon="12.860933" lat="47.796067" /><trkpt lon="12.863556" lat="47.794038" /><trkpt lon="12.874462" lat="47.783289" /><trkpt lon="12.876" lat="47.782041" /><trkpt lon="12.894772" lat="47.769863" /><trkpt lon="12.8975" lat="47.768499" /><trkpt lon="12.905801" lat="47.766303" /><trkpt lon="12.907578" lat="47.766022" /><trkpt lon="12.909749" lat="47.765974" /><trkpt lon="12.933921" lat="47.768084" /><trkpt lon="12.966805" lat="47.768953" /><trkpt lon="12.969889" lat="47.769355" /><trkpt lon="12.975254" lat="47.770539" /><trkpt lon="12.977507" lat="47.770611" /><trkpt lon="12.979589" lat="47.770377" /><trkpt lon="12.987846" lat="47.768397" /><trkpt lon="12.993523" lat="47.766209" /><trkpt lon="12.995802" lat="47.765141" /><trkpt lon="12.999189" lat="47.763022" /><trkpt lon="13.010992" lat="47.753443" /><trkpt lon="13.013745" lat="47.751813" /><trkpt lon="13.015997" lat="47.750768" /><trkpt lon="13.019578" lat="47.749519" /><trkpt lon="13.046792" lat="47.741547" /><trkpt lon="13.048679" lat="47.740828" /><trkpt lon="13.05371" lat="47.739352" /><trkpt lon="13.054093" lat="47.739145" /><trkpt lon="13.054223" lat="47.738851" /><trkpt lon="13.054048" lat="47.738613" /><trkpt lon="13.053542" lat="47.738455" /><trkpt lon="13.052904" lat="47.73849" /><trkpt lon="13.05277" lat="47.738927" /><trkpt lon="13.05731" lat="47.743683" /><trkpt lon="13.058509" lat="47.744617" /><trkpt lon="13.061734" lat="47.746302" /><trkpt lon="13.066764" lat="47.74777" /><trkpt lon="13.072325" lat="47.750636" /><trkpt lon="13.07434" lat="47.752067" /><trkpt lon="13.074717" lat="47.752642" /><trkpt lon="13.074909" lat="47.753396" /><trkpt lon="13.074661" lat="47.754528" /><trkpt lon="13.074035" lat="47.755901" /><trkpt lon="13.071976" lat="47.761866" /><trkpt lon="13.07089" lat="47.765573" /><trkpt lon="13.06571" lat="47.789509" /><trkpt lon="13.064711" lat="47.790532" /><trkpt lon="13.059776" lat="47.793423" /><trkpt lon="13.058127" lat="47.795047" /><trkpt lon="13.055782" lat="47.795895" /><trkpt lon="13.053615" lat="47.79706" /><trkpt lon="13.053496" lat="47.797672" /><trkpt lon="13.054281" lat="47.798517" /><trkpt lon="13.055064" lat="47.798964" /><trkpt lon="13.054983" lat="47.799222" /><trkpt lon="13.054588" lat="47.799166" /><trkpt lon="13.054281" lat="47.798517" /><trkpt lon="13.053496" lat="47.797672" /><trkpt lon="13.052295" lat="47.797318" /><trkpt lon="13.052656" lat="47.79744" /><trkpt lon="13.053114" lat="47.797244" /><trkpt lon="13.053477" lat="47.797293" /><trkpt lon="13.053533" lat="47.797714" /><trkpt lon="13.054281" lat="47.798517" /><trkpt lon="13.054936" lat="47.798888" /><trkpt lon="13.055615" lat="47.798906" /><trkpt lon="13.057078" lat="47.798384" /><trkpt lon="13.063493" lat="47.798993" /><trkpt lon="13.064094" lat="47.79978" /><trkpt lon="13.067284" lat="47.801784" /><trkpt lon="13.066733" lat="47.802557" /><trkpt lon="13.066416" lat="47.803334" /><trkpt lon="13.066282" lat="47.804748" /><trkpt lon="13.065822" lat="47.805616" /><trkpt lon="13.065873" lat="47.806382" /><trkpt lon="13.066406" lat="47.807592" /><trkpt lon="13.065511" lat="47.809004" /><trkpt lon="13.06438" lat="47.809668" /><trkpt lon="13.063784" lat="47.809835" /><trkpt lon="13.056866" lat="47.809048" /><trkpt lon="13.05512" lat="47.809016" /><trkpt lon="13.053927" lat="47.813795" /><trkpt lon="13.053071" lat="47.81979" /><trkpt lon="13.05371" lat="47.823317" /><trkpt lon="13.054574" lat="47.825024" /><trkpt lon="13.054196" lat="47.82672" /><trkpt lon="13.054529" lat="47.827234" /><trkpt lon="13.056468" lat="47.828662" /><trkpt lon="13.057069" lat="47.829935" /><trkpt lon="13.058325" lat="47.830092" /><trkpt lon="13.059117" lat="47.830655" /><trkpt lon="13.059614" lat="47.830735" /><trkpt lon="13.064459" lat="47.830207" /><trkpt lon="13.066669" lat="47.830331" /><trkpt lon="13.069081" lat="47.830924" /><trkpt lon="13.07023" lat="47.831479" /><trkpt lon="13.071262" lat="47.832218" /><trkpt lon="13.07209" lat="47.83313" /><trkpt lon="13.075135" lat="47.838134" /><trkpt lon="13.077861" lat="47.840467" /><trkpt lon="13.078652" lat="47.841523" /><trkpt lon="13.079015" lat="47.842742" /><trkpt lon="13.079105" lat="47.845932" /><trkpt lon="13.079623" lat="47.847185" /><trkpt lon="13.08032" lat="47.848036" /><trkpt lon="13.081102" lat="47.848672" /><trkpt lon="13.08263" lat="47.849483" /><trkpt lon="13.085091" lat="47.850122" /><trkpt lon="13.090819" lat="47.851052" /><trkpt lon="13.098505" lat="47.8513" /><trkpt lon="13.100985" lat="47.851543" /><trkpt lon="13.111906" lat="47.853304" /><trkpt lon="13.124351" lat="47.855786" /><trkpt lon="13.127625" lat="47.856177" /><trkpt lon="13.130824" lat="47.856308" /><trkpt lon="13.136833" lat="47.856013" /><trkpt lon="13.159909" lat="47.853818" /><trkpt lon="13.179822" lat="47.850461" /><trkpt lon="13.181961" lat="47.850284" /><trkpt lon="13.183887" lat="47.850324" /><trkpt lon="13.186269" lat="47.85065" /><trkpt lon="13.188404" lat="47.851236" /><trkpt lon="13.195764" lat="47.854514" /><trkpt lon="13.197687" lat="47.855217" /><trkpt lon="13.200088" lat="47.855753" /><trkpt lon="13.203518" lat="47.855958" /><trkpt lon="13.216663" lat="47.855237" /><trkpt lon="13.219707" lat="47.8548" /><trkpt lon="13.223219" lat="47.853776" /><trkpt lon="13.231858" lat="47.850217" /><trkpt lon="13.235834" lat="47.848971" /><trkpt lon="13.244422" lat="47.847338" /><trkpt lon="13.253063" lat="47.846411" /><trkpt lon="13.26093" lat="47.844989" /><trkpt lon="13.268564" lat="47.843318" /><trkpt lon="13.271253" lat="47.843058" /><trkpt lon="13.275975" lat="47.843171" /><trkpt lon="13.282809" lat="47.842912" /><trkpt lon="13.289609" lat="47.843666" /><trkpt lon="13.308084" lat="47.844638" /><trkpt lon="13.311798" lat="47.845197" /><trkpt lon="13.315012" lat="47.846034" /><trkpt lon="13.317359" lat="47.846879" /><trkpt lon="13.320334" lat="47.848214" /><trkpt lon="13.325877" lat="47.850999" /><trkpt lon="13.328757" lat="47.852724" /><trkpt lon="13.329938" lat="47.853651" /><trkpt lon="13.331137" lat="47.854904" /><trkpt lon="13.334644" lat="47.860147" /><trkpt lon="13.335503" lat="47.860994" /><trkpt lon="13.33675" lat="47.861901" /><trkpt lon="13.338295" lat="47.862636" /><trkpt lon="13.339638" lat="47.863055" /><trkpt lon="13.341726" lat="47.863404" /><trkpt lon="13.343285" lat="47.863445" /><trkpt lon="13.345998" lat="47.863082" /><trkpt lon="13.348689" lat="47.862077" /><trkpt lon="13.350978" lat="47.860577" /><trkpt lon="13.357363" lat="47.855331" /><trkpt lon="13.365581" lat="47.850297" /><trkpt lon="13.36704" lat="47.849592" /><trkpt lon="13.371567" lat="47.84801" /><trkpt lon="13.377142" lat="47.84504" /><trkpt lon="13.383728" lat="47.842417" /><trkpt lon="13.385168" lat="47.841625" /><trkpt lon="13.388992" lat="47.83893" /><trkpt lon="13.390255" lat="47.838295" /><trkpt lon="13.391748" lat="47.837784" /><trkpt lon="13.393521" lat="47.837437" /><trkpt lon="13.395506" lat="47.83733" /><trkpt lon="13.400925" lat="47.83795" /><trkpt lon="13.403442" lat="47.837993" /><trkpt lon="13.413013" lat="47.836314" /><trkpt lon="13.416662" lat="47.836088" /><trkpt lon="13.419109" lat="47.836291" /><trkpt lon="13.422852" lat="47.836977" /><trkpt lon="13.432222" lat="47.839561" /><trkpt lon="13.436189" lat="47.841111" /><trkpt lon="13.437526" lat="47.841853" /><trkpt lon="13.439206" lat="47.843129" /><trkpt lon="13.440382" lat="47.844404" /><trkpt lon="13.441208" lat="47.845791" /><trkpt lon="13.441576" lat="47.846773" /><trkpt lon="13.441809" lat="47.848287" /><trkpt lon="13.441715" lat="47.8496" /><trkpt lon="13.441402" lat="47.850852" /><trkpt lon="13.4397" lat="47.855121" /><trkpt lon="13.439095" lat="47.85715" /><trkpt lon="13.437848" lat="47.864595" /><trkpt lon="13.437064" lat="47.868051" /><trkpt lon="13.433377" lat="47.879061" /><trkpt lon="13.432967" lat="47.882156" /><trkpt lon="13.433345" lat="47.885168" /><trkpt lon="13.434035" lat="47.88717" /><trkpt lon="13.435501" lat="47.889776" /><trkpt lon="13.437015" lat="47.891644" /><trkpt lon="13.44226" lat="47.896511" /><trkpt lon="13.444545" lat="47.899154" /><trkpt lon="13.446319" lat="47.901837" /><trkpt lon="13.449083" lat="47.906833" /><trkpt lon="13.450377" lat="47.908613" /><trkpt lon="13.452235" lat="47.910481" /><trkpt lon="13.454814" lat="47.912347" /><trkpt lon="13.462311" lat="47.916389" /><trkpt lon="13.465472" lat="47.917546" /><trkpt lon="13.468436" lat="47.918075" /><trkpt lon="13.472521" lat="47.918277" /><trkpt lon="13.485347" lat="47.917577" /><trkpt lon="13.490172" lat="47.917675" /><trkpt lon="13.492794" lat="47.918029" /><trkpt lon="13.494772" lat="47.918505" /><trkpt lon="13.496903" lat="47.919256" /><trkpt lon="13.498646" lat="47.9201" /><trkpt lon="13.50099" lat="47.921645" /><trkpt lon="13.502588" lat="47.922953" /><trkpt lon="13.509278" lat="47.928754" /><trkpt lon="13.512096" lat="47.931495" /><trkpt lon="13.513366" lat="47.933045" /><trkpt lon="13.514571" lat="47.934949" /><trkpt lon="13.515361" lat="47.936702" /><trkpt lon="13.51706" lat="47.941975" /><trkpt lon="13.517813" lat="47.943631" /><trkpt lon="13.519117" lat="47.945639" /><trkpt lon="13.520739" lat="47.947475" /><trkpt lon="13.522771" lat="47.949212" /><trkpt lon="13.524864" lat="47.95061" /><trkpt lon="13.527614" lat="47.952027" /><trkpt lon="13.531348" lat="47.953408" /><trkpt lon="13.53622" lat="47.954487" /><trkpt lon="13.549765" lat="47.955993" /><trkpt lon="13.563926" lat="47.958086" /><trkpt lon="13.569932" lat="47.958456" /><trkpt lon="13.575039" lat="47.958211" /><trkpt lon="13.581408" lat="47.957326" /><trkpt lon="13.608556" lat="47.951496" /><trkpt lon="13.610772" lat="47.951085" /><trkpt lon="13.613369" lat="47.950835" /><trkpt lon="13.616714" lat="47.950871" /><trkpt lon="13.620184" lat="47.951316" /><trkpt lon="13.643102" lat="47.956313" /><trkpt lon="13.646035" lat="47.956774" /><trkpt lon="13.648472" lat="47.95691" /><trkpt lon="13.651263" lat="47.956729" /><trkpt lon="13.654267" lat="47.956102" /><trkpt lon="13.657102" lat="47.955047" /><trkpt lon="13.667893" lat="47.950159" /><trkpt lon="13.672338" lat="47.948887" /><trkpt lon="13.676174" lat="47.948324" /><trkpt lon="13.680441" lat="47.948176" /><trkpt lon="13.684671" lat="47.948533" /><trkpt lon="13.6883" lat="47.949176" /><trkpt lon="13.694902" lat="47.950679" /><trkpt lon="13.698152" lat="47.951102" /><trkpt lon="13.700997" lat="47.951033" /><trkpt lon="13.707586" lat="47.950087" /><trkpt lon="13.709964" lat="47.950091" /><trkpt lon="13.711892" lat="47.950309" /><trkpt lon="13.716872" lat="47.951414" /><trkpt lon="13.722833" lat="47.952098" /><trkpt lon="13.726332" lat="47.952919" /><trkpt lon="13.729221" lat="47.954122" /><trkpt lon="13.733759" lat="47.956866" /><trkpt lon="13.737147" lat="47.958351" /><trkpt lon="13.757979" lat="47.964717" /><trkpt lon="13.760966" lat="47.96599" /><trkpt lon="13.763435" lat="47.96751" /><trkpt lon="13.765954" lat="47.969812" /><trkpt lon="13.776978" lat="47.98537" /><trkpt lon="13.77842" lat="47.987096" /><trkpt lon="13.781197" lat="47.989669" /><trkpt lon="13.784578" lat="47.992003" /><trkpt lon="13.787986" lat="47.993787" /><trkpt lon="13.800293" lat="47.999144" /><trkpt lon="13.803925" lat="48.000455" /><trkpt lon="13.806741" lat="48.001183" /><trkpt lon="13.809934" lat="48.001726" /><trkpt lon="13.832733" lat="48.00426" /><trkpt lon="13.839405" lat="48.004711" /><trkpt lon="13.847591" lat="48.004655" /><trkpt lon="13.883425" lat="48.002885" /><trkpt lon="13.887945" lat="48.00289" /><trkpt lon="13.89237" lat="48.003094" /><trkpt lon="13.899667" lat="48.003874" /><trkpt lon="13.905217" lat="48.004831" /><trkpt lon="13.9113" lat="48.00631" /><trkpt lon="13.928959" lat="48.011617" /><trkpt lon="13.960561" lat="48.022337" /><trkpt lon="13.963409" lat="48.023513" /><trkpt lon="13.967465" lat="48.02561" /><trkpt lon="13.993831" lat="48.042268" /><trkpt lon="13.996972" lat="48.043975" /><trkpt lon="14.001145" lat="48.045564" /><trkpt lon="14.009489" lat="48.047782" /><trkpt lon="14.012325" lat="48.048681" /><trkpt lon="14.026934" lat="48.054043" /><trkpt lon="14.028857" lat="48.054969" /><trkpt lon="14.030774" lat="48.056152" /><trkpt lon="14.032825" lat="48.057839" /><trkpt lon="14.047864" lat="48.072019" /><trkpt lon="14.06864" lat="48.089817" /><trkpt lon="14.072394" lat="48.092642" /><trkpt lon="14.08774" lat="48.10262" /><trkpt lon="14.093748" lat="48.106949" /><trkpt lon="14.097223" lat="48.109742" /><trkpt lon="14.120995" lat="48.130172" /><trkpt lon="14.125775" lat="48.13318" /><trkpt lon="14.13917" lat="48.139515" /><trkpt lon="14.143099" lat="48.142017" /><trkpt lon="14.145356" lat="48.14382" /><trkpt lon="14.158854" lat="48.155739" /><trkpt lon="14.161629" lat="48.158754" /><trkpt lon="14.17038" lat="48.169235" /><trkpt lon="14.172636" lat="48.171548" /><trkpt lon="14.175286" lat="48.173726" /><trkpt lon="14.17863" lat="48.175934" /><trkpt lon="14.180831" lat="48.177125" /><trkpt lon="14.19776" lat="48.185059" /><trkpt lon="14.200964" lat="48.186321" /><trkpt lon="14.203776" lat="48.187221" /><trkpt lon="14.207637" lat="48.188183" /><trkpt lon="14.211282" lat="48.188831" /><trkpt lon="14.225303" lat="48.190335" /><trkpt lon="14.229993" lat="48.191074" /><trkpt lon="14.234871" lat="48.192277" /><trkpt lon="14.239045" lat="48.19372" /><trkpt lon="14.24163" lat="48.194833" /><trkpt lon="14.255586" lat="48.201613" /><trkpt lon="14.289242" lat="48.216489" /><trkpt lon="14.321963" lat="48.232216" /><trkpt lon="14.32584" lat="48.233669" /><trkpt lon="14.329167" lat="48.234384" /><trkpt lon="14.343424" lat="48.236316" /><trkpt lon="14.349949" lat="48.236655" /><trkpt lon="14.35627" lat="48.236297" /><trkpt lon="14.370916" lat="48.234424" /><trkpt lon="14.37561" lat="48.233261" /><trkpt lon="14.380721" lat="48.231314" /><trkpt lon="14.383219" lat="48.230029" /><trkpt lon="14.39507" lat="48.223124" /><trkpt lon="14.400677" lat="48.220527" /><trkpt lon="14.432897" lat="48.20886" /><trkpt lon="14.435763" lat="48.20802" /><trkpt lon="14.440206" lat="48.207205" /><trkpt lon="14.456976" lat="48.205348" /><trkpt lon="14.465189" lat="48.203546" /><trkpt lon="14.468714" lat="48.202952" /><trkpt lon="14.511845" lat="48.198566" /><trkpt lon="14.514414" lat="48.198161" /><trkpt lon="14.517428" lat="48.19736" /><trkpt lon="14.520222" lat="48.196252" /><trkpt lon="14.522613" lat="48.19492" /><trkpt lon="14.539581" lat="48.183347" /><trkpt lon="14.54257" lat="48.180975" /><trkpt lon="14.543937" lat="48.179612" /><trkpt lon="14.545416" lat="48.177756" /><trkpt lon="14.546727" lat="48.175504" /><trkpt lon="14.549589" lat="48.169109" /><trkpt lon="14.551153" lat="48.166093" /><trkpt lon="14.555647" lat="48.159608" /><trkpt lon="14.55873" lat="48.154399" /><trkpt lon="14.560647" lat="48.151967" /><trkpt lon="14.562619" lat="48.150162" /><trkpt lon="14.564508" lat="48.148796" /><trkpt lon="14.572422" lat="48.144599" /><trkpt lon="14.576513" lat="48.142096" /><trkpt lon="14.579584" lat="48.139833" /><trkpt lon="14.583795" lat="48.136259" /><trkpt lon="14.58751" lat="48.133832" /><trkpt lon="14.589727" lat="48.132835" /><trkpt lon="14.592151" lat="48.132029" /><trkpt lon="14.602138" lat="48.129985" /><trkpt lon="14.60629" lat="48.12856" /><trkpt lon="14.608326" lat="48.127529" /><trkpt lon="14.610695" lat="48.125979" /><trkpt lon="14.622121" lat="48.117797" /><trkpt lon="14.624756" lat="48.116429" /><trkpt lon="14.627013" lat="48.115759" /><trkpt lon="14.629793" lat="48.115431" /><trkpt lon="14.632554" lat="48.115589" /><trkpt lon="14.63585" lat="48.116329" /><trkpt lon="14.64234" lat="48.118199" /><trkpt lon="14.644964" lat="48.118527" /><trkpt lon="14.647078" lat="48.118539" /><trkpt lon="14.651" lat="48.117949" /><trkpt lon="14.662533" lat="48.114838" /><trkpt lon="14.669358" lat="48.113309" /><trkpt lon="14.675425" lat="48.112381" /><trkpt lon="14.681943" lat="48.11194" /><trkpt lon="14.687431" lat="48.112048" /><trkpt lon="14.692006" lat="48.112461" /><trkpt lon="14.696435" lat="48.113148" /><trkpt lon="14.706828" lat="48.115113" /><trkpt lon="14.711568" lat="48.115684" /><trkpt lon="14.715893" lat="48.115948" /><trkpt lon="14.725494" lat="48.116061" /><trkpt lon="14.730835" lat="48.116464" /><trkpt lon="14.735192" lat="48.11723" /><trkpt lon="14.747273" lat="48.120134" /><trkpt lon="14.751181" lat="48.120792" /><trkpt lon="14.754918" lat="48.121148" /><trkpt lon="14.758218" lat="48.121235" /><trkpt lon="14.762603" lat="48.120992" /><trkpt lon="14.774607" lat="48.119063" /><trkpt lon="14.778329" lat="48.118712" /><trkpt lon="14.782206" lat="48.118818" /><trkpt lon="14.793215" lat="48.11981" /><trkpt lon="14.803626" lat="48.119934" /><trkpt lon="14.806477" lat="48.120215" /><trkpt lon="14.808182" lat="48.120579" /><trkpt lon="14.810192" lat="48.121242" /><trkpt lon="14.822688" lat="48.126341" /><trkpt lon="14.824603" lat="48.127506" /><trkpt lon="14.830164" lat="48.132483" /><trkpt lon="14.832354" lat="48.133922" /><trkpt lon="14.835232" lat="48.135209" /><trkpt lon="14.843231" lat="48.138216" /><trkpt lon="14.84614" lat="48.139695" /><trkpt lon="14.851692" lat="48.142955" /><trkpt lon="14.853302" lat="48.143697" /><trkpt lon="14.855333" lat="48.144391" /><trkpt lon="14.858395" lat="48.145019" /><trkpt lon="14.864904" lat="48.145598" /><trkpt lon="14.901658" lat="48.14704" /><trkpt lon="14.904611" lat="48.147034" /><trkpt lon="14.907334" lat="48.146824" /><trkpt lon="14.909916" lat="48.146383" /><trkpt lon="14.912802" lat="48.145558" /><trkpt lon="14.914924" lat="48.144677" /><trkpt lon="14.921153" lat="48.141364" /><trkpt lon="14.924145" lat="48.140018" /><trkpt lon="14.926746" lat="48.139174" /><trkpt lon="14.929478" lat="48.138591" /><trkpt lon="14.931888" lat="48.138304" /><trkpt lon="14.934702" lat="48.138217" /><trkpt lon="14.947856" lat="48.138955" /><trkpt lon="14.953157" lat="48.138896" /><trkpt lon="14.958417" lat="48.138506" /><trkpt lon="14.976699" lat="48.136517" /><trkpt lon="14.981133" lat="48.135854" /><trkpt lon="14.986418" lat="48.134711" /><trkpt lon="15.002625" lat="48.129846" /><trkpt lon="15.006062" lat="48.129137" /><trkpt lon="15.009427" lat="48.128773" /><trkpt lon="15.012752" lat="48.128729" /><trkpt lon="15.017496" lat="48.129143" /><trkpt lon="15.047788" lat="48.133526" /><trkpt lon="15.053418" lat="48.134705" /><trkpt lon="15.058909" lat="48.136481" /><trkpt lon="15.105088" lat="48.156605" /><trkpt lon="15.11047" lat="48.158547" /><trkpt lon="15.113476" lat="48.159218" /><trkpt lon="15.117928" lat="48.159766" /><trkpt lon="15.144248" lat="48.161502" /><trkpt lon="15.150522" lat="48.16213" /><trkpt lon="15.156597" lat="48.163282" /><trkpt lon="15.162421" lat="48.165095" /><trkpt lon="15.180405" lat="48.172095" /><trkpt lon="15.183281" lat="48.173631" /><trkpt lon="15.184709" lat="48.174802" /><trkpt lon="15.185935" lat="48.176291" /><trkpt lon="15.186701" lat="48.17776" /><trkpt lon="15.18851" lat="48.182115" /><trkpt lon="15.189624" lat="48.18381" /><trkpt lon="15.191329" lat="48.185702" /><trkpt lon="15.192799" lat="48.186971" /><trkpt lon="15.195712" lat="48.188871" /><trkpt lon="15.198521" lat="48.190211" /><trkpt lon="15.201742" lat="48.191318" /><trkpt lon="15.227611" lat="48.197359" /><trkpt lon="15.230876" lat="48.197983" /><trkpt lon="15.233421" lat="48.198206" /><trkpt lon="15.235886" lat="48.198193" /><trkpt lon="15.244694" lat="48.197361" /><trkpt lon="15.248126" lat="48.197245" /><trkpt lon="15.250876" lat="48.197459" /><trkpt lon="15.253593" lat="48.197988" /><trkpt lon="15.255912" lat="48.198731" /><trkpt lon="15.258825" lat="48.200047" /><trkpt lon="15.280169" lat="48.211464" /><trkpt lon="15.28427" lat="48.213219" /><trkpt lon="15.289244" lat="48.214662" /><trkpt lon="15.292793" lat="48.215193" /><trkpt lon="15.296532" lat="48.215261" /><trkpt lon="15.299362" lat="48.214942" /><trkpt lon="15.306005" lat="48.213636" /><trkpt lon="15.308511" lat="48.213473" /><trkpt lon="15.310315" lat="48.213546" /><trkpt lon="15.311992" lat="48.213758" /><trkpt lon="15.314253" lat="48.214305" /><trkpt lon="15.320726" lat="48.216689" /><trkpt lon="15.322569" lat="48.217226" /><trkpt lon="15.326189" lat="48.217728" /><trkpt lon="15.3295" lat="48.217676" /><trkpt lon="15.349389" lat="48.216286" /><trkpt lon="15.352354" lat="48.215856" /><trkpt lon="15.355116" lat="48.215035" /><trkpt lon="15.357432" lat="48.213857" /><trkpt lon="15.359258" lat="48.212375" /><trkpt lon="15.360577" lat="48.210701" /><trkpt lon="15.364175" lat="48.205039" /><trkpt lon="15.365916" lat="48.20264" /><trkpt lon="15.367502" lat="48.201053" /><trkpt lon="15.369948" lat="48.199289" /><trkpt lon="15.371767" lat="48.198331" /><trkpt lon="15.374784" lat="48.197103" /><trkpt lon="15.390805" lat="48.191211" /><trkpt lon="15.395048" lat="48.18985" /><trkpt lon="15.398055" lat="48.189145" /><trkpt lon="15.401395" lat="48.18862" /><trkpt lon="15.424977" lat="48.186883" /><trkpt lon="15.428115" lat="48.186548" /><trkpt lon="15.432742" lat="48.185731" /><trkpt lon="15.451665" lat="48.180593" /><trkpt lon="15.455534" lat="48.179202" /><trkpt lon="15.473088" lat="48.172137" /><trkpt lon="15.476923" lat="48.17079" /><trkpt lon="15.481178" lat="48.169829" /><trkpt lon="15.48951" lat="48.168586" /><trkpt lon="15.493666" lat="48.168123" /><trkpt lon="15.498475" lat="48.168105" /><trkpt lon="15.503306" lat="48.168676" /><trkpt lon="15.541223" lat="48.176917" /><trkpt lon="15.545504" lat="48.17759" /><trkpt lon="15.548648" lat="48.177861" /><trkpt lon="15.554152" lat="48.177953" /><trkpt lon="15.565829" lat="48.177144" /><trkpt lon="15.569467" lat="48.177054" /><trkpt lon="15.593327" lat="48.177839" /><trkpt lon="15.639851" lat="48.17594" /><trkpt lon="15.643022" lat="48.175905" /><trkpt lon="15.646795" lat="48.176086" /><trkpt lon="15.650777" lat="48.176584" /><trkpt lon="15.655703" lat="48.17766" /><trkpt lon="15.675459" lat="48.184079" /><trkpt lon="15.678421" lat="48.184903" /><trkpt lon="15.680796" lat="48.185371" /><trkpt lon="15.685168" lat="48.185818" /><trkpt lon="15.688575" lat="48.185774" /><trkpt lon="15.701081" lat="48.184993" /><trkpt lon="15.716124" lat="48.186078" /><trkpt lon="15.745785" lat="48.186363" /><trkpt lon="15.750253" lat="48.186118" /><trkpt lon="15.773851" lat="48.184079" /><trkpt lon="15.777799" lat="48.184101" /><trkpt lon="15.792248" lat="48.185326" /><trkpt lon="15.806787" lat="48.184678" /><trkpt lon="15.809379" lat="48.184313" /><trkpt lon="15.812525" lat="48.183499" /><trkpt lon="15.82341" lat="48.179245" /><trkpt lon="15.825726" lat="48.178507" /><trkpt lon="15.835033" lat="48.176543" /><trkpt lon="15.844719" lat="48.173909" /><trkpt lon="15.852536" lat="48.172837" /><trkpt lon="15.855334" lat="48.172629" /><trkpt lon="15.858116" lat="48.172794" /><trkpt lon="15.862965" lat="48.173565" /><trkpt lon="15.867656" lat="48.173618" /><trkpt lon="15.871078" lat="48.173108" /><trkpt lon="15.876086" lat="48.171649" /><trkpt lon="15.87981" lat="48.170097" /><trkpt lon="15.882234" lat="48.168368" /><trkpt lon="15.88348" lat="48.166939" /><trkpt lon="15.888922" lat="48.159496" /><trkpt lon="15.889723" lat="48.158575" /><trkpt lon="15.891235" lat="48.157246" /><trkpt lon="15.893224" lat="48.155991" /><trkpt lon="15.894691" lat="48.155295" /><trkpt lon="15.898072" lat="48.154197" /><trkpt lon="15.901384" lat="48.153689" /><trkpt lon="15.904642" lat="48.153644" /><trkpt lon="15.910877" lat="48.15391" /><trkpt lon="15.928193" lat="48.155078" /><trkpt lon="15.937125" lat="48.156055" /><trkpt lon="15.949159" lat="48.158161" /><trkpt lon="15.951428" lat="48.15833" /><trkpt lon="15.953892" lat="48.158292" /><trkpt lon="15.957992" lat="48.157735" /><trkpt lon="15.962282" lat="48.156506" /><trkpt lon="15.966316" lat="48.154647" /><trkpt lon="15.971652" lat="48.151787" /><trkpt lon="15.979313" lat="48.149161" /><trkpt lon="15.981835" lat="48.147742" /><trkpt lon="15.982991" lat="48.146444" /><trkpt lon="15.983419" lat="48.145581" /><trkpt lon="15.98362" lat="48.144626" /><trkpt lon="15.983444" lat="48.143247" /><trkpt lon="15.982738" lat="48.141941" /><trkpt lon="15.98194" lat="48.141104" /><trkpt lon="15.975505" lat="48.136375" /><trkpt lon="15.974043" lat="48.134907" /><trkpt lon="15.972696" lat="48.133126" /><trkpt lon="15.971872" lat="48.131493" /><trkpt lon="15.970986" lat="48.128859" /><trkpt lon="15.970519" lat="48.125767" /><trkpt lon="15.970438" lat="48.122684" /><trkpt lon="15.970628" lat="48.120404" /><trkpt lon="15.970979" lat="48.118621" /><trkpt lon="15.971578" lat="48.117006" /><trkpt lon="15.972489" lat="48.115385" /><trkpt lon="15.973679" lat="48.113874" /><trkpt lon="15.979019" lat="48.108453" /><trkpt lon="15.980036" lat="48.106873" /><trkpt lon="15.98033" lat="48.105487" /><trkpt lon="15.980005" lat="48.102498" /><trkpt lon="15.98011" lat="48.101275" /><trkpt lon="15.980992" lat="48.099584" /><trkpt lon="15.982173" lat="48.098485" /><trkpt lon="15.98325" lat="48.097835" /><trkpt lon="15.984864" lat="48.097205" /><trkpt lon="15.98941" lat="48.096368" /><trkpt lon="15.99162" lat="48.095671" /><trkpt lon="16.000015" lat="48.090956" /><trkpt lon="16.002121" lat="48.090046" /><trkpt lon="16.005107" lat="48.089074" /><trkpt lon="16.012464" lat="48.087295" /><trkpt lon="16.021232" lat="48.0862" /><trkpt lon="16.041015" lat="48.081714" /><trkpt lon="16.045668" lat="48.081406" /><trkpt lon="16.04792" lat="48.080963" /><trkpt lon="16.049891" lat="48.080093" /><trkpt lon="16.050931" lat="48.079296" /><trkpt lon="16.052704" lat="48.076784" /><trkpt lon="16.054019" lat="48.075595" /><trkpt lon="16.055506" lat="48.07476" /><trkpt lon="16.062136" lat="48.071691" /><trkpt lon="16.06447" lat="48.070261" /><trkpt lon="16.065847" lat="48.069032" /><trkpt lon="16.069671" lat="48.064816" /><trkpt lon="16.071908" lat="48.063209" /><trkpt lon="16.073448" lat="48.062408" /><trkpt lon="16.074845" lat="48.061946" /><trkpt lon="16.076403" lat="48.061665" /><trkpt lon="16.089046" lat="48.061026" /><trkpt lon="16.092" lat="48.060739" /><trkpt lon="16.093306" lat="48.06044" /><trkpt lon="16.094997" lat="48.059806" /><trkpt lon="16.099788" lat="48.057184" /><trkpt lon="16.101761" lat="48.056584" /><trkpt lon="16.103634" lat="48.056343" /><trkpt lon="16.106591" lat="48.05654" /><trkpt lon="16.108321" lat="48.056989" /><trkpt lon="16.109697" lat="48.057547" /><trkpt lon="16.110828" lat="48.058242" /><trkpt lon="16.112208" lat="48.059376" /><trkpt lon="16.114869" lat="48.062173" /><trkpt lon="16.11636" lat="48.063338" /><trkpt lon="16.118952" lat="48.064421" /><trkpt lon="16.121633" lat="48.064821" /><trkpt lon="16.123591" lat="48.064747" /><trkpt lon="16.125711" lat="48.064315" /><trkpt lon="16.147277" lat="48.057386" /><trkpt lon="16.14947" lat="48.057054" /><trkpt lon="16.152454" lat="48.056959" /><trkpt lon="16.154823" lat="48.057212" /><trkpt lon="16.157524" lat="48.057912" /><trkpt lon="16.160266" lat="48.059112" /><trkpt lon="16.162315" lat="48.060566" /><trkpt lon="16.163836" lat="48.062214" /><trkpt lon="16.170567" lat="48.070665" /><trkpt lon="16.172359" lat="48.072028" /><trkpt lon="16.174656" lat="48.072981" /><trkpt lon="16.176949" lat="48.073423" /><trkpt lon="16.179163" lat="48.073474" /><trkpt lon="16.191263" lat="48.071837" /><trkpt lon="16.196128" lat="48.071534" /><trkpt lon="16.198623" lat="48.071677" /><trkpt lon="16.200507" lat="48.071962" /><trkpt lon="16.202624" lat="48.072482" /><trkpt lon="16.205245" lat="48.073461" /><trkpt lon="16.20733" lat="48.074638" /><trkpt lon="16.208899" lat="48.075821" /><trkpt lon="16.21273" lat="48.080146" /><trkpt lon="16.213721" lat="48.080894" /><trkpt lon="16.215201" lat="48.081711" /><trkpt lon="16.21772" lat="48.082581" /><trkpt lon="16.227847" lat="48.084694" /><trkpt lon="16.230218" lat="48.08561" /><trkpt lon="16.2316" lat="48.086404" /><trkpt lon="16.232963" lat="48.087492" /><trkpt lon="16.233897" lat="48.088537" /><trkpt lon="16.237302" lat="48.094522" /><trkpt lon="16.238023" lat="48.095352" /><trkpt lon="16.239198" lat="48.096331" /><trkpt lon="16.241205" lat="48.097451" /><trkpt lon="16.255683" lat="48.103676" /><trkpt lon="16.257397" lat="48.104942" /><trkpt lon="16.260229" lat="48.107729" /><trkpt lon="16.261549" lat="48.108557" /><trkpt lon="16.263102" lat="48.109232" /><trkpt lon="16.265656" lat="48.109878" /><trkpt lon="16.270504" lat="48.110383" /><trkpt lon="16.273166" lat="48.11103" /><trkpt lon="16.274846" lat="48.111742" /><trkpt lon="16.279749" lat="48.114447" /><trkpt lon="16.281933" lat="48.115206" /><trkpt lon="16.284639" lat="48.115628" /><trkpt lon="16.291596" lat="48.116111" /><trkpt lon="16.29589" lat="48.116835" /><trkpt lon="16.298892" lat="48.117747" /><trkpt lon="16.305857" lat="48.120363" /><trkpt lon="16.308998" lat="48.121205" /><trkpt lon="16.312677" lat="48.121504" /><trkpt lon="16.317418" lat="48.121111" /><trkpt lon="16.319579" lat="48.120672" /><trkpt lon="16.324375" lat="48.118969" /><trkpt lon="16.325896" lat="48.118901" /><trkpt lon="16.327231" lat="48.119247" /><trkpt lon="16.328133" lat="48.119814" /><trkpt lon="16.329263" lat="48.121219" /><trkpt lon="16.329722" lat="48.122206" /><trkpt lon="16.331001" lat="48.126095" /><trkpt lon="16.331967" lat="48.127889" /><trkpt lon="16.332896" lat="48.129141" /><trkpt lon="16.333999" lat="48.130163" /><trkpt lon="16.335773" lat="48.131236" /><trkpt lon="16.33739" lat="48.131854" /><trkpt lon="16.339056" lat="48.132246" /><trkpt lon="16.341439" lat="48.132455" /><trkpt lon="16.343758" lat="48.132288" /><trkpt lon="16.356565" lat="48.129287" /><trkpt lon="16.359401" lat="48.128798" /><trkpt lon="16.364533" lat="48.128219" /><trkpt lon="16.374489" lat="48.127232" /><trkpt lon="16.385713" lat="48.127324" /><trkpt lon="16.391296" lat="48.126703" /><trkpt lon="16.396089" lat="48.125672" /><trkpt lon="16.399435" lat="48.1247" /><trkpt lon="16.402676" lat="48.123528" /><trkpt lon="16.409874" lat="48.120569" /><trkpt lon="16.411981" lat="48.120094" /><trkpt lon="16.413926" lat="48.119905" /><trkpt lon="16.416952" lat="48.119931" /><trkpt lon="16.420166" lat="48.120319" /><trkpt lon="16.427805" lat="48.122156" /><trkpt lon="16.436457" lat="48.123565" /><trkpt lon="16.441922" lat="48.124185" /><trkpt lon="16.447756" lat="48.124637" /><trkpt lon="16.455255" lat="48.124872" /><trkpt lon="16.458978" lat="48.124701" /><trkpt lon="16.46205" lat="48.124202" /><trkpt lon="16.467607" lat="48.122719" /><trkpt lon="16.470308" lat="48.122371" /><trkpt lon="16.473416" lat="48.122429" /><trkpt lon="16.476234" lat="48.122909" /><trkpt lon="16.480506" lat="48.124478" /><trkpt lon="16.48468" lat="48.12651" /><trkpt lon="16.486322" lat="48.127654" /><trkpt lon="16.487663" lat="48.128849" /><trkpt lon="16.489115" lat="48.13084" /><trkpt lon="16.489704" lat="48.132446" /><trkpt lon="16.489825" lat="48.134503" /><trkpt lon="16.489463" lat="48.135996" /><trkpt lon="16.488109" lat="48.139148" /><trkpt lon="16.487588" lat="48.140879" /><trkpt lon="16.487143" lat="48.143309" /><trkpt lon="16.487102" lat="48.14528" /><trkpt lon="16.487428" lat="48.146909" /><trkpt lon="16.48862" lat="48.149336" /><trkpt lon="16.489612" lat="48.149944" /><trkpt lon="16.490749" lat="48.150096" /><trkpt lon="16.502165" lat="48.146667" /><trkpt lon="16.513313" lat="48.143844" /><trkpt lon="16.516072" lat="48.142962" /><trkpt lon="16.518542" lat="48.141993" /><trkpt lon="16.521703" lat="48.140455" /><trkpt lon="16.527874" lat="48.136448" /><trkpt lon="16.531602" lat="48.134542" /><trkpt lon="16.537609" lat="48.13242" /><trkpt lon="16.543273" lat="48.130922" /><trkpt lon="16.548233" lat="48.129957" /><trkpt lon="16.55488" lat="48.129122" /><trkpt lon="16.577457" lat="48.128067" /><trkpt lon="16.587275" lat="48.127043" /><trkpt lon="16.594106" lat="48.125907" /><trkpt lon="16.609947" lat="48.122822" /><trkpt lon="16.617303" lat="48.121181" /><trkpt lon="16.621762" lat="48.119791" /><trkpt lon="16.626136" lat="48.117954" /><trkpt lon="16.63011" lat="48.115743" /><trkpt lon="16.636003" lat="48.11166" /><trkpt lon="16.644873" lat="48.104156" /><trkpt lon="16.647938" lat="48.101858" /><trkpt lon="16.651758" lat="48.099484" /><trkpt lon="16.65945" lat="48.095277" /><trkpt lon="16.664404" lat="48.091985" /><trkpt lon="16.667744" lat="48.089376" /><trkpt lon="16.671101" lat="48.086398" /><trkpt lon="16.673602" lat="48.083825" /><trkpt lon="16.680472" lat="48.076161" /><trkpt lon="16.684918" lat="48.072193" /><trkpt lon="16.689242" lat="48.068969" /><trkpt lon="16.692679" lat="48.066687" /><trkpt lon="16.698163" lat="48.063488" /><trkpt lon="16.702481" lat="48.061296" /><trkpt lon="16.710196" lat="48.058163" /><trkpt lon="16.723195" lat="48.053953" /><trkpt lon="16.740091" lat="48.04807" /><trkpt lon="16.747696" lat="48.045949" /><trkpt lon="16.753122" lat="48.044837" /><trkpt lon="16.760028" lat="48.043892" /><trkpt lon="16.764766" lat="48.043519" /><trkpt lon="16.779904" lat="48.042765" /><trkpt lon="16.78403" lat="48.04237" /><trkpt lon="16.789292" lat="48.041616" /><trkpt lon="16.795871" lat="48.040295" /><trkpt lon="16.805026" lat="48.038077" /><trkpt lon="16.823966" lat="48.032893" /><trkpt lon="16.82721" lat="48.031752" /><trkpt lon="16.829522" lat="48.030617" /><trkpt lon="16.831882" lat="48.029076" /><trkpt lon="16.833813" lat="48.027351" /><trkpt lon="16.835492" lat="48.02522" /><trkpt lon="16.836384" lat="48.023287" /><trkpt lon="16.83645" lat="48.022604" /><trkpt lon="16.836257" lat="48.022205" /><trkpt lon="16.835099" lat="48.02148" /><trkpt lon="16.834787" lat="48.021047" /><trkpt lon="16.835011" lat="48.020485" /><trkpt lon="16.835942" lat="48.020175" /><trkpt lon="16.837971" lat="48.020358" /><trkpt lon="16.840408" lat="48.021018" /><trkpt lon="16.850514" lat="48.026336" /><trkpt lon="16.851962" lat="48.026941" /><trkpt lon="16.855315" lat="48.027915" /><trkpt lon="16.856878" lat="48.028249" /><trkpt lon="16.859929" lat="48.028581" /><trkpt lon="16.867053" lat="48.028635" /><trkpt lon="16.871099" lat="48.028971" /><trkpt lon="16.875313" lat="48.02967" /><trkpt lon="16.879569" lat="48.030789" /><trkpt lon="16.882956" lat="48.032005" /><trkpt lon="16.885373" lat="48.033085" /><trkpt lon="16.89623" lat="48.038993" /><trkpt lon="16.898064" lat="48.03959" /><trkpt lon="16.899931" lat="48.03993" /><trkpt lon="16.903392" lat="48.039956" /><trkpt lon="16.905071" lat="48.039695" /><trkpt lon="16.907406" lat="48.038965" /><trkpt lon="16.909931" lat="48.037527" /><trkpt lon="16.920521" lat="48.030368" /><trkpt lon="16.922458" lat="48.029312" /><trkpt lon="16.925356" lat="48.028082" /><trkpt lon="16.928423" lat="48.027051" /><trkpt lon="16.931592" lat="48.026272" /><trkpt lon="16.935565" lat="48.025644" /><trkpt lon="16.938474" lat="48.025408" /><trkpt lon="16.941167" lat="48.025361" /><trkpt lon="16.944716" lat="48.025539" /><trkpt lon="16.950102" lat="48.026346" /><trkpt lon="16.955256" lat="48.027801" /><trkpt lon="16.957693" lat="48.028781" /><trkpt lon="16.96178" lat="48.03075" /><trkpt lon="16.965664" lat="48.03216" /><trkpt lon="16.968806" lat="48.032926" /><trkpt lon="16.977824" lat="48.034183" /><trkpt lon="16.981675" lat="48.035072" /><trkpt lon="16.983893" lat="48.035862" /><trkpt lon="16.986587" lat="48.037199" /><trkpt lon="16.989013" lat="48.038892" /><trkpt lon="16.990963" lat="48.04081" /><trkpt lon="16.992383" lat="48.042983" /><trkpt lon="16.995547" lat="48.050705" /><trkpt lon="16.997671" lat="48.054105" /><trkpt lon="17.000703" lat="48.05749" /><trkpt lon="17.007849" lat="48.0636" /><trkpt lon="17.009403" lat="48.065101" /><trkpt lon="17.011151" lat="48.067283" /><trkpt lon="17.013168" lat="48.07054" /><trkpt lon="17.014961" lat="48.072632" /><trkpt lon="17.01794" lat="48.075123" /><trkpt lon="17.023215" lat="48.078736" /><trkpt lon="17.026531" lat="48.080306" /><trkpt lon="17.030646" lat="48.081481" /><trkpt lon="17.033652" lat="48.08192" /><trkpt lon="17.037334" lat="48.082031" /><trkpt lon="17.04077" lat="48.081723" /><trkpt lon="17.043505" lat="48.081175" /><trkpt lon="17.046367" lat="48.080264" /><trkpt lon="17.059902" lat="48.074859" /><trkpt lon="17.065921" lat="48.072818" /><trkpt lon="17.070535" lat="48.071428" /><trkpt lon="17.079559" lat="48.069165" /><trkpt lon="17.082186" lat="48.068785" /><trkpt lon="17.084415" lat="48.068741" /><trkpt lon="17.088382" lat="48.069291" /><trkpt lon="17.093578" lat="48.070999" /><trkpt lon="17.096333" lat="48.071539" /><trkpt lon="17.099355" lat="48.071804" /><trkpt lon="17.106999" lat="48.071647" /><trkpt lon="17.109931" lat="48.071874" /><trkpt lon="17.112572" lat="48.072321" /><trkpt lon="17.171159" lat="48.088331" /><trkpt lon="17.175249" lat="48.08924" /><trkpt lon="17.180917" lat="48.090016" /><trkpt lon="17.185001" lat="48.090223" /><trkpt lon="17.188006" lat="48.090179" /><trkpt lon="17.195538" lat="48.089685" /><trkpt lon="17.198409" lat="48.089726" /><trkpt lon="17.201768" lat="48.090195" /><trkpt lon="17.205515" lat="48.091264" /><trkpt lon="17.207288" lat="48.092014" /><trkpt lon="17.20966" lat="48.093346" /><trkpt lon="17.212187" lat="48.095532" /><trkpt lon="17.213884" lat="48.097954" /><trkpt lon="17.215377" lat="48.10226" /><trkpt lon="17.216195" lat="48.103861" /><trkpt lon="17.217954" lat="48.106043" /><trkpt lon="17.22005" lat="48.107838" /><trkpt lon="17.22302" lat="48.109602" /><trkpt lon="17.226396" lat="48.110916" /><trkpt lon="17.229647" lat="48.111692" /><trkpt lon="17.237505" lat="48.112756" /><trkpt lon="17.239821" lat="48.113362" /><trkpt lon="17.243105" lat="48.114658" /><trkpt lon="17.245642" lat="48.116148" /><trkpt lon="17.248243" lat="48.118382" /><trkpt lon="17.249823" lat="48.120381" /><trkpt lon="17.251152" lat="48.123083" /><trkpt lon="17.251637" lat="48.124949" /><trkpt lon="17.251716" lat="48.127195" /><trkpt lon="17.25047" lat="48.134291" /><trkpt lon="17.250077" lat="48.139468" /><trkpt lon="17.250161" lat="48.143421" /><trkpt lon="17.250732" lat="48.148942" /><trkpt lon="17.250541" lat="48.15072" /><trkpt lon="17.24975" lat="48.153541" /><trkpt lon="17.249567" lat="48.155528" /><trkpt lon="17.249888" lat="48.157485" /><trkpt lon="17.251679" lat="48.161772" /><trkpt lon="17.252126" lat="48.163334" /><trkpt lon="17.252293" lat="48.165188" /><trkpt lon="17.252043" lat="48.167286" /><trkpt lon="17.251603" lat="48.168727" /><trkpt lon="17.250917" lat="48.170218" /><trkpt lon="17.249041" lat="48.172742" /><trkpt lon="17.247182" lat="48.17447" /><trkpt lon="17.246113" lat="48.175252" /><trkpt lon="17.242385" lat="48.177539" /><trkpt lon="17.24091" lat="48.17862" /><trkpt lon="17.239496" lat="48.179992" /><trkpt lon="17.238264" lat="48.181679" /><trkpt lon="17.237492" lat="48.183274" /><trkpt lon="17.23709" lat="48.184703" /><trkpt lon="17.236964" lat="48.186197" /><trkpt lon="17.237088" lat="48.189546" /><trkpt lon="17.236702" lat="48.19154" /><trkpt lon="17.236888" lat="48.192544" /><trkpt lon="17.237252" lat="48.192872" /><trkpt lon="17.240041" lat="48.193613" /><trkpt lon="17.242006" lat="48.193745" /><trkpt lon="17.243585" lat="48.193571" /><trkpt lon="17.248844" lat="48.191876" /><trkpt lon="17.249457" lat="48.191246" /><trkpt lon="17.250459" lat="48.189305" /><trkpt lon="17.250734" lat="48.189111" /><trkpt lon="17.258418" lat="48.190154" /><trkpt lon="17.262285" lat="48.191166" /><trkpt lon="17.268244" lat="48.191638" /></trkseg></trk></gpx>