<?xml version='1.0' encoding='utf-8'?>
<gpx xmlns="http://www.topografix.com/GPX/1/1" version="1.1" creator="Yatutbuv"><trk><trkseg><trkpt lon="8.726752" lat="47.8817" /><trkpt lon="8.726856" lat="47.881857" /><trkpt lon="8.72612" lat="47.882563" /><trkpt lon="8.726654" lat="47.883186" /><trkpt lon="8.72729" lat="47.883178" /><trkpt lon="8.72796" lat="47.88345" /><trkpt lon="8.728494" lat="47.884692" /><trkpt lon="8.729417" lat="47.885369" /><trkpt lon="8.730187" lat="47.885573" /><trkpt lon="8.730759" lat="47.885405" /><trkpt lon="8.73371" lat="47.882964" /><trkpt lon="8.737713" lat="47.880426" /><trkpt lon="8.738446" lat="47.879548" /><trkpt lon="8.738783" lat="47.877948" /><trkpt lon="8.739406" lat="47.877007" /><trkpt lon="8.74083" lat="47.876099" /><trkpt lon="8.74252" lat="47.875431" /><trkpt lon="8.743848" lat="47.875219" /><trkpt lon="8.745618" lat="47.875421" /><trkpt lon="8.747334" lat="47.87621" /><trkpt lon="8.750492" lat="47.878257" /><trkpt lon="8.751516" lat="47.878585" /><trkpt lon="8.752715" lat="47.878714" /><trkpt lon="8.753987" lat="47.878592" /><trkpt lon="8.757007" lat="47.877531" /><trkpt lon="8.758188" lat="47.877335" /><trkpt lon="8.762534" lat="47.877678" /><trkpt lon="8.764285" lat="47.877591" /><trkpt lon="8.766052" lat="47.877071" /><trkpt lon="8.767131" lat="47.876242" /><trkpt lon="8.767586" lat="47.875353" /><trkpt lon="8.768163" lat="47.873313" /><trkpt lon="8.769714" lat="47.870401" /><trkpt lon="8.769916" lat="47.869322" /><trkpt lon="8.769895" lat="47.86653" /><trkpt lon="8.770221" lat="47.865135" /><trkpt lon="8.77106" lat="47.86372" /><trkpt lon="8.773612" lat="47.860902" /><trkpt lon="8.77405" lat="47.859675" /><trkpt lon="8.774132" lat="47.858785" /><trkpt lon="8.773854" lat="47.857884" /><trkpt lon="8.77352" lat="47.857673" /><trkpt lon="8.773611" lat="47.857438" /><trkpt lon="8.773246" lat="47.856974" /><trkpt lon="8.770324" lat="47.854978" /><trkpt lon="8.769171" lat="47.853809" /><trkpt lon="8.768607" lat="47.852793" /><trkpt lon="8.768664" lat="47.851255" /><trkpt lon="8.770044" lat="47.849191" /><trkpt lon="8.770245" lat="47.848377" /><trkpt lon="8.768912" lat="47.846224" /><trkpt lon="8.76903" lat="47.84388" /><trkpt lon="8.767991" lat="47.840926" /><trkpt lon="8.767795" lat="47.839864" /><trkpt lon="8.767854" lat="47.83883" /><trkpt lon="8.76893" lat="47.833527" /><trkpt lon="8.768634" lat="47.8326" /><trkpt lon="8.766641" lat="47.828846" /><trkpt lon="8.764518" lat="47.827634" /><trkpt lon="8.762832" lat="47.82554" /><trkpt lon="8.762253" lat="47.825108" /><trkpt lon="8.760968" lat="47.824347" /><trkpt lon="8.757269" lat="47.822872" /><trkpt lon="8.756794" lat="47.821954" /><trkpt lon="8.755815" lat="47.821198" /><trkpt lon="8.75201" lat="47.822277" /><trkpt lon="8.749482" lat="47.8224" /><trkpt lon="8.748105" lat="47.82208" /><trkpt lon="8.746352" lat="47.82121" /><trkpt lon="8.744959" lat="47.820766" /><trkpt lon="8.742315" lat="47.820527" /><trkpt lon="8.739818" lat="47.819912" /><trkpt lon="8.736341" lat="47.81845" /><trkpt lon="8.735108" lat="47.817617" /><trkpt lon="8.734125" lat="47.81627" /><trkpt lon="8.733968" lat="47.815024" /><trkpt lon="8.734679" lat="47.811631" /><trkpt lon="8.735192" lat="47.810533" /><trkpt lon="8.73533" lat="47.809226" /><trkpt lon="8.735911" lat="47.808209" /><trkpt lon="8.735768" lat="47.807569" /><trkpt lon="8.733462" lat="47.805581" /><trkpt lon="8.728334" lat="47.803433" /><trkpt lon="8.728215" lat="47.80312" /><trkpt lon="8.728424" lat="47.801767" /><trkpt lon="8.72826" lat="47.80123" /><trkpt lon="8.727903" lat="47.800777" /><trkpt lon="8.726218" lat="47.799436" /><trkpt lon="8.724583" lat="47.797685" /><trkpt lon="8.722747" lat="47.796871" /><trkpt lon="8.718139" lat="47.795394" /><trkpt lon="8.717887" lat="47.79519" /><trkpt lon="8.719175" lat="47.794663" /><trkpt lon="8.720117" lat="47.793951" /><trkpt lon="8.720961" lat="47.792619" /><trkpt lon="8.721116" lat="47.791563" /><trkpt lon="8.720835" lat="47.790838" /><trkpt lon="8.720378" lat="47.79029" /><trkpt lon="8.717775" lat="47.788733" /><trkpt lon="8.716508" lat="47.787207" /><trkpt lon="8.715193" lat="47.784846" /><trkpt lon="8.714965" lat="47.784116" /><trkpt lon="8.714951" lat="47.783136" /><trkpt lon="8.715401" lat="47.782125" /><trkpt lon="8.713707" lat="47.781293" /><trkpt lon="8.711017" lat="47.78069" /><trkpt lon="8.708632" lat="47.779676" /><trkpt lon="8.705925" lat="47.77746" /><trkpt lon="8.703732" lat="47.776048" /><trkpt lon="8.702947" lat="47.775263" /><trkpt lon="8.702618" lat="47.774639" /><trkpt lon="8.702503" lat="47.773948" /><trkpt lon="8.702863" lat="47.772392" /><trkpt lon="8.702166" lat="47.771459" /><trkpt lon="8.701943" lat="47.770653" /><trkpt lon="8.702421" lat="47.770107" /><trkpt lon="8.70083" lat="47.768561" /><trkpt lon="8.700547" lat="47.76734" /><trkpt lon="8.701051" lat="47.765873" /><trkpt lon="8.701371" lat="47.763985" /><trkpt lon="8.702113" lat="47.762866" /><trkpt lon="8.702266" lat="47.762376" /><trkpt lon="8.70155" lat="47.76064" /><trkpt lon="8.70155" lat="47.75998" /><trkpt lon="8.701773" lat="47.759347" /><trkpt lon="8.703123" lat="47.757067" /><trkpt lon="8.704611" lat="47.755425" /><trkpt lon="8.704972" lat="47.754496" /><trkpt lon="8.705758" lat="47.753465" /><trkpt lon="8.70591" lat="47.753034" /><trkpt lon="8.705752" lat="47.752658" /><trkpt lon="8.70584" lat="47.75123" /><trkpt lon="8.705639" lat="47.750084" /><trkpt lon="8.705456" lat="47.749947" /><trkpt lon="8.706311" lat="47.748967" /><trkpt lon="8.707014" lat="47.7475" /><trkpt lon="8.706968" lat="47.7472" /><trkpt lon="8.707117" lat="47.747142" /><trkpt lon="8.706713" lat="47.746214" /><trkpt lon="8.705332" lat="47.744858" /><trkpt lon="8.705248" lat="47.744499" /><trkpt lon="8.705438" lat="47.74401" /><trkpt lon="8.705413" lat="47.743526" /><trkpt lon="8.704821" lat="47.742657" /><trkpt lon="8.704164" lat="47.742523" /><trkpt lon="8.701506" lat="47.743291" /><trkpt lon="8.697825" lat="47.74466" /><trkpt lon="8.696444" lat="47.744897" /><trkpt lon="8.69315" lat="47.744673" /><trkpt lon="8.690679" lat="47.744092" /><trkpt lon="8.689875" lat="47.74343" /><trkpt lon="8.689634" lat="47.742645" /><trkpt lon="8.691226" lat="47.739089" /><trkpt lon="8.691206" lat="47.738243" /><trkpt lon="8.690692" lat="47.737358" /><trkpt lon="8.689562" lat="47.736501" /><trkpt lon="8.688289" lat="47.736028" /><trkpt lon="8.686618" lat="47.735845" /><trkpt lon="8.683521" lat="47.736097" /><trkpt lon="8.682081" lat="47.736041" /><trkpt lon="8.68068" lat="47.735683" /><trkpt lon="8.679163" lat="47.734823" /><trkpt lon="8.67541" lat="47.731749" /><trkpt lon="8.671387" lat="47.72887" /><trkpt lon="8.670078" lat="47.727624" /><trkpt lon="8.669215" lat="47.726086" /><trkpt lon="8.668098" lat="47.721369" /><trkpt lon="8.66761" lat="47.72044" /><trkpt lon="8.666751" lat="47.719615" /><trkpt lon="8.665724" lat="47.719084" /><trkpt lon="8.664476" lat="47.718766" /><trkpt lon="8.659227" lat="47.719001" /><trkpt lon="8.656927" lat="47.718515" /><trkpt lon="8.655712" lat="47.717892" /><trkpt lon="8.653437" lat="47.716118" /><trkpt lon="8.649647" lat="47.713657" /><trkpt lon="8.648581" lat="47.713195" /><trkpt lon="8.642663" lat="47.711382" /><trkpt lon="8.641221" lat="47.710667" /><trkpt lon="8.640506" lat="47.709971" /><trkpt lon="8.638555" lat="47.707276" /><trkpt lon="8.635731" lat="47.703976" /><trkpt lon="8.634534" lat="47.703093" /><trkpt lon="8.631313" lat="47.701204" /><trkpt lon="8.629342" lat="47.699528" /><trkpt lon="8.627223" lat="47.696998" /><trkpt lon="8.625804" lat="47.694649" /><trkpt lon="8.625237" lat="47.693391" /><trkpt lon="8.62531" lat="47.692364" /><trkpt lon="8.626106" lat="47.691342" /><trkpt lon="8.627264" lat="47.69062" /><trkpt lon="8.629541" lat="47.689724" /><trkpt lon="8.631174" lat="47.688864" /><trkpt lon="8.632504" lat="47.687749" /><trkpt lon="8.633339" lat="47.686594" /><trkpt lon="8.63385" lat="47.685076" /><trkpt lon="8.633868" lat="47.682848" /><trkpt lon="8.633482" lat="47.680267" /><trkpt lon="8.632728" lat="47.678717" /><trkpt lon="8.631975" lat="47.677924" /><trkpt lon="8.630522" lat="47.677043" /><trkpt lon="8.626312" lat="47.675601" /><trkpt lon="8.623421" lat="47.674349" /><trkpt lon="8.621688" lat="47.674039" /><trkpt lon="8.6216" lat="47.673881" /><trkpt lon="8.618695" lat="47.673448" /><trkpt lon="8.617035" lat="47.67413" /><trkpt lon="8.616308" lat="47.674639" /><trkpt lon="8.615545" lat="47.674681" /><trkpt lon="8.615166" lat="47.675527" /><trkpt lon="8.614919" lat="47.675463" /><trkpt lon="8.614589" lat="47.674785" /><trkpt lon="8.614652" lat="47.674549" /><trkpt lon="8.616308" lat="47.674639" /><trkpt lon="8.617311" lat="47.673993" /><trkpt lon="8.618812" lat="47.673428" /><trkpt lon="8.62233" lat="47.673907" /><trkpt lon="8.62276" lat="47.67376" /><trkpt lon="8.622871" lat="47.673605" /><trkpt lon="8.622484" lat="47.671531" /><trkpt lon="8.62279" lat="47.670246" /><trkpt lon="8.624796" lat="47.667172" /><trkpt lon="8.625742" lat="47.664192" /><trkpt lon="8.626247" lat="47.663144" /><trkpt lon="8.627267" lat="47.661752" /><trkpt lon="8.628118" lat="47.660919" /><trkpt lon="8.630275" lat="47.659421" /><trkpt lon="8.639035" lat="47.654874" /><trkpt lon="8.643029" lat="47.652311" /><trkpt lon="8.64801" lat="47.64841" /><trkpt lon="8.655215" lat="47.641314" /><trkpt lon="8.659831" lat="47.637449" /><trkpt lon="8.66343" lat="47.634906" /><trkpt lon="8.675913" lat="47.627228" /><trkpt lon="8.678599" lat="47.625299" /><trkpt lon="8.680301" lat="47.623804" /><trkpt lon="8.682147" lat="47.621563" /><trkpt lon="8.684516" lat="47.61684" /><trkpt lon="8.686214" lat="47.612059" /><trkpt lon="8.686726" lat="47.608174" /><trkpt lon="8.687315" lat="47.606601" /><trkpt lon="8.688064" lat="47.605451" /><trkpt lon="8.690694" lat="47.602443" /><trkpt lon="8.691426" lat="47.601007" /><trkpt lon="8.691512" lat="47.600234" /><trkpt lon="8.691347" lat="47.599292" /><trkpt lon="8.689777" lat="47.595916" /><trkpt lon="8.689535" lat="47.594943" /><trkpt lon="8.689644" lat="47.593725" /><trkpt lon="8.690572" lat="47.591242" /><trkpt lon="8.690609" lat="47.590373" /><trkpt lon="8.690409" lat="47.589529" /><trkpt lon="8.689913" lat="47.588621" /><trkpt lon="8.689201" lat="47.587846" /><trkpt lon="8.685358" lat="47.585328" /><trkpt lon="8.683871" lat="47.583713" /><trkpt lon="8.683272" lat="47.582491" /><trkpt lon="8.683039" lat="47.581427" /><trkpt lon="8.682976" lat="47.577235" /><trkpt lon="8.683241" lat="47.576176" /><trkpt lon="8.683848" lat="47.574983" /><trkpt lon="8.68458" lat="47.574054" /><trkpt lon="8.686622" lat="47.57204" /><trkpt lon="8.687377" lat="47.570913" /><trkpt lon="8.687831" lat="47.569691" /><trkpt lon="8.688093" lat="47.567436" /><trkpt lon="8.688423" lat="47.566294" /><trkpt lon="8.689047" lat="47.565192" /><trkpt lon="8.691096" lat="47.562666" /><trkpt lon="8.691679" lat="47.561202" /><trkpt lon="8.691647" lat="47.559678" /><trkpt lon="8.691245" lat="47.55863" /><trkpt lon="8.6904" lat="47.557477" /><trkpt lon="8.688084" lat="47.555087" /><trkpt lon="8.687077" lat="47.553369" /><trkpt lon="8.686746" lat="47.551478" /><trkpt lon="8.687084" lat="47.549753" /><trkpt lon="8.687601" lat="47.548703" /><trkpt lon="8.689924" lat="47.545098" /><trkpt lon="8.690694" lat="47.543406" /><trkpt lon="8.692913" lat="47.533838" /><trkpt lon="8.693683" lat="47.531757" /><trkpt lon="8.694414" lat="47.530647" /><trkpt lon="8.695436" lat="47.529541" /><trkpt lon="8.697077" lat="47.528281" /><trkpt lon="8.700025" lat="47.526429" /><trkpt lon="8.700977" lat="47.525465" /><trkpt lon="8.70118" lat="47.524874" /><trkpt lon="8.700967" lat="47.524299" /><trkpt lon="8.699936" lat="47.523365" /><trkpt lon="8.696256" lat="47.519081" /><trkpt lon="8.690616" lat="47.514192" /><trkpt lon="8.688343" lat="47.511844" /><trkpt lon="8.687518" lat="47.510668" /><trkpt lon="8.686902" lat="47.509434" /><trkpt lon="8.686584" lat="47.508313" /><trkpt lon="8.686521" lat="47.507008" /><trkpt lon="8.686989" lat="47.505246" /><trkpt lon="8.688162" lat="47.503505" /><trkpt lon="8.691951" lat="47.500148" /><trkpt lon="8.694838" lat="47.496809" /><trkpt lon="8.695955" lat="47.495949" /><trkpt lon="8.699999" lat="47.493476" /><trkpt lon="8.70095" lat="47.492581" /><trkpt lon="8.701611" lat="47.491572" /><trkpt lon="8.701954" lat="47.4905" /><trkpt lon="8.701977" lat="47.488409" /><trkpt lon="8.702149" lat="47.487281" /><trkpt lon="8.7046" lat="47.478778" /><trkpt lon="8.704778" lat="47.473777" /><trkpt lon="8.705006" lat="47.472148" /><trkpt lon="8.705416" lat="47.470866" /><trkpt lon="8.706702" lat="47.468586" /><trkpt lon="8.707273" lat="47.467193" /><trkpt lon="8.707792" lat="47.464783" /><trkpt lon="8.708808" lat="47.462106" /><trkpt lon="8.708978" lat="47.460024" /><trkpt lon="8.708512" lat="47.458125" /><trkpt lon="8.707217" lat="47.456061" /><trkpt lon="8.706144" lat="47.455" /><trkpt lon="8.703005" lat="47.452753" /><trkpt lon="8.700427" lat="47.450592" /><trkpt lon="8.698349" lat="47.448427" /><trkpt lon="8.695935" lat="47.445369" /><trkpt lon="8.694733" lat="47.444164" /><trkpt lon="8.692201" lat="47.44246" /><trkpt lon="8.684586" lat="47.438834" /><trkpt lon="8.682168" lat="47.437009" /><trkpt lon="8.681196" lat="47.435873" /><trkpt lon="8.680477" lat="47.434655" /><trkpt lon="8.678969" lat="47.429877" /><trkpt lon="8.678147" lat="47.428221" /><trkpt lon="8.676659" lat="47.426425" /><trkpt lon="8.674664" lat="47.424873" /><trkpt lon="8.672244" lat="47.423629" /><trkpt lon="8.670171" lat="47.42292" /><trkpt lon="8.667949" lat="47.422437" /><trkpt lon="8.665409" lat="47.422187" /><trkpt lon="8.661668" lat="47.422317" /><trkpt lon="8.652856" lat="47.423599" /><trkpt lon="8.649034" lat="47.423861" /><trkpt lon="8.644492" lat="47.423631" /><trkpt lon="8.640269" lat="47.422867" /><trkpt lon="8.63674" lat="47.421757" /><trkpt lon="8.633255" lat="47.420109" /><trkpt lon="8.63071" lat="47.418492" /><trkpt lon="8.627015" lat="47.415762" /><trkpt lon="8.624848" lat="47.414357" /><trkpt lon="8.622423" lat="47.412973" /><trkpt lon="8.619654" lat="47.411645" /><trkpt lon="8.616323" lat="47.410344" /><trkpt lon="8.613373" lat="47.409424" /><trkpt lon="8.610172" lat="47.408638" /><trkpt lon="8.605674" lat="47.407867" /><trkpt lon="8.597166" lat="47.407336" /><trkpt lon="8.592646" lat="47.407584" /><trkpt lon="8.589828" lat="47.408053" /><trkpt lon="8.582015" lat="47.409844" /><trkpt lon="8.575689" lat="47.411542" /><trkpt lon="8.574299" lat="47.411707" /><trkpt lon="8.572845" lat="47.4116" /><trkpt lon="8.571781" lat="47.411302" /><trkpt lon="8.569769" lat="47.410251" /><trkpt lon="8.566336" lat="47.40754" /><trkpt lon="8.563324" lat="47.405708" /><trkpt lon="8.55423" lat="47.402914" /><trkpt lon="8.548792" lat="47.400434" /><trkpt lon="8.547971" lat="47.400243" /><trkpt lon="8.546183" lat="47.400191" /><trkpt lon="8.54348" lat="47.399672" /><trkpt lon="8.541967" lat="47.399092" /><trkpt lon="8.536057" lat="47.398159" /><trkpt lon="8.534157" lat="47.398016" /><trkpt lon="8.527144" lat="47.396175" /><trkpt lon="8.526009" lat="47.395382" /><trkpt lon="8.524717" lat="47.393653" /><trkpt lon="8.523941" lat="47.39231" /><trkpt lon="8.522887" lat="47.391193" /><trkpt lon="8.52249" lat="47.390991" /><trkpt lon="8.521837" lat="47.390946" /><trkpt lon="8.518048" lat="47.391945" /><trkpt lon="8.515798" lat="47.391266" /><trkpt lon="8.513718" lat="47.391655" /><trkpt lon="8.513489" lat="47.391544" /><trkpt lon="8.512113" lat="47.389658" /><trkpt lon="8.503278" lat="47.392267" /><trkpt lon="8.501567" lat="47.393453" /><trkpt lon="8.500718" lat="47.393771" /><trkpt lon="8.494916" lat="47.393633" /><trkpt lon="8.492016" lat="47.393784" /><trkpt lon="8.488635" lat="47.394393" /><trkpt lon="8.483714" lat="47.395639" /><trkpt lon="8.479843" lat="47.396784" /><trkpt lon="8.47715" lat="47.397854" /><trkpt lon="8.4769" lat="47.39825" /><trkpt lon="8.476858" lat="47.39902" /><trkpt lon="8.47636" lat="47.399264" /><trkpt lon="8.475945" lat="47.399206" /><trkpt lon="8.474799" lat="47.398306" /><trkpt lon="8.472681" lat="47.394381" /><trkpt lon="8.472325" lat="47.394235" /><trkpt lon="8.47181" lat="47.394303" /><trkpt lon="8.47157" lat="47.394511" /><trkpt lon="8.471557" lat="47.394815" /><trkpt lon="8.472133" lat="47.395113" /><trkpt lon="8.473062" lat="47.394902" /><trkpt lon="8.473109" lat="47.394556" /><trkpt lon="8.472554" lat="47.393835" /><trkpt lon="8.465819" lat="47.396461" /><trkpt lon="8.465994" lat="47.396718" /><trkpt lon="8.466343" lat="47.396512" /><trkpt lon="8.466297" lat="47.396398" /><trkpt lon="8.467399" lat="47.395986" /><trkpt lon="8.467264" lat="47.395629" /><trkpt lon="8.47253" lat="47.393686" /><trkpt lon="8.473175" lat="47.394484" /><trkpt lon="8.473178" lat="47.394903" /><trkpt lon="8.472365" lat="47.395139" /><trkpt lon="8.471593" lat="47.394866" /><trkpt lon="8.47157" lat="47.394511" /><trkpt lon="8.47181" lat="47.394303" /><trkpt lon="8.472325" lat="47.394235" /><trkpt lon="8.472681" lat="47.394381" /><trkpt lon="8.47489" lat="47.398421" /><trkpt lon="8.475945" lat="47.399206" /><trkpt lon="8.47636" lat="47.399264" /><trkpt lon="8.476672" lat="47.399097" /><trkpt lon="8.476833" lat="47.398833" /><trkpt lon="8.476687" lat="47.398581" /><trkpt lon="8.476234" lat="47.398462" /><trkpt lon="8.47576" lat="47.398572" /><trkpt lon="8.470596" lat="47.402117" /><trkpt lon="8.468229" lat="47.403458" /><trkpt lon="8.465134" lat="47.404532" /><trkpt lon="8.460241" lat="47.405425" /><trkpt lon="8.458517" lat="47.405939" /><trkpt lon="8.456981" lat="47.406668" /><trkpt lon="8.453861" lat="47.40865" /><trkpt lon="8.451461" lat="47.409687" /><trkpt lon="8.449324" lat="47.410225" /><trkpt lon="8.446776" lat="47.410496" /><trkpt lon="8.439468" lat="47.410298" /><trkpt lon="8.435643" lat="47.410409" /><trkpt lon="8.432599" lat="47.410798" /><trkpt lon="8.430206" lat="47.411295" /><trkpt lon="8.425782" lat="47.412706" /><trkpt lon="8.413869" lat="47.418294" /><trkpt lon="8.40852" lat="47.420216" /><trkpt lon="8.404364" lat="47.421235" /><trkpt lon="8.401311" lat="47.421753" /><trkpt lon="8.389943" lat="47.422657" /><trkpt lon="8.384901" lat="47.423468" /><trkpt lon="8.379993" lat="47.424878" /><trkpt lon="8.365189" lat="47.430064" /><trkpt lon="8.362533" lat="47.431145" /><trkpt lon="8.356764" lat="47.434086" /><trkpt lon="8.351197" lat="47.436364" /><trkpt lon="8.349294" lat="47.437355" /><trkpt lon="8.347699" lat="47.438439" /><trkpt lon="8.346172" lat="47.439817" /><trkpt lon="8.344933" lat="47.441266" /><trkpt lon="8.337248" lat="47.451668" /><trkpt lon="8.335589" lat="47.453081" /><trkpt lon="8.333202" lat="47.454161" /><trkpt lon="8.331389" lat="47.454589" /><trkpt lon="8.329515" lat="47.45479" /><trkpt lon="8.324827" lat="47.454627" /><trkpt lon="8.320739" lat="47.45469" /><trkpt lon="8.317964" lat="47.454238" /><trkpt lon="8.314281" lat="47.453137" /><trkpt lon="8.312859" lat="47.453083" /><trkpt lon="8.311705" lat="47.453235" /><trkpt lon="8.310411" lat="47.453647" /><trkpt lon="8.309214" lat="47.454388" /><trkpt lon="8.308578" lat="47.455074" /><trkpt lon="8.306935" lat="47.457574" /><trkpt lon="8.305771" lat="47.458578" /><trkpt lon="8.303065" lat="47.459773" /><trkpt lon="8.300834" lat="47.460122" /><trkpt lon="8.296279" lat="47.459941" /><trkpt lon="8.277675" lat="47.45754" /><trkpt lon="8.275817" lat="47.457165" /><trkpt lon="8.273624" lat="47.456473" /><trkpt lon="8.266561" lat="47.453191" /><trkpt lon="8.263295" lat="47.451904" /><trkpt lon="8.251329" lat="47.448441" /><trkpt lon="8.249023" lat="47.447352" /><trkpt lon="8.246585" lat="47.445809" /><trkpt lon="8.243829" lat="47.443253" /><trkpt lon="8.241754" lat="47.440362" /><trkpt lon="8.240248" lat="47.437387" /><trkpt lon="8.237202" lat="47.429729" /><trkpt lon="8.236464" lat="47.428511" /><trkpt lon="8.235165" lat="47.426925" /><trkpt lon="8.233242" lat="47.425223" /><trkpt lon="8.227972" lat="47.421786" /><trkpt lon="8.225177" lat="47.419512" /><trkpt lon="8.223308" lat="47.417432" /><trkpt lon="8.219718" lat="47.412501" /><trkpt lon="8.217695" lat="47.410443" /><trkpt lon="8.215274" lat="47.408594" /><trkpt lon="8.210029" lat="47.405289" /><trkpt lon="8.208234" lat="47.403755" /><trkpt lon="8.206091" lat="47.401584" /><trkpt lon="8.203742" lat="47.399969" /><trkpt lon="8.201082" lat="47.398871" /><trkpt lon="8.198115" lat="47.398225" /><trkpt lon="8.187534" lat="47.397461" /><trkpt lon="8.177416" lat="47.395607" /><trkpt lon="8.170498" lat="47.395269" /><trkpt lon="8.167754" lat="47.394961" /><trkpt lon="8.165493" lat="47.394485" /><trkpt lon="8.159294" lat="47.392771" /><trkpt lon="8.155183" lat="47.392012" /><trkpt lon="8.147563" lat="47.391094" /><trkpt lon="8.144245" lat="47.39089" /><trkpt lon="8.140917" lat="47.390998" /><trkpt lon="8.134757" lat="47.391549" /><trkpt lon="8.129818" lat="47.391472" /><trkpt lon="8.126958" lat="47.391104" /><trkpt lon="8.124647" lat="47.39062" /><trkpt lon="8.119999" lat="47.389069" /><trkpt lon="8.116393" lat="47.387161" /><trkpt lon="8.113823" lat="47.385219" /><trkpt lon="8.111921" lat="47.383279" /><trkpt lon="8.108346" lat="47.379021" /><trkpt lon="8.105199" lat="47.376072" /><trkpt lon="8.102009" lat="47.373765" /><trkpt lon="8.097838" lat="47.371366" /><trkpt lon="8.092424" lat="47.368758" /><trkpt lon="8.088297" lat="47.36717" /><trkpt lon="8.082616" lat="47.365508" /><trkpt lon="8.073194" lat="47.363463" /><trkpt lon="8.070877" lat="47.362619" /><trkpt lon="8.068635" lat="47.361385" /><trkpt lon="8.06276" lat="47.356499" /><trkpt lon="8.055227" lat="47.351559" /><trkpt lon="8.0508" lat="47.348052" /><trkpt lon="8.046216" lat="47.343699" /><trkpt lon="8.038352" lat="47.335552" /><trkpt lon="8.035377" lat="47.332891" /><trkpt lon="8.032421" lat="47.330799" /><trkpt lon="8.026385" lat="47.327132" /><trkpt lon="8.022161" lat="47.324053" /><trkpt lon="8.019039" lat="47.322657" /><trkpt lon="8.015889" lat="47.321968" /><trkpt lon="8.013131" lat="47.321817" /><trkpt lon="8.010346" lat="47.322068" /><trkpt lon="8.004361" lat="47.323448" /><trkpt lon="8.001784" lat="47.323742" /><trkpt lon="7.999175" lat="47.323689" /><trkpt lon="7.993844" lat="47.322988" /><trkpt lon="7.991969" lat="47.322894" /><trkpt lon="7.989635" lat="47.323029" /><trkpt lon="7.984529" lat="47.323697" /><trkpt lon="7.980976" lat="47.323791" /><trkpt lon="7.97745" lat="47.323474" /><trkpt lon="7.960188" lat="47.320776" /><trkpt lon="7.953851" lat="47.319254" /><trkpt lon="7.942306" lat="47.315423" /><trkpt lon="7.940744" lat="47.314719" /><trkpt lon="7.93915" lat="47.313765" /><trkpt lon="7.933201" lat="47.309093" /><trkpt lon="7.92978" lat="47.306888" /><trkpt lon="7.927808" lat="47.306002" /><trkpt lon="7.925462" lat="47.305253" /><trkpt lon="7.923209" lat="47.304787" /><trkpt lon="7.920872" lat="47.30453" /><trkpt lon="7.917039" lat="47.304601" /><trkpt lon="7.913274" lat="47.30526" /><trkpt lon="7.910234" lat="47.306292" /><trkpt lon="7.9037" lat="47.309578" /><trkpt lon="7.899338" lat="47.31125" /><trkpt lon="7.893954" lat="47.312566" /><trkpt lon="7.888516" lat="47.313187" /><trkpt lon="7.883701" lat="47.313269" /><trkpt lon="7.875949" lat="47.313042" /><trkpt lon="7.872639" lat="47.31269" /><trkpt lon="7.867503" lat="47.311859" /><trkpt lon="7.865297" lat="47.311687" /><trkpt lon="7.862449" lat="47.311804" /><trkpt lon="7.857983" lat="47.312252" /><trkpt lon="7.855027" lat="47.312255" /><trkpt lon="7.85084" lat="47.311695" /><trkpt lon="7.841919" lat="47.309798" /><trkpt lon="7.837648" lat="47.309437" /><trkpt lon="7.8348" lat="47.309518" /><trkpt lon="7.83198" lat="47.3098" /><trkpt lon="7.821539" lat="47.311531" /><trkpt lon="7.815474" lat="47.312154" /><trkpt lon="7.809681" lat="47.312231" /><trkpt lon="7.803577" lat="47.311803" /><trkpt lon="7.799392" lat="47.311206" /><trkpt lon="7.7935" lat="47.30998" /><trkpt lon="7.789051" lat="47.308797" /><trkpt lon="7.783928" lat="47.30719" /><trkpt lon="7.776682" lat="47.304593" /><trkpt lon="7.754943" lat="47.296246" /><trkpt lon="7.735926" lat="47.28941" /><trkpt lon="7.730609" lat="47.287209" /><trkpt lon="7.728265" lat="47.286061" /><trkpt lon="7.725123" lat="47.284232" /><trkpt lon="7.722711" lat="47.282474" /><trkpt lon="7.720883" lat="47.280784" /><trkpt lon="7.719671" lat="47.27938" /><trkpt lon="7.718319" lat="47.27736" /><trkpt lon="7.71714" lat="47.275" /><trkpt lon="7.715124" lat="47.270231" /><trkpt lon="7.713191" lat="47.266819" /><trkpt lon="7.711924" lat="47.26525" /><trkpt lon="7.710148" lat="47.263525" /><trkpt lon="7.708338" lat="47.262126" /><trkpt lon="7.706078" lat="47.260724" /><trkpt lon="7.701757" lat="47.258785" /><trkpt lon="7.697302" lat="47.257529" /><trkpt lon="7.693052" lat="47.256886" /><trkpt lon="7.684104" lat="47.256257" /><trkpt lon="7.679639" lat="47.25541" /><trkpt lon="7.675972" lat="47.254072" /><trkpt lon="7.669918" lat="47.250754" /><trkpt lon="7.66791" lat="47.249842" /><trkpt lon="7.665176" lat="47.248939" /><trkpt lon="7.65986" lat="47.247597" /><trkpt lon="7.657266" lat="47.246678" /><trkpt lon="7.653842" lat="47.244857" /><trkpt lon="7.649349" lat="47.241424" /><trkpt lon="7.645734" lat="47.239128" /><trkpt lon="7.643661" lat="47.238328" /><trkpt lon="7.63925" lat="47.237766" /><trkpt lon="7.636719" lat="47.23699" /><trkpt lon="7.633108" lat="47.235036" /><trkpt lon="7.628056" lat="47.231454" /><trkpt lon="7.625414" lat="47.229963" /><trkpt lon="7.622224" lat="47.228582" /><trkpt lon="7.614079" lat="47.22555" /><trkpt lon="7.611147" lat="47.224162" /><trkpt lon="7.607615" lat="47.22186" /><trkpt lon="7.606072" lat="47.220527" /><trkpt lon="7.604654" lat="47.219024" /><trkpt lon="7.603386" lat="47.217327" /><trkpt lon="7.602162" lat="47.215175" /><trkpt lon="7.601186" lat="47.212826" /><trkpt lon="7.600447" lat="47.210152" /><trkpt lon="7.600021" lat="47.206009" /><trkpt lon="7.600173" lat="47.198956" /><trkpt lon="7.600082" lat="47.196384" /><trkpt lon="7.59971" lat="47.193783" /><trkpt lon="7.599033" lat="47.191239" /><trkpt lon="7.597311" lat="47.187235" /><trkpt lon="7.591572" lat="47.177514" /><trkpt lon="7.590301" lat="47.174729" /><trkpt lon="7.589458" lat="47.17204" /><trkpt lon="7.588876" lat="47.168516" /><trkpt lon="7.588874" lat="47.164943" /><trkpt lon="7.589409" lat="47.161661" /><trkpt lon="7.591293" lat="47.155336" /><trkpt lon="7.591656" lat="47.153593" /><trkpt lon="7.591819" lat="47.150686" /><trkpt lon="7.591565" lat="47.148438" /><trkpt lon="7.590979" lat="47.146185" /><trkpt lon="7.59026" lat="47.144255" /><trkpt lon="7.585929" lat="47.135007" /><trkpt lon="7.582514" lat="47.126999" /><trkpt lon="7.579761" lat="47.119355" /><trkpt lon="7.578051" lat="47.113644" /><trkpt lon="7.575785" lat="47.104697" /><trkpt lon="7.572986" lat="47.092421" /><trkpt lon="7.572961" lat="47.090634" /><trkpt lon="7.573867" lat="47.086364" /><trkpt lon="7.573983" lat="47.084697" /><trkpt lon="7.573626" lat="47.082775" /><trkpt lon="7.572682" lat="47.080732" /><trkpt lon="7.568035" lat="47.073887" /><trkpt lon="7.564212" lat="47.068596" /><trkpt lon="7.561077" lat="47.065008" /><trkpt lon="7.558443" lat="47.062516" /><trkpt lon="7.556728" lat="47.06134" /><trkpt lon="7.554815" lat="47.060391" /><trkpt lon="7.546234" lat="47.057125" /><trkpt lon="7.53983" lat="47.054041" /><trkpt lon="7.535476" lat="47.051069" /><trkpt lon="7.531991" lat="47.047809" /><trkpt lon="7.530204" lat="47.045505" /><trkpt lon="7.529306" lat="47.043502" /><trkpt lon="7.528904" lat="47.041401" /><trkpt lon="7.528416" lat="47.035111" /><trkpt lon="7.527732" lat="47.032576" /><trkpt lon="7.526556" lat="47.03047" /><trkpt lon="7.525035" lat="47.028849" /><trkpt lon="7.522741" lat="47.027267" /><trkpt lon="7.520494" lat="47.026247" /><trkpt lon="7.501239" lat="47.019853" /><trkpt lon="7.499528" lat="47.018983" /><trkpt lon="7.497992" lat="47.017749" /><trkpt lon="7.496936" lat="47.016313" /><trkpt lon="7.496402" lat="47.014796" /><trkpt lon="7.496354" lat="47.013535" /><trkpt lon="7.496815" lat="47.010578" /><trkpt lon="7.496696" lat="47.00958" /><trkpt lon="7.496308" lat="47.008469" /><trkpt lon="7.494958" lat="47.006369" /><trkpt lon="7.491117" lat="47.002094" /><trkpt lon="7.485491" lat="46.99655" /><trkpt lon="7.482676" lat="46.993216" /><trkpt lon="7.48141" lat="46.992038" /><trkpt lon="7.479035" lat="46.990688" /><trkpt lon="7.472937" lat="46.988745" /><trkpt lon="7.470886" lat="46.987841" /><trkpt lon="7.468712" lat="46.98628" /><trkpt lon="7.467335" lat="46.98455" /><trkpt lon="7.466894" lat="46.983592" /><trkpt lon="7.4666" lat="46.982343" /><trkpt lon="7.466579" lat="46.981402" /><trkpt lon="7.46679" lat="46.980214" /><trkpt lon="7.467582" lat="46.978346" /><trkpt lon="7.470277" lat="46.974126" /><trkpt lon="7.470735" lat="46.972951" /><trkpt lon="7.470743" lat="46.971975" /><trkpt lon="7.470523" lat="46.971369" /><trkpt lon="7.470038" lat="46.970829" /><trkpt lon="7.46942" lat="46.970459" /><trkpt lon="7.468228" lat="46.970154" /><trkpt lon="7.46491" lat="46.969974" /><trkpt lon="7.46092" lat="46.969121" /><trkpt lon="7.459129" lat="46.968947" /><trkpt lon="7.457079" lat="46.969046" /><trkpt lon="7.452864" lat="46.969718" /><trkpt lon="7.449675" lat="46.969679" /><trkpt lon="7.446668" lat="46.969064" /><trkpt lon="7.440179" lat="46.967139" /><trkpt lon="7.432786" lat="46.965814" /><trkpt lon="7.430061" lat="46.964893" /><trkpt lon="7.427798" lat="46.963656" /><trkpt lon="7.423959" lat="46.960848" /><trkpt lon="7.415197" lat="46.954001" /><trkpt lon="7.412848" lat="46.952545" /><trkpt lon="7.411006" lat="46.951749" /><trkpt lon="7.409238" lat="46.951243" /><trkpt lon="7.406961" lat="46.950884" /><trkpt lon="7.405067" lat="46.950812" /><trkpt lon="7.403137" lat="46.950943" /><trkpt lon="7.40131" lat="46.951268" /><trkpt lon="7.399364" lat="46.951855" /><trkpt lon="7.395657" lat="46.953624" /><trkpt lon="7.394128" lat="46.95417" /><trkpt lon="7.391869" lat="46.954519" /><trkpt lon="7.389533" lat="46.954387" /><trkpt lon="7.387565" lat="46.953859" /><trkpt lon="7.385724" lat="46.952872" /><trkpt lon="7.38464" lat="46.951868" /><trkpt lon="7.382141" lat="46.948626" /><trkpt lon="7.380885" lat="46.947619" /><trkpt lon="7.379329" lat="46.946735" /><trkpt lon="7.377185" lat="46.945903" /><trkpt lon="7.374092" lat="46.945003" /><trkpt lon="7.371562" lat="46.944539" /><trkpt lon="7.368681" lat="46.944296" /><trkpt lon="7.364882" lat="46.944421" /><trkpt lon="7.35677" lat="46.945444" /><trkpt lon="7.348372" lat="46.945971" /><trkpt lon="7.345437" lat="46.946458" /><trkpt lon="7.343771" lat="46.946914" /><trkpt lon="7.338241" lat="46.948901" /><trkpt lon="7.33251" lat="46.949892" /><trkpt lon="7.329884" lat="46.950587" /><trkpt lon="7.327433" lat="46.95171" /><trkpt lon="7.32373" lat="46.954296" /><trkpt lon="7.321932" lat="46.955343" /><trkpt lon="7.319347" lat="46.956308" /><trkpt lon="7.316451" lat="46.956879" /><trkpt lon="7.313762" lat="46.956998" /><trkpt lon="7.307004" lat="46.95633" /><trkpt lon="7.30413" lat="46.956409" /><trkpt lon="7.302052" lat="46.956745" /><trkpt lon="7.295581" lat="46.958305" /><trkpt lon="7.28856" lat="46.959028" /><trkpt lon="7.282846" lat="46.959992" /><trkpt lon="7.279372" lat="46.960388" /><trkpt lon="7.275856" lat="46.960466" /><trkpt lon="7.265624" lat="46.959998" /><trkpt lon="7.259997" lat="46.960241" /><trkpt lon="7.254502" lat="46.961027" /><trkpt lon="7.243797" lat="46.96336" /><trkpt lon="7.237323" lat="46.964014" /><trkpt lon="7.232876" lat="46.964035" /><trkpt lon="7.228191" lat="46.963684" /><trkpt lon="7.212277" lat="46.960992" /><trkpt lon="7.206762" lat="46.960295" /><trkpt lon="7.201883" lat="46.959917" /><trkpt lon="7.198659" lat="46.959998" /><trkpt lon="7.1961" lat="46.960348" /><trkpt lon="7.194071" lat="46.960816" /><trkpt lon="7.188889" lat="46.962454" /><trkpt lon="7.186577" lat="46.96288" /><trkpt lon="7.183388" lat="46.962969" /><trkpt lon="7.181734" lat="46.962793" /><trkpt lon="7.179661" lat="46.962343" /><trkpt lon="7.177547" lat="46.961599" /><trkpt lon="7.17522" lat="46.960475" /><trkpt lon="7.172739" lat="46.958968" /><trkpt lon="7.170504" lat="46.957267" /><trkpt lon="7.168899" lat="46.955763" /><trkpt lon="7.167427" lat="46.954064" /><trkpt lon="7.163965" lat="46.948944" /><trkpt lon="7.161612" lat="46.946852" /><trkpt lon="7.15915" lat="46.945391" /><trkpt lon="7.153013" lat="46.942428" /><trkpt lon="7.147726" lat="46.939538" /><trkpt lon="7.142697" lat="46.936349" /><trkpt lon="7.137238" lat="46.932257" /><trkpt lon="7.13448" lat="46.929601" /><trkpt lon="7.132586" lat="46.927175" /><trkpt lon="7.131447" lat="46.925308" /><trkpt lon="7.12894" lat="46.920395" /><trkpt lon="7.128069" lat="46.919089" /><trkpt lon="7.126494" lat="46.917588" /><trkpt lon="7.124499" lat="46.916388" /><trkpt lon="7.122025" lat="46.915478" /><trkpt lon="7.103085" lat="46.91066" /><trkpt lon="7.099481" lat="46.909146" /><trkpt lon="7.093845" lat="46.905693" /><trkpt lon="7.089153" lat="46.903433" /><trkpt lon="7.081368" lat="46.900376" /><trkpt lon="7.074511" lat="46.898217" /><trkpt lon="7.06971" lat="46.896974" /><trkpt lon="7.065682" lat="46.896197" /><trkpt lon="7.063074" lat="46.895977" /><trkpt lon="7.053642" lat="46.895723" /><trkpt lon="7.050976" lat="46.895312" /><trkpt lon="7.048131" lat="46.894561" /><trkpt lon="7.0457" lat="46.893618" /><trkpt lon="7.043845" lat="46.892661" /><trkpt lon="7.034643" lat="46.886739" /><trkpt lon="7.031059" lat="46.884734" /><trkpt lon="7.026624" lat="46.882702" /><trkpt lon="7.021298" lat="46.880795" /><trkpt lon="7.017019" lat="46.879624" /><trkpt lon="7.012881" lat="46.878757" /><trkpt lon="6.998731" lat="46.876951" /><trkpt lon="6.992771" lat="46.875905" /><trkpt lon="6.987777" lat="46.874617" /><trkpt lon="6.981962" lat="46.87258" /><trkpt lon="6.95541" lat="46.861191" /><trkpt lon="6.952302" lat="46.8597" /><trkpt lon="6.949015" lat="46.857851" /><trkpt lon="6.944905" lat="46.855046" /><trkpt lon="6.915541" lat="46.83175" /><trkpt lon="6.911928" lat="46.829457" /><trkpt lon="6.908218" lat="46.827761" /><trkpt lon="6.903933" lat="46.826429" /><trkpt lon="6.899843" lat="46.825644" /><trkpt lon="6.894702" lat="46.825261" /><trkpt lon="6.890272" lat="46.825439" /><trkpt lon="6.885815" lat="46.826109" /><trkpt lon="6.881965" lat="46.827123" /><trkpt lon="6.878411" lat="46.828453" /><trkpt lon="6.871672" lat="46.831347" /><trkpt lon="6.86884" lat="46.832219" /><trkpt lon="6.865938" lat="46.83269" /><trkpt lon="6.863585" lat="46.832814" /><trkpt lon="6.860766" lat="46.832655" /><trkpt lon="6.857979" lat="46.832149" /><trkpt lon="6.854873" lat="46.831183" /><trkpt lon="6.848934" lat="46.828713" /><trkpt lon="6.845022" lat="46.827349" /><trkpt lon="6.840681" lat="46.826231" /><trkpt lon="6.830821" lat="46.824085" /><trkpt lon="6.828211" lat="46.823313" /><trkpt lon="6.8254" lat="46.82224" /><trkpt lon="6.822621" lat="46.820873" /><trkpt lon="6.819372" lat="46.818807" /><trkpt lon="6.810979" lat="46.811562" /><trkpt lon="6.807312" lat="46.808854" /><trkpt lon="6.80149" lat="46.805336" /><trkpt lon="6.795612" lat="46.802494" /><trkpt lon="6.77007" lat="46.792507" /><trkpt lon="6.766562" lat="46.791504" /><trkpt lon="6.758972" lat="46.789769" /><trkpt lon="6.754888" lat="46.788503" /><trkpt lon="6.7523" lat="46.787443" /><trkpt lon="6.747469" lat="46.784962" /><trkpt lon="6.745852" lat="46.784299" /><trkpt lon="6.742871" lat="46.783562" /><trkpt lon="6.737052" lat="46.782905" /><trkpt lon="6.734158" lat="46.782107" /><trkpt lon="6.731817" lat="46.780983" /><trkpt lon="6.727961" lat="46.778133" /><trkpt lon="6.725756" lat="46.776937" /><trkpt lon="6.718111" lat="46.774605" /><trkpt lon="6.708535" lat="46.770212" /><trkpt lon="6.695954" lat="46.765551" /><trkpt lon="6.691356" lat="46.763457" /><trkpt lon="6.683676" lat="46.759274" /><trkpt lon="6.679596" lat="46.757614" /><trkpt lon="6.676904" lat="46.756851" /><trkpt lon="6.672389" lat="46.756117" /><trkpt lon="6.66861" lat="46.755931" /><trkpt lon="6.664043" lat="46.756255" /><trkpt lon="6.66059" lat="46.756901" /><trkpt lon="6.658143" lat="46.757576" /><trkpt lon="6.654577" lat="46.758983" /><trkpt lon="6.649816" lat="46.761379" /><trkpt lon="6.648325" lat="46.761932" /><trkpt lon="6.646147" lat="46.76224" /><trkpt lon="6.644254" lat="46.76209" /><trkpt lon="6.642091" lat="46.761395" /><trkpt lon="6.635311" lat="46.757206" /><trkpt lon="6.632705" lat="46.755886" /><trkpt lon="6.628988" lat="46.754277" /><trkpt lon="6.625508" lat="46.753023" /><trkpt lon="6.6219" lat="46.751953" /><trkpt lon="6.608442" lat="46.749015" /><trkpt lon="6.60363" lat="46.747738" /><trkpt lon="6.599679" lat="46.746495" /><trkpt lon="6.594457" lat="46.744559" /><trkpt lon="6.59012" lat="46.742668" /><trkpt lon="6.585352" lat="46.74025" /><trkpt lon="6.581437" lat="46.737954" /><trkpt lon="6.576139" lat="46.734302" /><trkpt lon="6.572617" lat="46.731362" /><trkpt lon="6.570737" lat="46.729114" /><trkpt lon="6.570077" lat="46.727833" /><trkpt lon="6.569758" lat="46.726752" /><trkpt lon="6.569656" lat="46.725605" /><trkpt lon="6.569778" lat="46.724509" /><trkpt lon="6.570165" lat="46.723318" /><trkpt lon="6.570722" lat="46.722299" /><trkpt lon="6.572017" lat="46.720752" /><trkpt lon="6.576337" lat="46.716758" /><trkpt lon="6.578154" lat="46.714091" /><trkpt lon="6.578798" lat="46.712544" /><trkpt lon="6.579132" lat="46.711273" /><trkpt lon="6.579311" lat="46.709671" /><trkpt lon="6.579204" lat="46.707899" /><trkpt lon="6.578441" lat="46.705212" /><trkpt lon="6.575165" lat="46.698626" /><trkpt lon="6.574147" lat="46.695676" /><trkpt lon="6.573573" lat="46.692133" /><trkpt lon="6.573795" lat="46.685333" /><trkpt lon="6.573544" lat="46.683081" /><trkpt lon="6.572705" lat="46.680566" /><trkpt lon="6.570621" lat="46.676609" /><trkpt lon="6.569941" lat="46.674053" /><trkpt lon="6.569886" lat="46.671618" /><trkpt lon="6.570194" lat="46.668934" /><trkpt lon="6.570761" lat="46.666409" /><trkpt lon="6.57208" lat="46.662278" /><trkpt lon="6.572482" lat="46.660484" /><trkpt lon="6.572563" lat="46.658609" /><trkpt lon="6.572348" lat="46.657007" /><trkpt lon="6.571873" lat="46.655426" /><trkpt lon="6.570967" lat="46.653577" /><trkpt lon="6.566013" lat="46.6469" /><trkpt lon="6.564679" lat="46.644818" /><trkpt lon="6.563257" lat="46.642084" /><trkpt lon="6.562161" lat="46.639288" /><trkpt lon="6.561613" lat="46.637383" /><trkpt lon="6.561068" lat="46.634481" /><trkpt lon="6.560882" lat="46.632219" /><trkpt lon="6.560752" lat="46.626027" /><trkpt lon="6.560082" lat="46.621541" /><trkpt lon="6.558756" lat="46.617103" /><trkpt lon="6.55595" lat="46.610685" /><trkpt lon="6.555036" lat="46.608155" /><trkpt lon="6.554009" lat="46.603983" /><trkpt lon="6.553587" lat="46.600416" /><trkpt lon="6.553561" lat="46.597166" /><trkpt lon="6.553822" lat="46.593218" /><trkpt lon="6.554735" lat="46.584691" /><trkpt lon="6.556091" lat="46.576317" /><trkpt lon="6.557879" lat="46.568057" /><trkpt lon="6.558998" lat="46.56418" /><trkpt lon="6.560451" lat="46.56095" /><trkpt lon="6.562463" lat="46.557833" /><trkpt lon="6.566497" lat="46.552682" /><trkpt lon="6.567584" lat="46.550951" /><trkpt lon="6.568176" lat="46.549687" /><trkpt lon="6.568633" lat="46.548075" /><trkpt lon="6.568719" lat="46.546063" /><trkpt lon="6.568182" lat="46.543848" /><trkpt lon="6.56759" lat="46.543017" /><trkpt lon="6.566054" lat="46.542007" /><trkpt lon="6.560406" lat="46.540559" /><trkpt lon="6.556402" lat="46.53892" /><trkpt lon="6.553952" lat="46.537485" /><trkpt lon="6.545216" lat="46.531745" /><trkpt lon="6.541758" lat="46.529947" /><trkpt lon="6.538258" lat="46.528723" /><trkpt lon="6.528936" lat="46.526477" /><trkpt lon="6.521826" lat="46.524241" /><trkpt lon="6.516582" lat="46.522191" /><trkpt lon="6.503949" lat="46.516566" /><trkpt lon="6.497863" lat="46.514441" /><trkpt lon="6.495498" lat="46.513141" /><trkpt lon="6.485673" lat="46.50639" /><trkpt lon="6.47945" lat="46.502837" /><trkpt lon="6.474873" lat="46.500597" /><trkpt lon="6.469014" lat="46.498128" /><trkpt lon="6.46448" lat="46.496488" /><trkpt lon="6.45508" lat="46.493456" /><trkpt lon="6.449407" lat="46.49114" /><trkpt lon="6.446365" lat="46.489597" /><trkpt lon="6.442815" lat="46.487469" /><trkpt lon="6.43651" lat="46.482809" /><trkpt lon="6.433752" lat="46.480998" /><trkpt lon="6.431134" lat="46.479669" /><trkpt lon="6.428352" lat="46.478592" /><trkpt lon="6.423335" lat="46.477344" /><trkpt lon="6.418253" lat="46.476834" /><trkpt lon="6.413981" lat="46.476945" /><trkpt lon="6.405167" lat="46.477935" /><trkpt lon="6.399727" lat="46.477827" /><trkpt lon="6.366018" lat="46.473806" /><trkpt lon="6.360888" lat="46.472925" /><trkpt lon="6.355675" lat="46.471645" /><trkpt lon="6.335847" lat="46.465986" /><trkpt lon="6.331593" lat="46.464573" /><trkpt lon="6.328038" lat="46.463033" /><trkpt lon="6.325385" lat="46.46162" /><trkpt lon="6.322956" lat="46.460087" /><trkpt lon="6.316136" lat="46.455227" /><trkpt lon="6.31215" lat="46.45276" /><trkpt lon="6.308319" lat="46.450642" /><trkpt lon="6.301376" lat="46.447347" /><trkpt lon="6.290565" lat="46.443045" /><trkpt lon="6.282084" lat="46.439189" /><trkpt lon="6.275037" lat="46.435445" /><trkpt lon="6.257104" lat="46.424713" /><trkpt lon="6.252925" lat="46.42237" /><trkpt lon="6.248088" lat="46.420095" /><trkpt lon="6.235234" lat="46.414895" /><trkpt lon="6.230716" lat="46.412627" /><trkpt lon="6.226678" lat="46.410285" /><trkpt lon="6.221365" lat="46.406679" /><trkpt lon="6.216831" lat="46.402999" /><trkpt lon="6.21257" lat="46.398846" /><trkpt lon="6.208824" lat="46.394382" /><trkpt lon="6.206421" lat="46.390885" /><trkpt lon="6.20478" lat="46.387945" /><trkpt lon="6.203288" lat="46.384565" /><trkpt lon="6.199606" lat="46.374284" /><trkpt lon="6.198307" lat="46.371879" /><trkpt lon="6.196603" lat="46.369598" /><trkpt lon="6.194512" lat="46.367466" /><trkpt lon="6.191767" lat="46.365308" /><trkpt lon="6.183071" lat="46.35995" /><trkpt lon="6.179756" lat="46.357662" /><trkpt lon="6.176361" lat="46.354911" /><trkpt lon="6.173891" lat="46.352566" /><trkpt lon="6.171077" lat="46.349407" /><trkpt lon="6.166433" lat="46.343176" /><trkpt lon="6.164584" lat="46.340933" /><trkpt lon="6.151409" lat="46.326379" /><trkpt lon="6.149016" lat="46.323228" /><trkpt lon="6.147146" lat="46.320247" /><trkpt lon="6.145518" lat="46.317023" /><trkpt lon="6.144355" lat="46.313985" /><trkpt lon="6.143736" lat="46.311417" /><trkpt lon="6.143485" lat="46.309047" /><trkpt lon="6.143505" lat="46.307104" /><trkpt lon="6.143728" lat="46.305146" /><trkpt lon="6.145618" lat="46.297471" /><trkpt lon="6.146085" lat="46.294478" /><trkpt lon="6.146106" lat="46.290893" /><trkpt lon="6.14584" lat="46.288777" /><trkpt lon="6.145282" lat="46.286209" /><trkpt lon="6.143776" lat="46.281606" /><trkpt lon="6.141804" lat="46.277411" /><trkpt lon="6.139478" lat="46.273505" /><trkpt lon="6.133608" lat="46.264721" /><trkpt lon="6.132823" lat="46.263177" /><trkpt lon="6.132487" lat="46.261874" /><trkpt lon="6.1326" lat="46.260405" /><trkpt lon="6.133455" lat="46.2587" /><trkpt lon="6.134698" lat="46.257322" /><trkpt lon="6.138198" lat="46.254125" /><trkpt lon="6.139005" lat="46.253167" /><trkpt lon="6.139237" lat="46.25204" /><trkpt lon="6.138671" lat="46.25082" /><trkpt lon="6.137037" lat="46.249696" /><trkpt lon="6.13164" lat="46.247508" /><trkpt lon="6.129643" lat="46.246434" /><trkpt lon="6.121306" lat="46.239766" /><trkpt lon="6.110618" lat="46.230757" /><trkpt lon="6.10809" lat="46.229095" /><trkpt lon="6.104716" lat="46.227701" /><trkpt lon="6.10333" lat="46.22681" /><trkpt lon="6.10227" lat="46.225553" /><trkpt lon="6.10082" lat="46.222062" /><trkpt lon="6.100514" lat="46.221476" /><trkpt lon="6.100253" lat="46.221342" /><trkpt lon="6.087514" lat="46.224732" /><trkpt lon="6.087069" lat="46.225244" /><trkpt lon="6.086644" lat="46.227019" /><trkpt lon="6.086092" lat="46.226782" /><trkpt lon="6.086" lat="46.226873" /><trkpt lon="6.086092" lat="46.226782" /><trkpt lon="6.086644" lat="46.227019" /><trkpt lon="6.085948" lat="46.228562" /><trkpt lon="6.085338" lat="46.229221" /><trkpt lon="6.085049" lat="46.231062" /><trkpt lon="6.085124" lat="46.234233" /><trkpt lon="6.085257" lat="46.234324" /><trkpt lon="6.085399" lat="46.236779" /><trkpt lon="6.085173" lat="46.238843" /><trkpt lon="6.094722" lat="46.245333" /><trkpt lon="6.086746" lat="46.247753" /><trkpt lon="6.08651" lat="46.248506" /><trkpt lon="6.086592" lat="46.248618" /><trkpt lon="6.087795" lat="46.248906" /><trkpt lon="6.087978" lat="46.248654" /></trkseg></trk></gpx>