<?xml version='1.0' encoding='utf-8'?>
<gpx xmlns="http://www.topografix.com/GPX/1/1" version="1.1" creator="Yatutbuv"><trk><trkseg><trkpt lon="11.275837" lat="45.400056" /><trkpt lon="11.275352" lat="45.399976" /><trkpt lon="11.27855" lat="45.400521" /><trkpt lon="11.278764" lat="45.403618" /><trkpt lon="11.280127" lat="45.404883" /><trkpt lon="11.280605" lat="45.405106" /><trkpt lon="11.295493" lat="45.406491" /><trkpt lon="11.29615" lat="45.406428" /><trkpt lon="11.296622" lat="45.406788" /><trkpt lon="11.32499" lat="45.415075" /><trkpt lon="11.32777" lat="45.416063" /><trkpt lon="11.339697" lat="45.424075" /><trkpt lon="11.357587" lat="45.433736" /><trkpt lon="11.357964" lat="45.433859" /><trkpt lon="11.358455" lat="45.43378" /><trkpt lon="11.358665" lat="45.433471" /><trkpt lon="11.358477" lat="45.433189" /><trkpt lon="11.358018" lat="45.43311" /><trkpt lon="11.357723" lat="45.433229" /><trkpt lon="11.356315" lat="45.43514" /><trkpt lon="11.356335" lat="45.435925" /><trkpt lon="11.356941" lat="45.436492" /><trkpt lon="11.359227" lat="45.437609" /><trkpt lon="11.363781" lat="45.439499" /><trkpt lon="11.371915" lat="45.441702" /><trkpt lon="11.376742" lat="45.44365" /><trkpt lon="11.379603" lat="45.445335" /><trkpt lon="11.387183" lat="45.451054" /><trkpt lon="11.389463" lat="45.452541" /><trkpt lon="11.392206" lat="45.453891" /><trkpt lon="11.39693" lat="45.455887" /><trkpt lon="11.399865" lat="45.457563" /><trkpt lon="11.406925" lat="45.463243" /><trkpt lon="11.417348" lat="45.470442" /><trkpt lon="11.42345" lat="45.474208" /><trkpt lon="11.425461" lat="45.475611" /><trkpt lon="11.453167" lat="45.500095" /><trkpt lon="11.456276" lat="45.50225" /><trkpt lon="11.460757" lat="45.504256" /><trkpt lon="11.463465" lat="45.505094" /><trkpt lon="11.469797" lat="45.506685" /><trkpt lon="11.499228" lat="45.517074" /><trkpt lon="11.502383" lat="45.517722" /><trkpt lon="11.509893" lat="45.517911" /><trkpt lon="11.523439" lat="45.517966" /><trkpt lon="11.526662" lat="45.517723" /><trkpt lon="11.532884" lat="45.516881" /><trkpt lon="11.550645" lat="45.515553" /><trkpt lon="11.556033" lat="45.515709" /><trkpt lon="11.56029" lat="45.515609" /><trkpt lon="11.564243" lat="45.515793" /><trkpt lon="11.579509" lat="45.517004" /><trkpt lon="11.581778" lat="45.516924" /><trkpt lon="11.583887" lat="45.516577" /><trkpt lon="11.635923" lat="45.501492" /><trkpt lon="11.660058" lat="45.493101" /><trkpt lon="11.678971" lat="45.487821" /><trkpt lon="11.691685" lat="45.483156" /><trkpt lon="11.735064" lat="45.469148" /><trkpt lon="11.738131" lat="45.468512" /><trkpt lon="11.764119" lat="45.464212" /><trkpt lon="11.789208" lat="45.4567" /><trkpt lon="11.792636" lat="45.455875" /><trkpt lon="11.849136" lat="45.448106" /><trkpt lon="11.885827" lat="45.441199" /><trkpt lon="11.889091" lat="45.440439" /><trkpt lon="11.902698" lat="45.435804" /><trkpt lon="11.916749" lat="45.430229" /><trkpt lon="11.918979" lat="45.429221" /><trkpt lon="11.935728" lat="45.42028" /><trkpt lon="11.937873" lat="45.419514" /><trkpt lon="11.940388" lat="45.419106" /><trkpt lon="11.94208" lat="45.419081" /><trkpt lon="11.943984" lat="45.419292" /><trkpt lon="12.07716" lat="45.446758" /><trkpt lon="12.083926" lat="45.447968" /><trkpt lon="12.088413" lat="45.449081" /><trkpt lon="12.187391" lat="45.469318" /><trkpt lon="12.194112" lat="45.470398" /><trkpt lon="12.197513" lat="45.471439" /><trkpt lon="12.205402" lat="45.473137" /><trkpt lon="12.211471" lat="45.474118" /><trkpt lon="12.212619" lat="45.474524" /><trkpt lon="12.21377" lat="45.475176" /><trkpt lon="12.214923" lat="45.476336" /><trkpt lon="12.218259" lat="45.482032" /><trkpt lon="12.220115" lat="45.487916" /><trkpt lon="12.220895" lat="45.489522" /><trkpt lon="12.222346" lat="45.491295" /><trkpt lon="12.228645" lat="45.496331" /><trkpt lon="12.229867" lat="45.497563" /><trkpt lon="12.230613" lat="45.49869" /><trkpt lon="12.232557" lat="45.503467" /><trkpt lon="12.236222" lat="45.509474" /><trkpt lon="12.237066" lat="45.510484" /><trkpt lon="12.237963" lat="45.511236" /><trkpt lon="12.243349" lat="45.514598" /><trkpt lon="12.250219" lat="45.518433" /><trkpt lon="12.258752" lat="45.524103" /><trkpt lon="12.263186" lat="45.526802" /><trkpt lon="12.301654" lat="45.547284" /><trkpt lon="12.306881" lat="45.550635" /><trkpt lon="12.316566" lat="45.557803" /><trkpt lon="12.321985" lat="45.561386" /><trkpt lon="12.340269" lat="45.571475" /><trkpt lon="12.348061" lat="45.575529" /><trkpt lon="12.355603" lat="45.580076" /><trkpt lon="12.382722" lat="45.598632" /><trkpt lon="12.386653" lat="45.600935" /><trkpt lon="12.413032" lat="45.615481" /><trkpt lon="12.415926" lat="45.616936" /><trkpt lon="12.448371" lat="45.631889" /><trkpt lon="12.474578" lat="45.646378" /><trkpt lon="12.480992" lat="45.649643" /><trkpt lon="12.526531" lat="45.66905" /><trkpt lon="12.584986" lat="45.696871" /><trkpt lon="12.591105" lat="45.69936" /><trkpt lon="12.608368" lat="45.705575" /><trkpt lon="12.614795" lat="45.708324" /><trkpt lon="12.619931" lat="45.710989" /><trkpt lon="12.639178" lat="45.722132" /><trkpt lon="12.646611" lat="45.725714" /><trkpt lon="12.654316" lat="45.728576" /><trkpt lon="12.720598" lat="45.749697" /><trkpt lon="12.727664" lat="45.752439" /><trkpt lon="12.731061" lat="45.754077" /><trkpt lon="12.735058" lat="45.7563" /><trkpt lon="12.749488" lat="45.765508" /><trkpt lon="12.772631" lat="45.778178" /><trkpt lon="12.780022" lat="45.781679" /><trkpt lon="12.785572" lat="45.783768" /><trkpt lon="12.793758" lat="45.786152" /><trkpt lon="12.800888" lat="45.787634" /><trkpt lon="12.813803" lat="45.789423" /><trkpt lon="12.819411" lat="45.79051" /><trkpt lon="12.823958" lat="45.791682" /><trkpt lon="12.836822" lat="45.7957" /><trkpt lon="12.840068" lat="45.796531" /><trkpt lon="12.880094" lat="45.803964" /><trkpt lon="12.885767" lat="45.804673" /><trkpt lon="12.892153" lat="45.805048" /><trkpt lon="12.904763" lat="45.804815" /><trkpt lon="12.911549" lat="45.805042" /><trkpt lon="12.964153" lat="45.809254" /><trkpt lon="12.967508" lat="45.809719" /><trkpt lon="12.995637" lat="45.814935" /><trkpt lon="13.005795" lat="45.816438" /><trkpt lon="13.028956" lat="45.818495" /><trkpt lon="13.031876" lat="45.81888" /><trkpt lon="13.035427" lat="45.819689" /><trkpt lon="13.046639" lat="45.822868" /><trkpt lon="13.052183" lat="45.824081" /><trkpt lon="13.104604" lat="45.83172" /><trkpt lon="13.111587" lat="45.833103" /><trkpt lon="13.116894" lat="45.834605" /><trkpt lon="13.17523" lat="45.853728" /><trkpt lon="13.216721" lat="45.866301" /><trkpt lon="13.25811" lat="45.881541" /><trkpt lon="13.263228" lat="45.883867" /><trkpt lon="13.283021" lat="45.894529" /><trkpt lon="13.285345" lat="45.895622" /><trkpt lon="13.287964" lat="45.896189" /><trkpt lon="13.290064" lat="45.896177" /><trkpt lon="13.292193" lat="45.895882" /><trkpt lon="13.31576" lat="45.890767" /><trkpt lon="13.398148" lat="45.870311" /><trkpt lon="13.402058" lat="45.869051" /><trkpt lon="13.433185" lat="45.856267" /><trkpt lon="13.436529" lat="45.855444" /><trkpt lon="13.457242" lat="45.852377" /><trkpt lon="13.460997" lat="45.851566" /><trkpt lon="13.464092" lat="45.850469" /><trkpt lon="13.481906" lat="45.843163" /><trkpt lon="13.483641" lat="45.842623" /><trkpt lon="13.485729" lat="45.842244" /><trkpt lon="13.487906" lat="45.842142" /><trkpt lon="13.489743" lat="45.842278" /><trkpt lon="13.494053" lat="45.843012" /><trkpt lon="13.497551" lat="45.843174" /><trkpt lon="13.499628" lat="45.842936" /><trkpt lon="13.502166" lat="45.842412" /><trkpt lon="13.506535" lat="45.841199" /><trkpt lon="13.509387" lat="45.839661" /><trkpt lon="13.511828" lat="45.837579" /><trkpt lon="13.513258" lat="45.835707" /><trkpt lon="13.515242" lat="45.832237" /><trkpt lon="13.516973" lat="45.830321" /><trkpt lon="13.518666" lat="45.82906" /><trkpt lon="13.522584" lat="45.826781" /><trkpt lon="13.526839" lat="45.823172" /><trkpt lon="13.530243" lat="45.821063" /><trkpt lon="13.534067" lat="45.819428" /><trkpt lon="13.544474" lat="45.816086" /><trkpt lon="13.547874" lat="45.815597" /><trkpt lon="13.550138" lat="45.815554" /><trkpt lon="13.55375" lat="45.815763" /><trkpt lon="13.556545" lat="45.81533" /><trkpt lon="13.558806" lat="45.814272" /><trkpt lon="13.562346" lat="45.811287" /><trkpt lon="13.564262" lat="45.810158" /><trkpt lon="13.566258" lat="45.809502" /><trkpt lon="13.572212" lat="45.808379" /><trkpt lon="13.573883" lat="45.807754" /><trkpt lon="13.575096" lat="45.807062" /><trkpt lon="13.578076" lat="45.804826" /><trkpt lon="13.581309" lat="45.802112" /><trkpt lon="13.587424" lat="45.793401" /><trkpt lon="13.588682" lat="45.792222" /><trkpt lon="13.591781" lat="45.790232" /><trkpt lon="13.593211" lat="45.789037" /><trkpt lon="13.599139" lat="45.780524" /><trkpt lon="13.600111" lat="45.779526" /><trkpt lon="13.601422" lat="45.778667" /><trkpt lon="13.602989" lat="45.778025" /><trkpt lon="13.604153" lat="45.777738" /><trkpt lon="13.614542" lat="45.775749" /><trkpt lon="13.632417" lat="45.774539" /><trkpt lon="13.63745" lat="45.774112" /><trkpt lon="13.639638" lat="45.773722" /><trkpt lon="13.640972" lat="45.773233" /><trkpt lon="13.642212" lat="45.772506" /><trkpt lon="13.647997" lat="45.767539" /><trkpt lon="13.650211" lat="45.766194" /><trkpt lon="13.652763" lat="45.76523" /><trkpt lon="13.664216" lat="45.761659" /><trkpt lon="13.668572" lat="45.760171" /><trkpt lon="13.67004" lat="45.759527" /><trkpt lon="13.671765" lat="45.758192" /><trkpt lon="13.675904" lat="45.75269" /><trkpt lon="13.677125" lat="45.751476" /><trkpt lon="13.679019" lat="45.749963" /><trkpt lon="13.691079" lat="45.74289" /><trkpt lon="13.728883" lat="45.71868" /><trkpt lon="13.737783" lat="45.712553" /><trkpt lon="13.745968" lat="45.706686" /><trkpt lon="13.748768" lat="45.704511" /><trkpt lon="13.750378" lat="45.703644" /><trkpt lon="13.751547" lat="45.703225" /><trkpt lon="13.761766" lat="45.700774" /><trkpt lon="13.765682" lat="45.700235" /><trkpt lon="13.769413" lat="45.700046" /><trkpt lon="13.775594" lat="45.7004" /><trkpt lon="13.788764" lat="45.702681" /><trkpt lon="13.791735" lat="45.702859" /><trkpt lon="13.795221" lat="45.702588" /><trkpt lon="13.797199" lat="45.702165" /><trkpt lon="13.799409" lat="45.701445" /><trkpt lon="13.801145" lat="45.700614" /><trkpt lon="13.803335" lat="45.699191" /><trkpt lon="13.804916" lat="45.697784" /><trkpt lon="13.805565" lat="45.696759" /><trkpt lon="13.806562" lat="45.69396" /><trkpt lon="13.806963" lat="45.693353" /><trkpt lon="13.807749" lat="45.692731" /><trkpt lon="13.808649" lat="45.692367" /><trkpt lon="13.809547" lat="45.692189" /><trkpt lon="13.810509" lat="45.692226" /><trkpt lon="13.820513" lat="45.694845" /><trkpt lon="13.822976" lat="45.694861" /><trkpt lon="13.827068" lat="45.694108" /><trkpt lon="13.828376" lat="45.69418" /><trkpt lon="13.829415" lat="45.694437" /><trkpt lon="13.830197" lat="45.694776" /><trkpt lon="13.831099" lat="45.695453" /><trkpt lon="13.833901" lat="45.698955" /><trkpt lon="13.844054" lat="45.703571" /><trkpt lon="13.847209" lat="45.705194" /><trkpt lon="13.850889" lat="45.707451" /><trkpt lon="13.856553" lat="45.711544" /><trkpt lon="13.858593" lat="45.712806" /><trkpt lon="13.860979" lat="45.713881" /><trkpt lon="13.863877" lat="45.714656" /><trkpt lon="13.865745" lat="45.714899" /><trkpt lon="13.868669" lat="45.7149" /><trkpt lon="13.87491" lat="45.713929" /><trkpt lon="13.878656" lat="45.713544" /><trkpt lon="13.890575" lat="45.713655" /><trkpt lon="13.90059" lat="45.713233" /><trkpt lon="13.908554" lat="45.71234" /><trkpt lon="13.915207" lat="45.711249" /><trkpt lon="13.921003" lat="45.709977" /><trkpt lon="13.929901" lat="45.707471" /><trkpt lon="13.975476" lat="45.691972" /><trkpt lon="13.977539" lat="45.691663" /><trkpt lon="13.979203" lat="45.691907" /><trkpt lon="13.980586" lat="45.692541" /><trkpt lon="13.98157" lat="45.69349" /><trkpt lon="13.981967" lat="45.694392" /><trkpt lon="13.982006" lat="45.696095" /><trkpt lon="13.982218" lat="45.696821" /><trkpt lon="13.983296" lat="45.698112" /><trkpt lon="13.98404" lat="45.698604" /><trkpt lon="13.98556" lat="45.699421" /><trkpt lon="13.987199" lat="45.70001" /><trkpt lon="13.992625" lat="45.70109" /><trkpt lon="13.995167" lat="45.701887" /><trkpt lon="13.997366" lat="45.703017" /><trkpt lon="13.999338" lat="45.704538" /><trkpt lon="14.000938" lat="45.706506" /><trkpt lon="14.001671" lat="45.708045" /><trkpt lon="14.002065" lat="45.709885" /><trkpt lon="14.002104" lat="45.713851" /><trkpt lon="14.00259" lat="45.715512" /><trkpt lon="14.003519" lat="45.71717" /><trkpt lon="14.004693" lat="45.718525" /><trkpt lon="14.005887" lat="45.719531" /><trkpt lon="14.01164" lat="45.723082" /><trkpt lon="14.01472" lat="45.72539" /><trkpt lon="14.016591" lat="45.727462" /><trkpt lon="14.017768" lat="45.729032" /><trkpt lon="14.019821" lat="45.732384" /><trkpt lon="14.02195" lat="45.734701" /><trkpt lon="14.02295" lat="45.735517" /><trkpt lon="14.025441" lat="45.737056" /><trkpt lon="14.034061" lat="45.740881" /><trkpt lon="14.038367" lat="45.743229" /><trkpt lon="14.039815" lat="45.744332" /><trkpt lon="14.041039" lat="45.74565" /><trkpt lon="14.041865" lat="45.747005" /><trkpt lon="14.043251" lat="45.749924" /><trkpt lon="14.044122" lat="45.751067" /><trkpt lon="14.045311" lat="45.752145" /><trkpt lon="14.047158" lat="45.753343" /><trkpt lon="14.051018" lat="45.755255" /><trkpt lon="14.05455" lat="45.757592" /><trkpt lon="14.056373" lat="45.758438" /><trkpt lon="14.059754" lat="45.759317" /><trkpt lon="14.065257" lat="45.759726" /><trkpt lon="14.070349" lat="45.759675" /><trkpt lon="14.079947" lat="45.759014" /><trkpt lon="14.084764" lat="45.758995" /><trkpt lon="14.089607" lat="45.759324" /><trkpt lon="14.095361" lat="45.76014" /><trkpt lon="14.10836" lat="45.763069" /><trkpt lon="14.112832" lat="45.763914" /><trkpt lon="14.117472" lat="45.764516" /><trkpt lon="14.124871" lat="45.765011" /><trkpt lon="14.131789" lat="45.764903" /><trkpt lon="14.137114" lat="45.764483" /><trkpt lon="14.143559" lat="45.7636" /><trkpt lon="14.159923" lat="45.760959" /><trkpt lon="14.16696" lat="45.760168" /><trkpt lon="14.175412" lat="45.759577" /><trkpt lon="14.184643" lat="45.759414" /><trkpt lon="14.190551" lat="45.759606" /><trkpt lon="14.197286" lat="45.760292" /><trkpt lon="14.204526" lat="45.761605" /><trkpt lon="14.211173" lat="45.763368" /><trkpt lon="14.215174" lat="45.76481" /><trkpt lon="14.217427" lat="45.765898" /><trkpt lon="14.218672" lat="45.766679" /><trkpt lon="14.220038" lat="45.767739" /><trkpt lon="14.220877" lat="45.768653" /><trkpt lon="14.222033" lat="45.770468" /><trkpt lon="14.222564" lat="45.772271" /><trkpt lon="14.222634" lat="45.773776" /><trkpt lon="14.222089" lat="45.777125" /><trkpt lon="14.22191" lat="45.779945" /><trkpt lon="14.222315" lat="45.782461" /><trkpt lon="14.223052" lat="45.78455" /><trkpt lon="14.224592" lat="45.787264" /><trkpt lon="14.226283" lat="45.789289" /><trkpt lon="14.22849" lat="45.79127" /><trkpt lon="14.230684" lat="45.792774" /><trkpt lon="14.234862" lat="45.794851" /><trkpt lon="14.238635" lat="45.796081" /><trkpt lon="14.24227" lat="45.796837" /><trkpt lon="14.255028" lat="45.798658" /><trkpt lon="14.259261" lat="45.799666" /><trkpt lon="14.268019" lat="45.803271" /><trkpt lon="14.278054" lat="45.80642" /><trkpt lon="14.280918" lat="45.807702" /><trkpt lon="14.283379" lat="45.809136" /><trkpt lon="14.28436" lat="45.80992" /><trkpt lon="14.285464" lat="45.811131" /><trkpt lon="14.286266" lat="45.813001" /><trkpt lon="14.286254" lat="45.814859" /><trkpt lon="14.285407" lat="45.818638" /><trkpt lon="14.285521" lat="45.820477" /><trkpt lon="14.285957" lat="45.82201" /><trkpt lon="14.286734" lat="45.823559" /><trkpt lon="14.28817" lat="45.825397" /><trkpt lon="14.292777" lat="45.829149" /><trkpt lon="14.294132" lat="45.830861" /><trkpt lon="14.294801" lat="45.832308" /><trkpt lon="14.295032" lat="45.833511" /><trkpt lon="14.29499" lat="45.835021" /><trkpt lon="14.294578" lat="45.837204" /><trkpt lon="14.293729" lat="45.839443" /><trkpt lon="14.291828" lat="45.842435" /><trkpt lon="14.290582" lat="45.84384" /><trkpt lon="14.28678" lat="45.847429" /><trkpt lon="14.282142" lat="45.852931" /><trkpt lon="14.273469" lat="45.861934" /><trkpt lon="14.272184" lat="45.863727" /><trkpt lon="14.270456" lat="45.867455" /><trkpt lon="14.269516" lat="45.869085" /><trkpt lon="14.267835" lat="45.871072" /><trkpt lon="14.265193" lat="45.873473" /><trkpt lon="14.263832" lat="45.875241" /><trkpt lon="14.263066" lat="45.877171" /><trkpt lon="14.262752" lat="45.881231" /><trkpt lon="14.262151" lat="45.883417" /><trkpt lon="14.260949" lat="45.885705" /><trkpt lon="14.258281" lat="45.889841" /><trkpt lon="14.257145" lat="45.892198" /><trkpt lon="14.25654" lat="45.893968" /><trkpt lon="14.255774" lat="45.898431" /><trkpt lon="14.255926" lat="45.901961" /><trkpt lon="14.256799" lat="45.905522" /><trkpt lon="14.257907" lat="45.90818" /><trkpt lon="14.258901" lat="45.910043" /><trkpt lon="14.261782" lat="45.914383" /><trkpt lon="14.266588" lat="45.920297" /><trkpt lon="14.268548" lat="45.923634" /><trkpt lon="14.269751" lat="45.926793" /><trkpt lon="14.270707" lat="45.931332" /><trkpt lon="14.27171" lat="45.934015" /><trkpt lon="14.272891" lat="45.935719" /><trkpt lon="14.275966" lat="45.938744" /><trkpt lon="14.277828" lat="45.94154" /><trkpt lon="14.278657" lat="45.942336" /><trkpt lon="14.280073" lat="45.943268" /><trkpt lon="14.282932" lat="45.944403" /><trkpt lon="14.286201" lat="45.945154" /><trkpt lon="14.290285" lat="45.945654" /><trkpt lon="14.292702" lat="45.946112" /><trkpt lon="14.296715" lat="45.947443" /><trkpt lon="14.298896" lat="45.948544" /><trkpt lon="14.300632" lat="45.949688" /><trkpt lon="14.302089" lat="45.95091" /><trkpt lon="14.303576" lat="45.952565" /><trkpt lon="14.305059" lat="45.955083" /><trkpt lon="14.305789" lat="45.957757" /><trkpt lon="14.305803" lat="45.960053" /><trkpt lon="14.304934" lat="45.964095" /><trkpt lon="14.304723" lat="45.966136" /><trkpt lon="14.304827" lat="45.968034" /><trkpt lon="14.305437" lat="45.970605" /><trkpt lon="14.306133" lat="45.97231" /><trkpt lon="14.308048" lat="45.975378" /><trkpt lon="14.309719" lat="45.977431" /><trkpt lon="14.311991" lat="45.979713" /><trkpt lon="14.316968" lat="45.984023" /><trkpt lon="14.321966" lat="45.98787" /><trkpt lon="14.324505" lat="45.989613" /><trkpt lon="14.332321" lat="45.994386" /><trkpt lon="14.342597" lat="45.999778" /><trkpt lon="14.346007" lat="46.001356" /><trkpt lon="14.3518" lat="46.003583" /><trkpt lon="14.356945" lat="46.004769" /><trkpt lon="14.365142" lat="46.006011" /><trkpt lon="14.367809" lat="46.006686" /><trkpt lon="14.369765" lat="46.007365" /><trkpt lon="14.373309" lat="46.009056" /><trkpt lon="14.382663" lat="46.014708" /><trkpt lon="14.386751" lat="46.016568" /><trkpt lon="14.390329" lat="46.017605" /><trkpt lon="14.392703" lat="46.018098" /><trkpt lon="14.428361" lat="46.024304" /><trkpt lon="14.43366" lat="46.025484" /><trkpt lon="14.437263" lat="46.02651" /><trkpt lon="14.441859" lat="46.028174" /><trkpt lon="14.444448" lat="46.029505" /><trkpt lon="14.445907" lat="46.030963" /><trkpt lon="14.447448" lat="46.03399" /><trkpt lon="14.448304" lat="46.03507" /><trkpt lon="14.450115" lat="46.036353" /><trkpt lon="14.451992" lat="46.036983" /><trkpt lon="14.453604" lat="46.037128" /><trkpt lon="14.455857" lat="46.036892" /><trkpt lon="14.461385" lat="46.035817" /><trkpt lon="14.463475" lat="46.03517" /><trkpt lon="14.463964" lat="46.03476" /><trkpt lon="14.464429" lat="46.033892" /><trkpt lon="14.464876" lat="46.033711" /><trkpt lon="14.465418" lat="46.033775" /><trkpt lon="14.465994" lat="46.034323" /><trkpt lon="14.466457" lat="46.03571" /><trkpt lon="14.466229" lat="46.036802" /><trkpt lon="14.466586" lat="46.037099" /><trkpt lon="14.470384" lat="46.038669" /><trkpt lon="14.47792" lat="46.042216" /><trkpt lon="14.487817" lat="46.044948" /><trkpt lon="14.495017" lat="46.047327" /><trkpt lon="14.495122" lat="46.047511" /><trkpt lon="14.494392" lat="46.048514" /><trkpt lon="14.494252" lat="46.048973" /><trkpt lon="14.494351" lat="46.049563" /><trkpt lon="14.494725" lat="46.050135" /><trkpt lon="14.497274" lat="46.052061" /><trkpt lon="14.499765" lat="46.054859" /><trkpt lon="14.501539" lat="46.056567" /><trkpt lon="14.501439" lat="46.056668" /><trkpt lon="14.500298" lat="46.055693" /><trkpt lon="14.497145" lat="46.052113" /><trkpt lon="14.497274" lat="46.052061" /><trkpt lon="14.500642" lat="46.055749" /><trkpt lon="14.502396" lat="46.057238" /><trkpt lon="14.504115" lat="46.057756" /><trkpt lon="14.506021" lat="46.057588" /><trkpt lon="14.506972" lat="46.05977" /><trkpt lon="14.522083" lat="46.059866" /><trkpt lon="14.523953" lat="46.06183" /><trkpt lon="14.525358" lat="46.062735" /><trkpt lon="14.533536" lat="46.066847" /><trkpt lon="14.536515" lat="46.068173" /><trkpt lon="14.539743" lat="46.069019" /><trkpt lon="14.550131" lat="46.070404" /><trkpt lon="14.551024" lat="46.070275" /><trkpt lon="14.55282" lat="46.069203" /><trkpt lon="14.555052" lat="46.068266" /><trkpt lon="14.557215" lat="46.067648" /><trkpt lon="14.559166" lat="46.067369" /><trkpt lon="14.570038" lat="46.067559" /><trkpt lon="14.575614" lat="46.067887" /><trkpt lon="14.577029" lat="46.068317" /><trkpt lon="14.577733" lat="46.06884" /><trkpt lon="14.578226" lat="46.069567" /><trkpt lon="14.578636" lat="46.072511" /><trkpt lon="14.587476" lat="46.09245" /><trkpt lon="14.588509" lat="46.094432" /><trkpt lon="14.589624" lat="46.09622" /><trkpt lon="14.591421" lat="46.098566" /><trkpt lon="14.59637" lat="46.103646" /><trkpt lon="14.597581" lat="46.105074" /><trkpt lon="14.59909" lat="46.107144" /><trkpt lon="14.600309" lat="46.10935" /><trkpt lon="14.601277" lat="46.111695" /><trkpt lon="14.601963" lat="46.114298" /><trkpt lon="14.602747" lat="46.120662" /><trkpt lon="14.603147" lat="46.122493" /><trkpt lon="14.604116" lat="46.12498" /><trkpt lon="14.6061" lat="46.128" /><trkpt lon="14.608446" lat="46.130363" /><trkpt lon="14.611243" lat="46.13239" /><trkpt lon="14.61392" lat="46.133839" /><trkpt lon="14.622463" lat="46.137451" /><trkpt lon="14.62836" lat="46.140397" /><trkpt lon="14.633283" lat="46.143575" /><trkpt lon="14.641211" lat="46.149646" /><trkpt lon="14.64341" lat="46.150978" /><trkpt lon="14.64613" lat="46.152245" /><trkpt lon="14.650309" lat="46.15359" /><trkpt lon="14.654139" lat="46.154342" /><trkpt lon="14.659041" lat="46.154689" /><trkpt lon="14.666416" lat="46.154805" /><trkpt lon="14.668811" lat="46.15511" /><trkpt lon="14.671746" lat="46.155857" /><trkpt lon="14.675248" lat="46.157396" /><trkpt lon="14.698064" lat="46.170021" /><trkpt lon="14.700862" lat="46.171101" /><trkpt lon="14.703355" lat="46.171649" /><trkpt lon="14.705419" lat="46.171829" /><trkpt lon="14.70774" lat="46.171758" /><trkpt lon="14.713577" lat="46.170825" /><trkpt lon="14.716778" lat="46.170521" /><trkpt lon="14.727941" lat="46.170539" /><trkpt lon="14.731843" lat="46.170264" /><trkpt lon="14.734742" lat="46.169562" /><trkpt lon="14.736799" lat="46.168777" /><trkpt lon="14.738891" lat="46.167633" /><trkpt lon="14.742152" lat="46.165541" /><trkpt lon="14.744603" lat="46.164439" /><trkpt lon="14.748208" lat="46.163615" /><trkpt lon="14.751643" lat="46.163519" /><trkpt lon="14.760611" lat="46.164747" /><trkpt lon="14.763804" lat="46.165345" /><trkpt lon="14.767165" lat="46.166431" /><trkpt lon="14.773642" lat="46.169327" /><trkpt lon="14.776636" lat="46.170394" /><trkpt lon="14.779777" lat="46.171201" /><trkpt lon="14.791948" lat="46.173586" /><trkpt lon="14.805845" lat="46.174883" /><trkpt lon="14.808685" lat="46.175441" /><trkpt lon="14.812939" lat="46.176586" /><trkpt lon="14.814566" lat="46.176848" /><trkpt lon="14.816874" lat="46.176831" /><trkpt lon="14.822043" lat="46.176015" /><trkpt lon="14.823624" lat="46.176052" /><trkpt lon="14.825358" lat="46.176314" /><trkpt lon="14.827407" lat="46.176981" /><trkpt lon="14.829197" lat="46.178015" /><trkpt lon="14.830125" lat="46.178826" /><trkpt lon="14.831697" lat="46.180665" /><trkpt lon="14.833389" lat="46.181938" /><trkpt lon="14.835277" lat="46.182755" /><trkpt lon="14.83686" lat="46.18316" /><trkpt lon="14.838741" lat="46.183368" /><trkpt lon="14.840493" lat="46.183306" /><trkpt lon="14.842268" lat="46.183006" /><trkpt lon="14.847657" lat="46.181563" /><trkpt lon="14.850848" lat="46.181296" /><trkpt lon="14.853217" lat="46.181424" /><trkpt lon="14.855021" lat="46.181685" /><trkpt lon="14.857625" lat="46.182367" /><trkpt lon="14.864803" lat="46.185395" /><trkpt lon="14.868509" lat="46.186452" /><trkpt lon="14.871949" lat="46.186873" /><trkpt lon="14.889226" lat="46.187857" /><trkpt lon="14.892694" lat="46.188362" /><trkpt lon="14.895249" lat="46.189027" /><trkpt lon="14.897318" lat="46.189884" /><trkpt lon="14.899211" lat="46.190974" /><trkpt lon="14.90074" lat="46.192319" /><trkpt lon="14.901757" lat="46.193688" /><trkpt lon="14.90232" lat="46.195536" /><trkpt lon="14.902266" lat="46.196842" /><trkpt lon="14.901829" lat="46.198209" /><trkpt lon="14.900377" lat="46.201014" /><trkpt lon="14.900104" lat="46.202411" /><trkpt lon="14.900211" lat="46.203452" /><trkpt lon="14.900687" lat="46.204856" /><trkpt lon="14.901435" lat="46.206003" /><trkpt lon="14.902345" lat="46.206959" /><trkpt lon="14.904935" lat="46.209073" /><trkpt lon="14.912614" lat="46.214856" /><trkpt lon="14.914531" lat="46.216033" /><trkpt lon="14.917359" lat="46.217165" /><trkpt lon="14.921224" lat="46.217842" /><trkpt lon="14.929963" lat="46.21763" /><trkpt lon="14.938371" lat="46.218162" /><trkpt lon="14.941138" lat="46.21874" /><trkpt lon="14.942715" lat="46.21934" /><trkpt lon="14.944068" lat="46.220067" /><trkpt lon="14.945715" lat="46.221196" /><trkpt lon="14.947181" lat="46.222592" /><trkpt lon="14.948123" lat="46.223886" /><trkpt lon="14.948992" lat="46.225775" /><trkpt lon="14.949198" lat="46.226862" /><trkpt lon="14.949133" lat="46.22817" /><trkpt lon="14.947828" lat="46.232852" /><trkpt lon="14.947677" lat="46.234314" /><trkpt lon="14.947876" lat="46.23538" /><trkpt lon="14.948233" lat="46.236224" /><trkpt lon="14.948865" lat="46.237157" /><trkpt lon="14.949681" lat="46.237988" /><trkpt lon="14.951326" lat="46.239093" /><trkpt lon="14.952722" lat="46.239689" /><trkpt lon="14.957293" lat="46.240783" /><trkpt lon="14.960564" lat="46.241982" /><trkpt lon="14.963597" lat="46.243922" /><trkpt lon="14.9718" lat="46.250761" /><trkpt lon="14.974551" lat="46.252725" /><trkpt lon="14.978106" lat="46.25433" /><trkpt lon="14.980009" lat="46.254898" /><trkpt lon="14.982231" lat="46.255337" /><trkpt lon="14.990935" lat="46.255994" /><trkpt lon="15.001974" lat="46.257524" /><trkpt lon="15.010426" lat="46.258283" /><trkpt lon="15.016294" lat="46.258202" /><trkpt lon="15.030025" lat="46.257033" /><trkpt lon="15.037328" lat="46.256841" /><trkpt lon="15.044005" lat="46.257281" /><trkpt lon="15.051216" lat="46.258306" /><trkpt lon="15.058097" lat="46.258846" /><trkpt lon="15.086115" lat="46.259619" /><trkpt lon="15.093714" lat="46.259289" /><trkpt lon="15.097705" lat="46.259459" /><trkpt lon="15.099912" lat="46.259798" /><trkpt lon="15.102393" lat="46.260414" /><trkpt lon="15.105506" lat="46.261623" /><trkpt lon="15.108192" lat="46.263133" /><trkpt lon="15.112633" lat="46.266481" /><trkpt lon="15.114455" lat="46.267628" /><trkpt lon="15.116699" lat="46.268771" /><trkpt lon="15.119179" lat="46.269771" /><trkpt lon="15.122406" lat="46.27072" /><trkpt lon="15.125068" lat="46.271257" /><trkpt lon="15.128395" lat="46.271632" /><trkpt lon="15.132226" lat="46.27175" /><trkpt lon="15.137181" lat="46.271486" /><trkpt lon="15.145645" lat="46.270435" /><trkpt lon="15.151513" lat="46.269943" /><trkpt lon="15.157162" lat="46.269743" /><trkpt lon="15.166364" lat="46.269721" /><trkpt lon="15.172716" lat="46.269477" /><trkpt lon="15.19083" lat="46.268197" /><trkpt lon="15.200239" lat="46.267319" /><trkpt lon="15.203721" lat="46.266784" /><trkpt lon="15.210774" lat="46.265337" /><trkpt lon="15.217063" lat="46.263468" /><trkpt lon="15.226321" lat="46.260371" /><trkpt lon="15.235197" lat="46.258147" /><trkpt lon="15.249048" lat="46.254997" /><trkpt lon="15.253435" lat="46.254273" /><trkpt lon="15.257386" lat="46.253855" /><trkpt lon="15.265149" lat="46.253631" /><trkpt lon="15.276955" lat="46.254334" /><trkpt lon="15.281966" lat="46.254482" /><trkpt lon="15.300466" lat="46.254131" /><trkpt lon="15.31909" lat="46.254414" /><trkpt lon="15.337897" lat="46.254198" /><trkpt lon="15.343943" lat="46.254533" /><trkpt lon="15.351471" lat="46.255404" /><trkpt lon="15.371535" lat="46.25859" /><trkpt lon="15.381796" lat="46.260625" /><trkpt lon="15.39051" lat="46.2629" /><trkpt lon="15.396151" lat="46.264715" /><trkpt lon="15.402113" lat="46.267018" /><trkpt lon="15.407269" lat="46.269423" /><trkpt lon="15.412088" lat="46.272115" /><trkpt lon="15.416171" lat="46.274841" /><trkpt lon="15.428864" lat="46.28518" /><trkpt lon="15.432934" lat="46.28799" /><trkpt lon="15.437778" lat="46.290927" /><trkpt lon="15.439129" lat="46.291984" /><trkpt lon="15.44015" lat="46.293293" /><trkpt lon="15.44151" lat="46.296492" /><trkpt lon="15.443604" lat="46.299634" /><trkpt lon="15.445441" lat="46.303123" /><trkpt lon="15.446442" lat="46.304508" /><trkpt lon="15.448402" lat="46.306235" /><trkpt lon="15.454915" lat="46.309596" /><trkpt lon="15.456106" lat="46.310386" /><trkpt lon="15.456833" lat="46.311111" /><trkpt lon="15.457984" lat="46.313328" /><trkpt lon="15.460332" lat="46.31876" /><trkpt lon="15.462082" lat="46.321832" /><trkpt lon="15.465784" lat="46.327189" /><trkpt lon="15.467772" lat="46.329761" /><trkpt lon="15.471052" lat="46.333558" /><trkpt lon="15.474516" lat="46.337177" /><trkpt lon="15.480576" lat="46.342713" /><trkpt lon="15.486637" lat="46.347512" /><trkpt lon="15.493446" lat="46.352399" /><trkpt lon="15.500492" lat="46.356949" /><trkpt lon="15.507183" lat="46.360847" /><trkpt lon="15.514004" lat="46.364188" /><trkpt lon="15.519858" lat="46.366627" /><trkpt lon="15.526728" lat="46.369073" /><trkpt lon="15.53412" lat="46.371328" /><trkpt lon="15.549095" lat="46.375078" /><trkpt lon="15.557345" lat="46.377526" /><trkpt lon="15.571787" lat="46.382569" /><trkpt lon="15.577437" lat="46.384695" /><trkpt lon="15.582012" lat="46.386665" /><trkpt lon="15.587616" lat="46.389376" /><trkpt lon="15.594226" lat="46.39298" /><trkpt lon="15.5997" lat="46.39629" /><trkpt lon="15.6041" lat="46.399104" /><trkpt lon="15.609567" lat="46.403003" /><trkpt lon="15.613527" lat="46.40615" /><trkpt lon="15.617566" lat="46.409677" /><trkpt lon="15.621289" lat="46.413284" /><trkpt lon="15.625696" lat="46.417993" /><trkpt lon="15.633532" lat="46.427303" /><trkpt lon="15.641611" lat="46.437696" /><trkpt lon="15.649879" lat="46.449467" /><trkpt lon="15.654051" lat="46.455888" /><trkpt lon="15.655533" lat="46.458545" /><trkpt lon="15.657264" lat="46.462994" /><trkpt lon="15.658111" lat="46.467219" /><trkpt lon="15.658284" lat="46.469223" /><trkpt lon="15.658232" lat="46.471574" /><trkpt lon="15.657385" lat="46.478708" /><trkpt lon="15.657539" lat="46.480329" /><trkpt lon="15.657996" lat="46.481975" /><trkpt lon="15.658984" lat="46.483969" /><trkpt lon="15.660155" lat="46.485547" /><trkpt lon="15.661977" lat="46.48731" /><trkpt lon="15.666309" lat="46.49054" /><trkpt lon="15.667997" lat="46.492024" /><trkpt lon="15.669387" lat="46.493754" /><trkpt lon="15.670198" lat="46.495592" /><trkpt lon="15.670391" lat="46.496904" /><trkpt lon="15.670369" lat="46.498195" /><trkpt lon="15.670015" lat="46.500052" /><trkpt lon="15.668908" lat="46.50391" /><trkpt lon="15.66867" lat="46.505993" /><trkpt lon="15.668771" lat="46.507427" /><trkpt lon="15.669095" lat="46.508845" /><trkpt lon="15.669659" lat="46.510312" /><trkpt lon="15.670504" lat="46.511781" /><trkpt lon="15.671617" lat="46.513211" /><trkpt lon="15.672758" lat="46.514349" /><trkpt lon="15.674409" lat="46.51563" /><trkpt lon="15.676141" lat="46.5167" /><trkpt lon="15.679573" lat="46.518241" /><trkpt lon="15.688456" lat="46.521462" /><trkpt lon="15.691434" lat="46.522898" /><trkpt lon="15.69352" lat="46.524138" /><trkpt lon="15.695479" lat="46.525525" /><trkpt lon="15.697261" lat="46.527086" /><trkpt lon="15.698646" lat="46.528771" /><trkpt lon="15.69979" lat="46.530839" /><trkpt lon="15.700303" lat="46.532391" /><trkpt lon="15.700577" lat="46.534266" /><trkpt lon="15.700462" lat="46.536128" /><trkpt lon="15.699951" lat="46.538047" /><trkpt lon="15.698819" lat="46.540252" /><trkpt lon="15.694289" lat="46.54605" /><trkpt lon="15.692641" lat="46.548733" /><trkpt lon="15.686489" lat="46.56132" /><trkpt lon="15.685974" lat="46.562734" /><trkpt lon="15.685633" lat="46.565274" /><trkpt lon="15.685818" lat="46.5669" /><trkpt lon="15.68624" lat="46.568456" /><trkpt lon="15.688959" lat="46.574857" /><trkpt lon="15.689638" lat="46.577036" /><trkpt lon="15.689925" lat="46.580462" /><trkpt lon="15.689133" lat="46.585204" /><trkpt lon="15.689248" lat="46.586513" /><trkpt lon="15.689667" lat="46.587799" /><trkpt lon="15.690943" lat="46.589704" /><trkpt lon="15.692814" lat="46.591265" /><trkpt lon="15.694938" lat="46.592361" /><trkpt lon="15.698024" lat="46.593214" /><trkpt lon="15.701349" lat="46.593438" /><trkpt lon="15.704162" lat="46.593137" /><trkpt lon="15.70788" lat="46.592328" /><trkpt lon="15.711975" lat="46.590963" /><trkpt lon="15.713928" lat="46.590099" /><trkpt lon="15.716429" lat="46.588734" /><trkpt lon="15.721582" lat="46.585296" /><trkpt lon="15.723938" lat="46.584145" /><trkpt lon="15.729489" lat="46.581966" /><trkpt lon="15.731231" lat="46.580971" /><trkpt lon="15.735198" lat="46.578154" /><trkpt lon="15.737132" lat="46.577149" /><trkpt lon="15.739267" lat="46.576321" /><trkpt lon="15.74298" lat="46.575451" /><trkpt lon="15.749585" lat="46.574836" /><trkpt lon="15.75194" lat="46.574408" /><trkpt lon="15.760134" lat="46.571747" /><trkpt lon="15.763346" lat="46.570976" /><trkpt lon="15.766485" lat="46.570543" /><trkpt lon="15.769808" lat="46.570317" /><trkpt lon="15.772502" lat="46.57037" /><trkpt lon="15.775868" lat="46.570718" /><trkpt lon="15.779053" lat="46.571337" /><trkpt lon="15.782568" lat="46.572386" /><trkpt lon="15.790062" lat="46.575449" /><trkpt lon="15.793777" lat="46.576654" /><trkpt lon="15.796197" lat="46.577148" /><trkpt lon="15.798802" lat="46.577436" /><trkpt lon="15.801652" lat="46.577492" /><trkpt lon="15.804142" lat="46.577323" /><trkpt lon="15.807016" lat="46.576854" /><trkpt lon="15.809275" lat="46.57626" /><trkpt lon="15.813287" lat="46.57467" /><trkpt lon="15.81715" lat="46.572414" /><trkpt lon="15.826678" lat="46.565353" /><trkpt lon="15.830418" lat="46.563052" /><trkpt lon="15.834493" lat="46.561244" /><trkpt lon="15.838692" lat="46.560024" /><trkpt lon="15.843479" lat="46.559291" /><trkpt lon="15.848071" lat="46.559145" /><trkpt lon="15.852653" lat="46.559379" /><trkpt lon="15.866896" lat="46.560656" /><trkpt lon="15.871367" lat="46.560724" /><trkpt lon="15.876245" lat="46.560479" /><trkpt lon="15.880825" lat="46.559947" /><trkpt lon="15.885643" lat="46.559013" /><trkpt lon="15.888668" lat="46.55825" /><trkpt lon="15.89655" lat="46.55576" /><trkpt lon="15.899013" lat="46.555152" /><trkpt lon="15.903147" lat="46.554656" /><trkpt lon="15.9069" lat="46.554713" /><trkpt lon="15.910136" lat="46.555157" /><trkpt lon="15.912672" lat="46.555785" /><trkpt lon="15.915076" lat="46.556654" /><trkpt lon="15.91675" lat="46.557528" /><trkpt lon="15.917803" lat="46.558251" /><trkpt lon="15.921077" lat="46.561075" /><trkpt lon="15.926141" lat="46.564115" /><trkpt lon="15.927376" lat="46.565075" /><trkpt lon="15.928667" lat="46.566746" /><trkpt lon="15.929734" lat="46.569685" /><trkpt lon="15.930331" lat="46.570717" /><trkpt lon="15.932506" lat="46.573" /><trkpt lon="15.935043" lat="46.575022" /><trkpt lon="15.938477" lat="46.577121" /><trkpt lon="15.942019" lat="46.578769" /><trkpt lon="15.94567" lat="46.580032" /><trkpt lon="15.949512" lat="46.580934" /><trkpt lon="15.952076" lat="46.581142" /><trkpt lon="15.953782" lat="46.58108" /><trkpt lon="15.960187" lat="46.580054" /><trkpt lon="15.963053" lat="46.580064" /><trkpt lon="15.965916" lat="46.580679" /><trkpt lon="15.970943" lat="46.582877" /><trkpt lon="15.972513" lat="46.583252" /><trkpt lon="15.975149" lat="46.583456" /><trkpt lon="15.977869" lat="46.583156" /><trkpt lon="15.983831" lat="46.581525" /><trkpt lon="15.988356" lat="46.580596" /><trkpt lon="15.992151" lat="46.580263" /><trkpt lon="15.995471" lat="46.580371" /><trkpt lon="15.998744" lat="46.580844" /><trkpt lon="16.002811" lat="46.581997" /><trkpt lon="16.005859" lat="46.583293" /><trkpt lon="16.011724" lat="46.586183" /><trkpt lon="16.015084" lat="46.587482" /><trkpt lon="16.019128" lat="46.588375" /><trkpt lon="16.023236" lat="46.588653" /><trkpt lon="16.026579" lat="46.588434" /><trkpt lon="16.029538" lat="46.587894" /><trkpt lon="16.032531" lat="46.586963" /><trkpt lon="16.034461" lat="46.586117" /><trkpt lon="16.036472" lat="46.584971" /><trkpt lon="16.038106" lat="46.583775" /><trkpt lon="16.042971" lat="46.579182" /><trkpt lon="16.045033" lat="46.577596" /><trkpt lon="16.047445" lat="46.576405" /><trkpt lon="16.050643" lat="46.575586" /><trkpt lon="16.053634" lat="46.575419" /><trkpt lon="16.056856" lat="46.575842" /><trkpt lon="16.058392" lat="46.576273" /><trkpt lon="16.063485" lat="46.578249" /><trkpt lon="16.065763" lat="46.578857" /><trkpt lon="16.067511" lat="46.579127" /><trkpt lon="16.070922" lat="46.579179" /><trkpt lon="16.078585" lat="46.578392" /><trkpt lon="16.081118" lat="46.578595" /><trkpt lon="16.083519" lat="46.579161" /><trkpt lon="16.085515" lat="46.579983" /><trkpt lon="16.08675" lat="46.580702" /><trkpt lon="16.093467" lat="46.586161" /><trkpt lon="16.096019" lat="46.587831" /><trkpt lon="16.098719" lat="46.589344" /><trkpt lon="16.101667" lat="46.590756" /><trkpt lon="16.104585" lat="46.591923" /><trkpt lon="16.113076" lat="46.594652" /><trkpt lon="16.115945" lat="46.595768" /><trkpt lon="16.119877" lat="46.597797" /><trkpt lon="16.122813" lat="46.599836" /><trkpt lon="16.124586" lat="46.601361" /><trkpt lon="16.126079" lat="46.602906" /><trkpt lon="16.128446" lat="46.606252" /><trkpt lon="16.129419" lat="46.608228" /><trkpt lon="16.129977" lat="46.609896" /><trkpt lon="16.130874" lat="46.614325" /><trkpt lon="16.131995" lat="46.617877" /><trkpt lon="16.133757" lat="46.621046" /><trkpt lon="16.135928" lat="46.62377" /><trkpt lon="16.139083" lat="46.626679" /><trkpt lon="16.141412" lat="46.628341" /><trkpt lon="16.143672" lat="46.629688" /><trkpt lon="16.14881" lat="46.632001" /><trkpt lon="16.15392" lat="46.633527" /><trkpt lon="16.161755" lat="46.634867" /><trkpt lon="16.166619" lat="46.635326" /><trkpt lon="16.171772" lat="46.635543" /><trkpt lon="16.179015" lat="46.635377" /><trkpt lon="16.193811" lat="46.634094" /><trkpt lon="16.19811" lat="46.633999" /><trkpt lon="16.202691" lat="46.634181" /><trkpt lon="16.206695" lat="46.634564" /><trkpt lon="16.210549" lat="46.635164" /><trkpt lon="16.22209" lat="46.637526" /><trkpt lon="16.22957" lat="46.638867" /><trkpt lon="16.233984" lat="46.639462" /><trkpt lon="16.239424" lat="46.639909" /><trkpt lon="16.243877" lat="46.640038" /><trkpt lon="16.249875" lat="46.639887" /><trkpt lon="16.254396" lat="46.639522" /><trkpt lon="16.260704" lat="46.638621" /><trkpt lon="16.265899" lat="46.637535" /><trkpt lon="16.27131" lat="46.636058" /><trkpt lon="16.27691" lat="46.634084" /><trkpt lon="16.280186" lat="46.632691" /><trkpt lon="16.284195" lat="46.630731" /><trkpt lon="16.288883" lat="46.628016" /><trkpt lon="16.304717" lat="46.617146" /><trkpt lon="16.310143" lat="46.613835" /><trkpt lon="16.315228" lat="46.611096" /><trkpt lon="16.320344" lat="46.608694" /><trkpt lon="16.327651" lat="46.605753" /><trkpt lon="16.334401" lat="46.603482" /><trkpt lon="16.344597" lat="46.600434" /><trkpt lon="16.352481" lat="46.598372" /><trkpt lon="16.358004" lat="46.59736" /><trkpt lon="16.363066" lat="46.596824" /><trkpt lon="16.368098" lat="46.596636" /><trkpt lon="16.373819" lat="46.596801" /><trkpt lon="16.377956" lat="46.597204" /><trkpt lon="16.392376" lat="46.599665" /><trkpt lon="16.396994" lat="46.599845" /><trkpt lon="16.400833" lat="46.599596" /><trkpt lon="16.404548" lat="46.598982" /><trkpt lon="16.409186" lat="46.597646" /><trkpt lon="16.41535" lat="46.595127" /><trkpt lon="16.420817" lat="46.592346" /><trkpt lon="16.426839" lat="46.588585" /><trkpt lon="16.429847" lat="46.586341" /><trkpt lon="16.432871" lat="46.583759" /><trkpt lon="16.437527" lat="46.578944" /><trkpt lon="16.441149" lat="46.574415" /><trkpt lon="16.443104" lat="46.571515" /><trkpt lon="16.444065" lat="46.568987" /><trkpt lon="16.444259" lat="46.567061" /><trkpt lon="16.44406" lat="46.565294" /><trkpt lon="16.442817" lat="46.560305" /><trkpt lon="16.44274" lat="46.558838" /><trkpt lon="16.44302" lat="46.557424" /><trkpt lon="16.444291" lat="46.554247" /><trkpt lon="16.444551" lat="46.55187" /><trkpt lon="16.444409" lat="46.550765" /><trkpt lon="16.443977" lat="46.549355" /><trkpt lon="16.44112" lat="46.54443" /><trkpt lon="16.440708" lat="46.542956" /><trkpt lon="16.440669" lat="46.541516" /><trkpt lon="16.441192" lat="46.539551" /><trkpt lon="16.442376" lat="46.5377" /><trkpt lon="16.443552" lat="46.536565" /><trkpt lon="16.444858" lat="46.53564" /><trkpt lon="16.447193" lat="46.53453" /><trkpt lon="16.449948" lat="46.533793" /><trkpt lon="16.45257" lat="46.533517" /><trkpt lon="16.462202" lat="46.53411" /><trkpt lon="16.469613" lat="46.533999" /><trkpt lon="16.47501" lat="46.533432" /><trkpt lon="16.479324" lat="46.532646" /><trkpt lon="16.482999" lat="46.531764" /><trkpt lon="16.493338" lat="46.52872" /><trkpt lon="16.506123" lat="46.52592" /><trkpt lon="16.511279" lat="46.524509" /><trkpt lon="16.516415" lat="46.52279" /><trkpt lon="16.54029" lat="46.514087" /><trkpt lon="16.547405" lat="46.511946" /><trkpt lon="16.551625" lat="46.511038" /><trkpt lon="16.555846" lat="46.510363" /><trkpt lon="16.606087" lat="46.503422" /><trkpt lon="16.609799" lat="46.502642" /><trkpt lon="16.613415" lat="46.501672" /><trkpt lon="16.61747" lat="46.500299" /><trkpt lon="16.62221" lat="46.498301" /><trkpt lon="16.62503" lat="46.496866" /><trkpt lon="16.628412" lat="46.494853" /><trkpt lon="16.630853" lat="46.493158" /><trkpt lon="16.634113" lat="46.490502" /><trkpt lon="16.637233" lat="46.487351" /><trkpt lon="16.652107" lat="46.470092" /><trkpt lon="16.65443" lat="46.468015" /><trkpt lon="16.656888" lat="46.466197" /><trkpt lon="16.663677" lat="46.462306" /><trkpt lon="16.665353" lat="46.461113" /><trkpt lon="16.666728" lat="46.459784" /><trkpt lon="16.669591" lat="46.455972" /><trkpt lon="16.671014" lat="46.454645" /><trkpt lon="16.683388" lat="46.446432" /><trkpt lon="16.693185" lat="46.44128" /><trkpt lon="16.695765" lat="46.43958" /><trkpt lon="16.698231" lat="46.437667" /><trkpt lon="16.701725" lat="46.434291" /><trkpt lon="16.710908" lat="46.422723" /><trkpt lon="16.712619" lat="46.420903" /><trkpt lon="16.714156" lat="46.419596" /><trkpt lon="16.717228" lat="46.417637" /><trkpt lon="16.721421" lat="46.415848" /><trkpt lon="16.73083" lat="46.413348" /><trkpt lon="16.733564" lat="46.412798" /><trkpt lon="16.73507" lat="46.412809" /><trkpt lon="16.73641" lat="46.413025" /><trkpt lon="16.740122" lat="46.414486" /><trkpt lon="16.742166" lat="46.414905" /><trkpt lon="16.753459" lat="46.415824" /><trkpt lon="16.758666" lat="46.416567" /><trkpt lon="16.763297" lat="46.417699" /><trkpt lon="16.766074" lat="46.418667" /><trkpt lon="16.769459" lat="46.420119" /><trkpt lon="16.7734" lat="46.422094" /><trkpt lon="16.809757" lat="46.44121" /><trkpt lon="16.815659" lat="46.443752" /><trkpt lon="16.819318" lat="46.445055" /><trkpt lon="16.823405" lat="46.446278" /><trkpt lon="16.830679" lat="46.447905" /><trkpt lon="16.838257" lat="46.44894" /><trkpt lon="16.84545" lat="46.449346" /><trkpt lon="16.863362" lat="46.449272" /><trkpt lon="16.867495" lat="46.449387" /><trkpt lon="16.872536" lat="46.450076" /><trkpt lon="16.877361" lat="46.451465" /><trkpt lon="16.879874" lat="46.45253" /><trkpt lon="16.881919" lat="46.453619" /><trkpt lon="16.883912" lat="46.454928" /><trkpt lon="16.886118" lat="46.456763" /><trkpt lon="16.888015" lat="46.458764" /><trkpt lon="16.89799" lat="46.470734" /><trkpt lon="16.901092" lat="46.473873" /><trkpt lon="16.903516" lat="46.475616" /><trkpt lon="16.905708" lat="46.476759" /><trkpt lon="16.907804" lat="46.477578" /><trkpt lon="16.910693" lat="46.478353" /><trkpt lon="16.912743" lat="46.478693" /><trkpt lon="16.915639" lat="46.478903" /><trkpt lon="16.919872" lat="46.478672" /><trkpt lon="16.923118" lat="46.478044" /><trkpt lon="16.93294" lat="46.47526" /><trkpt lon="16.9373" lat="46.474546" /><trkpt lon="16.94154" lat="46.474248" /><trkpt lon="16.944793" lat="46.474284" /><trkpt lon="16.948073" lat="46.474543" /><trkpt lon="16.960675" lat="46.476741" /><trkpt lon="16.964204" lat="46.477183" /><trkpt lon="16.967982" lat="46.477398" /><trkpt lon="16.979996" lat="46.477527" /><trkpt lon="16.993648" lat="46.478772" /><trkpt lon="16.996467" lat="46.478738" /><trkpt lon="16.999409" lat="46.478469" /><trkpt lon="17.00313" lat="46.477811" /><trkpt lon="17.009926" lat="46.476318" /><trkpt lon="17.013075" lat="46.475887" /><trkpt lon="17.015901" lat="46.475729" /><trkpt lon="17.020918" lat="46.475906" /><trkpt lon="17.032526" lat="46.476955" /><trkpt lon="17.038432" lat="46.477326" /><trkpt lon="17.045686" lat="46.477381" /><trkpt lon="17.058374" lat="46.477072" /><trkpt lon="17.065634" lat="46.47722" /><trkpt lon="17.070352" lat="46.477714" /><trkpt lon="17.075619" lat="46.47875" /><trkpt lon="17.079907" lat="46.479995" /><trkpt lon="17.089163" lat="46.483103" /><trkpt lon="17.095826" lat="46.485064" /><trkpt lon="17.101376" lat="46.486419" /><trkpt lon="17.114609" lat="46.489248" /><trkpt lon="17.118053" lat="46.490303" /><trkpt lon="17.121719" lat="46.491809" /><trkpt lon="17.124514" lat="46.493303" /><trkpt lon="17.131191" lat="46.497519" /><trkpt lon="17.134745" lat="46.499489" /><trkpt lon="17.139448" lat="46.501601" /><trkpt lon="17.144035" lat="46.503214" /><trkpt lon="17.151197" lat="46.504995" /><trkpt lon="17.156306" lat="46.505772" /><trkpt lon="17.161189" lat="46.506167" /><trkpt lon="17.173856" lat="46.506482" /><trkpt lon="17.176797" lat="46.506781" /><trkpt lon="17.180589" lat="46.507449" /><trkpt lon="17.184571" lat="46.508535" /><trkpt lon="17.188562" lat="46.510079" /><trkpt lon="17.1925" lat="46.512179" /><trkpt lon="17.195599" lat="46.514393" /><trkpt lon="17.198728" lat="46.517445" /><trkpt lon="17.201164" lat="46.5209" /><trkpt lon="17.202759" lat="46.524019" /><trkpt lon="17.208913" lat="46.538017" /><trkpt lon="17.211142" lat="46.542698" /><trkpt lon="17.213804" lat="46.547229" /><trkpt lon="17.216255" lat="46.550451" /><trkpt lon="17.217681" lat="46.552015" /><trkpt lon="17.220384" lat="46.554528" /><trkpt lon="17.224478" lat="46.557609" /><trkpt lon="17.228146" lat="46.55993" /><trkpt lon="17.238906" lat="46.566093" /><trkpt lon="17.242708" lat="46.568617" /><trkpt lon="17.245758" lat="46.571266" /><trkpt lon="17.247173" lat="46.572842" /><trkpt lon="17.248669" lat="46.574901" /><trkpt lon="17.249843" lat="46.577053" /><trkpt lon="17.250556" lat="46.578832" /><trkpt lon="17.251329" lat="46.582384" /><trkpt lon="17.251427" lat="46.586547" /><trkpt lon="17.251078" lat="46.594764" /><trkpt lon="17.251193" lat="46.59726" /><trkpt lon="17.251789" lat="46.600967" /><trkpt lon="17.252547" lat="46.603593" /><trkpt lon="17.254483" lat="46.60787" /><trkpt lon="17.256514" lat="46.611106" /><trkpt lon="17.258497" lat="46.613622" /><trkpt lon="17.260526" lat="46.615791" /><trkpt lon="17.263034" lat="46.618073" /><trkpt lon="17.267262" lat="46.62135" /><trkpt lon="17.27477" lat="46.626784" /><trkpt lon="17.2784" lat="46.629906" /><trkpt lon="17.280057" lat="46.631675" /><trkpt lon="17.281682" lat="46.633724" /><trkpt lon="17.286391" lat="46.640479" /><trkpt lon="17.287927" lat="46.642215" /><trkpt lon="17.289979" lat="46.644082" /><trkpt lon="17.293842" lat="46.646747" /><trkpt lon="17.302222" lat="46.651084" /><trkpt lon="17.304726" lat="46.652551" /><trkpt lon="17.306919" lat="46.654029" /><trkpt lon="17.312147" lat="46.658315" /><trkpt lon="17.314558" lat="46.660104" /><trkpt lon="17.317192" lat="46.661741" /><trkpt lon="17.320183" lat="46.663221" /><trkpt lon="17.323369" lat="46.664449" /><trkpt lon="17.327737" lat="46.665654" /><trkpt lon="17.33187" lat="46.666377" /><trkpt lon="17.340474" lat="46.667471" /><trkpt lon="17.343255" lat="46.668123" /><trkpt lon="17.346172" lat="46.669085" /><trkpt lon="17.350439" lat="46.67113" /><trkpt lon="17.358431" lat="46.67639" /><trkpt lon="17.363071" lat="46.679077" /><trkpt lon="17.368566" lat="46.681478" /><trkpt lon="17.374457" lat="46.683319" /><trkpt lon="17.378397" lat="46.684188" /><trkpt lon="17.38323" lat="46.684901" /><trkpt lon="17.387477" lat="46.68527" /><trkpt lon="17.403775" lat="46.686145" /><trkpt lon="17.410951" lat="46.686747" /><trkpt lon="17.420492" lat="46.68795" /><trkpt lon="17.428224" lat="46.689247" /><trkpt lon="17.436248" lat="46.690946" /><trkpt lon="17.441706" lat="46.692295" /><trkpt lon="17.450596" lat="46.694776" /><trkpt lon="17.469085" lat="46.700405" /><trkpt lon="17.476232" lat="46.701986" /><trkpt lon="17.481484" lat="46.702692" /><trkpt lon="17.486074" lat="46.702999" /><trkpt lon="17.49073" lat="46.703039" /><trkpt lon="17.495239" lat="46.702807" /><trkpt lon="17.502623" lat="46.701857" /><trkpt lon="17.517669" lat="46.698611" /><trkpt lon="17.522574" lat="46.697961" /><trkpt lon="17.527688" lat="46.697625" /><trkpt lon="17.53335" lat="46.697644" /><trkpt lon="17.538949" lat="46.698074" /><trkpt lon="17.543244" lat="46.698687" /><trkpt lon="17.548568" lat="46.699804" /><trkpt lon="17.554144" lat="46.701446" /><trkpt lon="17.559362" lat="46.703489" /><trkpt lon="17.564488" lat="46.706082" /><trkpt lon="17.568796" lat="46.708816" /><trkpt lon="17.573191" lat="46.712352" /><trkpt lon="17.58112" lat="46.720571" /><trkpt lon="17.585179" lat="46.724164" /><trkpt lon="17.605305" lat="46.739916" /><trkpt lon="17.61291" lat="46.745202" /><trkpt lon="17.616501" lat="46.747368" /><trkpt lon="17.621196" lat="46.74991" /><trkpt lon="17.628528" lat="46.753358" /><trkpt lon="17.635519" lat="46.756168" /><trkpt lon="17.643958" lat="46.759059" /><trkpt lon="17.649159" lat="46.760537" /><trkpt lon="17.653345" lat="46.761521" /><trkpt lon="17.659706" lat="46.762682" /><trkpt lon="17.663942" lat="46.763231" /><trkpt lon="17.669487" lat="46.763721" /><trkpt lon="17.677513" lat="46.764077" /><trkpt lon="17.697922" lat="46.76424" /><trkpt lon="17.70227" lat="46.764795" /><trkpt lon="17.705293" lat="46.765552" /><trkpt lon="17.709583" lat="46.767243" /><trkpt lon="17.712739" lat="46.769124" /><trkpt lon="17.715952" lat="46.771783" /><trkpt lon="17.723513" lat="46.778702" /><trkpt lon="17.726611" lat="46.781147" /><trkpt lon="17.729339" lat="46.78304" /><trkpt lon="17.735481" lat="46.786556" /><trkpt lon="17.738885" lat="46.788145" /><trkpt lon="17.743285" lat="46.789895" /><trkpt lon="17.748435" lat="46.791523" /><trkpt lon="17.752959" lat="46.792616" /><trkpt lon="17.756131" lat="46.793112" /><trkpt lon="17.759725" lat="46.793333" /><trkpt lon="17.763579" lat="46.793168" /><trkpt lon="17.767075" lat="46.792638" /><trkpt lon="17.77724" lat="46.789907" /><trkpt lon="17.780164" lat="46.789395" /><trkpt lon="17.782849" lat="46.789207" /><trkpt lon="17.785438" lat="46.789255" /><trkpt lon="17.78827" lat="46.789585" /><trkpt lon="17.790457" lat="46.790053" /><trkpt lon="17.792995" lat="46.790851" /><trkpt lon="17.795934" lat="46.792196" /><trkpt lon="17.812388" lat="46.802691" /><trkpt lon="17.815282" lat="46.80429" /><trkpt lon="17.818473" lat="46.805766" /><trkpt lon="17.8228" lat="46.807316" /><trkpt lon="17.826549" lat="46.808311" /><trkpt lon="17.83192" lat="46.809319" /><trkpt lon="17.840848" lat="46.81066" /><trkpt lon="17.84421" lat="46.811517" /><trkpt lon="17.846464" lat="46.812482" /><trkpt lon="17.848022" lat="46.813392" /><trkpt lon="17.854136" lat="46.818017" /><trkpt lon="17.856138" lat="46.819314" /><trkpt lon="17.861109" lat="46.821368" /><trkpt lon="17.867029" lat="46.822916" /><trkpt lon="17.872154" lat="46.823669" /><trkpt lon="17.874961" lat="46.82365" /><trkpt lon="17.876685" lat="46.823408" /><trkpt lon="17.879083" lat="46.822784" /><trkpt lon="17.888425" lat="46.819549" /><trkpt lon="17.892263" lat="46.818469" /><trkpt lon="17.898198" lat="46.817239" /><trkpt lon="17.903933" lat="46.816534" /><trkpt lon="17.91006" lat="46.816268" /><trkpt lon="17.915607" lat="46.816448" /><trkpt lon="17.920443" lat="46.816988" /><trkpt lon="17.924161" lat="46.817894" /><trkpt lon="17.926579" lat="46.818925" /><trkpt lon="17.928048" lat="46.819848" /><trkpt lon="17.929216" lat="46.820823" /><trkpt lon="17.930494" lat="46.82236" /><trkpt lon="17.932542" lat="46.826263" /><trkpt lon="17.933476" lat="46.827386" /><trkpt lon="17.934667" lat="46.828428" /><trkpt lon="17.93762" lat="46.830154" /><trkpt lon="17.947036" lat="46.834349" /><trkpt lon="17.949382" lat="46.835961" /><trkpt lon="17.95114" lat="46.837812" /><trkpt lon="17.952429" lat="46.840147" /><trkpt lon="17.953893" lat="46.84613" /><trkpt lon="17.955303" lat="46.84896" /><trkpt lon="17.957297" lat="46.851408" /><trkpt lon="17.962736" lat="46.856284" /><trkpt lon="17.963894" lat="46.85767" /><trkpt lon="17.965035" lat="46.859462" /><trkpt lon="17.965924" lat="46.861531" /><trkpt lon="17.966283" lat="46.86291" /><trkpt lon="17.967572" lat="46.872033" /><trkpt lon="17.968154" lat="46.874458" /><trkpt lon="17.969016" lat="46.87603" /><trkpt lon="17.969741" lat="46.876924" /><trkpt lon="17.971003" lat="46.878058" /><trkpt lon="17.972667" lat="46.879133" /><trkpt lon="17.975463" lat="46.880288" /><trkpt lon="17.978934" lat="46.880959" /><trkpt lon="17.992242" lat="46.881467" /><trkpt lon="17.997852" lat="46.88183" /><trkpt lon="18.00644" lat="46.882676" /><trkpt lon="18.013427" lat="46.883641" /><trkpt lon="18.020105" lat="46.88479" /><trkpt lon="18.026993" lat="46.88623" /><trkpt lon="18.033977" lat="46.887956" /><trkpt lon="18.040301" lat="46.889768" /><trkpt lon="18.047476" lat="46.892109" /><trkpt lon="18.064992" lat="46.898226" /><trkpt lon="18.079274" lat="46.903607" /><trkpt lon="18.088942" lat="46.907823" /><trkpt lon="18.104652" lat="46.91536" /><trkpt lon="18.111183" lat="46.918328" /><trkpt lon="18.127451" lat="46.924789" /><trkpt lon="18.131178" lat="46.926519" /><trkpt lon="18.135275" lat="46.928936" /><trkpt lon="18.137561" lat="46.930635" /><trkpt lon="18.140185" lat="46.932997" /><trkpt lon="18.142499" lat="46.935531" /><trkpt lon="18.144644" lat="46.938348" /><trkpt lon="18.146367" lat="46.940964" /><trkpt lon="18.153313" lat="46.953305" /><trkpt lon="18.155195" lat="46.95624" /><trkpt lon="18.157018" lat="46.958706" /><trkpt lon="18.160158" lat="46.962337" /><trkpt lon="18.165823" lat="46.968033" /><trkpt lon="18.168782" lat="46.971228" /><trkpt lon="18.171918" lat="46.975095" /><trkpt lon="18.176642" lat="46.981612" /><trkpt lon="18.178401" lat="46.983687" /><trkpt lon="18.180852" lat="46.986139" /><trkpt lon="18.184302" lat="46.988979" /><trkpt lon="18.187315" lat="46.991048" /><trkpt lon="18.191067" lat="46.993194" /><trkpt lon="18.197243" lat="46.995976" /><trkpt lon="18.218921" lat="47.003029" /><trkpt lon="18.226569" lat="47.005995" /><trkpt lon="18.233087" lat="47.008866" /><trkpt lon="18.238858" lat="47.011705" /><trkpt lon="18.246908" lat="47.016204" /><trkpt lon="18.253397" lat="47.02035" /><trkpt lon="18.262866" lat="47.026922" /><trkpt lon="18.267758" lat="47.029831" /><trkpt lon="18.271583" lat="47.031859" /><trkpt lon="18.280183" lat="47.035723" /><trkpt lon="18.312681" lat="47.047822" /><trkpt lon="18.317132" lat="47.049609" /><trkpt lon="18.322991" lat="47.052383" /><trkpt lon="18.326841" lat="47.054521" /><trkpt lon="18.329974" lat="47.056481" /><trkpt lon="18.335468" lat="47.060498" /><trkpt lon="18.340337" lat="47.064861" /><trkpt lon="18.344689" lat="47.069668" /><trkpt lon="18.351299" lat="47.077487" /><trkpt lon="18.355077" lat="47.081564" /><trkpt lon="18.358042" lat="47.084453" /><trkpt lon="18.372867" lat="47.097255" /><trkpt lon="18.380924" lat="47.104442" /><trkpt lon="18.389681" lat="47.112636" /><trkpt lon="18.401142" lat="47.123841" /><trkpt lon="18.40588" lat="47.128074" /><trkpt lon="18.409889" lat="47.131229" /><trkpt lon="18.413611" lat="47.133862" /><trkpt lon="18.430513" lat="47.144303" /><trkpt lon="18.43705" lat="47.148709" /><trkpt lon="18.443128" lat="47.153424" /><trkpt lon="18.455958" lat="47.16457" /><trkpt lon="18.458757" lat="47.166709" /><trkpt lon="18.462174" lat="47.16903" /><trkpt lon="18.466402" lat="47.171556" /><trkpt lon="18.471769" lat="47.174279" /><trkpt lon="18.489512" lat="47.181846" /><trkpt lon="18.492458" lat="47.183241" /><trkpt lon="18.518451" lat="47.198532" /><trkpt lon="18.523946" lat="47.201473" /><trkpt lon="18.529346" lat="47.203883" /><trkpt lon="18.54445" lat="47.210001" /><trkpt lon="18.551906" lat="47.213573" /><trkpt lon="18.557117" lat="47.216492" /><trkpt lon="18.576573" lat="47.228409" /><trkpt lon="18.579876" lat="47.23009" /><trkpt lon="18.583294" lat="47.231135" /><trkpt lon="18.587294" lat="47.231669" /><trkpt lon="18.591" lat="47.231616" /><trkpt lon="18.600758" lat="47.230923" /><trkpt lon="18.604222" lat="47.231119" /><trkpt lon="18.606801" lat="47.231575" /><trkpt lon="18.609947" lat="47.232535" /><trkpt lon="18.635504" lat="47.242784" /><trkpt lon="18.63967" lat="47.243979" /><trkpt lon="18.655927" lat="47.247757" /><trkpt lon="18.659444" lat="47.248968" /><trkpt lon="18.66381" lat="47.251044" /><trkpt lon="18.666509" lat="47.25274" /><trkpt lon="18.673046" lat="47.257863" /><trkpt lon="18.675546" lat="47.25949" /><trkpt lon="18.698921" lat="47.271905" /><trkpt lon="18.701966" lat="47.273708" /><trkpt lon="18.705152" lat="47.276108" /><trkpt lon="18.712237" lat="47.282599" /><trkpt lon="18.716131" lat="47.28546" /><trkpt lon="18.720167" lat="47.287699" /><trkpt lon="18.735299" lat="47.295532" /><trkpt lon="18.737222" lat="47.296738" /><trkpt lon="18.739151" lat="47.298405" /><trkpt lon="18.740369" lat="47.299823" /><trkpt lon="18.747417" lat="47.310779" /><trkpt lon="18.7498" lat="47.313383" /><trkpt lon="18.75195" lat="47.315201" /><trkpt lon="18.755349" lat="47.31746" /><trkpt lon="18.770902" lat="47.326228" /><trkpt lon="18.773155" lat="47.327681" /><trkpt lon="18.776284" lat="47.330184" /><trkpt lon="18.792948" lat="47.344692" /><trkpt lon="18.797653" lat="47.34845" /><trkpt lon="18.802981" lat="47.352159" /><trkpt lon="18.805972" lat="47.354012" /><trkpt lon="18.817597" lat="47.36059" /><trkpt lon="18.821576" lat="47.363628" /><trkpt lon="18.823522" lat="47.365527" /><trkpt lon="18.825578" lat="47.367963" /><trkpt lon="18.834988" lat="47.380921" /><trkpt lon="18.836216" lat="47.382326" /><trkpt lon="18.838264" lat="47.384177" /><trkpt lon="18.840816" lat="47.385956" /><trkpt lon="18.843457" lat="47.387375" /><trkpt lon="18.858206" lat="47.394004" /><trkpt lon="18.863271" lat="47.396478" /><trkpt lon="18.866186" lat="47.398165" /><trkpt lon="18.869794" lat="47.400763" /><trkpt lon="18.87237" lat="47.403111" /><trkpt lon="18.875121" lat="47.406351" /><trkpt lon="18.883427" lat="47.418817" /><trkpt lon="18.887753" lat="47.424277" /><trkpt lon="18.889671" lat="47.426394" /><trkpt lon="18.909423" lat="47.445875" /><trkpt lon="18.91301" lat="47.449387" /><trkpt lon="18.914085" lat="47.450212" /><trkpt lon="18.915097" lat="47.450761" /><trkpt lon="18.916957" lat="47.45137" /><trkpt lon="18.920215" lat="47.45178" /><trkpt lon="18.957859" lat="47.452235" /><trkpt lon="18.9609" lat="47.452359" /><trkpt lon="18.964693" lat="47.452751" /><trkpt lon="18.970563" lat="47.453852" /><trkpt lon="18.983927" lat="47.457811" /><trkpt lon="18.986447" lat="47.458425" /><trkpt lon="18.988747" lat="47.458923" /><trkpt lon="19.002309" lat="47.461148" /><trkpt lon="19.006487" lat="47.46206" /><trkpt lon="19.01034" lat="47.4632" /><trkpt lon="19.013973" lat="47.464787" /><trkpt lon="19.015436" lat="47.465623" /><trkpt lon="19.016489" lat="47.466437" /><trkpt lon="19.020395" lat="47.471033" /><trkpt lon="19.02181" lat="47.472333" /><trkpt lon="19.026522" lat="47.479612" /><trkpt lon="19.026895" lat="47.481467" /><trkpt lon="19.026843" lat="47.482464" /><trkpt lon="19.026376" lat="47.483467" /><trkpt lon="19.024561" lat="47.485914" /><trkpt lon="19.024376" lat="47.486454" /><trkpt lon="19.024571" lat="47.487209" /><trkpt lon="19.025245" lat="47.48781" /><trkpt lon="19.026563" lat="47.48819" /><trkpt lon="19.030432" lat="47.48826" /><trkpt lon="19.033753" lat="47.488804" /><trkpt lon="19.037866" lat="47.490351" /><trkpt lon="19.039162" lat="47.490614" /><trkpt lon="19.040753" lat="47.490588" /><trkpt lon="19.043223" lat="47.49022" /><trkpt lon="19.04534" lat="47.490188" /><trkpt lon="19.046567" lat="47.489924" /><trkpt lon="19.055666" lat="47.493216" /><trkpt lon="19.068943" lat="47.496612" /><trkpt lon="19.075302" lat="47.498465" /><trkpt lon="19.080236" lat="47.499639" /><trkpt lon="19.08472" lat="47.501984" /><trkpt lon="19.089218" lat="47.504109" /><trkpt lon="19.09488" lat="47.508453" /><trkpt lon="19.093303" lat="47.509613" /><trkpt lon="19.091061" lat="47.510793" /><trkpt lon="19.095507" lat="47.514153" /><trkpt lon="19.089702" lat="47.518113" /><trkpt lon="19.088605" lat="47.519196" /><trkpt lon="19.088597" lat="47.519552" /><trkpt lon="19.088956" lat="47.519865" /><trkpt lon="19.092008" lat="47.521326" /><trkpt lon="19.094464" lat="47.5232" /><trkpt lon="19.096037" lat="47.524644" /><trkpt lon="19.097946" lat="47.526959" /><trkpt lon="19.102821" lat="47.534175" /><trkpt lon="19.105381" lat="47.536768" /><trkpt lon="19.108021" lat="47.539048" /><trkpt lon="19.119171" lat="47.547061" /><trkpt lon="19.132718" lat="47.557585" /><trkpt lon="19.139428" lat="47.562312" /><trkpt lon="19.178438" lat="47.586292" /><trkpt lon="19.182136" lat="47.588427" /><trkpt lon="19.185711" lat="47.590205" /><trkpt lon="19.188954" lat="47.591489" /><trkpt lon="19.192845" lat="47.592584" /><trkpt lon="19.197068" lat="47.593296" /><trkpt lon="19.201337" lat="47.593632" /><trkpt lon="19.205138" lat="47.593685" /><trkpt lon="19.210344" lat="47.593493" /><trkpt lon="19.22318" lat="47.592464" /><trkpt lon="19.22883" lat="47.592174" /><trkpt lon="19.233056" lat="47.592285" /><trkpt lon="19.236782" lat="47.592719" /><trkpt lon="19.240422" lat="47.593602" /><trkpt lon="19.243519" lat="47.594894" /><trkpt lon="19.245627" lat="47.596251" /><trkpt lon="19.248823" lat="47.59918" /><trkpt lon="19.250292" lat="47.600012" /><trkpt lon="19.252102" lat="47.60068" /><trkpt lon="19.254484" lat="47.601111" /><trkpt lon="19.257197" lat="47.601172" /><trkpt lon="19.267686" lat="47.600333" /><trkpt lon="19.273236" lat="47.600144" /><trkpt lon="19.276492" lat="47.600372" /><trkpt lon="19.279102" lat="47.600783" /><trkpt lon="19.281881" lat="47.601487" /><trkpt lon="19.285432" lat="47.602735" /><trkpt lon="19.304183" lat="47.611027" /><trkpt lon="19.30748" lat="47.611976" /><trkpt lon="19.312428" lat="47.612752" /><trkpt lon="19.355488" lat="47.616402" /><trkpt lon="19.363918" lat="47.616847" /><trkpt lon="19.367916" lat="47.616647" /><trkpt lon="19.371269" lat="47.616168" /><trkpt lon="19.374324" lat="47.615447" /><trkpt lon="19.37925" lat="47.613977" /><trkpt lon="19.383202" lat="47.613233" /><trkpt lon="19.393893" lat="47.612384" /><trkpt lon="19.396793" lat="47.61239" /><trkpt lon="19.398852" lat="47.612632" /><trkpt lon="19.401275" lat="47.613283" /><trkpt lon="19.403411" lat="47.614316" /><trkpt lon="19.40498" lat="47.615545" /><trkpt lon="19.408252" lat="47.61937" /><trkpt lon="19.409998" lat="47.620769" /><trkpt lon="19.4125" lat="47.622257" /><trkpt lon="19.416525" lat="47.623798" /><trkpt lon="19.421039" lat="47.624695" /><trkpt lon="19.431786" lat="47.625446" /><trkpt lon="19.43597" lat="47.625965" /><trkpt lon="19.439626" lat="47.626676" /><trkpt lon="19.450111" lat="47.629342" /><trkpt lon="19.461392" lat="47.631198" /><trkpt lon="19.472488" lat="47.634223" /><trkpt lon="19.476433" lat="47.635794" /><trkpt lon="19.482113" lat="47.638612" /><trkpt lon="19.484493" lat="47.639422" /><trkpt lon="19.4874" lat="47.640081" /><trkpt lon="19.492625" lat="47.640599" /><trkpt lon="19.520911" lat="47.641785" /><trkpt lon="19.524019" lat="47.64208" /><trkpt lon="19.527421" lat="47.642633" /><trkpt lon="19.530679" lat="47.643486" /><trkpt lon="19.551168" lat="47.649828" /><trkpt lon="19.566498" lat="47.652886" /><trkpt lon="19.57524" lat="47.654839" /><trkpt lon="19.623532" lat="47.667698" /><trkpt lon="19.631464" lat="47.67038" /><trkpt lon="19.667877" lat="47.684613" /><trkpt lon="19.672294" lat="47.686052" /><trkpt lon="19.675966" lat="47.687" /><trkpt lon="19.680355" lat="47.687796" /><trkpt lon="19.683552" lat="47.688142" /><trkpt lon="19.687746" lat="47.688337" /><trkpt lon="19.69174" lat="47.688243" /><trkpt lon="19.696462" lat="47.68776" /><trkpt lon="19.699656" lat="47.687221" /><trkpt lon="19.710073" lat="47.684715" /><trkpt lon="19.713501" lat="47.684038" /><trkpt lon="19.717265" lat="47.683587" /><trkpt lon="19.720549" lat="47.683476" /><trkpt lon="19.724158" lat="47.683688" /><trkpt lon="19.728168" lat="47.684315" /><trkpt lon="19.731183" lat="47.685027" /><trkpt lon="19.738859" lat="47.687476" /><trkpt lon="19.741324" lat="47.688039" /></trkseg></trk></gpx>