<?xml version='1.0' encoding='utf-8'?>
<gpx xmlns="http://www.topografix.com/GPX/1/1" version="1.1" creator="Yatutbuv"><trk><trkseg><trkpt lon="23.733064" lat="37.980332" /><trkpt lon="23.735449" lat="37.977533" /><trkpt lon="23.736266" lat="37.97561" /><trkpt lon="23.73712" lat="37.975023" /><trkpt lon="23.738862" lat="37.974509" /><trkpt lon="23.740774" lat="37.974573" /><trkpt lon="23.74869" lat="37.976513" /><trkpt lon="23.750436" lat="37.977169" /><trkpt lon="23.751831" lat="37.978027" /><trkpt lon="23.753953" lat="37.979875" /><trkpt lon="23.755749" lat="37.981769" /><trkpt lon="23.756169" lat="37.982599" /><trkpt lon="23.758543" lat="37.989751" /><trkpt lon="23.759344" lat="37.991017" /><trkpt lon="23.760262" lat="37.991868" /><trkpt lon="23.762136" lat="37.992866" /><trkpt lon="23.764259" lat="37.993298" /><trkpt lon="23.76709" lat="37.993074" /><trkpt lon="23.770052" lat="37.991814" /><trkpt lon="23.771673" lat="37.991487" /><trkpt lon="23.772397" lat="37.991539" /><trkpt lon="23.77475" lat="37.992483" /><trkpt lon="23.778357" lat="37.99495" /><trkpt lon="23.780976" lat="37.996514" /><trkpt lon="23.78595" lat="38.000225" /><trkpt lon="23.787494" lat="38.00111" /><trkpt lon="23.791372" lat="38.002513" /><trkpt lon="23.795728" lat="38.005638" /><trkpt lon="23.799188" lat="38.006889" /><trkpt lon="23.801138" lat="38.007274" /><trkpt lon="23.806286" lat="38.00936" /><trkpt lon="23.807115" lat="38.010026" /><trkpt lon="23.808155" lat="38.011238" /><trkpt lon="23.812468" lat="38.017139" /><trkpt lon="23.815452" lat="38.020014" /><trkpt lon="23.816426" lat="38.02066" /><trkpt lon="23.817541" lat="38.021108" /><trkpt lon="23.82817" lat="38.023117" /><trkpt lon="23.830794" lat="38.023458" /><trkpt lon="23.834863" lat="38.024647" /><trkpt lon="23.835924" lat="38.024752" /><trkpt lon="23.836912" lat="38.024563" /><trkpt lon="23.839429" lat="38.023365" /><trkpt lon="23.841028" lat="38.022986" /><trkpt lon="23.847295" lat="38.021998" /><trkpt lon="23.850556" lat="38.021735" /><trkpt lon="23.857134" lat="38.020814" /><trkpt lon="23.859096" lat="38.020443" /><trkpt lon="23.860878" lat="38.019894" /><trkpt lon="23.863002" lat="38.018876" /><trkpt lon="23.864333" lat="38.017959" /><trkpt lon="23.865837" lat="38.016516" /><trkpt lon="23.867104" lat="38.014672" /><trkpt lon="23.867893" lat="38.012463" /><trkpt lon="23.868719" lat="38.00804" /><trkpt lon="23.86995" lat="38.004581" /><trkpt lon="23.872445" lat="37.995963" /><trkpt lon="23.872673" lat="37.994511" /><trkpt lon="23.872542" lat="37.992607" /><trkpt lon="23.869972" lat="37.983968" /><trkpt lon="23.869955" lat="37.982058" /><trkpt lon="23.870412" lat="37.980409" /><trkpt lon="23.871115" lat="37.979122" /><trkpt lon="23.871959" lat="37.978087" /><trkpt lon="23.882847" lat="37.967502" /><trkpt lon="23.88458" lat="37.965023" /><trkpt lon="23.885607" lat="37.962726" /><trkpt lon="23.88608" lat="37.960947" /><trkpt lon="23.886302" lat="37.959052" /><trkpt lon="23.886293" lat="37.935645" /><trkpt lon="23.886526" lat="37.932937" /><trkpt lon="23.887029" lat="37.930129" /><trkpt lon="23.888343" lat="37.926006" /><trkpt lon="23.889821" lat="37.922935" /><trkpt lon="23.894907" lat="37.914431" /><trkpt lon="23.898511" lat="37.909647" /><trkpt lon="23.89932" lat="37.909018" /><trkpt lon="23.900203" lat="37.908654" /><trkpt lon="23.901511" lat="37.908484" /><trkpt lon="23.902504" lat="37.908611" /><trkpt lon="23.904904" lat="37.909522" /><trkpt lon="23.909826" lat="37.911884" /><trkpt lon="23.911928" lat="37.912727" /><trkpt lon="23.914257" lat="37.91336" /><trkpt lon="23.921264" lat="37.914808" /><trkpt lon="23.923996" lat="37.915919" /><trkpt lon="23.925398" lat="37.916834" /><trkpt lon="23.926509" lat="37.917814" /><trkpt lon="23.941113" lat="37.933108" /><trkpt lon="23.944934" lat="37.936908" /><trkpt lon="23.941113" lat="37.933108" /><trkpt lon="23.926893" lat="37.918202" /><trkpt lon="23.924678" lat="37.916327" /><trkpt lon="23.923057" lat="37.915453" /><trkpt lon="23.921264" lat="37.914808" /><trkpt lon="23.914257" lat="37.91336" /><trkpt lon="23.911928" lat="37.912727" /><trkpt lon="23.909826" lat="37.911884" /><trkpt lon="23.904904" lat="37.909522" /><trkpt lon="23.902504" lat="37.908611" /><trkpt lon="23.901511" lat="37.908484" /><trkpt lon="23.900203" lat="37.908654" /><trkpt lon="23.899165" lat="37.909111" /><trkpt lon="23.898344" lat="37.909829" /><trkpt lon="23.894907" lat="37.914431" /><trkpt lon="23.889682" lat="37.923192" /></trkseg></trk></gpx>