<?xml version='1.0' encoding='utf-8'?>
<gpx xmlns="http://www.topografix.com/GPX/1/1" version="1.1" creator="Yatutbuv"><trk><trkseg><trkpt lon="14.327225" lat="46.624153" /><trkpt lon="14.327429" lat="46.624288" /><trkpt lon="14.326875" lat="46.624915" /><trkpt lon="14.315667" lat="46.625828" /><trkpt lon="14.314035" lat="46.625745" /><trkpt lon="14.313715" lat="46.625509" /><trkpt lon="14.313603" lat="46.624596" /><trkpt lon="14.313747" lat="46.622508" /><trkpt lon="14.314419" lat="46.620766" /><trkpt lon="14.314239" lat="46.620505" /><trkpt lon="14.302354" lat="46.620776" /><trkpt lon="14.289532" lat="46.619971" /><trkpt lon="14.288228" lat="46.620244" /><trkpt lon="14.284654" lat="46.621668" /><trkpt lon="14.281953" lat="46.622151" /><trkpt lon="14.268519" lat="46.623208" /><trkpt lon="14.262973" lat="46.623913" /><trkpt lon="14.253675" lat="46.624257" /><trkpt lon="14.250884" lat="46.624604" /><trkpt lon="14.24839" lat="46.625316" /><trkpt lon="14.246609" lat="46.626113" /><trkpt lon="14.241923" lat="46.629068" /><trkpt lon="14.240017" lat="46.63006" /><trkpt lon="14.237009" lat="46.63089" /><trkpt lon="14.23478" lat="46.6311" /><trkpt lon="14.232994" lat="46.630964" /><trkpt lon="14.231358" lat="46.630629" /><trkpt lon="14.226353" lat="46.629146" /><trkpt lon="14.224312" lat="46.628882" /><trkpt lon="14.222348" lat="46.628842" /><trkpt lon="14.218515" lat="46.629374" /><trkpt lon="14.212816" lat="46.631439" /><trkpt lon="14.211415" lat="46.631761" /><trkpt lon="14.208958" lat="46.631996" /><trkpt lon="14.206316" lat="46.6318" /><trkpt lon="14.20367" lat="46.631093" /><trkpt lon="14.197779" lat="46.627974" /><trkpt lon="14.196001" lat="46.627335" /><trkpt lon="14.193627" lat="46.626932" /><trkpt lon="14.191606" lat="46.626939" /><trkpt lon="14.188985" lat="46.627368" /><trkpt lon="14.186811" lat="46.628038" /><trkpt lon="14.176969" lat="46.632619" /><trkpt lon="14.174971" lat="46.633126" /><trkpt lon="14.170562" lat="46.633527" /><trkpt lon="14.168261" lat="46.633958" /><trkpt lon="14.166038" lat="46.63465" /><trkpt lon="14.156042" lat="46.638408" /><trkpt lon="14.152435" lat="46.639532" /><trkpt lon="14.1482" lat="46.640277" /><trkpt lon="14.141502" lat="46.640259" /><trkpt lon="14.136563" lat="46.641046" /><trkpt lon="14.13441" lat="46.641169" /><trkpt lon="14.13218" lat="46.640979" /><trkpt lon="14.130538" lat="46.640614" /><trkpt lon="14.125809" lat="46.638979" /><trkpt lon="14.123805" lat="46.638455" /><trkpt lon="14.116593" lat="46.6376" /><trkpt lon="14.108841" lat="46.634602" /><trkpt lon="14.097343" lat="46.632025" /><trkpt lon="14.094427" lat="46.630963" /><trkpt lon="14.082699" lat="46.625861" /><trkpt lon="14.079574" lat="46.624811" /><trkpt lon="14.07527" lat="46.623947" /><trkpt lon="14.066341" lat="46.622985" /><trkpt lon="14.064199" lat="46.622902" /><trkpt lon="14.062613" lat="46.623017" /><trkpt lon="14.056631" lat="46.624423" /><trkpt lon="14.054587" lat="46.624626" /><trkpt lon="14.053311" lat="46.624585" /><trkpt lon="14.051357" lat="46.624284" /><trkpt lon="14.04708" lat="46.622815" /><trkpt lon="14.044796" lat="46.622419" /><trkpt lon="14.038927" lat="46.622573" /><trkpt lon="14.033074" lat="46.621912" /><trkpt lon="14.026542" lat="46.622097" /><trkpt lon="14.019627" lat="46.621416" /><trkpt lon="14.014592" lat="46.621458" /><trkpt lon="14.012263" lat="46.621298" /><trkpt lon="14.0092" lat="46.620754" /><trkpt lon="13.9988" lat="46.618165" /><trkpt lon="13.996281" lat="46.617763" /><trkpt lon="13.993282" lat="46.617561" /><trkpt lon="13.990526" lat="46.617657" /><trkpt lon="13.986284" lat="46.618348" /><trkpt lon="13.983708" lat="46.619122" /><trkpt lon="13.974389" lat="46.622493" /><trkpt lon="13.970734" lat="46.623399" /><trkpt lon="13.965558" lat="46.624137" /><trkpt lon="13.961154" lat="46.624309" /><trkpt lon="13.956225" lat="46.624015" /><trkpt lon="13.944398" lat="46.62197" /><trkpt lon="13.940942" lat="46.62166" /><trkpt lon="13.937181" lat="46.621902" /><trkpt lon="13.930901" lat="46.623324" /><trkpt lon="13.927839" lat="46.623815" /><trkpt lon="13.924465" lat="46.624" /><trkpt lon="13.921124" lat="46.623835" /><trkpt lon="13.917429" lat="46.623235" /><trkpt lon="13.91391" lat="46.622212" /><trkpt lon="13.907342" lat="46.619665" /><trkpt lon="13.901981" lat="46.617033" /><trkpt lon="13.898645" lat="46.614902" /><trkpt lon="13.89539" lat="46.612175" /><trkpt lon="13.893007" lat="46.609551" /><trkpt lon="13.888392" lat="46.603759" /><trkpt lon="13.885592" lat="46.600606" /><trkpt lon="13.881754" lat="46.597111" /><trkpt lon="13.878804" lat="46.59503" /><trkpt lon="13.874351" lat="46.592588" /><trkpt lon="13.870284" lat="46.590854" /><trkpt lon="13.864551" lat="46.588813" /><trkpt lon="13.852363" lat="46.584808" /><trkpt lon="13.84736" lat="46.582709" /><trkpt lon="13.845452" lat="46.581636" /><trkpt lon="13.843048" lat="46.579948" /><trkpt lon="13.836223" lat="46.574156" /><trkpt lon="13.834751" lat="46.57308" /><trkpt lon="13.833063" lat="46.572218" /><trkpt lon="13.831168" lat="46.571611" /><trkpt lon="13.828282" lat="46.571211" /><trkpt lon="13.821966" lat="46.570925" /><trkpt lon="13.816672" lat="46.570069" /><trkpt lon="13.813112" lat="46.569732" /><trkpt lon="13.804985" lat="46.570025" /><trkpt lon="13.801511" lat="46.569919" /><trkpt lon="13.781713" lat="46.567005" /><trkpt lon="13.776893" lat="46.565836" /><trkpt lon="13.773199" lat="46.564503" /><trkpt lon="13.770354" lat="46.563178" /><trkpt lon="13.76459" lat="46.560043" /><trkpt lon="13.761348" lat="46.558645" /><trkpt lon="13.758115" lat="46.557892" /><trkpt lon="13.755658" lat="46.557687" /><trkpt lon="13.75208" lat="46.557923" /><trkpt lon="13.748363" lat="46.558892" /><trkpt lon="13.745667" lat="46.560181" /><trkpt lon="13.740143" lat="46.563653" /><trkpt lon="13.737095" lat="46.565298" /><trkpt lon="13.733277" lat="46.566787" /><trkpt lon="13.729532" lat="46.567743" /><trkpt lon="13.724099" lat="46.568399" /><trkpt lon="13.7135" lat="46.568641" /><trkpt lon="13.710162" lat="46.569079" /><trkpt lon="13.703994" lat="46.570195" /><trkpt lon="13.701785" lat="46.570397" /><trkpt lon="13.69768" lat="46.570192" /><trkpt lon="13.695465" lat="46.569758" /><trkpt lon="13.693481" lat="46.569149" /><trkpt lon="13.690823" lat="46.567921" /><trkpt lon="13.689188" lat="46.566842" /><trkpt lon="13.687264" lat="46.565075" /><trkpt lon="13.686294" lat="46.563767" /><trkpt lon="13.685564" lat="46.562263" /><trkpt lon="13.685216" lat="46.561028" /><trkpt lon="13.684983" lat="46.556153" /><trkpt lon="13.684493" lat="46.554384" /><trkpt lon="13.683825" lat="46.553215" /><trkpt lon="13.682317" lat="46.551291" /><trkpt lon="13.681402" lat="46.549814" /><trkpt lon="13.67957" lat="46.545502" /><trkpt lon="13.678457" lat="46.544127" /><trkpt lon="13.677315" lat="46.543159" /><trkpt lon="13.675393" lat="46.54203" /><trkpt lon="13.671654" lat="46.540561" /><trkpt lon="13.667564" lat="46.539278" /><trkpt lon="13.664369" lat="46.538498" /><trkpt lon="13.660714" lat="46.538174" /><trkpt lon="13.652991" lat="46.538671" /><trkpt lon="13.650529" lat="46.538647" /><trkpt lon="13.647669" lat="46.538203" /><trkpt lon="13.64452" lat="46.537176" /><trkpt lon="13.643446" lat="46.536558" /><trkpt lon="13.642172" lat="46.535396" /><trkpt lon="13.64164" lat="46.534669" /><trkpt lon="13.639686" lat="46.530434" /><trkpt lon="13.637423" lat="46.528401" /><trkpt lon="13.635563" lat="46.527126" /><trkpt lon="13.633826" lat="46.5263" /><trkpt lon="13.625632" lat="46.524601" /><trkpt lon="13.6246" lat="46.524294" /><trkpt lon="13.622986" lat="46.523532" /><trkpt lon="13.622133" lat="46.522914" /><trkpt lon="13.621041" lat="46.521736" /><trkpt lon="13.62061" lat="46.520898" /><trkpt lon="13.618812" lat="46.515803" /><trkpt lon="13.616635" lat="46.513204" /><trkpt lon="13.614761" lat="46.511911" /><trkpt lon="13.608192" lat="46.508961" /><trkpt lon="13.60467" lat="46.506736" /><trkpt lon="13.602027" lat="46.505869" /><trkpt lon="13.59969" lat="46.50569" /><trkpt lon="13.597284" lat="46.505932" /><trkpt lon="13.595732" lat="46.506356" /><trkpt lon="13.590508" lat="46.508438" /><trkpt lon="13.586216" lat="46.509431" /><trkpt lon="13.582386" lat="46.509993" /><trkpt lon="13.578847" lat="46.509987" /><trkpt lon="13.57315" lat="46.509359" /><trkpt lon="13.571148" lat="46.508963" /><trkpt lon="13.56671" lat="46.507507" /><trkpt lon="13.565106" lat="46.507348" /><trkpt lon="13.562861" lat="46.507575" /><trkpt lon="13.55299" lat="46.509244" /><trkpt lon="13.550228" lat="46.509384" /><trkpt lon="13.547538" lat="46.509088" /><trkpt lon="13.545676" lat="46.508593" /><trkpt lon="13.544242" lat="46.508034" /><trkpt lon="13.537888" lat="46.504871" /><trkpt lon="13.533944" lat="46.503882" /><trkpt lon="13.532197" lat="46.503688" /><trkpt lon="13.529758" lat="46.503663" /><trkpt lon="13.519739" lat="46.505283" /><trkpt lon="13.516432" lat="46.505473" /><trkpt lon="13.513333" lat="46.505193" /><trkpt lon="13.50379" lat="46.503066" /><trkpt lon="13.501268" lat="46.502788" /><trkpt lon="13.499063" lat="46.502991" /><trkpt lon="13.497711" lat="46.50336" /><trkpt lon="13.492569" lat="46.505615" /><trkpt lon="13.488724" lat="46.506651" /><trkpt lon="13.484724" lat="46.506977" /><trkpt lon="13.475004" lat="46.506864" /><trkpt lon="13.472686" lat="46.507186" /><trkpt lon="13.468231" lat="46.508445" /><trkpt lon="13.465514" lat="46.508646" /><trkpt lon="13.464055" lat="46.508483" /><trkpt lon="13.462228" lat="46.507992" /><trkpt lon="13.45821" lat="46.505903" /><trkpt lon="13.45612" lat="46.505168" /><trkpt lon="13.453999" lat="46.504817" /><trkpt lon="13.448576" lat="46.504379" /><trkpt lon="13.438919" lat="46.502413" /><trkpt lon="13.428887" lat="46.501365" /><trkpt lon="13.425429" lat="46.500469" /><trkpt lon="13.420031" lat="46.49815" /><trkpt lon="13.41845" lat="46.497813" /><trkpt lon="13.414954" lat="46.497719" /><trkpt lon="13.405649" lat="46.498736" /><trkpt lon="13.403758" lat="46.498663" /><trkpt lon="13.399312" lat="46.497909" /><trkpt lon="13.397441" lat="46.49778" /><trkpt lon="13.389616" lat="46.498414" /><trkpt lon="13.38325" lat="46.49804" /><trkpt lon="13.381066" lat="46.498282" /><trkpt lon="13.369817" lat="46.500499" /><trkpt lon="13.367914" lat="46.501546" /><trkpt lon="13.365718" lat="46.503997" /><trkpt lon="13.364104" lat="46.505143" /><trkpt lon="13.36227" lat="46.505867" /><trkpt lon="13.356683" lat="46.506922" /><trkpt lon="13.355038" lat="46.507415" /><trkpt lon="13.353435" lat="46.508287" /><trkpt lon="13.350403" lat="46.510613" /><trkpt lon="13.349204" lat="46.511204" /><trkpt lon="13.347502" lat="46.51174" /><trkpt lon="13.345529" lat="46.512038" /><trkpt lon="13.332699" lat="46.512894" /><trkpt lon="13.330748" lat="46.51277" /><trkpt lon="13.329038" lat="46.51246" /><trkpt lon="13.327387" lat="46.511942" /><trkpt lon="13.325885" lat="46.511253" /><trkpt lon="13.324123" lat="46.510067" /><trkpt lon="13.296105" lat="46.487699" /><trkpt lon="13.294911" lat="46.486511" /><trkpt lon="13.294032" lat="46.485309" /><trkpt lon="13.293291" lat="46.483501" /><trkpt lon="13.293124" lat="46.482556" /><trkpt lon="13.293232" lat="46.480718" /><trkpt lon="13.293937" lat="46.478804" /><trkpt lon="13.301684" lat="46.466732" /><trkpt lon="13.302758" lat="46.464564" /><trkpt lon="13.303481" lat="46.462248" /><trkpt lon="13.303947" lat="46.456492" /><trkpt lon="13.304437" lat="46.453627" /><trkpt lon="13.305243" lat="46.451325" /><trkpt lon="13.310194" lat="46.439792" /><trkpt lon="13.312086" lat="46.436193" /><trkpt lon="13.314696" lat="46.432165" /><trkpt lon="13.316158" lat="46.428515" /><trkpt lon="13.318603" lat="46.424814" /><trkpt lon="13.319383" lat="46.422987" /><trkpt lon="13.319613" lat="46.420429" /><trkpt lon="13.319667" lat="46.413803" /><trkpt lon="13.319486" lat="46.411432" /><trkpt lon="13.318893" lat="46.409983" /><trkpt lon="13.317953" lat="46.408708" /><trkpt lon="13.315699" lat="46.40703" /><trkpt lon="13.313796" lat="46.406249" /><trkpt lon="13.312339" lat="46.405877" /><trkpt lon="13.291449" lat="46.401777" /><trkpt lon="13.287848" lat="46.401401" /><trkpt lon="13.28223" lat="46.401272" /><trkpt lon="13.280076" lat="46.400976" /><trkpt lon="13.27009" lat="46.398412" /><trkpt lon="13.266636" lat="46.397266" /><trkpt lon="13.258711" lat="46.394285" /><trkpt lon="13.256947" lat="46.394131" /><trkpt lon="13.252329" lat="46.394763" /><trkpt lon="13.246383" lat="46.394781" /><trkpt lon="13.244713" lat="46.394583" /><trkpt lon="13.240525" lat="46.393359" /><trkpt lon="13.238438" lat="46.393025" /><trkpt lon="13.236803" lat="46.393053" /><trkpt lon="13.224075" lat="46.394597" /><trkpt lon="13.221433" lat="46.395123" /><trkpt lon="13.214983" lat="46.396841" /><trkpt lon="13.210228" lat="46.397376" /><trkpt lon="13.205509" lat="46.397158" /><trkpt lon="13.192214" lat="46.394842" /><trkpt lon="13.190095" lat="46.394679" /><trkpt lon="13.188078" lat="46.394735" /><trkpt lon="13.186094" lat="46.394997" /><trkpt lon="13.183978" lat="46.395519" /><trkpt lon="13.177962" lat="46.398004" /><trkpt lon="13.176406" lat="46.398427" /><trkpt lon="13.173379" lat="46.398842" /><trkpt lon="13.170416" lat="46.398711" /><trkpt lon="13.168905" lat="46.398438" /><trkpt lon="13.166373" lat="46.397636" /><trkpt lon="13.154366" lat="46.392321" /><trkpt lon="13.152716" lat="46.391802" /><trkpt lon="13.150536" lat="46.391445" /><trkpt lon="13.143612" lat="46.391335" /><trkpt lon="13.134913" lat="46.390789" /><trkpt lon="13.132433" lat="46.390256" /><trkpt lon="13.130894" lat="46.389464" /><trkpt lon="13.127727" lat="46.387322" /><trkpt lon="13.121927" lat="46.384443" /><trkpt lon="13.119909" lat="46.382826" /><trkpt lon="13.116901" lat="46.379557" /><trkpt lon="13.115161" lat="46.378336" /><trkpt lon="13.112897" lat="46.377298" /><trkpt lon="13.107954" lat="46.375666" /><trkpt lon="13.103087" lat="46.372992" /><trkpt lon="13.100579" lat="46.372013" /><trkpt lon="13.089559" lat="46.369871" /><trkpt lon="13.086721" lat="46.369025" /><trkpt lon="13.081157" lat="46.366985" /><trkpt lon="13.079529" lat="46.366654" /><trkpt lon="13.078613" lat="46.366764" /><trkpt lon="13.077772" lat="46.36715" /><trkpt lon="13.076137" lat="46.368788" /><trkpt lon="13.074833" lat="46.369276" /><trkpt lon="13.073005" lat="46.369624" /><trkpt lon="13.071912" lat="46.370548" /><trkpt lon="13.071842" lat="46.371114" /><trkpt lon="13.072316" lat="46.371778" /><trkpt lon="13.073285" lat="46.372291" /><trkpt lon="13.077328" lat="46.372963" /><trkpt lon="13.07913" lat="46.372863" /><trkpt lon="13.083639" lat="46.371602" /><trkpt lon="13.088529" lat="46.371375" /><trkpt lon="13.089511" lat="46.371494" /><trkpt lon="13.09061" lat="46.37185" /><trkpt lon="13.091093" lat="46.371788" /><trkpt lon="13.09674" lat="46.373207" /><trkpt lon="13.09995" lat="46.373312" /><trkpt lon="13.103881" lat="46.375192" /><trkpt lon="13.106879" lat="46.376988" /><trkpt lon="13.111946" lat="46.378486" /><trkpt lon="13.116786" lat="46.381224" /><trkpt lon="13.118053" lat="46.381696" /><trkpt lon="13.11893" lat="46.381636" /><trkpt lon="13.126755" lat="46.379519" /><trkpt lon="13.127943" lat="46.379842" /><trkpt lon="13.130578" lat="46.379897" /><trkpt lon="13.132112" lat="46.379732" /><trkpt lon="13.135876" lat="46.377832" /><trkpt lon="13.136559" lat="46.377286" /><trkpt lon="13.136945" lat="46.37668" /><trkpt lon="13.136983" lat="46.376049" /><trkpt lon="13.135817" lat="46.372924" /><trkpt lon="13.135481" lat="46.368781" /><trkpt lon="13.134671" lat="46.366438" /><trkpt lon="13.134678" lat="46.365797" /><trkpt lon="13.137333" lat="46.358531" /><trkpt lon="13.139008" lat="46.355014" /><trkpt lon="13.141697" lat="46.350821" /><trkpt lon="13.1424" lat="46.349093" /><trkpt lon="13.142234" lat="46.348393" /><trkpt lon="13.139848" lat="46.344231" /><trkpt lon="13.139683" lat="46.343639" /><trkpt lon="13.139864" lat="46.337418" /><trkpt lon="13.140298" lat="46.336437" /><trkpt lon="13.140143" lat="46.335504" /><trkpt lon="13.139764" lat="46.33552" /><trkpt lon="13.140143" lat="46.335504" /><trkpt lon="13.140298" lat="46.336437" /><trkpt lon="13.139951" lat="46.337127" /><trkpt lon="13.139874" lat="46.337693" /><trkpt lon="13.139515" lat="46.337814" /><trkpt lon="13.137276" lat="46.334149" /><trkpt lon="13.137311" lat="46.333751" /><trkpt lon="13.138115" lat="46.332472" /><trkpt lon="13.138119" lat="46.331836" /><trkpt lon="13.136336" lat="46.329407" /><trkpt lon="13.131522" lat="46.324099" /><trkpt lon="13.13051" lat="46.32062" /><trkpt lon="13.130356" lat="46.318253" /><trkpt lon="13.129196" lat="46.316271" /><trkpt lon="13.128696" lat="46.314792" /><trkpt lon="13.128479" lat="46.309392" /><trkpt lon="13.12826" lat="46.308516" /><trkpt lon="13.127291" lat="46.307466" /><trkpt lon="13.122573" lat="46.304872" /><trkpt lon="13.120006" lat="46.302316" /><trkpt lon="13.115633" lat="46.296762" /><trkpt lon="13.115297" lat="46.295698" /><trkpt lon="13.115307" lat="46.293465" /><trkpt lon="13.114522" lat="46.290293" /><trkpt lon="13.110075" lat="46.284049" /><trkpt lon="13.108158" lat="46.273573" /><trkpt lon="13.107825" lat="46.273271" /><trkpt lon="13.108025" lat="46.272909" /><trkpt lon="13.107385" lat="46.269211" /><trkpt lon="13.108547" lat="46.259531" /><trkpt lon="13.108468" lat="46.259241" /><trkpt lon="13.108" lat="46.258922" /><trkpt lon="13.105796" lat="46.258637" /><trkpt lon="13.097925" lat="46.255879" /><trkpt lon="13.097343" lat="46.255438" /><trkpt lon="13.096816" lat="46.254699" /><trkpt lon="13.095255" lat="46.251449" /><trkpt lon="13.095044" lat="46.250551" /><trkpt lon="13.099268" lat="46.249954" /><trkpt lon="13.099731" lat="46.249643" /><trkpt lon="13.099869" lat="46.248988" /><trkpt lon="13.09948" lat="46.246201" /><trkpt lon="13.094139" lat="46.226022" /><trkpt lon="13.093138" lat="46.221742" /><trkpt lon="13.092725" lat="46.218215" /><trkpt lon="13.092555" lat="46.21284" /><trkpt lon="13.092557" lat="46.211137" /><trkpt lon="13.092861" lat="46.209329" /><trkpt lon="13.093767" lat="46.207075" /><trkpt lon="13.095281" lat="46.204852" /><trkpt lon="13.103853" lat="46.195196" /><trkpt lon="13.106389" lat="46.192927" /><trkpt lon="13.108884" lat="46.191203" /><trkpt lon="13.111622" lat="46.189697" /><trkpt lon="13.130445" lat="46.181543" /><trkpt lon="13.135089" lat="46.179291" /><trkpt lon="13.139463" lat="46.176782" /><trkpt lon="13.157421" lat="46.165758" /><trkpt lon="13.160368" lat="46.163485" /><trkpt lon="13.16221" lat="46.161841" /><trkpt lon="13.164053" lat="46.15996" /><trkpt lon="13.166279" lat="46.157225" /><trkpt lon="13.168517" lat="46.153778" /><trkpt lon="13.174221" lat="46.142403" /><trkpt lon="13.175596" lat="46.140521" /><trkpt lon="13.176808" lat="46.13929" /><trkpt lon="13.179165" lat="46.137474" /><trkpt lon="13.181498" lat="46.136167" /><trkpt lon="13.199731" lat="46.12801" /><trkpt lon="13.201898" lat="46.126526" /><trkpt lon="13.203663" lat="46.12446" /><trkpt lon="13.20416" lat="46.123518" /><trkpt lon="13.204546" lat="46.122303" /><trkpt lon="13.205262" lat="46.117675" /><trkpt lon="13.20522" lat="46.115299" /><trkpt lon="13.204816" lat="46.113318" /><trkpt lon="13.201823" lat="46.105112" /><trkpt lon="13.191604" lat="46.083636" /><trkpt lon="13.191307" lat="46.082612" /><trkpt lon="13.191244" lat="46.08166" /><trkpt lon="13.191458" lat="46.08043" /><trkpt lon="13.192276" lat="46.078797" /><trkpt lon="13.195526" lat="46.075313" /><trkpt lon="13.196226" lat="46.074254" /><trkpt lon="13.196614" lat="46.073329" /><trkpt lon="13.198416" lat="46.060341" /><trkpt lon="13.199371" lat="46.057639" /><trkpt lon="13.205114" lat="46.049637" /><trkpt lon="13.205771" lat="46.048879" /><trkpt lon="13.208704" lat="46.046446" /><trkpt lon="13.209538" lat="46.045572" /><trkpt lon="13.210552" lat="46.044176" /><trkpt lon="13.211381" lat="46.042562" /><trkpt lon="13.211928" lat="46.040347" /><trkpt lon="13.212607" lat="46.03014" /><trkpt lon="13.212617" lat="46.02818" /><trkpt lon="13.212088" lat="46.025376" /><trkpt lon="13.212123" lat="46.024436" /><trkpt lon="13.212474" lat="46.023301" /><trkpt lon="13.213059" lat="46.022364" /><trkpt lon="13.216792" lat="46.01777" /><trkpt lon="13.224377" lat="46.007356" /><trkpt lon="13.2416" lat="45.983413" /><trkpt lon="13.242975" lat="45.9813" /><trkpt lon="13.244422" lat="45.978635" /><trkpt lon="13.245485" lat="45.976283" /><trkpt lon="13.250559" lat="45.962361" /><trkpt lon="13.252696" lat="45.95809" /><trkpt lon="13.274882" lat="45.923504" /><trkpt lon="13.277174" lat="45.919401" /><trkpt lon="13.283929" lat="45.90469" /><trkpt lon="13.284497" lat="45.902568" /><trkpt lon="13.284371" lat="45.899911" /><trkpt lon="13.283873" lat="45.898293" /><trkpt lon="13.282745" lat="45.896194" /><trkpt lon="13.281114" lat="45.894245" /><trkpt lon="13.279655" lat="45.893005" /><trkpt lon="13.277252" lat="45.8915" /><trkpt lon="13.263135" lat="45.883935" /><trkpt lon="13.259364" lat="45.88218" /><trkpt lon="13.253522" lat="45.879903" /><trkpt lon="13.217438" lat="45.866669" /><trkpt lon="13.213242" lat="45.865248" /><trkpt lon="13.174259" lat="45.853559" /><trkpt lon="13.116831" lat="45.834779" /><trkpt lon="13.110916" lat="45.833128" /><trkpt lon="13.10664" lat="45.832223" /><trkpt lon="13.099966" lat="45.831158" /><trkpt lon="13.052029" lat="45.824189" /><trkpt lon="13.047538" lat="45.823206" /><trkpt lon="13.035343" lat="45.819762" /><trkpt lon="13.031778" lat="45.818962" /><trkpt lon="13.028956" lat="45.818598" /><trkpt lon="13.009855" lat="45.817005" /><trkpt lon="13.004051" lat="45.816334" /><trkpt lon="12.994715" lat="45.814962" /><trkpt lon="12.967506" lat="45.809891" /><trkpt lon="12.964364" lat="45.809427" /><trkpt lon="12.922664" lat="45.806155" /><trkpt lon="12.911617" lat="45.805139" /><trkpt lon="12.904717" lat="45.804904" /><trkpt lon="12.892134" lat="45.805135" /><trkpt lon="12.886296" lat="45.804814" /><trkpt lon="12.880066" lat="45.80405" /><trkpt lon="12.841896" lat="45.797034" /><trkpt lon="12.836106" lat="45.7956" /><trkpt lon="12.821228" lat="45.791041" /><trkpt lon="12.814983" lat="45.789711" /><trkpt lon="12.803089" lat="45.788081" /><trkpt lon="12.796149" lat="45.786802" /><trkpt lon="12.789539" lat="45.785114" /><trkpt lon="12.783274" lat="45.783055" /><trkpt lon="12.779547" lat="45.781577" /><trkpt lon="12.774508" lat="45.77926" /><trkpt lon="12.762642" lat="45.772848" /><trkpt lon="12.748217" lat="45.764876" /><trkpt lon="12.73387" lat="45.75572" /><trkpt lon="12.727595" lat="45.75252" /><trkpt lon="12.720563" lat="45.749782" /><trkpt lon="12.654266" lat="45.728659" /><trkpt lon="12.646456" lat="45.72575" /><trkpt lon="12.639163" lat="45.722239" /><trkpt lon="12.61979" lat="45.711028" /><trkpt lon="12.613348" lat="45.707753" /><trkpt lon="12.608293" lat="45.705652" /><trkpt lon="12.590435" lat="45.69921" /><trkpt lon="12.584414" lat="45.696721" /><trkpt lon="12.529477" lat="45.670552" /><trkpt lon="12.524372" lat="45.668299" /><trkpt lon="12.514898" lat="45.664483" /><trkpt lon="12.501278" lat="45.658387" /><trkpt lon="12.480826" lat="45.64973" /><trkpt lon="12.474687" lat="45.64661" /><trkpt lon="12.448312" lat="45.631971" /><trkpt lon="12.41576" lat="45.617019" /><trkpt lon="12.411961" lat="45.61507" /><trkpt lon="12.382874" lat="45.598902" /><trkpt lon="12.355559" lat="45.580194" /><trkpt lon="12.352138" lat="45.578154" /><trkpt lon="12.349983" lat="45.576913" /><trkpt lon="12.346545" lat="45.5754" /><trkpt lon="12.345156" lat="45.57494" /><trkpt lon="12.342671" lat="45.574677" /><trkpt lon="12.341456" lat="45.574185" /><trkpt lon="12.34091" lat="45.573697" /><trkpt lon="12.340206" lat="45.572015" /><trkpt lon="12.339653" lat="45.571413" /><trkpt lon="12.321852" lat="45.561507" /><trkpt lon="12.316476" lat="45.557929" /><trkpt lon="12.306784" lat="45.550692" /><trkpt lon="12.301634" lat="45.547403" /><trkpt lon="12.26286" lat="45.526751" /><trkpt lon="12.258969" lat="45.524382" /><trkpt lon="12.249645" lat="45.518215" /><trkpt lon="12.243738" lat="45.514959" /><trkpt lon="12.23765" lat="45.511157" /><trkpt lon="12.236091" lat="45.509519" /><trkpt lon="12.232425" lat="45.503504" /><trkpt lon="12.231709" lat="45.50201" /><trkpt lon="12.230733" lat="45.499264" /><trkpt lon="12.229758" lat="45.497629" /><trkpt lon="12.228569" lat="45.49642" /><trkpt lon="12.222238" lat="45.491359" /><trkpt lon="12.220776" lat="45.489599" /><trkpt lon="12.219984" lat="45.487971" /><trkpt lon="12.218184" lat="45.482208" /><trkpt lon="12.214781" lat="45.476383" /><trkpt lon="12.214194" lat="45.475684" /><trkpt lon="12.2131" lat="45.474877" /><trkpt lon="12.211086" lat="45.474104" /><trkpt lon="12.206395" lat="45.473431" /><trkpt lon="12.196536" lat="45.471344" /><trkpt lon="12.193554" lat="45.470859" /><trkpt lon="12.19127" lat="45.470211" /><trkpt lon="12.095929" lat="45.450738" /><trkpt lon="12.087497" lat="45.449159" /><trkpt lon="12.084345" lat="45.449195" /><trkpt lon="12.080981" lat="45.447879" /><trkpt lon="12.07784" lat="45.447032" /><trkpt lon="11.945742" lat="45.419794" /><trkpt lon="11.94273" lat="45.419268" /><trkpt lon="11.940279" lat="45.419254" /><trkpt lon="11.93782" lat="45.419684" /><trkpt lon="11.935946" lat="45.420345" /><trkpt lon="11.920109" lat="45.428801" /><trkpt lon="11.917005" lat="45.43028" /><trkpt lon="11.902735" lat="45.435944" /><trkpt lon="11.888361" lat="45.440794" /><trkpt lon="11.849478" lat="45.448193" /><trkpt lon="11.792671" lat="45.456017" /><trkpt lon="11.789878" lat="45.456657" /><trkpt lon="11.764125" lat="45.464353" /><trkpt lon="11.735808" lat="45.469125" /><trkpt lon="11.733152" lat="45.46986" /><trkpt lon="11.690841" lat="45.483599" /><trkpt lon="11.67904" lat="45.487958" /><trkpt lon="11.660868" lat="45.492994" /><trkpt lon="11.635943" lat="45.501641" /><trkpt lon="11.583929" lat="45.516749" /><trkpt lon="11.581464" lat="45.517117" /><trkpt lon="11.579519" lat="45.517165" /><trkpt lon="11.56108" lat="45.515803" /><trkpt lon="11.55136" lat="45.515754" /><trkpt lon="11.530658" lat="45.517322" /><trkpt lon="11.524726" lat="45.518074" /><trkpt lon="11.503306" lat="45.517941" /><trkpt lon="11.500802" lat="45.51765" /><trkpt lon="11.499184" lat="45.517229" /><trkpt lon="11.469712" lat="45.50684" /><trkpt lon="11.463407" lat="45.505254" /><trkpt lon="11.460638" lat="45.504401" /><trkpt lon="11.458078" lat="45.503364" /><trkpt lon="11.455677" lat="45.502123" /><trkpt lon="11.453015" lat="45.500234" /><trkpt lon="11.42875" lat="45.478642" /><trkpt lon="11.424359" lat="45.474964" /><trkpt lon="11.417139" lat="45.47046" /><trkpt lon="11.406764" lat="45.463374" /><trkpt lon="11.401263" lat="45.458832" /><trkpt lon="11.399161" lat="45.457336" /><trkpt lon="11.395683" lat="45.455501" /><trkpt lon="11.391483" lat="45.453771" /><trkpt lon="11.389367" lat="45.452697" /><trkpt lon="11.387005" lat="45.451169" /><trkpt lon="11.379471" lat="45.445478" /><trkpt lon="11.377748" lat="45.4444" /><trkpt lon="11.375275" lat="45.443153" /><trkpt lon="11.37184" lat="45.441884" /><trkpt lon="11.365975" lat="45.440371" /><trkpt lon="11.363055" lat="45.439421" /><trkpt lon="11.320182" lat="45.421025" /><trkpt lon="11.317479" lat="45.42" /><trkpt lon="11.274466" lat="45.409749" /><trkpt lon="11.270814" lat="45.409144" /><trkpt lon="11.268677" lat="45.408979" /><trkpt lon="11.260168" lat="45.408787" /><trkpt lon="11.256839" lat="45.408891" /><trkpt lon="11.194685" lat="45.414888" /><trkpt lon="11.189672" lat="45.415762" /><trkpt lon="11.175621" lat="45.418959" /><trkpt lon="11.172793" lat="45.419361" /><trkpt lon="11.154003" lat="45.4204" /><trkpt lon="11.135256" lat="45.421967" /><trkpt lon="11.131729" lat="45.422054" /><trkpt lon="11.127206" lat="45.421658" /><trkpt lon="11.123312" lat="45.420846" /><trkpt lon="11.107991" lat="45.415545" /><trkpt lon="11.074398" lat="45.40655" /><trkpt lon="11.070284" lat="45.405704" /><trkpt lon="11.055492" lat="45.404444" /><trkpt lon="11.038694" lat="45.402796" /><trkpt lon="11.034107" lat="45.402498" /><trkpt lon="11.007318" lat="45.399712" /><trkpt lon="10.991002" lat="45.398243" /><trkpt lon="10.983034" lat="45.3972" /><trkpt lon="10.978449" lat="45.397102" /><trkpt lon="10.961359" lat="45.39784" /><trkpt lon="10.95517" lat="45.398633" /><trkpt lon="10.926734" lat="45.404396" /><trkpt lon="10.899512" lat="45.411791" /><trkpt lon="10.894053" lat="45.412913" /><trkpt lon="10.88988" lat="45.41337" /><trkpt lon="10.860693" lat="45.415091" /><trkpt lon="10.856926" lat="45.41557" /><trkpt lon="10.846299" lat="45.41742" /><trkpt lon="10.840408" lat="45.417963" /><trkpt lon="10.835011" lat="45.417893" /><trkpt lon="10.814437" lat="45.416382" /><trkpt lon="10.80917" lat="45.416425" /><trkpt lon="10.79514" lat="45.417975" /><trkpt lon="10.79" lat="45.418939" /><trkpt lon="10.783633" lat="45.420744" /><trkpt lon="10.774417" lat="45.424216" /><trkpt lon="10.770035" lat="45.425264" /><trkpt lon="10.73218" lat="45.429206" /><trkpt lon="10.725714" lat="45.42953" /><trkpt lon="10.689705" lat="45.429304" /><trkpt lon="10.686456" lat="45.429428" /><trkpt lon="10.640363" lat="45.432414" /><trkpt lon="10.616036" lat="45.433619" /><trkpt lon="10.613267" lat="45.433912" /><trkpt lon="10.612666" lat="45.434209" /><trkpt lon="10.611858" lat="45.435122" /><trkpt lon="10.611293" lat="45.435247" /><trkpt lon="10.610459" lat="45.434879" /><trkpt lon="10.610213" lat="45.433252" /><trkpt lon="10.609726" lat="45.43258" /><trkpt lon="10.608562" lat="45.432177" /><trkpt lon="10.606185" lat="45.432081" /><trkpt lon="10.605972" lat="45.432578" /><trkpt lon="10.606507" lat="45.435574" /><trkpt lon="10.606077" lat="45.436541" /><trkpt lon="10.603367" lat="45.438831" /><trkpt lon="10.603188" lat="45.439136" /><trkpt lon="10.602807" lat="45.439288" /><trkpt lon="10.598872" lat="45.442551" /><trkpt lon="10.597013" lat="45.443301" /><trkpt lon="10.595562" lat="45.444154" /><trkpt lon="10.595312" lat="45.444729" /><trkpt lon="10.59569" lat="45.445246" /><trkpt lon="10.595206" lat="45.44566" /><trkpt lon="10.594458" lat="45.446957" /><trkpt lon="10.594564" lat="45.44743" /><trkpt lon="10.594208" lat="45.448774" /><trkpt lon="10.594746" lat="45.449877" /><trkpt lon="10.59868" lat="45.454204" /><trkpt lon="10.599429" lat="45.455465" /><trkpt lon="10.599774" lat="45.456492" /><trkpt lon="10.600527" lat="45.460666" /><trkpt lon="10.600987" lat="45.461412" /><trkpt lon="10.600923" lat="45.461978" /><trkpt lon="10.601699" lat="45.464572" /><trkpt lon="10.602036" lat="45.464825" /><trkpt lon="10.603774" lat="45.465045" /><trkpt lon="10.606727" lat="45.464982" /><trkpt lon="10.60728" lat="45.466518" /><trkpt lon="10.607356" lat="45.467803" /><trkpt lon="10.607708" lat="45.468732" /><trkpt lon="10.607882" lat="45.46884" /><trkpt lon="10.609358" lat="45.471808" /><trkpt lon="10.610406" lat="45.472877" /><trkpt lon="10.610926" lat="45.47394" /><trkpt lon="10.610843" lat="45.474802" /><trkpt lon="10.610946" lat="45.474901" /><trkpt lon="10.610808" lat="45.474975" /><trkpt lon="10.610509" lat="45.477292" /><trkpt lon="10.609838" lat="45.478796" /><trkpt lon="10.609116" lat="45.479913" /><trkpt lon="10.609017" lat="45.480355" /><trkpt lon="10.609187" lat="45.481014" /><trkpt lon="10.608751" lat="45.482004" /><trkpt lon="10.608879" lat="45.483803" /><trkpt lon="10.609393" lat="45.485495" /><trkpt lon="10.609488" lat="45.486986" /><trkpt lon="10.610153" lat="45.486982" /><trkpt lon="10.609488" lat="45.486986" /><trkpt lon="10.609393" lat="45.485495" /><trkpt lon="10.608879" lat="45.483803" /><trkpt lon="10.608751" lat="45.482004" /><trkpt lon="10.609187" lat="45.481014" /><trkpt lon="10.609017" lat="45.480355" /><trkpt lon="10.609116" lat="45.479913" /><trkpt lon="10.609838" lat="45.478796" /><trkpt lon="10.610509" lat="45.477292" /><trkpt lon="10.610771" lat="45.475558" /><trkpt lon="10.610701" lat="45.474905" /><trkpt lon="10.610843" lat="45.474802" /><trkpt lon="10.610926" lat="45.47394" /><trkpt lon="10.610406" lat="45.472877" /><trkpt lon="10.609014" lat="45.471603" /><trkpt lon="10.609075" lat="45.471321" /><trkpt lon="10.608533" lat="45.470349" /><trkpt lon="10.605178" lat="45.469535" /><trkpt lon="10.604447" lat="45.469511" /><trkpt lon="10.603788" lat="45.469194" /><trkpt lon="10.602835" lat="45.467818" /><trkpt lon="10.602502" lat="45.467631" /><trkpt lon="10.601704" lat="45.465319" /><trkpt lon="10.601213" lat="45.464908" /><trkpt lon="10.601575" lat="45.464564" /><trkpt lon="10.601588" lat="45.464304" /><trkpt lon="10.600923" lat="45.461978" /><trkpt lon="10.600486" lat="45.461493" /><trkpt lon="10.600604" lat="45.46094" /><trkpt lon="10.599774" lat="45.456492" /><trkpt lon="10.599429" lat="45.455465" /><trkpt lon="10.59868" lat="45.454204" /><trkpt lon="10.594746" lat="45.449877" /><trkpt lon="10.594313" lat="45.449207" /><trkpt lon="10.594242" lat="45.44782" /><trkpt lon="10.593913" lat="45.447435" /><trkpt lon="10.594771" lat="45.446443" /><trkpt lon="10.594993" lat="45.445963" /><trkpt lon="10.594925" lat="45.445582" /><trkpt lon="10.594491" lat="45.445369" /><trkpt lon="10.593153" lat="45.445298" /><trkpt lon="10.583503" lat="45.445394" /><trkpt lon="10.571726" lat="45.444843" /><trkpt lon="10.568874" lat="45.445078" /><trkpt lon="10.553114" lat="45.448096" /><trkpt lon="10.53289" lat="45.45279" /><trkpt lon="10.526118" lat="45.455283" /><trkpt lon="10.52407" lat="45.456421" /><trkpt lon="10.523825" lat="45.456663" /><trkpt lon="10.523646" lat="45.457271" /><trkpt lon="10.52322" lat="45.457537" /><trkpt lon="10.522775" lat="45.457351" /><trkpt lon="10.522827" lat="45.457075" /><trkpt lon="10.522391" lat="45.456162" /><trkpt lon="10.522037" lat="45.454521" /><trkpt lon="10.520689" lat="45.452636" /><trkpt lon="10.519591" lat="45.452252" /><trkpt lon="10.519117" lat="45.450499" /><trkpt lon="10.518751" lat="45.450206" /><trkpt lon="10.518146" lat="45.450043" /><trkpt lon="10.515626" lat="45.450153" /><trkpt lon="10.501331" lat="45.45152" /><trkpt lon="10.483702" lat="45.453509" /><trkpt lon="10.476492" lat="45.45384" /><trkpt lon="10.470175" lat="45.454514" /><trkpt lon="10.453807" lat="45.458488" /><trkpt lon="10.432295" lat="45.462948" /><trkpt lon="10.428684" lat="45.463407" /><trkpt lon="10.400316" lat="45.465719" /><trkpt lon="10.384566" lat="45.468327" /><trkpt lon="10.315367" lat="45.48391" /><trkpt lon="10.290518" lat="45.490143" /><trkpt lon="10.275057" lat="45.495165" /><trkpt lon="10.249545" lat="45.502334" /><trkpt lon="10.234219" lat="45.505804" /><trkpt lon="10.227088" lat="45.506862" /><trkpt lon="10.223539" lat="45.507764" /><trkpt lon="10.220688" lat="45.508815" /><trkpt lon="10.201168" lat="45.517766" /><trkpt lon="10.199236" lat="45.518418" /><trkpt lon="10.19649" lat="45.51892" /><trkpt lon="10.178539" lat="45.520934" /><trkpt lon="10.174615" lat="45.521742" /><trkpt lon="10.172384" lat="45.522442" /><trkpt lon="10.164373" lat="45.525872" /><trkpt lon="10.144393" lat="45.534958" /><trkpt lon="10.127156" lat="45.543448" /><trkpt lon="10.118053" lat="45.547723" /><trkpt lon="10.105808" lat="45.553979" /><trkpt lon="10.094577" lat="45.559419" /><trkpt lon="10.091663" lat="45.560648" /><trkpt lon="10.088073" lat="45.56184" /><trkpt lon="10.084325" lat="45.56277" /><trkpt lon="9.993934" lat="45.579598" /><trkpt lon="9.989578" lat="45.580754" /><trkpt lon="9.987297" lat="45.581634" /><trkpt lon="9.985084" lat="45.582725" /><trkpt lon="9.927831" lat="45.615681" /><trkpt lon="9.924215" lat="45.617384" /><trkpt lon="9.920574" lat="45.618651" /><trkpt lon="9.860258" lat="45.632055" /><trkpt lon="9.767722" lat="45.652229" /><trkpt lon="9.746777" lat="45.655766" /><trkpt lon="9.670419" lat="45.670075" /><trkpt lon="9.669361" lat="45.670692" /><trkpt lon="9.669065" lat="45.671106" /><trkpt lon="9.668916" lat="45.67173" /><trkpt lon="9.669094" lat="45.672676" /><trkpt lon="9.669015" lat="45.674416" /><trkpt lon="9.669275" lat="45.675233" /><trkpt lon="9.669916" lat="45.675872" /><trkpt lon="9.670888" lat="45.676351" /><trkpt lon="9.671169" lat="45.676772" /><trkpt lon="9.670992" lat="45.677397" /><trkpt lon="9.670004" lat="45.678205" /><trkpt lon="9.670119" lat="45.680098" /><trkpt lon="9.670436" lat="45.680492" /><trkpt lon="9.670221" lat="45.680891" /><trkpt lon="9.670357" lat="45.681949" /><trkpt lon="9.670272" lat="45.682971" /><trkpt lon="9.669941" lat="45.684142" /><trkpt lon="9.669043" lat="45.685734" /><trkpt lon="9.669129" lat="45.686113" /><trkpt lon="9.668616" lat="45.686287" /><trkpt lon="9.667734" lat="45.687466" /><trkpt lon="9.667558" lat="45.687981" /><trkpt lon="9.670307" lat="45.688827" /><trkpt lon="9.673736" lat="45.69055" /><trkpt lon="9.674257" lat="45.691121" /><trkpt lon="9.665026" lat="45.699112" /><trkpt lon="9.664701" lat="45.699446" /><trkpt lon="9.664623" lat="45.699978" /><trkpt lon="9.664982" lat="45.700543" /><trkpt lon="9.667667" lat="45.702016" /><trkpt lon="9.66868" lat="45.702171" /><trkpt lon="9.670961" lat="45.702148" /><trkpt lon="9.671517" lat="45.702323" /><trkpt lon="9.671906" lat="45.702672" /><trkpt lon="9.672439" lat="45.703575" /><trkpt lon="9.672449" lat="45.703865" /><trkpt lon="9.670399" lat="45.705274" /><trkpt lon="9.668119" lat="45.705919" /><trkpt lon="9.666442" lat="45.706029" /><trkpt lon="9.668119" lat="45.705919" /><trkpt lon="9.670399" lat="45.705274" /><trkpt lon="9.67229" lat="45.704041" /><trkpt lon="9.672483" lat="45.703675" /><trkpt lon="9.671906" lat="45.702672" /><trkpt lon="9.671379" lat="45.702258" /><trkpt lon="9.667809" lat="45.702052" /><trkpt lon="9.665666" lat="45.701049" /><trkpt lon="9.664873" lat="45.700578" /><trkpt lon="9.664526" lat="45.699492" /><trkpt lon="9.67282" lat="45.692341" /><trkpt lon="9.667438" lat="45.687966" /><trkpt lon="9.668616" lat="45.686287" /><trkpt lon="9.669647" lat="45.684454" /><trkpt lon="9.670143" lat="45.682944" /><trkpt lon="9.670207" lat="45.681558" /><trkpt lon="9.670077" lat="45.680807" /><trkpt lon="9.669813" lat="45.680552" /><trkpt lon="9.670002" lat="45.680175" /><trkpt lon="9.669757" lat="45.678122" /><trkpt lon="9.669561" lat="45.677395" /><trkpt lon="9.669011" lat="45.676464" /><trkpt lon="9.669079" lat="45.676089" /><trkpt lon="9.669432" lat="45.67578" /><trkpt lon="9.678068" lat="45.674992" /><trkpt lon="9.680219" lat="45.675028" /><trkpt lon="9.682609" lat="45.675586" /><trkpt lon="9.688969" lat="45.678692" /><trkpt lon="9.69154" lat="45.679432" /><trkpt lon="9.694141" lat="45.679638" /><trkpt lon="9.70156" lat="45.679405" /><trkpt lon="9.703978" lat="45.678815" /><trkpt lon="9.710448" lat="45.675724" /><trkpt lon="9.718413" lat="45.672845" /><trkpt lon="9.728257" lat="45.668749" /><trkpt lon="9.731187" lat="45.668084" /><trkpt lon="9.735991" lat="45.667856" /><trkpt lon="9.737983" lat="45.667487" /><trkpt lon="9.73968" lat="45.66768" /><trkpt lon="9.740625" lat="45.668149" /><trkpt lon="9.741159" lat="45.668649" /><trkpt lon="9.741797" lat="45.670056" /><trkpt lon="9.743014" lat="45.672067" /><trkpt lon="9.7456" lat="45.674824" /><trkpt lon="9.746736" lat="45.677599" /><trkpt lon="9.747816" lat="45.67886" /><trkpt lon="9.749133" lat="45.679649" /><trkpt lon="9.750674" lat="45.680208" /><trkpt lon="9.757509" lat="45.681742" /><trkpt lon="9.759565" lat="45.682133" /><trkpt lon="9.762035" lat="45.682079" /><trkpt lon="9.773397" lat="45.679644" /><trkpt lon="9.775258" lat="45.679383" /><trkpt lon="9.777607" lat="45.679614" /><trkpt lon="9.782066" lat="45.681" /><trkpt lon="9.783882" lat="45.681081" /><trkpt lon="9.785433" lat="45.680745" /><trkpt lon="9.788556" lat="45.679189" /><trkpt lon="9.794615" lat="45.678045" /><trkpt lon="9.796435" lat="45.678016" /><trkpt lon="9.806382" lat="45.680428" /><trkpt lon="9.811649" lat="45.680909" /><trkpt lon="9.823086" lat="45.683679" /><trkpt lon="9.825087" lat="45.683788" /><trkpt lon="9.828844" lat="45.683541" /><trkpt lon="9.835556" lat="45.682841" /><trkpt lon="9.836377" lat="45.682503" /><trkpt lon="9.836696" lat="45.682518" /><trkpt lon="9.836962" lat="45.682816" /><trkpt lon="9.836318" lat="45.683388" /><trkpt lon="9.836531" lat="45.683808" /><trkpt lon="9.838267" lat="45.68508" /><trkpt lon="9.841975" lat="45.686608" /><trkpt lon="9.844775" lat="45.688234" /><trkpt lon="9.844257" lat="45.688535" /><trkpt lon="9.84571" lat="45.690067" /></trkseg></trk></gpx>