<?xml version='1.0' encoding='utf-8'?>
<gpx xmlns="http://www.topografix.com/GPX/1/1" version="1.1" creator="Yatutbuv"><trk><trkseg><trkpt lon="20.957096" lat="52.211531" /><trkpt lon="20.956575" lat="52.211662" /><trkpt lon="20.956654" lat="52.211779" /><trkpt lon="20.955694" lat="52.211972" /><trkpt lon="20.95302" lat="52.211886" /><trkpt lon="20.94972" lat="52.209714" /><trkpt lon="20.949801" lat="52.209434" /><trkpt lon="20.949656" lat="52.209366" /><trkpt lon="20.949517" lat="52.209335" /><trkpt lon="20.94929" lat="52.210175" /><trkpt lon="20.930182" lat="52.197333" /><trkpt lon="20.927454" lat="52.195269" /><trkpt lon="20.919818" lat="52.190509" /><trkpt lon="20.918412" lat="52.189434" /><trkpt lon="20.917912" lat="52.188805" /><trkpt lon="20.917553" lat="52.188" /><trkpt lon="20.912945" lat="52.174896" /><trkpt lon="20.90725" lat="52.164415" /><trkpt lon="20.906219" lat="52.162812" /><trkpt lon="20.901988" lat="52.157674" /><trkpt lon="20.899457" lat="52.154876" /><trkpt lon="20.89745" lat="52.152962" /><trkpt lon="20.887822" lat="52.145788" /><trkpt lon="20.885637" lat="52.14377" /><trkpt lon="20.884024" lat="52.141955" /><trkpt lon="20.882143" lat="52.139349" /><trkpt lon="20.881108" lat="52.137442" /><trkpt lon="20.876618" lat="52.126147" /><trkpt lon="20.875506" lat="52.124345" /><trkpt lon="20.874072" lat="52.122938" /><trkpt lon="20.872331" lat="52.121718" /><trkpt lon="20.864112" lat="52.117168" /><trkpt lon="20.81571" lat="52.097488" /><trkpt lon="20.813925" lat="52.096291" /><trkpt lon="20.812731" lat="52.095002" /><trkpt lon="20.812079" lat="52.09385" /><trkpt lon="20.810345" lat="52.089792" /><trkpt lon="20.80918" lat="52.087892" /><trkpt lon="20.807917" lat="52.086684" /><trkpt lon="20.806392" lat="52.085734" /><trkpt lon="20.803517" lat="52.084684" /><trkpt lon="20.795957" lat="52.083147" /><trkpt lon="20.793409" lat="52.082488" /><trkpt lon="20.790325" lat="52.081278" /><trkpt lon="20.785267" lat="52.07824" /><trkpt lon="20.782422" lat="52.076987" /><trkpt lon="20.757517" lat="52.069958" /><trkpt lon="20.753772" lat="52.068625" /><trkpt lon="20.705851" lat="52.045517" /><trkpt lon="20.70395" lat="52.044461" /><trkpt lon="20.702194" lat="52.043245" /><trkpt lon="20.69787" lat="52.039303" /><trkpt lon="20.695721" lat="52.037617" /><trkpt lon="20.693025" lat="52.036155" /><trkpt lon="20.690303" lat="52.035078" /><trkpt lon="20.670504" lat="52.028059" /><trkpt lon="20.667091" lat="52.026982" /><trkpt lon="20.63988" lat="52.021667" /><trkpt lon="20.636074" lat="52.020644" /><trkpt lon="20.610992" lat="52.011126" /><trkpt lon="20.608356" lat="52.009804" /><trkpt lon="20.603372" lat="52.006725" /><trkpt lon="20.601807" lat="52.006004" /><trkpt lon="20.599321" lat="52.005213" /><trkpt lon="20.596248" lat="52.004688" /><trkpt lon="20.593615" lat="52.004492" /><trkpt lon="20.567677" lat="52.00376" /><trkpt lon="20.564752" lat="52.003397" /><trkpt lon="20.561608" lat="52.002627" /><trkpt lon="20.558479" lat="52.001401" /><trkpt lon="20.55585" lat="51.999917" /><trkpt lon="20.538105" lat="51.987702" /><trkpt lon="20.536316" lat="51.986516" /><trkpt lon="20.534435" lat="51.985515" /><trkpt lon="20.530702" lat="51.984219" /><trkpt lon="20.511666" lat="51.979833" /><trkpt lon="20.509116" lat="51.978874" /><trkpt lon="20.507346" lat="51.977893" /><trkpt lon="20.506112" lat="51.976974" /><trkpt lon="20.505167" lat="51.976006" /><trkpt lon="20.503982" lat="51.974153" /><trkpt lon="20.498379" lat="51.960093" /><trkpt lon="20.497617" lat="51.95881" /><trkpt lon="20.473333" lat="51.932317" /><trkpt lon="20.471816" lat="51.931227" /><trkpt lon="20.466224" lat="51.928311" /><trkpt lon="20.463848" lat="51.926743" /><trkpt lon="20.454382" lat="51.918124" /><trkpt lon="20.450941" lat="51.915633" /><trkpt lon="20.421593" lat="51.891214" /><trkpt lon="20.414398" lat="51.885701" /><trkpt lon="20.412763" lat="51.884766" /><trkpt lon="20.41111" lat="51.884062" /><trkpt lon="20.391005" lat="51.877747" /><trkpt lon="20.389712" lat="51.877141" /><trkpt lon="20.388585" lat="51.876336" /><trkpt lon="20.388038" lat="51.87575" /><trkpt lon="20.387153" lat="51.874084" /><trkpt lon="20.383339" lat="51.864853" /><trkpt lon="20.382808" lat="51.863856" /><trkpt lon="20.381992" lat="51.862839" /><trkpt lon="20.363858" lat="51.84569" /><trkpt lon="20.362591" lat="51.844708" /><trkpt lon="20.361331" lat="51.843978" /><trkpt lon="20.359691" lat="51.843293" /><trkpt lon="20.352091" lat="51.8412" /><trkpt lon="20.349624" lat="51.84025" /><trkpt lon="20.328334" lat="51.828574" /><trkpt lon="20.324518" lat="51.826251" /><trkpt lon="20.312499" lat="51.814763" /><trkpt lon="20.296317" lat="51.799713" /><trkpt lon="20.287829" lat="51.791477" /><trkpt lon="20.284572" lat="51.788565" /><trkpt lon="20.279956" lat="51.784888" /><trkpt lon="20.279076" lat="51.784025" /><trkpt lon="20.27774" lat="51.782323" /><trkpt lon="20.276868" lat="51.780867" /><trkpt lon="20.272547" lat="51.769175" /><trkpt lon="20.27108" lat="51.766927" /><trkpt lon="20.269812" lat="51.765559" /><trkpt lon="20.268532" lat="51.764439" /><trkpt lon="20.262482" lat="51.759987" /><trkpt lon="20.255972" lat="51.755378" /><trkpt lon="20.251967" lat="51.752969" /><trkpt lon="20.239963" lat="51.746612" /><trkpt lon="20.238649" lat="51.745788" /><trkpt lon="20.237157" lat="51.744549" /><trkpt lon="20.23619" lat="51.743415" /><trkpt lon="20.23535" lat="51.742035" /><trkpt lon="20.224937" lat="51.724214" /><trkpt lon="20.21909" lat="51.713839" /><trkpt lon="20.21865" lat="51.712303" /><trkpt lon="20.218656" lat="51.711313" /><trkpt lon="20.220066" lat="51.706416" /><trkpt lon="20.220167" lat="51.705225" /><trkpt lon="20.219969" lat="51.70381" /><trkpt lon="20.219551" lat="51.702699" /><trkpt lon="20.218875" lat="51.701546" /><trkpt lon="20.215512" lat="51.696655" /><trkpt lon="20.214337" lat="51.695458" /><trkpt lon="20.210255" lat="51.692206" /><trkpt lon="20.206419" lat="51.689396" /><trkpt lon="20.191206" lat="51.679914" /><trkpt lon="20.186301" lat="51.676505" /><trkpt lon="20.182607" lat="51.673747" /><trkpt lon="20.168112" lat="51.662095" /><trkpt lon="20.165918" lat="51.660511" /><trkpt lon="20.164749" lat="51.659876" /><trkpt lon="20.163067" lat="51.659275" /><trkpt lon="20.156935" lat="51.657741" /><trkpt lon="20.15276" lat="51.656204" /><trkpt lon="20.149711" lat="51.654486" /><trkpt lon="20.148463" lat="51.653594" /><trkpt lon="20.144102" lat="51.649477" /><trkpt lon="20.142278" lat="51.648262" /><trkpt lon="20.11248" lat="51.63426" /><trkpt lon="20.101007" lat="51.628699" /><trkpt lon="20.099497" lat="51.627721" /><trkpt lon="20.097302" lat="51.625912" /><trkpt lon="20.095013" lat="51.623205" /><trkpt lon="20.093055" lat="51.621233" /><trkpt lon="20.091689" lat="51.620163" /><trkpt lon="20.089523" lat="51.618866" /><trkpt lon="20.086864" lat="51.617662" /><trkpt lon="20.068108" lat="51.610619" /><trkpt lon="20.064783" lat="51.608901" /><trkpt lon="20.062388" lat="51.607074" /><trkpt lon="20.061038" lat="51.605585" /><trkpt lon="20.05685" lat="51.59922" /><trkpt lon="20.055252" lat="51.597275" /><trkpt lon="20.05388" lat="51.59603" /><trkpt lon="20.052544" lat="51.595049" /><trkpt lon="20.05022" lat="51.59373" /><trkpt lon="20.043888" lat="51.590829" /><trkpt lon="20.041649" lat="51.58965" /><trkpt lon="20.03945" lat="51.5881" /><trkpt lon="20.031107" lat="51.581141" /><trkpt lon="20.029889" lat="51.579605" /><trkpt lon="20.024279" lat="51.568112" /><trkpt lon="20.023027" lat="51.566539" /><trkpt lon="20.021349" lat="51.565283" /><trkpt lon="20.001646" lat="51.554604" /><trkpt lon="19.99797" lat="51.552883" /><trkpt lon="19.995066" lat="51.551799" /><trkpt lon="19.972836" lat="51.5446" /><trkpt lon="19.968524" lat="51.542861" /><trkpt lon="19.964396" lat="51.54052" /><trkpt lon="19.942487" lat="51.526573" /><trkpt lon="19.938793" lat="51.524795" /><trkpt lon="19.935077" lat="51.523643" /><trkpt lon="19.924168" lat="51.521931" /><trkpt lon="19.921179" lat="51.521111" /><trkpt lon="19.898393" lat="51.511107" /><trkpt lon="19.890492" lat="51.507354" /><trkpt lon="19.889047" lat="51.506822" /><trkpt lon="19.886246" lat="51.506221" /><trkpt lon="19.87993" lat="51.505732" /><trkpt lon="19.876913" lat="51.505224" /><trkpt lon="19.870372" lat="51.503523" /><trkpt lon="19.861707" lat="51.500321" /><trkpt lon="19.858243" lat="51.499287" /><trkpt lon="19.846635" lat="51.496234" /><trkpt lon="19.832823" lat="51.493044" /><trkpt lon="19.830489" lat="51.492304" /><trkpt lon="19.828903" lat="51.491494" /><trkpt lon="19.765069" lat="51.450026" /><trkpt lon="19.761744" lat="51.448252" /><trkpt lon="19.758202" lat="51.446859" /><trkpt lon="19.754062" lat="51.445734" /><trkpt lon="19.749953" lat="51.445053" /><trkpt lon="19.740982" lat="51.444172" /><trkpt lon="19.734063" lat="51.443699" /><trkpt lon="19.729687" lat="51.443583" /><trkpt lon="19.711532" lat="51.443747" /><trkpt lon="19.703982" lat="51.443516" /><trkpt lon="19.680561" lat="51.442155" /><trkpt lon="19.672738" lat="51.442089" /><trkpt lon="19.662168" lat="51.44228" /><trkpt lon="19.65855" lat="51.442143" /><trkpt lon="19.654815" lat="51.441573" /><trkpt lon="19.651043" lat="51.440474" /><trkpt lon="19.644024" lat="51.437296" /><trkpt lon="19.642337" lat="51.436266" /><trkpt lon="19.641627" lat="51.43547" /><trkpt lon="19.641262" lat="51.434743" /><trkpt lon="19.64112" lat="51.433966" /><trkpt lon="19.641268" lat="51.432046" /><trkpt lon="19.641115" lat="51.430682" /><trkpt lon="19.629773" lat="51.394473" /><trkpt lon="19.627316" lat="51.387792" /><trkpt lon="19.62508" lat="51.383124" /><trkpt lon="19.622646" lat="51.378874" /><trkpt lon="19.606433" lat="51.35463" /><trkpt lon="19.600574" lat="51.346587" /><trkpt lon="19.597215" lat="51.342319" /><trkpt lon="19.578617" lat="51.320828" /><trkpt lon="19.575988" lat="51.318035" /><trkpt lon="19.573242" lat="51.31543" /><trkpt lon="19.569465" lat="51.312231" /><trkpt lon="19.554236" lat="51.301476" /><trkpt lon="19.549183" lat="51.297489" /><trkpt lon="19.545192" lat="51.293786" /><trkpt lon="19.540566" lat="51.288605" /><trkpt lon="19.537832" lat="51.284901" /><trkpt lon="19.536312" lat="51.282487" /><trkpt lon="19.534821" lat="51.279813" /><trkpt lon="19.533316" lat="51.27661" /><trkpt lon="19.531901" lat="51.272751" /><trkpt lon="19.531178" lat="51.270248" /><trkpt lon="19.528064" lat="51.256672" /><trkpt lon="19.527053" lat="51.253229" /><trkpt lon="19.525985" lat="51.250427" /><trkpt lon="19.524585" lat="51.247398" /><trkpt lon="19.52139" lat="51.241957" /><trkpt lon="19.519449" lat="51.239243" /><trkpt lon="19.516951" lat="51.2362" /><trkpt lon="19.514226" lat="51.233263" /><trkpt lon="19.511231" lat="51.23041" /><trkpt lon="19.508161" lat="51.227797" /><trkpt lon="19.504687" lat="51.225143" /><trkpt lon="19.493511" lat="51.217463" /><trkpt lon="19.489575" lat="51.214396" /><trkpt lon="19.484136" lat="51.209306" /><trkpt lon="19.481278" lat="51.206089" /><trkpt lon="19.477514" lat="51.201006" /><trkpt lon="19.475232" lat="51.197092" /><trkpt lon="19.473725" lat="51.193901" /><trkpt lon="19.473062" lat="51.192131" /><trkpt lon="19.471465" lat="51.186954" /><trkpt lon="19.470021" lat="51.183079" /><trkpt lon="19.467663" lat="51.178293" /><trkpt lon="19.466435" lat="51.176235" /><trkpt lon="19.463737" lat="51.172334" /><trkpt lon="19.461435" lat="51.169549" /><trkpt lon="19.457104" lat="51.165092" /><trkpt lon="19.45215" lat="51.160796" /><trkpt lon="19.431062" lat="51.145422" /><trkpt lon="19.42167" lat="51.137896" /><trkpt lon="19.414407" lat="51.131427" /><trkpt lon="19.38766" lat="51.105688" /><trkpt lon="19.385048" lat="51.102797" /><trkpt lon="19.382317" lat="51.099443" /><trkpt lon="19.379538" lat="51.095562" /><trkpt lon="19.377215" lat="51.091823" /><trkpt lon="19.374572" lat="51.086707" /><trkpt lon="19.371372" lat="51.078772" /><trkpt lon="19.368751" lat="51.072948" /><trkpt lon="19.364895" lat="51.065908" /><trkpt lon="19.362475" lat="51.062117" /><trkpt lon="19.359248" lat="51.057585" /><trkpt lon="19.355547" lat="51.05293" /><trkpt lon="19.352737" lat="51.049717" /><trkpt lon="19.345925" lat="51.042767" /><trkpt lon="19.340951" lat="51.038324" /><trkpt lon="19.336266" lat="51.034497" /><trkpt lon="19.329022" lat="51.029167" /><trkpt lon="19.314544" lat="51.019331" /><trkpt lon="19.308903" lat="51.015104" /><trkpt lon="19.304439" lat="51.011389" /><trkpt lon="19.300379" lat="51.007662" /><trkpt lon="19.295895" lat="51.003065" /><trkpt lon="19.292045" lat="50.998607" /><trkpt lon="19.283874" lat="50.988132" /><trkpt lon="19.280534" lat="50.984353" /><trkpt lon="19.276417" lat="50.980098" /><trkpt lon="19.269184" lat="50.973478" /><trkpt lon="19.251926" lat="50.959754" /><trkpt lon="19.246792" lat="50.95514" /><trkpt lon="19.242632" lat="50.95073" /><trkpt lon="19.238971" lat="50.946133" /><trkpt lon="19.235856" lat="50.941432" /><trkpt lon="19.231829" lat="50.934611" /><trkpt lon="19.227118" lat="50.927918" /><trkpt lon="19.222501" lat="50.922369" /><trkpt lon="19.216849" lat="50.916484" /><trkpt lon="19.210922" lat="50.911094" /><trkpt lon="19.205588" lat="50.906811" /><trkpt lon="19.200066" lat="50.902759" /><trkpt lon="19.193958" lat="50.89878" /><trkpt lon="19.187271" lat="50.89483" /><trkpt lon="19.176427" lat="50.888842" /><trkpt lon="19.172219" lat="50.886711" /><trkpt lon="19.170327" lat="50.886035" /><trkpt lon="19.166691" lat="50.885645" /><trkpt lon="19.165783" lat="50.885315" /><trkpt lon="19.164929" lat="50.884698" /><trkpt lon="19.164448" lat="50.883763" /><trkpt lon="19.164538" lat="50.881065" /><trkpt lon="19.16415" lat="50.879984" /><trkpt lon="19.15901" lat="50.873366" /><trkpt lon="19.157273" lat="50.870576" /><trkpt lon="19.155496" lat="50.866931" /><trkpt lon="19.154013" lat="50.862479" /><trkpt lon="19.152353" lat="50.853853" /><trkpt lon="19.151462" lat="50.850285" /><trkpt lon="19.146441" lat="50.837219" /><trkpt lon="19.145944" lat="50.835087" /><trkpt lon="19.145546" lat="50.831628" /><trkpt lon="19.145198" lat="50.829987" /><trkpt lon="19.144341" lat="50.827993" /><trkpt lon="19.139352" lat="50.819828" /><trkpt lon="19.138621" lat="50.81839" /><trkpt lon="19.13805" lat="50.818276" /><trkpt lon="19.135618" lat="50.818368" /><trkpt lon="19.132077" lat="50.817937" /><trkpt lon="19.123377" lat="50.817512" /><trkpt lon="19.119079" lat="50.817571" /><trkpt lon="19.113158" lat="50.817106" /><trkpt lon="19.107665" lat="50.817168" /><trkpt lon="19.104296" lat="50.817039" /><trkpt lon="19.104038" lat="50.814289" /><trkpt lon="19.104222" lat="50.812018" /><trkpt lon="19.104101" lat="50.810286" /><trkpt lon="19.096832" lat="50.810418" /><trkpt lon="19.094923" lat="50.805545" /><trkpt lon="19.094537" lat="50.805124" /><trkpt lon="19.094591" lat="50.804928" /><trkpt lon="19.097314" lat="50.804379" /><trkpt lon="19.102518" lat="50.804134" /><trkpt lon="19.102032" lat="50.802033" /><trkpt lon="19.102216" lat="50.80091" /><trkpt lon="19.102653" lat="50.800236" /><trkpt lon="19.102732" lat="50.799814" /><trkpt lon="19.103639" lat="50.799699" /><trkpt lon="19.106443" lat="50.798471" /><trkpt lon="19.108606" lat="50.797767" /><trkpt lon="19.110227" lat="50.79757" /><trkpt lon="19.110349" lat="50.797744" /><trkpt lon="19.110041" lat="50.798154" /><trkpt lon="19.110188" lat="50.798368" /><trkpt lon="19.110497" lat="50.798462" /><trkpt lon="19.111042" lat="50.798161" /><trkpt lon="19.109936" lat="50.791774" /><trkpt lon="19.10879" lat="50.788347" /><trkpt lon="19.108745" lat="50.786932" /><trkpt lon="19.107949" lat="50.784362" /><trkpt lon="19.107595" lat="50.783548" /><trkpt lon="19.105302" lat="50.780051" /><trkpt lon="19.104353" lat="50.77938" /><trkpt lon="19.100946" lat="50.777633" /><trkpt lon="19.097967" lat="50.775188" /><trkpt lon="19.096161" lat="50.774885" /><trkpt lon="19.096071" lat="50.774663" /><trkpt lon="19.095028" lat="50.774248" /><trkpt lon="19.081855" lat="50.770242" /><trkpt lon="19.064211" lat="50.761097" /><trkpt lon="19.062398" lat="50.760714" /><trkpt lon="19.061502" lat="50.760816" /><trkpt lon="19.059995" lat="50.760163" /><trkpt lon="19.054242" lat="50.756676" /><trkpt lon="19.052878" lat="50.755601" /><trkpt lon="19.04767" lat="50.749861" /><trkpt lon="19.047084" lat="50.749518" /><trkpt lon="19.047169" lat="50.749341" /><trkpt lon="19.048184" lat="50.748992" /><trkpt lon="19.048458" lat="50.748587" /><trkpt lon="19.046865" lat="50.745263" /><trkpt lon="19.044668" lat="50.743539" /><trkpt lon="19.043834" lat="50.743582" /><trkpt lon="19.043601" lat="50.74377" /><trkpt lon="19.043593" lat="50.744113" /><trkpt lon="19.043849" lat="50.744333" /><trkpt lon="19.044365" lat="50.744428" /><trkpt lon="19.045748" lat="50.743915" /><trkpt lon="19.048765" lat="50.742232" /><trkpt lon="19.05181" lat="50.739933" /><trkpt lon="19.053429" lat="50.738302" /><trkpt lon="19.054803" lat="50.736479" /><trkpt lon="19.055858" lat="50.734588" /><trkpt lon="19.056657" lat="50.732315" /><trkpt lon="19.056956" lat="50.730392" /><trkpt lon="19.056949" lat="50.721626" /><trkpt lon="19.056353" lat="50.691269" /><trkpt lon="19.055592" lat="50.686536" /><trkpt lon="19.05469" lat="50.683484" /><trkpt lon="19.053665" lat="50.680792" /><trkpt lon="19.051492" lat="50.676429" /><trkpt lon="19.040571" lat="50.656734" /><trkpt lon="19.039215" lat="50.65389" /><trkpt lon="19.038031" lat="50.650767" /><trkpt lon="19.037405" lat="50.64857" /><trkpt lon="19.036295" lat="50.643277" /><trkpt lon="19.03106" lat="50.616463" /><trkpt lon="19.030729" lat="50.612269" /><trkpt lon="19.030857" lat="50.609342" /><trkpt lon="19.031289" lat="50.606389" /><trkpt lon="19.032466" lat="50.602217" /><trkpt lon="19.033331" lat="50.600077" /><trkpt lon="19.034932" lat="50.596912" /><trkpt lon="19.036839" lat="50.593911" /><trkpt lon="19.052374" lat="50.572095" /><trkpt lon="19.054385" lat="50.568752" /><trkpt lon="19.055763" lat="50.565858" /><trkpt lon="19.056864" lat="50.562817" /><trkpt lon="19.057745" lat="50.559246" /><trkpt lon="19.064599" lat="50.528896" /><trkpt lon="19.065071" lat="50.525789" /><trkpt lon="19.065265" lat="50.520853" /><trkpt lon="19.064909" lat="50.516536" /><trkpt lon="19.064094" lat="50.512602" /><trkpt lon="19.062806" lat="50.508459" /><trkpt lon="19.061686" lat="50.505742" /><trkpt lon="19.059709" lat="50.501838" /><trkpt lon="19.057725" lat="50.498702" /><trkpt lon="19.050728" lat="50.48886" /><trkpt lon="19.049585" lat="50.486284" /><trkpt lon="19.049087" lat="50.484262" /><trkpt lon="19.048922" lat="50.482645" /><trkpt lon="19.048982" lat="50.480803" /><trkpt lon="19.049345" lat="50.478906" /><trkpt lon="19.050045" lat="50.47689" /><trkpt lon="19.051366" lat="50.474446" /><trkpt lon="19.055953" lat="50.46789" /><trkpt lon="19.056606" lat="50.466613" /><trkpt lon="19.057149" lat="50.464851" /><trkpt lon="19.057305" lat="50.46346" /><trkpt lon="19.057249" lat="50.462346" /><trkpt lon="19.05629" lat="50.45773" /><trkpt lon="19.05591" lat="50.453997" /><trkpt lon="19.05636" lat="50.443495" /><trkpt lon="19.056303" lat="50.441745" /><trkpt lon="19.055698" lat="50.4384" /><trkpt lon="19.054298" lat="50.434841" /><trkpt lon="19.047413" lat="50.422642" /><trkpt lon="19.047375" lat="50.422044" /><trkpt lon="19.045367" lat="50.418529" /><trkpt lon="19.044212" lat="50.416838" /><trkpt lon="19.042301" lat="50.414812" /><trkpt lon="19.040903" lat="50.413663" /><trkpt lon="19.038952" lat="50.412349" /><trkpt lon="19.036087" lat="50.410869" /><trkpt lon="19.031922" lat="50.409348" /><trkpt lon="19.020332" lat="50.406166" /><trkpt lon="19.013236" lat="50.403904" /><trkpt lon="19.009366" lat="50.402176" /><trkpt lon="18.983751" lat="50.389773" /><trkpt lon="18.981012" lat="50.388181" /><trkpt lon="18.977869" lat="50.385951" /><trkpt lon="18.962076" lat="50.372218" /><trkpt lon="18.959903" lat="50.370885" /><trkpt lon="18.958074" lat="50.370054" /><trkpt lon="18.9558" lat="50.369287" /><trkpt lon="18.95302" lat="50.368659" /><trkpt lon="18.950046" lat="50.368332" /><trkpt lon="18.947354" lat="50.368291" /><trkpt lon="18.917933" lat="50.369098" /><trkpt lon="18.913611" lat="50.369525" /><trkpt lon="18.911067" lat="50.370006" /><trkpt lon="18.903504" lat="50.372098" /><trkpt lon="18.899523" lat="50.372801" /><trkpt lon="18.895507" lat="50.373006" /><trkpt lon="18.88862" lat="50.372674" /><trkpt lon="18.885306" lat="50.372932" /><trkpt lon="18.882827" lat="50.373463" /><trkpt lon="18.880853" lat="50.374108" /><trkpt lon="18.873357" lat="50.377794" /><trkpt lon="18.868737" lat="50.379797" /><trkpt lon="18.850559" lat="50.386418" /><trkpt lon="18.846548" lat="50.387385" /><trkpt lon="18.841856" lat="50.38773" /><trkpt lon="18.837292" lat="50.387329" /><trkpt lon="18.828307" lat="50.385164" /><trkpt lon="18.824005" lat="50.384685" /><trkpt lon="18.819303" lat="50.384927" /><trkpt lon="18.807898" lat="50.386713" /><trkpt lon="18.803964" lat="50.386735" /><trkpt lon="18.800108" lat="50.38622" /><trkpt lon="18.788751" lat="50.383248" /><trkpt lon="18.785442" lat="50.382135" /><trkpt lon="18.782955" lat="50.380688" /><trkpt lon="18.779668" lat="50.377749" /><trkpt lon="18.778506" lat="50.376927" /><trkpt lon="18.777068" lat="50.376128" /><trkpt lon="18.774673" lat="50.375237" /><trkpt lon="18.77118" lat="50.374539" /><trkpt lon="18.746278" lat="50.371858" /><trkpt lon="18.742298" lat="50.371303" /><trkpt lon="18.738848" lat="50.370354" /><trkpt lon="18.736725" lat="50.369468" /><trkpt lon="18.734148" lat="50.367966" /><trkpt lon="18.73256" lat="50.366696" /><trkpt lon="18.73086" lat="50.364701" /><trkpt lon="18.725292" lat="50.356243" /><trkpt lon="18.724492" lat="50.354791" /><trkpt lon="18.724007" lat="50.353521" /><trkpt lon="18.723689" lat="50.352074" /><trkpt lon="18.723712" lat="50.34875" /><trkpt lon="18.723599" lat="50.348322" /><trkpt lon="18.723059" lat="50.347794" /><trkpt lon="18.720679" lat="50.346584" /><trkpt lon="18.719769" lat="50.345533" /><trkpt lon="18.719595" lat="50.344818" /><trkpt lon="18.719776" lat="50.343734" /><trkpt lon="18.720765" lat="50.341412" /><trkpt lon="18.717957" lat="50.340071" /><trkpt lon="18.716851" lat="50.339931" /><trkpt lon="18.716712" lat="50.339493" /><trkpt lon="18.715218" lat="50.338175" /><trkpt lon="18.70049" lat="50.322009" /><trkpt lon="18.691551" lat="50.31299" /><trkpt lon="18.688951" lat="50.314175" /><trkpt lon="18.686555" lat="50.313225" /><trkpt lon="18.683635" lat="50.311585" /><trkpt lon="18.676626" lat="50.30648" /><trkpt lon="18.674791" lat="50.305336" /><trkpt lon="18.673327" lat="50.3047" /><trkpt lon="18.673533" lat="50.304422" /><trkpt lon="18.673029" lat="50.304296" /><trkpt lon="18.673007" lat="50.304669" /><trkpt lon="18.672766" lat="50.304709" /><trkpt lon="18.671384" lat="50.303989" /><trkpt lon="18.671184" lat="50.303724" /><trkpt lon="18.671124" lat="50.303185" /><trkpt lon="18.671254" lat="50.303007" /><trkpt lon="18.674517" lat="50.301671" /><trkpt lon="18.676718" lat="50.297916" /><trkpt lon="18.675999" lat="50.297249" /><trkpt lon="18.676484" lat="50.297005" /><trkpt lon="18.681347" lat="50.294987" /><trkpt lon="18.690968" lat="50.29158" /><trkpt lon="18.696011" lat="50.290698" /><trkpt lon="18.702013" lat="50.288869" /><trkpt lon="18.704728" lat="50.287728" /><trkpt lon="18.708005" lat="50.286018" /><trkpt lon="18.710522" lat="50.284415" /><trkpt lon="18.713898" lat="50.281851" /><trkpt lon="18.715863" lat="50.280729" /><trkpt lon="18.718528" lat="50.279812" /><trkpt lon="18.722242" lat="50.279114" /><trkpt lon="18.724218" lat="50.278083" /><trkpt lon="18.726862" lat="50.277519" /><trkpt lon="18.727714" lat="50.276801" /><trkpt lon="18.72856" lat="50.275165" /><trkpt lon="18.72891" lat="50.273922" /><trkpt lon="18.729015" lat="50.272366" /><trkpt lon="18.728861" lat="50.271206" /><trkpt lon="18.728447" lat="50.269905" /><trkpt lon="18.727677" lat="50.268495" /><trkpt lon="18.726956" lat="50.267551" /><trkpt lon="18.725783" lat="50.266463" /><trkpt lon="18.723449" lat="50.265101" /><trkpt lon="18.720601" lat="50.262923" /><trkpt lon="18.719506" lat="50.261751" /><trkpt lon="18.718436" lat="50.260144" /><trkpt lon="18.716374" lat="50.254408" /><trkpt lon="18.716046" lat="50.252667" /><trkpt lon="18.714697" lat="50.248906" /><trkpt lon="18.713146" lat="50.245733" /><trkpt lon="18.711246" lat="50.242707" /><trkpt lon="18.709437" lat="50.240367" /><trkpt lon="18.707115" lat="50.237898" /><trkpt lon="18.697569" lat="50.229064" /><trkpt lon="18.694982" lat="50.226408" /><trkpt lon="18.693627" lat="50.224648" /><trkpt lon="18.692574" lat="50.222795" /><trkpt lon="18.691888" lat="50.221017" /><trkpt lon="18.691439" lat="50.21884" /><trkpt lon="18.691386" lat="50.216868" /><trkpt lon="18.691563" lat="50.215396" /><trkpt lon="18.692234" lat="50.213109" /><trkpt lon="18.692929" lat="50.211636" /><trkpt lon="18.694293" lat="50.209429" /><trkpt lon="18.69877" lat="50.203019" /><trkpt lon="18.700153" lat="50.200712" /><trkpt lon="18.701594" lat="50.197631" /><trkpt lon="18.70461" lat="50.190025" /><trkpt lon="18.706112" lat="50.187197" /><trkpt lon="18.707648" lat="50.184886" /><trkpt lon="18.71268" lat="50.178372" /><trkpt lon="18.714343" lat="50.175596" /><trkpt lon="18.71506" lat="50.173476" /><trkpt lon="18.71529" lat="50.171877" /><trkpt lon="18.715172" lat="50.16955" /><trkpt lon="18.714672" lat="50.167661" /><trkpt lon="18.713834" lat="50.165856" /><trkpt lon="18.712085" lat="50.163446" /><trkpt lon="18.709725" lat="50.161107" /><trkpt lon="18.701531" lat="50.153699" /><trkpt lon="18.698981" lat="50.150921" /><trkpt lon="18.697553" lat="50.148948" /><trkpt lon="18.696347" lat="50.146843" /><trkpt lon="18.695246" lat="50.144214" /><trkpt lon="18.690278" lat="50.128656" /><trkpt lon="18.688769" lat="50.125462" /><trkpt lon="18.687065" lat="50.122716" /><trkpt lon="18.684997" lat="50.120053" /><trkpt lon="18.683092" lat="50.117986" /><trkpt lon="18.66845" lat="50.103767" /><trkpt lon="18.666545" lat="50.101451" /><trkpt lon="18.664938" lat="50.098856" /><trkpt lon="18.663656" lat="50.095718" /><trkpt lon="18.663216" lat="50.093939" /><trkpt lon="18.662978" lat="50.092059" /><trkpt lon="18.662927" lat="50.089432" /><trkpt lon="18.663408" lat="50.074949" /><trkpt lon="18.663301" lat="50.072807" /><trkpt lon="18.663047" lat="50.07153" /><trkpt lon="18.662494" lat="50.070105" /><trkpt lon="18.66092" lat="50.067599" /><trkpt lon="18.659763" lat="50.066351" /><trkpt lon="18.658108" lat="50.064963" /><trkpt lon="18.652216" lat="50.061314" /><trkpt lon="18.650163" lat="50.059715" /><trkpt lon="18.648669" lat="50.058047" /><trkpt lon="18.646341" lat="50.054469" /><trkpt lon="18.644928" lat="50.052692" /><trkpt lon="18.643378" lat="50.051322" /><trkpt lon="18.641683" lat="50.050208" /><trkpt lon="18.638997" lat="50.048947" /><trkpt lon="18.635599" lat="50.047842" /><trkpt lon="18.616885" lat="50.042904" /><trkpt lon="18.614123" lat="50.042054" /><trkpt lon="18.610488" lat="50.040444" /><trkpt lon="18.607899" lat="50.038745" /><trkpt lon="18.605584" lat="50.036508" /><trkpt lon="18.604231" lat="50.034484" /><trkpt lon="18.603418" lat="50.032456" /><trkpt lon="18.601782" lat="50.024819" /><trkpt lon="18.600656" lat="50.022547" /><trkpt lon="18.598657" lat="50.020153" /><trkpt lon="18.596505" lat="50.018378" /><trkpt lon="18.587465" lat="50.012479" /><trkpt lon="18.584441" lat="50.010007" /><trkpt lon="18.582006" lat="50.007305" /><trkpt lon="18.577535" lat="50.000846" /><trkpt lon="18.576356" lat="49.999414" /><trkpt lon="18.566614" lat="49.990525" /><trkpt lon="18.565564" lat="49.989325" /><trkpt lon="18.562273" lat="49.984843" /><trkpt lon="18.560129" lat="49.982648" /><trkpt lon="18.557814" lat="49.980933" /><trkpt lon="18.554858" lat="49.979326" /><trkpt lon="18.545549" lat="49.975922" /><trkpt lon="18.542888" lat="49.974581" /><trkpt lon="18.540904" lat="49.973294" /><trkpt lon="18.538519" lat="49.971072" /><trkpt lon="18.53706" lat="49.968989" /><trkpt lon="18.53532" lat="49.965979" /><trkpt lon="18.533762" lat="49.964076" /><trkpt lon="18.531658" lat="49.96229" /><trkpt lon="18.529032" lat="49.960707" /><trkpt lon="18.526618" lat="49.959659" /><trkpt lon="18.524331" lat="49.958921" /><trkpt lon="18.521696" lat="49.958332" /><trkpt lon="18.518993" lat="49.957979" /><trkpt lon="18.514265" lat="49.957777" /><trkpt lon="18.498996" lat="49.957804" /><trkpt lon="18.495234" lat="49.957585" /><trkpt lon="18.490581" lat="49.956955" /><trkpt lon="18.47861" lat="49.954699" /><trkpt lon="18.474265" lat="49.954206" /><trkpt lon="18.469602" lat="49.954168" /><trkpt lon="18.46048" lat="49.954822" /><trkpt lon="18.456821" lat="49.954918" /><trkpt lon="18.452516" lat="49.95464" /><trkpt lon="18.447653" lat="49.953782" /><trkpt lon="18.444161" lat="49.952758" /><trkpt lon="18.44147" lat="49.951689" /><trkpt lon="18.431916" lat="49.94653" /><trkpt lon="18.428533" lat="49.944877" /><trkpt lon="18.409521" lat="49.937532" /><trkpt lon="18.394766" lat="49.930237" /><trkpt lon="18.384744" lat="49.925666" /><trkpt lon="18.374927" lat="49.921581" /><trkpt lon="18.366251" lat="49.918402" /><trkpt lon="18.356597" lat="49.915511" /><trkpt lon="18.346957" lat="49.913311" /><trkpt lon="18.340182" lat="49.912337" /><trkpt lon="18.322282" lat="49.910627" /><trkpt lon="18.318528" lat="49.909886" /><trkpt lon="18.315447" lat="49.908913" /><trkpt lon="18.311622" lat="49.907127" /><trkpt lon="18.308231" lat="49.904762" /><trkpt lon="18.306311" lat="49.902881" /><trkpt lon="18.30512" lat="49.901304" /><trkpt lon="18.304152" lat="49.899576" /><trkpt lon="18.303532" lat="49.897897" /><trkpt lon="18.303232" lat="49.896492" /><trkpt lon="18.303203" lat="49.893759" /><trkpt lon="18.3037" lat="49.891476" /><trkpt lon="18.305676" lat="49.885539" /><trkpt lon="18.305867" lat="49.884549" /><trkpt lon="18.305848" lat="49.882672" /><trkpt lon="18.305421" lat="49.881029" /><trkpt lon="18.304581" lat="49.879382" /><trkpt lon="18.30341" lat="49.877894" /><trkpt lon="18.301303" lat="49.876109" /><trkpt lon="18.299267" lat="49.874896" /><trkpt lon="18.29688" lat="49.873893" /><trkpt lon="18.289395" lat="49.871684" /><trkpt lon="18.283937" lat="49.869649" /><trkpt lon="18.280407" lat="49.868021" /><trkpt lon="18.27539" lat="49.865319" /><trkpt lon="18.272344" lat="49.863913" /><trkpt lon="18.26966" lat="49.863009" /><trkpt lon="18.26316" lat="49.861455" /><trkpt lon="18.261023" lat="49.860719" /><trkpt lon="18.25813" lat="49.859242" /><trkpt lon="18.25103" lat="49.854593" /><trkpt lon="18.248487" lat="49.853381" /><trkpt lon="18.246793" lat="49.852803" /><trkpt lon="18.244272" lat="49.852207" /><trkpt lon="18.235837" lat="49.851091" /><trkpt lon="18.231422" lat="49.850071" /><trkpt lon="18.227991" lat="49.84856" /><trkpt lon="18.226551" lat="49.847656" /><trkpt lon="18.224266" lat="49.845886" /><trkpt lon="18.221523" lat="49.843119" /><trkpt lon="18.220528" lat="49.841848" /><trkpt lon="18.219517" lat="49.840165" /><trkpt lon="18.218984" lat="49.83884" /><trkpt lon="18.218597" lat="49.837033" /><trkpt lon="18.218562" lat="49.832469" /><trkpt lon="18.217813" lat="49.829845" /><trkpt lon="18.216302" lat="49.827372" /><trkpt lon="18.213063" lat="49.823501" /><trkpt lon="18.211262" lat="49.820942" /><trkpt lon="18.206835" lat="49.811452" /><trkpt lon="18.206277" lat="49.811191" /><trkpt lon="18.204663" lat="49.811438" /><trkpt lon="18.203616" lat="49.811241" /><trkpt lon="18.203085" lat="49.810711" /><trkpt lon="18.20306" lat="49.809811" /><trkpt lon="18.202821" lat="49.8095" /><trkpt lon="18.200059" lat="49.807861" /><trkpt lon="18.199218" lat="49.807098" /><trkpt lon="18.198908" lat="49.807044" /><trkpt lon="18.199043" lat="49.806804" /><trkpt lon="18.198854" lat="49.806217" /><trkpt lon="18.197981" lat="49.799224" /><trkpt lon="18.197535" lat="49.797877" /><trkpt lon="18.196872" lat="49.796792" /><trkpt lon="18.188909" lat="49.787042" /><trkpt lon="18.188605" lat="49.786095" /><trkpt lon="18.188909" lat="49.783655" /><trkpt lon="18.188707" lat="49.782856" /><trkpt lon="18.186894" lat="49.780442" /><trkpt lon="18.185734" lat="49.77924" /><trkpt lon="18.185705" lat="49.778962" /><trkpt lon="18.187552" lat="49.77924" /><trkpt lon="18.188145" lat="49.779184" /><trkpt lon="18.190555" lat="49.77746" /><trkpt lon="18.191205" lat="49.77587" /><trkpt lon="18.190212" lat="49.774504" /><trkpt lon="18.190235" lat="49.774042" /><trkpt lon="18.191567" lat="49.773485" /><trkpt lon="18.197194" lat="49.769734" /><trkpt lon="18.197571" lat="49.76936" /><trkpt lon="18.1988" lat="49.767204" /><trkpt lon="18.199213" lat="49.766815" /><trkpt lon="18.203598" lat="49.763598" /><trkpt lon="18.205228" lat="49.762992" /><trkpt lon="18.202858" lat="49.760847" /><trkpt lon="18.202464" lat="49.760297" /><trkpt lon="18.199502" lat="49.753571" /><trkpt lon="18.198016" lat="49.752569" /><trkpt lon="18.196233" lat="49.750942" /><trkpt lon="18.19586" lat="49.750528" /><trkpt lon="18.195368" lat="49.749539" /><trkpt lon="18.19362" lat="49.748478" /><trkpt lon="18.193173" lat="49.747219" /><trkpt lon="18.191489" lat="49.745028" /><trkpt lon="18.189252" lat="49.740245" /><trkpt lon="18.184768" lat="49.734465" /><trkpt lon="18.18433" lat="49.733448" /><trkpt lon="18.184303" lat="49.733028" /><trkpt lon="18.18492" lat="49.730242" /><trkpt lon="18.185369" lat="49.729544" /><trkpt lon="18.183471" lat="49.729171" /><trkpt lon="18.181194" lat="49.728329" /><trkpt lon="18.180014" lat="49.727169" /><trkpt lon="18.177521" lat="49.725291" /><trkpt lon="18.176431" lat="49.724165" /><trkpt lon="18.175236" lat="49.723591" /><trkpt lon="18.173897" lat="49.722673" /><trkpt lon="18.154623" lat="49.703434" /><trkpt lon="18.152823" lat="49.702019" /><trkpt lon="18.151504" lat="49.701224" /><trkpt lon="18.149319" lat="49.700241" /><trkpt lon="18.129887" lat="49.693193" /><trkpt lon="18.128505" lat="49.692801" /><trkpt lon="18.128047" lat="49.692902" /><trkpt lon="18.127928" lat="49.692725" /><trkpt lon="18.128032" lat="49.692601" /><trkpt lon="18.125865" lat="49.691154" /><trkpt lon="18.123202" lat="49.688457" /><trkpt lon="18.122797" lat="49.688393" /><trkpt lon="18.122896" lat="49.688132" /><trkpt lon="18.119749" lat="49.684772" /><trkpt lon="18.118839" lat="49.683374" /><trkpt lon="18.118457" lat="49.681687" /><trkpt lon="18.118544" lat="49.680763" /><trkpt lon="18.118897" lat="49.679726" /><trkpt lon="18.119624" lat="49.678601" /><trkpt lon="18.121173" lat="49.677091" /><trkpt lon="18.120982" lat="49.676894" /><trkpt lon="18.121062" lat="49.676668" /><trkpt lon="18.121714" lat="49.676594" /><trkpt lon="18.12188" lat="49.67644" /><trkpt lon="18.123569" lat="49.674723" /><trkpt lon="18.124702" lat="49.673282" /><trkpt lon="18.12617" lat="49.67066" /><trkpt lon="18.127058" lat="49.667571" /><trkpt lon="18.127169" lat="49.665269" /><trkpt lon="18.126754" lat="49.662641" /><trkpt lon="18.123799" lat="49.654618" /><trkpt lon="18.123402" lat="49.652986" /><trkpt lon="18.123321" lat="49.65076" /><trkpt lon="18.123664" lat="49.64902" /><trkpt lon="18.125654" lat="49.643318" /><trkpt lon="18.127739" lat="49.639901" /><trkpt lon="18.127482" lat="49.639746" /><trkpt lon="18.127468" lat="49.63952" /><trkpt lon="18.127791" lat="49.639334" /><trkpt lon="18.128209" lat="49.639405" /><trkpt lon="18.129084" lat="49.638749" /><trkpt lon="18.130632" lat="49.636696" /><trkpt lon="18.131553" lat="49.634611" /><trkpt lon="18.132447" lat="49.630368" /><trkpt lon="18.132853" lat="49.62908" /><trkpt lon="18.133661" lat="49.627704" /><trkpt lon="18.135103" lat="49.62624" /><trkpt lon="18.135187" lat="49.625956" /><trkpt lon="18.135054" lat="49.62565" /><trkpt lon="18.134213" lat="49.624909" /><trkpt lon="18.132649" lat="49.623056" /><trkpt lon="18.131984" lat="49.62203" /><trkpt lon="18.1281" lat="49.621004" /><trkpt lon="18.126976" lat="49.620356" /><trkpt lon="18.124908" lat="49.619525" /><trkpt lon="18.124734" lat="49.619244" /><trkpt lon="18.125052" lat="49.618683" /><trkpt lon="18.124959" lat="49.618034" /><trkpt lon="18.12306" lat="49.616945" /><trkpt lon="18.121871" lat="49.615983" /><trkpt lon="18.119648" lat="49.614606" /><trkpt lon="18.119491" lat="49.61425" /><trkpt lon="18.119955" lat="49.61307" /><trkpt lon="18.119418" lat="49.610937" /><trkpt lon="18.114584" lat="49.611335" /><trkpt lon="18.112629" lat="49.611659" /><trkpt lon="18.109577" lat="49.611065" /><trkpt lon="18.108209" lat="49.611225" /><trkpt lon="18.107035" lat="49.611654" /><trkpt lon="18.106024" lat="49.611754" /><trkpt lon="18.104296" lat="49.611613" /><trkpt lon="18.103501" lat="49.611296" /><trkpt lon="18.102364" lat="49.609966" /><trkpt lon="18.102344" lat="49.609252" /><trkpt lon="18.102818" lat="49.608604" /><trkpt lon="18.102905" lat="49.607817" /><trkpt lon="18.103235" lat="49.606967" /><trkpt lon="18.102341" lat="49.605435" /><trkpt lon="18.10251" lat="49.603861" /><trkpt lon="18.102897" lat="49.602584" /><trkpt lon="18.103006" lat="49.601419" /><trkpt lon="18.10454" lat="49.597715" /><trkpt lon="18.106786" lat="49.596082" /><trkpt lon="18.108759" lat="49.595096" /><trkpt lon="18.110837" lat="49.593388" /><trkpt lon="18.112864" lat="49.592603" /><trkpt lon="18.113337" lat="49.592149" /><trkpt lon="18.113848" lat="49.591011" /><trkpt lon="18.114138" lat="49.590803" /><trkpt lon="18.114731" lat="49.590587" /><trkpt lon="18.116456" lat="49.590422" /><trkpt lon="18.117531" lat="49.590564" /><trkpt lon="18.11773" lat="49.590888" /><trkpt lon="18.117651" lat="49.59103" /><trkpt lon="18.11733" lat="49.59122" /><trkpt lon="18.117137" lat="49.591066" /><trkpt lon="18.116745" lat="49.591246" /><trkpt lon="18.117595" lat="49.59186" /><trkpt lon="18.117907" lat="49.591677" /><trkpt lon="18.11733" lat="49.59122" /><trkpt lon="18.11773" lat="49.590888" /><trkpt lon="18.117531" lat="49.590564" /><trkpt lon="18.116584" lat="49.590419" /><trkpt lon="18.114731" lat="49.590587" /><trkpt lon="18.113848" lat="49.591011" /><trkpt lon="18.1136" lat="49.591741" /><trkpt lon="18.112864" lat="49.592603" /><trkpt lon="18.111704" lat="49.593027" /><trkpt lon="18.108529" lat="49.593172" /><trkpt lon="18.10253" lat="49.594086" /><trkpt lon="18.100695" lat="49.594513" /><trkpt lon="18.097456" lat="49.594426" /><trkpt lon="18.092858" lat="49.595389" /><trkpt lon="18.092424" lat="49.595679" /><trkpt lon="18.091717" lat="49.597004" /><trkpt lon="18.091061" lat="49.597375" /><trkpt lon="18.089904" lat="49.597789" /><trkpt lon="18.084735" lat="49.598673" /><trkpt lon="18.081213" lat="49.600097" /><trkpt lon="18.080555" lat="49.601049" /><trkpt lon="18.079933" lat="49.601415" /><trkpt lon="18.07883" lat="49.601421" /><trkpt lon="18.074508" lat="49.600117" /><trkpt lon="18.073414" lat="49.599345" /><trkpt lon="18.072673" lat="49.598243" /><trkpt lon="18.071392" lat="49.598198" /><trkpt lon="18.068851" lat="49.59903" /><trkpt lon="18.066424" lat="49.600286" /><trkpt lon="18.065039" lat="49.60087" /><trkpt lon="18.06319" lat="49.601387" /><trkpt lon="18.060995" lat="49.602405" /><trkpt lon="18.055084" lat="49.607366" /><trkpt lon="18.054654" lat="49.608099" /><trkpt lon="18.053198" lat="49.609544" /><trkpt lon="18.051749" lat="49.608972" /><trkpt lon="18.04964" lat="49.608721" /><trkpt lon="18.048699" lat="49.608445" /><trkpt lon="18.045796" lat="49.606149" /><trkpt lon="18.045141" lat="49.605805" /><trkpt lon="18.038651" lat="49.604766" /><trkpt lon="18.036208" lat="49.604604" /><trkpt lon="18.032795" lat="49.603712" /><trkpt lon="18.032147" lat="49.604444" /><trkpt lon="18.028477" lat="49.606156" /><trkpt lon="18.027811" lat="49.606639" /><trkpt lon="18.024017" lat="49.60537" /><trkpt lon="18.023593" lat="49.605435" /><trkpt lon="18.022517" lat="49.604881" /><trkpt lon="18.011666" lat="49.601249" /><trkpt lon="18.010873" lat="49.600694" /><trkpt lon="18.009598" lat="49.600176" /><trkpt lon="18.009391" lat="49.600204" /><trkpt lon="18.007907" lat="49.601456" /><trkpt lon="18.005618" lat="49.602636" /><trkpt lon="18.004627" lat="49.603403" /><trkpt lon="18.004629" lat="49.603888" /><trkpt lon="18.005998" lat="49.604686" /><trkpt lon="18.006524" lat="49.604634" /><trkpt lon="18.006857" lat="49.60433" /><trkpt lon="18.006708" lat="49.603961" /><trkpt lon="18.006218" lat="49.603638" /><trkpt lon="17.993951" lat="49.597654" /><trkpt lon="17.989731" lat="49.596155" /><trkpt lon="17.982384" lat="49.594261" /><trkpt lon="17.980532" lat="49.593436" /><trkpt lon="17.978642" lat="49.592233" /><trkpt lon="17.976857" lat="49.590501" /><trkpt lon="17.975666" lat="49.588405" /><trkpt lon="17.975307" lat="49.586772" /><trkpt lon="17.975246" lat="49.583029" /><trkpt lon="17.974789" lat="49.581482" /><trkpt lon="17.974255" lat="49.580451" /><trkpt lon="17.973313" lat="49.579177" /><trkpt lon="17.97211" lat="49.578" /><trkpt lon="17.970541" lat="49.576864" /><trkpt lon="17.969087" lat="49.576063" /><trkpt lon="17.957617" lat="49.571809" /><trkpt lon="17.954612" lat="49.571266" /><trkpt lon="17.94916" lat="49.570761" /><trkpt lon="17.946207" lat="49.569953" /><trkpt lon="17.943287" lat="49.568456" /><trkpt lon="17.940452" lat="49.566249" /><trkpt lon="17.938689" lat="49.56509" /><trkpt lon="17.936149" lat="49.563838" /><trkpt lon="17.933781" lat="49.562997" /><trkpt lon="17.929868" lat="49.562129" /><trkpt lon="17.924521" lat="49.561564" /><trkpt lon="17.921667" lat="49.561027" /><trkpt lon="17.918693" lat="49.560086" /><trkpt lon="17.913818" lat="49.557522" /><trkpt lon="17.91196" lat="49.556819" /><trkpt lon="17.909677" lat="49.556397" /><trkpt lon="17.906556" lat="49.556228" /><trkpt lon="17.902836" lat="49.556677" /><trkpt lon="17.900352" lat="49.557498" /><trkpt lon="17.89775" lat="49.559059" /><trkpt lon="17.894717" lat="49.562521" /><trkpt lon="17.893556" lat="49.563399" /><trkpt lon="17.891529" lat="49.56459" /><trkpt lon="17.884382" lat="49.567399" /><trkpt lon="17.877425" lat="49.570924" /><trkpt lon="17.874289" lat="49.572288" /><trkpt lon="17.870332" lat="49.573683" /><trkpt lon="17.865769" lat="49.574904" /><trkpt lon="17.862193" lat="49.575607" /><trkpt lon="17.858436" lat="49.576124" /><trkpt lon="17.844648" lat="49.577168" /><trkpt lon="17.835603" lat="49.578257" /><trkpt lon="17.828847" lat="49.579345" /><trkpt lon="17.809374" lat="49.582884" /><trkpt lon="17.80735" lat="49.583104" /><trkpt lon="17.803984" lat="49.582997" /><trkpt lon="17.78402" lat="49.580152" /><trkpt lon="17.781832" lat="49.580044" /><trkpt lon="17.779957" lat="49.580201" /><trkpt lon="17.777638" lat="49.580744" /><trkpt lon="17.775162" lat="49.581904" /><trkpt lon="17.768992" lat="49.587239" /><trkpt lon="17.768262" lat="49.58771" /><trkpt lon="17.766505" lat="49.588299" /><trkpt lon="17.764531" lat="49.588391" /><trkpt lon="17.76263" lat="49.587958" /><trkpt lon="17.759857" lat="49.586372" /><trkpt lon="17.755281" lat="49.585014" /><trkpt lon="17.752699" lat="49.583933" /><trkpt lon="17.750671" lat="49.582806" /><trkpt lon="17.746646" lat="49.579981" /><trkpt lon="17.74291" lat="49.578061" /><trkpt lon="17.739131" lat="49.576839" /><trkpt lon="17.73525" lat="49.576149" /><trkpt lon="17.732077" lat="49.57599" /><trkpt lon="17.720669" lat="49.576271" /><trkpt lon="17.71545" lat="49.576156" /><trkpt lon="17.710059" lat="49.575516" /><trkpt lon="17.693402" lat="49.572734" /><trkpt lon="17.689594" lat="49.572353" /><trkpt lon="17.685853" lat="49.572418" /><trkpt lon="17.671878" lat="49.574109" /><trkpt lon="17.667121" lat="49.574417" /><trkpt lon="17.663527" lat="49.574365" /><trkpt lon="17.660431" lat="49.574118" /><trkpt lon="17.655678" lat="49.573356" /><trkpt lon="17.650567" lat="49.571994" /><trkpt lon="17.647219" lat="49.570759" /><trkpt lon="17.638261" lat="49.56621" /><trkpt lon="17.635602" lat="49.565065" /><trkpt lon="17.631593" lat="49.563758" /><trkpt lon="17.623468" lat="49.561799" /><trkpt lon="17.619766" lat="49.560432" /><trkpt lon="17.617623" lat="49.559282" /><trkpt lon="17.616052" lat="49.558219" /><trkpt lon="17.609805" lat="49.553604" /><trkpt lon="17.60739" lat="49.551994" /><trkpt lon="17.604178" lat="49.550364" /><trkpt lon="17.599799" lat="49.548802" /><trkpt lon="17.595841" lat="49.547916" /><trkpt lon="17.591238" lat="49.547404" /><trkpt lon="17.573229" lat="49.547607" /><trkpt lon="17.569868" lat="49.547521" /><trkpt lon="17.565831" lat="49.546947" /><trkpt lon="17.56303" lat="49.546205" /><trkpt lon="17.56013" lat="49.54507" /><trkpt lon="17.557852" lat="49.543839" /><trkpt lon="17.54847" lat="49.536979" /><trkpt lon="17.544435" lat="49.534475" /><trkpt lon="17.539643" lat="49.532104" /><trkpt lon="17.526995" lat="49.52682" /><trkpt lon="17.52209" lat="49.524318" /><trkpt lon="17.517813" lat="49.521589" /><trkpt lon="17.510065" lat="49.515737" /><trkpt lon="17.505644" lat="49.513152" /><trkpt lon="17.502567" lat="49.511739" /><trkpt lon="17.498713" lat="49.510317" /><trkpt lon="17.488868" lat="49.50773" /><trkpt lon="17.485468" lat="49.506643" /><trkpt lon="17.482785" lat="49.50548" /><trkpt lon="17.480624" lat="49.504309" /><trkpt lon="17.478844" lat="49.503131" /><trkpt lon="17.47689" lat="49.501556" /><trkpt lon="17.463337" lat="49.489023" /><trkpt lon="17.460543" lat="49.48679" /><trkpt lon="17.456921" lat="49.484337" /><trkpt lon="17.45351" lat="49.482348" /><trkpt lon="17.448835" lat="49.480065" /><trkpt lon="17.438808" lat="49.476089" /><trkpt lon="17.435583" lat="49.474664" /><trkpt lon="17.432532" lat="49.473039" /><trkpt lon="17.429659" lat="49.47116" /><trkpt lon="17.42633" lat="49.468429" /><trkpt lon="17.423823" lat="49.465773" /><trkpt lon="17.422029" lat="49.463308" /><trkpt lon="17.420612" lat="49.460641" /><trkpt lon="17.419764" lat="49.458476" /><trkpt lon="17.418914" lat="49.455339" /><trkpt lon="17.418044" lat="49.449744" /><trkpt lon="17.418197" lat="49.447286" /><trkpt lon="17.41909" lat="49.444927" /><trkpt lon="17.420852" lat="49.442544" /><trkpt lon="17.42323" lat="49.440542" /><trkpt lon="17.425776" lat="49.439099" /><trkpt lon="17.431334" lat="49.436868" /><trkpt lon="17.433592" lat="49.435675" /><trkpt lon="17.436255" lat="49.433674" /><trkpt lon="17.438012" lat="49.431695" /><trkpt lon="17.438985" lat="49.430049" /><trkpt lon="17.439669" lat="49.42805" /><trkpt lon="17.442627" lat="49.411478" /><trkpt lon="17.44356" lat="49.408636" /><trkpt lon="17.445105" lat="49.405403" /><trkpt lon="17.447501" lat="49.401794" /><trkpt lon="17.450151" lat="49.398757" /><trkpt lon="17.45777" lat="49.391967" /><trkpt lon="17.460645" lat="49.388978" /><trkpt lon="17.463379" lat="49.385283" /><trkpt lon="17.465458" lat="49.381286" /><trkpt lon="17.46659" lat="49.377907" /><trkpt lon="17.467058" lat="49.375533" /><trkpt lon="17.467303" lat="49.37233" /><trkpt lon="17.467393" lat="49.365709" /><trkpt lon="17.467655" lat="49.363263" /><trkpt lon="17.468268" lat="49.360205" /><trkpt lon="17.469027" lat="49.357671" /><trkpt lon="17.470053" lat="49.35506" /><trkpt lon="17.475352" lat="49.3441" /><trkpt lon="17.476048" lat="49.341874" /><trkpt lon="17.476066" lat="49.340613" /><trkpt lon="17.475877" lat="49.339588" /><trkpt lon="17.475029" lat="49.337704" /><trkpt lon="17.473472" lat="49.335904" /><trkpt lon="17.471288" lat="49.334362" /><trkpt lon="17.468776" lat="49.333223" /><trkpt lon="17.449997" lat="49.325891" /><trkpt lon="17.444149" lat="49.324224" /><trkpt lon="17.430968" lat="49.321664" /><trkpt lon="17.424395" lat="49.319941" /><trkpt lon="17.419513" lat="49.318185" /><trkpt lon="17.41096" lat="49.314086" /><trkpt lon="17.4076" lat="49.313017" /><trkpt lon="17.405525" lat="49.312634" /><trkpt lon="17.402827" lat="49.312412" /><trkpt lon="17.393924" lat="49.312871" /><trkpt lon="17.383606" lat="49.312699" /><trkpt lon="17.380338" lat="49.312144" /><trkpt lon="17.365014" lat="49.308442" /><trkpt lon="17.361674" lat="49.307931" /><trkpt lon="17.358836" lat="49.307782" /><trkpt lon="17.356115" lat="49.307884" /><trkpt lon="17.353088" lat="49.308288" /><trkpt lon="17.350979" lat="49.308763" /><trkpt lon="17.347584" lat="49.309893" /><trkpt lon="17.337796" lat="49.314805" /><trkpt lon="17.334223" lat="49.316347" /><trkpt lon="17.329604" lat="49.318046" /><trkpt lon="17.326652" lat="49.318983" /><trkpt lon="17.320898" lat="49.320486" /><trkpt lon="17.315863" lat="49.321512" /><trkpt lon="17.311414" lat="49.322175" /><trkpt lon="17.305564" lat="49.32278" /><trkpt lon="17.30256" lat="49.322934" /><trkpt lon="17.299532" lat="49.323033" /><trkpt lon="17.29314" lat="49.322923" /><trkpt lon="17.285861" lat="49.32231" /><trkpt lon="17.272891" lat="49.320594" /><trkpt lon="17.267277" lat="49.320322" /><trkpt lon="17.261915" lat="49.320425" /><trkpt lon="17.257152" lat="49.32084" /><trkpt lon="17.25236" lat="49.321538" /><trkpt lon="17.240666" lat="49.32419" /><trkpt lon="17.235049" lat="49.325206" /><trkpt lon="17.23003" lat="49.32576" /><trkpt lon="17.223065" lat="49.325997" /><trkpt lon="17.217786" lat="49.32576" /><trkpt lon="17.212102" lat="49.325107" /><trkpt lon="17.208356" lat="49.324446" /><trkpt lon="17.194896" lat="49.32136" /><trkpt lon="17.189232" lat="49.32029" /><trkpt lon="17.183879" lat="49.31958" /><trkpt lon="17.172312" lat="49.318486" /><trkpt lon="17.166908" lat="49.317617" /><trkpt lon="17.159714" lat="49.315794" /><trkpt lon="17.148919" lat="49.311787" /><trkpt lon="17.144291" lat="49.31035" /><trkpt lon="17.139491" lat="49.309216" /><trkpt lon="17.131161" lat="49.307665" /><trkpt lon="17.127065" lat="49.306614" /><trkpt lon="17.12168" lat="49.304811" /><trkpt lon="17.117496" lat="49.303016" /><trkpt lon="17.112521" lat="49.300338" /><trkpt lon="17.10578" lat="49.295835" /><trkpt lon="17.101034" lat="49.293137" /><trkpt lon="17.097217" lat="49.291387" /><trkpt lon="17.086569" lat="49.287103" /><trkpt lon="17.077521" lat="49.282437" /><trkpt lon="17.074514" lat="49.281242" /><trkpt lon="17.072036" lat="49.280506" /><trkpt lon="17.068575" lat="49.279794" /><trkpt lon="17.060346" lat="49.278929" /><trkpt lon="17.056518" lat="49.278239" /><trkpt lon="17.051984" lat="49.276812" /><trkpt lon="17.046017" lat="49.274247" /><trkpt lon="17.042473" lat="49.273346" /><trkpt lon="17.038715" lat="49.272983" /><trkpt lon="17.032048" lat="49.273165" /><trkpt lon="17.027653" lat="49.272948" /><trkpt lon="17.022002" lat="49.272035" /><trkpt lon="17.015454" lat="49.270411" /><trkpt lon="17.010897" lat="49.268899" /><trkpt lon="17.006495" lat="49.26705" /><trkpt lon="16.996254" lat="49.261641" /><trkpt lon="16.991285" lat="49.259416" /><trkpt lon="16.985348" lat="49.257426" /><trkpt lon="16.974438" lat="49.254397" /><trkpt lon="16.967725" lat="49.252336" /><trkpt lon="16.961275" lat="49.249972" /><trkpt lon="16.954605" lat="49.247024" /><trkpt lon="16.948846" lat="49.244027" /><trkpt lon="16.944849" lat="49.241655" /><trkpt lon="16.939747" lat="49.238163" /><trkpt lon="16.934672" lat="49.23413" /><trkpt lon="16.930696" lat="49.230282" /><trkpt lon="16.928776" lat="49.227889" /><trkpt lon="16.927056" lat="49.225244" /><trkpt lon="16.923835" lat="49.219688" /><trkpt lon="16.92172" lat="49.216855" /><trkpt lon="16.917564" lat="49.212431" /><trkpt lon="16.914992" lat="49.210013" /><trkpt lon="16.911085" lat="49.206753" /><trkpt lon="16.90808" lat="49.204677" /><trkpt lon="16.905244" lat="49.203037" /><trkpt lon="16.901854" lat="49.201378" /><trkpt lon="16.894738" lat="49.198386" /><trkpt lon="16.892603" lat="49.197287" /><trkpt lon="16.883986" lat="49.191613" /><trkpt lon="16.881733" lat="49.190493" /><trkpt lon="16.879283" lat="49.189527" /><trkpt lon="16.875452" lat="49.188558" /><trkpt lon="16.871716" lat="49.188215" /><trkpt lon="16.868823" lat="49.188322" /><trkpt lon="16.860611" lat="49.189232" /><trkpt lon="16.85813" lat="49.189287" /><trkpt lon="16.854906" lat="49.189108" /><trkpt lon="16.851776" lat="49.188658" /><trkpt lon="16.849461" lat="49.188142" /><trkpt lon="16.84686" lat="49.187356" /><trkpt lon="16.839986" lat="49.184836" /><trkpt lon="16.837017" lat="49.184102" /><trkpt lon="16.833735" lat="49.183737" /><trkpt lon="16.823226" lat="49.183447" /><trkpt lon="16.813952" lat="49.182516" /><trkpt lon="16.810186" lat="49.182499" /><trkpt lon="16.80835" lat="49.18378" /><trkpt lon="16.808169" lat="49.184219" /><trkpt lon="16.781123" lat="49.185138" /><trkpt lon="16.783927" lat="49.179869" /><trkpt lon="16.784604" lat="49.179106" /><trkpt lon="16.785979" lat="49.178112" /><trkpt lon="16.787189" lat="49.1766" /><trkpt lon="16.788725" lat="49.173544" /><trkpt lon="16.789176" lat="49.172242" /><trkpt lon="16.78912" lat="49.171276" /><trkpt lon="16.787838" lat="49.168412" /><trkpt lon="16.787527" lat="49.167792" /><trkpt lon="16.787151" lat="49.167662" /><trkpt lon="16.78652" lat="49.166572" /><trkpt lon="16.786107" lat="49.164096" /><trkpt lon="16.787456" lat="49.162609" /><trkpt lon="16.791322" lat="49.161739" /><trkpt lon="16.791862" lat="49.161394" /><trkpt lon="16.792053" lat="49.160915" /><trkpt lon="16.788924" lat="49.153395" /><trkpt lon="16.791278" lat="49.149471" /><trkpt lon="16.791264" lat="49.149204" /><trkpt lon="16.78955" lat="49.147131" /><trkpt lon="16.791136" lat="49.14484" /><trkpt lon="16.77527" lat="49.141963" /><trkpt lon="16.767471" lat="49.14115" /><trkpt lon="16.765539" lat="49.141213" /><trkpt lon="16.764923" lat="49.138704" /><trkpt lon="16.765314" lat="49.13594" /><trkpt lon="16.761276" lat="49.129891" /><trkpt lon="16.760666" lat="49.128683" /><trkpt lon="16.760709" lat="49.127911" /><trkpt lon="16.761174" lat="49.127151" /><trkpt lon="16.761962" lat="49.127206" /><trkpt lon="16.762704" lat="49.127987" /><trkpt lon="16.761962" lat="49.127206" /><trkpt lon="16.761174" lat="49.127151" /><trkpt lon="16.760709" lat="49.127911" /><trkpt lon="16.760666" lat="49.128683" /><trkpt lon="16.761276" lat="49.129891" /><trkpt lon="16.765314" lat="49.13594" /><trkpt lon="16.764923" lat="49.138704" /><trkpt lon="16.763817" lat="49.138649" /><trkpt lon="16.76274" lat="49.138814" /><trkpt lon="16.760854" lat="49.139495" /><trkpt lon="16.759629" lat="49.139618" /><trkpt lon="16.736811" lat="49.138232" /><trkpt lon="16.734062" lat="49.137966" /><trkpt lon="16.733552" lat="49.137536" /><trkpt lon="16.732998" lat="49.137458" /><trkpt lon="16.731552" lat="49.138018" /><trkpt lon="16.731349" lat="49.139239" /><trkpt lon="16.732297" lat="49.141115" /><trkpt lon="16.731587" lat="49.142601" /><trkpt lon="16.730518" lat="49.143853" /><trkpt lon="16.730309" lat="49.143893" /><trkpt lon="16.727387" lat="49.143293" /><trkpt lon="16.724598" lat="49.141956" /><trkpt lon="16.723646" lat="49.141812" /><trkpt lon="16.723006" lat="49.141864" /><trkpt lon="16.721596" lat="49.14238" /><trkpt lon="16.717392" lat="49.142929" /><trkpt lon="16.715215" lat="49.143384" /><trkpt lon="16.709396" lat="49.143567" /><trkpt lon="16.705639" lat="49.143343" /><trkpt lon="16.703288" lat="49.142414" /><trkpt lon="16.700599" lat="49.140726" /><trkpt lon="16.700025" lat="49.140994" /><trkpt lon="16.694184" lat="49.145217" /><trkpt lon="16.672993" lat="49.146938" /><trkpt lon="16.668955" lat="49.147734" /><trkpt lon="16.667498" lat="49.147736" /><trkpt lon="16.665934" lat="49.147971" /><trkpt lon="16.664652" lat="49.148748" /><trkpt lon="16.658968" lat="49.151351" /><trkpt lon="16.65687" lat="49.15152" /><trkpt lon="16.655396" lat="49.152355" /><trkpt lon="16.653989" lat="49.152583" /><trkpt lon="16.653845" lat="49.152735" /><trkpt lon="16.65371" lat="49.153823" /><trkpt lon="16.653535" lat="49.15401" /><trkpt lon="16.64969" lat="49.15487" /><trkpt lon="16.647527" lat="49.156198" /><trkpt lon="16.632616" lat="49.163756" /><trkpt lon="16.632304" lat="49.164262" /><trkpt lon="16.628083" lat="49.16718" /><trkpt lon="16.622249" lat="49.174866" /><trkpt lon="16.621918" lat="49.176052" /><trkpt lon="16.621525" lat="49.181954" /><trkpt lon="16.621588" lat="49.182707" /><trkpt lon="16.622243" lat="49.184226" /><trkpt lon="16.6194" lat="49.187111" /><trkpt lon="16.618589" lat="49.187565" /><trkpt lon="16.615969" lat="49.188511" /><trkpt lon="16.614893" lat="49.189562" /><trkpt lon="16.614596" lat="49.190721" /><trkpt lon="16.616395" lat="49.194497" /><trkpt lon="16.616379" lat="49.195272" /><trkpt lon="16.615916" lat="49.195815" /><trkpt lon="16.616019" lat="49.196247" /><trkpt lon="16.618366" lat="49.197703" /><trkpt lon="16.620087" lat="49.198314" /><trkpt lon="16.622174" lat="49.198789" /><trkpt lon="16.621747" lat="49.200078" /><trkpt lon="16.620441" lat="49.199749" /></trkseg></trk></gpx>