<?xml version='1.0' encoding='utf-8'?>
<gpx xmlns="http://www.topografix.com/GPX/1/1" version="1.1" creator="Yatutbuv"><trk><trkseg><trkpt lon="9.84571" lat="45.690067" /><trkpt lon="9.844257" lat="45.688535" /><trkpt lon="9.844775" lat="45.688234" /><trkpt lon="9.841975" lat="45.686608" /><trkpt lon="9.838267" lat="45.68508" /><trkpt lon="9.836531" lat="45.683808" /><trkpt lon="9.836054" lat="45.682826" /><trkpt lon="9.836365" lat="45.682165" /><trkpt lon="9.836045" lat="45.681869" /><trkpt lon="9.833576" lat="45.681695" /><trkpt lon="9.822001" lat="45.676078" /><trkpt lon="9.821501" lat="45.676002" /><trkpt lon="9.818817" lat="45.674251" /><trkpt lon="9.815334" lat="45.671689" /><trkpt lon="9.815399" lat="45.671417" /><trkpt lon="9.816147" lat="45.671163" /><trkpt lon="9.814192" lat="45.668636" /><trkpt lon="9.815012" lat="45.668059" /><trkpt lon="9.81503" lat="45.667726" /><trkpt lon="9.811983" lat="45.662479" /><trkpt lon="9.809494" lat="45.659245" /><trkpt lon="9.808993" lat="45.658332" /><trkpt lon="9.80829" lat="45.656106" /><trkpt lon="9.807767" lat="45.655723" /><trkpt lon="9.807803" lat="45.655464" /><trkpt lon="9.808003" lat="45.655348" /><trkpt lon="9.808783" lat="45.655428" /><trkpt lon="9.810288" lat="45.654912" /><trkpt lon="9.814641" lat="45.652343" /><trkpt lon="9.816265" lat="45.651118" /><trkpt lon="9.819335" lat="45.648204" /><trkpt lon="9.819528" lat="45.647489" /><trkpt lon="9.820431" lat="45.647069" /><trkpt lon="9.821254" lat="45.645491" /><trkpt lon="9.821936" lat="45.643194" /><trkpt lon="9.822909" lat="45.641919" /><trkpt lon="9.824009" lat="45.640959" /><trkpt lon="9.825123" lat="45.640341" /><trkpt lon="9.827193" lat="45.639596" /><trkpt lon="9.839786" lat="45.636792" /><trkpt lon="9.842335" lat="45.636857" /><trkpt lon="9.844684" lat="45.63766" /><trkpt lon="9.845174" lat="45.637579" /><trkpt lon="9.845707" lat="45.63787" /><trkpt lon="9.848988" lat="45.637793" /><trkpt lon="9.852812" lat="45.637112" /><trkpt lon="9.853653" lat="45.637237" /><trkpt lon="9.854501" lat="45.637086" /><trkpt lon="9.857434" lat="45.63589" /><trkpt lon="9.858337" lat="45.635194" /><trkpt lon="9.860008" lat="45.63339" /><trkpt lon="9.86149" lat="45.632576" /><trkpt lon="9.861705" lat="45.632287" /><trkpt lon="9.861726" lat="45.631967" /><trkpt lon="9.861306" lat="45.631215" /><trkpt lon="9.859773" lat="45.630848" /><trkpt lon="9.858796" lat="45.630864" /><trkpt lon="9.855882" lat="45.631741" /><trkpt lon="9.855578" lat="45.631963" /><trkpt lon="9.855524" lat="45.63231" /><trkpt lon="9.855793" lat="45.632577" /><trkpt lon="9.85625" lat="45.632665" /><trkpt lon="9.859065" lat="45.63218" /><trkpt lon="9.90399" lat="45.622113" /><trkpt lon="9.917855" lat="45.619208" /><trkpt lon="9.921333" lat="45.618283" /><trkpt lon="9.924976" lat="45.616927" /><trkpt lon="9.92775" lat="45.615576" /><trkpt lon="9.983838" lat="45.583268" /><trkpt lon="9.986165" lat="45.58201" /><trkpt lon="9.989531" lat="45.580627" /><trkpt lon="9.993876" lat="45.579475" /><trkpt lon="10.084278" lat="45.562645" /><trkpt lon="10.088034" lat="45.561708" /><trkpt lon="10.091554" lat="45.560535" /><trkpt lon="10.094504" lat="45.559304" /><trkpt lon="10.105711" lat="45.553865" /><trkpt lon="10.117729" lat="45.547709" /><trkpt lon="10.127349" lat="45.543196" /><trkpt lon="10.144314" lat="45.53484" /><trkpt lon="10.164274" lat="45.525744" /><trkpt lon="10.17233" lat="45.522312" /><trkpt lon="10.175947" lat="45.521295" /><trkpt lon="10.178513" lat="45.520824" /><trkpt lon="10.196456" lat="45.518783" /><trkpt lon="10.19918" lat="45.518283" /><trkpt lon="10.201098" lat="45.517636" /><trkpt lon="10.220624" lat="45.508684" /><trkpt lon="10.223465" lat="45.507641" /><trkpt lon="10.227056" lat="45.506725" /><trkpt lon="10.235179" lat="45.505466" /><trkpt lon="10.249596" lat="45.502187" /><trkpt lon="10.274827" lat="45.495093" /><trkpt lon="10.2912" lat="45.489811" /><trkpt lon="10.315319" lat="45.483785" /><trkpt lon="10.383722" lat="45.468361" /><trkpt lon="10.386738" lat="45.467794" /><trkpt lon="10.400306" lat="45.465589" /><trkpt lon="10.428639" lat="45.463251" /><trkpt lon="10.432359" lat="45.462795" /><trkpt lon="10.453943" lat="45.458279" /><trkpt lon="10.470233" lat="45.454319" /><trkpt lon="10.47644" lat="45.453666" /><trkpt lon="10.483883" lat="45.45331" /><trkpt lon="10.501326" lat="45.451342" /><trkpt lon="10.524209" lat="45.449147" /><trkpt lon="10.528406" lat="45.448381" /><trkpt lon="10.536133" lat="45.446176" /><trkpt lon="10.539304" lat="45.44545" /><trkpt lon="10.597635" lat="45.434624" /><trkpt lon="10.602123" lat="45.434171" /><trkpt lon="10.64041" lat="45.432246" /><trkpt lon="10.68766" lat="45.429209" /><trkpt lon="10.725715" lat="45.429398" /><trkpt lon="10.732162" lat="45.429078" /><trkpt lon="10.770013" lat="45.425134" /><trkpt lon="10.77436" lat="45.424092" /><trkpt lon="10.783574" lat="45.420619" /><trkpt lon="10.789951" lat="45.418814" /><trkpt lon="10.795128" lat="45.417838" /><trkpt lon="10.808279" lat="45.416378" /><trkpt lon="10.813434" lat="45.416199" /><trkpt lon="10.835008" lat="45.417761" /><trkpt lon="10.8404" lat="45.417826" /><trkpt lon="10.846246" lat="45.417287" /><trkpt lon="10.857002" lat="45.415419" /><trkpt lon="10.86027" lat="45.414994" /><trkpt lon="10.889884" lat="45.413226" /><trkpt lon="10.892874" lat="45.412934" /><trkpt lon="10.896091" lat="45.412424" /><trkpt lon="10.899479" lat="45.411653" /><trkpt lon="10.92722" lat="45.40411" /><trkpt lon="10.955641" lat="45.398371" /><trkpt lon="10.962225" lat="45.397614" /><trkpt lon="10.978421" lat="45.396927" /><trkpt lon="10.981381" lat="45.396931" /><trkpt lon="10.984352" lat="45.39714" /><trkpt lon="10.991053" lat="45.398076" /><trkpt lon="11.00147" lat="45.39897" /><trkpt lon="11.034268" lat="45.402343" /><trkpt lon="11.038864" lat="45.402646" /><trkpt lon="11.070736" lat="45.405631" /><trkpt lon="11.07446" lat="45.406419" /><trkpt lon="11.108081" lat="45.415422" /><trkpt lon="11.123358" lat="45.420699" /><trkpt lon="11.127257" lat="45.421525" /><trkpt lon="11.130575" lat="45.421868" /><trkpt lon="11.134893" lat="45.421853" /><trkpt lon="11.153975" lat="45.42026" /><trkpt lon="11.17275" lat="45.419186" /><trkpt lon="11.176723" lat="45.418552" /><trkpt lon="11.190386" lat="45.415433" /><trkpt lon="11.19463" lat="45.414724" /><trkpt lon="11.256035" lat="45.408821" /><trkpt lon="11.259247" lat="45.40864" /><trkpt lon="11.268403" lat="45.408827" /><trkpt lon="11.271674" lat="45.409117" /><trkpt lon="11.275063" lat="45.409742" /><trkpt lon="11.31519" lat="45.419207" /><trkpt lon="11.317531" lat="45.419872" /><trkpt lon="11.320276" lat="45.420907" /><trkpt lon="11.363144" lat="45.439262" /><trkpt lon="11.366044" lat="45.440215" /><trkpt lon="11.371915" lat="45.441702" /><trkpt lon="11.375412" lat="45.443016" /><trkpt lon="11.377895" lat="45.444267" /><trkpt lon="11.379603" lat="45.445335" /><trkpt lon="11.387183" lat="45.451054" /><trkpt lon="11.389463" lat="45.452541" /><trkpt lon="11.392206" lat="45.453891" /><trkpt lon="11.39693" lat="45.455887" /><trkpt lon="11.399284" lat="45.457184" /><trkpt lon="11.400449" lat="45.457961" /><trkpt lon="11.406925" lat="45.463243" /><trkpt lon="11.417348" lat="45.470442" /><trkpt lon="11.424745" lat="45.475073" /><trkpt lon="11.427016" lat="45.476903" /><trkpt lon="11.453167" lat="45.500095" /><trkpt lon="11.456276" lat="45.50225" /><trkpt lon="11.460757" lat="45.504256" /><trkpt lon="11.463465" lat="45.505094" /><trkpt lon="11.469797" lat="45.506685" /><trkpt lon="11.499228" lat="45.517074" /><trkpt lon="11.501978" lat="45.517679" /><trkpt lon="11.50518" lat="45.517827" /><trkpt lon="11.523439" lat="45.517966" /><trkpt lon="11.526662" lat="45.517723" /><trkpt lon="11.532884" lat="45.516881" /><trkpt lon="11.550645" lat="45.515553" /><trkpt lon="11.556033" lat="45.515709" /><trkpt lon="11.56029" lat="45.515609" /><trkpt lon="11.564243" lat="45.515793" /><trkpt lon="11.579509" lat="45.517004" /><trkpt lon="11.581778" lat="45.516924" /><trkpt lon="11.583887" lat="45.516577" /><trkpt lon="11.635923" lat="45.501492" /><trkpt lon="11.660058" lat="45.493101" /><trkpt lon="11.678971" lat="45.487821" /><trkpt lon="11.691685" lat="45.483156" /><trkpt lon="11.734387" lat="45.469328" /><trkpt lon="11.738131" lat="45.468512" /><trkpt lon="11.764119" lat="45.464212" /><trkpt lon="11.789208" lat="45.4567" /><trkpt lon="11.792636" lat="45.455875" /><trkpt lon="11.849136" lat="45.448106" /><trkpt lon="11.888143" lat="45.440696" /><trkpt lon="11.902698" lat="45.435804" /><trkpt lon="11.917395" lat="45.42996" /><trkpt lon="11.936441" lat="45.419974" /><trkpt lon="11.938585" lat="45.419348" /><trkpt lon="11.940388" lat="45.419106" /><trkpt lon="11.94208" lat="45.419081" /><trkpt lon="11.943984" lat="45.419292" /><trkpt lon="12.07716" lat="45.446758" /><trkpt lon="12.083926" lat="45.447968" /><trkpt lon="12.088413" lat="45.449081" /><trkpt lon="12.187391" lat="45.469318" /><trkpt lon="12.193539" lat="45.47028" /><trkpt lon="12.197513" lat="45.471439" /><trkpt lon="12.202793" lat="45.472585" /><trkpt lon="12.210663" lat="45.473792" /><trkpt lon="12.212222" lat="45.473391" /><trkpt lon="12.212975" lat="45.473456" /><trkpt lon="12.213589" lat="45.473833" /><trkpt lon="12.213927" lat="45.474908" /><trkpt lon="12.215004" lat="45.476188" /><trkpt lon="12.216158" lat="45.478016" /><trkpt lon="12.219067" lat="45.481031" /><trkpt lon="12.220041" lat="45.481582" /><trkpt lon="12.223587" lat="45.482685" /><trkpt lon="12.225812" lat="45.482659" /><trkpt lon="12.234181" lat="45.480452" /><trkpt lon="12.23874" lat="45.479597" /><trkpt lon="12.239653" lat="45.481243" /><trkpt lon="12.239668" lat="45.481563" /><trkpt lon="12.239459" lat="45.481723" /><trkpt lon="12.235942" lat="45.482738" /><trkpt lon="12.235339" lat="45.482034" /><trkpt lon="12.235083" lat="45.481982" /><trkpt lon="12.231552" lat="45.48282" /><trkpt lon="12.231848" lat="45.483373" /><trkpt lon="12.231079" lat="45.483504" /><trkpt lon="12.231" lat="45.483382" /><trkpt lon="12.231822" lat="45.483239" /><trkpt lon="12.231863" lat="45.483347" /><trkpt lon="12.23104" lat="45.483495" /><trkpt lon="12.230987" lat="45.483259" /><trkpt lon="12.231451" lat="45.483161" /><trkpt lon="12.231365" lat="45.482857" /><trkpt lon="12.235149" lat="45.481977" /><trkpt lon="12.235882" lat="45.482594" /><trkpt lon="12.239285" lat="45.481777" /><trkpt lon="12.239503" lat="45.481614" /><trkpt lon="12.239516" lat="45.481366" /><trkpt lon="12.23881" lat="45.479952" /><trkpt lon="12.238398" lat="45.479729" /><trkpt lon="12.230432" lat="45.481484" /><trkpt lon="12.22537" lat="45.482803" /><trkpt lon="12.223743" lat="45.482822" /><trkpt lon="12.222696" lat="45.482656" /><trkpt lon="12.219082" lat="45.481551" /><trkpt lon="12.218616" lat="45.481604" /><trkpt lon="12.218371" lat="45.481929" /><trkpt lon="12.220115" lat="45.487916" /><trkpt lon="12.220895" lat="45.489522" /><trkpt lon="12.222346" lat="45.491295" /><trkpt lon="12.228645" lat="45.496331" /><trkpt lon="12.229867" lat="45.497563" /><trkpt lon="12.230613" lat="45.49869" /><trkpt lon="12.232557" lat="45.503467" /><trkpt lon="12.236222" lat="45.509474" /><trkpt lon="12.237066" lat="45.510484" /><trkpt lon="12.237963" lat="45.511236" /><trkpt lon="12.243349" lat="45.514598" /><trkpt lon="12.250219" lat="45.518433" /><trkpt lon="12.258752" lat="45.524103" /><trkpt lon="12.263186" lat="45.526802" /><trkpt lon="12.301654" lat="45.547284" /><trkpt lon="12.306881" lat="45.550635" /><trkpt lon="12.316566" lat="45.557803" /><trkpt lon="12.321985" lat="45.561386" /><trkpt lon="12.340269" lat="45.571475" /><trkpt lon="12.348061" lat="45.575529" /><trkpt lon="12.355603" lat="45.580076" /><trkpt lon="12.382722" lat="45.598632" /><trkpt lon="12.386653" lat="45.600935" /><trkpt lon="12.413032" lat="45.615481" /><trkpt lon="12.415926" lat="45.616936" /><trkpt lon="12.448371" lat="45.631889" /><trkpt lon="12.478898" lat="45.648664" /><trkpt lon="12.515172" lat="45.664259" /><trkpt lon="12.524759" lat="45.66828" /><trkpt lon="12.528585" lat="45.669573" /><trkpt lon="12.529912" lat="45.669407" /><trkpt lon="12.53203" lat="45.668373" /><trkpt lon="12.534405" lat="45.66804" /><trkpt lon="12.535382" lat="45.668277" /><trkpt lon="12.536454" lat="45.668001" /><trkpt lon="12.538205" lat="45.669109" /><trkpt lon="12.539779" lat="45.668918" /><trkpt lon="12.550456" lat="45.666256" /><trkpt lon="12.556777" lat="45.663837" /><trkpt lon="12.561103" lat="45.662534" /><trkpt lon="12.562716" lat="45.661881" /><trkpt lon="12.56442" lat="45.660906" /><trkpt lon="12.567594" lat="45.658711" /><trkpt lon="12.571893" lat="45.6569" /><trkpt lon="12.574943" lat="45.655262" /><trkpt lon="12.590274" lat="45.646738" /><trkpt lon="12.594146" lat="45.644341" /><trkpt lon="12.594595" lat="45.64374" /><trkpt lon="12.595403" lat="45.643608" /><trkpt lon="12.601199" lat="45.640214" /><trkpt lon="12.602017" lat="45.639353" /><trkpt lon="12.602124" lat="45.638342" /><trkpt lon="12.601802" lat="45.637781" /><trkpt lon="12.600644" lat="45.636966" /><trkpt lon="12.599984" lat="45.636112" /><trkpt lon="12.599489" lat="45.634498" /><trkpt lon="12.599215" lat="45.634172" /><trkpt lon="12.599487" lat="45.633901" /><trkpt lon="12.612244" lat="45.63948" /><trkpt lon="12.613945" lat="45.639948" /><trkpt lon="12.615485" lat="45.640063" /><trkpt lon="12.616653" lat="45.63998" /><trkpt lon="12.637255" lat="45.636107" /><trkpt lon="12.640859" lat="45.635764" /><trkpt lon="12.673123" lat="45.636532" /><trkpt lon="12.690155" lat="45.636545" /><trkpt lon="12.690756" lat="45.636421" /><trkpt lon="12.691491" lat="45.636548" /><trkpt lon="12.705833" lat="45.636529" /><trkpt lon="12.743985" lat="45.635967" /><trkpt lon="12.745901" lat="45.635618" /><trkpt lon="12.746193" lat="45.635185" /><trkpt lon="12.746134" lat="45.634889" /><trkpt lon="12.746291" lat="45.634507" /><trkpt lon="12.746697" lat="45.634212" /><trkpt lon="12.74729" lat="45.634085" /><trkpt lon="12.747976" lat="45.634214" /><trkpt lon="12.748836" lat="45.634891" /><trkpt lon="12.750446" lat="45.635129" /><trkpt lon="12.762873" lat="45.635486" /><trkpt lon="12.764864" lat="45.635336" /><trkpt lon="12.76663" lat="45.634937" /><trkpt lon="12.776454" lat="45.631242" /><trkpt lon="12.780914" lat="45.628672" /><trkpt lon="12.79856" lat="45.621148" /><trkpt lon="12.799498" lat="45.620695" /><trkpt lon="12.800602" lat="45.619794" /><trkpt lon="12.801241" lat="45.618915" /><trkpt lon="12.801499" lat="45.618255" /><trkpt lon="12.805181" lat="45.598835" /><trkpt lon="12.805824" lat="45.597214" /><trkpt lon="12.806909" lat="45.596007" /><trkpt lon="12.816628" lat="45.589084" /><trkpt lon="12.821737" lat="45.587208" /><trkpt lon="12.825347" lat="45.584767" /><trkpt lon="12.826274" lat="45.583536" /><trkpt lon="12.826327" lat="45.583096" /><trkpt lon="12.826008" lat="45.582655" /><trkpt lon="12.826053" lat="45.582334" /><trkpt lon="12.827278" lat="45.58166" /><trkpt lon="12.827181" lat="45.581311" /><trkpt lon="12.826552" lat="45.58108" /><trkpt lon="12.824378" lat="45.581548" /><trkpt lon="12.822985" lat="45.581217" /><trkpt lon="12.821111" lat="45.57742" /></trkseg></trk></gpx>