<?xml version='1.0' encoding='utf-8'?>
<gpx xmlns="http://www.topografix.com/GPX/1/1" version="1.1" creator="Yatutbuv"><trk><trkseg><trkpt lon="13.564449" lat="52.367841" /><trkpt lon="13.564817" lat="52.367345" /><trkpt lon="13.561603" lat="52.366423" /><trkpt lon="13.559974" lat="52.367815" /><trkpt lon="13.55715" lat="52.365866" /><trkpt lon="13.555521" lat="52.365458" /><trkpt lon="13.555154" lat="52.365522" /><trkpt lon="13.554115" lat="52.366261" /><trkpt lon="13.552236" lat="52.367837" /><trkpt lon="13.553174" lat="52.368464" /><trkpt lon="13.554031" lat="52.368469" /><trkpt lon="13.554349" lat="52.368082" /><trkpt lon="13.554012" lat="52.367471" /><trkpt lon="13.552599" lat="52.365861" /><trkpt lon="13.551832" lat="52.365329" /><trkpt lon="13.550967" lat="52.364982" /><trkpt lon="13.548337" lat="52.364458" /><trkpt lon="13.547715" lat="52.364086" /><trkpt lon="13.547266" lat="52.363419" /><trkpt lon="13.547249" lat="52.36303" /><trkpt lon="13.547708" lat="52.362027" /><trkpt lon="13.547849" lat="52.360926" /><trkpt lon="13.548492" lat="52.359008" /><trkpt lon="13.553793" lat="52.34943" /><trkpt lon="13.554571" lat="52.347599" /><trkpt lon="13.555088" lat="52.345366" /><trkpt lon="13.555172" lat="52.34407" /><trkpt lon="13.555023" lat="52.341924" /><trkpt lon="13.553888" lat="52.335171" /><trkpt lon="13.553669" lat="52.332356" /><trkpt lon="13.553743" lat="52.328892" /><trkpt lon="13.554579" lat="52.318257" /><trkpt lon="13.553807" lat="52.317727" /><trkpt lon="13.553118" lat="52.317769" /><trkpt lon="13.552757" lat="52.317981" /><trkpt lon="13.552634" lat="52.318236" /><trkpt lon="13.552713" lat="52.318507" /><trkpt lon="13.553058" lat="52.318755" /><trkpt lon="13.553771" lat="52.318916" /><trkpt lon="13.581622" lat="52.319745" /><trkpt lon="13.584429" lat="52.319562" /><trkpt lon="13.586458" lat="52.319207" /><trkpt lon="13.588876" lat="52.318508" /><trkpt lon="13.602198" lat="52.312826" /><trkpt lon="13.605865" lat="52.311711" /><trkpt lon="13.609669" lat="52.311259" /><trkpt lon="13.626985" lat="52.310128" /><trkpt lon="13.648123" lat="52.310829" /><trkpt lon="13.654399" lat="52.31141" /><trkpt lon="13.659157" lat="52.3121" /><trkpt lon="13.670752" lat="52.314274" /><trkpt lon="13.710939" lat="52.323991" /><trkpt lon="13.713479" lat="52.324423" /><trkpt lon="13.715835" lat="52.324566" /><trkpt lon="13.736635" lat="52.323921" /><trkpt lon="13.740792" lat="52.323593" /><trkpt lon="13.751524" lat="52.323229" /><trkpt lon="13.758729" lat="52.323314" /><trkpt lon="13.763643" lat="52.322948" /><trkpt lon="13.766331" lat="52.322521" /><trkpt lon="13.7928" lat="52.317175" /><trkpt lon="13.817887" lat="52.311095" /><trkpt lon="13.820978" lat="52.310605" /><trkpt lon="13.824701" lat="52.310291" /><trkpt lon="13.829636" lat="52.310328" /><trkpt lon="13.872029" lat="52.312991" /><trkpt lon="13.875976" lat="52.31345" /><trkpt lon="13.892974" lat="52.316052" /><trkpt lon="13.898101" lat="52.316393" /><trkpt lon="13.902729" lat="52.316229" /><trkpt lon="13.906053" lat="52.315838" /><trkpt lon="13.920539" lat="52.313304" /><trkpt lon="13.924507" lat="52.312911" /><trkpt lon="13.949686" lat="52.311599" /><trkpt lon="13.954669" lat="52.311531" /><trkpt lon="13.960585" lat="52.311718" /><trkpt lon="13.967659" lat="52.312339" /><trkpt lon="13.98658" lat="52.314789" /><trkpt lon="13.99113" lat="52.315613" /><trkpt lon="14.030309" lat="52.326248" /><trkpt lon="14.040852" lat="52.329641" /><trkpt lon="14.064114" lat="52.334307" /><trkpt lon="14.066877" lat="52.334523" /><trkpt lon="14.08388" lat="52.334741" /><trkpt lon="14.145626" lat="52.336291" /><trkpt lon="14.151029" lat="52.337058" /><trkpt lon="14.175592" lat="52.343411" /><trkpt lon="14.178597" lat="52.343824" /><trkpt lon="14.181838" lat="52.343912" /><trkpt lon="14.186815" lat="52.343417" /><trkpt lon="14.191149" lat="52.342574" /><trkpt lon="14.194198" lat="52.341724" /><trkpt lon="14.201911" lat="52.339003" /><trkpt lon="14.204797" lat="52.338211" /><trkpt lon="14.207992" lat="52.337596" /><trkpt lon="14.214355" lat="52.337045" /><trkpt lon="14.244645" lat="52.335829" /><trkpt lon="14.24863" lat="52.335359" /><trkpt lon="14.252329" lat="52.33457" /><trkpt lon="14.254837" lat="52.333825" /><trkpt lon="14.267275" lat="52.329358" /><trkpt lon="14.270526" lat="52.328358" /><trkpt lon="14.287701" lat="52.324718" /><trkpt lon="14.291051" lat="52.324286" /><trkpt lon="14.402531" lat="52.320189" /><trkpt lon="14.460483" lat="52.320686" /><trkpt lon="14.508201" lat="52.319805" /><trkpt lon="14.522158" lat="52.318846" /><trkpt lon="14.524368" lat="52.318328" /><trkpt lon="14.529916" lat="52.316314" /><trkpt lon="14.53308" lat="52.31544" /><trkpt lon="14.538456" lat="52.314552" /><trkpt lon="14.543538" lat="52.314283" /><trkpt lon="14.555082" lat="52.314609" /><trkpt lon="14.566588" lat="52.314497" /><trkpt lon="14.585494" lat="52.316247" /><trkpt lon="14.589128" lat="52.316332" /><trkpt lon="14.589937" lat="52.316651" /><trkpt lon="14.593311" lat="52.317186" /><trkpt lon="14.621877" lat="52.324924" /><trkpt lon="14.624837" lat="52.325553" /><trkpt lon="14.628458" lat="52.326034" /><trkpt lon="14.632132" lat="52.326256" /><trkpt lon="14.634886" lat="52.326222" /><trkpt lon="14.658803" lat="52.324026" /><trkpt lon="14.662076" lat="52.323934" /><trkpt lon="14.666565" lat="52.324098" /><trkpt lon="14.749643" lat="52.334684" /><trkpt lon="14.754114" lat="52.335075" /><trkpt lon="14.798659" lat="52.335318" /><trkpt lon="14.802643" lat="52.335138" /><trkpt lon="14.806582" lat="52.334626" /><trkpt lon="14.835215" lat="52.329198" /><trkpt lon="14.839499" lat="52.328675" /><trkpt lon="14.843613" lat="52.328539" /><trkpt lon="14.849436" lat="52.329016" /><trkpt lon="14.879496" lat="52.33377" /><trkpt lon="14.886357" lat="52.334565" /><trkpt lon="14.891856" lat="52.33491" /><trkpt lon="14.898785" lat="52.334979" /><trkpt lon="14.913759" lat="52.334008" /><trkpt lon="14.92063" lat="52.334043" /><trkpt lon="14.927635" lat="52.334769" /><trkpt lon="14.943025" lat="52.337571" /><trkpt lon="14.947162" lat="52.33815" /><trkpt lon="14.950676" lat="52.338367" /><trkpt lon="14.954138" lat="52.33831" /><trkpt lon="14.957" lat="52.338089" /><trkpt lon="14.959866" lat="52.337666" /><trkpt lon="14.979724" lat="52.333419" /><trkpt lon="14.984425" lat="52.33278" /><trkpt lon="14.989227" lat="52.332573" /><trkpt lon="15.015539" lat="52.332482" /><trkpt lon="15.022718" lat="52.331991" /><trkpt lon="15.028751" lat="52.330977" /><trkpt lon="15.054923" lat="52.325604" /><trkpt lon="15.05896" lat="52.325004" /><trkpt lon="15.062653" lat="52.324663" /><trkpt lon="15.065987" lat="52.324521" /><trkpt lon="15.07093" lat="52.324566" /><trkpt lon="15.145902" lat="52.326663" /><trkpt lon="15.15583" lat="52.326323" /><trkpt lon="15.165667" lat="52.32536" /><trkpt lon="15.175246" lat="52.323776" /><trkpt lon="15.184044" lat="52.321713" /><trkpt lon="15.193281" lat="52.318837" /><trkpt lon="15.206613" lat="52.31385" /><trkpt lon="15.213103" lat="52.312145" /><trkpt lon="15.219938" lat="52.311105" /><trkpt lon="15.238779" lat="52.309774" /><trkpt lon="15.242344" lat="52.30922" /><trkpt lon="15.245232" lat="52.308528" /><trkpt lon="15.248759" lat="52.307301" /><trkpt lon="15.252033" lat="52.305682" /><trkpt lon="15.254517" lat="52.304044" /><trkpt lon="15.260541" lat="52.299371" /><trkpt lon="15.26311" lat="52.297921" /><trkpt lon="15.265513" lat="52.29687" /><trkpt lon="15.268975" lat="52.295744" /><trkpt lon="15.272875" lat="52.294929" /><trkpt lon="15.276299" lat="52.294536" /><trkpt lon="15.28087" lat="52.294311" /><trkpt lon="15.285226" lat="52.294362" /><trkpt lon="15.289461" lat="52.294662" /><trkpt lon="15.296762" lat="52.295779" /><trkpt lon="15.379793" lat="52.316294" /><trkpt lon="15.386176" lat="52.317562" /><trkpt lon="15.392804" lat="52.318477" /><trkpt lon="15.40216" lat="52.319111" /><trkpt lon="15.40964" lat="52.31908" /><trkpt lon="15.415509" lat="52.318734" /><trkpt lon="15.432324" lat="52.317213" /><trkpt lon="15.439676" lat="52.31676" /><trkpt lon="15.452145" lat="52.31642" /><trkpt lon="15.464072" lat="52.316609" /><trkpt lon="15.472029" lat="52.317006" /><trkpt lon="15.483382" lat="52.317968" /><trkpt lon="15.531822" lat="52.323691" /><trkpt lon="15.537383" lat="52.324027" /><trkpt lon="15.544046" lat="52.323994" /><trkpt lon="15.549909" lat="52.323581" /><trkpt lon="15.555922" lat="52.322765" /><trkpt lon="15.587385" lat="52.316985" /><trkpt lon="15.597287" lat="52.314951" /><trkpt lon="15.611437" lat="52.311433" /><trkpt lon="15.651288" lat="52.300262" /><trkpt lon="15.657318" lat="52.298987" /><trkpt lon="15.661491" lat="52.298457" /><trkpt lon="15.666431" lat="52.298143" /><trkpt lon="15.702724" lat="52.29665" /><trkpt lon="15.708892" lat="52.296562" /><trkpt lon="15.716992" lat="52.29684" /><trkpt lon="15.723735" lat="52.297431" /><trkpt lon="15.731387" lat="52.2985" /><trkpt lon="15.740047" lat="52.300265" /><trkpt lon="15.746201" lat="52.301919" /><trkpt lon="15.81782" lat="52.323751" /><trkpt lon="15.823342" lat="52.325173" /><trkpt lon="15.828072" lat="52.32618" /><trkpt lon="15.837714" lat="52.327691" /><trkpt lon="15.844011" lat="52.328304" /><trkpt lon="15.850403" lat="52.328639" /><trkpt lon="15.922381" lat="52.329615" /><trkpt lon="15.931748" lat="52.330078" /><trkpt lon="15.939964" lat="52.330789" /><trkpt lon="15.953595" lat="52.332609" /><trkpt lon="15.961692" lat="52.334104" /><trkpt lon="15.969115" lat="52.335759" /><trkpt lon="15.992474" lat="52.34161" /><trkpt lon="15.99812" lat="52.342856" /><trkpt lon="16.005628" lat="52.344269" /><trkpt lon="16.069912" lat="52.353368" /><trkpt lon="16.078744" lat="52.354842" /><trkpt lon="16.118839" lat="52.362282" /><trkpt lon="16.126211" lat="52.363413" /><trkpt lon="16.164276" lat="52.36718" /><trkpt lon="16.170278" lat="52.367434" /><trkpt lon="16.190275" lat="52.367682" /><trkpt lon="16.198949" lat="52.368307" /><trkpt lon="16.206869" lat="52.369452" /><trkpt lon="16.235175" lat="52.374985" /><trkpt lon="16.24114" lat="52.375836" /><trkpt lon="16.246513" lat="52.376378" /><trkpt lon="16.283081" lat="52.377914" /><trkpt lon="16.374707" lat="52.38297" /><trkpt lon="16.386461" lat="52.38412" /><trkpt lon="16.412185" lat="52.387774" /><trkpt lon="16.421133" lat="52.388785" /><trkpt lon="16.431881" lat="52.389541" /><trkpt lon="16.444029" lat="52.389987" /><trkpt lon="16.448865" lat="52.390016" /><trkpt lon="16.454269" lat="52.389819" /><trkpt lon="16.459304" lat="52.389411" /><trkpt lon="16.475221" lat="52.387134" /><trkpt lon="16.482027" lat="52.386544" /><trkpt lon="16.489188" lat="52.386481" /><trkpt lon="16.507685" lat="52.387444" /><trkpt lon="16.514634" lat="52.387502" /><trkpt lon="16.519369" lat="52.38731" /><trkpt lon="16.524468" lat="52.386892" /><trkpt lon="16.5288" lat="52.386358" /><trkpt lon="16.53429" lat="52.385441" /><trkpt lon="16.543151" lat="52.383328" /><trkpt lon="16.564258" lat="52.377154" /><trkpt lon="16.572255" lat="52.374647" /><trkpt lon="16.581917" lat="52.371266" /><trkpt lon="16.615678" lat="52.358391" /><trkpt lon="16.621847" lat="52.356441" /><trkpt lon="16.62987" lat="52.354674" /><trkpt lon="16.663106" lat="52.349474" /><trkpt lon="16.670559" lat="52.34862" /><trkpt lon="16.675907" lat="52.348366" /><trkpt lon="16.680887" lat="52.348403" /><trkpt lon="16.723647" lat="52.350155" /><trkpt lon="16.736633" lat="52.350452" /><trkpt lon="16.840439" lat="52.350355" /><trkpt lon="16.846831" lat="52.35067" /><trkpt lon="16.853601" lat="52.351258" /><trkpt lon="16.876089" lat="52.35412" /><trkpt lon="16.883146" lat="52.354572" /><trkpt lon="16.888785" lat="52.354631" /><trkpt lon="16.895899" lat="52.354321" /><trkpt lon="16.919171" lat="52.352462" /><trkpt lon="16.994984" lat="52.346334" /><trkpt lon="17.008081" lat="52.345031" /><trkpt lon="17.020468" lat="52.343389" /><trkpt lon="17.030148" lat="52.341758" /><trkpt lon="17.082924" lat="52.330849" /><trkpt lon="17.090666" lat="52.328975" /><trkpt lon="17.100797" lat="52.32619" /><trkpt lon="17.151112" lat="52.31062" /><trkpt lon="17.161211" lat="52.308559" /><trkpt lon="17.166907" lat="52.307793" /><trkpt lon="17.171476" lat="52.307384" /><trkpt lon="17.180083" lat="52.307089" /><trkpt lon="17.187133" lat="52.307313" /><trkpt lon="17.194608" lat="52.30801" /><trkpt lon="17.207304" lat="52.30969" /><trkpt lon="17.215807" lat="52.31018" /><trkpt lon="17.349914" lat="52.30982" /><trkpt lon="17.362301" lat="52.310113" /><trkpt lon="17.371827" lat="52.310778" /><trkpt lon="17.382489" lat="52.311984" /><trkpt lon="17.390754" lat="52.313272" /><trkpt lon="17.411285" lat="52.316883" /><trkpt lon="17.417304" lat="52.317728" /><trkpt lon="17.425601" lat="52.318544" /><trkpt lon="17.434448" lat="52.318981" /><trkpt lon="17.440658" lat="52.319024" /><trkpt lon="17.505421" lat="52.318042" /><trkpt lon="17.515767" lat="52.317546" /><trkpt lon="17.524383" lat="52.316669" /><trkpt lon="17.531104" lat="52.315677" /><trkpt lon="17.552666" lat="52.311618" /><trkpt lon="17.557866" lat="52.310831" /><trkpt lon="17.564952" lat="52.310159" /><trkpt lon="17.584169" lat="52.308964" /><trkpt lon="17.59238" lat="52.307946" /><trkpt lon="17.598376" lat="52.306815" /><trkpt lon="17.645713" lat="52.295958" /><trkpt lon="17.660018" lat="52.29252" /><trkpt lon="17.669938" lat="52.289522" /><trkpt lon="17.678203" lat="52.286517" /><trkpt lon="17.703354" lat="52.276408" /><trkpt lon="17.709296" lat="52.274163" /><trkpt lon="17.717758" lat="52.271354" /><trkpt lon="17.727289" lat="52.268743" /><trkpt lon="17.736822" lat="52.266655" /><trkpt lon="17.747779" lat="52.264858" /><trkpt lon="17.757049" lat="52.263781" /><trkpt lon="17.774199" lat="52.262136" /><trkpt lon="17.781104" lat="52.261132" /><trkpt lon="17.803189" lat="52.257213" /><trkpt lon="17.818878" lat="52.254217" /><trkpt lon="17.832248" lat="52.251477" /><trkpt lon="17.849264" lat="52.247726" /><trkpt lon="17.862607" lat="52.244577" /><trkpt lon="17.876878" lat="52.240966" /><trkpt lon="17.883066" lat="52.239021" /><trkpt lon="17.896373" lat="52.234347" /><trkpt lon="17.904547" lat="52.231998" /><trkpt lon="17.91139" lat="52.23042" /><trkpt lon="17.930457" lat="52.226731" /><trkpt lon="17.939735" lat="52.224696" /><trkpt lon="17.946799" lat="52.222937" /><trkpt lon="17.970103" lat="52.216457" /><trkpt lon="17.980581" lat="52.213821" /><trkpt lon="17.99008" lat="52.211645" /><trkpt lon="18.012663" lat="52.207034" /><trkpt lon="18.020529" lat="52.205228" /><trkpt lon="18.029245" lat="52.202694" /><trkpt lon="18.04288" lat="52.197953" /><trkpt lon="18.04874" lat="52.1962" /><trkpt lon="18.054702" lat="52.194797" /><trkpt lon="18.065062" lat="52.192858" /><trkpt lon="18.070456" lat="52.191671" /><trkpt lon="18.075562" lat="52.190262" /><trkpt lon="18.085246" lat="52.18719" /><trkpt lon="18.093405" lat="52.185018" /><trkpt lon="18.101216" lat="52.183164" /><trkpt lon="18.108372" lat="52.181801" /><trkpt lon="18.121272" lat="52.179857" /><trkpt lon="18.128658" lat="52.178523" /><trkpt lon="18.154043" lat="52.172464" /><trkpt lon="18.163891" lat="52.170294" /><trkpt lon="18.174471" lat="52.168173" /><trkpt lon="18.189669" lat="52.1655" /><trkpt lon="18.203434" lat="52.163336" /><trkpt lon="18.210567" lat="52.162436" /><trkpt lon="18.243639" lat="52.159985" /><trkpt lon="18.249788" lat="52.15932" /><trkpt lon="18.255501" lat="52.158427" /><trkpt lon="18.264176" lat="52.156517" /><trkpt lon="18.270873" lat="52.154572" /><trkpt lon="18.277961" lat="52.152181" /><trkpt lon="18.286537" lat="52.150175" /><trkpt lon="18.293518" lat="52.148946" /><trkpt lon="18.306849" lat="52.147412" /><trkpt lon="18.312199" lat="52.146632" /><trkpt lon="18.317971" lat="52.145493" /><trkpt lon="18.330598" lat="52.142522" /><trkpt lon="18.336176" lat="52.141494" /><trkpt lon="18.3423" lat="52.140692" /><trkpt lon="18.3466" lat="52.140328" /><trkpt lon="18.352113" lat="52.140091" /><trkpt lon="18.357813" lat="52.140115" /><trkpt lon="18.36503" lat="52.140535" /><trkpt lon="18.381076" lat="52.142" /><trkpt lon="18.403153" lat="52.14294" /><trkpt lon="18.409284" lat="52.143608" /><trkpt lon="18.414483" lat="52.144439" /><trkpt lon="18.441079" lat="52.149889" /><trkpt lon="18.450111" lat="52.151463" /><trkpt lon="18.45883" lat="52.15237" /><trkpt lon="18.467493" lat="52.152619" /><trkpt lon="18.475447" lat="52.152289" /><trkpt lon="18.48463" lat="52.151225" /><trkpt lon="18.49238" lat="52.149747" /><trkpt lon="18.506391" lat="52.146406" /><trkpt lon="18.516194" lat="52.144268" /><trkpt lon="18.523711" lat="52.143012" /><trkpt lon="18.531715" lat="52.142084" /><trkpt lon="18.539803" lat="52.141547" /><trkpt lon="18.547899" lat="52.141397" /><trkpt lon="18.58089" lat="52.142118" /><trkpt lon="18.590592" lat="52.14199" /><trkpt lon="18.59814" lat="52.141542" /><trkpt lon="18.606023" lat="52.14074" /><trkpt lon="18.614146" lat="52.139554" /><trkpt lon="18.621492" lat="52.13815" /><trkpt lon="18.626589" lat="52.136977" /><trkpt lon="18.644597" lat="52.132312" /><trkpt lon="18.660423" lat="52.129306" /><trkpt lon="18.665777" lat="52.128129" /><trkpt lon="18.680513" lat="52.123858" /><trkpt lon="18.686917" lat="52.122332" /><trkpt lon="18.694262" lat="52.121089" /><trkpt lon="18.711679" lat="52.118995" /><trkpt lon="18.718314" lat="52.118024" /><trkpt lon="18.726805" lat="52.116184" /><trkpt lon="18.733638" lat="52.114142" /><trkpt lon="18.737374" lat="52.112778" /><trkpt lon="18.741868" lat="52.11088" /><trkpt lon="18.75796" lat="52.102816" /><trkpt lon="18.774764" lat="52.096143" /><trkpt lon="18.781879" lat="52.09267" /><trkpt lon="18.784832" lat="52.090939" /><trkpt lon="18.788627" lat="52.088393" /><trkpt lon="18.799148" lat="52.079941" /><trkpt lon="18.805397" lat="52.075691" /><trkpt lon="18.811186" lat="52.072509" /><trkpt lon="18.82279" lat="52.066861" /><trkpt lon="18.828388" lat="52.06369" /><trkpt lon="18.8533" lat="52.046877" /><trkpt lon="18.859622" lat="52.042913" /><trkpt lon="18.866127" lat="52.0395" /><trkpt lon="18.873159" lat="52.036489" /><trkpt lon="18.880029" lat="52.034106" /><trkpt lon="18.887224" lat="52.032098" /><trkpt lon="18.91004" lat="52.027314" /><trkpt lon="18.917318" lat="52.025516" /><trkpt lon="18.944375" lat="52.016582" /><trkpt lon="18.950631" lat="52.014893" /><trkpt lon="18.962862" lat="52.012275" /><trkpt lon="18.967247" lat="52.011187" /><trkpt lon="18.972271" lat="52.009679" /><trkpt lon="18.988391" lat="52.004125" /><trkpt lon="18.996207" lat="52.001914" /><trkpt lon="19.002444" lat="52.00048" /><trkpt lon="19.007812" lat="51.999469" /><trkpt lon="19.028721" lat="51.996565" /><trkpt lon="19.034281" lat="51.99566" /><trkpt lon="19.039501" lat="51.994592" /><trkpt lon="19.046137" lat="51.992819" /><trkpt lon="19.052099" lat="51.990786" /><trkpt lon="19.057994" lat="51.98828" /><trkpt lon="19.062453" lat="51.986025" /><trkpt lon="19.078995" lat="51.976592" /><trkpt lon="19.084909" lat="51.973785" /><trkpt lon="19.091288" lat="51.971267" /><trkpt lon="19.09715" lat="51.969332" /><trkpt lon="19.112792" lat="51.964718" /><trkpt lon="19.118043" lat="51.96275" /><trkpt lon="19.127749" lat="51.95874" /><trkpt lon="19.134162" lat="51.956556" /><trkpt lon="19.141579" lat="51.954623" /><trkpt lon="19.153001" lat="51.952253" /><trkpt lon="19.158533" lat="51.950913" /><trkpt lon="19.162779" lat="51.949654" /><trkpt lon="19.17656" lat="51.94499" /><trkpt lon="19.183156" lat="51.943088" /><trkpt lon="19.187919" lat="51.941994" /><trkpt lon="19.193187" lat="51.941046" /><trkpt lon="19.202185" lat="51.940021" /><trkpt lon="19.211097" lat="51.939672" /><trkpt lon="19.229905" lat="51.939636" /><trkpt lon="19.236715" lat="51.939193" /><trkpt lon="19.241999" lat="51.938582" /><trkpt lon="19.266692" lat="51.935009" /><trkpt lon="19.272079" lat="51.933972" /><trkpt lon="19.286187" lat="51.93084" /><trkpt lon="19.292221" lat="51.92972" /><trkpt lon="19.300258" lat="51.928749" /><trkpt lon="19.312725" lat="51.92795" /><trkpt lon="19.318735" lat="51.927344" /><trkpt lon="19.324298" lat="51.926481" /><trkpt lon="19.33948" lat="51.92363" /><trkpt lon="19.351126" lat="51.922116" /><trkpt lon="19.35808" lat="51.921528" /><trkpt lon="19.366189" lat="51.921143" /><trkpt lon="19.389616" lat="51.920983" /><trkpt lon="19.396055" lat="51.920574" /><trkpt lon="19.40235" lat="51.919894" /><trkpt lon="19.412341" lat="51.918244" /><trkpt lon="19.418219" lat="51.916912" /><trkpt lon="19.424033" lat="51.915311" /><trkpt lon="19.432435" lat="51.912438" /><trkpt lon="19.450462" lat="51.90522" /><trkpt lon="19.455991" lat="51.903178" /><trkpt lon="19.463403" lat="51.901011" /><trkpt lon="19.470979" lat="51.899417" /><trkpt lon="19.478069" lat="51.898427" /><trkpt lon="19.486117" lat="51.89786" /><trkpt lon="19.491978" lat="51.897808" /><trkpt lon="19.512451" lat="51.898258" /><trkpt lon="19.52097" lat="51.898005" /><trkpt lon="19.528064" lat="51.897481" /><trkpt lon="19.534743" lat="51.896728" /><trkpt lon="19.540999" lat="51.895784" /><trkpt lon="19.573869" lat="51.88975" /><trkpt lon="19.580953" lat="51.888905" /><trkpt lon="19.587218" lat="51.888585" /><trkpt lon="19.59265" lat="51.888629" /><trkpt lon="19.598283" lat="51.888916" /><trkpt lon="19.644279" lat="51.89227" /><trkpt lon="19.650877" lat="51.89307" /><trkpt lon="19.663573" lat="51.89535" /><trkpt lon="19.669574" lat="51.896123" /><trkpt lon="19.674344" lat="51.896449" /><trkpt lon="19.689487" lat="51.896996" /><trkpt lon="19.698784" lat="51.897733" /><trkpt lon="19.706633" lat="51.898777" /><trkpt lon="19.714125" lat="51.900158" /><trkpt lon="19.721824" lat="51.902" /><trkpt lon="19.729789" lat="51.904392" /><trkpt lon="19.735397" lat="51.906414" /><trkpt lon="19.74061" lat="51.908574" /><trkpt lon="19.755433" lat="51.915465" /><trkpt lon="19.763875" lat="51.919126" /><trkpt lon="19.771626" lat="51.922002" /><trkpt lon="19.78977" lat="51.927768" /><trkpt lon="19.796208" lat="51.930069" /><trkpt lon="19.80391" lat="51.933272" /><trkpt lon="19.830354" lat="51.9448" /><trkpt lon="19.835171" lat="51.94748" /><trkpt lon="19.83871" lat="51.94992" /><trkpt lon="19.842262" lat="51.952851" /><trkpt lon="19.847944" lat="51.95817" /><trkpt lon="19.852978" lat="51.961901" /><trkpt lon="19.856995" lat="51.964272" /><trkpt lon="19.864603" lat="51.968131" /><trkpt lon="19.870446" lat="51.971396" /><trkpt lon="19.875815" lat="51.974921" /><trkpt lon="19.887981" lat="51.983408" /><trkpt lon="19.891956" lat="51.985748" /><trkpt lon="19.896865" lat="51.988219" /><trkpt lon="19.902616" lat="51.990585" /><trkpt lon="19.908205" lat="51.992469" /><trkpt lon="19.936248" lat="52.000388" /><trkpt lon="19.942448" lat="52.002401" /><trkpt lon="19.947039" lat="52.004202" /><trkpt lon="19.951577" lat="52.006291" /><trkpt lon="19.962823" lat="52.012466" /><trkpt lon="19.967197" lat="52.014561" /><trkpt lon="19.972015" lat="52.016434" /><trkpt lon="19.986927" lat="52.020929" /><trkpt lon="19.993834" lat="52.023383" /><trkpt lon="19.999482" lat="52.025885" /><trkpt lon="20.008344" lat="52.030556" /><trkpt lon="20.013721" lat="52.033028" /><trkpt lon="20.018286" lat="52.034721" /><trkpt lon="20.031607" lat="52.039144" /><trkpt lon="20.037755" lat="52.040994" /><trkpt lon="20.044363" lat="52.04271" /><trkpt lon="20.053058" lat="52.044567" /><trkpt lon="20.061492" lat="52.045951" /><trkpt lon="20.105924" lat="52.051249" /><trkpt lon="20.115308" lat="52.052589" /><trkpt lon="20.129835" lat="52.055089" /><trkpt lon="20.141819" lat="52.057484" /><trkpt lon="20.153079" lat="52.060024" /><trkpt lon="20.193791" lat="52.070246" /><trkpt lon="20.203429" lat="52.072127" /><trkpt lon="20.213329" lat="52.07356" /><trkpt lon="20.219545" lat="52.074223" /><trkpt lon="20.227286" lat="52.074795" /><trkpt lon="20.233897" lat="52.075064" /><trkpt lon="20.243231" lat="52.075106" /><trkpt lon="20.250298" lat="52.07488" /><trkpt lon="20.286372" lat="52.07265" /><trkpt lon="20.296481" lat="52.072567" /><trkpt lon="20.303691" lat="52.07289" /><trkpt lon="20.310991" lat="52.07354" /><trkpt lon="20.318172" lat="52.074504" /><trkpt lon="20.3244" lat="52.075617" /><trkpt lon="20.334623" lat="52.078037" /><trkpt lon="20.342805" lat="52.080567" /><trkpt lon="20.3491" lat="52.082925" /><trkpt lon="20.358885" lat="52.087167" /><trkpt lon="20.364914" lat="52.089586" /><trkpt lon="20.37022" lat="52.091375" /><trkpt lon="20.376181" lat="52.093022" /><trkpt lon="20.385602" lat="52.094994" /><trkpt lon="20.41101" lat="52.0987" /><trkpt lon="20.420864" lat="52.100424" /><trkpt lon="20.432079" lat="52.102799" /><trkpt lon="20.455563" lat="52.108758" /><trkpt lon="20.463069" lat="52.110476" /><trkpt lon="20.495308" lat="52.116562" /><trkpt lon="20.505821" lat="52.118739" /><trkpt lon="20.511824" lat="52.120161" /><trkpt lon="20.521166" lat="52.122695" /><trkpt lon="20.529635" lat="52.125325" /><trkpt lon="20.540818" lat="52.129057" /><trkpt lon="20.545114" lat="52.130287" /><trkpt lon="20.57914" lat="52.138489" /><trkpt lon="20.594232" lat="52.141975" /><trkpt lon="20.606994" lat="52.144487" /><trkpt lon="20.616578" lat="52.146034" /><trkpt lon="20.628484" lat="52.147561" /><trkpt lon="20.649245" lat="52.149636" /><trkpt lon="20.678304" lat="52.15382" /><trkpt lon="20.715408" lat="52.16041" /><trkpt lon="20.727849" lat="52.163046" /><trkpt lon="20.73653" lat="52.16536" /><trkpt lon="20.744438" lat="52.16786" /><trkpt lon="20.752625" lat="52.170876" /><trkpt lon="20.766077" lat="52.176311" /><trkpt lon="20.768528" lat="52.177705" /><trkpt lon="20.770658" lat="52.179461" /><trkpt lon="20.771966" lat="52.181011" /><trkpt lon="20.774039" lat="52.18426" /><trkpt lon="20.775912" lat="52.186196" /><trkpt lon="20.778357" lat="52.187734" /><trkpt lon="20.780769" lat="52.188686" /><trkpt lon="20.782948" lat="52.189269" /><trkpt lon="20.786019" lat="52.189837" /><trkpt lon="20.800773" lat="52.191935" /><trkpt lon="20.804662" lat="52.192328" /><trkpt lon="20.812826" lat="52.192807" /><trkpt lon="20.816704" lat="52.19334" /><trkpt lon="20.821265" lat="52.194433" /><trkpt lon="20.83491" lat="52.199004" /><trkpt lon="20.838834" lat="52.199931" /><trkpt lon="20.841178" lat="52.200128" /><trkpt lon="20.84344" lat="52.200061" /><trkpt lon="20.845799" lat="52.19971" /><trkpt lon="20.848356" lat="52.198954" /><trkpt lon="20.851271" lat="52.197368" /><trkpt lon="20.856461" lat="52.192951" /><trkpt lon="20.858165" lat="52.191725" /><trkpt lon="20.8603" lat="52.190459" /><trkpt lon="20.863247" lat="52.18905" /><trkpt lon="20.882121" lat="52.180871" /><trkpt lon="20.886442" lat="52.179235" /><trkpt lon="20.891415" lat="52.177737" /><trkpt lon="20.895664" lat="52.176738" /><trkpt lon="20.906096" lat="52.174665" /><trkpt lon="20.907831" lat="52.173957" /><trkpt lon="20.910323" lat="52.171941" /><trkpt lon="20.911527" lat="52.171579" /><trkpt lon="20.912937" lat="52.17159" /><trkpt lon="20.913888" lat="52.171846" /><trkpt lon="20.914571" lat="52.172228" /><trkpt lon="20.915165" lat="52.173002" /><trkpt lon="20.915146" lat="52.173836" /><trkpt lon="20.914111" lat="52.176055" /><trkpt lon="20.914088" lat="52.176955" /><trkpt lon="20.917848" lat="52.18805" /><trkpt lon="20.918214" lat="52.188811" /><trkpt lon="20.918886" lat="52.189564" /><trkpt lon="20.928105" lat="52.195516" /><trkpt lon="20.932424" lat="52.198667" /><trkpt lon="20.952418" lat="52.211979" /><trkpt lon="20.952783" lat="52.211966" /><trkpt lon="20.953061" lat="52.211669" /><trkpt lon="20.953904" lat="52.211974" /><trkpt lon="20.955694" lat="52.211972" /><trkpt lon="20.956654" lat="52.211779" /><trkpt lon="20.956575" lat="52.211662" /><trkpt lon="20.957096" lat="52.211531" /></trkseg></trk></gpx>