<?xml version='1.0' encoding='utf-8'?>
<gpx xmlns="http://www.topografix.com/GPX/1/1" version="1.1" creator="Yatutbuv"><trk><trkseg><trkpt lon="7.419473" lat="43.738338" /><trkpt lon="7.422814" lat="43.741577" /><trkpt lon="7.427104" lat="43.746135" /><trkpt lon="7.431905" lat="43.75007" /><trkpt lon="7.433726" lat="43.751215" /><trkpt lon="7.437805" lat="43.752964" /><trkpt lon="7.44041" lat="43.753633" /><trkpt lon="7.442755" lat="43.753917" /><trkpt lon="7.446145" lat="43.753988" /><trkpt lon="7.447853" lat="43.75429" /><trkpt lon="7.449919" lat="43.755642" /><trkpt lon="7.45049" lat="43.756302" /><trkpt lon="7.451677" lat="43.758281" /><trkpt lon="7.452488" lat="43.759074" /><trkpt lon="7.453692" lat="43.759734" /><trkpt lon="7.459188" lat="43.761035" /><trkpt lon="7.461155" lat="43.761075" /><trkpt lon="7.462913" lat="43.760492" /><trkpt lon="7.465119" lat="43.758727" /><trkpt lon="7.466149" lat="43.758108" /><trkpt lon="7.470557" lat="43.756466" /><trkpt lon="7.471936" lat="43.756217" /><trkpt lon="7.473366" lat="43.75622" /><trkpt lon="7.475024" lat="43.756507" /><trkpt lon="7.476124" lat="43.756906" /><trkpt lon="7.477625" lat="43.757967" /><trkpt lon="7.486458" lat="43.767069" /><trkpt lon="7.489225" lat="43.76948" /><trkpt lon="7.492386" lat="43.773906" /><trkpt lon="7.49361" lat="43.775023" /><trkpt lon="7.495284" lat="43.775881" /><trkpt lon="7.496629" lat="43.776312" /><trkpt lon="7.500686" lat="43.776548" /><trkpt lon="7.502231" lat="43.776995" /><trkpt lon="7.505363" lat="43.779213" /><trkpt lon="7.510709" lat="43.783381" /><trkpt lon="7.512106" lat="43.783955" /><trkpt lon="7.514836" lat="43.784548" /><trkpt lon="7.517232" lat="43.785263" /></trkseg></trk></gpx>