<?xml version='1.0' encoding='utf-8'?>
<gpx xmlns="http://www.topografix.com/GPX/1/1" version="1.1" creator="Yatutbuv"><trk><trkseg><trkpt lon="32.484486" lat="34.721219" /><trkpt lon="32.485758" lat="34.724434" /><trkpt lon="32.486389" lat="34.72439" /><trkpt lon="32.486143" lat="34.728754" /><trkpt lon="32.48554" lat="34.72918" /><trkpt lon="32.480946" lat="34.730754" /><trkpt lon="32.482318" lat="34.733571" /><trkpt lon="32.482728" lat="34.734072" /><trkpt lon="32.483457" lat="34.733952" /><trkpt lon="32.483765" lat="34.73409" /><trkpt lon="32.485349" lat="34.737124" /><trkpt lon="32.484206" lat="34.7377" /><trkpt lon="32.482788" lat="34.738043" /><trkpt lon="32.482511" lat="34.739181" /><trkpt lon="32.482829" lat="34.73936" /><trkpt lon="32.480237" lat="34.740285" /><trkpt lon="32.481237" lat="34.744266" /><trkpt lon="32.482496" lat="34.744541" /><trkpt lon="32.483228" lat="34.745693" /><trkpt lon="32.484223" lat="34.746486" /><trkpt lon="32.485125" lat="34.747837" /><trkpt lon="32.486906" lat="34.749433" /><trkpt lon="32.489539" lat="34.752543" /><trkpt lon="32.490058" lat="34.752848" /><trkpt lon="32.490996" lat="34.752994" /><trkpt lon="32.491287" lat="34.752186" /><trkpt lon="32.491583" lat="34.752134" /><trkpt lon="32.491811" lat="34.752324" /><trkpt lon="32.491594" lat="34.75353" /><trkpt lon="32.491768" lat="34.756797" /><trkpt lon="32.491622" lat="34.758233" /><trkpt lon="32.49112" lat="34.759923" /><trkpt lon="32.490153" lat="34.761641" /><trkpt lon="32.488783" lat="34.763304" /><trkpt lon="32.484404" lat="34.766922" /><trkpt lon="32.482755" lat="34.767943" /><trkpt lon="32.481202" lat="34.768586" /><trkpt lon="32.479072" lat="34.769089" /><trkpt lon="32.477364" lat="34.769209" /><trkpt lon="32.47273" lat="34.76904" /><trkpt lon="32.469779" lat="34.769484" /><trkpt lon="32.467465" lat="34.77023" /><trkpt lon="32.465567" lat="34.771174" /><trkpt lon="32.464186" lat="34.7721" /><trkpt lon="32.452534" lat="34.781391" /><trkpt lon="32.451465" lat="34.782077" /><trkpt lon="32.450353" lat="34.782567" /><trkpt lon="32.448418" lat="34.782999" /><trkpt lon="32.446326" lat="34.78307" /><trkpt lon="32.445356" lat="34.782805" /><trkpt lon="32.443997" lat="34.782949" /><trkpt lon="32.441574" lat="34.784941" /><trkpt lon="32.441286" lat="34.78533" /><trkpt lon="32.440888" lat="34.786408" /><trkpt lon="32.440768" lat="34.787954" /><trkpt lon="32.440362" lat="34.788378" /><trkpt lon="32.440298" lat="34.788824" /><trkpt lon="32.438852" lat="34.79031" /><trkpt lon="32.435634" lat="34.792383" /><trkpt lon="32.43733" lat="34.794937" /><trkpt lon="32.43946" lat="34.796836" /><trkpt lon="32.444532" lat="34.803404" /><trkpt lon="32.450647" lat="34.811973" /><trkpt lon="32.451213" lat="34.813303" /><trkpt lon="32.452163" lat="34.818872" /><trkpt lon="32.452812" lat="34.820036" /><trkpt lon="32.457176" lat="34.823784" /><trkpt lon="32.458123" lat="34.824388" /><trkpt lon="32.459246" lat="34.824674" /><trkpt lon="32.462357" lat="34.824865" /><trkpt lon="32.463756" lat="34.82521" /><trkpt lon="32.464365" lat="34.825541" /><trkpt lon="32.464983" lat="34.82626" /><trkpt lon="32.465138" lat="34.827225" /><trkpt lon="32.464785" lat="34.828067" /><trkpt lon="32.463606" lat="34.829355" /><trkpt lon="32.463504" lat="34.82981" /><trkpt lon="32.463645" lat="34.8302" /><trkpt lon="32.464041" lat="34.83058" /><trkpt lon="32.465733" lat="34.831375" /><trkpt lon="32.46783" lat="34.834212" /><trkpt lon="32.471401" lat="34.836163" /><trkpt lon="32.4719" lat="34.836692" /><trkpt lon="32.472007" lat="34.837255" /><trkpt lon="32.47166" lat="34.838012" /><trkpt lon="32.466916" lat="34.843092" /><trkpt lon="32.466795" lat="34.843777" /><trkpt lon="32.467267" lat="34.84463" /><trkpt lon="32.468802" lat="34.846328" /><trkpt lon="32.470634" lat="34.847285" /><trkpt lon="32.472124" lat="34.847588" /><trkpt lon="32.474725" lat="34.847807" /><trkpt lon="32.479221" lat="34.847669" /><trkpt lon="32.480026" lat="34.848027" /><trkpt lon="32.480422" lat="34.848542" /><trkpt lon="32.480478" lat="34.849269" /><trkpt lon="32.479913" lat="34.850994" /><trkpt lon="32.480226" lat="34.853401" /><trkpt lon="32.479724" lat="34.855841" /><trkpt lon="32.479754" lat="34.856523" /><trkpt lon="32.481202" lat="34.859656" /><trkpt lon="32.481205" lat="34.861118" /><trkpt lon="32.481946" lat="34.863954" /><trkpt lon="32.483861" lat="34.866514" /><trkpt lon="32.483943" lat="34.867081" /><trkpt lon="32.48377" lat="34.867827" /><trkpt lon="32.483123" lat="34.8688" /><trkpt lon="32.48274" lat="34.869045" /><trkpt lon="32.481484" lat="34.869289" /><trkpt lon="32.480862" lat="34.869585" /><trkpt lon="32.480103" lat="34.870673" /><trkpt lon="32.479097" lat="34.871724" /><trkpt lon="32.479721" lat="34.872782" /><trkpt lon="32.480992" lat="34.873701" /><trkpt lon="32.481383" lat="34.874653" /><trkpt lon="32.482415" lat="34.875447" /><trkpt lon="32.482631" lat="34.875857" /><trkpt lon="32.482604" lat="34.878503" /><trkpt lon="32.482179" lat="34.880625" /><trkpt lon="32.48274" lat="34.88324" /><trkpt lon="32.48208" lat="34.88587" /><trkpt lon="32.480973" lat="34.888728" /><trkpt lon="32.480454" lat="34.889337" /><trkpt lon="32.47842" lat="34.889662" /><trkpt lon="32.477231" lat="34.890925" /><trkpt lon="32.476741" lat="34.891211" /><trkpt lon="32.473042" lat="34.891932" /><trkpt lon="32.472126" lat="34.892282" /><trkpt lon="32.471486" lat="34.89165" /><trkpt lon="32.4707" lat="34.891614" /><trkpt lon="32.467711" lat="34.893445" /><trkpt lon="32.467374" lat="34.893804" /><trkpt lon="32.466812" lat="34.895008" /><trkpt lon="32.466359" lat="34.895328" /><trkpt lon="32.464737" lat="34.895469" /><trkpt lon="32.461485" lat="34.895342" /><trkpt lon="32.4608" lat="34.895518" /><trkpt lon="32.458912" lat="34.89656" /><trkpt lon="32.455591" lat="34.897078" /><trkpt lon="32.452697" lat="34.898679" /><trkpt lon="32.450732" lat="34.899193" /><trkpt lon="32.449816" lat="34.899694" /><trkpt lon="32.449129" lat="34.899765" /><trkpt lon="32.447957" lat="34.899416" /><trkpt lon="32.447341" lat="34.899521" /><trkpt lon="32.44299" lat="34.903212" /><trkpt lon="32.442724" lat="34.903684" /><trkpt lon="32.442595" lat="34.904831" /><trkpt lon="32.442252" lat="34.905394" /><trkpt lon="32.440584" lat="34.906523" /><trkpt lon="32.43796" lat="34.907886" /><trkpt lon="32.435594" lat="34.910607" /><trkpt lon="32.434929" lat="34.910944" /><trkpt lon="32.431172" lat="34.911858" /><trkpt lon="32.430545" lat="34.911911" /><trkpt lon="32.428228" lat="34.911574" /><trkpt lon="32.427133" lat="34.912346" /><trkpt lon="32.426232" lat="34.913242" /><trkpt lon="32.425431" lat="34.915295" /><trkpt lon="32.422523" lat="34.918691" /><trkpt lon="32.421635" lat="34.921498" /><trkpt lon="32.421333" lat="34.921998" /><trkpt lon="32.420397" lat="34.922787" /><trkpt lon="32.419495" lat="34.924719" /><trkpt lon="32.418353" lat="34.926033" /><trkpt lon="32.417419" lat="34.929254" /><trkpt lon="32.416521" lat="34.930701" /><trkpt lon="32.416154" lat="34.933902" /><trkpt lon="32.415561" lat="34.934462" /><trkpt lon="32.413306" lat="34.935112" /><trkpt lon="32.412845" lat="34.935487" /><trkpt lon="32.41053" lat="34.941433" /><trkpt lon="32.410705" lat="34.94234" /><trkpt lon="32.412076" lat="34.944014" /><trkpt lon="32.412321" lat="34.944957" /><trkpt lon="32.41182" lat="34.946727" /><trkpt lon="32.411684" lat="34.948129" /><trkpt lon="32.410874" lat="34.949028" /><trkpt lon="32.410669" lat="34.949513" /><trkpt lon="32.410559" lat="34.952369" /><trkpt lon="32.410917" lat="34.954512" /><trkpt lon="32.411722" lat="34.955912" /><trkpt lon="32.412319" lat="34.958169" /><trkpt lon="32.413487" lat="34.959982" /><trkpt lon="32.414335" lat="34.961843" /><trkpt lon="32.414407" lat="34.962384" /><trkpt lon="32.411034" lat="34.96753" /><trkpt lon="32.410204" lat="34.967808" /><trkpt lon="32.408526" lat="34.96747" /><trkpt lon="32.407415" lat="34.967673" /><trkpt lon="32.406611" lat="34.968621" /><trkpt lon="32.406523" lat="34.969844" /><trkpt lon="32.404954" lat="34.971102" /><trkpt lon="32.405873" lat="34.973698" /><trkpt lon="32.405248" lat="34.974921" /><trkpt lon="32.40528" lat="34.976214" /><trkpt lon="32.404692" lat="34.977346" /><trkpt lon="32.405076" lat="34.978496" /><trkpt lon="32.40593" lat="34.982626" /><trkpt lon="32.406232" lat="34.986811" /><trkpt lon="32.405723" lat="34.98873" /><trkpt lon="32.406169" lat="34.990669" /><trkpt lon="32.405893" lat="34.991363" /><trkpt lon="32.404783" lat="34.992402" /><trkpt lon="32.404489" lat="34.993229" /><trkpt lon="32.404475" lat="34.99408" /><trkpt lon="32.404921" lat="34.996994" /><trkpt lon="32.404223" lat="34.999721" /><trkpt lon="32.40481" lat="35.001916" /><trkpt lon="32.403682" lat="35.004809" /><trkpt lon="32.404278" lat="35.007054" /><trkpt lon="32.404154" lat="35.009491" /><trkpt lon="32.404949" lat="35.013247" /><trkpt lon="32.405297" lat="35.013877" /><trkpt lon="32.405975" lat="35.014382" /><trkpt lon="32.4091" lat="35.015432" /><trkpt lon="32.409822" lat="35.015901" /><trkpt lon="32.410418" lat="35.017866" /><trkpt lon="32.413109" lat="35.019973" /><trkpt lon="32.414736" lat="35.022861" /><trkpt lon="32.414999" lat="35.023534" /><trkpt lon="32.415013" lat="35.024223" /><trkpt lon="32.414001" lat="35.02868" /><trkpt lon="32.413148" lat="35.030456" /><trkpt lon="32.408866" lat="35.031456" /><trkpt lon="32.407744" lat="35.031487" /><trkpt lon="32.406779" lat="35.031703" /><trkpt lon="32.405231" lat="35.031598" /><trkpt lon="32.404504" lat="35.031167" /><trkpt lon="32.403902" lat="35.031117" /><trkpt lon="32.399366" lat="35.032645" /><trkpt lon="32.397176" lat="35.032785" /><trkpt lon="32.396848" lat="35.033289" /><trkpt lon="32.394947" lat="35.033392" /><trkpt lon="32.393169" lat="35.032882" /><trkpt lon="32.390749" lat="35.033431" /><trkpt lon="32.387638" lat="35.034596" /><trkpt lon="32.386668" lat="35.034676" /><trkpt lon="32.385588" lat="35.034653" /><trkpt lon="32.384317" lat="35.033773" /><trkpt lon="32.382697" lat="35.033215" /><trkpt lon="32.382405" lat="35.034765" /><trkpt lon="32.378662" lat="35.035047" /><trkpt lon="32.378503" lat="35.035403" /><trkpt lon="32.377622" lat="35.035265" /><trkpt lon="32.377665" lat="35.035889" /><trkpt lon="32.376807" lat="35.038074" /><trkpt lon="32.375234" lat="35.037302" /><trkpt lon="32.374244" lat="35.037524" /><trkpt lon="32.373936" lat="35.038211" /><trkpt lon="32.373732" lat="35.039856" /><trkpt lon="32.37392" lat="35.041292" /><trkpt lon="32.373241" lat="35.04212" /><trkpt lon="32.372405" lat="35.042594" /><trkpt lon="32.370087" lat="35.042596" /><trkpt lon="32.369921" lat="35.042323" /><trkpt lon="32.36952" lat="35.042348" /><trkpt lon="32.369476" lat="35.04274" /><trkpt lon="32.370289" lat="35.042998" /><trkpt lon="32.370447" lat="35.043446" /></trkseg></trk></gpx>