<?xml version="1.0" encoding="UTF-8"?>
<gpx version="1.1" creator="yatutbuv" xmlns="http://www.topografix.com/GPX/1/1">
  <trk><name>2012_Kyiv -&gt; Odesa (611.1km)</name><trkseg>
      <trkpt lat="50.43987" lon="30.488678"></trkpt>
      <trkpt lat="50.438491" lon="30.490608"></trkpt>
      <trkpt lat="50.433584" lon="30.498536"></trkpt>
      <trkpt lat="50.432622" lon="30.499832"></trkpt>
      <trkpt lat="50.414534" lon="30.517925"></trkpt>
      <trkpt lat="50.40948" lon="30.522247"></trkpt>
      <trkpt lat="50.408616" lon="30.523169"></trkpt>
      <trkpt lat="50.407647" lon="30.524577"></trkpt>
      <trkpt lat="50.406968" lon="30.525885"></trkpt>
      <trkpt lat="50.406448" lon="30.527346"></trkpt>
      <trkpt lat="50.405254" lon="30.532868"></trkpt>
      <trkpt lat="50.404911" lon="30.542772"></trkpt>
      <trkpt lat="50.404479" lon="30.546229"></trkpt>
      <trkpt lat="50.403171" lon="30.551833"></trkpt>
      <trkpt lat="50.402589" lon="30.553612"></trkpt>
      <trkpt lat="50.401414" lon="30.556497"></trkpt>
      <trkpt lat="50.400981" lon="30.55712"></trkpt>
      <trkpt lat="50.400263" lon="30.557731"></trkpt>
      <trkpt lat="50.399667" lon="30.557936"></trkpt>
      <trkpt lat="50.398793" lon="30.558049"></trkpt>
      <trkpt lat="50.397003" lon="30.557784"></trkpt>
      <trkpt lat="50.38363" lon="30.552166"></trkpt>
      <trkpt lat="50.380184" lon="30.551165"></trkpt>
      <trkpt lat="50.373509" lon="30.548775"></trkpt>
      <trkpt lat="50.364427" lon="30.546583"></trkpt>
      <trkpt lat="50.360197" lon="30.546167"></trkpt>
      <trkpt lat="50.355455" lon="30.545212"></trkpt>
      <trkpt lat="50.35438" lon="30.544825"></trkpt>
      <trkpt lat="50.346132" lon="30.540907"></trkpt>
      <trkpt lat="50.344465" lon="30.540368"></trkpt>
      <trkpt lat="50.325854" lon="30.537978"></trkpt>
      <trkpt lat="50.306885" lon="30.534137"></trkpt>
      <trkpt lat="50.304706" lon="30.534073"></trkpt>
      <trkpt lat="50.278127" lon="30.534266"></trkpt>
      <trkpt lat="50.276594" lon="30.534481"></trkpt>
      <trkpt lat="50.275362" lon="30.534942"></trkpt>
      <trkpt lat="50.274704" lon="30.535339"></trkpt>
      <trkpt lat="50.273579" lon="30.53626"></trkpt>
      <trkpt lat="50.272077" lon="30.538055"></trkpt>
      <trkpt lat="50.271098" lon="30.53974"></trkpt>
      <trkpt lat="50.270609" lon="30.540808"></trkpt>
      <trkpt lat="50.26987" lon="30.543109"></trkpt>
      <trkpt lat="50.263335" lon="30.567702"></trkpt>
      <trkpt lat="50.262098" lon="30.571891"></trkpt>
      <trkpt lat="50.261252" lon="30.573649"></trkpt>
      <trkpt lat="50.259904" lon="30.575416"></trkpt>
      <trkpt lat="50.256065" lon="30.578583"></trkpt>
      <trkpt lat="50.246579" lon="30.585788"></trkpt>
      <trkpt lat="50.245579" lon="30.586426"></trkpt>
      <trkpt lat="50.244979" lon="30.586662"></trkpt>
      <trkpt lat="50.233419" lon="30.590072"></trkpt>
      <trkpt lat="50.230024" lon="30.590957"></trkpt>
      <trkpt lat="50.227869" lon="30.591236"></trkpt>
      <trkpt lat="50.222067" lon="30.591354"></trkpt>
      <trkpt lat="50.220916" lon="30.591515"></trkpt>
      <trkpt lat="50.217056" lon="30.592168"></trkpt>
      <trkpt lat="50.202893" lon="30.595035"></trkpt>
      <trkpt lat="50.202114" lon="30.595314"></trkpt>
      <trkpt lat="50.19989" lon="30.596457"></trkpt>
      <trkpt lat="50.197569" lon="30.598224"></trkpt>
      <trkpt lat="50.195541" lon="30.600358"></trkpt>
      <trkpt lat="50.193382" lon="30.603461"></trkpt>
      <trkpt lat="50.19144" lon="30.607338"></trkpt>
      <trkpt lat="50.190965" lon="30.608576"></trkpt>
      <trkpt lat="50.183242" lon="30.633232"></trkpt>
      <trkpt lat="50.152061" lon="30.734172"></trkpt>
      <trkpt lat="50.149415" lon="30.742561"></trkpt>
      <trkpt lat="50.148696" lon="30.744414"></trkpt>
      <trkpt lat="50.147942" lon="30.745678"></trkpt>
      <trkpt lat="50.145775" lon="30.748463"></trkpt>
      <trkpt lat="50.141868" lon="30.75174"></trkpt>
      <trkpt lat="50.140829" lon="30.752515"></trkpt>
      <trkpt lat="50.140133" lon="30.752877"></trkpt>
      <trkpt lat="50.129329" lon="30.75734"></trkpt>
      <trkpt lat="50.128346" lon="30.757661"></trkpt>
      <trkpt lat="50.127189" lon="30.757723"></trkpt>
      <trkpt lat="50.126068" lon="30.75756"></trkpt>
      <trkpt lat="50.123898" lon="30.756477"></trkpt>
      <trkpt lat="50.122686" lon="30.756076"></trkpt>
      <trkpt lat="50.121545" lon="30.75611"></trkpt>
      <trkpt lat="50.120303" lon="30.756596"></trkpt>
      <trkpt lat="50.119678" lon="30.757016"></trkpt>
      <trkpt lat="50.118746" lon="30.757996"></trkpt>
      <trkpt lat="50.117641" lon="30.75992"></trkpt>
      <trkpt lat="50.112876" lon="30.772272"></trkpt>
      <trkpt lat="50.111782" lon="30.77392"></trkpt>
      <trkpt lat="50.110943" lon="30.774761"></trkpt>
      <trkpt lat="50.110201" lon="30.775244"></trkpt>
      <trkpt lat="50.108377" lon="30.775769"></trkpt>
      <trkpt lat="50.104483" lon="30.776403"></trkpt>
      <trkpt lat="50.103248" lon="30.776451"></trkpt>
      <trkpt lat="50.10264" lon="30.776333"></trkpt>
      <trkpt lat="50.095876" lon="30.772879"></trkpt>
      <trkpt lat="50.09447" lon="30.771995"></trkpt>
      <trkpt lat="50.093792" lon="30.771305"></trkpt>
      <trkpt lat="50.092775" lon="30.769692"></trkpt>
      <trkpt lat="50.090916" lon="30.764878"></trkpt>
      <trkpt lat="50.09021" lon="30.763475"></trkpt>
      <trkpt lat="50.086625" lon="30.758845"></trkpt>
      <trkpt lat="50.084624" lon="30.75634"></trkpt>
      <trkpt lat="50.083905" lon="30.755611"></trkpt>
      <trkpt lat="50.07725" lon="30.750913"></trkpt>
      <trkpt lat="50.07606" lon="30.749786"></trkpt>
      <trkpt lat="50.058087" lon="30.726196"></trkpt>
      <trkpt lat="50.05747" lon="30.7256"></trkpt>
      <trkpt lat="50.056047" lon="30.724627"></trkpt>
      <trkpt lat="50.055187" lon="30.724233"></trkpt>
      <trkpt lat="50.053533" lon="30.723873"></trkpt>
      <trkpt lat="50.046454" lon="30.724738"></trkpt>
      <trkpt lat="50.044829" lon="30.725273"></trkpt>
      <trkpt lat="50.004043" lon="30.746607"></trkpt>
      <trkpt lat="50.002549" lon="30.747146"></trkpt>
      <trkpt lat="49.998049" lon="30.748064"></trkpt>
      <trkpt lat="49.99664" lon="30.748675"></trkpt>
      <trkpt lat="49.994511" lon="30.750192"></trkpt>
      <trkpt lat="49.973552" lon="30.766914"></trkpt>
      <trkpt lat="49.971888" lon="30.76805"></trkpt>
      <trkpt lat="49.970162" lon="30.768755"></trkpt>
      <trkpt lat="49.939145" lon="30.775702"></trkpt>
      <trkpt lat="49.937495" lon="30.775904"></trkpt>
      <trkpt lat="49.936753" lon="30.775845"></trkpt>
      <trkpt lat="49.935479" lon="30.775404"></trkpt>
      <trkpt lat="49.921275" lon="30.767237"></trkpt>
      <trkpt lat="49.92041" lon="30.766867"></trkpt>
      <trkpt lat="49.918747" lon="30.766462"></trkpt>
      <trkpt lat="49.916956" lon="30.766456"></trkpt>
      <trkpt lat="49.882862" lon="30.768756"></trkpt>
      <trkpt lat="49.881518" lon="30.768913"></trkpt>
      <trkpt lat="49.879089" lon="30.769598"></trkpt>
      <trkpt lat="49.865981" lon="30.774804"></trkpt>
      <trkpt lat="49.851329" lon="30.780824"></trkpt>
      <trkpt lat="49.801674" lon="30.800524"></trkpt>
      <trkpt lat="49.799533" lon="30.801526"></trkpt>
      <trkpt lat="49.793317" lon="30.80557"></trkpt>
      <trkpt lat="49.785657" lon="30.810886"></trkpt>
      <trkpt lat="49.779296" lon="30.815111"></trkpt>
      <trkpt lat="49.777733" lon="30.816498"></trkpt>
      <trkpt lat="49.763267" lon="30.830502"></trkpt>
      <trkpt lat="49.760898" lon="30.832518"></trkpt>
      <trkpt lat="49.756665" lon="30.834874"></trkpt>
      <trkpt lat="49.73541" lon="30.846067"></trkpt>
      <trkpt lat="49.734227" lon="30.846824"></trkpt>
      <trkpt lat="49.73309" lon="30.847933"></trkpt>
      <trkpt lat="49.732192" lon="30.849181"></trkpt>
      <trkpt lat="49.724987" lon="30.861705"></trkpt>
      <trkpt lat="49.72305" lon="30.864543"></trkpt>
      <trkpt lat="49.69851" lon="30.888932"></trkpt>
      <trkpt lat="49.696731" lon="30.890952"></trkpt>
      <trkpt lat="49.695839" lon="30.892147"></trkpt>
      <trkpt lat="49.687447" lon="30.904147"></trkpt>
      <trkpt lat="49.686346" lon="30.90553"></trkpt>
      <trkpt lat="49.684795" lon="30.906909"></trkpt>
      <trkpt lat="49.681442" lon="30.90912"></trkpt>
      <trkpt lat="49.680018" lon="30.910223"></trkpt>
      <trkpt lat="49.678698" lon="30.911647"></trkpt>
      <trkpt lat="49.673317" lon="30.918009"></trkpt>
      <trkpt lat="49.671514" lon="30.920706"></trkpt>
      <trkpt lat="49.65837" lon="30.942202"></trkpt>
      <trkpt lat="49.654442" lon="30.948837"></trkpt>
      <trkpt lat="49.653168" lon="30.951807"></trkpt>
      <trkpt lat="49.650643" lon="30.959494"></trkpt>
      <trkpt lat="49.650132" lon="30.962268"></trkpt>
      <trkpt lat="49.649643" lon="30.966719"></trkpt>
      <trkpt lat="49.648928" lon="30.971811"></trkpt>
      <trkpt lat="49.648426" lon="30.974026"></trkpt>
      <trkpt lat="49.643337" lon="30.988923"></trkpt>
      <trkpt lat="49.642028" lon="30.993653"></trkpt>
      <trkpt lat="49.641672" lon="30.9946"></trkpt>
      <trkpt lat="49.641072" lon="30.99573"></trkpt>
      <trkpt lat="49.637143" lon="31.001635"></trkpt>
      <trkpt lat="49.636417" lon="31.00291"></trkpt>
      <trkpt lat="49.630183" lon="31.01833"></trkpt>
      <trkpt lat="49.629043" lon="31.020268"></trkpt>
      <trkpt lat="49.627727" lon="31.021661"></trkpt>
      <trkpt lat="49.626092" lon="31.022898"></trkpt>
      <trkpt lat="49.616156" lon="31.02948"></trkpt>
      <trkpt lat="49.614737" lon="31.030748"></trkpt>
      <trkpt lat="49.613631" lon="31.032264"></trkpt>
      <trkpt lat="49.612591" lon="31.034555"></trkpt>
      <trkpt lat="49.611067" lon="31.039115"></trkpt>
      <trkpt lat="49.606593" lon="31.057759"></trkpt>
      <trkpt lat="49.6061" lon="31.059478"></trkpt>
      <trkpt lat="49.605506" lon="31.061016"></trkpt>
      <trkpt lat="49.604363" lon="31.063102"></trkpt>
      <trkpt lat="49.599842" lon="31.06924"></trkpt>
      <trkpt lat="49.598112" lon="31.072407"></trkpt>
      <trkpt lat="49.590444" lon="31.089564"></trkpt>
      <trkpt lat="49.585238" lon="31.101915"></trkpt>
      <trkpt lat="49.584481" lon="31.10326"></trkpt>
      <trkpt lat="49.58358" lon="31.104475"></trkpt>
      <trkpt lat="49.579485" lon="31.109172"></trkpt>
      <trkpt lat="49.578" lon="31.110712"></trkpt>
      <trkpt lat="49.572534" lon="31.115545"></trkpt>
      <trkpt lat="49.571329" lon="31.116998"></trkpt>
      <trkpt lat="49.570563" lon="31.118361"></trkpt>
      <trkpt lat="49.56979" lon="31.120774"></trkpt>
      <trkpt lat="49.569573" lon="31.122156"></trkpt>
      <trkpt lat="49.569503" lon="31.123974"></trkpt>
      <trkpt lat="49.56976" lon="31.12662"></trkpt>
      <trkpt lat="49.571096" lon="31.136447"></trkpt>
      <trkpt lat="49.571221" lon="31.141897"></trkpt>
      <trkpt lat="49.571088" lon="31.143355"></trkpt>
      <trkpt lat="49.570824" lon="31.144625"></trkpt>
      <trkpt lat="49.570183" lon="31.146332"></trkpt>
      <trkpt lat="49.569588" lon="31.147333"></trkpt>
      <trkpt lat="49.568194" lon="31.149059"></trkpt>
      <trkpt lat="49.567389" lon="31.14971"></trkpt>
      <trkpt lat="49.566553" lon="31.150112"></trkpt>
      <trkpt lat="49.56562" lon="31.150328"></trkpt>
      <trkpt lat="49.564741" lon="31.150378"></trkpt>
      <trkpt lat="49.562086" lon="31.149983"></trkpt>
      <trkpt lat="49.560733" lon="31.149927"></trkpt>
      <trkpt lat="49.558477" lon="31.150248"></trkpt>
      <trkpt lat="49.557599" lon="31.15055"></trkpt>
      <trkpt lat="49.55676" lon="31.151001"></trkpt>
      <trkpt lat="49.555583" lon="31.15196"></trkpt>
      <trkpt lat="49.547799" lon="31.160215"></trkpt>
      <trkpt lat="49.547021" lon="31.160895"></trkpt>
      <trkpt lat="49.545375" lon="31.162053"></trkpt>
      <trkpt lat="49.543703" lon="31.162999"></trkpt>
      <trkpt lat="49.539416" lon="31.16505"></trkpt>
      <trkpt lat="49.537226" lon="31.165732"></trkpt>
      <trkpt lat="49.53607" lon="31.16621"></trkpt>
      <trkpt lat="49.529994" lon="31.169616"></trkpt>
      <trkpt lat="49.529115" lon="31.169884"></trkpt>
      <trkpt lat="49.527341" lon="31.170169"></trkpt>
      <trkpt lat="49.522839" lon="31.17055"></trkpt>
      <trkpt lat="49.52152" lon="31.171064"></trkpt>
      <trkpt lat="49.520296" lon="31.171893"></trkpt>
      <trkpt lat="49.519102" lon="31.172847"></trkpt>
      <trkpt lat="49.517995" lon="31.174078"></trkpt>
      <trkpt lat="49.513423" lon="31.180704"></trkpt>
      <trkpt lat="49.512534" lon="31.182233"></trkpt>
      <trkpt lat="49.512017" lon="31.183359"></trkpt>
      <trkpt lat="49.510963" lon="31.186443"></trkpt>
      <trkpt lat="49.51047" lon="31.187572"></trkpt>
      <trkpt lat="49.509863" lon="31.18859"></trkpt>
      <trkpt lat="49.509171" lon="31.189424"></trkpt>
      <trkpt lat="49.508365" lon="31.190105"></trkpt>
      <trkpt lat="49.507092" lon="31.190718"></trkpt>
      <trkpt lat="49.501707" lon="31.19163"></trkpt>
      <trkpt lat="49.500819" lon="31.191931"></trkpt>
      <trkpt lat="49.500002" lon="31.192419"></trkpt>
      <trkpt lat="49.498864" lon="31.193479"></trkpt>
      <trkpt lat="49.487099" lon="31.206936"></trkpt>
      <trkpt lat="49.486227" lon="31.208247"></trkpt>
      <trkpt lat="49.485526" lon="31.209674"></trkpt>
      <trkpt lat="49.483034" lon="31.216322"></trkpt>
      <trkpt lat="49.482535" lon="31.218244"></trkpt>
      <trkpt lat="49.481964" lon="31.221653"></trkpt>
      <trkpt lat="49.48142" lon="31.223843"></trkpt>
      <trkpt lat="49.480223" lon="31.22788"></trkpt>
      <trkpt lat="49.479717" lon="31.22906"></trkpt>
      <trkpt lat="49.479115" lon="31.230111"></trkpt>
      <trkpt lat="49.47807" lon="31.23143"></trkpt>
      <trkpt lat="49.476874" lon="31.232346"></trkpt>
      <trkpt lat="49.473856" lon="31.233588"></trkpt>
      <trkpt lat="49.469442" lon="31.235201"></trkpt>
      <trkpt lat="49.468577" lon="31.235615"></trkpt>
      <trkpt lat="49.467808" lon="31.236161"></trkpt>
      <trkpt lat="49.466639" lon="31.237292"></trkpt>
      <trkpt lat="49.465964" lon="31.238147"></trkpt>
      <trkpt lat="49.461506" lon="31.244838"></trkpt>
      <trkpt lat="49.460709" lon="31.246597"></trkpt>
      <trkpt lat="49.459923" lon="31.249056"></trkpt>
      <trkpt lat="49.456825" lon="31.262029"></trkpt>
      <trkpt lat="49.455811" lon="31.265783"></trkpt>
      <trkpt lat="49.455293" lon="31.266914"></trkpt>
      <trkpt lat="49.454324" lon="31.268355"></trkpt>
      <trkpt lat="49.453543" lon="31.269119"></trkpt>
      <trkpt lat="49.451962" lon="31.270336"></trkpt>
      <trkpt lat="49.450927" lon="31.271529"></trkpt>
      <trkpt lat="49.450308" lon="31.272582"></trkpt>
      <trkpt lat="49.449794" lon="31.273817"></trkpt>
      <trkpt lat="49.448559" lon="31.279587"></trkpt>
      <trkpt lat="49.448102" lon="31.280747"></trkpt>
      <trkpt lat="49.446734" lon="31.283409"></trkpt>
      <trkpt lat="49.446118" lon="31.285265"></trkpt>
      <trkpt lat="49.445871" lon="31.286553"></trkpt>
      <trkpt lat="49.445434" lon="31.290728"></trkpt>
      <trkpt lat="49.445138" lon="31.292046"></trkpt>
      <trkpt lat="49.444462" lon="31.293834"></trkpt>
      <trkpt lat="49.442504" lon="31.296841"></trkpt>
      <trkpt lat="49.438704" lon="31.301542"></trkpt>
      <trkpt lat="49.437533" lon="31.302543"></trkpt>
      <trkpt lat="49.43549" lon="31.303564"></trkpt>
      <trkpt lat="49.434604" lon="31.304136"></trkpt>
      <trkpt lat="49.432832" lon="31.305863"></trkpt>
      <trkpt lat="49.4318" lon="31.307764"></trkpt>
      <trkpt lat="49.428175" lon="31.318079"></trkpt>
      <trkpt lat="49.426968" lon="31.32083"></trkpt>
      <trkpt lat="49.426301" lon="31.321821"></trkpt>
      <trkpt lat="49.425494" lon="31.322701"></trkpt>
      <trkpt lat="49.421038" lon="31.325767"></trkpt>
      <trkpt lat="49.42031" lon="31.326545"></trkpt>
      <trkpt lat="49.419691" lon="31.327478"></trkpt>
      <trkpt lat="49.419255" lon="31.328459"></trkpt>
      <trkpt lat="49.418903" lon="31.329641"></trkpt>
      <trkpt lat="49.417645" lon="31.336718"></trkpt>
      <trkpt lat="49.416629" lon="31.341643"></trkpt>
      <trkpt lat="49.415977" lon="31.343461"></trkpt>
      <trkpt lat="49.415352" lon="31.344601"></trkpt>
      <trkpt lat="49.414727" lon="31.345443"></trkpt>
      <trkpt lat="49.413371" lon="31.346686"></trkpt>
      <trkpt lat="49.412718" lon="31.347041"></trkpt>
      <trkpt lat="49.411828" lon="31.347334"></trkpt>
      <trkpt lat="49.407678" lon="31.347969"></trkpt>
      <trkpt lat="49.40691" lon="31.347885"></trkpt>
      <trkpt lat="49.406045" lon="31.347577"></trkpt>
      <trkpt lat="49.404793" lon="31.346788"></trkpt>
      <trkpt lat="49.403956" lon="31.345992"></trkpt>
      <trkpt lat="49.400968" lon="31.341469"></trkpt>
      <trkpt lat="49.399594" lon="31.339994"></trkpt>
      <trkpt lat="49.398395" lon="31.33917"></trkpt>
      <trkpt lat="49.395427" lon="31.338048"></trkpt>
      <trkpt lat="49.394594" lon="31.337513"></trkpt>
      <trkpt lat="49.393802" lon="31.336804"></trkpt>
      <trkpt lat="49.39274" lon="31.335563"></trkpt>
      <trkpt lat="49.389176" lon="31.330278"></trkpt>
      <trkpt lat="49.387837" lon="31.329051"></trkpt>
      <trkpt lat="49.385967" lon="31.328003"></trkpt>
      <trkpt lat="49.385094" lon="31.327654"></trkpt>
      <trkpt lat="49.384186" lon="31.327515"></trkpt>
      <trkpt lat="49.381507" lon="31.327589"></trkpt>
      <trkpt lat="49.380191" lon="31.327341"></trkpt>
      <trkpt lat="49.379414" lon="31.326959"></trkpt>
      <trkpt lat="49.378675" lon="31.326397"></trkpt>
      <trkpt lat="49.376272" lon="31.32404"></trkpt>
      <trkpt lat="49.375015" lon="31.323374"></trkpt>
      <trkpt lat="49.374262" lon="31.323179"></trkpt>
      <trkpt lat="49.373134" lon="31.323127"></trkpt>
      <trkpt lat="49.371893" lon="31.323475"></trkpt>
      <trkpt lat="49.371314" lon="31.323819"></trkpt>
      <trkpt lat="49.370251" lon="31.324713"></trkpt>
      <trkpt lat="49.369582" lon="31.325552"></trkpt>
      <trkpt lat="49.366721" lon="31.330805"></trkpt>
      <trkpt lat="49.365329" lon="31.332588"></trkpt>
      <trkpt lat="49.363733" lon="31.333877"></trkpt>
      <trkpt lat="49.361647" lon="31.335137"></trkpt>
      <trkpt lat="49.360338" lon="31.335595"></trkpt>
      <trkpt lat="49.355003" lon="31.336903"></trkpt>
      <trkpt lat="49.35417" lon="31.337253"></trkpt>
      <trkpt lat="49.353342" lon="31.337787"></trkpt>
      <trkpt lat="49.352255" lon="31.338933"></trkpt>
      <trkpt lat="49.346952" lon="31.346201"></trkpt>
      <trkpt lat="49.345559" lon="31.348052"></trkpt>
      <trkpt lat="49.344993" lon="31.348621"></trkpt>
      <trkpt lat="49.344287" lon="31.349163"></trkpt>
      <trkpt lat="49.343501" lon="31.349576"></trkpt>
      <trkpt lat="49.342753" lon="31.349774"></trkpt>
      <trkpt lat="49.341987" lon="31.349823"></trkpt>
      <trkpt lat="49.340233" lon="31.349667"></trkpt>
      <trkpt lat="49.339233" lon="31.349774"></trkpt>
      <trkpt lat="49.338468" lon="31.35"></trkpt>
      <trkpt lat="49.33683" lon="31.350788"></trkpt>
      <trkpt lat="49.335912" lon="31.351467"></trkpt>
      <trkpt lat="49.335168" lon="31.352186"></trkpt>
      <trkpt lat="49.33432" lon="31.353258"></trkpt>
      <trkpt lat="49.331864" lon="31.357665"></trkpt>
      <trkpt lat="49.330597" lon="31.359605"></trkpt>
      <trkpt lat="49.318155" lon="31.373549"></trkpt>
      <trkpt lat="49.316417" lon="31.375971"></trkpt>
      <trkpt lat="49.315711" lon="31.377374"></trkpt>
      <trkpt lat="49.31149" lon="31.388299"></trkpt>
      <trkpt lat="49.310591" lon="31.390187"></trkpt>
      <trkpt lat="49.293284" lon="31.418349"></trkpt>
      <trkpt lat="49.292247" lon="31.419661"></trkpt>
      <trkpt lat="49.28948" lon="31.422151"></trkpt>
      <trkpt lat="49.288416" lon="31.423766"></trkpt>
      <trkpt lat="49.287769" lon="31.425359"></trkpt>
      <trkpt lat="49.286527" lon="31.430557"></trkpt>
      <trkpt lat="49.285991" lon="31.43236"></trkpt>
      <trkpt lat="49.28553" lon="31.433317"></trkpt>
      <trkpt lat="49.28438" lon="31.434991"></trkpt>
      <trkpt lat="49.283085" lon="31.436032"></trkpt>
      <trkpt lat="49.282418" lon="31.436319"></trkpt>
      <trkpt lat="49.281157" lon="31.436565"></trkpt>
      <trkpt lat="49.280494" lon="31.436506"></trkpt>
      <trkpt lat="49.27372" lon="31.434674"></trkpt>
      <trkpt lat="49.272675" lon="31.434532"></trkpt>
      <trkpt lat="49.266439" lon="31.432858"></trkpt>
      <trkpt lat="49.264711" lon="31.432741"></trkpt>
      <trkpt lat="49.262625" lon="31.433003"></trkpt>
      <trkpt lat="49.261033" lon="31.4335"></trkpt>
      <trkpt lat="49.259424" lon="31.434373"></trkpt>
      <trkpt lat="49.245173" lon="31.442497"></trkpt>
      <trkpt lat="49.243645" lon="31.443171"></trkpt>
      <trkpt lat="49.242797" lon="31.443334"></trkpt>
      <trkpt lat="49.241107" lon="31.443188"></trkpt>
      <trkpt lat="49.239469" lon="31.44257"></trkpt>
      <trkpt lat="49.231923" lon="31.436527"></trkpt>
      <trkpt lat="49.231245" lon="31.436174"></trkpt>
      <trkpt lat="49.230534" lon="31.435927"></trkpt>
      <trkpt lat="49.229404" lon="31.435824"></trkpt>
      <trkpt lat="49.227981" lon="31.436151"></trkpt>
      <trkpt lat="49.227005" lon="31.43674"></trkpt>
      <trkpt lat="49.226071" lon="31.437563"></trkpt>
      <trkpt lat="49.225177" lon="31.438617"></trkpt>
      <trkpt lat="49.22434" lon="31.439837"></trkpt>
      <trkpt lat="49.223551" lon="31.441771"></trkpt>
      <trkpt lat="49.222122" lon="31.445939"></trkpt>
      <trkpt lat="49.221169" lon="31.447472"></trkpt>
      <trkpt lat="49.220349" lon="31.448282"></trkpt>
      <trkpt lat="49.218179" lon="31.449889"></trkpt>
      <trkpt lat="49.2088" lon="31.456452"></trkpt>
      <trkpt lat="49.204679" lon="31.460766"></trkpt>
      <trkpt lat="49.20347" lon="31.46156"></trkpt>
      <trkpt lat="49.19977" lon="31.463539"></trkpt>
      <trkpt lat="49.198554" lon="31.464574"></trkpt>
      <trkpt lat="49.192298" lon="31.470996"></trkpt>
      <trkpt lat="49.191581" lon="31.471863"></trkpt>
      <trkpt lat="49.190917" lon="31.472923"></trkpt>
      <trkpt lat="49.189137" lon="31.476792"></trkpt>
      <trkpt lat="49.188458" lon="31.477701"></trkpt>
      <trkpt lat="49.186275" lon="31.47976"></trkpt>
      <trkpt lat="49.185447" lon="31.480734"></trkpt>
      <trkpt lat="49.184725" lon="31.481968"></trkpt>
      <trkpt lat="49.183392" lon="31.48488"></trkpt>
      <trkpt lat="49.182058" lon="31.486837"></trkpt>
      <trkpt lat="49.180674" lon="31.488143"></trkpt>
      <trkpt lat="49.17663" lon="31.490815"></trkpt>
      <trkpt lat="49.175492" lon="31.491799"></trkpt>
      <trkpt lat="49.174963" lon="31.492401"></trkpt>
      <trkpt lat="49.173492" lon="31.494592"></trkpt>
      <trkpt lat="49.160056" lon="31.517938"></trkpt>
      <trkpt lat="49.150829" lon="31.534271"></trkpt>
      <trkpt lat="49.150208" lon="31.535604"></trkpt>
      <trkpt lat="49.149684" lon="31.537077"></trkpt>
      <trkpt lat="49.148977" lon="31.540271"></trkpt>
      <trkpt lat="49.144334" lon="31.574225"></trkpt>
      <trkpt lat="49.144206" lon="31.576882"></trkpt>
      <trkpt lat="49.14464" lon="31.582543"></trkpt>
      <trkpt lat="49.145382" lon="31.586973"></trkpt>
      <trkpt lat="49.146031" lon="31.589477"></trkpt>
      <trkpt lat="49.147345" lon="31.592293"></trkpt>
      <trkpt lat="49.147861" lon="31.593802"></trkpt>
      <trkpt lat="49.148209" lon="31.595408"></trkpt>
      <trkpt lat="49.148334" lon="31.597435"></trkpt>
      <trkpt lat="49.148234" lon="31.598883"></trkpt>
      <trkpt lat="49.147219" lon="31.603898"></trkpt>
      <trkpt lat="49.14703" lon="31.605323"></trkpt>
      <trkpt lat="49.146832" lon="31.608129"></trkpt>
      <trkpt lat="49.146948" lon="31.610595"></trkpt>
      <trkpt lat="49.14714" lon="31.611921"></trkpt>
      <trkpt lat="49.149857" lon="31.623946"></trkpt>
      <trkpt lat="49.150131" lon="31.62571"></trkpt>
      <trkpt lat="49.150284" lon="31.628019"></trkpt>
      <trkpt lat="49.150431" lon="31.636141"></trkpt>
      <trkpt lat="49.150739" lon="31.638814"></trkpt>
      <trkpt lat="49.152795" lon="31.647403"></trkpt>
      <trkpt lat="49.153129" lon="31.648419"></trkpt>
      <trkpt lat="49.154104" lon="31.650278"></trkpt>
      <trkpt lat="49.154825" lon="31.651191"></trkpt>
      <trkpt lat="49.155487" lon="31.651768"></trkpt>
      <trkpt lat="49.15866" lon="31.653801"></trkpt>
      <trkpt lat="49.159736" lon="31.654952"></trkpt>
      <trkpt lat="49.164581" lon="31.66173"></trkpt>
      <trkpt lat="49.169469" lon="31.670219"></trkpt>
      <trkpt lat="49.170713" lon="31.672188"></trkpt>
      <trkpt lat="49.178645" lon="31.682341"></trkpt>
      <trkpt lat="49.180801" lon="31.684668"></trkpt>
      <trkpt lat="49.19265" lon="31.696751"></trkpt>
      <trkpt lat="49.194004" lon="31.697587"></trkpt>
      <trkpt lat="49.195285" lon="31.697948"></trkpt>
      <trkpt lat="49.196132" lon="31.697972"></trkpt>
      <trkpt lat="49.197581" lon="31.697579"></trkpt>
      <trkpt lat="49.201158" lon="31.695751"></trkpt>
      <trkpt lat="49.202385" lon="31.695468"></trkpt>
      <trkpt lat="49.203397" lon="31.695487"></trkpt>
      <trkpt lat="49.20796" lon="31.696656"></trkpt>
      <trkpt lat="49.209049" lon="31.697249"></trkpt>
      <trkpt lat="49.210486" lon="31.698542"></trkpt>
      <trkpt lat="49.211596" lon="31.700065"></trkpt>
      <trkpt lat="49.219708" lon="31.715347"></trkpt>
      <trkpt lat="49.220305" lon="31.716828"></trkpt>
      <trkpt lat="49.220865" lon="31.719022"></trkpt>
      <trkpt lat="49.221124" lon="31.721747"></trkpt>
      <trkpt lat="49.220986" lon="31.724459"></trkpt>
      <trkpt lat="49.219405" lon="31.733834"></trkpt>
      <trkpt lat="49.219249" lon="31.735156"></trkpt>
      <trkpt lat="49.219169" lon="31.737931"></trkpt>
      <trkpt lat="49.225344" lon="31.801983"></trkpt>
      <trkpt lat="49.225516" lon="31.805151"></trkpt>
      <trkpt lat="49.225381" lon="31.809345"></trkpt>
      <trkpt lat="49.225222" lon="31.810997"></trkpt>
      <trkpt lat="49.224742" lon="31.814059"></trkpt>
      <trkpt lat="49.224074" lon="31.817022"></trkpt>
      <trkpt lat="49.216905" lon="31.841711"></trkpt>
      <trkpt lat="49.216182" lon="31.844608"></trkpt>
      <trkpt lat="49.215931" lon="31.846488"></trkpt>
      <trkpt lat="49.215852" lon="31.849408"></trkpt>
      <trkpt lat="49.216405" lon="31.85474"></trkpt>
      <trkpt lat="49.216425" lon="31.856775"></trkpt>
      <trkpt lat="49.216241" lon="31.858627"></trkpt>
      <trkpt lat="49.215732" lon="31.860999"></trkpt>
      <trkpt lat="49.213322" lon="31.86869"></trkpt>
      <trkpt lat="49.212308" lon="31.871303"></trkpt>
      <trkpt lat="49.211416" lon="31.872663"></trkpt>
      <trkpt lat="49.209438" lon="31.874794"></trkpt>
      <trkpt lat="49.208843" lon="31.87584"></trkpt>
      <trkpt lat="49.208411" lon="31.876957"></trkpt>
      <trkpt lat="49.206792" lon="31.883009"></trkpt>
      <trkpt lat="49.204418" lon="31.889694"></trkpt>
      <trkpt lat="49.202988" lon="31.894858"></trkpt>
      <trkpt lat="49.202226" lon="31.899045"></trkpt>
      <trkpt lat="49.201145" lon="31.902272"></trkpt>
      <trkpt lat="49.200664" lon="31.903185"></trkpt>
      <trkpt lat="49.200017" lon="31.903896"></trkpt>
      <trkpt lat="49.199363" lon="31.904307"></trkpt>
      <trkpt lat="49.198384" lon="31.90447"></trkpt>
      <trkpt lat="49.196995" lon="31.904328"></trkpt>
      <trkpt lat="49.19555" lon="31.903642"></trkpt>
      <trkpt lat="49.191636" lon="31.90036"></trkpt>
      <trkpt lat="49.190748" lon="31.899756"></trkpt>
      <trkpt lat="49.189338" lon="31.899131"></trkpt>
      <trkpt lat="49.188447" lon="31.898939"></trkpt>
      <trkpt lat="49.186483" lon="31.898777"></trkpt>
      <trkpt lat="49.18244" lon="31.899394"></trkpt>
      <trkpt lat="49.18114" lon="31.899289"></trkpt>
      <trkpt lat="49.180042" lon="31.898905"></trkpt>
      <trkpt lat="49.179403" lon="31.898588"></trkpt>
      <trkpt lat="49.178052" lon="31.897597"></trkpt>
      <trkpt lat="49.174156" lon="31.893794"></trkpt>
      <trkpt lat="49.172606" lon="31.892836"></trkpt>
      <trkpt lat="49.171343" lon="31.892459"></trkpt>
      <trkpt lat="49.169766" lon="31.892356"></trkpt>
      <trkpt lat="49.168555" lon="31.892553"></trkpt>
      <trkpt lat="49.159842" lon="31.895705"></trkpt>
      <trkpt lat="49.157816" lon="31.896054"></trkpt>
      <trkpt lat="49.156446" lon="31.89591"></trkpt>
      <trkpt lat="49.138541" lon="31.891448"></trkpt>
      <trkpt lat="49.136931" lon="31.891135"></trkpt>
      <trkpt lat="49.135747" lon="31.89103"></trkpt>
      <trkpt lat="49.133902" lon="31.891092"></trkpt>
      <trkpt lat="49.124331" lon="31.892716"></trkpt>
      <trkpt lat="49.122327" lon="31.892571"></trkpt>
      <trkpt lat="49.118824" lon="31.891125"></trkpt>
      <trkpt lat="49.11243" lon="31.888121"></trkpt>
      <trkpt lat="49.111357" lon="31.887506"></trkpt>
      <trkpt lat="49.109574" lon="31.886248"></trkpt>
      <trkpt lat="49.108484" lon="31.885157"></trkpt>
      <trkpt lat="49.098921" lon="31.871943"></trkpt>
      <trkpt lat="49.096991" lon="31.869122"></trkpt>
      <trkpt lat="49.093327" lon="31.862972"></trkpt>
      <trkpt lat="49.09229" lon="31.861554"></trkpt>
      <trkpt lat="49.08724" lon="31.857179"></trkpt>
      <trkpt lat="49.085144" lon="31.855865"></trkpt>
      <trkpt lat="49.076014" lon="31.852047"></trkpt>
      <trkpt lat="49.071335" lon="31.850206"></trkpt>
      <trkpt lat="49.069997" lon="31.849547"></trkpt>
      <trkpt lat="49.06704" lon="31.847778"></trkpt>
      <trkpt lat="49.065003" lon="31.846298"></trkpt>
      <trkpt lat="49.063598" lon="31.844493"></trkpt>
      <trkpt lat="49.062971" lon="31.843339"></trkpt>
      <trkpt lat="49.062554" lon="31.84227"></trkpt>
      <trkpt lat="49.061866" lon="31.83981"></trkpt>
      <trkpt lat="49.05616" lon="31.816556"></trkpt>
      <trkpt lat="49.055624" lon="31.815057"></trkpt>
      <trkpt lat="49.054971" lon="31.813748"></trkpt>
      <trkpt lat="49.054076" lon="31.812465"></trkpt>
      <trkpt lat="49.045437" lon="31.803042"></trkpt>
      <trkpt lat="49.043712" lon="31.801391"></trkpt>
      <trkpt lat="49.041685" lon="31.800109"></trkpt>
      <trkpt lat="49.040452" lon="31.79961"></trkpt>
      <trkpt lat="49.027681" lon="31.795163"></trkpt>
      <trkpt lat="49.026489" lon="31.79438"></trkpt>
      <trkpt lat="49.025664" lon="31.793585"></trkpt>
      <trkpt lat="49.024398" lon="31.791815"></trkpt>
      <trkpt lat="49.02357" lon="31.790165"></trkpt>
      <trkpt lat="49.022992" lon="31.788376"></trkpt>
      <trkpt lat="49.006609" lon="31.725125"></trkpt>
      <trkpt lat="49.004818" lon="31.718676"></trkpt>
      <trkpt lat="49.003336" lon="31.714417"></trkpt>
      <trkpt lat="48.997451" lon="31.701072"></trkpt>
      <trkpt lat="48.994155" lon="31.693297"></trkpt>
      <trkpt lat="48.992096" lon="31.689678"></trkpt>
      <trkpt lat="48.985237" lon="31.680455"></trkpt>
      <trkpt lat="48.984295" lon="31.679238"></trkpt>
      <trkpt lat="48.983262" lon="31.678174"></trkpt>
      <trkpt lat="48.981291" lon="31.676825"></trkpt>
      <trkpt lat="48.980019" lon="31.676288"></trkpt>
      <trkpt lat="48.975624" lon="31.675045"></trkpt>
      <trkpt lat="48.974753" lon="31.674661"></trkpt>
      <trkpt lat="48.973762" lon="31.673973"></trkpt>
      <trkpt lat="48.972794" lon="31.673041"></trkpt>
      <trkpt lat="48.970837" lon="31.670577"></trkpt>
      <trkpt lat="48.967003" lon="31.664529"></trkpt>
      <trkpt lat="48.965187" lon="31.663167"></trkpt>
      <trkpt lat="48.961484" lon="31.661195"></trkpt>
      <trkpt lat="48.960015" lon="31.660764"></trkpt>
      <trkpt lat="48.958549" lon="31.660815"></trkpt>
      <trkpt lat="48.957794" lon="31.661013"></trkpt>
      <trkpt lat="48.956801" lon="31.661467"></trkpt>
      <trkpt lat="48.955912" lon="31.662015"></trkpt>
      <trkpt lat="48.955043" lon="31.662784"></trkpt>
      <trkpt lat="48.954184" lon="31.663868"></trkpt>
      <trkpt lat="48.951531" lon="31.668734"></trkpt>
      <trkpt lat="48.950205" lon="31.67058"></trkpt>
      <trkpt lat="48.949414" lon="31.67133"></trkpt>
      <trkpt lat="48.948623" lon="31.671851"></trkpt>
      <trkpt lat="48.94284" lon="31.675422"></trkpt>
      <trkpt lat="48.940909" lon="31.677291"></trkpt>
      <trkpt lat="48.93075" lon="31.691672"></trkpt>
      <trkpt lat="48.928022" lon="31.695722"></trkpt>
      <trkpt lat="48.926096" lon="31.69826"></trkpt>
      <trkpt lat="48.924951" lon="31.699274"></trkpt>
      <trkpt lat="48.923531" lon="31.700059"></trkpt>
      <trkpt lat="48.921963" lon="31.7005"></trkpt>
      <trkpt lat="48.920913" lon="31.70055"></trkpt>
      <trkpt lat="48.91888" lon="31.700242"></trkpt>
      <trkpt lat="48.917584" lon="31.699726"></trkpt>
      <trkpt lat="48.908671" lon="31.697004"></trkpt>
      <trkpt lat="48.90784" lon="31.69666"></trkpt>
      <trkpt lat="48.854586" lon="31.667214"></trkpt>
      <trkpt lat="48.850371" lon="31.665873"></trkpt>
      <trkpt lat="48.842966" lon="31.662502"></trkpt>
      <trkpt lat="48.841701" lon="31.662108"></trkpt>
      <trkpt lat="48.840324" lon="31.662078"></trkpt>
      <trkpt lat="48.837464" lon="31.662723"></trkpt>
      <trkpt lat="48.836692" lon="31.663007"></trkpt>
      <trkpt lat="48.835147" lon="31.664027"></trkpt>
      <trkpt lat="48.833694" lon="31.665594"></trkpt>
      <trkpt lat="48.830513" lon="31.669534"></trkpt>
      <trkpt lat="48.827018" lon="31.675199"></trkpt>
      <trkpt lat="48.825718" lon="31.676504"></trkpt>
      <trkpt lat="48.824196" lon="31.677555"></trkpt>
      <trkpt lat="48.822728" lon="31.678096"></trkpt>
      <trkpt lat="48.821646" lon="31.678203"></trkpt>
      <trkpt lat="48.820644" lon="31.678122"></trkpt>
      <trkpt lat="48.817221" lon="31.676796"></trkpt>
      <trkpt lat="48.815582" lon="31.676596"></trkpt>
      <trkpt lat="48.810672" lon="31.677305"></trkpt>
      <trkpt lat="48.803609" lon="31.679951"></trkpt>
      <trkpt lat="48.802998" lon="31.680096"></trkpt>
      <trkpt lat="48.801993" lon="31.680115"></trkpt>
      <trkpt lat="48.800467" lon="31.679817"></trkpt>
      <trkpt lat="48.790201" lon="31.676981"></trkpt>
      <trkpt lat="48.785857" lon="31.675665"></trkpt>
      <trkpt lat="48.785131" lon="31.67532"></trkpt>
      <trkpt lat="48.783972" lon="31.674546"></trkpt>
      <trkpt lat="48.776866" lon="31.669544"></trkpt>
      <trkpt lat="48.775746" lon="31.66888"></trkpt>
      <trkpt lat="48.773482" lon="31.668131"></trkpt>
      <trkpt lat="48.770738" lon="31.667454"></trkpt>
      <trkpt lat="48.764824" lon="31.667394"></trkpt>
      <trkpt lat="48.763594" lon="31.66764"></trkpt>
      <trkpt lat="48.762529" lon="31.668251"></trkpt>
      <trkpt lat="48.761947" lon="31.668771"></trkpt>
      <trkpt lat="48.760085" lon="31.671047"></trkpt>
      <trkpt lat="48.758459" lon="31.672471"></trkpt>
      <trkpt lat="48.757388" lon="31.672874"></trkpt>
      <trkpt lat="48.756264" lon="31.672952"></trkpt>
      <trkpt lat="48.755789" lon="31.672941"></trkpt>
      <trkpt lat="48.754725" lon="31.672586"></trkpt>
      <trkpt lat="48.753682" lon="31.671936"></trkpt>
      <trkpt lat="48.753192" lon="31.67146"></trkpt>
      <trkpt lat="48.752236" lon="31.670218"></trkpt>
      <trkpt lat="48.751642" lon="31.669095"></trkpt>
      <trkpt lat="48.7509" lon="31.666744"></trkpt>
      <trkpt lat="48.750219" lon="31.662986"></trkpt>
      <trkpt lat="48.749844" lon="31.661652"></trkpt>
      <trkpt lat="48.749405" lon="31.66041"></trkpt>
      <trkpt lat="48.746981" lon="31.655784"></trkpt>
      <trkpt lat="48.746288" lon="31.654685"></trkpt>
      <trkpt lat="48.74502" lon="31.653332"></trkpt>
      <trkpt lat="48.743871" lon="31.652662"></trkpt>
      <trkpt lat="48.743346" lon="31.652518"></trkpt>
      <trkpt lat="48.74232" lon="31.652321"></trkpt>
      <trkpt lat="48.740838" lon="31.652212"></trkpt>
      <trkpt lat="48.739182" lon="31.652362"></trkpt>
      <trkpt lat="48.736425" lon="31.65358"></trkpt>
      <trkpt lat="48.732912" lon="31.655957"></trkpt>
      <trkpt lat="48.73208" lon="31.656325"></trkpt>
      <trkpt lat="48.731212" lon="31.656505"></trkpt>
      <trkpt lat="48.730063" lon="31.656396"></trkpt>
      <trkpt lat="48.728987" lon="31.656148"></trkpt>
      <trkpt lat="48.723352" lon="31.654304"></trkpt>
      <trkpt lat="48.721276" lon="31.654213"></trkpt>
      <trkpt lat="48.714751" lon="31.6535"></trkpt>
      <trkpt lat="48.712727" lon="31.653543"></trkpt>
      <trkpt lat="48.711475" lon="31.653916"></trkpt>
      <trkpt lat="48.709997" lon="31.654591"></trkpt>
      <trkpt lat="48.708347" lon="31.65592"></trkpt>
      <trkpt lat="48.705513" lon="31.658684"></trkpt>
      <trkpt lat="48.70403" lon="31.659506"></trkpt>
      <trkpt lat="48.702932" lon="31.659701"></trkpt>
      <trkpt lat="48.70241" lon="31.659701"></trkpt>
      <trkpt lat="48.701347" lon="31.659482"></trkpt>
      <trkpt lat="48.700298" lon="31.65888"></trkpt>
      <trkpt lat="48.69902" lon="31.657663"></trkpt>
      <trkpt lat="48.69674" lon="31.654941"></trkpt>
      <trkpt lat="48.695418" lon="31.653659"></trkpt>
      <trkpt lat="48.693793" lon="31.652462"></trkpt>
      <trkpt lat="48.688517" lon="31.649531"></trkpt>
      <trkpt lat="48.683139" lon="31.646735"></trkpt>
      <trkpt lat="48.682042" lon="31.646429"></trkpt>
      <trkpt lat="48.680137" lon="31.646462"></trkpt>
      <trkpt lat="48.679032" lon="31.646826"></trkpt>
      <trkpt lat="48.675518" lon="31.64893"></trkpt>
      <trkpt lat="48.666193" lon="31.652855"></trkpt>
      <trkpt lat="48.665243" lon="31.653072"></trkpt>
      <trkpt lat="48.664442" lon="31.653052"></trkpt>
      <trkpt lat="48.663598" lon="31.652847"></trkpt>
      <trkpt lat="48.662716" lon="31.652452"></trkpt>
      <trkpt lat="48.661144" lon="31.650944"></trkpt>
      <trkpt lat="48.660086" lon="31.648968"></trkpt>
      <trkpt lat="48.659359" lon="31.646719"></trkpt>
      <trkpt lat="48.65888" lon="31.640321"></trkpt>
      <trkpt lat="48.658606" lon="31.639083"></trkpt>
      <trkpt lat="48.657986" lon="31.637555"></trkpt>
      <trkpt lat="48.657256" lon="31.63633"></trkpt>
      <trkpt lat="48.655919" lon="31.634943"></trkpt>
      <trkpt lat="48.654946" lon="31.634321"></trkpt>
      <trkpt lat="48.653693" lon="31.634"></trkpt>
      <trkpt lat="48.650157" lon="31.633815"></trkpt>
      <trkpt lat="48.649254" lon="31.633868"></trkpt>
      <trkpt lat="48.648218" lon="31.634254"></trkpt>
      <trkpt lat="48.647165" lon="31.635015"></trkpt>
      <trkpt lat="48.646398" lon="31.635815"></trkpt>
      <trkpt lat="48.645353" lon="31.637526"></trkpt>
      <trkpt lat="48.64356" lon="31.643268"></trkpt>
      <trkpt lat="48.642592" lon="31.64517"></trkpt>
      <trkpt lat="48.641327" lon="31.646457"></trkpt>
      <trkpt lat="48.64021" lon="31.647275"></trkpt>
      <trkpt lat="48.63927" lon="31.647694"></trkpt>
      <trkpt lat="48.638117" lon="31.647953"></trkpt>
      <trkpt lat="48.636718" lon="31.648014"></trkpt>
      <trkpt lat="48.635073" lon="31.64768"></trkpt>
      <trkpt lat="48.633728" lon="31.647115"></trkpt>
      <trkpt lat="48.630521" lon="31.645349"></trkpt>
      <trkpt lat="48.629703" lon="31.64506"></trkpt>
      <trkpt lat="48.628842" lon="31.644958"></trkpt>
      <trkpt lat="48.627904" lon="31.645041"></trkpt>
      <trkpt lat="48.626994" lon="31.645402"></trkpt>
      <trkpt lat="48.624005" lon="31.647333"></trkpt>
      <trkpt lat="48.623042" lon="31.64767"></trkpt>
      <trkpt lat="48.621747" lon="31.647835"></trkpt>
      <trkpt lat="48.616017" lon="31.646718"></trkpt>
      <trkpt lat="48.614839" lon="31.646251"></trkpt>
      <trkpt lat="48.613072" lon="31.645169"></trkpt>
      <trkpt lat="48.611914" lon="31.644614"></trkpt>
      <trkpt lat="48.610571" lon="31.644344"></trkpt>
      <trkpt lat="48.609804" lon="31.644336"></trkpt>
      <trkpt lat="48.594014" lon="31.645402"></trkpt>
      <trkpt lat="48.592781" lon="31.645827"></trkpt>
      <trkpt lat="48.588183" lon="31.648239"></trkpt>
      <trkpt lat="48.586529" lon="31.648851"></trkpt>
      <trkpt lat="48.581865" lon="31.64971"></trkpt>
      <trkpt lat="48.580717" lon="31.649815"></trkpt>
      <trkpt lat="48.579587" lon="31.649633"></trkpt>
      <trkpt lat="48.57822" lon="31.649236"></trkpt>
      <trkpt lat="48.564709" lon="31.644101"></trkpt>
      <trkpt lat="48.560699" lon="31.642325"></trkpt>
      <trkpt lat="48.555966" lon="31.639582"></trkpt>
      <trkpt lat="48.545935" lon="31.63332"></trkpt>
      <trkpt lat="48.544063" lon="31.632103"></trkpt>
      <trkpt lat="48.54311" lon="31.631286"></trkpt>
      <trkpt lat="48.53872" lon="31.625943"></trkpt>
      <trkpt lat="48.533087" lon="31.618762"></trkpt>
      <trkpt lat="48.532427" lon="31.61807"></trkpt>
      <trkpt lat="48.528886" lon="31.615211"></trkpt>
      <trkpt lat="48.502735" lon="31.594856"></trkpt>
      <trkpt lat="48.501487" lon="31.593746"></trkpt>
      <trkpt lat="48.500779" lon="31.592899"></trkpt>
      <trkpt lat="48.499865" lon="31.591435"></trkpt>
      <trkpt lat="48.491244" lon="31.574121"></trkpt>
      <trkpt lat="48.482043" lon="31.561138"></trkpt>
      <trkpt lat="48.457925" lon="31.538777"></trkpt>
      <trkpt lat="48.456538" lon="31.537534"></trkpt>
      <trkpt lat="48.455072" lon="31.536588"></trkpt>
      <trkpt lat="48.453755" lon="31.536212"></trkpt>
      <trkpt lat="48.44934" lon="31.536024"></trkpt>
      <trkpt lat="48.445155" lon="31.535648"></trkpt>
      <trkpt lat="48.443592" lon="31.535915"></trkpt>
      <trkpt lat="48.440275" lon="31.537143"></trkpt>
      <trkpt lat="48.439259" lon="31.537236"></trkpt>
      <trkpt lat="48.438248" lon="31.537022"></trkpt>
      <trkpt lat="48.437583" lon="31.536747"></trkpt>
      <trkpt lat="48.436371" lon="31.535866"></trkpt>
      <trkpt lat="48.435461" lon="31.534785"></trkpt>
      <trkpt lat="48.434058" lon="31.532606"></trkpt>
      <trkpt lat="48.433062" lon="31.531584"></trkpt>
      <trkpt lat="48.431968" lon="31.530955"></trkpt>
      <trkpt lat="48.431386" lon="31.530751"></trkpt>
      <trkpt lat="48.428611" lon="31.530291"></trkpt>
      <trkpt lat="48.428069" lon="31.530097"></trkpt>
      <trkpt lat="48.426793" lon="31.529255"></trkpt>
      <trkpt lat="48.425556" lon="31.528002"></trkpt>
      <trkpt lat="48.422786" lon="31.526649"></trkpt>
      <trkpt lat="48.421565" lon="31.525525"></trkpt>
      <trkpt lat="48.420692" lon="31.524167"></trkpt>
      <trkpt lat="48.420114" lon="31.522842"></trkpt>
      <trkpt lat="48.419051" lon="31.51847"></trkpt>
      <trkpt lat="48.418331" lon="31.516783"></trkpt>
      <trkpt lat="48.417837" lon="31.515995"></trkpt>
      <trkpt lat="48.417274" lon="31.515279"></trkpt>
      <trkpt lat="48.415916" lon="31.514187"></trkpt>
      <trkpt lat="48.415053" lon="31.513831"></trkpt>
      <trkpt lat="48.412128" lon="31.513014"></trkpt>
      <trkpt lat="48.411131" lon="31.512371"></trkpt>
      <trkpt lat="48.410322" lon="31.511531"></trkpt>
      <trkpt lat="48.409756" lon="31.510704"></trkpt>
      <trkpt lat="48.408904" lon="31.508834"></trkpt>
      <trkpt lat="48.406932" lon="31.502497"></trkpt>
      <trkpt lat="48.406603" lon="31.50177"></trkpt>
      <trkpt lat="48.406038" lon="31.50093"></trkpt>
      <trkpt lat="48.405084" lon="31.5001"></trkpt>
      <trkpt lat="48.402956" lon="31.498582"></trkpt>
      <trkpt lat="48.401349" lon="31.497843"></trkpt>
      <trkpt lat="48.399646" lon="31.497388"></trkpt>
      <trkpt lat="48.398613" lon="31.497406"></trkpt>
      <trkpt lat="48.396649" lon="31.497657"></trkpt>
      <trkpt lat="48.394893" lon="31.498067"></trkpt>
      <trkpt lat="48.394013" lon="31.498125"></trkpt>
      <trkpt lat="48.393125" lon="31.498031"></trkpt>
      <trkpt lat="48.391821" lon="31.497457"></trkpt>
      <trkpt lat="48.390677" lon="31.496461"></trkpt>
      <trkpt lat="48.385151" lon="31.489901"></trkpt>
      <trkpt lat="48.384145" lon="31.48915"></trkpt>
      <trkpt lat="48.383218" lon="31.488806"></trkpt>
      <trkpt lat="48.381847" lon="31.488587"></trkpt>
      <trkpt lat="48.38095" lon="31.48878"></trkpt>
      <trkpt lat="48.37869" lon="31.489625"></trkpt>
      <trkpt lat="48.377387" lon="31.489617"></trkpt>
      <trkpt lat="48.376606" lon="31.48944"></trkpt>
      <trkpt lat="48.375728" lon="31.489009"></trkpt>
      <trkpt lat="48.373273" lon="31.487389"></trkpt>
      <trkpt lat="48.372049" lon="31.486746"></trkpt>
      <trkpt lat="48.370604" lon="31.486377"></trkpt>
      <trkpt lat="48.368356" lon="31.486027"></trkpt>
      <trkpt lat="48.367577" lon="31.485709"></trkpt>
      <trkpt lat="48.365698" lon="31.484338"></trkpt>
      <trkpt lat="48.364826" lon="31.483883"></trkpt>
      <trkpt lat="48.363553" lon="31.483624"></trkpt>
      <trkpt lat="48.361322" lon="31.483691"></trkpt>
      <trkpt lat="48.36031" lon="31.48348"></trkpt>
      <trkpt lat="48.35975" lon="31.483245"></trkpt>
      <trkpt lat="48.356699" lon="31.48165"></trkpt>
      <trkpt lat="48.353948" lon="31.480564"></trkpt>
      <trkpt lat="48.351181" lon="31.479259"></trkpt>
      <trkpt lat="48.348671" lon="31.477147"></trkpt>
      <trkpt lat="48.347951" lon="31.476685"></trkpt>
      <trkpt lat="48.346066" lon="31.475747"></trkpt>
      <trkpt lat="48.345008" lon="31.47539"></trkpt>
      <trkpt lat="48.344325" lon="31.475328"></trkpt>
      <trkpt lat="48.343389" lon="31.475459"></trkpt>
      <trkpt lat="48.342283" lon="31.475931"></trkpt>
      <trkpt lat="48.341689" lon="31.476333"></trkpt>
      <trkpt lat="48.338857" lon="31.479189"></trkpt>
      <trkpt lat="48.335541" lon="31.481948"></trkpt>
      <trkpt lat="48.33246" lon="31.482635"></trkpt>
      <trkpt lat="48.327362" lon="31.485171"></trkpt>
      <trkpt lat="48.326101" lon="31.485635"></trkpt>
      <trkpt lat="48.325397" lon="31.485721"></trkpt>
      <trkpt lat="48.324593" lon="31.485648"></trkpt>
      <trkpt lat="48.323735" lon="31.485359"></trkpt>
      <trkpt lat="48.322637" lon="31.484717"></trkpt>
      <trkpt lat="48.319877" lon="31.482406"></trkpt>
      <trkpt lat="48.311227" lon="31.472412"></trkpt>
      <trkpt lat="48.305849" lon="31.46332"></trkpt>
      <trkpt lat="48.304807" lon="31.461926"></trkpt>
      <trkpt lat="48.301647" lon="31.459192"></trkpt>
      <trkpt lat="48.298478" lon="31.45677"></trkpt>
      <trkpt lat="48.29767" lon="31.456357"></trkpt>
      <trkpt lat="48.296608" lon="31.456022"></trkpt>
      <trkpt lat="48.295493" lon="31.456068"></trkpt>
      <trkpt lat="48.294372" lon="31.456432"></trkpt>
      <trkpt lat="48.292926" lon="31.457509"></trkpt>
      <trkpt lat="48.292213" lon="31.458292"></trkpt>
      <trkpt lat="48.291147" lon="31.459706"></trkpt>
      <trkpt lat="48.290371" lon="31.461113"></trkpt>
      <trkpt lat="48.287046" lon="31.467918"></trkpt>
      <trkpt lat="48.286463" lon="31.468899"></trkpt>
      <trkpt lat="48.2857" lon="31.469779"></trkpt>
      <trkpt lat="48.285146" lon="31.470234"></trkpt>
      <trkpt lat="48.284176" lon="31.470778"></trkpt>
      <trkpt lat="48.283575" lon="31.470997"></trkpt>
      <trkpt lat="48.282709" lon="31.471086"></trkpt>
      <trkpt lat="48.28181" lon="31.471021"></trkpt>
      <trkpt lat="48.28109" lon="31.470813"></trkpt>
      <trkpt lat="48.279828" lon="31.47006"></trkpt>
      <trkpt lat="48.279179" lon="31.469434"></trkpt>
      <trkpt lat="48.278359" lon="31.468337"></trkpt>
      <trkpt lat="48.276906" lon="31.465324"></trkpt>
      <trkpt lat="48.275733" lon="31.463401"></trkpt>
      <trkpt lat="48.272627" lon="31.460272"></trkpt>
      <trkpt lat="48.271304" lon="31.458292"></trkpt>
      <trkpt lat="48.270434" lon="31.45628"></trkpt>
      <trkpt lat="48.265075" lon="31.437686"></trkpt>
      <trkpt lat="48.264692" lon="31.436708"></trkpt>
      <trkpt lat="48.263503" lon="31.434524"></trkpt>
      <trkpt lat="48.260066" lon="31.430636"></trkpt>
      <trkpt lat="48.258981" lon="31.428738"></trkpt>
      <trkpt lat="48.257624" lon="31.425553"></trkpt>
      <trkpt lat="48.256919" lon="31.424503"></trkpt>
      <trkpt lat="48.256387" lon="31.423777"></trkpt>
      <trkpt lat="48.253622" lon="31.420768"></trkpt>
      <trkpt lat="48.243567" lon="31.410418"></trkpt>
      <trkpt lat="48.23493" lon="31.404145"></trkpt>
      <trkpt lat="48.231341" lon="31.401711"></trkpt>
      <trkpt lat="48.230117" lon="31.40113"></trkpt>
      <trkpt lat="48.229192" lon="31.40097"></trkpt>
      <trkpt lat="48.228456" lon="31.400989"></trkpt>
      <trkpt lat="48.227537" lon="31.401257"></trkpt>
      <trkpt lat="48.226582" lon="31.401758"></trkpt>
      <trkpt lat="48.216231" lon="31.410626"></trkpt>
      <trkpt lat="48.210886" lon="31.414549"></trkpt>
      <trkpt lat="48.210218" lon="31.415185"></trkpt>
      <trkpt lat="48.208966" lon="31.415785"></trkpt>
      <trkpt lat="48.201915" lon="31.418433"></trkpt>
      <trkpt lat="48.199854" lon="31.419454"></trkpt>
      <trkpt lat="48.197707" lon="31.420869"></trkpt>
      <trkpt lat="48.17616" lon="31.436074"></trkpt>
      <trkpt lat="48.173789" lon="31.437972"></trkpt>
      <trkpt lat="48.154693" lon="31.45724"></trkpt>
      <trkpt lat="48.152772" lon="31.458827"></trkpt>
      <trkpt lat="48.151611" lon="31.459526"></trkpt>
      <trkpt lat="48.150408" lon="31.460018"></trkpt>
      <trkpt lat="48.137924" lon="31.463584"></trkpt>
      <trkpt lat="48.135404" lon="31.46465"></trkpt>
      <trkpt lat="48.133721" lon="31.465706"></trkpt>
      <trkpt lat="48.125444" lon="31.472462"></trkpt>
      <trkpt lat="48.120292" lon="31.47643"></trkpt>
      <trkpt lat="48.11868" lon="31.477403"></trkpt>
      <trkpt lat="48.117799" lon="31.477707"></trkpt>
      <trkpt lat="48.11175" lon="31.479184"></trkpt>
      <trkpt lat="48.098353" lon="31.482707"></trkpt>
      <trkpt lat="48.09722" lon="31.482875"></trkpt>
      <trkpt lat="48.094746" lon="31.482771"></trkpt>
      <trkpt lat="48.092757" lon="31.482545"></trkpt>
      <trkpt lat="48.09098" lon="31.482227"></trkpt>
      <trkpt lat="48.089378" lon="31.481556"></trkpt>
      <trkpt lat="48.08658" lon="31.479797"></trkpt>
      <trkpt lat="48.085547" lon="31.478832"></trkpt>
      <trkpt lat="48.082313" lon="31.47505"></trkpt>
      <trkpt lat="48.081113" lon="31.473805"></trkpt>
      <trkpt lat="48.080312" lon="31.473186"></trkpt>
      <trkpt lat="48.078834" lon="31.472385"></trkpt>
      <trkpt lat="48.07741" lon="31.471996"></trkpt>
      <trkpt lat="48.056686" lon="31.468643"></trkpt>
      <trkpt lat="48.054701" lon="31.467977"></trkpt>
      <trkpt lat="48.053242" lon="31.46702"></trkpt>
      <trkpt lat="48.045488" lon="31.46056"></trkpt>
      <trkpt lat="48.043361" lon="31.458649"></trkpt>
      <trkpt lat="48.012008" lon="31.429075"></trkpt>
      <trkpt lat="48.010479" lon="31.427518"></trkpt>
      <trkpt lat="48.009673" lon="31.426503"></trkpt>
      <trkpt lat="48.008673" lon="31.424955"></trkpt>
      <trkpt lat="48.007542" lon="31.422739"></trkpt>
      <trkpt lat="48.007077" lon="31.42159"></trkpt>
      <trkpt lat="48.004813" lon="31.415669"></trkpt>
      <trkpt lat="47.963044" lon="31.310794"></trkpt>
      <trkpt lat="47.96219" lon="31.308874"></trkpt>
      <trkpt lat="47.960863" lon="31.306604"></trkpt>
      <trkpt lat="47.959052" lon="31.304361"></trkpt>
      <trkpt lat="47.948439" lon="31.292761"></trkpt>
      <trkpt lat="47.947342" lon="31.291702"></trkpt>
      <trkpt lat="47.946452" lon="31.291154"></trkpt>
      <trkpt lat="47.936472" lon="31.286196"></trkpt>
      <trkpt lat="47.934992" lon="31.285213"></trkpt>
      <trkpt lat="47.934272" lon="31.284567"></trkpt>
      <trkpt lat="47.93303" lon="31.283305"></trkpt>
      <trkpt lat="47.929869" lon="31.278042"></trkpt>
      <trkpt lat="47.928911" lon="31.277"></trkpt>
      <trkpt lat="47.928118" lon="31.276442"></trkpt>
      <trkpt lat="47.926892" lon="31.275931"></trkpt>
      <trkpt lat="47.917793" lon="31.273067"></trkpt>
      <trkpt lat="47.915067" lon="31.272478"></trkpt>
      <trkpt lat="47.913823" lon="31.27241"></trkpt>
      <trkpt lat="47.911908" lon="31.272583"></trkpt>
      <trkpt lat="47.903281" lon="31.274707"></trkpt>
      <trkpt lat="47.878523" lon="31.281264"></trkpt>
      <trkpt lat="47.87651" lon="31.281576"></trkpt>
      <trkpt lat="47.873989" lon="31.281523"></trkpt>
      <trkpt lat="47.872208" lon="31.281163"></trkpt>
      <trkpt lat="47.87045" lon="31.280569"></trkpt>
      <trkpt lat="47.850125" lon="31.270382"></trkpt>
      <trkpt lat="47.84803" lon="31.26958"></trkpt>
      <trkpt lat="47.796106" lon="31.256745"></trkpt>
      <trkpt lat="47.79419" lon="31.256418"></trkpt>
      <trkpt lat="47.793158" lon="31.256462"></trkpt>
      <trkpt lat="47.790817" lon="31.257083"></trkpt>
      <trkpt lat="47.782542" lon="31.260165"></trkpt>
      <trkpt lat="47.781437" lon="31.260832"></trkpt>
      <trkpt lat="47.780261" lon="31.261763"></trkpt>
      <trkpt lat="47.751073" lon="31.291211"></trkpt>
      <trkpt lat="47.748625" lon="31.293114"></trkpt>
      <trkpt lat="47.746323" lon="31.294099"></trkpt>
      <trkpt lat="47.712489" lon="31.302535"></trkpt>
      <trkpt lat="47.708751" lon="31.303716"></trkpt>
      <trkpt lat="47.707034" lon="31.30444"></trkpt>
      <trkpt lat="47.699044" lon="31.310328"></trkpt>
      <trkpt lat="47.69778" lon="31.310951"></trkpt>
      <trkpt lat="47.680609" lon="31.315395"></trkpt>
      <trkpt lat="47.679472" lon="31.315452"></trkpt>
      <trkpt lat="47.678286" lon="31.315182"></trkpt>
      <trkpt lat="47.676111" lon="31.314183"></trkpt>
      <trkpt lat="47.67436" lon="31.313792"></trkpt>
      <trkpt lat="47.669857" lon="31.314256"></trkpt>
      <trkpt lat="47.669161" lon="31.314181"></trkpt>
      <trkpt lat="47.668146" lon="31.313833"></trkpt>
      <trkpt lat="47.667567" lon="31.313484"></trkpt>
      <trkpt lat="47.666661" lon="31.312708"></trkpt>
      <trkpt lat="47.66428" lon="31.310019"></trkpt>
      <trkpt lat="47.663198" lon="31.309214"></trkpt>
      <trkpt lat="47.655456" lon="31.304714"></trkpt>
      <trkpt lat="47.649862" lon="31.301678"></trkpt>
      <trkpt lat="47.648034" lon="31.300871"></trkpt>
      <trkpt lat="47.646661" lon="31.300526"></trkpt>
      <trkpt lat="47.645603" lon="31.300358"></trkpt>
      <trkpt lat="47.644256" lon="31.300333"></trkpt>
      <trkpt lat="47.621903" lon="31.30356"></trkpt>
      <trkpt lat="47.619818" lon="31.304442"></trkpt>
      <trkpt lat="47.606351" lon="31.312711"></trkpt>
      <trkpt lat="47.603906" lon="31.314005"></trkpt>
      <trkpt lat="47.602279" lon="31.314544"></trkpt>
      <trkpt lat="47.601069" lon="31.314775"></trkpt>
      <trkpt lat="47.589248" lon="31.31503"></trkpt>
      <trkpt lat="47.588078" lon="31.315258"></trkpt>
      <trkpt lat="47.586419" lon="31.31594"></trkpt>
      <trkpt lat="47.572122" lon="31.324173"></trkpt>
      <trkpt lat="47.570683" lon="31.324792"></trkpt>
      <trkpt lat="47.569326" lon="31.325061"></trkpt>
      <trkpt lat="47.568008" lon="31.325092"></trkpt>
      <trkpt lat="47.556325" lon="31.324655"></trkpt>
      <trkpt lat="47.555506" lon="31.324811"></trkpt>
      <trkpt lat="47.554757" lon="31.325171"></trkpt>
      <trkpt lat="47.553794" lon="31.325893"></trkpt>
      <trkpt lat="47.552955" lon="31.326831"></trkpt>
      <trkpt lat="47.5524" lon="31.327655"></trkpt>
      <trkpt lat="47.55182" lon="31.328882"></trkpt>
      <trkpt lat="47.544134" lon="31.350325"></trkpt>
      <trkpt lat="47.543181" lon="31.352484"></trkpt>
      <trkpt lat="47.541903" lon="31.354283"></trkpt>
      <trkpt lat="47.540631" lon="31.355347"></trkpt>
      <trkpt lat="47.539343" lon="31.355956"></trkpt>
      <trkpt lat="47.532332" lon="31.356945"></trkpt>
      <trkpt lat="47.530976" lon="31.357736"></trkpt>
      <trkpt lat="47.530289" lon="31.358357"></trkpt>
      <trkpt lat="47.529395" lon="31.359623"></trkpt>
      <trkpt lat="47.528898" lon="31.360672"></trkpt>
      <trkpt lat="47.528054" lon="31.363247"></trkpt>
      <trkpt lat="47.527208" lon="31.365087"></trkpt>
      <trkpt lat="47.525287" lon="31.367579"></trkpt>
      <trkpt lat="47.522446" lon="31.372068"></trkpt>
      <trkpt lat="47.521502" lon="31.373217"></trkpt>
      <trkpt lat="47.519102" lon="31.37573"></trkpt>
      <trkpt lat="47.514906" lon="31.37943"></trkpt>
      <trkpt lat="47.503533" lon="31.388573"></trkpt>
      <trkpt lat="47.499832" lon="31.392021"></trkpt>
      <trkpt lat="47.498963" lon="31.392579"></trkpt>
      <trkpt lat="47.497727" lon="31.392965"></trkpt>
      <trkpt lat="47.496739" lon="31.392968"></trkpt>
      <trkpt lat="47.495282" lon="31.392506"></trkpt>
      <trkpt lat="47.49451" lon="31.392029"></trkpt>
      <trkpt lat="47.493384" lon="31.390828"></trkpt>
      <trkpt lat="47.492773" lon="31.389845"></trkpt>
      <trkpt lat="47.492111" lon="31.388307"></trkpt>
      <trkpt lat="47.491591" lon="31.386258"></trkpt>
      <trkpt lat="47.490716" lon="31.381263"></trkpt>
      <trkpt lat="47.490516" lon="31.378839"></trkpt>
      <trkpt lat="47.49063" lon="31.377259"></trkpt>
      <trkpt lat="47.490921" lon="31.3758"></trkpt>
      <trkpt lat="47.496522" lon="31.356446"></trkpt>
      <trkpt lat="47.497154" lon="31.353918"></trkpt>
      <trkpt lat="47.497326" lon="31.35266"></trkpt>
      <trkpt lat="47.497426" lon="31.34999"></trkpt>
      <trkpt lat="47.497186" lon="31.347395"></trkpt>
      <trkpt lat="47.496842" lon="31.345744"></trkpt>
      <trkpt lat="47.496106" lon="31.343515"></trkpt>
      <trkpt lat="47.49546" lon="31.342136"></trkpt>
      <trkpt lat="47.494446" lon="31.340548"></trkpt>
      <trkpt lat="47.484265" lon="31.327525"></trkpt>
      <trkpt lat="47.483545" lon="31.326471"></trkpt>
      <trkpt lat="47.483061" lon="31.32535"></trkpt>
      <trkpt lat="47.482648" lon="31.323762"></trkpt>
      <trkpt lat="47.482521" lon="31.321989"></trkpt>
      <trkpt lat="47.482655" lon="31.320305"></trkpt>
      <trkpt lat="47.483473" lon="31.31454"></trkpt>
      <trkpt lat="47.483524" lon="31.312999"></trkpt>
      <trkpt lat="47.483417" lon="31.311711"></trkpt>
      <trkpt lat="47.482787" lon="31.309204"></trkpt>
      <trkpt lat="47.479728" lon="31.300302"></trkpt>
      <trkpt lat="47.478723" lon="31.297661"></trkpt>
      <trkpt lat="47.477232" lon="31.294847"></trkpt>
      <trkpt lat="47.467018" lon="31.276602"></trkpt>
      <trkpt lat="47.465439" lon="31.274382"></trkpt>
      <trkpt lat="47.464277" lon="31.273203"></trkpt>
      <trkpt lat="47.462597" lon="31.271767"></trkpt>
      <trkpt lat="47.452605" lon="31.263757"></trkpt>
      <trkpt lat="47.450804" lon="31.262187"></trkpt>
      <trkpt lat="47.449016" lon="31.260975"></trkpt>
      <trkpt lat="47.447041" lon="31.260137"></trkpt>
      <trkpt lat="47.440443" lon="31.25765"></trkpt>
      <trkpt lat="47.431701" lon="31.255496"></trkpt>
      <trkpt lat="47.43003" lon="31.255368"></trkpt>
      <trkpt lat="47.426999" lon="31.255753"></trkpt>
      <trkpt lat="47.425919" lon="31.255761"></trkpt>
      <trkpt lat="47.425068" lon="31.255616"></trkpt>
      <trkpt lat="47.42078" lon="31.254302"></trkpt>
      <trkpt lat="47.412507" lon="31.253131"></trkpt>
      <trkpt lat="47.411241" lon="31.253125"></trkpt>
      <trkpt lat="47.409003" lon="31.253539"></trkpt>
      <trkpt lat="47.40787" lon="31.253882"></trkpt>
      <trkpt lat="47.406427" lon="31.254549"></trkpt>
      <trkpt lat="47.404796" lon="31.255651"></trkpt>
      <trkpt lat="47.398267" lon="31.261162"></trkpt>
      <trkpt lat="47.39735" lon="31.261725"></trkpt>
      <trkpt lat="47.396569" lon="31.262047"></trkpt>
      <trkpt lat="47.391647" lon="31.262905"></trkpt>
      <trkpt lat="47.384568" lon="31.265559"></trkpt>
      <trkpt lat="47.382541" lon="31.266052"></trkpt>
      <trkpt lat="47.37024" lon="31.266834"></trkpt>
      <trkpt lat="47.369167" lon="31.26681"></trkpt>
      <trkpt lat="47.367658" lon="31.266348"></trkpt>
      <trkpt lat="47.366322" lon="31.265368"></trkpt>
      <trkpt lat="47.365565" lon="31.264496"></trkpt>
      <trkpt lat="47.364962" lon="31.26353"></trkpt>
      <trkpt lat="47.360163" lon="31.254191"></trkpt>
      <trkpt lat="47.359558" lon="31.252405"></trkpt>
      <trkpt lat="47.359258" lon="31.250626"></trkpt>
      <trkpt lat="47.359256" lon="31.245546"></trkpt>
      <trkpt lat="47.359507" lon="31.242306"></trkpt>
      <trkpt lat="47.362212" lon="31.227277"></trkpt>
      <trkpt lat="47.363423" lon="31.221166"></trkpt>
      <trkpt lat="47.363742" lon="31.218967"></trkpt>
      <trkpt lat="47.363733" lon="31.216989"></trkpt>
      <trkpt lat="47.363528" lon="31.215706"></trkpt>
      <trkpt lat="47.362899" lon="31.213755"></trkpt>
      <trkpt lat="47.362304" lon="31.212614"></trkpt>
      <trkpt lat="47.361802" lon="31.211902"></trkpt>
      <trkpt lat="47.360884" lon="31.210961"></trkpt>
      <trkpt lat="47.359226" lon="31.209744"></trkpt>
      <trkpt lat="47.357918" lon="31.208955"></trkpt>
      <trkpt lat="47.357145" lon="31.208706"></trkpt>
      <trkpt lat="47.356129" lon="31.208637"></trkpt>
      <trkpt lat="47.354831" lon="31.208962"></trkpt>
      <trkpt lat="47.354231" lon="31.20926"></trkpt>
      <trkpt lat="47.352999" lon="31.210263"></trkpt>
      <trkpt lat="47.351823" lon="31.211943"></trkpt>
      <trkpt lat="47.351256" lon="31.213389"></trkpt>
      <trkpt lat="47.350342" lon="31.216916"></trkpt>
      <trkpt lat="47.349616" lon="31.218542"></trkpt>
      <trkpt lat="47.349105" lon="31.219344"></trkpt>
      <trkpt lat="47.348107" lon="31.220416"></trkpt>
      <trkpt lat="47.347319" lon="31.220997"></trkpt>
      <trkpt lat="47.346246" lon="31.221467"></trkpt>
      <trkpt lat="47.34566" lon="31.221571"></trkpt>
      <trkpt lat="47.344386" lon="31.22155"></trkpt>
      <trkpt lat="47.343158" lon="31.221108"></trkpt>
      <trkpt lat="47.342407" lon="31.220597"></trkpt>
      <trkpt lat="47.340495" lon="31.21868"></trkpt>
      <trkpt lat="47.339132" lon="31.21666"></trkpt>
      <trkpt lat="47.337975" lon="31.214009"></trkpt>
      <trkpt lat="47.337577" lon="31.212674"></trkpt>
      <trkpt lat="47.337166" lon="31.210576"></trkpt>
      <trkpt lat="47.337047" lon="31.209324"></trkpt>
      <trkpt lat="47.337041" lon="31.206179"></trkpt>
      <trkpt lat="47.338105" lon="31.196962"></trkpt>
      <trkpt lat="47.338128" lon="31.195752"></trkpt>
      <trkpt lat="47.33796" lon="31.19403"></trkpt>
      <trkpt lat="47.337547" lon="31.192328"></trkpt>
      <trkpt lat="47.33721" lon="31.191422"></trkpt>
      <trkpt lat="47.336357" lon="31.189907"></trkpt>
      <trkpt lat="47.335551" lon="31.188981"></trkpt>
      <trkpt lat="47.325789" lon="31.181262"></trkpt>
      <trkpt lat="47.324499" lon="31.179958"></trkpt>
      <trkpt lat="47.323014" lon="31.177598"></trkpt>
      <trkpt lat="47.322126" lon="31.175794"></trkpt>
      <trkpt lat="47.321601" lon="31.173931"></trkpt>
      <trkpt lat="47.321395" lon="31.171911"></trkpt>
      <trkpt lat="47.321445" lon="31.170463"></trkpt>
      <trkpt lat="47.321914" lon="31.167968"></trkpt>
      <trkpt lat="47.322158" lon="31.167011"></trkpt>
      <trkpt lat="47.322833" lon="31.16541"></trkpt>
      <trkpt lat="47.329043" lon="31.156498"></trkpt>
      <trkpt lat="47.33012" lon="31.154433"></trkpt>
      <trkpt lat="47.330855" lon="31.152317"></trkpt>
      <trkpt lat="47.331407" lon="31.149675"></trkpt>
      <trkpt lat="47.331818" lon="31.143841"></trkpt>
      <trkpt lat="47.332226" lon="31.140787"></trkpt>
      <trkpt lat="47.336391" lon="31.122411"></trkpt>
      <trkpt lat="47.336786" lon="31.11865"></trkpt>
      <trkpt lat="47.336808" lon="31.116659"></trkpt>
      <trkpt lat="47.33666" lon="31.114287"></trkpt>
      <trkpt lat="47.33634" lon="31.112177"></trkpt>
      <trkpt lat="47.335215" lon="31.107524"></trkpt>
      <trkpt lat="47.317803" lon="31.043175"></trkpt>
      <trkpt lat="47.315837" lon="31.037881"></trkpt>
      <trkpt lat="47.312982" lon="31.027422"></trkpt>
      <trkpt lat="47.311641" lon="31.023764"></trkpt>
      <trkpt lat="47.311273" lon="31.023145"></trkpt>
      <trkpt lat="47.30892" lon="31.021016"></trkpt>
      <trkpt lat="47.30058" lon="31.014961"></trkpt>
      <trkpt lat="47.299015" lon="31.01362"></trkpt>
      <trkpt lat="47.295183" lon="31.010757"></trkpt>
      <trkpt lat="47.291303" lon="31.007484"></trkpt>
      <trkpt lat="47.2905" lon="31.006909"></trkpt>
      <trkpt lat="47.286963" lon="31.005246"></trkpt>
      <trkpt lat="47.285583" lon="31.004439"></trkpt>
      <trkpt lat="47.281383" lon="31.001428"></trkpt>
      <trkpt lat="47.280564" lon="31.000474"></trkpt>
      <trkpt lat="47.278957" lon="30.997946"></trkpt>
      <trkpt lat="47.278491" lon="30.997371"></trkpt>
      <trkpt lat="47.277292" lon="30.996285"></trkpt>
      <trkpt lat="47.276708" lon="30.995877"></trkpt>
      <trkpt lat="47.27545" lon="30.995292"></trkpt>
      <trkpt lat="47.272234" lon="30.994819"></trkpt>
      <trkpt lat="47.271549" lon="30.99458"></trkpt>
      <trkpt lat="47.26868" lon="30.992456"></trkpt>
      <trkpt lat="47.265289" lon="30.99046"></trkpt>
      <trkpt lat="47.262697" lon="30.988498"></trkpt>
      <trkpt lat="47.261062" lon="30.987452"></trkpt>
      <trkpt lat="47.258913" lon="30.985632"></trkpt>
      <trkpt lat="47.258306" lon="30.985029"></trkpt>
      <trkpt lat="47.257509" lon="30.98387"></trkpt>
      <trkpt lat="47.257035" lon="30.982955"></trkpt>
      <trkpt lat="47.256506" lon="30.981523"></trkpt>
      <trkpt lat="47.255867" lon="30.978319"></trkpt>
      <trkpt lat="47.255586" lon="30.973987"></trkpt>
      <trkpt lat="47.254923" lon="30.97167"></trkpt>
      <trkpt lat="47.254278" lon="30.970303"></trkpt>
      <trkpt lat="47.253697" lon="30.969424"></trkpt>
      <trkpt lat="47.253015" lon="30.968713"></trkpt>
      <trkpt lat="47.252268" lon="30.968152"></trkpt>
      <trkpt lat="47.251049" lon="30.967618"></trkpt>
      <trkpt lat="47.245645" lon="30.966601"></trkpt>
      <trkpt lat="47.24282" lon="30.965571"></trkpt>
      <trkpt lat="47.241749" lon="30.964955"></trkpt>
      <trkpt lat="47.240483" lon="30.963946"></trkpt>
      <trkpt lat="47.238853" lon="30.962056"></trkpt>
      <trkpt lat="47.236166" lon="30.960279"></trkpt>
      <trkpt lat="47.234002" lon="30.957766"></trkpt>
      <trkpt lat="47.233265" lon="30.957051"></trkpt>
      <trkpt lat="47.230324" lon="30.955139"></trkpt>
      <trkpt lat="47.229794" lon="30.954592"></trkpt>
      <trkpt lat="47.227883" lon="30.951891"></trkpt>
      <trkpt lat="47.227185" lon="30.951224"></trkpt>
      <trkpt lat="47.226282" lon="30.950623"></trkpt>
      <trkpt lat="47.220726" lon="30.948368"></trkpt>
      <trkpt lat="47.21743" lon="30.947335"></trkpt>
      <trkpt lat="47.214948" lon="30.945992"></trkpt>
      <trkpt lat="47.213709" lon="30.945187"></trkpt>
      <trkpt lat="47.212682" lon="30.944888"></trkpt>
      <trkpt lat="47.209947" lon="30.944748"></trkpt>
      <trkpt lat="47.208691" lon="30.944129"></trkpt>
      <trkpt lat="47.206902" lon="30.942732"></trkpt>
      <trkpt lat="47.205923" lon="30.942205"></trkpt>
      <trkpt lat="47.200617" lon="30.941004"></trkpt>
      <trkpt lat="47.198331" lon="30.940951"></trkpt>
      <trkpt lat="47.196753" lon="30.941017"></trkpt>
      <trkpt lat="47.187691" lon="30.942805"></trkpt>
      <trkpt lat="47.186481" lon="30.942804"></trkpt>
      <trkpt lat="47.185761" lon="30.94269"></trkpt>
      <trkpt lat="47.184175" lon="30.942141"></trkpt>
      <trkpt lat="47.182907" lon="30.94139"></trkpt>
      <trkpt lat="47.181374" lon="30.940106"></trkpt>
      <trkpt lat="47.177405" lon="30.935846"></trkpt>
      <trkpt lat="47.175411" lon="30.932623"></trkpt>
      <trkpt lat="47.173769" lon="30.930503"></trkpt>
      <trkpt lat="47.173357" lon="30.929743"></trkpt>
      <trkpt lat="47.172871" lon="30.928675"></trkpt>
      <trkpt lat="47.172373" lon="30.926888"></trkpt>
      <trkpt lat="47.172258" lon="30.924277"></trkpt>
      <trkpt lat="47.172456" lon="30.922679"></trkpt>
      <trkpt lat="47.173306" lon="30.918407"></trkpt>
      <trkpt lat="47.173875" lon="30.916887"></trkpt>
      <trkpt lat="47.174691" lon="30.915515"></trkpt>
      <trkpt lat="47.175307" lon="30.914819"></trkpt>
      <trkpt lat="47.177476" lon="30.912986"></trkpt>
      <trkpt lat="47.178535" lon="30.912159"></trkpt>
      <trkpt lat="47.179419" lon="30.911778"></trkpt>
      <trkpt lat="47.181099" lon="30.911475"></trkpt>
      <trkpt lat="47.184028" lon="30.911985"></trkpt>
      <trkpt lat="47.185207" lon="30.911819"></trkpt>
      <trkpt lat="47.186323" lon="30.911323"></trkpt>
      <trkpt lat="47.187253" lon="30.910577"></trkpt>
      <trkpt lat="47.187789" lon="30.90995"></trkpt>
      <trkpt lat="47.188387" lon="30.909115"></trkpt>
      <trkpt lat="47.189075" lon="30.907733"></trkpt>
      <trkpt lat="47.189715" lon="30.905305"></trkpt>
      <trkpt lat="47.189839" lon="30.903515"></trkpt>
      <trkpt lat="47.189815" lon="30.901254"></trkpt>
      <trkpt lat="47.190285" lon="30.897378"></trkpt>
      <trkpt lat="47.190149" lon="30.894844"></trkpt>
      <trkpt lat="47.18959" lon="30.891895"></trkpt>
      <trkpt lat="47.188968" lon="30.886498"></trkpt>
      <trkpt lat="47.189467" lon="30.877975"></trkpt>
      <trkpt lat="47.189691" lon="30.876433"></trkpt>
      <trkpt lat="47.19012" lon="30.874901"></trkpt>
      <trkpt lat="47.19043" lon="30.874123"></trkpt>
      <trkpt lat="47.193359" lon="30.868741"></trkpt>
      <trkpt lat="47.194563" lon="30.867139"></trkpt>
      <trkpt lat="47.196169" lon="30.865305"></trkpt>
      <trkpt lat="47.197796" lon="30.863752"></trkpt>
      <trkpt lat="47.201837" lon="30.860382"></trkpt>
      <trkpt lat="47.205413" lon="30.857759"></trkpt>
      <trkpt lat="47.207917" lon="30.854782"></trkpt>
      <trkpt lat="47.211066" lon="30.852005"></trkpt>
      <trkpt lat="47.212007" lon="30.850694"></trkpt>
      <trkpt lat="47.212561" lon="30.849502"></trkpt>
      <trkpt lat="47.212994" lon="30.848107"></trkpt>
      <trkpt lat="47.213266" lon="30.846478"></trkpt>
      <trkpt lat="47.213325" lon="30.844662"></trkpt>
      <trkpt lat="47.213169" lon="30.843152"></trkpt>
      <trkpt lat="47.212736" lon="30.841472"></trkpt>
      <trkpt lat="47.212243" lon="30.840282"></trkpt>
      <trkpt lat="47.211439" lon="30.839014"></trkpt>
      <trkpt lat="47.210423" lon="30.83795"></trkpt>
      <trkpt lat="47.209254" lon="30.837248"></trkpt>
      <trkpt lat="47.20805" lon="30.836925"></trkpt>
      <trkpt lat="47.207071" lon="30.836945"></trkpt>
      <trkpt lat="47.205555" lon="30.837476"></trkpt>
      <trkpt lat="47.202665" lon="30.839549"></trkpt>
      <trkpt lat="47.201534" lon="30.840104"></trkpt>
      <trkpt lat="47.200278" lon="30.840313"></trkpt>
      <trkpt lat="47.197949" lon="30.840282"></trkpt>
      <trkpt lat="47.19539" lon="30.841151"></trkpt>
      <trkpt lat="47.194719" lon="30.841291"></trkpt>
      <trkpt lat="47.193971" lon="30.841296"></trkpt>
      <trkpt lat="47.190788" lon="30.840487"></trkpt>
      <trkpt lat="47.186389" lon="30.840616"></trkpt>
      <trkpt lat="47.184906" lon="30.840448"></trkpt>
      <trkpt lat="47.178949" lon="30.838633"></trkpt>
      <trkpt lat="47.17483" lon="30.836896"></trkpt>
      <trkpt lat="47.174051" lon="30.8364"></trkpt>
      <trkpt lat="47.173423" lon="30.83581"></trkpt>
      <trkpt lat="47.171065" lon="30.833014"></trkpt>
      <trkpt lat="47.159031" lon="30.813285"></trkpt>
      <trkpt lat="47.158261" lon="30.812364"></trkpt>
      <trkpt lat="47.157119" lon="30.811495"></trkpt>
      <trkpt lat="47.156234" lon="30.811112"></trkpt>
      <trkpt lat="47.150107" lon="30.809297"></trkpt>
      <trkpt lat="47.140776" lon="30.804474"></trkpt>
      <trkpt lat="47.139364" lon="30.803911"></trkpt>
      <trkpt lat="47.132776" lon="30.802249"></trkpt>
      <trkpt lat="47.122101" lon="30.800863"></trkpt>
      <trkpt lat="47.119574" lon="30.800179"></trkpt>
      <trkpt lat="47.117616" lon="30.799292"></trkpt>
      <trkpt lat="47.107936" lon="30.793861"></trkpt>
      <trkpt lat="47.106451" lon="30.793188"></trkpt>
      <trkpt lat="47.093257" lon="30.789381"></trkpt>
      <trkpt lat="47.085833" lon="30.784307"></trkpt>
      <trkpt lat="47.084962" lon="30.783535"></trkpt>
      <trkpt lat="47.084204" lon="30.782552"></trkpt>
      <trkpt lat="47.083575" lon="30.781376"></trkpt>
      <trkpt lat="47.082" lon="30.77708"></trkpt>
      <trkpt lat="47.081324" lon="30.775623"></trkpt>
      <trkpt lat="47.080217" lon="30.774177"></trkpt>
      <trkpt lat="47.077908" lon="30.772234"></trkpt>
      <trkpt lat="47.076504" lon="30.771465"></trkpt>
      <trkpt lat="47.075623" lon="30.771114"></trkpt>
      <trkpt lat="47.066845" lon="30.769314"></trkpt>
      <trkpt lat="47.065991" lon="30.768972"></trkpt>
      <trkpt lat="47.063954" lon="30.767738"></trkpt>
      <trkpt lat="47.062911" lon="30.767292"></trkpt>
      <trkpt lat="47.061828" lon="30.767154"></trkpt>
      <trkpt lat="47.059962" lon="30.767204"></trkpt>
      <trkpt lat="47.058674" lon="30.766882"></trkpt>
      <trkpt lat="47.057807" lon="30.766376"></trkpt>
      <trkpt lat="47.054603" lon="30.763476"></trkpt>
      <trkpt lat="47.05315" lon="30.76282"></trkpt>
      <trkpt lat="47.05226" lon="30.762713"></trkpt>
      <trkpt lat="47.049976" lon="30.76287"></trkpt>
      <trkpt lat="47.049012" lon="30.762796"></trkpt>
      <trkpt lat="47.047981" lon="30.762466"></trkpt>
      <trkpt lat="47.045685" lon="30.76147"></trkpt>
      <trkpt lat="47.042927" lon="30.761173"></trkpt>
      <trkpt lat="47.042022" lon="30.760828"></trkpt>
      <trkpt lat="47.041437" lon="30.760502"></trkpt>
      <trkpt lat="47.040338" lon="30.759511"></trkpt>
      <trkpt lat="47.039526" lon="30.75835"></trkpt>
      <trkpt lat="47.037262" lon="30.754434"></trkpt>
      <trkpt lat="47.036276" lon="30.753139"></trkpt>
      <trkpt lat="47.035236" lon="30.752276"></trkpt>
      <trkpt lat="47.034302" lon="30.751824"></trkpt>
      <trkpt lat="47.033808" lon="30.751674"></trkpt>
      <trkpt lat="47.032599" lon="30.751611"></trkpt>
      <trkpt lat="47.029251" lon="30.752645"></trkpt>
      <trkpt lat="47.028148" lon="30.75287"></trkpt>
      <trkpt lat="47.027437" lon="30.752921"></trkpt>
      <trkpt lat="47.026046" lon="30.752731"></trkpt>
      <trkpt lat="47.024591" lon="30.752119"></trkpt>
      <trkpt lat="47.023887" lon="30.751611"></trkpt>
      <trkpt lat="47.020951" lon="30.748701"></trkpt>
      <trkpt lat="47.01973" lon="30.748092"></trkpt>
      <trkpt lat="47.018672" lon="30.747999"></trkpt>
      <trkpt lat="47.017828" lon="30.748208"></trkpt>
      <trkpt lat="47.016736" lon="30.748851"></trkpt>
      <trkpt lat="47.013869" lon="30.751624"></trkpt>
      <trkpt lat="47.012244" lon="30.752752"></trkpt>
      <trkpt lat="47.011074" lon="30.753108"></trkpt>
      <trkpt lat="47.005491" lon="30.754333"></trkpt>
      <trkpt lat="47.003438" lon="30.754467"></trkpt>
      <trkpt lat="47.001691" lon="30.754232"></trkpt>
      <trkpt lat="47.000242" lon="30.753606"></trkpt>
      <trkpt lat="46.999623" lon="30.75308"></trkpt>
      <trkpt lat="46.997516" lon="30.750626"></trkpt>
      <trkpt lat="46.996775" lon="30.750045"></trkpt>
      <trkpt lat="46.995804" lon="30.74956"></trkpt>
      <trkpt lat="46.994658" lon="30.749328"></trkpt>
      <trkpt lat="46.992161" lon="30.74945"></trkpt>
      <trkpt lat="46.991181" lon="30.749204"></trkpt>
      <trkpt lat="46.990275" lon="30.748771"></trkpt>
      <trkpt lat="46.988946" lon="30.747601"></trkpt>
      <trkpt lat="46.988038" lon="30.746317"></trkpt>
      <trkpt lat="46.9865" lon="30.742453"></trkpt>
      <trkpt lat="46.984894" lon="30.739613"></trkpt>
      <trkpt lat="46.984143" lon="30.737561"></trkpt>
      <trkpt lat="46.983845" lon="30.735815"></trkpt>
      <trkpt lat="46.983811" lon="30.734212"></trkpt>
      <trkpt lat="46.984941" lon="30.721961"></trkpt>
      <trkpt lat="46.984991" lon="30.720539"></trkpt>
      <trkpt lat="46.984871" lon="30.71894"></trkpt>
      <trkpt lat="46.983884" lon="30.714742"></trkpt>
      <trkpt lat="46.983125" lon="30.71295"></trkpt>
      <trkpt lat="46.981886" lon="30.71127"></trkpt>
      <trkpt lat="46.980984" lon="30.710536"></trkpt>
      <trkpt lat="46.980128" lon="30.710093"></trkpt>
      <trkpt lat="46.9787" lon="30.709777"></trkpt>
      <trkpt lat="46.942772" lon="30.706392"></trkpt>
      <trkpt lat="46.941253" lon="30.706355"></trkpt>
      <trkpt lat="46.939956" lon="30.706457"></trkpt>
      <trkpt lat="46.938045" lon="30.70686"></trkpt>
      <trkpt lat="46.936464" lon="30.70741"></trkpt>
      <trkpt lat="46.935006" lon="30.708064"></trkpt>
      <trkpt lat="46.914731" lon="30.717883"></trkpt>
      <trkpt lat="46.909962" lon="30.72007"></trkpt>
      <trkpt lat="46.903508" lon="30.723331"></trkpt>
      <trkpt lat="46.814366" lon="30.766012"></trkpt>
      <trkpt lat="46.808011" lon="30.768513"></trkpt>
      <trkpt lat="46.802452" lon="30.77171"></trkpt>
      <trkpt lat="46.798972" lon="30.773376"></trkpt>
      <trkpt lat="46.796143" lon="30.774178"></trkpt>
      <trkpt lat="46.791901" lon="30.774929"></trkpt>
      <trkpt lat="46.683186" lon="30.793907"></trkpt>
      <trkpt lat="46.681118" lon="30.794156"></trkpt>
      <trkpt lat="46.641571" lon="30.793503"></trkpt>
      <trkpt lat="46.639568" lon="30.79364"></trkpt>
      <trkpt lat="46.613053" lon="30.793195"></trkpt>
      <trkpt lat="46.611545" lon="30.793055"></trkpt>
      <trkpt lat="46.609876" lon="30.792706"></trkpt>
      <trkpt lat="46.602844" lon="30.790483"></trkpt>
      <trkpt lat="46.600713" lon="30.789555"></trkpt>
      <trkpt lat="46.599437" lon="30.78873"></trkpt>
      <trkpt lat="46.597697" lon="30.787963"></trkpt>
      <trkpt lat="46.596034" lon="30.78675"></trkpt>
      <trkpt lat="46.592632" lon="30.783328"></trkpt>
      <trkpt lat="46.590691" lon="30.781642"></trkpt>
      <trkpt lat="46.587042" lon="30.777474"></trkpt>
      <trkpt lat="46.585757" lon="30.77636"></trkpt>
      <trkpt lat="46.584768" lon="30.775944"></trkpt>
      <trkpt lat="46.575986" lon="30.773443"></trkpt>
      <trkpt lat="46.56774" lon="30.770923"></trkpt>
      <trkpt lat="46.566894" lon="30.770506"></trkpt>
      <trkpt lat="46.564529" lon="30.768827"></trkpt>
      <trkpt lat="46.563508" lon="30.767641"></trkpt>
      <trkpt lat="46.560177" lon="30.762776"></trkpt>
      <trkpt lat="46.558923" lon="30.761235"></trkpt>
      <trkpt lat="46.555956" lon="30.757013"></trkpt>
      <trkpt lat="46.550789" lon="30.749269"></trkpt>
      <trkpt lat="46.547151" lon="30.744177"></trkpt>
      <trkpt lat="46.544132" lon="30.741351"></trkpt>
      <trkpt lat="46.542546" lon="30.739704"></trkpt>
      <trkpt lat="46.530354" lon="30.728712"></trkpt>
      <trkpt lat="46.527531" lon="30.72714"></trkpt>
      <trkpt lat="46.526852" lon="30.726641"></trkpt>
      <trkpt lat="46.5245" lon="30.724404"></trkpt>
      <trkpt lat="46.523652" lon="30.723798"></trkpt>
      <trkpt lat="46.520267" lon="30.72251"></trkpt>
      <trkpt lat="46.517759" lon="30.720786"></trkpt>
      <trkpt lat="46.516569" lon="30.720124"></trkpt>
      <trkpt lat="46.51153" lon="30.7183"></trkpt>
      <trkpt lat="46.510151" lon="30.717755"></trkpt>
      <trkpt lat="46.509481" lon="30.717373"></trkpt>
      <trkpt lat="46.508976" lon="30.716894"></trkpt>
      <trkpt lat="46.508385" lon="30.716023"></trkpt>
      <trkpt lat="46.50748" lon="30.713344"></trkpt>
      <trkpt lat="46.50693" lon="30.712288"></trkpt>
      <trkpt lat="46.506113" lon="30.711353"></trkpt>
      <trkpt lat="46.505203" lon="30.710777"></trkpt>
      <trkpt lat="46.504269" lon="30.710578"></trkpt>
      <trkpt lat="46.50326" lon="30.710746"></trkpt>
      <trkpt lat="46.499023" lon="30.71305"></trkpt>
      <trkpt lat="46.498021" lon="30.713358"></trkpt>
      <trkpt lat="46.497128" lon="30.713375"></trkpt>
      <trkpt lat="46.496513" lon="30.713224"></trkpt>
      <trkpt lat="46.495325" lon="30.712624"></trkpt>
      <trkpt lat="46.490706" lon="30.709433"></trkpt>
      <trkpt lat="46.489638" lon="30.708334"></trkpt>
      <trkpt lat="46.487815" lon="30.705677"></trkpt>
      <trkpt lat="46.486848" lon="30.704534"></trkpt>
      <trkpt lat="46.48356" lon="30.701514"></trkpt>
      <trkpt lat="46.482359" lon="30.700553"></trkpt>
      <trkpt lat="46.481311" lon="30.699902"></trkpt>
      <trkpt lat="46.479789" lon="30.699194"></trkpt>
      <trkpt lat="46.477274" lon="30.698191"></trkpt>
      <trkpt lat="46.476158" lon="30.697489"></trkpt>
      <trkpt lat="46.47511" lon="30.696643"></trkpt>
      <trkpt lat="46.473965" lon="30.695342"></trkpt>
      <trkpt lat="46.469975" lon="30.689696"></trkpt>
      <trkpt lat="46.466541" lon="30.686383"></trkpt>
      <trkpt lat="46.465294" lon="30.685494"></trkpt>
      <trkpt lat="46.464621" lon="30.685187"></trkpt>
      <trkpt lat="46.462796" lon="30.684823"></trkpt>
      <trkpt lat="46.461731" lon="30.684812"></trkpt>
      <trkpt lat="46.460449" lon="30.685064"></trkpt>
      <trkpt lat="46.459013" lon="30.685713"></trkpt>
      <trkpt lat="46.458051" lon="30.686359"></trkpt>
      <trkpt lat="46.456697" lon="30.687693"></trkpt>
      <trkpt lat="46.45566" lon="30.689229"></trkpt>
      <trkpt lat="46.45486" lon="30.690836"></trkpt>
      <trkpt lat="46.454268" lon="30.692499"></trkpt>
      <trkpt lat="46.453897" lon="30.694301"></trkpt>
      <trkpt lat="46.453766" lon="30.699332"></trkpt>
      <trkpt lat="46.453889" lon="30.702808"></trkpt>
      <trkpt lat="46.455179" lon="30.710435"></trkpt>
      <trkpt lat="46.455578" lon="30.715191"></trkpt>
      <trkpt lat="46.455655" lon="30.721364"></trkpt>
      <trkpt lat="46.45554" lon="30.727781"></trkpt>
      <trkpt lat="46.455698" lon="30.732839"></trkpt>
      <trkpt lat="46.456023" lon="30.734787"></trkpt>
      <trkpt lat="46.456543" lon="30.736264"></trkpt>
      <trkpt lat="46.457152" lon="30.737334"></trkpt>
      <trkpt lat="46.45865" lon="30.739004"></trkpt>
      <trkpt lat="46.45974" lon="30.73969"></trkpt>
      <trkpt lat="46.460485" lon="30.739952"></trkpt>
      <trkpt lat="46.462237" lon="30.740275"></trkpt>
      <trkpt lat="46.463735" lon="30.740698"></trkpt>
      <trkpt lat="46.465745" lon="30.740967"></trkpt>
  </trkseg></trk>
</gpx>
