<?xml version="1.0" encoding="UTF-8"?>
<gpx version="1.1" creator="yatutbuv" xmlns="http://www.topografix.com/GPX/1/1">
  <trk><name>2024_Schiphol -&gt; Amsterdam (11.7km)</name><trkseg>
      <trkpt lat="52.309453" lon="4.761845"></trkpt>
      <trkpt lat="52.311756" lon="4.76472"></trkpt>
      <trkpt lat="52.321861" lon="4.775587"></trkpt>
      <trkpt lat="52.323533" lon="4.778011"></trkpt>
      <trkpt lat="52.324709" lon="4.780368"></trkpt>
      <trkpt lat="52.325422" lon="4.782234"></trkpt>
      <trkpt lat="52.326017" lon="4.784242"></trkpt>
      <trkpt lat="52.327703" lon="4.791884"></trkpt>
      <trkpt lat="52.328958" lon="4.795508"></trkpt>
      <trkpt lat="52.330033" lon="4.797819"></trkpt>
      <trkpt lat="52.330872" lon="4.799336"></trkpt>
      <trkpt lat="52.336203" lon="4.808109"></trkpt>
      <trkpt lat="52.336978" lon="4.809703"></trkpt>
      <trkpt lat="52.33763" lon="4.811501"></trkpt>
      <trkpt lat="52.338211" lon="4.813895"></trkpt>
      <trkpt lat="52.338541" lon="4.816602"></trkpt>
      <trkpt lat="52.338572" lon="4.827277"></trkpt>
      <trkpt lat="52.338724" lon="4.828821"></trkpt>
      <trkpt lat="52.339051" lon="4.830205"></trkpt>
      <trkpt lat="52.339538" lon="4.831446"></trkpt>
      <trkpt lat="52.340188" lon="4.832532"></trkpt>
      <trkpt lat="52.340818" lon="4.833246"></trkpt>
      <trkpt lat="52.341333" lon="4.833659"></trkpt>
      <trkpt lat="52.342095" lon="4.834048"></trkpt>
      <trkpt lat="52.343468" lon="4.834246"></trkpt>
      <trkpt lat="52.356061" lon="4.833973"></trkpt>
      <trkpt lat="52.36377" lon="4.833684"></trkpt>
      <trkpt lat="52.366924" lon="4.833732"></trkpt>
      <trkpt lat="52.368432" lon="4.833935"></trkpt>
      <trkpt lat="52.371438" lon="4.8346"></trkpt>
      <trkpt lat="52.374153" lon="4.835695"></trkpt>
      <trkpt lat="52.375931" lon="4.836224"></trkpt>
      <trkpt lat="52.379729" lon="4.837605"></trkpt>
      <trkpt lat="52.383354" lon="4.839234"></trkpt>
      <trkpt lat="52.384055" lon="4.839302"></trkpt>
      <trkpt lat="52.38468" lon="4.839222"></trkpt>
      <trkpt lat="52.38765" lon="4.838139"></trkpt>
      <trkpt lat="52.389061" lon="4.83797"></trkpt>
  </trkseg></trk>
</gpx>
