<?xml version="1.0" encoding="UTF-8"?>
<gpx version="1.1" creator="yatutbuv" xmlns="http://www.topografix.com/GPX/1/1">
  <trk><name>2019_Versailles -&gt; Paris (23.6km)</name><trkseg>
      <trkpt lat="48.800234" lon="2.12905"></trkpt>
      <trkpt lat="48.797073" lon="2.141063"></trkpt>
      <trkpt lat="48.796482" lon="2.144056"></trkpt>
      <trkpt lat="48.796221" lon="2.146723"></trkpt>
      <trkpt lat="48.796233" lon="2.148737"></trkpt>
      <trkpt lat="48.796831" lon="2.153789"></trkpt>
      <trkpt lat="48.797543" lon="2.156948"></trkpt>
      <trkpt lat="48.799413" lon="2.163343"></trkpt>
      <trkpt lat="48.799885" lon="2.164372"></trkpt>
      <trkpt lat="48.800631" lon="2.165515"></trkpt>
      <trkpt lat="48.802542" lon="2.167516"></trkpt>
      <trkpt lat="48.803289" lon="2.168492"></trkpt>
      <trkpt lat="48.804308" lon="2.170423"></trkpt>
      <trkpt lat="48.805012" lon="2.172407"></trkpt>
      <trkpt lat="48.805433" lon="2.174257"></trkpt>
      <trkpt lat="48.805932" lon="2.177894"></trkpt>
      <trkpt lat="48.80638" lon="2.179807"></trkpt>
      <trkpt lat="48.807373" lon="2.182515"></trkpt>
      <trkpt lat="48.808136" lon="2.183902"></trkpt>
      <trkpt lat="48.808918" lon="2.185021"></trkpt>
      <trkpt lat="48.809996" lon="2.186163"></trkpt>
      <trkpt lat="48.815254" lon="2.190333"></trkpt>
      <trkpt lat="48.816157" lon="2.191215"></trkpt>
      <trkpt lat="48.817288" lon="2.192714"></trkpt>
      <trkpt lat="48.819397" lon="2.196546"></trkpt>
      <trkpt lat="48.819979" lon="2.197407"></trkpt>
      <trkpt lat="48.820868" lon="2.198466"></trkpt>
      <trkpt lat="48.821984" lon="2.199349"></trkpt>
      <trkpt lat="48.823614" lon="2.200018"></trkpt>
      <trkpt lat="48.8346" lon="2.202037"></trkpt>
      <trkpt lat="48.836024" lon="2.20261"></trkpt>
      <trkpt lat="48.837031" lon="2.203332"></trkpt>
      <trkpt lat="48.838408" lon="2.204865"></trkpt>
      <trkpt lat="48.839353" lon="2.206548"></trkpt>
      <trkpt lat="48.839853" lon="2.207805"></trkpt>
      <trkpt lat="48.841138" lon="2.211975"></trkpt>
      <trkpt lat="48.84195" lon="2.213803"></trkpt>
      <trkpt lat="48.842946" lon="2.215317"></trkpt>
      <trkpt lat="48.843871" lon="2.216281"></trkpt>
      <trkpt lat="48.844558" lon="2.216821"></trkpt>
      <trkpt lat="48.846456" lon="2.217547"></trkpt>
      <trkpt lat="48.848001" lon="2.217687"></trkpt>
      <trkpt lat="48.855941" lon="2.216442"></trkpt>
      <trkpt lat="48.857961" lon="2.216371"></trkpt>
      <trkpt lat="48.859234" lon="2.216479"></trkpt>
      <trkpt lat="48.861216" lon="2.216949"></trkpt>
      <trkpt lat="48.869547" lon="2.219977"></trkpt>
      <trkpt lat="48.87121" lon="2.220767"></trkpt>
      <trkpt lat="48.872291" lon="2.221444"></trkpt>
      <trkpt lat="48.873626" lon="2.222668"></trkpt>
      <trkpt lat="48.882208" lon="2.232495"></trkpt>
      <trkpt lat="48.883887" lon="2.234133"></trkpt>
      <trkpt lat="48.885013" lon="2.234805"></trkpt>
      <trkpt lat="48.886276" lon="2.235281"></trkpt>
      <trkpt lat="48.887076" lon="2.235428"></trkpt>
      <trkpt lat="48.88876" lon="2.235518"></trkpt>
      <trkpt lat="48.890839" lon="2.236028"></trkpt>
      <trkpt lat="48.891206" lon="2.2362"></trkpt>
      <trkpt lat="48.893067" lon="2.237718"></trkpt>
      <trkpt lat="48.894182" lon="2.23926"></trkpt>
      <trkpt lat="48.895216" lon="2.24121"></trkpt>
      <trkpt lat="48.899314" lon="2.250929"></trkpt>
      <trkpt lat="48.904461" lon="2.266369"></trkpt>
      <trkpt lat="48.905142" lon="2.268105"></trkpt>
      <trkpt lat="48.906556" lon="2.273"></trkpt>
      <trkpt lat="48.906745" lon="2.274536"></trkpt>
      <trkpt lat="48.906835" lon="2.277606"></trkpt>
      <trkpt lat="48.906658" lon="2.279636"></trkpt>
      <trkpt lat="48.906275" lon="2.281596"></trkpt>
      <trkpt lat="48.90565" lon="2.283384"></trkpt>
      <trkpt lat="48.904791" lon="2.285203"></trkpt>
      <trkpt lat="48.887351" lon="2.315195"></trkpt>
      <trkpt lat="48.885491" lon="2.317408"></trkpt>
      <trkpt lat="48.881126" lon="2.321853"></trkpt>
      <trkpt lat="48.880004" lon="2.322795"></trkpt>
      <trkpt lat="48.878553" lon="2.323806"></trkpt>
      <trkpt lat="48.876807" lon="2.325485"></trkpt>
  </trkseg></trk>
</gpx>
