<?xml version="1.0" encoding="UTF-8"?>
<gpx version="1.1" creator="yatutbuv" xmlns="http://www.topografix.com/GPX/1/1">
  <trk><name>1995_LvivSolotvyno (444.3km)</name><trkseg>
      <trkpt lat="49.839997" lon="23.993806"></trkpt>
      <trkpt lat="49.838812" lon="23.993019"></trkpt>
      <trkpt lat="49.83816" lon="23.992337"></trkpt>
      <trkpt lat="49.837588" lon="23.991341"></trkpt>
      <trkpt lat="49.837159" lon="23.99016"></trkpt>
      <trkpt lat="49.835536" lon="23.981564"></trkpt>
      <trkpt lat="49.834258" lon="23.976672"></trkpt>
      <trkpt lat="49.834115" lon="23.975505"></trkpt>
      <trkpt lat="49.83405" lon="23.972758"></trkpt>
      <trkpt lat="49.834747" lon="23.967532"></trkpt>
      <trkpt lat="49.834673" lon="23.966452"></trkpt>
      <trkpt lat="49.83442" lon="23.96523"></trkpt>
      <trkpt lat="49.826744" lon="23.941727"></trkpt>
      <trkpt lat="49.826095" lon="23.940249"></trkpt>
      <trkpt lat="49.824981" lon="23.938508"></trkpt>
      <trkpt lat="49.824311" lon="23.937787"></trkpt>
      <trkpt lat="49.817185" lon="23.931406"></trkpt>
      <trkpt lat="49.803208" lon="23.915906"></trkpt>
      <trkpt lat="49.801372" lon="23.913223"></trkpt>
      <trkpt lat="49.798234" lon="23.908253"></trkpt>
      <trkpt lat="49.796332" lon="23.904174"></trkpt>
      <trkpt lat="49.795566" lon="23.902794"></trkpt>
      <trkpt lat="49.791907" lon="23.89777"></trkpt>
      <trkpt lat="49.790755" lon="23.896574"></trkpt>
      <trkpt lat="49.788537" lon="23.895326"></trkpt>
      <trkpt lat="49.787545" lon="23.894925"></trkpt>
      <trkpt lat="49.776918" lon="23.891394"></trkpt>
      <trkpt lat="49.77314" lon="23.888945"></trkpt>
      <trkpt lat="49.772257" lon="23.888136"></trkpt>
      <trkpt lat="49.771453" lon="23.887001"></trkpt>
      <trkpt lat="49.770946" lon="23.886019"></trkpt>
      <trkpt lat="49.769687" lon="23.882911"></trkpt>
      <trkpt lat="49.768913" lon="23.881611"></trkpt>
      <trkpt lat="49.765759" lon="23.877836"></trkpt>
      <trkpt lat="49.765108" lon="23.877229"></trkpt>
      <trkpt lat="49.764556" lon="23.876911"></trkpt>
      <trkpt lat="49.763694" lon="23.876676"></trkpt>
      <trkpt lat="49.762681" lon="23.876837"></trkpt>
      <trkpt lat="49.761905" lon="23.877292"></trkpt>
      <trkpt lat="49.7599" lon="23.879052"></trkpt>
      <trkpt lat="49.758819" lon="23.879819"></trkpt>
      <trkpt lat="49.758262" lon="23.880011"></trkpt>
      <trkpt lat="49.756289" lon="23.880292"></trkpt>
      <trkpt lat="49.75495" lon="23.880195"></trkpt>
      <trkpt lat="49.753886" lon="23.879865"></trkpt>
      <trkpt lat="49.752902" lon="23.879275"></trkpt>
      <trkpt lat="49.75187" lon="23.878273"></trkpt>
      <trkpt lat="49.751219" lon="23.87736"></trkpt>
      <trkpt lat="49.750556" lon="23.876125"></trkpt>
      <trkpt lat="49.749922" lon="23.874305"></trkpt>
      <trkpt lat="49.744219" lon="23.844084"></trkpt>
      <trkpt lat="49.743822" lon="23.842722"></trkpt>
      <trkpt lat="49.743048" lon="23.841587"></trkpt>
      <trkpt lat="49.742497" lon="23.841171"></trkpt>
      <trkpt lat="49.741862" lon="23.840961"></trkpt>
      <trkpt lat="49.735372" lon="23.839716"></trkpt>
      <trkpt lat="49.725935" lon="23.838085"></trkpt>
      <trkpt lat="49.72494" lon="23.837822"></trkpt>
      <trkpt lat="49.724145" lon="23.837486"></trkpt>
      <trkpt lat="49.723141" lon="23.83684"></trkpt>
      <trkpt lat="49.721811" lon="23.835627"></trkpt>
      <trkpt lat="49.720263" lon="23.833517"></trkpt>
      <trkpt lat="49.719568" lon="23.832118"></trkpt>
      <trkpt lat="49.718765" lon="23.829797"></trkpt>
      <trkpt lat="49.718282" lon="23.82766"></trkpt>
      <trkpt lat="49.714624" lon="23.802473"></trkpt>
      <trkpt lat="49.714652" lon="23.799083"></trkpt>
      <trkpt lat="49.718477" lon="23.759414"></trkpt>
      <trkpt lat="49.718567" lon="23.7577"></trkpt>
      <trkpt lat="49.718402" lon="23.755845"></trkpt>
      <trkpt lat="49.718162" lon="23.754671"></trkpt>
      <trkpt lat="49.715526" lon="23.747856"></trkpt>
      <trkpt lat="49.715119" lon="23.746218"></trkpt>
      <trkpt lat="49.714901" lon="23.744771"></trkpt>
      <trkpt lat="49.714779" lon="23.742926"></trkpt>
      <trkpt lat="49.714835" lon="23.739943"></trkpt>
      <trkpt lat="49.715551" lon="23.729273"></trkpt>
      <trkpt lat="49.715604" lon="23.726008"></trkpt>
      <trkpt lat="49.715531" lon="23.724749"></trkpt>
      <trkpt lat="49.71528" lon="23.723343"></trkpt>
      <trkpt lat="49.71493" lon="23.722172"></trkpt>
      <trkpt lat="49.714337" lon="23.720852"></trkpt>
      <trkpt lat="49.713422" lon="23.719521"></trkpt>
      <trkpt lat="49.712225" lon="23.718457"></trkpt>
      <trkpt lat="49.664193" lon="23.688494"></trkpt>
      <trkpt lat="49.661315" lon="23.685403"></trkpt>
      <trkpt lat="49.656183" lon="23.677552"></trkpt>
      <trkpt lat="49.655675" lon="23.676561"></trkpt>
      <trkpt lat="49.655437" lon="23.675627"></trkpt>
      <trkpt lat="49.655342" lon="23.674187"></trkpt>
      <trkpt lat="49.656392" lon="23.661924"></trkpt>
      <trkpt lat="49.657099" lon="23.657119"></trkpt>
      <trkpt lat="49.657093" lon="23.651295"></trkpt>
      <trkpt lat="49.657335" lon="23.644248"></trkpt>
      <trkpt lat="49.657711" lon="23.641328"></trkpt>
      <trkpt lat="49.660743" lon="23.629792"></trkpt>
      <trkpt lat="49.66268" lon="23.619932"></trkpt>
      <trkpt lat="49.663044" lon="23.618589"></trkpt>
      <trkpt lat="49.663586" lon="23.61719"></trkpt>
      <trkpt lat="49.664221" lon="23.615981"></trkpt>
      <trkpt lat="49.668139" lon="23.6099"></trkpt>
      <trkpt lat="49.668734" lon="23.608263"></trkpt>
      <trkpt lat="49.670382" lon="23.597816"></trkpt>
      <trkpt lat="49.670506" lon="23.594563"></trkpt>
      <trkpt lat="49.669946" lon="23.581862"></trkpt>
      <trkpt lat="49.666652" lon="23.551577"></trkpt>
      <trkpt lat="49.666803" lon="23.5489"></trkpt>
      <trkpt lat="49.668839" lon="23.540322"></trkpt>
      <trkpt lat="49.669185" lon="23.537406"></trkpt>
      <trkpt lat="49.669152" lon="23.535907"></trkpt>
      <trkpt lat="49.667643" lon="23.520414"></trkpt>
      <trkpt lat="49.667487" lon="23.519717"></trkpt>
      <trkpt lat="49.666872" lon="23.518409"></trkpt>
      <trkpt lat="49.666357" lon="23.517855"></trkpt>
      <trkpt lat="49.665671" lon="23.517462"></trkpt>
      <trkpt lat="49.664369" lon="23.51711"></trkpt>
      <trkpt lat="49.659222" lon="23.516147"></trkpt>
      <trkpt lat="49.657832" lon="23.515581"></trkpt>
      <trkpt lat="49.656838" lon="23.51495"></trkpt>
      <trkpt lat="49.655977" lon="23.514139"></trkpt>
      <trkpt lat="49.655298" lon="23.513275"></trkpt>
      <trkpt lat="49.652661" lon="23.508848"></trkpt>
      <trkpt lat="49.651509" lon="23.507451"></trkpt>
      <trkpt lat="49.650426" lon="23.506802"></trkpt>
      <trkpt lat="49.647755" lon="23.506008"></trkpt>
      <trkpt lat="49.646835" lon="23.505503"></trkpt>
      <trkpt lat="49.646085" lon="23.504795"></trkpt>
      <trkpt lat="49.642707" lon="23.500466"></trkpt>
      <trkpt lat="49.627173" lon="23.479498"></trkpt>
      <trkpt lat="49.62574" lon="23.477115"></trkpt>
      <trkpt lat="49.624637" lon="23.474592"></trkpt>
      <trkpt lat="49.611587" lon="23.438969"></trkpt>
      <trkpt lat="49.604854" lon="23.413971"></trkpt>
      <trkpt lat="49.604238" lon="23.410705"></trkpt>
      <trkpt lat="49.599821" lon="23.376602"></trkpt>
      <trkpt lat="49.599686" lon="23.374103"></trkpt>
      <trkpt lat="49.599675" lon="23.364608"></trkpt>
      <trkpt lat="49.599525" lon="23.363238"></trkpt>
      <trkpt lat="49.599272" lon="23.362291"></trkpt>
      <trkpt lat="49.593196" lon="23.346548"></trkpt>
      <trkpt lat="49.592417" lon="23.344991"></trkpt>
      <trkpt lat="49.591512" lon="23.343554"></trkpt>
      <trkpt lat="49.562921" lon="23.304722"></trkpt>
      <trkpt lat="49.556159" lon="23.29152"></trkpt>
      <trkpt lat="49.55568" lon="23.290403"></trkpt>
      <trkpt lat="49.534863" lon="23.249141"></trkpt>
      <trkpt lat="49.533995" lon="23.247712"></trkpt>
      <trkpt lat="49.533216" lon="23.246683"></trkpt>
      <trkpt lat="49.531991" lon="23.245377"></trkpt>
      <trkpt lat="49.510287" lon="23.223618"></trkpt>
      <trkpt lat="49.509583" lon="23.222775"></trkpt>
      <trkpt lat="49.509275" lon="23.222141"></trkpt>
      <trkpt lat="49.508998" lon="23.220649"></trkpt>
      <trkpt lat="49.509121" lon="23.219264"></trkpt>
      <trkpt lat="49.50966" lon="23.217986"></trkpt>
      <trkpt lat="49.510391" lon="23.21718"></trkpt>
      <trkpt lat="49.513791" lon="23.21507"></trkpt>
      <trkpt lat="49.515372" lon="23.21437"></trkpt>
      <trkpt lat="49.51689" lon="23.213528"></trkpt>
      <trkpt lat="49.520162" lon="23.211419"></trkpt>
      <trkpt lat="49.523364" lon="23.210091"></trkpt>
      <trkpt lat="49.524253" lon="23.209965"></trkpt>
      <trkpt lat="49.524784" lon="23.210117"></trkpt>
      <trkpt lat="49.52524" lon="23.210419"></trkpt>
      <trkpt lat="49.526733" lon="23.212042"></trkpt>
      <trkpt lat="49.527551" lon="23.212576"></trkpt>
      <trkpt lat="49.528522" lon="23.212688"></trkpt>
      <trkpt lat="49.529174" lon="23.21247"></trkpt>
      <trkpt lat="49.529655" lon="23.212129"></trkpt>
      <trkpt lat="49.530056" lon="23.211666"></trkpt>
      <trkpt lat="49.530557" lon="23.210768"></trkpt>
      <trkpt lat="49.530957" lon="23.209184"></trkpt>
      <trkpt lat="49.530914" lon="23.207637"></trkpt>
      <trkpt lat="49.530489" lon="23.205651"></trkpt>
      <trkpt lat="49.529993" lon="23.204322"></trkpt>
      <trkpt lat="49.521893" lon="23.189075"></trkpt>
      <trkpt lat="49.517182" lon="23.175888"></trkpt>
      <trkpt lat="49.513365" lon="23.1692"></trkpt>
      <trkpt lat="49.504383" lon="23.148144"></trkpt>
      <trkpt lat="49.503593" lon="23.147232"></trkpt>
      <trkpt lat="49.502977" lon="23.146882"></trkpt>
      <trkpt lat="49.502146" lon="23.14678"></trkpt>
      <trkpt lat="49.501378" lon="23.147087"></trkpt>
      <trkpt lat="49.49971" lon="23.148269"></trkpt>
      <trkpt lat="49.499347" lon="23.148397"></trkpt>
      <trkpt lat="49.498769" lon="23.148358"></trkpt>
      <trkpt lat="49.49822" lon="23.148138"></trkpt>
      <trkpt lat="49.497737" lon="23.147745"></trkpt>
      <trkpt lat="49.497105" lon="23.146788"></trkpt>
      <trkpt lat="49.495158" lon="23.141239"></trkpt>
      <trkpt lat="49.494361" lon="23.137934"></trkpt>
      <trkpt lat="49.486045" lon="23.116276"></trkpt>
      <trkpt lat="49.485209" lon="23.112821"></trkpt>
      <trkpt lat="49.484734" lon="23.111404"></trkpt>
      <trkpt lat="49.473167" lon="23.08209"></trkpt>
      <trkpt lat="49.471183" lon="23.076841"></trkpt>
      <trkpt lat="49.469299" lon="23.071045"></trkpt>
      <trkpt lat="49.455936" lon="23.036848"></trkpt>
      <trkpt lat="49.455288" lon="23.035661"></trkpt>
      <trkpt lat="49.454363" lon="23.034513"></trkpt>
      <trkpt lat="49.453937" lon="23.033793"></trkpt>
      <trkpt lat="49.452539" lon="23.030599"></trkpt>
      <trkpt lat="49.452268" lon="23.029578"></trkpt>
      <trkpt lat="49.452025" lon="23.027165"></trkpt>
      <trkpt lat="49.452112" lon="23.02572"></trkpt>
      <trkpt lat="49.452708" lon="23.023612"></trkpt>
      <trkpt lat="49.45287" lon="23.022505"></trkpt>
      <trkpt lat="49.452263" lon="23.008606"></trkpt>
      <trkpt lat="49.452125" lon="23.007653"></trkpt>
      <trkpt lat="49.451813" lon="23.006748"></trkpt>
      <trkpt lat="49.450725" lon="23.005121"></trkpt>
      <trkpt lat="49.450116" lon="23.004608"></trkpt>
      <trkpt lat="49.449667" lon="23.004449"></trkpt>
      <trkpt lat="49.441289" lon="23.003189"></trkpt>
      <trkpt lat="49.439386" lon="23.002772"></trkpt>
      <trkpt lat="49.43057" lon="22.999287"></trkpt>
      <trkpt lat="49.429707" lon="22.998689"></trkpt>
      <trkpt lat="49.429233" lon="22.998157"></trkpt>
      <trkpt lat="49.42667" lon="22.994304"></trkpt>
      <trkpt lat="49.425429" lon="22.993368"></trkpt>
      <trkpt lat="49.424622" lon="22.992929"></trkpt>
      <trkpt lat="49.422548" lon="22.992259"></trkpt>
      <trkpt lat="49.417322" lon="22.99092"></trkpt>
      <trkpt lat="49.412544" lon="22.987908"></trkpt>
      <trkpt lat="49.410368" lon="22.987154"></trkpt>
      <trkpt lat="49.408736" lon="22.98602"></trkpt>
      <trkpt lat="49.40583" lon="22.985892"></trkpt>
      <trkpt lat="49.405113" lon="22.98566"></trkpt>
      <trkpt lat="49.404488" lon="22.985181"></trkpt>
      <trkpt lat="49.40411" lon="22.984675"></trkpt>
      <trkpt lat="49.403029" lon="22.982254"></trkpt>
      <trkpt lat="49.402577" lon="22.981658"></trkpt>
      <trkpt lat="49.400781" lon="22.980504"></trkpt>
      <trkpt lat="49.399011" lon="22.979012"></trkpt>
      <trkpt lat="49.398231" lon="22.978698"></trkpt>
      <trkpt lat="49.397681" lon="22.978677"></trkpt>
      <trkpt lat="49.397163" lon="22.97885"></trkpt>
      <trkpt lat="49.395927" lon="22.979762"></trkpt>
      <trkpt lat="49.393871" lon="22.980974"></trkpt>
      <trkpt lat="49.389849" lon="22.982886"></trkpt>
      <trkpt lat="49.389156" lon="22.983544"></trkpt>
      <trkpt lat="49.386419" lon="22.98692"></trkpt>
      <trkpt lat="49.382991" lon="22.990305"></trkpt>
      <trkpt lat="49.382156" lon="22.991016"></trkpt>
      <trkpt lat="49.380584" lon="22.991962"></trkpt>
      <trkpt lat="49.379778" lon="22.992601"></trkpt>
      <trkpt lat="49.373694" lon="22.998307"></trkpt>
      <trkpt lat="49.373235" lon="22.998975"></trkpt>
      <trkpt lat="49.372888" lon="22.99973"></trkpt>
      <trkpt lat="49.372191" lon="23.002618"></trkpt>
      <trkpt lat="49.372093" lon="23.004029"></trkpt>
      <trkpt lat="49.372227" lon="23.006256"></trkpt>
      <trkpt lat="49.371985" lon="23.007956"></trkpt>
      <trkpt lat="49.371464" lon="23.009123"></trkpt>
      <trkpt lat="49.369296" lon="23.01161"></trkpt>
      <trkpt lat="49.368692" lon="23.012076"></trkpt>
      <trkpt lat="49.368205" lon="23.012301"></trkpt>
      <trkpt lat="49.365918" lon="23.012994"></trkpt>
      <trkpt lat="49.363848" lon="23.014488"></trkpt>
      <trkpt lat="49.358897" lon="23.016107"></trkpt>
      <trkpt lat="49.355902" lon="23.017832"></trkpt>
      <trkpt lat="49.352731" lon="23.018589"></trkpt>
      <trkpt lat="49.352038" lon="23.018566"></trkpt>
      <trkpt lat="49.351277" lon="23.018351"></trkpt>
      <trkpt lat="49.350242" lon="23.017554"></trkpt>
      <trkpt lat="49.344361" lon="23.008024"></trkpt>
      <trkpt lat="49.343932" lon="23.007041"></trkpt>
      <trkpt lat="49.343222" lon="23.004797"></trkpt>
      <trkpt lat="49.341801" lon="22.999916"></trkpt>
      <trkpt lat="49.341168" lon="22.997039"></trkpt>
      <trkpt lat="49.340683" lon="22.995786"></trkpt>
      <trkpt lat="49.33634" lon="22.989451"></trkpt>
      <trkpt lat="49.332477" lon="22.985798"></trkpt>
      <trkpt lat="49.331707" lon="22.984769"></trkpt>
      <trkpt lat="49.327278" lon="22.976848"></trkpt>
      <trkpt lat="49.325649" lon="22.971206"></trkpt>
      <trkpt lat="49.32289" lon="22.966177"></trkpt>
      <trkpt lat="49.314887" lon="22.956212"></trkpt>
      <trkpt lat="49.314034" lon="22.955553"></trkpt>
      <trkpt lat="49.313193" lon="22.955328"></trkpt>
      <trkpt lat="49.31218" lon="22.955506"></trkpt>
      <trkpt lat="49.303177" lon="22.960327"></trkpt>
      <trkpt lat="49.3025" lon="22.961018"></trkpt>
      <trkpt lat="49.302024" lon="22.96174"></trkpt>
      <trkpt lat="49.300362" lon="22.964971"></trkpt>
      <trkpt lat="49.299858" lon="22.965673"></trkpt>
      <trkpt lat="49.29674" lon="22.968178"></trkpt>
      <trkpt lat="49.296124" lon="22.968536"></trkpt>
      <trkpt lat="49.295022" lon="22.968622"></trkpt>
      <trkpt lat="49.293733" lon="22.968287"></trkpt>
      <trkpt lat="49.291886" lon="22.968605"></trkpt>
      <trkpt lat="49.291233" lon="22.968524"></trkpt>
      <trkpt lat="49.290406" lon="22.968226"></trkpt>
      <trkpt lat="49.289029" lon="22.967277"></trkpt>
      <trkpt lat="49.288249" lon="22.96706"></trkpt>
      <trkpt lat="49.287562" lon="22.967188"></trkpt>
      <trkpt lat="49.287146" lon="22.96739"></trkpt>
      <trkpt lat="49.284846" lon="22.968726"></trkpt>
      <trkpt lat="49.284268" lon="22.969286"></trkpt>
      <trkpt lat="49.283916" lon="22.969858"></trkpt>
      <trkpt lat="49.282347" lon="22.975009"></trkpt>
      <trkpt lat="49.282011" lon="22.975776"></trkpt>
      <trkpt lat="49.281651" lon="22.976291"></trkpt>
      <trkpt lat="49.280904" lon="22.976912"></trkpt>
      <trkpt lat="49.279258" lon="22.977844"></trkpt>
      <trkpt lat="49.273104" lon="22.981073"></trkpt>
      <trkpt lat="49.270739" lon="22.983423"></trkpt>
      <trkpt lat="49.26943" lon="22.985774"></trkpt>
      <trkpt lat="49.268721" lon="22.986454"></trkpt>
      <trkpt lat="49.267647" lon="22.987085"></trkpt>
      <trkpt lat="49.266872" lon="22.987082"></trkpt>
      <trkpt lat="49.265196" lon="22.986506"></trkpt>
      <trkpt lat="49.262662" lon="22.985188"></trkpt>
      <trkpt lat="49.26209" lon="22.984716"></trkpt>
      <trkpt lat="49.260635" lon="22.982423"></trkpt>
      <trkpt lat="49.259883" lon="22.981933"></trkpt>
      <trkpt lat="49.259541" lon="22.98187"></trkpt>
      <trkpt lat="49.258878" lon="22.981967"></trkpt>
      <trkpt lat="49.257249" lon="22.982948"></trkpt>
      <trkpt lat="49.256672" lon="22.983"></trkpt>
      <trkpt lat="49.25595" lon="22.982734"></trkpt>
      <trkpt lat="49.251516" lon="22.978485"></trkpt>
      <trkpt lat="49.247271" lon="22.976442"></trkpt>
      <trkpt lat="49.246509" lon="22.976291"></trkpt>
      <trkpt lat="49.245383" lon="22.976315"></trkpt>
      <trkpt lat="49.244833" lon="22.976132"></trkpt>
      <trkpt lat="49.244126" lon="22.975565"></trkpt>
      <trkpt lat="49.240892" lon="22.971574"></trkpt>
      <trkpt lat="49.240114" lon="22.971188"></trkpt>
      <trkpt lat="49.239432" lon="22.971238"></trkpt>
      <trkpt lat="49.238569" lon="22.971804"></trkpt>
      <trkpt lat="49.23797" lon="22.972685"></trkpt>
      <trkpt lat="49.235805" lon="22.977117"></trkpt>
      <trkpt lat="49.235434" lon="22.978129"></trkpt>
      <trkpt lat="49.235311" lon="22.97891"></trkpt>
      <trkpt lat="49.235313" lon="22.979894"></trkpt>
      <trkpt lat="49.23559" lon="22.981195"></trkpt>
      <trkpt lat="49.235979" lon="22.982027"></trkpt>
      <trkpt lat="49.23733" lon="22.983926"></trkpt>
      <trkpt lat="49.237727" lon="22.98507"></trkpt>
      <trkpt lat="49.237865" lon="22.986618"></trkpt>
      <trkpt lat="49.237753" lon="22.989252"></trkpt>
      <trkpt lat="49.237528" lon="22.990402"></trkpt>
      <trkpt lat="49.237239" lon="22.991109"></trkpt>
      <trkpt lat="49.236615" lon="22.991955"></trkpt>
      <trkpt lat="49.234782" lon="22.993324"></trkpt>
      <trkpt lat="49.232194" lon="22.997341"></trkpt>
      <trkpt lat="49.231044" lon="22.998672"></trkpt>
      <trkpt lat="49.230051" lon="22.999521"></trkpt>
      <trkpt lat="49.228693" lon="23.000084"></trkpt>
      <trkpt lat="49.228038" lon="23.000477"></trkpt>
      <trkpt lat="49.22744" lon="23.001065"></trkpt>
      <trkpt lat="49.225947" lon="23.002933"></trkpt>
      <trkpt lat="49.222637" lon="23.005162"></trkpt>
      <trkpt lat="49.219043" lon="23.009464"></trkpt>
      <trkpt lat="49.217051" lon="23.010755"></trkpt>
      <trkpt lat="49.213793" lon="23.014304"></trkpt>
      <trkpt lat="49.211105" lon="23.020813"></trkpt>
      <trkpt lat="49.20984" lon="23.025376"></trkpt>
      <trkpt lat="49.2086" lon="23.028057"></trkpt>
      <trkpt lat="49.20781" lon="23.030797"></trkpt>
      <trkpt lat="49.206904" lon="23.032609"></trkpt>
      <trkpt lat="49.206547" lon="23.033634"></trkpt>
      <trkpt lat="49.206406" lon="23.034923"></trkpt>
      <trkpt lat="49.206482" lon="23.035819"></trkpt>
      <trkpt lat="49.207078" lon="23.037793"></trkpt>
      <trkpt lat="49.207289" lon="23.038904"></trkpt>
      <trkpt lat="49.20726" lon="23.039995"></trkpt>
      <trkpt lat="49.206974" lon="23.041189"></trkpt>
      <trkpt lat="49.20669" lon="23.041758"></trkpt>
      <trkpt lat="49.206087" lon="23.042499"></trkpt>
      <trkpt lat="49.20449" lon="23.043481"></trkpt>
      <trkpt lat="49.203772" lon="23.044183"></trkpt>
      <trkpt lat="49.20245" lon="23.046154"></trkpt>
      <trkpt lat="49.201825" lon="23.047643"></trkpt>
      <trkpt lat="49.200886" lon="23.051307"></trkpt>
      <trkpt lat="49.200314" lon="23.052436"></trkpt>
      <trkpt lat="49.199428" lon="23.053193"></trkpt>
      <trkpt lat="49.197905" lon="23.053444"></trkpt>
      <trkpt lat="49.197064" lon="23.053844"></trkpt>
      <trkpt lat="49.19616" lon="23.054835"></trkpt>
      <trkpt lat="49.195718" lon="23.055708"></trkpt>
      <trkpt lat="49.195396" lon="23.056708"></trkpt>
      <trkpt lat="49.195203" lon="23.058001"></trkpt>
      <trkpt lat="49.19525" lon="23.060656"></trkpt>
      <trkpt lat="49.194935" lon="23.063805"></trkpt>
      <trkpt lat="49.194864" lon="23.066374"></trkpt>
      <trkpt lat="49.194573" lon="23.067574"></trkpt>
      <trkpt lat="49.194226" lon="23.06833"></trkpt>
      <trkpt lat="49.193555" lon="23.069091"></trkpt>
      <trkpt lat="49.192749" lon="23.069453"></trkpt>
      <trkpt lat="49.192082" lon="23.069441"></trkpt>
      <trkpt lat="49.191098" lon="23.06921"></trkpt>
      <trkpt lat="49.190303" lon="23.069372"></trkpt>
      <trkpt lat="49.189454" lon="23.070025"></trkpt>
      <trkpt lat="49.187717" lon="23.071761"></trkpt>
      <trkpt lat="49.187203" lon="23.072115"></trkpt>
      <trkpt lat="49.186284" lon="23.072485"></trkpt>
      <trkpt lat="49.185776" lon="23.072567"></trkpt>
      <trkpt lat="49.182256" lon="23.072554"></trkpt>
      <trkpt lat="49.181509" lon="23.072326"></trkpt>
      <trkpt lat="49.181067" lon="23.072024"></trkpt>
      <trkpt lat="49.180526" lon="23.07138"></trkpt>
      <trkpt lat="49.180145" lon="23.070653"></trkpt>
      <trkpt lat="49.179215" lon="23.067861"></trkpt>
      <trkpt lat="49.176847" lon="23.062395"></trkpt>
      <trkpt lat="49.171853" lon="23.053231"></trkpt>
      <trkpt lat="49.16964" lon="23.051497"></trkpt>
      <trkpt lat="49.167082" lon="23.047869"></trkpt>
      <trkpt lat="49.16649" lon="23.047212"></trkpt>
      <trkpt lat="49.165794" lon="23.046754"></trkpt>
      <trkpt lat="49.164787" lon="23.04649"></trkpt>
      <trkpt lat="49.164175" lon="23.046538"></trkpt>
      <trkpt lat="49.161723" lon="23.04779"></trkpt>
      <trkpt lat="49.160924" lon="23.048079"></trkpt>
      <trkpt lat="49.160287" lon="23.048061"></trkpt>
      <trkpt lat="49.159573" lon="23.047691"></trkpt>
      <trkpt lat="49.158899" lon="23.046935"></trkpt>
      <trkpt lat="49.157939" lon="23.044937"></trkpt>
      <trkpt lat="49.156625" lon="23.042987"></trkpt>
      <trkpt lat="49.156138" lon="23.041498"></trkpt>
      <trkpt lat="49.155956" lon="23.039443"></trkpt>
      <trkpt lat="49.155218" lon="23.035561"></trkpt>
      <trkpt lat="49.153133" lon="23.030498"></trkpt>
      <trkpt lat="49.152699" lon="23.026353"></trkpt>
      <trkpt lat="49.15247" lon="23.025053"></trkpt>
      <trkpt lat="49.151858" lon="23.023503"></trkpt>
      <trkpt lat="49.150115" lon="23.020419"></trkpt>
      <trkpt lat="49.149708" lon="23.019316"></trkpt>
      <trkpt lat="49.149501" lon="23.018071"></trkpt>
      <trkpt lat="49.149503" lon="23.015188"></trkpt>
      <trkpt lat="49.14925" lon="23.013833"></trkpt>
      <trkpt lat="49.1489" lon="23.013023"></trkpt>
      <trkpt lat="49.148009" lon="23.011695"></trkpt>
      <trkpt lat="49.147614" lon="23.010873"></trkpt>
      <trkpt lat="49.146849" lon="23.008051"></trkpt>
      <trkpt lat="49.145094" lon="23.005492"></trkpt>
      <trkpt lat="49.143569" lon="23.000507"></trkpt>
      <trkpt lat="49.142625" lon="22.99898"></trkpt>
      <trkpt lat="49.14229" lon="22.998189"></trkpt>
      <trkpt lat="49.142096" lon="22.997194"></trkpt>
      <trkpt lat="49.142084" lon="22.996279"></trkpt>
      <trkpt lat="49.142463" lon="22.993901"></trkpt>
      <trkpt lat="49.142478" lon="22.993089"></trkpt>
      <trkpt lat="49.142246" lon="22.991766"></trkpt>
      <trkpt lat="49.141832" lon="22.990809"></trkpt>
      <trkpt lat="49.140967" lon="22.989855"></trkpt>
      <trkpt lat="49.138747" lon="22.988146"></trkpt>
      <trkpt lat="49.135921" lon="22.98718"></trkpt>
      <trkpt lat="49.134794" lon="22.986177"></trkpt>
      <trkpt lat="49.134341" lon="22.985482"></trkpt>
      <trkpt lat="49.134022" lon="22.984602"></trkpt>
      <trkpt lat="49.133756" lon="22.981742"></trkpt>
      <trkpt lat="49.133544" lon="22.980808"></trkpt>
      <trkpt lat="49.133225" lon="22.980087"></trkpt>
      <trkpt lat="49.132606" lon="22.979311"></trkpt>
      <trkpt lat="49.132096" lon="22.978971"></trkpt>
      <trkpt lat="49.131614" lon="22.978816"></trkpt>
      <trkpt lat="49.131108" lon="22.978819"></trkpt>
      <trkpt lat="49.129799" lon="22.979093"></trkpt>
      <trkpt lat="49.128879" lon="22.978843"></trkpt>
      <trkpt lat="49.128277" lon="22.978309"></trkpt>
      <trkpt lat="49.127246" lon="22.976524"></trkpt>
      <trkpt lat="49.12674" lon="22.975849"></trkpt>
      <trkpt lat="49.125049" lon="22.974442"></trkpt>
      <trkpt lat="49.124495" lon="22.973474"></trkpt>
      <trkpt lat="49.124207" lon="22.972576"></trkpt>
      <trkpt lat="49.123573" lon="22.96944"></trkpt>
      <trkpt lat="49.123178" lon="22.966428"></trkpt>
      <trkpt lat="49.122717" lon="22.965009"></trkpt>
      <trkpt lat="49.122253" lon="22.964237"></trkpt>
      <trkpt lat="49.120953" lon="22.962837"></trkpt>
      <trkpt lat="49.118716" lon="22.959004"></trkpt>
      <trkpt lat="49.115414" lon="22.95571"></trkpt>
      <trkpt lat="49.114737" lon="22.955244"></trkpt>
      <trkpt lat="49.11388" lon="22.955111"></trkpt>
      <trkpt lat="49.11323" lon="22.955329"></trkpt>
      <trkpt lat="49.111836" lon="22.956338"></trkpt>
      <trkpt lat="49.111186" lon="22.957042"></trkpt>
      <trkpt lat="49.108816" lon="22.960547"></trkpt>
      <trkpt lat="49.107961" lon="22.961285"></trkpt>
      <trkpt lat="49.107081" lon="22.961562"></trkpt>
      <trkpt lat="49.106159" lon="22.961656"></trkpt>
      <trkpt lat="49.105501" lon="22.961434"></trkpt>
      <trkpt lat="49.10498" lon="22.961034"></trkpt>
      <trkpt lat="49.104491" lon="22.960387"></trkpt>
      <trkpt lat="49.104102" lon="22.959473"></trkpt>
      <trkpt lat="49.102888" lon="22.953861"></trkpt>
      <trkpt lat="49.102433" lon="22.95269"></trkpt>
      <trkpt lat="49.102066" lon="22.952161"></trkpt>
      <trkpt lat="49.101068" lon="22.951235"></trkpt>
      <trkpt lat="49.100282" lon="22.950228"></trkpt>
      <trkpt lat="49.098651" lon="22.947476"></trkpt>
      <trkpt lat="49.097792" lon="22.945064"></trkpt>
      <trkpt lat="49.096004" lon="22.942892"></trkpt>
      <trkpt lat="49.090481" lon="22.934338"></trkpt>
      <trkpt lat="49.090109" lon="22.933401"></trkpt>
      <trkpt lat="49.089933" lon="22.932526"></trkpt>
      <trkpt lat="49.090001" lon="22.928568"></trkpt>
      <trkpt lat="49.089623" lon="22.926771"></trkpt>
      <trkpt lat="49.08898" lon="22.925467"></trkpt>
      <trkpt lat="49.085856" lon="22.921799"></trkpt>
      <trkpt lat="49.085273" lon="22.920248"></trkpt>
      <trkpt lat="49.085158" lon="22.918692"></trkpt>
      <trkpt lat="49.085409" lon="22.916771"></trkpt>
      <trkpt lat="49.085799" lon="22.91564"></trkpt>
      <trkpt lat="49.086324" lon="22.914873"></trkpt>
      <trkpt lat="49.087881" lon="22.913323"></trkpt>
      <trkpt lat="49.088377" lon="22.912484"></trkpt>
      <trkpt lat="49.08867" lon="22.911692"></trkpt>
      <trkpt lat="49.088858" lon="22.910734"></trkpt>
      <trkpt lat="49.088842" lon="22.908937"></trkpt>
      <trkpt lat="49.089014" lon="22.907624"></trkpt>
      <trkpt lat="49.089511" lon="22.906192"></trkpt>
      <trkpt lat="49.090362" lon="22.904375"></trkpt>
      <trkpt lat="49.091014" lon="22.901956"></trkpt>
      <trkpt lat="49.091078" lon="22.900855"></trkpt>
      <trkpt lat="49.090904" lon="22.899655"></trkpt>
      <trkpt lat="49.090568" lon="22.898691"></trkpt>
      <trkpt lat="49.085983" lon="22.890635"></trkpt>
      <trkpt lat="49.081703" lon="22.886323"></trkpt>
      <trkpt lat="49.080942" lon="22.8851"></trkpt>
      <trkpt lat="49.079646" lon="22.88035"></trkpt>
      <trkpt lat="49.079266" lon="22.875581"></trkpt>
      <trkpt lat="49.078554" lon="22.873362"></trkpt>
      <trkpt lat="49.078099" lon="22.870663"></trkpt>
      <trkpt lat="49.077736" lon="22.869785"></trkpt>
      <trkpt lat="49.077245" lon="22.86909"></trkpt>
      <trkpt lat="49.076699" lon="22.868671"></trkpt>
      <trkpt lat="49.076167" lon="22.868464"></trkpt>
      <trkpt lat="49.075627" lon="22.868442"></trkpt>
      <trkpt lat="49.075078" lon="22.868607"></trkpt>
      <trkpt lat="49.074517" lon="22.868999"></trkpt>
      <trkpt lat="49.07414" lon="22.86945"></trkpt>
      <trkpt lat="49.073442" lon="22.870762"></trkpt>
      <trkpt lat="49.072758" lon="22.871679"></trkpt>
      <trkpt lat="49.072036" lon="22.872127"></trkpt>
      <trkpt lat="49.071434" lon="22.872217"></trkpt>
      <trkpt lat="49.069466" lon="22.871562"></trkpt>
      <trkpt lat="49.068652" lon="22.871411"></trkpt>
      <trkpt lat="49.068134" lon="22.871454"></trkpt>
      <trkpt lat="49.067073" lon="22.871762"></trkpt>
      <trkpt lat="49.066301" lon="22.871749"></trkpt>
      <trkpt lat="49.065707" lon="22.871428"></trkpt>
      <trkpt lat="49.064212" lon="22.870172"></trkpt>
      <trkpt lat="49.063457" lon="22.869809"></trkpt>
      <trkpt lat="49.063048" lon="22.869706"></trkpt>
      <trkpt lat="49.062238" lon="22.869727"></trkpt>
      <trkpt lat="49.061554" lon="22.86999"></trkpt>
      <trkpt lat="49.060804" lon="22.870554"></trkpt>
      <trkpt lat="49.059064" lon="22.872575"></trkpt>
      <trkpt lat="49.058006" lon="22.873537"></trkpt>
      <trkpt lat="49.056461" lon="22.875837"></trkpt>
      <trkpt lat="49.053788" lon="22.878546"></trkpt>
      <trkpt lat="49.053275" lon="22.878982"></trkpt>
      <trkpt lat="49.052085" lon="22.879593"></trkpt>
      <trkpt lat="49.051503" lon="22.880029"></trkpt>
      <trkpt lat="49.050849" lon="22.8811"></trkpt>
      <trkpt lat="49.050125" lon="22.883295"></trkpt>
      <trkpt lat="49.04972" lon="22.883941"></trkpt>
      <trkpt lat="49.049089" lon="22.884544"></trkpt>
      <trkpt lat="49.048347" lon="22.884813"></trkpt>
      <trkpt lat="49.047988" lon="22.884815"></trkpt>
      <trkpt lat="49.047431" lon="22.884633"></trkpt>
      <trkpt lat="49.046907" lon="22.884266"></trkpt>
      <trkpt lat="49.045334" lon="22.882641"></trkpt>
      <trkpt lat="49.044471" lon="22.88215"></trkpt>
      <trkpt lat="49.04388" lon="22.882123"></trkpt>
      <trkpt lat="49.043385" lon="22.882304"></trkpt>
      <trkpt lat="49.042514" lon="22.88308"></trkpt>
      <trkpt lat="49.041976" lon="22.884358"></trkpt>
      <trkpt lat="49.041866" lon="22.885855"></trkpt>
      <trkpt lat="49.042058" lon="22.886887"></trkpt>
      <trkpt lat="49.042794" lon="22.889383"></trkpt>
      <trkpt lat="49.042843" lon="22.89116"></trkpt>
      <trkpt lat="49.042505" lon="22.892591"></trkpt>
      <trkpt lat="49.042085" lon="22.893393"></trkpt>
      <trkpt lat="49.041651" lon="22.893842"></trkpt>
      <trkpt lat="49.040959" lon="22.894226"></trkpt>
      <trkpt lat="49.040468" lon="22.894263"></trkpt>
      <trkpt lat="49.037277" lon="22.893271"></trkpt>
      <trkpt lat="49.036719" lon="22.893308"></trkpt>
      <trkpt lat="49.036231" lon="22.893498"></trkpt>
      <trkpt lat="49.035753" lon="22.893863"></trkpt>
      <trkpt lat="49.035222" lon="22.894581"></trkpt>
      <trkpt lat="49.034931" lon="22.895278"></trkpt>
      <trkpt lat="49.034223" lon="22.897842"></trkpt>
      <trkpt lat="49.033868" lon="22.898501"></trkpt>
      <trkpt lat="49.033256" lon="22.899173"></trkpt>
      <trkpt lat="49.032427" lon="22.899557"></trkpt>
      <trkpt lat="49.031673" lon="22.899507"></trkpt>
      <trkpt lat="49.030834" lon="22.899024"></trkpt>
      <trkpt lat="49.030268" lon="22.898237"></trkpt>
      <trkpt lat="49.029495" lon="22.896727"></trkpt>
      <trkpt lat="49.028806" lon="22.895895"></trkpt>
      <trkpt lat="49.028175" lon="22.895568"></trkpt>
      <trkpt lat="49.027766" lon="22.895496"></trkpt>
      <trkpt lat="49.027142" lon="22.895574"></trkpt>
      <trkpt lat="49.026738" lon="22.895753"></trkpt>
      <trkpt lat="49.026216" lon="22.896151"></trkpt>
      <trkpt lat="49.025802" lon="22.896678"></trkpt>
      <trkpt lat="49.023733" lon="22.900543"></trkpt>
      <trkpt lat="49.021165" lon="22.904612"></trkpt>
      <trkpt lat="49.019963" lon="22.906743"></trkpt>
      <trkpt lat="49.019158" lon="22.907623"></trkpt>
      <trkpt lat="49.01853" lon="22.907889"></trkpt>
      <trkpt lat="49.017807" lon="22.908031"></trkpt>
      <trkpt lat="49.016409" lon="22.907956"></trkpt>
      <trkpt lat="49.014915" lon="22.90752"></trkpt>
      <trkpt lat="49.01401" lon="22.907051"></trkpt>
      <trkpt lat="49.01334" lon="22.906328"></trkpt>
      <trkpt lat="49.012949" lon="22.90548"></trkpt>
      <trkpt lat="49.012708" lon="22.904134"></trkpt>
      <trkpt lat="49.012714" lon="22.903257"></trkpt>
      <trkpt lat="49.013009" lon="22.900998"></trkpt>
      <trkpt lat="49.012791" lon="22.89951"></trkpt>
      <trkpt lat="49.012292" lon="22.898383"></trkpt>
      <trkpt lat="49.009741" lon="22.894087"></trkpt>
      <trkpt lat="49.00665" lon="22.891285"></trkpt>
      <trkpt lat="49.005719" lon="22.890067"></trkpt>
      <trkpt lat="49.004566" lon="22.888188"></trkpt>
      <trkpt lat="49.002781" lon="22.886376"></trkpt>
      <trkpt lat="49.001944" lon="22.884999"></trkpt>
      <trkpt lat="49.001299" lon="22.884198"></trkpt>
      <trkpt lat="49.000408" lon="22.883634"></trkpt>
      <trkpt lat="48.999921" lon="22.883516"></trkpt>
      <trkpt lat="48.998282" lon="22.883842"></trkpt>
      <trkpt lat="48.99764" lon="22.88371"></trkpt>
      <trkpt lat="48.996934" lon="22.883205"></trkpt>
      <trkpt lat="48.996377" lon="22.882142"></trkpt>
      <trkpt lat="48.996125" lon="22.880636"></trkpt>
      <trkpt lat="48.99625" lon="22.879098"></trkpt>
      <trkpt lat="48.997577" lon="22.876058"></trkpt>
      <trkpt lat="48.998069" lon="22.873709"></trkpt>
      <trkpt lat="48.999069" lon="22.871464"></trkpt>
      <trkpt lat="48.999454" lon="22.869987"></trkpt>
      <trkpt lat="48.999541" lon="22.868262"></trkpt>
      <trkpt lat="48.999302" lon="22.866481"></trkpt>
      <trkpt lat="48.999472" lon="22.863621"></trkpt>
      <trkpt lat="48.999238" lon="22.862321"></trkpt>
      <trkpt lat="48.998289" lon="22.860511"></trkpt>
      <trkpt lat="48.99799" lon="22.859118"></trkpt>
      <trkpt lat="48.998097" lon="22.857626"></trkpt>
      <trkpt lat="48.998802" lon="22.855036"></trkpt>
      <trkpt lat="48.998795" lon="22.853593"></trkpt>
      <trkpt lat="48.998408" lon="22.852403"></trkpt>
      <trkpt lat="48.996416" lon="22.849556"></trkpt>
      <trkpt lat="48.996117" lon="22.849024"></trkpt>
      <trkpt lat="48.995826" lon="22.848128"></trkpt>
      <trkpt lat="48.995319" lon="22.843982"></trkpt>
      <trkpt lat="48.995229" lon="22.839783"></trkpt>
      <trkpt lat="48.995" lon="22.838415"></trkpt>
      <trkpt lat="48.994451" lon="22.836526"></trkpt>
      <trkpt lat="48.994392" lon="22.835081"></trkpt>
      <trkpt lat="48.994596" lon="22.834176"></trkpt>
      <trkpt lat="48.994855" lon="22.833605"></trkpt>
      <trkpt lat="48.995214" lon="22.833094"></trkpt>
      <trkpt lat="48.995751" lon="22.832595"></trkpt>
      <trkpt lat="48.9964" lon="22.832391"></trkpt>
      <trkpt lat="48.997778" lon="22.832337"></trkpt>
      <trkpt lat="48.998355" lon="22.832"></trkpt>
      <trkpt lat="48.9999" lon="22.829848"></trkpt>
      <trkpt lat="49.001449" lon="22.82731"></trkpt>
      <trkpt lat="49.002028" lon="22.826672"></trkpt>
      <trkpt lat="49.002787" lon="22.82631"></trkpt>
      <trkpt lat="49.003666" lon="22.826244"></trkpt>
      <trkpt lat="49.004491" lon="22.826495"></trkpt>
      <trkpt lat="49.005712" lon="22.827351"></trkpt>
      <trkpt lat="49.006683" lon="22.827493"></trkpt>
      <trkpt lat="49.007538" lon="22.82716"></trkpt>
      <trkpt lat="49.007958" lon="22.826813"></trkpt>
      <trkpt lat="49.008857" lon="22.825297"></trkpt>
      <trkpt lat="49.009044" lon="22.82444"></trkpt>
      <trkpt lat="49.009033" lon="22.823617"></trkpt>
      <trkpt lat="49.008192" lon="22.819976"></trkpt>
      <trkpt lat="49.008069" lon="22.818749"></trkpt>
      <trkpt lat="49.008829" lon="22.814065"></trkpt>
      <trkpt lat="49.008911" lon="22.812873"></trkpt>
      <trkpt lat="49.008205" lon="22.806567"></trkpt>
      <trkpt lat="49.008015" lon="22.803894"></trkpt>
      <trkpt lat="49.007647" lon="22.80198"></trkpt>
      <trkpt lat="49.007195" lon="22.797616"></trkpt>
      <trkpt lat="49.006902" lon="22.796634"></trkpt>
      <trkpt lat="49.00636" lon="22.795674"></trkpt>
      <trkpt lat="49.004813" lon="22.794192"></trkpt>
      <trkpt lat="49.00436" lon="22.794028"></trkpt>
      <trkpt lat="49.003831" lon="22.79406"></trkpt>
      <trkpt lat="49.003356" lon="22.794229"></trkpt>
      <trkpt lat="49.002943" lon="22.794535"></trkpt>
      <trkpt lat="49.00241" lon="22.795258"></trkpt>
      <trkpt lat="49.002073" lon="22.796088"></trkpt>
      <trkpt lat="49.001745" lon="22.798284"></trkpt>
      <trkpt lat="49.001459" lon="22.799179"></trkpt>
      <trkpt lat="48.998433" lon="22.805231"></trkpt>
      <trkpt lat="48.998029" lon="22.806645"></trkpt>
      <trkpt lat="48.997835" lon="22.807782"></trkpt>
      <trkpt lat="48.997883" lon="22.809554"></trkpt>
      <trkpt lat="48.998181" lon="22.810664"></trkpt>
      <trkpt lat="49.000396" lon="22.813843"></trkpt>
      <trkpt lat="49.000864" lon="22.814162"></trkpt>
      <trkpt lat="49.001547" lon="22.814298"></trkpt>
      <trkpt lat="49.002144" lon="22.814209"></trkpt>
      <trkpt lat="49.003257" lon="22.813755"></trkpt>
      <trkpt lat="49.00387" lon="22.813781"></trkpt>
      <trkpt lat="49.004574" lon="22.814091"></trkpt>
      <trkpt lat="49.005235" lon="22.814769"></trkpt>
      <trkpt lat="49.00575" lon="22.815974"></trkpt>
      <trkpt lat="49.005855" lon="22.817216"></trkpt>
      <trkpt lat="49.005708" lon="22.818393"></trkpt>
      <trkpt lat="49.005433" lon="22.819149"></trkpt>
      <trkpt lat="49.004876" lon="22.82001"></trkpt>
      <trkpt lat="49.004136" lon="22.820494"></trkpt>
      <trkpt lat="49.003485" lon="22.820579"></trkpt>
      <trkpt lat="49.001211" lon="22.820468"></trkpt>
      <trkpt lat="48.999288" lon="22.821167"></trkpt>
      <trkpt lat="48.997852" lon="22.82203"></trkpt>
      <trkpt lat="48.996972" lon="22.822133"></trkpt>
      <trkpt lat="48.995202" lon="22.82187"></trkpt>
      <trkpt lat="48.9943" lon="22.822208"></trkpt>
      <trkpt lat="48.993594" lon="22.822841"></trkpt>
      <trkpt lat="48.992893" lon="22.823986"></trkpt>
      <trkpt lat="48.992109" lon="22.826167"></trkpt>
      <trkpt lat="48.989667" lon="22.829628"></trkpt>
      <trkpt lat="48.988779" lon="22.831515"></trkpt>
      <trkpt lat="48.987306" lon="22.836153"></trkpt>
      <trkpt lat="48.987235" lon="22.83725"></trkpt>
      <trkpt lat="48.987467" lon="22.839795"></trkpt>
      <trkpt lat="48.987377" lon="22.84064"></trkpt>
      <trkpt lat="48.987118" lon="22.841535"></trkpt>
      <trkpt lat="48.986651" lon="22.842341"></trkpt>
      <trkpt lat="48.986223" lon="22.842759"></trkpt>
      <trkpt lat="48.985823" lon="22.842968"></trkpt>
      <trkpt lat="48.985168" lon="22.843076"></trkpt>
      <trkpt lat="48.984269" lon="22.842871"></trkpt>
      <trkpt lat="48.983504" lon="22.842074"></trkpt>
      <trkpt lat="48.98313" lon="22.841187"></trkpt>
      <trkpt lat="48.982965" lon="22.839558"></trkpt>
      <trkpt lat="48.98312" lon="22.838275"></trkpt>
      <trkpt lat="48.984043" lon="22.834682"></trkpt>
      <trkpt lat="48.984385" lon="22.829832"></trkpt>
      <trkpt lat="48.984611" lon="22.828401"></trkpt>
      <trkpt lat="48.985144" lon="22.827055"></trkpt>
      <trkpt lat="48.986836" lon="22.824761"></trkpt>
      <trkpt lat="48.987368" lon="22.823131"></trkpt>
      <trkpt lat="48.987375" lon="22.821928"></trkpt>
      <trkpt lat="48.986418" lon="22.818813"></trkpt>
      <trkpt lat="48.985847" lon="22.815353"></trkpt>
      <trkpt lat="48.984078" lon="22.810387"></trkpt>
      <trkpt lat="48.983237" lon="22.809243"></trkpt>
      <trkpt lat="48.982466" lon="22.808659"></trkpt>
      <trkpt lat="48.980594" lon="22.807766"></trkpt>
      <trkpt lat="48.978194" lon="22.806319"></trkpt>
      <trkpt lat="48.976772" lon="22.805284"></trkpt>
      <trkpt lat="48.976313" lon="22.804816"></trkpt>
      <trkpt lat="48.975263" lon="22.803123"></trkpt>
      <trkpt lat="48.974767" lon="22.802078"></trkpt>
      <trkpt lat="48.974422" lon="22.800565"></trkpt>
      <trkpt lat="48.974314" lon="22.799272"></trkpt>
      <trkpt lat="48.974738" lon="22.796697"></trkpt>
      <trkpt lat="48.975014" lon="22.795912"></trkpt>
      <trkpt lat="48.975707" lon="22.794977"></trkpt>
      <trkpt lat="48.976705" lon="22.794264"></trkpt>
      <trkpt lat="48.977258" lon="22.793703"></trkpt>
      <trkpt lat="48.977885" lon="22.792413"></trkpt>
      <trkpt lat="48.979111" lon="22.787437"></trkpt>
      <trkpt lat="48.979424" lon="22.781928"></trkpt>
      <trkpt lat="48.97968" lon="22.780258"></trkpt>
      <trkpt lat="48.980331" lon="22.778494"></trkpt>
      <trkpt lat="48.981529" lon="22.776503"></trkpt>
      <trkpt lat="48.982069" lon="22.775344"></trkpt>
      <trkpt lat="48.98285" lon="22.770483"></trkpt>
      <trkpt lat="48.983243" lon="22.769246"></trkpt>
      <trkpt lat="48.983909" lon="22.768032"></trkpt>
      <trkpt lat="48.986309" lon="22.764429"></trkpt>
      <trkpt lat="48.987622" lon="22.76149"></trkpt>
      <trkpt lat="48.988115" lon="22.760724"></trkpt>
      <trkpt lat="48.988966" lon="22.760005"></trkpt>
      <trkpt lat="48.99074" lon="22.75942"></trkpt>
      <trkpt lat="48.991378" lon="22.758889"></trkpt>
      <trkpt lat="48.991872" lon="22.75815"></trkpt>
      <trkpt lat="48.992285" lon="22.756961"></trkpt>
      <trkpt lat="48.993527" lon="22.750426"></trkpt>
      <trkpt lat="48.993922" lon="22.749563"></trkpt>
      <trkpt lat="48.994984" lon="22.747894"></trkpt>
      <trkpt lat="48.996101" lon="22.744076"></trkpt>
      <trkpt lat="48.996258" lon="22.741581"></trkpt>
      <trkpt lat="48.996774" lon="22.738316"></trkpt>
      <trkpt lat="48.997327" lon="22.731466"></trkpt>
      <trkpt lat="48.997226" lon="22.730732"></trkpt>
      <trkpt lat="48.996847" lon="22.729639"></trkpt>
      <trkpt lat="48.995352" lon="22.727231"></trkpt>
      <trkpt lat="48.994667" lon="22.72514"></trkpt>
      <trkpt lat="48.992585" lon="22.713838"></trkpt>
      <trkpt lat="48.991621" lon="22.700521"></trkpt>
      <trkpt lat="48.991755" lon="22.699166"></trkpt>
      <trkpt lat="48.992384" lon="22.69675"></trkpt>
      <trkpt lat="48.992443" lon="22.695318"></trkpt>
      <trkpt lat="48.992311" lon="22.694536"></trkpt>
      <trkpt lat="48.991254" lon="22.691333"></trkpt>
      <trkpt lat="48.99111" lon="22.690566"></trkpt>
      <trkpt lat="48.991104" lon="22.689047"></trkpt>
      <trkpt lat="48.991374" lon="22.686039"></trkpt>
      <trkpt lat="48.991316" lon="22.68509"></trkpt>
      <trkpt lat="48.991081" lon="22.684143"></trkpt>
      <trkpt lat="48.99005" lon="22.682228"></trkpt>
      <trkpt lat="48.989779" lon="22.681441"></trkpt>
      <trkpt lat="48.989435" lon="22.678871"></trkpt>
      <trkpt lat="48.989347" lon="22.677052"></trkpt>
      <trkpt lat="48.989508" lon="22.67589"></trkpt>
      <trkpt lat="48.990458" lon="22.672779"></trkpt>
      <trkpt lat="48.990499" lon="22.67013"></trkpt>
      <trkpt lat="48.99069" lon="22.669158"></trkpt>
      <trkpt lat="48.991021" lon="22.66835"></trkpt>
      <trkpt lat="48.992213" lon="22.666211"></trkpt>
      <trkpt lat="48.993075" lon="22.664009"></trkpt>
      <trkpt lat="48.996558" lon="22.650832"></trkpt>
      <trkpt lat="48.996902" lon="22.649985"></trkpt>
      <trkpt lat="48.997616" lon="22.648843"></trkpt>
      <trkpt lat="49.000304" lon="22.646239"></trkpt>
      <trkpt lat="49.001005" lon="22.645294"></trkpt>
      <trkpt lat="49.002392" lon="22.642345"></trkpt>
      <trkpt lat="49.002616" lon="22.641414"></trkpt>
      <trkpt lat="49.002602" lon="22.639969"></trkpt>
      <trkpt lat="49.002282" lon="22.638847"></trkpt>
      <trkpt lat="49.001876" lon="22.638107"></trkpt>
      <trkpt lat="49.001174" lon="22.637485"></trkpt>
      <trkpt lat="49.000454" lon="22.637262"></trkpt>
      <trkpt lat="48.999683" lon="22.637408"></trkpt>
      <trkpt lat="48.995651" lon="22.640035"></trkpt>
      <trkpt lat="48.994834" lon="22.640183"></trkpt>
      <trkpt lat="48.99401" lon="22.63993"></trkpt>
      <trkpt lat="48.993375" lon="22.639406"></trkpt>
      <trkpt lat="48.990678" lon="22.636586"></trkpt>
      <trkpt lat="48.983661" lon="22.628838"></trkpt>
      <trkpt lat="48.98321" lon="22.628453"></trkpt>
      <trkpt lat="48.982658" lon="22.628174"></trkpt>
      <trkpt lat="48.981885" lon="22.628119"></trkpt>
      <trkpt lat="48.979743" lon="22.62885"></trkpt>
      <trkpt lat="48.979165" lon="22.629109"></trkpt>
      <trkpt lat="48.977661" lon="22.630216"></trkpt>
      <trkpt lat="48.976791" lon="22.630399"></trkpt>
      <trkpt lat="48.975993" lon="22.6301"></trkpt>
      <trkpt lat="48.975459" lon="22.629574"></trkpt>
      <trkpt lat="48.974055" lon="22.62649"></trkpt>
      <trkpt lat="48.973582" lon="22.625941"></trkpt>
      <trkpt lat="48.972858" lon="22.625547"></trkpt>
      <trkpt lat="48.97191" lon="22.625545"></trkpt>
      <trkpt lat="48.97039" lon="22.626186"></trkpt>
      <trkpt lat="48.969559" lon="22.626151"></trkpt>
      <trkpt lat="48.968685" lon="22.625582"></trkpt>
      <trkpt lat="48.967732" lon="22.624486"></trkpt>
      <trkpt lat="48.966883" lon="22.624119"></trkpt>
      <trkpt lat="48.966266" lon="22.624163"></trkpt>
      <trkpt lat="48.964771" lon="22.625069"></trkpt>
      <trkpt lat="48.964167" lon="22.625221"></trkpt>
      <trkpt lat="48.961956" lon="22.624934"></trkpt>
      <trkpt lat="48.96137" lon="22.624728"></trkpt>
      <trkpt lat="48.960814" lon="22.624187"></trkpt>
      <trkpt lat="48.960399" lon="22.623417"></trkpt>
      <trkpt lat="48.960155" lon="22.622352"></trkpt>
      <trkpt lat="48.959682" lon="22.618967"></trkpt>
      <trkpt lat="48.959418" lon="22.618209"></trkpt>
      <trkpt lat="48.959016" lon="22.617521"></trkpt>
      <trkpt lat="48.958526" lon="22.617049"></trkpt>
      <trkpt lat="48.95796" lon="22.616775"></trkpt>
      <trkpt lat="48.955509" lon="22.616305"></trkpt>
      <trkpt lat="48.954543" lon="22.615642"></trkpt>
      <trkpt lat="48.95393" lon="22.614673"></trkpt>
      <trkpt lat="48.953283" lon="22.61233"></trkpt>
      <trkpt lat="48.952926" lon="22.611493"></trkpt>
      <trkpt lat="48.948792" lon="22.60479"></trkpt>
      <trkpt lat="48.948235" lon="22.604148"></trkpt>
      <trkpt lat="48.942832" lon="22.599123"></trkpt>
      <trkpt lat="48.942333" lon="22.59852"></trkpt>
      <trkpt lat="48.941918" lon="22.59767"></trkpt>
      <trkpt lat="48.940267" lon="22.591044"></trkpt>
      <trkpt lat="48.940093" lon="22.589766"></trkpt>
      <trkpt lat="48.940174" lon="22.588615"></trkpt>
      <trkpt lat="48.940953" lon="22.585149"></trkpt>
      <trkpt lat="48.941613" lon="22.577668"></trkpt>
      <trkpt lat="48.941848" lon="22.576123"></trkpt>
      <trkpt lat="48.942218" lon="22.574784"></trkpt>
      <trkpt lat="48.946461" lon="22.563701"></trkpt>
      <trkpt lat="48.947166" lon="22.562392"></trkpt>
      <trkpt lat="48.951056" lon="22.55683"></trkpt>
      <trkpt lat="48.951455" lon="22.555833"></trkpt>
      <trkpt lat="48.95258" lon="22.551862"></trkpt>
      <trkpt lat="48.952879" lon="22.549121"></trkpt>
      <trkpt lat="48.952812" lon="22.547523"></trkpt>
      <trkpt lat="48.951167" lon="22.543048"></trkpt>
      <trkpt lat="48.950903" lon="22.541619"></trkpt>
      <trkpt lat="48.951089" lon="22.537627"></trkpt>
      <trkpt lat="48.951997" lon="22.533626"></trkpt>
      <trkpt lat="48.952336" lon="22.531011"></trkpt>
      <trkpt lat="48.952186" lon="22.529945"></trkpt>
      <trkpt lat="48.951398" lon="22.526797"></trkpt>
      <trkpt lat="48.950357" lon="22.521847"></trkpt>
      <trkpt lat="48.950018" lon="22.52099"></trkpt>
      <trkpt lat="48.949031" lon="22.519393"></trkpt>
      <trkpt lat="48.948527" lon="22.518349"></trkpt>
      <trkpt lat="48.947952" lon="22.515973"></trkpt>
      <trkpt lat="48.947958" lon="22.514641"></trkpt>
      <trkpt lat="48.948536" lon="22.512468"></trkpt>
      <trkpt lat="48.94892" lon="22.509523"></trkpt>
      <trkpt lat="48.948885" lon="22.508659"></trkpt>
      <trkpt lat="48.948402" lon="22.505937"></trkpt>
      <trkpt lat="48.948321" lon="22.503511"></trkpt>
      <trkpt lat="48.948183" lon="22.5025"></trkpt>
      <trkpt lat="48.947613" lon="22.501189"></trkpt>
      <trkpt lat="48.946359" lon="22.499285"></trkpt>
      <trkpt lat="48.944237" lon="22.494688"></trkpt>
      <trkpt lat="48.943768" lon="22.494049"></trkpt>
      <trkpt lat="48.942535" lon="22.493185"></trkpt>
      <trkpt lat="48.94189" lon="22.492558"></trkpt>
      <trkpt lat="48.940863" lon="22.490673"></trkpt>
      <trkpt lat="48.940659" lon="22.489885"></trkpt>
      <trkpt lat="48.940575" lon="22.488795"></trkpt>
      <trkpt lat="48.940294" lon="22.475056"></trkpt>
      <trkpt lat="48.940034" lon="22.472705"></trkpt>
      <trkpt lat="48.939461" lon="22.471238"></trkpt>
      <trkpt lat="48.936763" lon="22.467376"></trkpt>
      <trkpt lat="48.93514" lon="22.464294"></trkpt>
      <trkpt lat="48.933762" lon="22.462255"></trkpt>
      <trkpt lat="48.932937" lon="22.461502"></trkpt>
      <trkpt lat="48.930569" lon="22.460024"></trkpt>
      <trkpt lat="48.925904" lon="22.457566"></trkpt>
      <trkpt lat="48.925155" lon="22.457318"></trkpt>
      <trkpt lat="48.919624" lon="22.457001"></trkpt>
      <trkpt lat="48.918459" lon="22.45711"></trkpt>
      <trkpt lat="48.91752" lon="22.457698"></trkpt>
      <trkpt lat="48.916019" lon="22.459271"></trkpt>
      <trkpt lat="48.912905" lon="22.461053"></trkpt>
      <trkpt lat="48.912291" lon="22.461231"></trkpt>
      <trkpt lat="48.911795" lon="22.461198"></trkpt>
      <trkpt lat="48.910985" lon="22.460843"></trkpt>
      <trkpt lat="48.909862" lon="22.460008"></trkpt>
      <trkpt lat="48.908688" lon="22.458834"></trkpt>
      <trkpt lat="48.908074" lon="22.458406"></trkpt>
      <trkpt lat="48.907476" lon="22.458159"></trkpt>
      <trkpt lat="48.906891" lon="22.458083"></trkpt>
      <trkpt lat="48.902826" lon="22.458131"></trkpt>
      <trkpt lat="48.896132" lon="22.457776"></trkpt>
      <trkpt lat="48.895315" lon="22.457445"></trkpt>
      <trkpt lat="48.89449" lon="22.456758"></trkpt>
      <trkpt lat="48.889664" lon="22.451436"></trkpt>
      <trkpt lat="48.888424" lon="22.450319"></trkpt>
      <trkpt lat="48.887427" lon="22.449768"></trkpt>
      <trkpt lat="48.879637" lon="22.446409"></trkpt>
      <trkpt lat="48.878669" lon="22.446133"></trkpt>
      <trkpt lat="48.877862" lon="22.446121"></trkpt>
      <trkpt lat="48.876693" lon="22.446551"></trkpt>
      <trkpt lat="48.870518" lon="22.44991"></trkpt>
      <trkpt lat="48.869922" lon="22.450103"></trkpt>
      <trkpt lat="48.868837" lon="22.449937"></trkpt>
      <trkpt lat="48.863229" lon="22.44791"></trkpt>
      <trkpt lat="48.861924" lon="22.447555"></trkpt>
      <trkpt lat="48.84992" lon="22.448324"></trkpt>
      <trkpt lat="48.846779" lon="22.448642"></trkpt>
      <trkpt lat="48.845966" lon="22.448976"></trkpt>
      <trkpt lat="48.845166" lon="22.449817"></trkpt>
      <trkpt lat="48.837959" lon="22.462532"></trkpt>
      <trkpt lat="48.836865" lon="22.464004"></trkpt>
      <trkpt lat="48.835829" lon="22.46476"></trkpt>
      <trkpt lat="48.833488" lon="22.465856"></trkpt>
      <trkpt lat="48.823743" lon="22.472629"></trkpt>
      <trkpt lat="48.822734" lon="22.473439"></trkpt>
      <trkpt lat="48.82177" lon="22.474643"></trkpt>
      <trkpt lat="48.820222" lon="22.477082"></trkpt>
      <trkpt lat="48.81973" lon="22.478556"></trkpt>
      <trkpt lat="48.819662" lon="22.480367"></trkpt>
      <trkpt lat="48.820479" lon="22.485594"></trkpt>
      <trkpt lat="48.820615" lon="22.48724"></trkpt>
      <trkpt lat="48.820437" lon="22.488568"></trkpt>
      <trkpt lat="48.820081" lon="22.489602"></trkpt>
      <trkpt lat="48.819586" lon="22.490415"></trkpt>
      <trkpt lat="48.818889" lon="22.491096"></trkpt>
      <trkpt lat="48.818021" lon="22.491447"></trkpt>
      <trkpt lat="48.816991" lon="22.491334"></trkpt>
      <trkpt lat="48.804127" lon="22.484677"></trkpt>
      <trkpt lat="48.803548" lon="22.484489"></trkpt>
      <trkpt lat="48.802395" lon="22.484535"></trkpt>
      <trkpt lat="48.801745" lon="22.484839"></trkpt>
      <trkpt lat="48.788196" lon="22.493642"></trkpt>
      <trkpt lat="48.787235" lon="22.494143"></trkpt>
      <trkpt lat="48.786506" lon="22.494347"></trkpt>
      <trkpt lat="48.785673" lon="22.494372"></trkpt>
      <trkpt lat="48.780218" lon="22.493919"></trkpt>
      <trkpt lat="48.778877" lon="22.49393"></trkpt>
      <trkpt lat="48.778151" lon="22.494187"></trkpt>
      <trkpt lat="48.77768" lon="22.494516"></trkpt>
      <trkpt lat="48.776457" lon="22.496025"></trkpt>
      <trkpt lat="48.775167" lon="22.497126"></trkpt>
      <trkpt lat="48.774649" lon="22.497441"></trkpt>
      <trkpt lat="48.771888" lon="22.498322"></trkpt>
      <trkpt lat="48.76992" lon="22.498212"></trkpt>
      <trkpt lat="48.768492" lon="22.498717"></trkpt>
      <trkpt lat="48.76516" lon="22.499297"></trkpt>
      <trkpt lat="48.764512" lon="22.49953"></trkpt>
      <trkpt lat="48.76404" lon="22.499872"></trkpt>
      <trkpt lat="48.76359" lon="22.500402"></trkpt>
      <trkpt lat="48.760095" lon="22.506206"></trkpt>
      <trkpt lat="48.759093" lon="22.507243"></trkpt>
      <trkpt lat="48.757861" lon="22.507737"></trkpt>
      <trkpt lat="48.754673" lon="22.50842"></trkpt>
      <trkpt lat="48.753467" lon="22.508385"></trkpt>
      <trkpt lat="48.752718" lon="22.508153"></trkpt>
      <trkpt lat="48.752087" lon="22.507778"></trkpt>
      <trkpt lat="48.751312" lon="22.507079"></trkpt>
      <trkpt lat="48.736664" lon="22.489109"></trkpt>
      <trkpt lat="48.735621" lon="22.486904"></trkpt>
      <trkpt lat="48.731846" lon="22.475816"></trkpt>
      <trkpt lat="48.729746" lon="22.471341"></trkpt>
      <trkpt lat="48.729433" lon="22.469861"></trkpt>
      <trkpt lat="48.729557" lon="22.468119"></trkpt>
      <trkpt lat="48.733283" lon="22.455612"></trkpt>
      <trkpt lat="48.73331" lon="22.454467"></trkpt>
      <trkpt lat="48.733148" lon="22.453323"></trkpt>
      <trkpt lat="48.732819" lon="22.45235"></trkpt>
      <trkpt lat="48.732433" lon="22.451697"></trkpt>
      <trkpt lat="48.728639" lon="22.448369"></trkpt>
      <trkpt lat="48.728114" lon="22.448081"></trkpt>
      <trkpt lat="48.727134" lon="22.447829"></trkpt>
      <trkpt lat="48.726433" lon="22.447327"></trkpt>
      <trkpt lat="48.725701" lon="22.446409"></trkpt>
      <trkpt lat="48.724094" lon="22.442948"></trkpt>
      <trkpt lat="48.723135" lon="22.441922"></trkpt>
      <trkpt lat="48.721959" lon="22.441118"></trkpt>
      <trkpt lat="48.720109" lon="22.439538"></trkpt>
      <trkpt lat="48.719117" lon="22.438817"></trkpt>
      <trkpt lat="48.718572" lon="22.438638"></trkpt>
      <trkpt lat="48.716756" lon="22.438994"></trkpt>
      <trkpt lat="48.715779" lon="22.438927"></trkpt>
      <trkpt lat="48.715396" lon="22.438752"></trkpt>
      <trkpt lat="48.714343" lon="22.43781"></trkpt>
      <trkpt lat="48.713778" lon="22.436895"></trkpt>
      <trkpt lat="48.712487" lon="22.43313"></trkpt>
      <trkpt lat="48.711892" lon="22.431783"></trkpt>
      <trkpt lat="48.71067" lon="22.430101"></trkpt>
      <trkpt lat="48.708281" lon="22.427352"></trkpt>
      <trkpt lat="48.707746" lon="22.427128"></trkpt>
      <trkpt lat="48.705211" lon="22.426691"></trkpt>
      <trkpt lat="48.703175" lon="22.426179"></trkpt>
      <trkpt lat="48.701826" lon="22.426094"></trkpt>
      <trkpt lat="48.70116" lon="22.426172"></trkpt>
      <trkpt lat="48.699921" lon="22.426596"></trkpt>
      <trkpt lat="48.69827" lon="22.426646"></trkpt>
      <trkpt lat="48.696117" lon="22.426963"></trkpt>
      <trkpt lat="48.695083" lon="22.426593"></trkpt>
      <trkpt lat="48.693892" lon="22.425594"></trkpt>
      <trkpt lat="48.693439" lon="22.424716"></trkpt>
      <trkpt lat="48.693189" lon="22.423583"></trkpt>
      <trkpt lat="48.693013" lon="22.419982"></trkpt>
      <trkpt lat="48.691637" lon="22.41098"></trkpt>
      <trkpt lat="48.690467" lon="22.407043"></trkpt>
      <trkpt lat="48.689979" lon="22.405809"></trkpt>
      <trkpt lat="48.688994" lon="22.404694"></trkpt>
      <trkpt lat="48.688367" lon="22.404392"></trkpt>
      <trkpt lat="48.686759" lon="22.404163"></trkpt>
      <trkpt lat="48.686337" lon="22.403996"></trkpt>
      <trkpt lat="48.685748" lon="22.403566"></trkpt>
      <trkpt lat="48.685252" lon="22.402959"></trkpt>
      <trkpt lat="48.684806" lon="22.401997"></trkpt>
      <trkpt lat="48.683535" lon="22.397847"></trkpt>
      <trkpt lat="48.681282" lon="22.393404"></trkpt>
      <trkpt lat="48.680313" lon="22.392117"></trkpt>
      <trkpt lat="48.677313" lon="22.389126"></trkpt>
      <trkpt lat="48.676579" lon="22.388234"></trkpt>
      <trkpt lat="48.664974" lon="22.36975"></trkpt>
      <trkpt lat="48.655532" lon="22.349931"></trkpt>
      <trkpt lat="48.654922" lon="22.348879"></trkpt>
      <trkpt lat="48.653761" lon="22.347697"></trkpt>
      <trkpt lat="48.640766" lon="22.338702"></trkpt>
      <trkpt lat="48.638951" lon="22.337132"></trkpt>
      <trkpt lat="48.636701" lon="22.335533"></trkpt>
      <trkpt lat="48.635462" lon="22.33431"></trkpt>
      <trkpt lat="48.632878" lon="22.330813"></trkpt>
      <trkpt lat="48.631337" lon="22.329026"></trkpt>
      <trkpt lat="48.624449" lon="22.319444"></trkpt>
      <trkpt lat="48.623728" lon="22.318838"></trkpt>
      <trkpt lat="48.620971" lon="22.31738"></trkpt>
      <trkpt lat="48.620307" lon="22.316666"></trkpt>
      <trkpt lat="48.619784" lon="22.31559"></trkpt>
      <trkpt lat="48.618772" lon="22.312838"></trkpt>
      <trkpt lat="48.617372" lon="22.310535"></trkpt>
      <trkpt lat="48.616296" lon="22.308235"></trkpt>
      <trkpt lat="48.6137" lon="22.304177"></trkpt>
      <trkpt lat="48.612953" lon="22.303303"></trkpt>
      <trkpt lat="48.598157" lon="22.294154"></trkpt>
      <trkpt lat="48.528465" lon="22.25164"></trkpt>
      <trkpt lat="48.522354" lon="22.248051"></trkpt>
      <trkpt lat="48.519846" lon="22.247048"></trkpt>
      <trkpt lat="48.514941" lon="22.245606"></trkpt>
      <trkpt lat="48.489275" lon="22.237218"></trkpt>
      <trkpt lat="48.471228" lon="22.227394"></trkpt>
      <trkpt lat="48.462297" lon="22.224821"></trkpt>
      <trkpt lat="48.460574" lon="22.224216"></trkpt>
      <trkpt lat="48.452101" lon="22.220237"></trkpt>
      <trkpt lat="48.449625" lon="22.218646"></trkpt>
      <trkpt lat="48.448288" lon="22.217934"></trkpt>
      <trkpt lat="48.445177" lon="22.216456"></trkpt>
      <trkpt lat="48.443905" lon="22.216092"></trkpt>
      <trkpt lat="48.442036" lon="22.216231"></trkpt>
      <trkpt lat="48.439675" lon="22.21611"></trkpt>
      <trkpt lat="48.439256" lon="22.216166"></trkpt>
      <trkpt lat="48.438558" lon="22.21652"></trkpt>
      <trkpt lat="48.437661" lon="22.217563"></trkpt>
      <trkpt lat="48.434155" lon="22.222922"></trkpt>
      <trkpt lat="48.433395" lon="22.224251"></trkpt>
      <trkpt lat="48.431914" lon="22.228283"></trkpt>
      <trkpt lat="48.430783" lon="22.233614"></trkpt>
      <trkpt lat="48.429874" lon="22.235937"></trkpt>
      <trkpt lat="48.428511" lon="22.240352"></trkpt>
      <trkpt lat="48.42626" lon="22.245403"></trkpt>
      <trkpt lat="48.424923" lon="22.249853"></trkpt>
      <trkpt lat="48.411474" lon="22.278144"></trkpt>
      <trkpt lat="48.409701" lon="22.281619"></trkpt>
      <trkpt lat="48.401208" lon="22.300128"></trkpt>
      <trkpt lat="48.397685" lon="22.308358"></trkpt>
      <trkpt lat="48.381711" lon="22.342189"></trkpt>
      <trkpt lat="48.373907" lon="22.361908"></trkpt>
      <trkpt lat="48.370398" lon="22.370453"></trkpt>
      <trkpt lat="48.369316" lon="22.372584"></trkpt>
      <trkpt lat="48.365036" lon="22.379712"></trkpt>
      <trkpt lat="48.359163" lon="22.389877"></trkpt>
      <trkpt lat="48.358597" lon="22.390651"></trkpt>
      <trkpt lat="48.357272" lon="22.391885"></trkpt>
      <trkpt lat="48.354438" lon="22.394143"></trkpt>
      <trkpt lat="48.353344" lon="22.395182"></trkpt>
      <trkpt lat="48.30545" lon="22.433019"></trkpt>
      <trkpt lat="48.303649" lon="22.434697"></trkpt>
      <trkpt lat="48.302489" lon="22.436161"></trkpt>
      <trkpt lat="48.300953" lon="22.438753"></trkpt>
      <trkpt lat="48.283397" lon="22.474665"></trkpt>
      <trkpt lat="48.217989" lon="22.607185"></trkpt>
      <trkpt lat="48.209954" lon="22.623421"></trkpt>
      <trkpt lat="48.209077" lon="22.624974"></trkpt>
      <trkpt lat="48.208266" lon="22.62621"></trkpt>
      <trkpt lat="48.206577" lon="22.628017"></trkpt>
      <trkpt lat="48.202165" lon="22.630823"></trkpt>
      <trkpt lat="48.201277" lon="22.631601"></trkpt>
      <trkpt lat="48.198001" lon="22.633759"></trkpt>
      <trkpt lat="48.175999" lon="22.647775"></trkpt>
      <trkpt lat="48.174468" lon="22.649126"></trkpt>
      <trkpt lat="48.173344" lon="22.650821"></trkpt>
      <trkpt lat="48.172302" lon="22.653312"></trkpt>
      <trkpt lat="48.171779" lon="22.656019"></trkpt>
      <trkpt lat="48.160931" lon="22.753246"></trkpt>
      <trkpt lat="48.160372" lon="22.756523"></trkpt>
      <trkpt lat="48.159624" lon="22.759201"></trkpt>
      <trkpt lat="48.15859" lon="22.761781"></trkpt>
      <trkpt lat="48.157174" lon="22.764361"></trkpt>
      <trkpt lat="48.120391" lon="22.82077"></trkpt>
      <trkpt lat="48.119093" lon="22.823044"></trkpt>
      <trkpt lat="48.118387" lon="22.824911"></trkpt>
      <trkpt lat="48.117709" lon="22.827881"></trkpt>
      <trkpt lat="48.117407" lon="22.831256"></trkpt>
      <trkpt lat="48.113732" lon="22.879161"></trkpt>
      <trkpt lat="48.11361" lon="22.881889"></trkpt>
      <trkpt lat="48.113692" lon="22.88505"></trkpt>
      <trkpt lat="48.114144" lon="22.88894"></trkpt>
      <trkpt lat="48.134774" lon="23.008142"></trkpt>
      <trkpt lat="48.135022" lon="23.010073"></trkpt>
      <trkpt lat="48.135167" lon="23.013379"></trkpt>
      <trkpt lat="48.134981" lon="23.01665"></trkpt>
      <trkpt lat="48.131054" lon="23.060662"></trkpt>
      <trkpt lat="48.131069" lon="23.063631"></trkpt>
      <trkpt lat="48.131281" lon="23.065517"></trkpt>
      <trkpt lat="48.131728" lon="23.067755"></trkpt>
      <trkpt lat="48.134099" lon="23.077057"></trkpt>
      <trkpt lat="48.134963" lon="23.078738"></trkpt>
      <trkpt lat="48.137357" lon="23.082055"></trkpt>
      <trkpt lat="48.138034" lon="23.083728"></trkpt>
      <trkpt lat="48.138238" lon="23.085432"></trkpt>
      <trkpt lat="48.138942" lon="23.10494"></trkpt>
      <trkpt lat="48.139268" lon="23.107889"></trkpt>
      <trkpt lat="48.139669" lon="23.109722"></trkpt>
      <trkpt lat="48.14527" lon="23.130427"></trkpt>
      <trkpt lat="48.145983" lon="23.132479"></trkpt>
      <trkpt lat="48.146892" lon="23.134271"></trkpt>
      <trkpt lat="48.148201" lon="23.135882"></trkpt>
      <trkpt lat="48.17127" lon="23.159829"></trkpt>
      <trkpt lat="48.173733" lon="23.162274"></trkpt>
      <trkpt lat="48.174703" lon="23.162721"></trkpt>
      <trkpt lat="48.175553" lon="23.162717"></trkpt>
      <trkpt lat="48.184753" lon="23.159061"></trkpt>
      <trkpt lat="48.185606" lon="23.158861"></trkpt>
      <trkpt lat="48.186555" lon="23.158798"></trkpt>
      <trkpt lat="48.187949" lon="23.158928"></trkpt>
      <trkpt lat="48.189018" lon="23.159283"></trkpt>
      <trkpt lat="48.189904" lon="23.159778"></trkpt>
      <trkpt lat="48.190931" lon="23.160528"></trkpt>
      <trkpt lat="48.191983" lon="23.161549"></trkpt>
      <trkpt lat="48.192849" lon="23.162689"></trkpt>
      <trkpt lat="48.193611" lon="23.163949"></trkpt>
      <trkpt lat="48.194199" lon="23.165233"></trkpt>
      <trkpt lat="48.194784" lon="23.166894"></trkpt>
      <trkpt lat="48.195206" lon="23.168652"></trkpt>
      <trkpt lat="48.19547" lon="23.170705"></trkpt>
      <trkpt lat="48.195541" lon="23.172335"></trkpt>
      <trkpt lat="48.195431" lon="23.174264"></trkpt>
      <trkpt lat="48.186476" lon="23.243543"></trkpt>
      <trkpt lat="48.18554" lon="23.248188"></trkpt>
      <trkpt lat="48.178308" lon="23.274527"></trkpt>
      <trkpt lat="48.17751" lon="23.276991"></trkpt>
      <trkpt lat="48.176704" lon="23.278795"></trkpt>
      <trkpt lat="48.175999" lon="23.280035"></trkpt>
      <trkpt lat="48.174903" lon="23.281574"></trkpt>
      <trkpt lat="48.158778" lon="23.301429"></trkpt>
      <trkpt lat="48.158131" lon="23.302361"></trkpt>
      <trkpt lat="48.133742" lon="23.352473"></trkpt>
      <trkpt lat="48.132801" lon="23.354058"></trkpt>
      <trkpt lat="48.125073" lon="23.365614"></trkpt>
      <trkpt lat="48.124139" lon="23.367186"></trkpt>
      <trkpt lat="48.123459" lon="23.369008"></trkpt>
      <trkpt lat="48.120632" lon="23.378821"></trkpt>
      <trkpt lat="48.12012" lon="23.38024"></trkpt>
      <trkpt lat="48.114254" lon="23.392042"></trkpt>
      <trkpt lat="48.1138" lon="23.392803"></trkpt>
      <trkpt lat="48.10083" lon="23.41082"></trkpt>
      <trkpt lat="48.100147" lon="23.411946"></trkpt>
      <trkpt lat="48.017775" lon="23.566614"></trkpt>
      <trkpt lat="48.016293" lon="23.569816"></trkpt>
      <trkpt lat="48.015684" lon="23.571921"></trkpt>
      <trkpt lat="48.01477" lon="23.578622"></trkpt>
      <trkpt lat="48.014385" lon="23.580546"></trkpt>
      <trkpt lat="48.002667" lon="23.668975"></trkpt>
      <trkpt lat="48.00232" lon="23.670613"></trkpt>
      <trkpt lat="47.995634" lon="23.69268"></trkpt>
      <trkpt lat="47.995454" lon="23.693669"></trkpt>
      <trkpt lat="47.995537" lon="23.698258"></trkpt>
      <trkpt lat="47.997872" lon="23.730633"></trkpt>
      <trkpt lat="47.997633" lon="23.733325"></trkpt>
      <trkpt lat="47.996726" lon="23.737531"></trkpt>
      <trkpt lat="47.996612" lon="23.738949"></trkpt>
      <trkpt lat="47.996679" lon="23.740288"></trkpt>
      <trkpt lat="47.996887" lon="23.74144"></trkpt>
      <trkpt lat="47.999898" lon="23.75288"></trkpt>
      <trkpt lat="48.002212" lon="23.758527"></trkpt>
      <trkpt lat="48.003908" lon="23.76304"></trkpt>
      <trkpt lat="48.004229" lon="23.765068"></trkpt>
      <trkpt lat="48.004021" lon="23.767527"></trkpt>
      <trkpt lat="48.003634" lon="23.768834"></trkpt>
      <trkpt lat="47.999055" lon="23.779416"></trkpt>
      <trkpt lat="47.99886" lon="23.780502"></trkpt>
      <trkpt lat="47.99852" lon="23.786604"></trkpt>
      <trkpt lat="47.99828" lon="23.788459"></trkpt>
      <trkpt lat="47.99398" lon="23.802408"></trkpt>
      <trkpt lat="47.992332" lon="23.807324"></trkpt>
      <trkpt lat="47.991566" lon="23.808645"></trkpt>
      <trkpt lat="47.988913" lon="23.81218"></trkpt>
      <trkpt lat="47.98842" lon="23.813039"></trkpt>
      <trkpt lat="47.986995" lon="23.817176"></trkpt>
      <trkpt lat="47.985889" lon="23.819427"></trkpt>
      <trkpt lat="47.972423" lon="23.836185"></trkpt>
      <trkpt lat="47.971802" lon="23.837244"></trkpt>
      <trkpt lat="47.970936" lon="23.839231"></trkpt>
      <trkpt lat="47.970568" lon="23.840715"></trkpt>
      <trkpt lat="47.969054" lon="23.852969"></trkpt>
      <trkpt lat="47.96852" lon="23.855515"></trkpt>
      <trkpt lat="47.962955" lon="23.870862"></trkpt>
      <trkpt lat="47.962368" lon="23.872159"></trkpt>
      <trkpt lat="47.960321" lon="23.877713"></trkpt>
      <trkpt lat="47.957717" lon="23.885229"></trkpt>
      <trkpt lat="47.95695" lon="23.886844"></trkpt>
      <trkpt lat="47.956194" lon="23.88759"></trkpt>
      <trkpt lat="47.954126" lon="23.888632"></trkpt>
      <trkpt lat="47.950819" lon="23.89"></trkpt>
      <trkpt lat="47.950061" lon="23.890204"></trkpt>
      <trkpt lat="47.949498" lon="23.890107"></trkpt>
      <trkpt lat="47.948961" lon="23.889833"></trkpt>
      <trkpt lat="47.948275" lon="23.889052"></trkpt>
      <trkpt lat="47.947864" lon="23.88816"></trkpt>
      <trkpt lat="47.94764" lon="23.886556"></trkpt>
      <trkpt lat="47.94762" lon="23.882038"></trkpt>
      <trkpt lat="47.947755" lon="23.880808"></trkpt>
      <trkpt lat="47.948199" lon="23.879743"></trkpt>
      <trkpt lat="47.949821" lon="23.877477"></trkpt>
  </trkseg></trk>
</gpx>
