<?xml version="1.0" encoding="UTF-8"?>
<gpx version="1.1" creator="yatutbuv" xmlns="http://www.topografix.com/GPX/1/1">
  <trk><name>2026_03_22_Brzeg-&gt; Warsawa (365.4km)</name><trkseg>
      <trkpt lat="50.85305" lon="17.470916"></trkpt>
      <trkpt lat="50.851626" lon="17.475289"></trkpt>
      <trkpt lat="50.850264" lon="17.478219"></trkpt>
      <trkpt lat="50.84869" lon="17.480785"></trkpt>
      <trkpt lat="50.846737" lon="17.483186"></trkpt>
      <trkpt lat="50.807677" lon="17.518144"></trkpt>
      <trkpt lat="50.805379" lon="17.520523"></trkpt>
      <trkpt lat="50.803368" lon="17.522998"></trkpt>
      <trkpt lat="50.801261" lon="17.526064"></trkpt>
      <trkpt lat="50.79972" lon="17.528653"></trkpt>
      <trkpt lat="50.798298" lon="17.531366"></trkpt>
      <trkpt lat="50.765372" lon="17.600195"></trkpt>
      <trkpt lat="50.763708" lon="17.604059"></trkpt>
      <trkpt lat="50.757674" lon="17.616709"></trkpt>
      <trkpt lat="50.756535" lon="17.61875"></trkpt>
      <trkpt lat="50.681629" lon="17.774561"></trkpt>
      <trkpt lat="50.680517" lon="17.777062"></trkpt>
      <trkpt lat="50.679724" lon="17.779294"></trkpt>
      <trkpt lat="50.679143" lon="17.781336"></trkpt>
      <trkpt lat="50.669851" lon="17.818144"></trkpt>
      <trkpt lat="50.66123" lon="17.879321"></trkpt>
      <trkpt lat="50.660866" lon="17.882798"></trkpt>
      <trkpt lat="50.660675" lon="17.8861"></trkpt>
      <trkpt lat="50.660659" lon="17.895116"></trkpt>
      <trkpt lat="50.662159" lon="17.920071"></trkpt>
      <trkpt lat="50.662062" lon="17.927307"></trkpt>
      <trkpt lat="50.661819" lon="17.929035"></trkpt>
      <trkpt lat="50.660442" lon="17.934578"></trkpt>
      <trkpt lat="50.658072" lon="17.945127"></trkpt>
      <trkpt lat="50.657458" lon="17.947078"></trkpt>
      <trkpt lat="50.657136" lon="17.949117"></trkpt>
      <trkpt lat="50.657138" lon="17.960678"></trkpt>
      <trkpt lat="50.657654" lon="18.005354"></trkpt>
      <trkpt lat="50.65709" lon="18.057839"></trkpt>
      <trkpt lat="50.657373" lon="18.060592"></trkpt>
      <trkpt lat="50.658116" lon="18.064828"></trkpt>
      <trkpt lat="50.665044" lon="18.092827"></trkpt>
      <trkpt lat="50.665491" lon="18.095795"></trkpt>
      <trkpt lat="50.665653" lon="18.098624"></trkpt>
      <trkpt lat="50.665447" lon="18.102818"></trkpt>
      <trkpt lat="50.660318" lon="18.147667"></trkpt>
      <trkpt lat="50.660142" lon="18.150569"></trkpt>
      <trkpt lat="50.660185" lon="18.153205"></trkpt>
      <trkpt lat="50.660403" lon="18.155606"></trkpt>
      <trkpt lat="50.660885" lon="18.158386"></trkpt>
      <trkpt lat="50.661532" lon="18.160804"></trkpt>
      <trkpt lat="50.66219" lon="18.162654"></trkpt>
      <trkpt lat="50.663576" lon="18.165544"></trkpt>
      <trkpt lat="50.667867" lon="18.17285"></trkpt>
      <trkpt lat="50.668728" lon="18.17475"></trkpt>
      <trkpt lat="50.669449" lon="18.176799"></trkpt>
      <trkpt lat="50.670068" lon="18.179139"></trkpt>
      <trkpt lat="50.670447" lon="18.181161"></trkpt>
      <trkpt lat="50.670753" lon="18.183812"></trkpt>
      <trkpt lat="50.670848" lon="18.186401"></trkpt>
      <trkpt lat="50.669037" lon="18.234922"></trkpt>
      <trkpt lat="50.66539" lon="18.312071"></trkpt>
      <trkpt lat="50.665024" lon="18.315368"></trkpt>
      <trkpt lat="50.664531" lon="18.317995"></trkpt>
      <trkpt lat="50.660536" lon="18.332933"></trkpt>
      <trkpt lat="50.660031" lon="18.335561"></trkpt>
      <trkpt lat="50.65985" lon="18.337563"></trkpt>
      <trkpt lat="50.659848" lon="18.339913"></trkpt>
      <trkpt lat="50.660966" lon="18.35283"></trkpt>
      <trkpt lat="50.661028" lon="18.354862"></trkpt>
      <trkpt lat="50.660582" lon="18.358404"></trkpt>
      <trkpt lat="50.658298" lon="18.365979"></trkpt>
      <trkpt lat="50.657664" lon="18.368494"></trkpt>
      <trkpt lat="50.657482" lon="18.369612"></trkpt>
      <trkpt lat="50.657435" lon="18.371133"></trkpt>
      <trkpt lat="50.657547" lon="18.372423"></trkpt>
      <trkpt lat="50.660485" lon="18.392487"></trkpt>
      <trkpt lat="50.66074" lon="18.395122"></trkpt>
      <trkpt lat="50.665647" lon="18.485783"></trkpt>
      <trkpt lat="50.680085" lon="18.556181"></trkpt>
      <trkpt lat="50.68074" lon="18.560484"></trkpt>
      <trkpt lat="50.680802" lon="18.561938"></trkpt>
      <trkpt lat="50.680611" lon="18.567398"></trkpt>
      <trkpt lat="50.680641" lon="18.570498"></trkpt>
      <trkpt lat="50.680218" lon="18.582113"></trkpt>
      <trkpt lat="50.68022" lon="18.584363"></trkpt>
      <trkpt lat="50.682982" lon="18.634816"></trkpt>
      <trkpt lat="50.682898" lon="18.636483"></trkpt>
      <trkpt lat="50.682499" lon="18.63826"></trkpt>
      <trkpt lat="50.676995" lon="18.653979"></trkpt>
      <trkpt lat="50.676499" lon="18.656214"></trkpt>
      <trkpt lat="50.676451" lon="18.658213"></trkpt>
      <trkpt lat="50.677107" lon="18.671965"></trkpt>
      <trkpt lat="50.677267" lon="18.681071"></trkpt>
      <trkpt lat="50.677062" lon="18.682827"></trkpt>
      <trkpt lat="50.676598" lon="18.684217"></trkpt>
      <trkpt lat="50.675015" lon="18.687365"></trkpt>
      <trkpt lat="50.669799" lon="18.695805"></trkpt>
      <trkpt lat="50.668031" lon="18.699755"></trkpt>
      <trkpt lat="50.667102" lon="18.702616"></trkpt>
      <trkpt lat="50.666439" lon="18.705183"></trkpt>
      <trkpt lat="50.666214" lon="18.70686"></trkpt>
      <trkpt lat="50.666292" lon="18.708762"></trkpt>
      <trkpt lat="50.666696" lon="18.710507"></trkpt>
      <trkpt lat="50.667319" lon="18.711922"></trkpt>
      <trkpt lat="50.668001" lon="18.712896"></trkpt>
      <trkpt lat="50.669056" lon="18.713802"></trkpt>
      <trkpt lat="50.669801" lon="18.714139"></trkpt>
      <trkpt lat="50.67051" lon="18.714265"></trkpt>
      <trkpt lat="50.674584" lon="18.713903"></trkpt>
      <trkpt lat="50.676189" lon="18.714151"></trkpt>
      <trkpt lat="50.677465" lon="18.714688"></trkpt>
      <trkpt lat="50.6785" lon="18.71537"></trkpt>
      <trkpt lat="50.679284" lon="18.716059"></trkpt>
      <trkpt lat="50.68036" lon="18.717311"></trkpt>
      <trkpt lat="50.716911" lon="18.776887"></trkpt>
      <trkpt lat="50.717901" lon="18.778854"></trkpt>
      <trkpt lat="50.718603" lon="18.780787"></trkpt>
      <trkpt lat="50.719041" lon="18.782489"></trkpt>
      <trkpt lat="50.722024" lon="18.797029"></trkpt>
      <trkpt lat="50.724195" lon="18.80593"></trkpt>
      <trkpt lat="50.741192" lon="18.860897"></trkpt>
      <trkpt lat="50.742128" lon="18.864295"></trkpt>
      <trkpt lat="50.749674" lon="18.887986"></trkpt>
      <trkpt lat="50.751961" lon="18.892981"></trkpt>
      <trkpt lat="50.75573" lon="18.900607"></trkpt>
      <trkpt lat="50.756621" lon="18.903031"></trkpt>
      <trkpt lat="50.761937" lon="18.923842"></trkpt>
      <trkpt lat="50.765554" lon="18.938523"></trkpt>
      <trkpt lat="50.765887" lon="18.940181"></trkpt>
      <trkpt lat="50.766333" lon="18.943967"></trkpt>
      <trkpt lat="50.766808" lon="18.946217"></trkpt>
      <trkpt lat="50.77287" lon="18.96595"></trkpt>
      <trkpt lat="50.783657" lon="19.002056"></trkpt>
      <trkpt lat="50.784076" lon="19.004118"></trkpt>
      <trkpt lat="50.785129" lon="19.012492"></trkpt>
      <trkpt lat="50.786262" lon="19.019005"></trkpt>
      <trkpt lat="50.786792" lon="19.020444"></trkpt>
      <trkpt lat="50.787401" lon="19.021488"></trkpt>
      <trkpt lat="50.789732" lon="19.024134"></trkpt>
      <trkpt lat="50.790349" lon="19.025087"></trkpt>
      <trkpt lat="50.791093" lon="19.026925"></trkpt>
      <trkpt lat="50.791705" lon="19.029482"></trkpt>
      <trkpt lat="50.794914" lon="19.045007"></trkpt>
      <trkpt lat="50.800876" lon="19.07587"></trkpt>
      <trkpt lat="50.801194" lon="19.078489"></trkpt>
      <trkpt lat="50.801109" lon="19.080356"></trkpt>
      <trkpt lat="50.798888" lon="19.096717"></trkpt>
      <trkpt lat="50.798123" lon="19.100352"></trkpt>
      <trkpt lat="50.796507" lon="19.110696"></trkpt>
      <trkpt lat="50.796134" lon="19.112292"></trkpt>
      <trkpt lat="50.794888" lon="19.116063"></trkpt>
      <trkpt lat="50.79469" lon="19.116972"></trkpt>
      <trkpt lat="50.794659" lon="19.118574"></trkpt>
      <trkpt lat="50.79506" lon="19.120195"></trkpt>
      <trkpt lat="50.795415" lon="19.120899"></trkpt>
      <trkpt lat="50.795994" lon="19.121613"></trkpt>
      <trkpt lat="50.796585" lon="19.122024"></trkpt>
      <trkpt lat="50.797124" lon="19.122176"></trkpt>
      <trkpt lat="50.797679" lon="19.122152"></trkpt>
      <trkpt lat="50.798427" lon="19.121856"></trkpt>
      <trkpt lat="50.799626" lon="19.120741"></trkpt>
      <trkpt lat="50.800095" lon="19.120466"></trkpt>
      <trkpt lat="50.800602" lon="19.120361"></trkpt>
      <trkpt lat="50.80198" lon="19.120541"></trkpt>
      <trkpt lat="50.803703" lon="19.119994"></trkpt>
      <trkpt lat="50.804685" lon="19.120048"></trkpt>
      <trkpt lat="50.805962" lon="19.120507"></trkpt>
      <trkpt lat="50.807533" lon="19.120846"></trkpt>
      <trkpt lat="50.809027" lon="19.120927"></trkpt>
      <trkpt lat="50.811676" lon="19.121432"></trkpt>
      <trkpt lat="50.814642" lon="19.121653"></trkpt>
      <trkpt lat="50.816164" lon="19.122052"></trkpt>
      <trkpt lat="50.818252" lon="19.12296"></trkpt>
      <trkpt lat="50.819345" lon="19.123539"></trkpt>
      <trkpt lat="50.820471" lon="19.124349"></trkpt>
      <trkpt lat="50.821698" lon="19.125508"></trkpt>
      <trkpt lat="50.82276" lon="19.126745"></trkpt>
      <trkpt lat="50.823964" lon="19.128459"></trkpt>
      <trkpt lat="50.824695" lon="19.129708"></trkpt>
      <trkpt lat="50.835261" lon="19.15164"></trkpt>
      <trkpt lat="50.83617" lon="19.153306"></trkpt>
      <trkpt lat="50.83738" lon="19.154927"></trkpt>
      <trkpt lat="50.838524" lon="19.156048"></trkpt>
      <trkpt lat="50.839544" lon="19.156795"></trkpt>
      <trkpt lat="50.864319" lon="19.172723"></trkpt>
      <trkpt lat="50.865118" lon="19.17338"></trkpt>
      <trkpt lat="50.86586" lon="19.174225"></trkpt>
      <trkpt lat="50.867279" lon="19.17622"></trkpt>
      <trkpt lat="50.868023" lon="19.177555"></trkpt>
      <trkpt lat="50.869037" lon="19.180297"></trkpt>
      <trkpt lat="50.869644" lon="19.18304"></trkpt>
      <trkpt lat="50.883052" lon="19.260563"></trkpt>
      <trkpt lat="50.897462" lon="19.328804"></trkpt>
      <trkpt lat="50.898047" lon="19.330831"></trkpt>
      <trkpt lat="50.898764" lon="19.332592"></trkpt>
      <trkpt lat="50.899618" lon="19.334167"></trkpt>
      <trkpt lat="50.900784" lon="19.335779"></trkpt>
      <trkpt lat="50.90188" lon="19.336892"></trkpt>
      <trkpt lat="50.903092" lon="19.337781"></trkpt>
      <trkpt lat="50.904268" lon="19.338351"></trkpt>
      <trkpt lat="50.906321" lon="19.339006"></trkpt>
      <trkpt lat="50.962057" lon="19.353889"></trkpt>
      <trkpt lat="50.96388" lon="19.354498"></trkpt>
      <trkpt lat="50.965874" lon="19.355489"></trkpt>
      <trkpt lat="50.967933" lon="19.356919"></trkpt>
      <trkpt lat="50.982482" lon="19.368319"></trkpt>
      <trkpt lat="51.067946" lon="19.435689"></trkpt>
      <trkpt lat="51.06982" lon="19.436872"></trkpt>
      <trkpt lat="51.071691" lon="19.437511"></trkpt>
      <trkpt lat="51.073314" lon="19.43763"></trkpt>
      <trkpt lat="51.105036" lon="19.434647"></trkpt>
      <trkpt lat="51.106441" lon="19.434605"></trkpt>
      <trkpt lat="51.107877" lon="19.434762"></trkpt>
      <trkpt lat="51.10907" lon="19.435115"></trkpt>
      <trkpt lat="51.110662" lon="19.435882"></trkpt>
      <trkpt lat="51.129784" lon="19.447675"></trkpt>
      <trkpt lat="51.131049" lon="19.448594"></trkpt>
      <trkpt lat="51.132401" lon="19.44993"></trkpt>
      <trkpt lat="51.133647" lon="19.45158"></trkpt>
      <trkpt lat="51.134589" lon="19.453199"></trkpt>
      <trkpt lat="51.13554" lon="19.455332"></trkpt>
      <trkpt lat="51.136351" lon="19.457881"></trkpt>
      <trkpt lat="51.139323" lon="19.469632"></trkpt>
      <trkpt lat="51.14017" lon="19.472067"></trkpt>
      <trkpt lat="51.141304" lon="19.474765"></trkpt>
      <trkpt lat="51.142385" lon="19.476768"></trkpt>
      <trkpt lat="51.143229" lon="19.477993"></trkpt>
      <trkpt lat="51.144369" lon="19.479393"></trkpt>
      <trkpt lat="51.145565" lon="19.480557"></trkpt>
      <trkpt lat="51.147929" lon="19.482269"></trkpt>
      <trkpt lat="51.149792" lon="19.483136"></trkpt>
      <trkpt lat="51.179549" lon="19.491039"></trkpt>
      <trkpt lat="51.181048" lon="19.491747"></trkpt>
      <trkpt lat="51.182385" lon="19.492739"></trkpt>
      <trkpt lat="51.183549" lon="19.493958"></trkpt>
      <trkpt lat="51.184598" lon="19.495449"></trkpt>
      <trkpt lat="51.185237" lon="19.496614"></trkpt>
      <trkpt lat="51.186041" lon="19.498483"></trkpt>
      <trkpt lat="51.187021" lon="19.501879"></trkpt>
      <trkpt lat="51.207116" lon="19.586524"></trkpt>
      <trkpt lat="51.208075" lon="19.589848"></trkpt>
      <trkpt lat="51.208868" lon="19.59167"></trkpt>
      <trkpt lat="51.210297" lon="19.593926"></trkpt>
      <trkpt lat="51.211212" lon="19.594945"></trkpt>
      <trkpt lat="51.213702" lon="19.596894"></trkpt>
      <trkpt lat="51.214945" lon="19.598179"></trkpt>
      <trkpt lat="51.21746" lon="19.601704"></trkpt>
      <trkpt lat="51.221176" lon="19.607445"></trkpt>
      <trkpt lat="51.223749" lon="19.61029"></trkpt>
      <trkpt lat="51.226165" lon="19.612243"></trkpt>
      <trkpt lat="51.274562" lon="19.64675"></trkpt>
      <trkpt lat="51.276191" lon="19.647677"></trkpt>
      <trkpt lat="51.278156" lon="19.648496"></trkpt>
      <trkpt lat="51.288261" lon="19.65119"></trkpt>
      <trkpt lat="51.289774" lon="19.651726"></trkpt>
      <trkpt lat="51.290917" lon="19.652269"></trkpt>
      <trkpt lat="51.2934" lon="19.65389"></trkpt>
      <trkpt lat="51.310372" lon="19.666877"></trkpt>
      <trkpt lat="51.312475" lon="19.668131"></trkpt>
      <trkpt lat="51.314529" lon="19.668907"></trkpt>
      <trkpt lat="51.45528" lon="19.692215"></trkpt>
      <trkpt lat="51.500462" lon="19.699247"></trkpt>
      <trkpt lat="51.502546" lon="19.700006"></trkpt>
      <trkpt lat="51.560733" lon="19.728481"></trkpt>
      <trkpt lat="51.562609" lon="19.729119"></trkpt>
      <trkpt lat="51.564196" lon="19.729191"></trkpt>
      <trkpt lat="51.565917" lon="19.72878"></trkpt>
      <trkpt lat="51.581676" lon="19.720642"></trkpt>
      <trkpt lat="51.582692" lon="19.72021"></trkpt>
      <trkpt lat="51.58381" lon="19.719946"></trkpt>
      <trkpt lat="51.585047" lon="19.71991"></trkpt>
      <trkpt lat="51.586262" lon="19.720143"></trkpt>
      <trkpt lat="51.587672" lon="19.720724"></trkpt>
      <trkpt lat="51.593298" lon="19.723539"></trkpt>
      <trkpt lat="51.606205" lon="19.729737"></trkpt>
      <trkpt lat="51.607367" lon="19.730406"></trkpt>
      <trkpt lat="51.609078" lon="19.731675"></trkpt>
      <trkpt lat="51.610314" lon="19.73282"></trkpt>
      <trkpt lat="51.643386" lon="19.767807"></trkpt>
      <trkpt lat="51.64487" lon="19.769203"></trkpt>
      <trkpt lat="51.646514" lon="19.770368"></trkpt>
      <trkpt lat="51.668865" lon="19.781384"></trkpt>
      <trkpt lat="51.670417" lon="19.781987"></trkpt>
      <trkpt lat="51.678845" lon="19.786296"></trkpt>
      <trkpt lat="51.725015" lon="19.80934"></trkpt>
      <trkpt lat="51.728289" lon="19.811097"></trkpt>
      <trkpt lat="51.738015" lon="19.815894"></trkpt>
      <trkpt lat="51.745648" lon="19.819862"></trkpt>
      <trkpt lat="51.747318" lon="19.820475"></trkpt>
      <trkpt lat="51.790372" lon="19.848729"></trkpt>
      <trkpt lat="51.792076" lon="19.850307"></trkpt>
      <trkpt lat="51.793386" lon="19.851885"></trkpt>
      <trkpt lat="51.838308" lon="19.914666"></trkpt>
      <trkpt lat="51.839531" lon="19.916152"></trkpt>
      <trkpt lat="51.841005" lon="19.917419"></trkpt>
      <trkpt lat="51.842491" lon="19.918236"></trkpt>
      <trkpt lat="51.843955" lon="19.918682"></trkpt>
      <trkpt lat="51.897495" lon="19.931246"></trkpt>
      <trkpt lat="51.898683" lon="19.931694"></trkpt>
      <trkpt lat="51.899748" lon="19.932328"></trkpt>
      <trkpt lat="51.900968" lon="19.933371"></trkpt>
      <trkpt lat="51.901844" lon="19.93437"></trkpt>
      <trkpt lat="51.903126" lon="19.936372"></trkpt>
      <trkpt lat="51.904154" lon="19.938728"></trkpt>
      <trkpt lat="51.904985" lon="19.941828"></trkpt>
      <trkpt lat="51.905338" lon="19.944498"></trkpt>
      <trkpt lat="51.905382" lon="19.947457"></trkpt>
      <trkpt lat="51.904053" lon="19.975082"></trkpt>
      <trkpt lat="51.904187" lon="19.977282"></trkpt>
      <trkpt lat="51.904512" lon="19.979436"></trkpt>
      <trkpt lat="51.905044" lon="19.981562"></trkpt>
      <trkpt lat="51.905854" lon="19.983743"></trkpt>
      <trkpt lat="51.90698" lon="19.985887"></trkpt>
      <trkpt lat="51.918328" lon="20.004786"></trkpt>
      <trkpt lat="51.920656" lon="20.00865"></trkpt>
      <trkpt lat="51.922603" lon="20.011553"></trkpt>
      <trkpt lat="51.923614" lon="20.012656"></trkpt>
      <trkpt lat="51.924966" lon="20.013708"></trkpt>
      <trkpt lat="51.936711" lon="20.019639"></trkpt>
      <trkpt lat="51.937673" lon="20.020195"></trkpt>
      <trkpt lat="51.93868" lon="20.020966"></trkpt>
      <trkpt lat="51.940221" lon="20.022665"></trkpt>
      <trkpt lat="51.941632" lon="20.025013"></trkpt>
      <trkpt lat="51.942568" lon="20.027336"></trkpt>
      <trkpt lat="51.943288" lon="20.030161"></trkpt>
      <trkpt lat="51.943583" lon="20.032252"></trkpt>
      <trkpt lat="51.9437" lon="20.034652"></trkpt>
      <trkpt lat="51.943622" lon="20.036666"></trkpt>
      <trkpt lat="51.943382" lon="20.038704"></trkpt>
      <trkpt lat="51.933568" lon="20.099313"></trkpt>
      <trkpt lat="51.933394" lon="20.102307"></trkpt>
      <trkpt lat="51.933515" lon="20.105061"></trkpt>
      <trkpt lat="51.933856" lon="20.107503"></trkpt>
      <trkpt lat="51.93457" lon="20.110369"></trkpt>
      <trkpt lat="51.9383" lon="20.12069"></trkpt>
      <trkpt lat="51.939636" lon="20.123137"></trkpt>
      <trkpt lat="51.941077" lon="20.124895"></trkpt>
      <trkpt lat="51.942346" lon="20.125954"></trkpt>
      <trkpt lat="51.94366" lon="20.126684"></trkpt>
      <trkpt lat="51.957868" lon="20.132299"></trkpt>
      <trkpt lat="51.959364" lon="20.133029"></trkpt>
      <trkpt lat="51.960671" lon="20.134047"></trkpt>
      <trkpt lat="51.961823" lon="20.135322"></trkpt>
      <trkpt lat="51.962935" lon="20.137006"></trkpt>
      <trkpt lat="51.963834" lon="20.138975"></trkpt>
      <trkpt lat="51.967592" lon="20.151716"></trkpt>
      <trkpt lat="51.969206" lon="20.158333"></trkpt>
      <trkpt lat="51.973993" lon="20.174305"></trkpt>
      <trkpt lat="51.9747" lon="20.177274"></trkpt>
      <trkpt lat="51.975058" lon="20.180204"></trkpt>
      <trkpt lat="51.975186" lon="20.183222"></trkpt>
      <trkpt lat="51.975033" lon="20.207558"></trkpt>
      <trkpt lat="51.975214" lon="20.209851"></trkpt>
      <trkpt lat="51.975841" lon="20.214624"></trkpt>
      <trkpt lat="51.976331" lon="20.21712"></trkpt>
      <trkpt lat="51.976765" lon="20.218719"></trkpt>
      <trkpt lat="52.001277" lon="20.293242"></trkpt>
      <trkpt lat="52.037913" lon="20.405238"></trkpt>
      <trkpt lat="52.057108" lon="20.462673"></trkpt>
      <trkpt lat="52.103126" lon="20.601463"></trkpt>
      <trkpt lat="52.111092" lon="20.625078"></trkpt>
      <trkpt lat="52.114524" lon="20.635848"></trkpt>
      <trkpt lat="52.182647" lon="20.84247"></trkpt>
      <trkpt lat="52.201357" lon="20.899933"></trkpt>
      <trkpt lat="52.203202" lon="20.905874"></trkpt>
      <trkpt lat="52.205758" lon="20.913216"></trkpt>
      <trkpt lat="52.208026" lon="20.920429"></trkpt>
      <trkpt lat="52.215008" lon="20.941645"></trkpt>
      <trkpt lat="52.215781" lon="20.944599"></trkpt>
      <trkpt lat="52.216145" lon="20.947909"></trkpt>
      <trkpt lat="52.21647" lon="20.949581"></trkpt>
      <trkpt lat="52.218019" lon="20.95403"></trkpt>
      <trkpt lat="52.219296" lon="20.958902"></trkpt>
      <trkpt lat="52.219691" lon="20.95974"></trkpt>
      <trkpt lat="52.220664" lon="20.961028"></trkpt>
      <trkpt lat="52.221173" lon="20.961363"></trkpt>
      <trkpt lat="52.221885" lon="20.961505"></trkpt>
      <trkpt lat="52.22277" lon="20.961354"></trkpt>
      <trkpt lat="52.22345" lon="20.96098"></trkpt>
      <trkpt lat="52.225239" lon="20.959101"></trkpt>
      <trkpt lat="52.226111" lon="20.958421"></trkpt>
      <trkpt lat="52.226978" lon="20.958025"></trkpt>
      <trkpt lat="52.227956" lon="20.957865"></trkpt>
      <trkpt lat="52.236734" lon="20.958251"></trkpt>
      <trkpt lat="52.248648" lon="20.959225"></trkpt>
      <trkpt lat="52.249717" lon="20.959439"></trkpt>
      <trkpt lat="52.250718" lon="20.960035"></trkpt>
      <trkpt lat="52.251379" lon="20.960707"></trkpt>
      <trkpt lat="52.252143" lon="20.961795"></trkpt>
      <trkpt lat="52.253216" lon="20.964203"></trkpt>
      <trkpt lat="52.255388" lon="20.970361"></trkpt>
      <trkpt lat="52.258867" lon="20.981011"></trkpt>
      <trkpt lat="52.259116" lon="20.982372"></trkpt>
      <trkpt lat="52.259253" lon="20.984256"></trkpt>
      <trkpt lat="52.259146" lon="20.992428"></trkpt>
  </trkseg></trk>
</gpx>
