<?xml version="1.0" encoding="UTF-8"?>
<gpx version="1.1" creator="yatutbuv" xmlns="http://www.topografix.com/GPX/1/1">
  <trk><name>2012_Cubelles -&gt; Barcelona (46.8km)</name><trkseg>
      <trkpt lat="41.20416" lon="1.676078"></trkpt>
      <trkpt lat="41.207673" lon="1.692165"></trkpt>
      <trkpt lat="41.20795" lon="1.693926"></trkpt>
      <trkpt lat="41.208271" lon="1.69781"></trkpt>
      <trkpt lat="41.208219" lon="1.705753"></trkpt>
      <trkpt lat="41.208567" lon="1.707588"></trkpt>
      <trkpt lat="41.209357" lon="1.709399"></trkpt>
      <trkpt lat="41.216487" lon="1.720463"></trkpt>
      <trkpt lat="41.21758" lon="1.722519"></trkpt>
      <trkpt lat="41.217935" lon="1.723411"></trkpt>
      <trkpt lat="41.219481" lon="1.729028"></trkpt>
      <trkpt lat="41.219832" lon="1.730874"></trkpt>
      <trkpt lat="41.219993" lon="1.732685"></trkpt>
      <trkpt lat="41.219947" lon="1.73407"></trkpt>
      <trkpt lat="41.219636" lon="1.736394"></trkpt>
      <trkpt lat="41.218774" lon="1.740797"></trkpt>
      <trkpt lat="41.218611" lon="1.742439"></trkpt>
      <trkpt lat="41.218612" lon="1.743678"></trkpt>
      <trkpt lat="41.218758" lon="1.745407"></trkpt>
      <trkpt lat="41.21949" lon="1.749316"></trkpt>
      <trkpt lat="41.220022" lon="1.753119"></trkpt>
      <trkpt lat="41.220032" lon="1.755161"></trkpt>
      <trkpt lat="41.219831" lon="1.758558"></trkpt>
      <trkpt lat="41.219966" lon="1.760994"></trkpt>
      <trkpt lat="41.220425" lon="1.763622"></trkpt>
      <trkpt lat="41.221762" lon="1.768972"></trkpt>
      <trkpt lat="41.222722" lon="1.772193"></trkpt>
      <trkpt lat="41.223575" lon="1.774036"></trkpt>
      <trkpt lat="41.231142" lon="1.785999"></trkpt>
      <trkpt lat="41.235008" lon="1.792421"></trkpt>
      <trkpt lat="41.237319" lon="1.798185"></trkpt>
      <trkpt lat="41.23884" lon="1.802542"></trkpt>
      <trkpt lat="41.239137" lon="1.803745"></trkpt>
      <trkpt lat="41.239409" lon="1.806736"></trkpt>
      <trkpt lat="41.239306" lon="1.808706"></trkpt>
      <trkpt lat="41.239059" lon="1.810498"></trkpt>
      <trkpt lat="41.237588" lon="1.817801"></trkpt>
      <trkpt lat="41.237427" lon="1.81904"></trkpt>
      <trkpt lat="41.237419" lon="1.820415"></trkpt>
      <trkpt lat="41.237737" lon="1.825792"></trkpt>
      <trkpt lat="41.237716" lon="1.827196"></trkpt>
      <trkpt lat="41.237498" lon="1.828482"></trkpt>
      <trkpt lat="41.236505" lon="1.831823"></trkpt>
      <trkpt lat="41.236151" lon="1.834042"></trkpt>
      <trkpt lat="41.235976" lon="1.842622"></trkpt>
      <trkpt lat="41.235113" lon="1.851309"></trkpt>
      <trkpt lat="41.235418" lon="1.853325"></trkpt>
      <trkpt lat="41.236094" lon="1.855482"></trkpt>
      <trkpt lat="41.237122" lon="1.856867"></trkpt>
      <trkpt lat="41.238367" lon="1.858052"></trkpt>
      <trkpt lat="41.23941" lon="1.859373"></trkpt>
      <trkpt lat="41.240177" lon="1.860625"></trkpt>
      <trkpt lat="41.242596" lon="1.866252"></trkpt>
      <trkpt lat="41.243299" lon="1.868587"></trkpt>
      <trkpt lat="41.243994" lon="1.873178"></trkpt>
      <trkpt lat="41.244432" lon="1.874928"></trkpt>
      <trkpt lat="41.245028" lon="1.876873"></trkpt>
      <trkpt lat="41.247607" lon="1.883749"></trkpt>
      <trkpt lat="41.248769" lon="1.890211"></trkpt>
      <trkpt lat="41.252355" lon="1.899087"></trkpt>
      <trkpt lat="41.254653" lon="1.903562"></trkpt>
      <trkpt lat="41.255297" lon="1.905726"></trkpt>
      <trkpt lat="41.256261" lon="1.91195"></trkpt>
      <trkpt lat="41.257358" lon="1.915903"></trkpt>
      <trkpt lat="41.257961" lon="1.917481"></trkpt>
      <trkpt lat="41.260186" lon="1.921412"></trkpt>
      <trkpt lat="41.260909" lon="1.922991"></trkpt>
      <trkpt lat="41.262294" lon="1.928631"></trkpt>
      <trkpt lat="41.263945" lon="1.933798"></trkpt>
      <trkpt lat="41.264578" lon="1.93651"></trkpt>
      <trkpt lat="41.267655" lon="1.962126"></trkpt>
      <trkpt lat="41.268169" lon="1.964303"></trkpt>
      <trkpt lat="41.268667" lon="1.965654"></trkpt>
      <trkpt lat="41.270003" lon="1.968252"></trkpt>
      <trkpt lat="41.271784" lon="1.970661"></trkpt>
      <trkpt lat="41.300646" lon="2.006721"></trkpt>
      <trkpt lat="41.301774" lon="2.008309"></trkpt>
      <trkpt lat="41.303604" lon="2.0116"></trkpt>
      <trkpt lat="41.305909" lon="2.017573"></trkpt>
      <trkpt lat="41.327561" lon="2.080208"></trkpt>
      <trkpt lat="41.329194" lon="2.084835"></trkpt>
      <trkpt lat="41.330519" lon="2.087901"></trkpt>
      <trkpt lat="41.331211" lon="2.089894"></trkpt>
      <trkpt lat="41.332892" lon="2.095558"></trkpt>
      <trkpt lat="41.335273" lon="2.102361"></trkpt>
      <trkpt lat="41.336386" lon="2.105982"></trkpt>
      <trkpt lat="41.337801" lon="2.109969"></trkpt>
      <trkpt lat="41.33883" lon="2.112375"></trkpt>
      <trkpt lat="41.339423" lon="2.113094"></trkpt>
      <trkpt lat="41.339965" lon="2.113516"></trkpt>
      <trkpt lat="41.340751" lon="2.113891"></trkpt>
      <trkpt lat="41.341448" lon="2.11406"></trkpt>
      <trkpt lat="41.348107" lon="2.114819"></trkpt>
      <trkpt lat="41.362136" lon="2.116116"></trkpt>
      <trkpt lat="41.365092" lon="2.116492"></trkpt>
      <trkpt lat="41.365813" lon="2.116726"></trkpt>
      <trkpt lat="41.36631" lon="2.117018"></trkpt>
      <trkpt lat="41.367281" lon="2.118097"></trkpt>
      <trkpt lat="41.367869" lon="2.119602"></trkpt>
      <trkpt lat="41.368016" lon="2.12074"></trkpt>
      <trkpt lat="41.367986" lon="2.12311"></trkpt>
      <trkpt lat="41.368155" lon="2.125509"></trkpt>
      <trkpt lat="41.368717" lon="2.127828"></trkpt>
      <trkpt lat="41.369421" lon="2.129394"></trkpt>
      <trkpt lat="41.37008" lon="2.130392"></trkpt>
      <trkpt lat="41.370929" lon="2.131378"></trkpt>
      <trkpt lat="41.37409" lon="2.134157"></trkpt>
      <trkpt lat="41.375979" lon="2.136079"></trkpt>
      <trkpt lat="41.37702" lon="2.137276"></trkpt>
      <trkpt lat="41.379022" lon="2.139966"></trkpt>
  </trkseg></trk>
</gpx>
