<?xml version="1.0" encoding="UTF-8"?>
<gpx version="1.1" creator="yatutbuv" xmlns="http://www.topografix.com/GPX/1/1">
  <trk><name>2019_Naples -&gt; Rome (214km)</name><trkseg>
      <trkpt lat="40.853069" lon="14.273036"></trkpt>
      <trkpt lat="40.853514" lon="14.277511"></trkpt>
      <trkpt lat="40.853545" lon="14.279837"></trkpt>
      <trkpt lat="40.854455" lon="14.288344"></trkpt>
      <trkpt lat="40.855071" lon="14.290147"></trkpt>
      <trkpt lat="40.856912" lon="14.293693"></trkpt>
      <trkpt lat="40.857413" lon="14.294493"></trkpt>
      <trkpt lat="40.858218" lon="14.295318"></trkpt>
      <trkpt lat="40.859183" lon="14.295843"></trkpt>
      <trkpt lat="40.860175" lon="14.296006"></trkpt>
      <trkpt lat="40.864753" lon="14.295066"></trkpt>
      <trkpt lat="40.865862" lon="14.295121"></trkpt>
      <trkpt lat="40.866708" lon="14.295466"></trkpt>
      <trkpt lat="40.868397" lon="14.296644"></trkpt>
      <trkpt lat="40.871974" lon="14.298757"></trkpt>
      <trkpt lat="40.87337" lon="14.299917"></trkpt>
      <trkpt lat="40.876397" lon="14.302907"></trkpt>
      <trkpt lat="40.881198" lon="14.309538"></trkpt>
      <trkpt lat="40.883447" lon="14.312277"></trkpt>
      <trkpt lat="40.885088" lon="14.313609"></trkpt>
      <trkpt lat="40.887318" lon="14.314691"></trkpt>
      <trkpt lat="40.892844" lon="14.31652"></trkpt>
      <trkpt lat="40.894312" lon="14.316798"></trkpt>
      <trkpt lat="40.895775" lon="14.316818"></trkpt>
      <trkpt lat="40.897555" lon="14.316503"></trkpt>
      <trkpt lat="40.899559" lon="14.315624"></trkpt>
      <trkpt lat="40.900876" lon="14.31467"></trkpt>
      <trkpt lat="40.902327" lon="14.313162"></trkpt>
      <trkpt lat="40.903324" lon="14.311583"></trkpt>
      <trkpt lat="40.904109" lon="14.309801"></trkpt>
      <trkpt lat="40.90692" lon="14.300915"></trkpt>
      <trkpt lat="40.908962" lon="14.29523"></trkpt>
      <trkpt lat="40.909866" lon="14.292938"></trkpt>
      <trkpt lat="40.910806" lon="14.291291"></trkpt>
      <trkpt lat="40.911623" lon="14.290236"></trkpt>
      <trkpt lat="40.912401" lon="14.289442"></trkpt>
      <trkpt lat="40.93775" lon="14.266388"></trkpt>
      <trkpt lat="40.939665" lon="14.26405"></trkpt>
      <trkpt lat="40.942" lon="14.260162"></trkpt>
      <trkpt lat="40.962067" lon="14.224033"></trkpt>
      <trkpt lat="40.963025" lon="14.222605"></trkpt>
      <trkpt lat="40.964365" lon="14.22133"></trkpt>
      <trkpt lat="40.965254" lon="14.220753"></trkpt>
      <trkpt lat="40.966115" lon="14.220368"></trkpt>
      <trkpt lat="40.97728" lon="14.217171"></trkpt>
      <trkpt lat="40.978742" lon="14.216537"></trkpt>
      <trkpt lat="40.97972" lon="14.215906"></trkpt>
      <trkpt lat="40.98103" lon="14.21471"></trkpt>
      <trkpt lat="40.982266" lon="14.213073"></trkpt>
      <trkpt lat="40.985584" lon="14.206519"></trkpt>
      <trkpt lat="40.986282" lon="14.203887"></trkpt>
      <trkpt lat="40.995752" lon="14.15181"></trkpt>
      <trkpt lat="40.996065" lon="14.122596"></trkpt>
      <trkpt lat="40.993436" lon="14.080105"></trkpt>
      <trkpt lat="40.993569" lon="14.078536"></trkpt>
      <trkpt lat="40.994036" lon="14.076563"></trkpt>
      <trkpt lat="40.994611" lon="14.075152"></trkpt>
      <trkpt lat="40.995355" lon="14.073894"></trkpt>
      <trkpt lat="40.996259" lon="14.072808"></trkpt>
      <trkpt lat="40.997301" lon="14.071914"></trkpt>
      <trkpt lat="41.000802" lon="14.069605"></trkpt>
      <trkpt lat="41.002783" lon="14.068446"></trkpt>
      <trkpt lat="41.016238" lon="14.061537"></trkpt>
      <trkpt lat="41.024388" lon="14.057181"></trkpt>
      <trkpt lat="41.059915" lon="14.031467"></trkpt>
      <trkpt lat="41.062292" lon="14.029617"></trkpt>
      <trkpt lat="41.070762" lon="14.023489"></trkpt>
      <trkpt lat="41.11003" lon="13.989299"></trkpt>
      <trkpt lat="41.11559" lon="13.982073"></trkpt>
      <trkpt lat="41.121434" lon="13.974213"></trkpt>
      <trkpt lat="41.126116" lon="13.968222"></trkpt>
      <trkpt lat="41.217216" lon="13.847514"></trkpt>
      <trkpt lat="41.218652" lon="13.845376"></trkpt>
      <trkpt lat="41.21971" lon="13.843404"></trkpt>
      <trkpt lat="41.240863" lon="13.794404"></trkpt>
      <trkpt lat="41.241459" lon="13.792911"></trkpt>
      <trkpt lat="41.241997" lon="13.791119"></trkpt>
      <trkpt lat="41.24788" lon="13.769488"></trkpt>
      <trkpt lat="41.251609" lon="13.750235"></trkpt>
      <trkpt lat="41.255053" lon="13.738386"></trkpt>
      <trkpt lat="41.255437" lon="13.736747"></trkpt>
      <trkpt lat="41.257005" lon="13.728811"></trkpt>
      <trkpt lat="41.257714" lon="13.718537"></trkpt>
      <trkpt lat="41.259304" lon="13.707267"></trkpt>
      <trkpt lat="41.259437" lon="13.701697"></trkpt>
      <trkpt lat="41.259672" lon="13.699537"></trkpt>
      <trkpt lat="41.260201" lon="13.69748"></trkpt>
      <trkpt lat="41.264066" lon="13.68698"></trkpt>
      <trkpt lat="41.264499" lon="13.68539"></trkpt>
      <trkpt lat="41.264842" lon="13.683539"></trkpt>
      <trkpt lat="41.265056" lon="13.681162"></trkpt>
      <trkpt lat="41.26504" lon="13.678712"></trkpt>
      <trkpt lat="41.263538" lon="13.665297"></trkpt>
      <trkpt lat="41.262725" lon="13.654602"></trkpt>
      <trkpt lat="41.262684" lon="13.652862"></trkpt>
      <trkpt lat="41.262939" lon="13.650457"></trkpt>
      <trkpt lat="41.264723" lon="13.644134"></trkpt>
      <trkpt lat="41.265036" lon="13.64153"></trkpt>
      <trkpt lat="41.265495" lon="13.622637"></trkpt>
      <trkpt lat="41.265465" lon="13.620054"></trkpt>
      <trkpt lat="41.264837" lon="13.616873"></trkpt>
      <trkpt lat="41.264171" lon="13.615217"></trkpt>
      <trkpt lat="41.259543" lon="13.607432"></trkpt>
      <trkpt lat="41.257923" lon="13.604563"></trkpt>
      <trkpt lat="41.25724" lon="13.603051"></trkpt>
      <trkpt lat="41.256805" lon="13.601609"></trkpt>
      <trkpt lat="41.254785" lon="13.59079"></trkpt>
      <trkpt lat="41.254266" lon="13.586652"></trkpt>
      <trkpt lat="41.253566" lon="13.582877"></trkpt>
      <trkpt lat="41.253528" lon="13.580954"></trkpt>
      <trkpt lat="41.253922" lon="13.578431"></trkpt>
      <trkpt lat="41.25539" lon="13.574038"></trkpt>
      <trkpt lat="41.25559" lon="13.573061"></trkpt>
      <trkpt lat="41.256119" lon="13.568512"></trkpt>
      <trkpt lat="41.256523" lon="13.566755"></trkpt>
      <trkpt lat="41.257301" lon="13.564835"></trkpt>
      <trkpt lat="41.257997" lon="13.563732"></trkpt>
      <trkpt lat="41.25891" lon="13.56266"></trkpt>
      <trkpt lat="41.261053" lon="13.560516"></trkpt>
      <trkpt lat="41.262141" lon="13.55902"></trkpt>
      <trkpt lat="41.263045" lon="13.557113"></trkpt>
      <trkpt lat="41.264677" lon="13.552995"></trkpt>
      <trkpt lat="41.265464" lon="13.551499"></trkpt>
      <trkpt lat="41.266802" lon="13.549889"></trkpt>
      <trkpt lat="41.270144" lon="13.546444"></trkpt>
      <trkpt lat="41.276374" lon="13.541113"></trkpt>
      <trkpt lat="41.277156" lon="13.540261"></trkpt>
      <trkpt lat="41.320908" lon="13.479368"></trkpt>
      <trkpt lat="41.322488" lon="13.476802"></trkpt>
      <trkpt lat="41.323983" lon="13.474656"></trkpt>
      <trkpt lat="41.324921" lon="13.472693"></trkpt>
      <trkpt lat="41.32548" lon="13.47084"></trkpt>
      <trkpt lat="41.325764" lon="13.469118"></trkpt>
      <trkpt lat="41.326176" lon="13.463594"></trkpt>
      <trkpt lat="41.326661" lon="13.461661"></trkpt>
      <trkpt lat="41.32762" lon="13.459608"></trkpt>
      <trkpt lat="41.33039" lon="13.45541"></trkpt>
      <trkpt lat="41.334382" lon="13.447083"></trkpt>
      <trkpt lat="41.334939" lon="13.445406"></trkpt>
      <trkpt lat="41.336961" lon="13.428093"></trkpt>
      <trkpt lat="41.348745" lon="13.370462"></trkpt>
      <trkpt lat="41.349077" lon="13.367716"></trkpt>
      <trkpt lat="41.348984" lon="13.365415"></trkpt>
      <trkpt lat="41.347852" lon="13.357721"></trkpt>
      <trkpt lat="41.34525" lon="13.34375"></trkpt>
      <trkpt lat="41.34476" lon="13.342184"></trkpt>
      <trkpt lat="41.343986" lon="13.340471"></trkpt>
      <trkpt lat="41.337758" lon="13.331716"></trkpt>
      <trkpt lat="41.336758" lon="13.32987"></trkpt>
      <trkpt lat="41.336276" lon="13.328389"></trkpt>
      <trkpt lat="41.336068" lon="13.327371"></trkpt>
      <trkpt lat="41.335914" lon="13.32524"></trkpt>
      <trkpt lat="41.336149" lon="13.323142"></trkpt>
      <trkpt lat="41.33669" lon="13.321163"></trkpt>
      <trkpt lat="41.337179" lon="13.320043"></trkpt>
      <trkpt lat="41.33801" lon="13.318703"></trkpt>
      <trkpt lat="41.350487" lon="13.302024"></trkpt>
      <trkpt lat="41.358721" lon="13.285961"></trkpt>
      <trkpt lat="41.400961" lon="13.209931"></trkpt>
      <trkpt lat="41.401913" lon="13.208755"></trkpt>
      <trkpt lat="41.403427" lon="13.207562"></trkpt>
      <trkpt lat="41.408077" lon="13.205681"></trkpt>
      <trkpt lat="41.409551" lon="13.204974"></trkpt>
      <trkpt lat="41.412176" lon="13.203401"></trkpt>
      <trkpt lat="41.413928" lon="13.202138"></trkpt>
      <trkpt lat="41.41539" lon="13.200847"></trkpt>
      <trkpt lat="41.416288" lon="13.199881"></trkpt>
      <trkpt lat="41.4171" lon="13.198673"></trkpt>
      <trkpt lat="41.417939" lon="13.196796"></trkpt>
      <trkpt lat="41.423438" lon="13.182449"></trkpt>
      <trkpt lat="41.429632" lon="13.16572"></trkpt>
      <trkpt lat="41.434965" lon="13.153283"></trkpt>
      <trkpt lat="41.436212" lon="13.150879"></trkpt>
      <trkpt lat="41.436928" lon="13.149892"></trkpt>
      <trkpt lat="41.438585" lon="13.148336"></trkpt>
      <trkpt lat="41.443143" lon="13.145496"></trkpt>
      <trkpt lat="41.444561" lon="13.144031"></trkpt>
      <trkpt lat="41.453584" lon="13.128496"></trkpt>
      <trkpt lat="41.465228" lon="13.113973"></trkpt>
      <trkpt lat="41.477544" lon="13.095041"></trkpt>
      <trkpt lat="41.478448" lon="13.093368"></trkpt>
      <trkpt lat="41.479138" lon="13.091497"></trkpt>
      <trkpt lat="41.479451" lon="13.090217"></trkpt>
      <trkpt lat="41.48134" lon="13.077921"></trkpt>
      <trkpt lat="41.481877" lon="13.075295"></trkpt>
      <trkpt lat="41.490138" lon="13.048567"></trkpt>
      <trkpt lat="41.491289" lon="13.045621"></trkpt>
      <trkpt lat="41.492209" lon="13.043821"></trkpt>
      <trkpt lat="41.498921" lon="13.033057"></trkpt>
      <trkpt lat="41.499679" lon="13.031595"></trkpt>
      <trkpt lat="41.500111" lon="13.030447"></trkpt>
      <trkpt lat="41.500574" lon="13.02837"></trkpt>
      <trkpt lat="41.501268" lon="13.022042"></trkpt>
      <trkpt lat="41.504641" lon="13.006958"></trkpt>
      <trkpt lat="41.505567" lon="13.003979"></trkpt>
      <trkpt lat="41.506224" lon="13.00264"></trkpt>
      <trkpt lat="41.530416" lon="12.964542"></trkpt>
      <trkpt lat="41.532247" lon="12.961161"></trkpt>
      <trkpt lat="41.547813" lon="12.922318"></trkpt>
      <trkpt lat="41.573638" lon="12.860457"></trkpt>
      <trkpt lat="41.585212" lon="12.83122"></trkpt>
      <trkpt lat="41.597846" lon="12.796237"></trkpt>
      <trkpt lat="41.63681" lon="12.680747"></trkpt>
      <trkpt lat="41.637616" lon="12.677649"></trkpt>
      <trkpt lat="41.638074" lon="12.674561"></trkpt>
      <trkpt lat="41.638217" lon="12.672423"></trkpt>
      <trkpt lat="41.638417" lon="12.661163"></trkpt>
      <trkpt lat="41.638583" lon="12.658986"></trkpt>
      <trkpt lat="41.638977" lon="12.656743"></trkpt>
      <trkpt lat="41.639623" lon="12.654556"></trkpt>
      <trkpt lat="41.640224" lon="12.653004"></trkpt>
      <trkpt lat="41.644594" lon="12.643759"></trkpt>
      <trkpt lat="41.647272" lon="12.636802"></trkpt>
      <trkpt lat="41.648416" lon="12.634495"></trkpt>
      <trkpt lat="41.649959" lon="12.632233"></trkpt>
      <trkpt lat="41.655611" lon="12.625132"></trkpt>
      <trkpt lat="41.657086" lon="12.623664"></trkpt>
      <trkpt lat="41.66283" lon="12.618793"></trkpt>
      <trkpt lat="41.665762" lon="12.615688"></trkpt>
      <trkpt lat="41.670314" lon="12.60976"></trkpt>
      <trkpt lat="41.69553" lon="12.580794"></trkpt>
      <trkpt lat="41.696914" lon="12.579372"></trkpt>
      <trkpt lat="41.698201" lon="12.578313"></trkpt>
      <trkpt lat="41.700225" lon="12.57698"></trkpt>
      <trkpt lat="41.70608" lon="12.573554"></trkpt>
      <trkpt lat="41.716858" lon="12.567484"></trkpt>
      <trkpt lat="41.718959" lon="12.56647"></trkpt>
      <trkpt lat="41.721343" lon="12.565787"></trkpt>
      <trkpt lat="41.730215" lon="12.564319"></trkpt>
      <trkpt lat="41.731537" lon="12.563891"></trkpt>
      <trkpt lat="41.735893" lon="12.56207"></trkpt>
      <trkpt lat="41.737965" lon="12.561587"></trkpt>
      <trkpt lat="41.744673" lon="12.561193"></trkpt>
      <trkpt lat="41.754669" lon="12.559292"></trkpt>
      <trkpt lat="41.756353" lon="12.559267"></trkpt>
      <trkpt lat="41.760278" lon="12.559639"></trkpt>
      <trkpt lat="41.76207" lon="12.559566"></trkpt>
      <trkpt lat="41.763527" lon="12.559267"></trkpt>
      <trkpt lat="41.767146" lon="12.558258"></trkpt>
      <trkpt lat="41.768949" lon="12.558022"></trkpt>
      <trkpt lat="41.769989" lon="12.558032"></trkpt>
      <trkpt lat="41.77147" lon="12.55824"></trkpt>
      <trkpt lat="41.778119" lon="12.560088"></trkpt>
      <trkpt lat="41.78009" lon="12.560461"></trkpt>
      <trkpt lat="41.797914" lon="12.562153"></trkpt>
      <trkpt lat="41.799704" lon="12.561979"></trkpt>
      <trkpt lat="41.801144" lon="12.561584"></trkpt>
      <trkpt lat="41.807382" lon="12.55872"></trkpt>
      <trkpt lat="41.812053" lon="12.556858"></trkpt>
      <trkpt lat="41.814943" lon="12.556235"></trkpt>
      <trkpt lat="41.816505" lon="12.556082"></trkpt>
      <trkpt lat="41.818273" lon="12.556071"></trkpt>
      <trkpt lat="41.821021" lon="12.556357"></trkpt>
      <trkpt lat="41.823985" lon="12.5571"></trkpt>
      <trkpt lat="41.830781" lon="12.559863"></trkpt>
      <trkpt lat="41.832527" lon="12.560413"></trkpt>
      <trkpt lat="41.83445" lon="12.560652"></trkpt>
      <trkpt lat="41.836638" lon="12.560482"></trkpt>
      <trkpt lat="41.83816" lon="12.560074"></trkpt>
      <trkpt lat="41.840059" lon="12.559215"></trkpt>
      <trkpt lat="41.846239" lon="12.555142"></trkpt>
      <trkpt lat="41.847957" lon="12.553712"></trkpt>
      <trkpt lat="41.851563" lon="12.549873"></trkpt>
      <trkpt lat="41.853096" lon="12.54867"></trkpt>
      <trkpt lat="41.854671" lon="12.547957"></trkpt>
      <trkpt lat="41.859278" lon="12.546822"></trkpt>
      <trkpt lat="41.86063" lon="12.546244"></trkpt>
      <trkpt lat="41.871487" lon="12.540299"></trkpt>
      <trkpt lat="41.872718" lon="12.539544"></trkpt>
      <trkpt lat="41.874574" lon="12.538184"></trkpt>
      <trkpt lat="41.879638" lon="12.535504"></trkpt>
      <trkpt lat="41.880831" lon="12.534663"></trkpt>
      <trkpt lat="41.881629" lon="12.533709"></trkpt>
      <trkpt lat="41.882018" lon="12.532875"></trkpt>
      <trkpt lat="41.882547" lon="12.530893"></trkpt>
      <trkpt lat="41.883186" lon="12.52982"></trkpt>
      <trkpt lat="41.884062" lon="12.529045"></trkpt>
      <trkpt lat="41.885899" lon="12.527784"></trkpt>
      <trkpt lat="41.886592" lon="12.527449"></trkpt>
      <trkpt lat="41.887531" lon="12.527357"></trkpt>
      <trkpt lat="41.895226" lon="12.528292"></trkpt>
      <trkpt lat="41.895902" lon="12.52846"></trkpt>
      <trkpt lat="41.896825" lon="12.528925"></trkpt>
      <trkpt lat="41.903262" lon="12.532832"></trkpt>
      <trkpt lat="41.904135" lon="12.533243"></trkpt>
      <trkpt lat="41.905026" lon="12.533483"></trkpt>
      <trkpt lat="41.906184" lon="12.533533"></trkpt>
      <trkpt lat="41.907336" lon="12.53333"></trkpt>
      <trkpt lat="41.910126" lon="12.532436"></trkpt>
      <trkpt lat="41.911172" lon="12.531868"></trkpt>
  </trkseg></trk>
</gpx>
