<?xml version="1.0" encoding="UTF-8"?>
<gpx version="1.1" creator="yatutbuv" xmlns="http://www.topografix.com/GPX/1/1">
  <trk><name>1990і_Lviv_Dobrotvir (52km)</name><trkseg>
      <trkpt lat="49.853198" lon="24.049789"></trkpt>
      <trkpt lat="49.853397" lon="24.052602"></trkpt>
      <trkpt lat="49.853334" lon="24.057276"></trkpt>
      <trkpt lat="49.853551" lon="24.06359"></trkpt>
      <trkpt lat="49.854021" lon="24.066996"></trkpt>
      <trkpt lat="49.854438" lon="24.068131"></trkpt>
      <trkpt lat="49.85479" lon="24.068671"></trkpt>
      <trkpt lat="49.855365" lon="24.069249"></trkpt>
      <trkpt lat="49.856008" lon="24.069576"></trkpt>
      <trkpt lat="49.867257" lon="24.07233"></trkpt>
      <trkpt lat="49.868358" lon="24.072836"></trkpt>
      <trkpt lat="49.874574" lon="24.077866"></trkpt>
      <trkpt lat="49.87525" lon="24.078754"></trkpt>
      <trkpt lat="49.876265" lon="24.081023"></trkpt>
      <trkpt lat="49.876846" lon="24.081913"></trkpt>
      <trkpt lat="49.877767" lon="24.082767"></trkpt>
      <trkpt lat="49.88032" lon="24.084484"></trkpt>
      <trkpt lat="49.880935" lon="24.08531"></trkpt>
      <trkpt lat="49.881369" lon="24.086418"></trkpt>
      <trkpt lat="49.882385" lon="24.090809"></trkpt>
      <trkpt lat="49.883965" lon="24.098631"></trkpt>
      <trkpt lat="49.886732" lon="24.106955"></trkpt>
      <trkpt lat="49.887207" lon="24.109477"></trkpt>
      <trkpt lat="49.888061" lon="24.124149"></trkpt>
      <trkpt lat="49.887941" lon="24.125493"></trkpt>
      <trkpt lat="49.887115" lon="24.129285"></trkpt>
      <trkpt lat="49.886079" lon="24.145318"></trkpt>
      <trkpt lat="49.886036" lon="24.169351"></trkpt>
      <trkpt lat="49.886315" lon="24.171838"></trkpt>
      <trkpt lat="49.888295" lon="24.178163"></trkpt>
      <trkpt lat="49.888596" lon="24.181379"></trkpt>
      <trkpt lat="49.888891" lon="24.182428"></trkpt>
      <trkpt lat="49.889289" lon="24.183184"></trkpt>
      <trkpt lat="49.889831" lon="24.183849"></trkpt>
      <trkpt lat="49.892667" lon="24.186432"></trkpt>
      <trkpt lat="49.893239" lon="24.187124"></trkpt>
      <trkpt lat="49.895518" lon="24.19241"></trkpt>
      <trkpt lat="49.896367" lon="24.193777"></trkpt>
      <trkpt lat="49.914498" lon="24.215757"></trkpt>
      <trkpt lat="49.915189" lon="24.217133"></trkpt>
      <trkpt lat="49.915636" lon="24.2192"></trkpt>
      <trkpt lat="49.916049" lon="24.220364"></trkpt>
      <trkpt lat="49.916772" lon="24.221378"></trkpt>
      <trkpt lat="49.917545" lon="24.221888"></trkpt>
      <trkpt lat="49.937704" lon="24.231623"></trkpt>
      <trkpt lat="49.939433" lon="24.232397"></trkpt>
      <trkpt lat="49.940029" lon="24.232539"></trkpt>
      <trkpt lat="49.963197" lon="24.23285"></trkpt>
      <trkpt lat="49.963897" lon="24.232591"></trkpt>
      <trkpt lat="49.965603" lon="24.230999"></trkpt>
      <trkpt lat="49.967992" lon="24.229982"></trkpt>
      <trkpt lat="49.971365" lon="24.227896"></trkpt>
      <trkpt lat="49.972018" lon="24.227715"></trkpt>
      <trkpt lat="49.972864" lon="24.227735"></trkpt>
      <trkpt lat="49.973496" lon="24.227968"></trkpt>
      <trkpt lat="49.97423" lon="24.228465"></trkpt>
      <trkpt lat="49.974918" lon="24.229457"></trkpt>
      <trkpt lat="49.975371" lon="24.230877"></trkpt>
      <trkpt lat="49.978665" lon="24.251906"></trkpt>
      <trkpt lat="49.979124" lon="24.25367"></trkpt>
      <trkpt lat="49.979985" lon="24.255384"></trkpt>
      <trkpt lat="49.987478" lon="24.266434"></trkpt>
      <trkpt lat="49.993117" lon="24.271862"></trkpt>
      <trkpt lat="49.994048" lon="24.272524"></trkpt>
      <trkpt lat="49.995725" lon="24.273158"></trkpt>
      <trkpt lat="50.004261" lon="24.275835"></trkpt>
      <trkpt lat="50.005302" lon="24.276301"></trkpt>
      <trkpt lat="50.006381" lon="24.277358"></trkpt>
      <trkpt lat="50.013278" lon="24.285978"></trkpt>
      <trkpt lat="50.014194" lon="24.287304"></trkpt>
      <trkpt lat="50.032671" lon="24.321892"></trkpt>
      <trkpt lat="50.033233" lon="24.322796"></trkpt>
      <trkpt lat="50.034051" lon="24.323665"></trkpt>
      <trkpt lat="50.044155" lon="24.331827"></trkpt>
      <trkpt lat="50.044755" lon="24.332164"></trkpt>
      <trkpt lat="50.04534" lon="24.332266"></trkpt>
      <trkpt lat="50.045815" lon="24.33222"></trkpt>
      <trkpt lat="50.054788" lon="24.330618"></trkpt>
      <trkpt lat="50.055886" lon="24.330634"></trkpt>
      <trkpt lat="50.069727" lon="24.33415"></trkpt>
      <trkpt lat="50.073029" lon="24.334704"></trkpt>
      <trkpt lat="50.07422" lon="24.335245"></trkpt>
      <trkpt lat="50.075947" lon="24.336467"></trkpt>
      <trkpt lat="50.077053" lon="24.336863"></trkpt>
      <trkpt lat="50.079568" lon="24.337245"></trkpt>
      <trkpt lat="50.089522" lon="24.33815"></trkpt>
      <trkpt lat="50.090432" lon="24.338097"></trkpt>
      <trkpt lat="50.091139" lon="24.337908"></trkpt>
      <trkpt lat="50.092309" lon="24.337241"></trkpt>
      <trkpt lat="50.101684" lon="24.329205"></trkpt>
      <trkpt lat="50.102494" lon="24.328635"></trkpt>
      <trkpt lat="50.103249" lon="24.328308"></trkpt>
      <trkpt lat="50.104152" lon="24.328129"></trkpt>
      <trkpt lat="50.105432" lon="24.328265"></trkpt>
      <trkpt lat="50.106185" lon="24.328567"></trkpt>
      <trkpt lat="50.107116" lon="24.329155"></trkpt>
      <trkpt lat="50.108174" lon="24.330001"></trkpt>
      <trkpt lat="50.108815" lon="24.330672"></trkpt>
      <trkpt lat="50.113391" lon="24.337629"></trkpt>
      <trkpt lat="50.11412" lon="24.338604"></trkpt>
      <trkpt lat="50.114987" lon="24.33951"></trkpt>
      <trkpt lat="50.123511" lon="24.345876"></trkpt>
      <trkpt lat="50.124432" lon="24.346361"></trkpt>
      <trkpt lat="50.125168" lon="24.346564"></trkpt>
      <trkpt lat="50.126467" lon="24.346554"></trkpt>
      <trkpt lat="50.127565" lon="24.346169"></trkpt>
      <trkpt lat="50.128383" lon="24.345655"></trkpt>
      <trkpt lat="50.130853" lon="24.343346"></trkpt>
      <trkpt lat="50.131683" lon="24.342721"></trkpt>
      <trkpt lat="50.132792" lon="24.342245"></trkpt>
      <trkpt lat="50.133482" lon="24.342129"></trkpt>
      <trkpt lat="50.134292" lon="24.342165"></trkpt>
      <trkpt lat="50.16691" lon="24.349602"></trkpt>
      <trkpt lat="50.169001" lon="24.350361"></trkpt>
      <trkpt lat="50.178153" lon="24.35433"></trkpt>
      <trkpt lat="50.180347" lon="24.35483"></trkpt>
      <trkpt lat="50.181358" lon="24.354898"></trkpt>
      <trkpt lat="50.183302" lon="24.354839"></trkpt>
      <trkpt lat="50.188935" lon="24.354092"></trkpt>
      <trkpt lat="50.190622" lon="24.353599"></trkpt>
      <trkpt lat="50.198613" lon="24.350827"></trkpt>
  </trkseg></trk>
</gpx>
