<?xml version="1.0" encoding="UTF-8"?>
<gpx version="1.1" creator="yatutbuv" xmlns="http://www.topografix.com/GPX/1/1">
  <trk><name>2024_Duisburg -&gt; Eindhoven (110.7km)</name><trkseg>
      <trkpt lat="51.220132" lon="6.794159"></trkpt>
      <trkpt lat="51.217902" lon="6.791465"></trkpt>
      <trkpt lat="51.216499" lon="6.790388"></trkpt>
      <trkpt lat="51.215435" lon="6.789992"></trkpt>
      <trkpt lat="51.213393" lon="6.789829"></trkpt>
      <trkpt lat="51.212922" lon="6.789603"></trkpt>
      <trkpt lat="51.212383" lon="6.789164"></trkpt>
      <trkpt lat="51.211569" lon="6.788153"></trkpt>
      <trkpt lat="51.210141" lon="6.785971"></trkpt>
      <trkpt lat="51.209691" lon="6.784994"></trkpt>
      <trkpt lat="51.209414" lon="6.783967"></trkpt>
      <trkpt lat="51.207791" lon="6.773875"></trkpt>
      <trkpt lat="51.207646" lon="6.770367"></trkpt>
      <trkpt lat="51.20795" lon="6.768814"></trkpt>
      <trkpt lat="51.209392" lon="6.764913"></trkpt>
      <trkpt lat="51.209668" lon="6.763851"></trkpt>
      <trkpt lat="51.212147" lon="6.750371"></trkpt>
      <trkpt lat="51.212285" lon="6.748218"></trkpt>
      <trkpt lat="51.212036" lon="6.746145"></trkpt>
      <trkpt lat="51.210498" lon="6.738636"></trkpt>
      <trkpt lat="51.209388" lon="6.734421"></trkpt>
      <trkpt lat="51.206745" lon="6.721666"></trkpt>
      <trkpt lat="51.20635" lon="6.71955"></trkpt>
      <trkpt lat="51.206261" lon="6.718197"></trkpt>
      <trkpt lat="51.206354" lon="6.716615"></trkpt>
      <trkpt lat="51.206617" lon="6.715331"></trkpt>
      <trkpt lat="51.207063" lon="6.714118"></trkpt>
      <trkpt lat="51.20761" lon="6.713197"></trkpt>
      <trkpt lat="51.219102" lon="6.70011"></trkpt>
      <trkpt lat="51.21975" lon="6.699254"></trkpt>
      <trkpt lat="51.220429" lon="6.697753"></trkpt>
      <trkpt lat="51.220725" lon="6.696482"></trkpt>
      <trkpt lat="51.220829" lon="6.695134"></trkpt>
      <trkpt lat="51.2207" lon="6.693534"></trkpt>
      <trkpt lat="51.219811" lon="6.690124"></trkpt>
      <trkpt lat="51.219195" lon="6.688326"></trkpt>
      <trkpt lat="51.218458" lon="6.686895"></trkpt>
      <trkpt lat="51.217919" lon="6.686282"></trkpt>
      <trkpt lat="51.217475" lon="6.685959"></trkpt>
      <trkpt lat="51.216653" lon="6.685668"></trkpt>
      <trkpt lat="51.216151" lon="6.685647"></trkpt>
      <trkpt lat="51.214299" lon="6.685965"></trkpt>
      <trkpt lat="51.213169" lon="6.686552"></trkpt>
      <trkpt lat="51.209227" lon="6.686912"></trkpt>
      <trkpt lat="51.208269" lon="6.686655"></trkpt>
      <trkpt lat="51.206373" lon="6.685541"></trkpt>
      <trkpt lat="51.204407" lon="6.683532"></trkpt>
      <trkpt lat="51.202674" lon="6.680922"></trkpt>
      <trkpt lat="51.201386" lon="6.677921"></trkpt>
      <trkpt lat="51.1995" lon="6.669756"></trkpt>
      <trkpt lat="51.199136" lon="6.667586"></trkpt>
      <trkpt lat="51.198944" lon="6.665617"></trkpt>
      <trkpt lat="51.194812" lon="6.522315"></trkpt>
      <trkpt lat="51.19501" lon="6.518446"></trkpt>
      <trkpt lat="51.198312" lon="6.485138"></trkpt>
      <trkpt lat="51.200613" lon="6.464262"></trkpt>
      <trkpt lat="51.200632" lon="6.456363"></trkpt>
      <trkpt lat="51.20051" lon="6.454808"></trkpt>
      <trkpt lat="51.200063" lon="6.452918"></trkpt>
      <trkpt lat="51.198678" lon="6.449272"></trkpt>
      <trkpt lat="51.200051" lon="6.45183"></trkpt>
      <trkpt lat="51.200722" lon="6.452816"></trkpt>
      <trkpt lat="51.20184" lon="6.453998"></trkpt>
      <trkpt lat="51.202765" lon="6.45467"></trkpt>
      <trkpt lat="51.204403" lon="6.45538"></trkpt>
      <trkpt lat="51.206031" lon="6.455613"></trkpt>
      <trkpt lat="51.207463" lon="6.455522"></trkpt>
      <trkpt lat="51.208875" lon="6.455176"></trkpt>
      <trkpt lat="51.21194" lon="6.453829"></trkpt>
      <trkpt lat="51.212702" lon="6.453269"></trkpt>
      <trkpt lat="51.213255" lon="6.452674"></trkpt>
      <trkpt lat="51.215005" lon="6.450493"></trkpt>
      <trkpt lat="51.215975" lon="6.449071"></trkpt>
      <trkpt lat="51.220073" lon="6.441644"></trkpt>
      <trkpt lat="51.220946" lon="6.440242"></trkpt>
      <trkpt lat="51.222395" lon="6.438578"></trkpt>
      <trkpt lat="51.223896" lon="6.437474"></trkpt>
      <trkpt lat="51.225224" lon="6.436902"></trkpt>
      <trkpt lat="51.226852" lon="6.436647"></trkpt>
      <trkpt lat="51.242392" lon="6.437113"></trkpt>
      <trkpt lat="51.243583" lon="6.436778"></trkpt>
      <trkpt lat="51.244681" lon="6.436108"></trkpt>
      <trkpt lat="51.245785" lon="6.434986"></trkpt>
      <trkpt lat="51.24667" lon="6.43362"></trkpt>
      <trkpt lat="51.247264" lon="6.432267"></trkpt>
      <trkpt lat="51.247808" lon="6.430598"></trkpt>
      <trkpt lat="51.250454" lon="6.418993"></trkpt>
      <trkpt lat="51.252511" lon="6.412347"></trkpt>
      <trkpt lat="51.25301" lon="6.410317"></trkpt>
      <trkpt lat="51.255109" lon="6.403931"></trkpt>
      <trkpt lat="51.256685" lon="6.398351"></trkpt>
      <trkpt lat="51.257254" lon="6.397304"></trkpt>
      <trkpt lat="51.257892" lon="6.396585"></trkpt>
      <trkpt lat="51.258529" lon="6.396125"></trkpt>
      <trkpt lat="51.260738" lon="6.395182"></trkpt>
      <trkpt lat="51.261368" lon="6.394594"></trkpt>
      <trkpt lat="51.261959" lon="6.393833"></trkpt>
      <trkpt lat="51.262755" lon="6.392521"></trkpt>
      <trkpt lat="51.263304" lon="6.391287"></trkpt>
      <trkpt lat="51.263778" lon="6.389779"></trkpt>
      <trkpt lat="51.26412" lon="6.388206"></trkpt>
      <trkpt lat="51.26432" lon="6.386178"></trkpt>
      <trkpt lat="51.264275" lon="6.384257"></trkpt>
      <trkpt lat="51.264013" lon="6.38229"></trkpt>
      <trkpt lat="51.2637" lon="6.380999"></trkpt>
      <trkpt lat="51.26319" lon="6.379529"></trkpt>
      <trkpt lat="51.262582" lon="6.378302"></trkpt>
      <trkpt lat="51.259946" lon="6.374089"></trkpt>
      <trkpt lat="51.258875" lon="6.372109"></trkpt>
      <trkpt lat="51.257877" lon="6.369653"></trkpt>
      <trkpt lat="51.257047" lon="6.366497"></trkpt>
      <trkpt lat="51.256666" lon="6.364031"></trkpt>
      <trkpt lat="51.256215" lon="6.357527"></trkpt>
      <trkpt lat="51.255424" lon="6.349892"></trkpt>
      <trkpt lat="51.255332" lon="6.347791"></trkpt>
      <trkpt lat="51.255458" lon="6.345226"></trkpt>
      <trkpt lat="51.255994" lon="6.342016"></trkpt>
      <trkpt lat="51.271383" lon="6.284181"></trkpt>
      <trkpt lat="51.273295" lon="6.27726"></trkpt>
      <trkpt lat="51.275228" lon="6.272802"></trkpt>
      <trkpt lat="51.276629" lon="6.270519"></trkpt>
      <trkpt lat="51.280682" lon="6.264784"></trkpt>
      <trkpt lat="51.282029" lon="6.262679"></trkpt>
      <trkpt lat="51.292474" lon="6.244692"></trkpt>
      <trkpt lat="51.302479" lon="6.227816"></trkpt>
      <trkpt lat="51.309239" lon="6.21652"></trkpt>
      <trkpt lat="51.310862" lon="6.214257"></trkpt>
      <trkpt lat="51.311925" lon="6.213138"></trkpt>
      <trkpt lat="51.313344" lon="6.211984"></trkpt>
      <trkpt lat="51.322171" lon="6.205921"></trkpt>
      <trkpt lat="51.324628" lon="6.204603"></trkpt>
      <trkpt lat="51.32693" lon="6.202693"></trkpt>
      <trkpt lat="51.339027" lon="6.194399"></trkpt>
      <trkpt lat="51.340238" lon="6.19343"></trkpt>
      <trkpt lat="51.341156" lon="6.192389"></trkpt>
      <trkpt lat="51.34215" lon="6.190891"></trkpt>
      <trkpt lat="51.348043" lon="6.179366"></trkpt>
      <trkpt lat="51.348946" lon="6.178059"></trkpt>
      <trkpt lat="51.349896" lon="6.177128"></trkpt>
      <trkpt lat="51.351218" lon="6.176353"></trkpt>
      <trkpt lat="51.352683" lon="6.176037"></trkpt>
      <trkpt lat="51.353874" lon="6.176185"></trkpt>
      <trkpt lat="51.356033" lon="6.177057"></trkpt>
      <trkpt lat="51.356799" lon="6.177217"></trkpt>
      <trkpt lat="51.359112" lon="6.177006"></trkpt>
      <trkpt lat="51.360077" lon="6.176758"></trkpt>
      <trkpt lat="51.360802" lon="6.176291"></trkpt>
      <trkpt lat="51.361354" lon="6.175729"></trkpt>
      <trkpt lat="51.364938" lon="6.171065"></trkpt>
      <trkpt lat="51.366031" lon="6.168986"></trkpt>
      <trkpt lat="51.371246" lon="6.157074"></trkpt>
      <trkpt lat="51.37475" lon="6.151542"></trkpt>
      <trkpt lat="51.375522" lon="6.150074"></trkpt>
      <trkpt lat="51.383039" lon="6.131644"></trkpt>
      <trkpt lat="51.402796" lon="6.091235"></trkpt>
      <trkpt lat="51.409757" lon="6.076667"></trkpt>
      <trkpt lat="51.428317" lon="6.038435"></trkpt>
      <trkpt lat="51.429483" lon="6.035222"></trkpt>
      <trkpt lat="51.430228" lon="6.031926"></trkpt>
      <trkpt lat="51.436376" lon="5.972533"></trkpt>
      <trkpt lat="51.453494" lon="5.803482"></trkpt>
      <trkpt lat="51.469095" lon="5.711212"></trkpt>
      <trkpt lat="51.470373" lon="5.702674"></trkpt>
      <trkpt lat="51.474558" lon="5.678832"></trkpt>
      <trkpt lat="51.475704" lon="5.671779"></trkpt>
      <trkpt lat="51.476029" lon="5.668186"></trkpt>
      <trkpt lat="51.475994" lon="5.665966"></trkpt>
      <trkpt lat="51.475807" lon="5.664038"></trkpt>
      <trkpt lat="51.475411" lon="5.661724"></trkpt>
      <trkpt lat="51.474497" lon="5.657671"></trkpt>
      <trkpt lat="51.454573" lon="5.577128"></trkpt>
      <trkpt lat="51.453982" lon="5.574304"></trkpt>
      <trkpt lat="51.445202" lon="5.506363"></trkpt>
      <trkpt lat="51.445052" lon="5.504201"></trkpt>
      <trkpt lat="51.445168" lon="5.498353"></trkpt>
      <trkpt lat="51.445061" lon="5.496316"></trkpt>
      <trkpt lat="51.444183" lon="5.489606"></trkpt>
      <trkpt lat="51.443909" lon="5.486737"></trkpt>
      <trkpt lat="51.442914" lon="5.479556"></trkpt>
  </trkseg></trk>
</gpx>
