<?xml version="1.0" encoding="UTF-8"?>
<gpx version="1.1" creator="yatutbuv" xmlns="http://www.topografix.com/GPX/1/1">
  <trk><name>2025_Paris -&gt; Avon (59km)</name><trkseg>
      <trkpt lat="48.844636" lon="2.373914"></trkpt>
      <trkpt lat="48.842701" lon="2.377425"></trkpt>
      <trkpt lat="48.842192" lon="2.37868"></trkpt>
      <trkpt lat="48.839673" lon="2.383725"></trkpt>
      <trkpt lat="48.83835" lon="2.386871"></trkpt>
      <trkpt lat="48.837584" lon="2.388211"></trkpt>
      <trkpt lat="48.834355" lon="2.392246"></trkpt>
      <trkpt lat="48.831273" lon="2.395447"></trkpt>
      <trkpt lat="48.829225" lon="2.39716"></trkpt>
      <trkpt lat="48.82827" lon="2.398178"></trkpt>
      <trkpt lat="48.827681" lon="2.399265"></trkpt>
      <trkpt lat="48.825774" lon="2.402056"></trkpt>
      <trkpt lat="48.825019" lon="2.403357"></trkpt>
      <trkpt lat="48.82312" lon="2.408128"></trkpt>
      <trkpt lat="48.821145" lon="2.411431"></trkpt>
      <trkpt lat="48.819726" lon="2.4131"></trkpt>
      <trkpt lat="48.818715" lon="2.414083"></trkpt>
      <trkpt lat="48.814896" lon="2.416845"></trkpt>
      <trkpt lat="48.813808" lon="2.417764"></trkpt>
      <trkpt lat="48.812156" lon="2.419513"></trkpt>
      <trkpt lat="48.809884" lon="2.422479"></trkpt>
      <trkpt lat="48.80895" lon="2.423335"></trkpt>
      <trkpt lat="48.808001" lon="2.423939"></trkpt>
      <trkpt lat="48.804564" lon="2.425403"></trkpt>
      <trkpt lat="48.801333" lon="2.426625"></trkpt>
      <trkpt lat="48.800662" lon="2.427017"></trkpt>
      <trkpt lat="48.798134" lon="2.428967"></trkpt>
      <trkpt lat="48.797069" lon="2.429544"></trkpt>
      <trkpt lat="48.796016" lon="2.429819"></trkpt>
      <trkpt lat="48.793766" lon="2.430023"></trkpt>
      <trkpt lat="48.792744" lon="2.430295"></trkpt>
      <trkpt lat="48.784081" lon="2.433758"></trkpt>
      <trkpt lat="48.779888" lon="2.434982"></trkpt>
      <trkpt lat="48.777126" lon="2.436129"></trkpt>
      <trkpt lat="48.775907" lon="2.436401"></trkpt>
      <trkpt lat="48.77366" lon="2.436455"></trkpt>
      <trkpt lat="48.771644" lon="2.436669"></trkpt>
      <trkpt lat="48.763323" lon="2.438728"></trkpt>
      <trkpt lat="48.761675" lon="2.439358"></trkpt>
      <trkpt lat="48.754881" lon="2.44109"></trkpt>
      <trkpt lat="48.752664" lon="2.442102"></trkpt>
      <trkpt lat="48.751278" lon="2.442527"></trkpt>
      <trkpt lat="48.749564" lon="2.442749"></trkpt>
      <trkpt lat="48.74139" lon="2.444768"></trkpt>
      <trkpt lat="48.74082" lon="2.445014"></trkpt>
      <trkpt lat="48.739686" lon="2.445078"></trkpt>
      <trkpt lat="48.737091" lon="2.445822"></trkpt>
      <trkpt lat="48.735163" lon="2.446123"></trkpt>
      <trkpt lat="48.73177" lon="2.446409"></trkpt>
      <trkpt lat="48.730591" lon="2.446378"></trkpt>
      <trkpt lat="48.729054" lon="2.445956"></trkpt>
      <trkpt lat="48.726644" lon="2.444574"></trkpt>
      <trkpt lat="48.724881" lon="2.443722"></trkpt>
      <trkpt lat="48.724062" lon="2.443428"></trkpt>
      <trkpt lat="48.722991" lon="2.443264"></trkpt>
      <trkpt lat="48.721876" lon="2.443375"></trkpt>
      <trkpt lat="48.720653" lon="2.443749"></trkpt>
      <trkpt lat="48.719603" lon="2.444267"></trkpt>
      <trkpt lat="48.718546" lon="2.445021"></trkpt>
      <trkpt lat="48.717346" lon="2.446059"></trkpt>
      <trkpt lat="48.716271" lon="2.447175"></trkpt>
      <trkpt lat="48.715159" lon="2.448613"></trkpt>
      <trkpt lat="48.714245" lon="2.450067"></trkpt>
      <trkpt lat="48.713527" lon="2.451458"></trkpt>
      <trkpt lat="48.711618" lon="2.456068"></trkpt>
      <trkpt lat="48.709871" lon="2.459036"></trkpt>
      <trkpt lat="48.709192" lon="2.4604"></trkpt>
      <trkpt lat="48.708006" lon="2.463247"></trkpt>
      <trkpt lat="48.707446" lon="2.464919"></trkpt>
      <trkpt lat="48.706131" lon="2.47055"></trkpt>
      <trkpt lat="48.705833" lon="2.472746"></trkpt>
      <trkpt lat="48.70569" lon="2.47535"></trkpt>
      <trkpt lat="48.705867" lon="2.478996"></trkpt>
      <trkpt lat="48.706874" lon="2.485454"></trkpt>
      <trkpt lat="48.706979" lon="2.487812"></trkpt>
      <trkpt lat="48.706852" lon="2.490819"></trkpt>
      <trkpt lat="48.706599" lon="2.492602"></trkpt>
      <trkpt lat="48.705986" lon="2.495477"></trkpt>
      <trkpt lat="48.705238" lon="2.497906"></trkpt>
      <trkpt lat="48.704383" lon="2.500039"></trkpt>
      <trkpt lat="48.702966" lon="2.502608"></trkpt>
      <trkpt lat="48.701501" lon="2.504609"></trkpt>
      <trkpt lat="48.693083" lon="2.512524"></trkpt>
      <trkpt lat="48.688123" lon="2.51804"></trkpt>
      <trkpt lat="48.686992" lon="2.519503"></trkpt>
      <trkpt lat="48.686004" lon="2.521105"></trkpt>
      <trkpt lat="48.685123" lon="2.522839"></trkpt>
      <trkpt lat="48.681091" lon="2.533012"></trkpt>
      <trkpt lat="48.680088" lon="2.535165"></trkpt>
      <trkpt lat="48.67923" lon="2.536714"></trkpt>
      <trkpt lat="48.677851" lon="2.53879"></trkpt>
      <trkpt lat="48.675586" lon="2.541397"></trkpt>
      <trkpt lat="48.674251" lon="2.542566"></trkpt>
      <trkpt lat="48.670645" lon="2.545381"></trkpt>
      <trkpt lat="48.667864" lon="2.547827"></trkpt>
      <trkpt lat="48.665115" lon="2.549741"></trkpt>
      <trkpt lat="48.656462" lon="2.556601"></trkpt>
      <trkpt lat="48.65429" lon="2.557889"></trkpt>
      <trkpt lat="48.636063" lon="2.566104"></trkpt>
      <trkpt lat="48.630007" lon="2.569088"></trkpt>
      <trkpt lat="48.625625" lon="2.570751"></trkpt>
      <trkpt lat="48.590728" lon="2.586288"></trkpt>
      <trkpt lat="48.589409" lon="2.586792"></trkpt>
      <trkpt lat="48.571765" lon="2.592198"></trkpt>
      <trkpt lat="48.566857" lon="2.593889"></trkpt>
      <trkpt lat="48.563908" lon="2.595308"></trkpt>
      <trkpt lat="48.561865" lon="2.596665"></trkpt>
      <trkpt lat="48.560204" lon="2.598289"></trkpt>
      <trkpt lat="48.547579" lon="2.612556"></trkpt>
      <trkpt lat="48.536716" lon="2.629008"></trkpt>
      <trkpt lat="48.535464" lon="2.631524"></trkpt>
      <trkpt lat="48.533529" lon="2.636319"></trkpt>
      <trkpt lat="48.530902" lon="2.641856"></trkpt>
      <trkpt lat="48.530177" lon="2.64366"></trkpt>
      <trkpt lat="48.52864" lon="2.649136"></trkpt>
      <trkpt lat="48.527359" lon="2.65514"></trkpt>
      <trkpt lat="48.526828" lon="2.656837"></trkpt>
      <trkpt lat="48.525344" lon="2.659848"></trkpt>
      <trkpt lat="48.524089" lon="2.66159"></trkpt>
      <trkpt lat="48.522605" lon="2.663047"></trkpt>
      <trkpt lat="48.520713" lon="2.664506"></trkpt>
      <trkpt lat="48.519304" lon="2.66541"></trkpt>
      <trkpt lat="48.517885" lon="2.66599"></trkpt>
      <trkpt lat="48.516383" lon="2.666326"></trkpt>
      <trkpt lat="48.506974" lon="2.66786"></trkpt>
      <trkpt lat="48.498325" lon="2.668023"></trkpt>
      <trkpt lat="48.497115" lon="2.668107"></trkpt>
      <trkpt lat="48.495603" lon="2.668388"></trkpt>
      <trkpt lat="48.493816" lon="2.668973"></trkpt>
      <trkpt lat="48.492269" lon="2.669721"></trkpt>
      <trkpt lat="48.489614" lon="2.671413"></trkpt>
      <trkpt lat="48.487526" lon="2.673023"></trkpt>
      <trkpt lat="48.485862" lon="2.674687"></trkpt>
      <trkpt lat="48.484387" lon="2.676678"></trkpt>
      <trkpt lat="48.475594" lon="2.691854"></trkpt>
      <trkpt lat="48.466017" lon="2.706784"></trkpt>
      <trkpt lat="48.445302" lon="2.732517"></trkpt>
      <trkpt lat="48.443434" lon="2.734429"></trkpt>
      <trkpt lat="48.441659" lon="2.735815"></trkpt>
      <trkpt lat="48.440043" lon="2.736766"></trkpt>
      <trkpt lat="48.438878" lon="2.737284"></trkpt>
      <trkpt lat="48.437354" lon="2.737809"></trkpt>
      <trkpt lat="48.43595" lon="2.738116"></trkpt>
      <trkpt lat="48.434259" lon="2.738244"></trkpt>
      <trkpt lat="48.432693" lon="2.738149"></trkpt>
      <trkpt lat="48.430997" lon="2.737807"></trkpt>
      <trkpt lat="48.429894" lon="2.737456"></trkpt>
      <trkpt lat="48.428252" lon="2.736715"></trkpt>
      <trkpt lat="48.426173" lon="2.73539"></trkpt>
      <trkpt lat="48.424235" lon="2.733682"></trkpt>
      <trkpt lat="48.420427" lon="2.729497"></trkpt>
      <trkpt lat="48.419221" lon="2.728327"></trkpt>
      <trkpt lat="48.417901" lon="2.727373"></trkpt>
      <trkpt lat="48.416302" lon="2.726649"></trkpt>
  </trkseg></trk>
</gpx>
