<?xml version="1.0" encoding="UTF-8"?>
<gpx version="1.1" creator="yatutbuv" xmlns="http://www.topografix.com/GPX/1/1">
  <trk><name>2010_Dresden -&gt; Erfurt (242km)</name><trkseg>
      <trkpt lat="51.040293" lon="13.731913"></trkpt>
      <trkpt lat="51.04189" lon="13.727002"></trkpt>
      <trkpt lat="51.042699" lon="13.725077"></trkpt>
      <trkpt lat="51.043598" lon="13.723281"></trkpt>
      <trkpt lat="51.044722" lon="13.721716"></trkpt>
      <trkpt lat="51.045926" lon="13.720556"></trkpt>
      <trkpt lat="51.046666" lon="13.720046"></trkpt>
      <trkpt lat="51.04847" lon="13.719399"></trkpt>
      <trkpt lat="51.050439" lon="13.719401"></trkpt>
      <trkpt lat="51.05122" lon="13.719275"></trkpt>
      <trkpt lat="51.051996" lon="13.7188"></trkpt>
      <trkpt lat="51.052577" lon="13.71803"></trkpt>
      <trkpt lat="51.053449" lon="13.715889"></trkpt>
      <trkpt lat="51.053642" lon="13.714381"></trkpt>
      <trkpt lat="51.055369" lon="13.705734"></trkpt>
      <trkpt lat="51.057155" lon="13.699768"></trkpt>
      <trkpt lat="51.059211" lon="13.689302"></trkpt>
      <trkpt lat="51.059998" lon="13.686741"></trkpt>
      <trkpt lat="51.060649" lon="13.685419"></trkpt>
      <trkpt lat="51.06294" lon="13.682173"></trkpt>
      <trkpt lat="51.064708" lon="13.678562"></trkpt>
      <trkpt lat="51.065855" lon="13.676776"></trkpt>
      <trkpt lat="51.067106" lon="13.675254"></trkpt>
      <trkpt lat="51.071773" lon="13.670814"></trkpt>
      <trkpt lat="51.072714" lon="13.669551"></trkpt>
      <trkpt lat="51.074147" lon="13.666708"></trkpt>
      <trkpt lat="51.079989" lon="13.653158"></trkpt>
      <trkpt lat="51.081059" lon="13.650356"></trkpt>
      <trkpt lat="51.082007" lon="13.647021"></trkpt>
      <trkpt lat="51.088755" lon="13.613981"></trkpt>
      <trkpt lat="51.089518" lon="13.611769"></trkpt>
      <trkpt lat="51.09017" lon="13.610403"></trkpt>
      <trkpt lat="51.091086" lon="13.60893"></trkpt>
      <trkpt lat="51.092066" lon="13.607761"></trkpt>
      <trkpt lat="51.093004" lon="13.606936"></trkpt>
      <trkpt lat="51.094508" lon="13.606025"></trkpt>
      <trkpt lat="51.111383" lon="13.598602"></trkpt>
      <trkpt lat="51.116173" lon="13.595179"></trkpt>
      <trkpt lat="51.117213" lon="13.593987"></trkpt>
      <trkpt lat="51.118242" lon="13.592122"></trkpt>
      <trkpt lat="51.119987" lon="13.587715"></trkpt>
      <trkpt lat="51.122206" lon="13.580522"></trkpt>
      <trkpt lat="51.123146" lon="13.578335"></trkpt>
      <trkpt lat="51.124624" lon="13.576165"></trkpt>
      <trkpt lat="51.125828" lon="13.574805"></trkpt>
      <trkpt lat="51.126982" lon="13.573781"></trkpt>
      <trkpt lat="51.12842" lon="13.572905"></trkpt>
      <trkpt lat="51.164338" lon="13.559597"></trkpt>
      <trkpt lat="51.165986" lon="13.559102"></trkpt>
      <trkpt lat="51.167426" lon="13.558985"></trkpt>
      <trkpt lat="51.169762" lon="13.559266"></trkpt>
      <trkpt lat="51.176676" lon="13.560438"></trkpt>
      <trkpt lat="51.181703" lon="13.561436"></trkpt>
      <trkpt lat="51.18284" lon="13.561544"></trkpt>
      <trkpt lat="51.183972" lon="13.561471"></trkpt>
      <trkpt lat="51.185275" lon="13.561121"></trkpt>
      <trkpt lat="51.186489" lon="13.560538"></trkpt>
      <trkpt lat="51.187495" lon="13.559847"></trkpt>
      <trkpt lat="51.188768" lon="13.558642"></trkpt>
      <trkpt lat="51.190085" lon="13.556905"></trkpt>
      <trkpt lat="51.191286" lon="13.554647"></trkpt>
      <trkpt lat="51.192166" lon="13.552224"></trkpt>
      <trkpt lat="51.19283" lon="13.549221"></trkpt>
      <trkpt lat="51.194917" lon="13.534765"></trkpt>
      <trkpt lat="51.195527" lon="13.532042"></trkpt>
      <trkpt lat="51.196244" lon="13.529929"></trkpt>
      <trkpt lat="51.19736" lon="13.527629"></trkpt>
      <trkpt lat="51.198593" lon="13.52585"></trkpt>
      <trkpt lat="51.200148" lon="13.524275"></trkpt>
      <trkpt lat="51.201698" lon="13.523251"></trkpt>
      <trkpt lat="51.20323" lon="13.52267"></trkpt>
      <trkpt lat="51.204915" lon="13.522481"></trkpt>
      <trkpt lat="51.206367" lon="13.522667"></trkpt>
      <trkpt lat="51.207755" lon="13.523133"></trkpt>
      <trkpt lat="51.228718" lon="13.535359"></trkpt>
      <trkpt lat="51.22965" lon="13.535861"></trkpt>
      <trkpt lat="51.231024" lon="13.536329"></trkpt>
      <trkpt lat="51.232662" lon="13.536487"></trkpt>
      <trkpt lat="51.234033" lon="13.536295"></trkpt>
      <trkpt lat="51.235073" lon="13.535965"></trkpt>
      <trkpt lat="51.236192" lon="13.535404"></trkpt>
      <trkpt lat="51.237298" lon="13.534592"></trkpt>
      <trkpt lat="51.238246" lon="13.533684"></trkpt>
      <trkpt lat="51.239006" lon="13.532765"></trkpt>
      <trkpt lat="51.23979" lon="13.531585"></trkpt>
      <trkpt lat="51.240859" lon="13.529555"></trkpt>
      <trkpt lat="51.251775" lon="13.50654"></trkpt>
      <trkpt lat="51.253151" lon="13.503847"></trkpt>
      <trkpt lat="51.263108" lon="13.482447"></trkpt>
      <trkpt lat="51.289278" lon="13.417857"></trkpt>
      <trkpt lat="51.292619" lon="13.409961"></trkpt>
      <trkpt lat="51.295959" lon="13.4036"></trkpt>
      <trkpt lat="51.322341" lon="13.357101"></trkpt>
      <trkpt lat="51.323302" lon="13.355132"></trkpt>
      <trkpt lat="51.324196" lon="13.352966"></trkpt>
      <trkpt lat="51.324996" lon="13.350617"></trkpt>
      <trkpt lat="51.325827" lon="13.34752"></trkpt>
      <trkpt lat="51.326433" lon="13.344406"></trkpt>
      <trkpt lat="51.326817" lon="13.341537"></trkpt>
      <trkpt lat="51.326999" lon="13.339338"></trkpt>
      <trkpt lat="51.327084" lon="13.336164"></trkpt>
      <trkpt lat="51.326413" lon="13.328242"></trkpt>
      <trkpt lat="51.325564" lon="13.32397"></trkpt>
      <trkpt lat="51.324575" lon="13.32077"></trkpt>
      <trkpt lat="51.322662" lon="13.316062"></trkpt>
      <trkpt lat="51.315649" lon="13.301562"></trkpt>
      <trkpt lat="51.313396" lon="13.297711"></trkpt>
      <trkpt lat="51.310837" lon="13.292513"></trkpt>
      <trkpt lat="51.310345" lon="13.290804"></trkpt>
      <trkpt lat="51.309346" lon="13.284648"></trkpt>
      <trkpt lat="51.309246" lon="13.281606"></trkpt>
      <trkpt lat="51.309483" lon="13.278599"></trkpt>
      <trkpt lat="51.30986" lon="13.276622"></trkpt>
      <trkpt lat="51.311539" lon="13.270098"></trkpt>
      <trkpt lat="51.31258" lon="13.264116"></trkpt>
      <trkpt lat="51.312916" lon="13.258853"></trkpt>
      <trkpt lat="51.31279" lon="13.254279"></trkpt>
      <trkpt lat="51.312268" lon="13.249659"></trkpt>
      <trkpt lat="51.302689" lon="13.175813"></trkpt>
      <trkpt lat="51.302304" lon="13.171341"></trkpt>
      <trkpt lat="51.302058" lon="13.166372"></trkpt>
      <trkpt lat="51.302003" lon="13.161941"></trkpt>
      <trkpt lat="51.302099" lon="13.158129"></trkpt>
      <trkpt lat="51.302321" lon="13.154102"></trkpt>
      <trkpt lat="51.302894" lon="13.148263"></trkpt>
      <trkpt lat="51.303696" lon="13.142863"></trkpt>
      <trkpt lat="51.304432" lon="13.139018"></trkpt>
      <trkpt lat="51.305297" lon="13.135294"></trkpt>
      <trkpt lat="51.306833" lon="13.129728"></trkpt>
      <trkpt lat="51.309747" lon="13.120776"></trkpt>
      <trkpt lat="51.310791" lon="13.116148"></trkpt>
      <trkpt lat="51.311432" lon="13.111138"></trkpt>
      <trkpt lat="51.312123" lon="13.099896"></trkpt>
      <trkpt lat="51.312678" lon="13.096629"></trkpt>
      <trkpt lat="51.313469" lon="13.093401"></trkpt>
      <trkpt lat="51.314977" lon="13.088877"></trkpt>
      <trkpt lat="51.348933" lon="12.992953"></trkpt>
      <trkpt lat="51.349812" lon="12.99015"></trkpt>
      <trkpt lat="51.350445" lon="12.987447"></trkpt>
      <trkpt lat="51.350985" lon="12.984024"></trkpt>
      <trkpt lat="51.351323" lon="12.980489"></trkpt>
      <trkpt lat="51.353964" lon="12.947842"></trkpt>
      <trkpt lat="51.354153" lon="12.944341"></trkpt>
      <trkpt lat="51.354177" lon="12.940997"></trkpt>
      <trkpt lat="51.34922" lon="12.828782"></trkpt>
      <trkpt lat="51.349291" lon="12.824013"></trkpt>
      <trkpt lat="51.349993" lon="12.816731"></trkpt>
      <trkpt lat="51.35306" lon="12.791186"></trkpt>
      <trkpt lat="51.35318" lon="12.788233"></trkpt>
      <trkpt lat="51.352908" lon="12.781918"></trkpt>
      <trkpt lat="51.353179" lon="12.778166"></trkpt>
      <trkpt lat="51.35349" lon="12.776542"></trkpt>
      <trkpt lat="51.354197" lon="12.774077"></trkpt>
      <trkpt lat="51.362559" lon="12.749426"></trkpt>
      <trkpt lat="51.363813" lon="12.744731"></trkpt>
      <trkpt lat="51.364078" lon="12.74299"></trkpt>
      <trkpt lat="51.364249" lon="12.739579"></trkpt>
      <trkpt lat="51.363991" lon="12.734965"></trkpt>
      <trkpt lat="51.363099" lon="12.73121"></trkpt>
      <trkpt lat="51.362346" lon="12.729277"></trkpt>
      <trkpt lat="51.35892" lon="12.722113"></trkpt>
      <trkpt lat="51.357794" lon="12.71881"></trkpt>
      <trkpt lat="51.357172" lon="12.715901"></trkpt>
      <trkpt lat="51.355557" lon="12.706098"></trkpt>
      <trkpt lat="51.355159" lon="12.703318"></trkpt>
      <trkpt lat="51.355008" lon="12.701431"></trkpt>
      <trkpt lat="51.355008" lon="12.697703"></trkpt>
      <trkpt lat="51.355891" lon="12.682278"></trkpt>
      <trkpt lat="51.357397" lon="12.650392"></trkpt>
      <trkpt lat="51.35765" lon="12.633072"></trkpt>
      <trkpt lat="51.357444" lon="12.605627"></trkpt>
      <trkpt lat="51.357276" lon="12.601926"></trkpt>
      <trkpt lat="51.356853" lon="12.598647"></trkpt>
      <trkpt lat="51.356363" lon="12.59625"></trkpt>
      <trkpt lat="51.352261" lon="12.581827"></trkpt>
      <trkpt lat="51.351256" lon="12.577305"></trkpt>
      <trkpt lat="51.344343" lon="12.531972"></trkpt>
      <trkpt lat="51.343497" lon="12.525031"></trkpt>
      <trkpt lat="51.343426" lon="12.521147"></trkpt>
      <trkpt lat="51.344532" lon="12.430459"></trkpt>
      <trkpt lat="51.344767" lon="12.427203"></trkpt>
      <trkpt lat="51.345281" lon="12.424328"></trkpt>
      <trkpt lat="51.34581" lon="12.422371"></trkpt>
      <trkpt lat="51.348134" lon="12.415253"></trkpt>
      <trkpt lat="51.34914" lon="12.411617"></trkpt>
      <trkpt lat="51.349712" lon="12.408955"></trkpt>
      <trkpt lat="51.350054" lon="12.406211"></trkpt>
      <trkpt lat="51.350652" lon="12.394598"></trkpt>
      <trkpt lat="51.351144" lon="12.390658"></trkpt>
      <trkpt lat="51.351205" lon="12.389356"></trkpt>
      <trkpt lat="51.351015" lon="12.388305"></trkpt>
      <trkpt lat="51.350629" lon="12.387483"></trkpt>
      <trkpt lat="51.349255" lon="12.385671"></trkpt>
      <trkpt lat="51.348411" lon="12.384752"></trkpt>
      <trkpt lat="51.348905" lon="12.385203"></trkpt>
      <trkpt lat="51.351019" lon="12.386616"></trkpt>
      <trkpt lat="51.351663" lon="12.386856"></trkpt>
      <trkpt lat="51.352194" lon="12.386842"></trkpt>
      <trkpt lat="51.352762" lon="12.386609"></trkpt>
      <trkpt lat="51.354548" lon="12.385241"></trkpt>
      <trkpt lat="51.357575" lon="12.383617"></trkpt>
      <trkpt lat="51.358879" lon="12.382528"></trkpt>
      <trkpt lat="51.359824" lon="12.38141"></trkpt>
      <trkpt lat="51.360633" lon="12.380105"></trkpt>
      <trkpt lat="51.361696" lon="12.377856"></trkpt>
      <trkpt lat="51.362984" lon="12.374034"></trkpt>
      <trkpt lat="51.363551" lon="12.372766"></trkpt>
      <trkpt lat="51.365492" lon="12.369727"></trkpt>
      <trkpt lat="51.366427" lon="12.368023"></trkpt>
      <trkpt lat="51.367043" lon="12.366049"></trkpt>
      <trkpt lat="51.367237" lon="12.363988"></trkpt>
      <trkpt lat="51.366959" lon="12.361352"></trkpt>
      <trkpt lat="51.365903" lon="12.356741"></trkpt>
      <trkpt lat="51.364724" lon="12.353073"></trkpt>
      <trkpt lat="51.362674" lon="12.348277"></trkpt>
      <trkpt lat="51.361982" lon="12.345816"></trkpt>
      <trkpt lat="51.361695" lon="12.344117"></trkpt>
      <trkpt lat="51.360495" lon="12.332408"></trkpt>
      <trkpt lat="51.355387" lon="12.308335"></trkpt>
      <trkpt lat="51.354848" lon="12.306404"></trkpt>
      <trkpt lat="51.353739" lon="12.303569"></trkpt>
      <trkpt lat="51.35229" lon="12.300517"></trkpt>
      <trkpt lat="51.349786" lon="12.295932"></trkpt>
      <trkpt lat="51.310219" lon="12.229974"></trkpt>
      <trkpt lat="51.306353" lon="12.223087"></trkpt>
      <trkpt lat="51.305893" lon="12.222011"></trkpt>
      <trkpt lat="51.305426" lon="12.220328"></trkpt>
      <trkpt lat="51.305127" lon="12.217871"></trkpt>
      <trkpt lat="51.305012" lon="12.213195"></trkpt>
      <trkpt lat="51.304337" lon="12.102563"></trkpt>
      <trkpt lat="51.304648" lon="12.098081"></trkpt>
      <trkpt lat="51.306306" lon="12.084141"></trkpt>
      <trkpt lat="51.306468" lon="12.080716"></trkpt>
      <trkpt lat="51.306156" lon="12.076831"></trkpt>
      <trkpt lat="51.304206" lon="12.065738"></trkpt>
      <trkpt lat="51.303604" lon="12.062527"></trkpt>
      <trkpt lat="51.302621" lon="12.059395"></trkpt>
      <trkpt lat="51.301828" lon="12.057842"></trkpt>
      <trkpt lat="51.301103" lon="12.05686"></trkpt>
      <trkpt lat="51.300108" lon="12.055988"></trkpt>
      <trkpt lat="51.296762" lon="12.053738"></trkpt>
      <trkpt lat="51.295821" lon="12.052749"></trkpt>
      <trkpt lat="51.295246" lon="12.051931"></trkpt>
      <trkpt lat="51.292243" lon="12.046073"></trkpt>
      <trkpt lat="51.281273" lon="12.023621"></trkpt>
      <trkpt lat="51.280189" lon="12.021838"></trkpt>
      <trkpt lat="51.278822" lon="12.020418"></trkpt>
      <trkpt lat="51.278122" lon="12.019892"></trkpt>
      <trkpt lat="51.277196" lon="12.019429"></trkpt>
      <trkpt lat="51.275946" lon="12.019152"></trkpt>
      <trkpt lat="51.275522" lon="12.019168"></trkpt>
      <trkpt lat="51.274541" lon="12.019342"></trkpt>
      <trkpt lat="51.272215" lon="12.020268"></trkpt>
      <trkpt lat="51.270396" lon="12.020521"></trkpt>
      <trkpt lat="51.264776" lon="12.022004"></trkpt>
      <trkpt lat="51.262471" lon="12.022294"></trkpt>
      <trkpt lat="51.26058" lon="12.022014"></trkpt>
      <trkpt lat="51.259139" lon="12.021503"></trkpt>
      <trkpt lat="51.257517" lon="12.020476"></trkpt>
      <trkpt lat="51.249027" lon="12.013925"></trkpt>
      <trkpt lat="51.246997" lon="12.012672"></trkpt>
      <trkpt lat="51.245689" lon="12.012137"></trkpt>
      <trkpt lat="51.244408" lon="12.011808"></trkpt>
      <trkpt lat="51.240602" lon="12.011354"></trkpt>
      <trkpt lat="51.239159" lon="12.01102"></trkpt>
      <trkpt lat="51.236572" lon="12.009964"></trkpt>
      <trkpt lat="51.234893" lon="12.008937"></trkpt>
      <trkpt lat="51.232621" lon="12.007101"></trkpt>
      <trkpt lat="51.23111" lon="12.005521"></trkpt>
      <trkpt lat="51.229718" lon="12.00378"></trkpt>
      <trkpt lat="51.228063" lon="12.001256"></trkpt>
      <trkpt lat="51.227012" lon="11.999321"></trkpt>
      <trkpt lat="51.225936" lon="11.996941"></trkpt>
      <trkpt lat="51.225061" lon="11.994624"></trkpt>
      <trkpt lat="51.223449" lon="11.989579"></trkpt>
      <trkpt lat="51.222922" lon="11.988474"></trkpt>
      <trkpt lat="51.222329" lon="11.987573"></trkpt>
      <trkpt lat="51.219558" lon="11.984505"></trkpt>
      <trkpt lat="51.214225" lon="11.980799"></trkpt>
      <trkpt lat="51.213527" lon="11.980078"></trkpt>
      <trkpt lat="51.211436" lon="11.977482"></trkpt>
      <trkpt lat="51.210794" lon="11.976989"></trkpt>
      <trkpt lat="51.207649" lon="11.9752"></trkpt>
      <trkpt lat="51.206529" lon="11.97418"></trkpt>
      <trkpt lat="51.205715" lon="11.973029"></trkpt>
      <trkpt lat="51.205161" lon="11.971671"></trkpt>
      <trkpt lat="51.204114" lon="11.968235"></trkpt>
      <trkpt lat="51.203879" lon="11.966763"></trkpt>
      <trkpt lat="51.2037" lon="11.964481"></trkpt>
      <trkpt lat="51.203544" lon="11.959429"></trkpt>
      <trkpt lat="51.203706" lon="11.955742"></trkpt>
      <trkpt lat="51.203701" lon="11.951978"></trkpt>
      <trkpt lat="51.204437" lon="11.941265"></trkpt>
      <trkpt lat="51.204326" lon="11.938614"></trkpt>
      <trkpt lat="51.20378" lon="11.935515"></trkpt>
      <trkpt lat="51.203229" lon="11.933644"></trkpt>
      <trkpt lat="51.202228" lon="11.931397"></trkpt>
      <trkpt lat="51.201296" lon="11.929832"></trkpt>
      <trkpt lat="51.200201" lon="11.928374"></trkpt>
      <trkpt lat="51.198991" lon="11.927209"></trkpt>
      <trkpt lat="51.192291" lon="11.921568"></trkpt>
      <trkpt lat="51.191081" lon="11.920363"></trkpt>
      <trkpt lat="51.189264" lon="11.918074"></trkpt>
      <trkpt lat="51.188045" lon="11.916103"></trkpt>
      <trkpt lat="51.187099" lon="11.914253"></trkpt>
      <trkpt lat="51.186205" lon="11.912078"></trkpt>
      <trkpt lat="51.185453" lon="11.909823"></trkpt>
      <trkpt lat="51.184395" lon="11.90572"></trkpt>
      <trkpt lat="51.170135" lon="11.842694"></trkpt>
      <trkpt lat="51.169629" lon="11.839895"></trkpt>
      <trkpt lat="51.169042" lon="11.835505"></trkpt>
      <trkpt lat="51.166577" lon="11.810649"></trkpt>
      <trkpt lat="51.165786" lon="11.806062"></trkpt>
      <trkpt lat="51.16464" lon="11.80157"></trkpt>
      <trkpt lat="51.163987" lon="11.799628"></trkpt>
      <trkpt lat="51.153119" lon="11.771494"></trkpt>
      <trkpt lat="51.149673" lon="11.762898"></trkpt>
      <trkpt lat="51.148489" lon="11.759444"></trkpt>
      <trkpt lat="51.147933" lon="11.757185"></trkpt>
      <trkpt lat="51.147518" lon="11.75481"></trkpt>
      <trkpt lat="51.145442" lon="11.738109"></trkpt>
      <trkpt lat="51.143321" lon="11.728671"></trkpt>
      <trkpt lat="51.14247" lon="11.726058"></trkpt>
      <trkpt lat="51.141337" lon="11.723724"></trkpt>
      <trkpt lat="51.139994" lon="11.721792"></trkpt>
      <trkpt lat="51.138429" lon="11.720214"></trkpt>
      <trkpt lat="51.136758" lon="11.719112"></trkpt>
      <trkpt lat="51.134931" lon="11.718495"></trkpt>
      <trkpt lat="51.130695" lon="11.718193"></trkpt>
      <trkpt lat="51.129183" lon="11.717871"></trkpt>
      <trkpt lat="51.127851" lon="11.717164"></trkpt>
      <trkpt lat="51.124932" lon="11.714647"></trkpt>
      <trkpt lat="51.122767" lon="11.713645"></trkpt>
      <trkpt lat="51.122086" lon="11.71349"></trkpt>
      <trkpt lat="51.120951" lon="11.71342"></trkpt>
      <trkpt lat="51.118043" lon="11.713733"></trkpt>
      <trkpt lat="51.116804" lon="11.713476"></trkpt>
      <trkpt lat="51.115653" lon="11.712889"></trkpt>
      <trkpt lat="51.114758" lon="11.712162"></trkpt>
      <trkpt lat="51.114092" lon="11.711426"></trkpt>
      <trkpt lat="51.113307" lon="11.710288"></trkpt>
      <trkpt lat="51.112293" lon="11.708033"></trkpt>
      <trkpt lat="51.111937" lon="11.7068"></trkpt>
      <trkpt lat="51.111612" lon="11.705011"></trkpt>
      <trkpt lat="51.108931" lon="11.685754"></trkpt>
      <trkpt lat="51.108849" lon="11.677393"></trkpt>
      <trkpt lat="51.108609" lon="11.674397"></trkpt>
      <trkpt lat="51.104962" lon="11.64983"></trkpt>
      <trkpt lat="51.10449" lon="11.647643"></trkpt>
      <trkpt lat="51.103703" lon="11.645412"></trkpt>
      <trkpt lat="51.102792" lon="11.643689"></trkpt>
      <trkpt lat="51.099639" lon="11.63868"></trkpt>
      <trkpt lat="51.098811" lon="11.637612"></trkpt>
      <trkpt lat="51.097632" lon="11.636564"></trkpt>
      <trkpt lat="51.09481" lon="11.634832"></trkpt>
      <trkpt lat="51.090768" lon="11.63193"></trkpt>
      <trkpt lat="51.085216" lon="11.626386"></trkpt>
      <trkpt lat="51.084143" lon="11.62491"></trkpt>
      <trkpt lat="51.083532" lon="11.623852"></trkpt>
      <trkpt lat="51.080771" lon="11.617567"></trkpt>
      <trkpt lat="51.079845" lon="11.614654"></trkpt>
      <trkpt lat="51.079435" lon="11.612543"></trkpt>
      <trkpt lat="51.079253" lon="11.610946"></trkpt>
      <trkpt lat="51.078989" lon="11.605142"></trkpt>
      <trkpt lat="51.078772" lon="11.602726"></trkpt>
      <trkpt lat="51.078211" lon="11.599908"></trkpt>
      <trkpt lat="51.077225" lon="11.597035"></trkpt>
      <trkpt lat="51.075997" lon="11.5947"></trkpt>
      <trkpt lat="51.074601" lon="11.592875"></trkpt>
      <trkpt lat="51.073842" lon="11.592118"></trkpt>
      <trkpt lat="51.070609" lon="11.58948"></trkpt>
      <trkpt lat="51.069084" lon="11.587626"></trkpt>
      <trkpt lat="51.064836" lon="11.580296"></trkpt>
      <trkpt lat="51.059884" lon="11.571184"></trkpt>
      <trkpt lat="51.058974" lon="11.569286"></trkpt>
      <trkpt lat="51.058056" lon="11.566788"></trkpt>
      <trkpt lat="51.054186" lon="11.554169"></trkpt>
      <trkpt lat="51.053584" lon="11.552753"></trkpt>
      <trkpt lat="51.052883" lon="11.551506"></trkpt>
      <trkpt lat="51.051515" lon="11.549752"></trkpt>
      <trkpt lat="51.050574" lon="11.54891"></trkpt>
      <trkpt lat="51.049712" lon="11.548338"></trkpt>
      <trkpt lat="51.04855" lon="11.547841"></trkpt>
      <trkpt lat="51.045448" lon="11.547133"></trkpt>
      <trkpt lat="51.044032" lon="11.546429"></trkpt>
      <trkpt lat="51.0421" lon="11.544891"></trkpt>
      <trkpt lat="51.036493" lon="11.540043"></trkpt>
      <trkpt lat="51.035279" lon="11.538878"></trkpt>
      <trkpt lat="51.033988" lon="11.537203"></trkpt>
      <trkpt lat="51.032975" lon="11.535387"></trkpt>
      <trkpt lat="51.032217" lon="11.533262"></trkpt>
      <trkpt lat="51.03139" lon="11.529696"></trkpt>
      <trkpt lat="51.030745" lon="11.522759"></trkpt>
      <trkpt lat="51.030007" lon="11.51705"></trkpt>
      <trkpt lat="51.02961" lon="11.515291"></trkpt>
      <trkpt lat="51.027661" lon="11.508682"></trkpt>
      <trkpt lat="51.02719" lon="11.506493"></trkpt>
      <trkpt lat="51.026918" lon="11.503997"></trkpt>
      <trkpt lat="51.02685" lon="11.498463"></trkpt>
      <trkpt lat="51.026674" lon="11.49582"></trkpt>
      <trkpt lat="51.026374" lon="11.493978"></trkpt>
      <trkpt lat="51.024966" lon="11.487829"></trkpt>
      <trkpt lat="51.024433" lon="11.483064"></trkpt>
      <trkpt lat="51.024367" lon="11.480301"></trkpt>
      <trkpt lat="51.024714" lon="11.477179"></trkpt>
      <trkpt lat="51.026852" lon="11.4692"></trkpt>
      <trkpt lat="51.027359" lon="11.466295"></trkpt>
      <trkpt lat="51.027495" lon="11.464549"></trkpt>
      <trkpt lat="51.0275" lon="11.462453"></trkpt>
      <trkpt lat="51.027362" lon="11.460605"></trkpt>
      <trkpt lat="51.027071" lon="11.458689"></trkpt>
      <trkpt lat="51.023247" lon="11.443747"></trkpt>
      <trkpt lat="51.022585" lon="11.440154"></trkpt>
      <trkpt lat="51.021544" lon="11.432656"></trkpt>
      <trkpt lat="51.020955" lon="11.429872"></trkpt>
      <trkpt lat="51.01995" lon="11.427073"></trkpt>
      <trkpt lat="51.01577" lon="11.4184"></trkpt>
      <trkpt lat="51.014953" lon="11.416251"></trkpt>
      <trkpt lat="51.014237" lon="11.413699"></trkpt>
      <trkpt lat="51.013608" lon="11.409962"></trkpt>
      <trkpt lat="51.013138" lon="11.40189"></trkpt>
      <trkpt lat="51.012903" lon="11.399879"></trkpt>
      <trkpt lat="51.009103" lon="11.379679"></trkpt>
      <trkpt lat="51.00781" lon="11.369071"></trkpt>
      <trkpt lat="51.006051" lon="11.361053"></trkpt>
      <trkpt lat="51.005601" lon="11.359416"></trkpt>
      <trkpt lat="51.00452" lon="11.356729"></trkpt>
      <trkpt lat="51.003799" lon="11.355406"></trkpt>
      <trkpt lat="51.00288" lon="11.354086"></trkpt>
      <trkpt lat="50.995718" lon="11.346648"></trkpt>
      <trkpt lat="50.99357" lon="11.343912"></trkpt>
      <trkpt lat="50.992535" lon="11.342169"></trkpt>
      <trkpt lat="50.992108" lon="11.341185"></trkpt>
      <trkpt lat="50.991651" lon="11.339598"></trkpt>
      <trkpt lat="50.991375" lon="11.337482"></trkpt>
      <trkpt lat="50.991079" lon="11.332299"></trkpt>
      <trkpt lat="50.991885" lon="11.326512"></trkpt>
      <trkpt lat="50.991601" lon="11.317149"></trkpt>
      <trkpt lat="50.992047" lon="11.302529"></trkpt>
      <trkpt lat="50.991888" lon="11.298684"></trkpt>
      <trkpt lat="50.991389" lon="11.295706"></trkpt>
      <trkpt lat="50.990738" lon="11.293572"></trkpt>
      <trkpt lat="50.98563" lon="11.280514"></trkpt>
      <trkpt lat="50.984402" lon="11.277118"></trkpt>
      <trkpt lat="50.983795" lon="11.274312"></trkpt>
      <trkpt lat="50.983504" lon="11.271445"></trkpt>
      <trkpt lat="50.983508" lon="11.269038"></trkpt>
      <trkpt lat="50.983673" lon="11.267144"></trkpt>
      <trkpt lat="50.985369" lon="11.258579"></trkpt>
      <trkpt lat="50.985636" lon="11.255238"></trkpt>
      <trkpt lat="50.985587" lon="11.253166"></trkpt>
      <trkpt lat="50.984667" lon="11.241039"></trkpt>
      <trkpt lat="50.984171" lon="11.223433"></trkpt>
      <trkpt lat="50.984334" lon="11.220224"></trkpt>
      <trkpt lat="50.984903" lon="11.217163"></trkpt>
      <trkpt lat="50.985554" lon="11.215033"></trkpt>
      <trkpt lat="50.990972" lon="11.202513"></trkpt>
      <trkpt lat="50.99144" lon="11.201219"></trkpt>
      <trkpt lat="50.992066" lon="11.198933"></trkpt>
      <trkpt lat="50.992548" lon="11.195327"></trkpt>
      <trkpt lat="50.992558" lon="11.192824"></trkpt>
      <trkpt lat="50.992383" lon="11.190756"></trkpt>
      <trkpt lat="50.990422" lon="11.181073"></trkpt>
      <trkpt lat="50.990178" lon="11.179393"></trkpt>
      <trkpt lat="50.989994" lon="11.177174"></trkpt>
      <trkpt lat="50.989539" lon="11.166064"></trkpt>
      <trkpt lat="50.989607" lon="11.163589"></trkpt>
      <trkpt lat="50.989838" lon="11.160985"></trkpt>
      <trkpt lat="50.992697" lon="11.140562"></trkpt>
      <trkpt lat="50.992985" lon="11.137062"></trkpt>
      <trkpt lat="50.993007" lon="11.134608"></trkpt>
      <trkpt lat="50.992711" lon="11.130816"></trkpt>
      <trkpt lat="50.992316" lon="11.128434"></trkpt>
      <trkpt lat="50.991745" lon="11.126077"></trkpt>
      <trkpt lat="50.984611" lon="11.100642"></trkpt>
      <trkpt lat="50.980668" lon="11.085295"></trkpt>
      <trkpt lat="50.979011" lon="11.080182"></trkpt>
      <trkpt lat="50.977849" lon="11.075618"></trkpt>
      <trkpt lat="50.977494" lon="11.073701"></trkpt>
      <trkpt lat="50.976481" lon="11.066384"></trkpt>
      <trkpt lat="50.976351" lon="11.061971"></trkpt>
      <trkpt lat="50.976511" lon="11.06092"></trkpt>
      <trkpt lat="50.976851" lon="11.059745"></trkpt>
      <trkpt lat="50.978362" lon="11.056236"></trkpt>
      <trkpt lat="50.97922" lon="11.055013"></trkpt>
      <trkpt lat="50.980103" lon="11.05444"></trkpt>
      <trkpt lat="50.982922" lon="11.053473"></trkpt>
      <trkpt lat="50.983548" lon="11.053012"></trkpt>
      <trkpt lat="50.984864" lon="11.051675"></trkpt>
      <trkpt lat="50.987797" lon="11.050289"></trkpt>
      <trkpt lat="50.989895" lon="11.048889"></trkpt>
      <trkpt lat="50.992555" lon="11.047934"></trkpt>
      <trkpt lat="51.002219" lon="11.043442"></trkpt>
      <trkpt lat="51.003678" lon="11.042868"></trkpt>
      <trkpt lat="51.004716" lon="11.042721"></trkpt>
      <trkpt lat="51.006309" lon="11.042781"></trkpt>
      <trkpt lat="51.00667" lon="11.042757"></trkpt>
      <trkpt lat="51.006238" lon="11.0427"></trkpt>
      <trkpt lat="51.007771" lon="11.042671"></trkpt>
      <trkpt lat="51.011269" lon="11.043089"></trkpt>
      <trkpt lat="51.009508" lon="11.042482"></trkpt>
      <trkpt lat="51.008999" lon="11.042188"></trkpt>
      <trkpt lat="51.008552" lon="11.041699"></trkpt>
      <trkpt lat="51.008142" lon="11.040804"></trkpt>
      <trkpt lat="51.008007" lon="11.039814"></trkpt>
      <trkpt lat="51.008076" lon="11.039014"></trkpt>
      <trkpt lat="51.009325" lon="11.034635"></trkpt>
      <trkpt lat="51.009306" lon="11.033804"></trkpt>
      <trkpt lat="51.009085" lon="11.032978"></trkpt>
      <trkpt lat="51.008513" lon="11.032996"></trkpt>
      <trkpt lat="51.005635" lon="11.03242"></trkpt>
      <trkpt lat="51.001997" lon="11.028985"></trkpt>
      <trkpt lat="51.00034" lon="11.027807"></trkpt>
      <trkpt lat="51.000724" lon="11.027806"></trkpt>
      <trkpt lat="51.00366" lon="11.025848"></trkpt>
      <trkpt lat="51.003682" lon="11.025464"></trkpt>
      <trkpt lat="51.002748" lon="11.022089"></trkpt>
      <trkpt lat="51.002038" lon="11.018087"></trkpt>
      <trkpt lat="51.002154" lon="11.017841"></trkpt>
      <trkpt lat="51.002918" lon="11.017101"></trkpt>
      <trkpt lat="51.003799" lon="11.016563"></trkpt>
      <trkpt lat="51.003823" lon="11.016191"></trkpt>
      <trkpt lat="51.003559" lon="11.015516"></trkpt>
      <trkpt lat="51.003638" lon="11.014733"></trkpt>
      <trkpt lat="51.003962" lon="11.014288"></trkpt>
      <trkpt lat="51.005157" lon="11.013562"></trkpt>
      <trkpt lat="51.005375" lon="11.013206"></trkpt>
      <trkpt lat="51.005447" lon="11.012836"></trkpt>
      <trkpt lat="51.004698" lon="11.009447"></trkpt>
      <trkpt lat="51.003517" lon="11.006958"></trkpt>
      <trkpt lat="51.002474" lon="11.004302"></trkpt>
      <trkpt lat="51.002143" lon="11.003997"></trkpt>
      <trkpt lat="51.001726" lon="11.004105"></trkpt>
      <trkpt lat="50.999897" lon="11.005828"></trkpt>
      <trkpt lat="50.999113" lon="11.006107"></trkpt>
      <trkpt lat="50.990263" lon="11.012567"></trkpt>
      <trkpt lat="50.988802" lon="11.013853"></trkpt>
      <trkpt lat="50.986665" lon="11.016232"></trkpt>
      <trkpt lat="50.988802" lon="11.013853"></trkpt>
      <trkpt lat="50.990263" lon="11.012567"></trkpt>
      <trkpt lat="50.999113" lon="11.006107"></trkpt>
      <trkpt lat="50.999897" lon="11.005828"></trkpt>
      <trkpt lat="51.001726" lon="11.004105"></trkpt>
      <trkpt lat="51.002143" lon="11.003997"></trkpt>
      <trkpt lat="51.002365" lon="11.004125"></trkpt>
      <trkpt lat="51.003517" lon="11.006958"></trkpt>
      <trkpt lat="51.004766" lon="11.009637"></trkpt>
      <trkpt lat="51.005447" lon="11.012836"></trkpt>
      <trkpt lat="51.005375" lon="11.013206"></trkpt>
      <trkpt lat="51.005157" lon="11.013562"></trkpt>
      <trkpt lat="51.003962" lon="11.014288"></trkpt>
      <trkpt lat="51.003638" lon="11.014733"></trkpt>
      <trkpt lat="51.003559" lon="11.015516"></trkpt>
      <trkpt lat="51.003823" lon="11.016191"></trkpt>
      <trkpt lat="51.003799" lon="11.016563"></trkpt>
      <trkpt lat="51.002918" lon="11.017101"></trkpt>
      <trkpt lat="51.002154" lon="11.017841"></trkpt>
      <trkpt lat="51.002038" lon="11.018087"></trkpt>
      <trkpt lat="51.002748" lon="11.022089"></trkpt>
      <trkpt lat="51.003682" lon="11.025464"></trkpt>
      <trkpt lat="51.00366" lon="11.025848"></trkpt>
      <trkpt lat="51.000724" lon="11.027806"></trkpt>
      <trkpt lat="51.00034" lon="11.027807"></trkpt>
      <trkpt lat="51.001997" lon="11.028985"></trkpt>
      <trkpt lat="51.005635" lon="11.03242"></trkpt>
      <trkpt lat="51.008513" lon="11.032996"></trkpt>
      <trkpt lat="51.009085" lon="11.032978"></trkpt>
      <trkpt lat="51.009306" lon="11.033804"></trkpt>
      <trkpt lat="51.009325" lon="11.034635"></trkpt>
      <trkpt lat="51.008076" lon="11.039014"></trkpt>
      <trkpt lat="51.008007" lon="11.039814"></trkpt>
      <trkpt lat="51.008142" lon="11.040804"></trkpt>
      <trkpt lat="51.008552" lon="11.041699"></trkpt>
      <trkpt lat="51.008999" lon="11.042188"></trkpt>
      <trkpt lat="51.009508" lon="11.042482"></trkpt>
      <trkpt lat="51.011269" lon="11.043089"></trkpt>
      <trkpt lat="51.007771" lon="11.042671"></trkpt>
      <trkpt lat="51.006238" lon="11.0427"></trkpt>
      <trkpt lat="51.00667" lon="11.042757"></trkpt>
      <trkpt lat="51.006309" lon="11.042781"></trkpt>
      <trkpt lat="51.004716" lon="11.042721"></trkpt>
      <trkpt lat="51.003678" lon="11.042868"></trkpt>
      <trkpt lat="51.002219" lon="11.043442"></trkpt>
      <trkpt lat="50.992555" lon="11.047934"></trkpt>
      <trkpt lat="50.989895" lon="11.048889"></trkpt>
      <trkpt lat="50.987797" lon="11.050289"></trkpt>
      <trkpt lat="50.984864" lon="11.051675"></trkpt>
      <trkpt lat="50.983548" lon="11.053012"></trkpt>
      <trkpt lat="50.982922" lon="11.053473"></trkpt>
      <trkpt lat="50.980103" lon="11.05444"></trkpt>
      <trkpt lat="50.97922" lon="11.055013"></trkpt>
      <trkpt lat="50.978362" lon="11.056236"></trkpt>
      <trkpt lat="50.976851" lon="11.059745"></trkpt>
      <trkpt lat="50.976511" lon="11.06092"></trkpt>
      <trkpt lat="50.976334" lon="11.062249"></trkpt>
      <trkpt lat="50.976481" lon="11.066384"></trkpt>
      <trkpt lat="50.977494" lon="11.073701"></trkpt>
      <trkpt lat="50.977849" lon="11.075618"></trkpt>
      <trkpt lat="50.979011" lon="11.080182"></trkpt>
      <trkpt lat="50.980668" lon="11.085295"></trkpt>
      <trkpt lat="50.984611" lon="11.100642"></trkpt>
      <trkpt lat="50.991745" lon="11.126077"></trkpt>
      <trkpt lat="50.992556" lon="11.129777"></trkpt>
      <trkpt lat="50.992972" lon="11.133748"></trkpt>
      <trkpt lat="50.993023" lon="11.136216"></trkpt>
      <trkpt lat="50.992697" lon="11.140562"></trkpt>
      <trkpt lat="50.989838" lon="11.160985"></trkpt>
      <trkpt lat="50.989607" lon="11.163589"></trkpt>
      <trkpt lat="50.989539" lon="11.166064"></trkpt>
      <trkpt lat="50.989994" lon="11.177174"></trkpt>
      <trkpt lat="50.990178" lon="11.179393"></trkpt>
      <trkpt lat="50.990422" lon="11.181073"></trkpt>
      <trkpt lat="50.992383" lon="11.190756"></trkpt>
      <trkpt lat="50.992558" lon="11.192824"></trkpt>
      <trkpt lat="50.992548" lon="11.195327"></trkpt>
      <trkpt lat="50.992066" lon="11.198933"></trkpt>
      <trkpt lat="50.99144" lon="11.201219"></trkpt>
      <trkpt lat="50.990972" lon="11.202513"></trkpt>
      <trkpt lat="50.985554" lon="11.215033"></trkpt>
      <trkpt lat="50.984903" lon="11.217163"></trkpt>
      <trkpt lat="50.984334" lon="11.220224"></trkpt>
      <trkpt lat="50.984171" lon="11.223433"></trkpt>
      <trkpt lat="50.984667" lon="11.241039"></trkpt>
      <trkpt lat="50.985587" lon="11.253166"></trkpt>
      <trkpt lat="50.985636" lon="11.255238"></trkpt>
      <trkpt lat="50.985369" lon="11.258579"></trkpt>
      <trkpt lat="50.983766" lon="11.266546"></trkpt>
      <trkpt lat="50.98349" lon="11.269537"></trkpt>
      <trkpt lat="50.983504" lon="11.271445"></trkpt>
      <trkpt lat="50.983678" lon="11.273504"></trkpt>
      <trkpt lat="50.984402" lon="11.277118"></trkpt>
      <trkpt lat="50.98563" lon="11.280514"></trkpt>
      <trkpt lat="50.990738" lon="11.293572"></trkpt>
      <trkpt lat="50.991389" lon="11.295706"></trkpt>
      <trkpt lat="50.991888" lon="11.298684"></trkpt>
      <trkpt lat="50.992047" lon="11.302529"></trkpt>
      <trkpt lat="50.991344" lon="11.327774"></trkpt>
      <trkpt lat="50.991234" lon="11.329572"></trkpt>
      <trkpt lat="50.990587" lon="11.333401"></trkpt>
      <trkpt lat="50.99049" lon="11.339932"></trkpt>
      <trkpt lat="50.990231" lon="11.341099"></trkpt>
      <trkpt lat="50.98974" lon="11.342176"></trkpt>
      <trkpt lat="50.98899" lon="11.343038"></trkpt>
      <trkpt lat="50.98831" lon="11.343408"></trkpt>
      <trkpt lat="50.984623" lon="11.343748"></trkpt>
      <trkpt lat="50.976162" lon="11.344167"></trkpt>
      <trkpt lat="50.975056" lon="11.344396"></trkpt>
      <trkpt lat="50.974294" lon="11.344772"></trkpt>
      <trkpt lat="50.973258" lon="11.345636"></trkpt>
      <trkpt lat="50.972557" lon="11.346528"></trkpt>
      <trkpt lat="50.970187" lon="11.350817"></trkpt>
      <trkpt lat="50.969097" lon="11.352339"></trkpt>
      <trkpt lat="50.968075" lon="11.353296"></trkpt>
      <trkpt lat="50.96172" lon="11.357879"></trkpt>
      <trkpt lat="50.960666" lon="11.358925"></trkpt>
      <trkpt lat="50.959555" lon="11.360451"></trkpt>
      <trkpt lat="50.95826" lon="11.363098"></trkpt>
      <trkpt lat="50.956942" lon="11.366902"></trkpt>
      <trkpt lat="50.956467" lon="11.368667"></trkpt>
      <trkpt lat="50.954837" lon="11.377094"></trkpt>
      <trkpt lat="50.954684" lon="11.378878"></trkpt>
      <trkpt lat="50.954556" lon="11.3845"></trkpt>
      <trkpt lat="50.954233" lon="11.386531"></trkpt>
      <trkpt lat="50.953845" lon="11.387871"></trkpt>
      <trkpt lat="50.953298" lon="11.389176"></trkpt>
      <trkpt lat="50.95273" lon="11.390185"></trkpt>
      <trkpt lat="50.947105" lon="11.398897"></trkpt>
      <trkpt lat="50.946208" lon="11.40089"></trkpt>
      <trkpt lat="50.943801" lon="11.407538"></trkpt>
      <trkpt lat="50.943251" lon="11.408666"></trkpt>
      <trkpt lat="50.941231" lon="11.412013"></trkpt>
      <trkpt lat="50.940544" lon="11.413597"></trkpt>
      <trkpt lat="50.940061" lon="11.4151"></trkpt>
      <trkpt lat="50.939614" lon="11.417316"></trkpt>
      <trkpt lat="50.939433" lon="11.419705"></trkpt>
      <trkpt lat="50.939782" lon="11.425481"></trkpt>
      <trkpt lat="50.939656" lon="11.428093"></trkpt>
      <trkpt lat="50.939156" lon="11.430404"></trkpt>
      <trkpt lat="50.936969" lon="11.436126"></trkpt>
      <trkpt lat="50.93626" lon="11.438983"></trkpt>
      <trkpt lat="50.936037" lon="11.440887"></trkpt>
      <trkpt lat="50.935659" lon="11.448363"></trkpt>
      <trkpt lat="50.934081" lon="11.455826"></trkpt>
      <trkpt lat="50.933594" lon="11.461918"></trkpt>
      <trkpt lat="50.932515" lon="11.466945"></trkpt>
      <trkpt lat="50.932393" lon="11.468648"></trkpt>
      <trkpt lat="50.932426" lon="11.470016"></trkpt>
      <trkpt lat="50.932819" lon="11.47279"></trkpt>
      <trkpt lat="50.933606" lon="11.475149"></trkpt>
      <trkpt lat="50.938828" lon="11.485805"></trkpt>
      <trkpt lat="50.939683" lon="11.488266"></trkpt>
      <trkpt lat="50.942722" lon="11.504329"></trkpt>
      <trkpt lat="50.943481" lon="11.510045"></trkpt>
      <trkpt lat="50.944012" lon="11.511996"></trkpt>
      <trkpt lat="50.94501" lon="11.5149"></trkpt>
      <trkpt lat="50.945332" lon="11.516241"></trkpt>
      <trkpt lat="50.946556" lon="11.523116"></trkpt>
      <trkpt lat="50.946755" lon="11.52563"></trkpt>
      <trkpt lat="50.946698" lon="11.526939"></trkpt>
      <trkpt lat="50.946359" lon="11.528666"></trkpt>
      <trkpt lat="50.945636" lon="11.530288"></trkpt>
      <trkpt lat="50.945032" lon="11.531097"></trkpt>
      <trkpt lat="50.942861" lon="11.532763"></trkpt>
      <trkpt lat="50.942286" lon="11.533442"></trkpt>
      <trkpt lat="50.941637" lon="11.534626"></trkpt>
      <trkpt lat="50.941231" lon="11.535885"></trkpt>
      <trkpt lat="50.940527" lon="11.539978"></trkpt>
      <trkpt lat="50.940234" lon="11.541103"></trkpt>
      <trkpt lat="50.938248" lon="11.546201"></trkpt>
      <trkpt lat="50.93792" lon="11.547282"></trkpt>
      <trkpt lat="50.937718" lon="11.548574"></trkpt>
      <trkpt lat="50.937598" lon="11.551696"></trkpt>
      <trkpt lat="50.937183" lon="11.553648"></trkpt>
      <trkpt lat="50.936571" lon="11.555023"></trkpt>
      <trkpt lat="50.935151" lon="11.556946"></trkpt>
      <trkpt lat="50.934171" lon="11.55862"></trkpt>
      <trkpt lat="50.933458" lon="11.560349"></trkpt>
      <trkpt lat="50.932371" lon="11.563609"></trkpt>
      <trkpt lat="50.929898" lon="11.568597"></trkpt>
      <trkpt lat="50.929496" lon="11.569963"></trkpt>
      <trkpt lat="50.928791" lon="11.573921"></trkpt>
      <trkpt lat="50.928267" lon="11.575461"></trkpt>
      <trkpt lat="50.927392" lon="11.576777"></trkpt>
      <trkpt lat="50.926303" lon="11.577654"></trkpt>
      <trkpt lat="50.925077" lon="11.577978"></trkpt>
      <trkpt lat="50.92323" lon="11.577774"></trkpt>
  </trkseg></trk>
</gpx>
