<?xml version="1.0" encoding="UTF-8"?>
<gpx version="1.1" creator="yatutbuv" xmlns="http://www.topografix.com/GPX/1/1">
  <trk><name>2019_Bologna -&gt; Pompei (596.8km)</name><trkseg>
      <trkpt lat="44.506053" lon="11.343354"></trkpt>
      <trkpt lat="44.505639" lon="11.346367"></trkpt>
      <trkpt lat="44.505049" lon="11.349404"></trkpt>
      <trkpt lat="44.503987" lon="11.353732"></trkpt>
      <trkpt lat="44.496902" lon="11.37102"></trkpt>
      <trkpt lat="44.496099" lon="11.372486"></trkpt>
      <trkpt lat="44.495296" lon="11.373536"></trkpt>
      <trkpt lat="44.494347" lon="11.374451"></trkpt>
      <trkpt lat="44.493416" lon="11.375099"></trkpt>
      <trkpt lat="44.492547" lon="11.375521"></trkpt>
      <trkpt lat="44.491512" lon="11.375817"></trkpt>
      <trkpt lat="44.476876" lon="11.376461"></trkpt>
      <trkpt lat="44.474612" lon="11.376457"></trkpt>
      <trkpt lat="44.471993" lon="11.376139"></trkpt>
      <trkpt lat="44.469741" lon="11.375572"></trkpt>
      <trkpt lat="44.466973" lon="11.374572"></trkpt>
      <trkpt lat="44.465119" lon="11.374146"></trkpt>
      <trkpt lat="44.459251" lon="11.373869"></trkpt>
      <trkpt lat="44.455796" lon="11.373141"></trkpt>
      <trkpt lat="44.449875" lon="11.371063"></trkpt>
      <trkpt lat="44.446958" lon="11.369442"></trkpt>
      <trkpt lat="44.444018" lon="11.367302"></trkpt>
      <trkpt lat="44.441886" lon="11.366063"></trkpt>
      <trkpt lat="44.434306" lon="11.362702"></trkpt>
      <trkpt lat="44.432024" lon="11.361841"></trkpt>
      <trkpt lat="44.429825" lon="11.361342"></trkpt>
      <trkpt lat="44.427414" lon="11.361017"></trkpt>
      <trkpt lat="44.424268" lon="11.36091"></trkpt>
      <trkpt lat="44.419616" lon="11.36093"></trkpt>
      <trkpt lat="44.416718" lon="11.36059"></trkpt>
      <trkpt lat="44.415239" lon="11.360302"></trkpt>
      <trkpt lat="44.412598" lon="11.359539"></trkpt>
      <trkpt lat="44.410443" lon="11.358763"></trkpt>
      <trkpt lat="44.403292" lon="11.355471"></trkpt>
      <trkpt lat="44.40113" lon="11.354593"></trkpt>
      <trkpt lat="44.396224" lon="11.3529"></trkpt>
      <trkpt lat="44.392246" lon="11.351839"></trkpt>
      <trkpt lat="44.387839" lon="11.350898"></trkpt>
      <trkpt lat="44.385142" lon="11.350375"></trkpt>
      <trkpt lat="44.380748" lon="11.349714"></trkpt>
      <trkpt lat="44.377892" lon="11.349487"></trkpt>
      <trkpt lat="44.372389" lon="11.349412"></trkpt>
      <trkpt lat="44.366976" lon="11.349884"></trkpt>
      <trkpt lat="44.355457" lon="11.351623"></trkpt>
      <trkpt lat="44.331771" lon="11.356089"></trkpt>
      <trkpt lat="44.327717" lon="11.356623"></trkpt>
      <trkpt lat="44.324776" lon="11.356811"></trkpt>
      <trkpt lat="44.323023" lon="11.35682"></trkpt>
      <trkpt lat="44.319674" lon="11.356556"></trkpt>
      <trkpt lat="44.282093" lon="11.350465"></trkpt>
      <trkpt lat="44.279452" lon="11.350185"></trkpt>
      <trkpt lat="44.276803" lon="11.350151"></trkpt>
      <trkpt lat="44.273206" lon="11.350451"></trkpt>
      <trkpt lat="44.267568" lon="11.351396"></trkpt>
      <trkpt lat="44.262178" lon="11.352613"></trkpt>
      <trkpt lat="44.231953" lon="11.359817"></trkpt>
      <trkpt lat="44.229397" lon="11.360719"></trkpt>
      <trkpt lat="44.226116" lon="11.362132"></trkpt>
      <trkpt lat="44.22273" lon="11.36388"></trkpt>
      <trkpt lat="44.219513" lon="11.365834"></trkpt>
      <trkpt lat="44.217608" lon="11.367268"></trkpt>
      <trkpt lat="44.215417" lon="11.369243"></trkpt>
      <trkpt lat="44.213409" lon="11.371247"></trkpt>
      <trkpt lat="44.189496" lon="11.400154"></trkpt>
      <trkpt lat="44.186127" lon="11.403842"></trkpt>
      <trkpt lat="44.183958" lon="11.405912"></trkpt>
      <trkpt lat="44.182013" lon="11.407625"></trkpt>
      <trkpt lat="44.156605" lon="11.42697"></trkpt>
      <trkpt lat="44.151958" lon="11.429796"></trkpt>
      <trkpt lat="44.148916" lon="11.43144"></trkpt>
      <trkpt lat="44.145068" lon="11.433192"></trkpt>
      <trkpt lat="44.141741" lon="11.434291"></trkpt>
      <trkpt lat="44.137529" lon="11.435167"></trkpt>
      <trkpt lat="44.133041" lon="11.435529"></trkpt>
      <trkpt lat="44.129164" lon="11.435401"></trkpt>
      <trkpt lat="44.124196" lon="11.43487"></trkpt>
      <trkpt lat="44.119577" lon="11.434104"></trkpt>
      <trkpt lat="44.09498" lon="11.429113"></trkpt>
      <trkpt lat="44.090223" lon="11.4279"></trkpt>
      <trkpt lat="44.049398" lon="11.415169"></trkpt>
      <trkpt lat="44.04589" lon="11.413963"></trkpt>
      <trkpt lat="44.04074" lon="11.411722"></trkpt>
      <trkpt lat="44.038227" lon="11.410441"></trkpt>
      <trkpt lat="44.035951" lon="11.409118"></trkpt>
      <trkpt lat="44.03389" lon="11.40776"></trkpt>
      <trkpt lat="44.030823" lon="11.40536"></trkpt>
      <trkpt lat="44.028174" lon="11.403082"></trkpt>
      <trkpt lat="44.000967" lon="11.378906"></trkpt>
      <trkpt lat="43.990092" lon="11.369644"></trkpt>
      <trkpt lat="43.975811" lon="11.357023"></trkpt>
      <trkpt lat="43.970929" lon="11.352477"></trkpt>
      <trkpt lat="43.969794" lon="11.351269"></trkpt>
      <trkpt lat="43.967095" lon="11.348049"></trkpt>
      <trkpt lat="43.964351" lon="11.344364"></trkpt>
      <trkpt lat="43.953439" lon="11.327753"></trkpt>
      <trkpt lat="43.949107" lon="11.320062"></trkpt>
      <trkpt lat="43.943138" lon="11.308151"></trkpt>
      <trkpt lat="43.940729" lon="11.303752"></trkpt>
      <trkpt lat="43.938293" lon="11.29966"></trkpt>
      <trkpt lat="43.936471" lon="11.296903"></trkpt>
      <trkpt lat="43.934302" lon="11.293919"></trkpt>
      <trkpt lat="43.932217" lon="11.291345"></trkpt>
      <trkpt lat="43.929707" lon="11.288668"></trkpt>
      <trkpt lat="43.919594" lon="11.278985"></trkpt>
      <trkpt lat="43.911343" lon="11.271745"></trkpt>
      <trkpt lat="43.907777" lon="11.268861"></trkpt>
      <trkpt lat="43.904907" lon="11.266759"></trkpt>
      <trkpt lat="43.90148" lon="11.264666"></trkpt>
      <trkpt lat="43.898015" lon="11.262936"></trkpt>
      <trkpt lat="43.878799" lon="11.255164"></trkpt>
      <trkpt lat="43.861375" lon="11.247704"></trkpt>
      <trkpt lat="43.856834" lon="11.24517"></trkpt>
      <trkpt lat="43.854219" lon="11.243379"></trkpt>
      <trkpt lat="43.851551" lon="11.241052"></trkpt>
      <trkpt lat="43.849415" lon="11.238831"></trkpt>
      <trkpt lat="43.846949" lon="11.235997"></trkpt>
      <trkpt lat="43.828935" lon="11.211903"></trkpt>
      <trkpt lat="43.827997" lon="11.210986"></trkpt>
      <trkpt lat="43.827344" lon="11.210653"></trkpt>
      <trkpt lat="43.826538" lon="11.21046"></trkpt>
      <trkpt lat="43.82583" lon="11.210457"></trkpt>
      <trkpt lat="43.825026" lon="11.210663"></trkpt>
      <trkpt lat="43.824074" lon="11.211262"></trkpt>
      <trkpt lat="43.823342" lon="11.212075"></trkpt>
      <trkpt lat="43.820902" lon="11.216649"></trkpt>
      <trkpt lat="43.819732" lon="11.218505"></trkpt>
      <trkpt lat="43.812865" lon="11.227116"></trkpt>
      <trkpt lat="43.811719" lon="11.228387"></trkpt>
      <trkpt lat="43.809652" lon="11.230051"></trkpt>
      <trkpt lat="43.801777" lon="11.235012"></trkpt>
      <trkpt lat="43.799867" lon="11.236314"></trkpt>
      <trkpt lat="43.796845" lon="11.23862"></trkpt>
      <trkpt lat="43.788705" lon="11.242685"></trkpt>
      <trkpt lat="43.788084" lon="11.243189"></trkpt>
      <trkpt lat="43.787458" lon="11.244095"></trkpt>
      <trkpt lat="43.786966" lon="11.245601"></trkpt>
      <trkpt lat="43.786884" lon="11.247135"></trkpt>
      <trkpt lat="43.789336" lon="11.262858"></trkpt>
      <trkpt lat="43.789324" lon="11.264073"></trkpt>
      <trkpt lat="43.788941" lon="11.265317"></trkpt>
      <trkpt lat="43.788163" lon="11.266403"></trkpt>
      <trkpt lat="43.778807" lon="11.275445"></trkpt>
      <trkpt lat="43.773608" lon="11.280342"></trkpt>
      <trkpt lat="43.771727" lon="11.281928"></trkpt>
      <trkpt lat="43.770756" lon="11.283195"></trkpt>
      <trkpt lat="43.770016" lon="11.285084"></trkpt>
      <trkpt lat="43.769779" lon="11.286549"></trkpt>
      <trkpt lat="43.768616" lon="11.298082"></trkpt>
      <trkpt lat="43.768176" lon="11.303415"></trkpt>
      <trkpt lat="43.768274" lon="11.30523"></trkpt>
      <trkpt lat="43.769085" lon="11.311078"></trkpt>
      <trkpt lat="43.769196" lon="11.315224"></trkpt>
      <trkpt lat="43.769289" lon="11.322574"></trkpt>
      <trkpt lat="43.76905" lon="11.324084"></trkpt>
      <trkpt lat="43.768555" lon="11.325428"></trkpt>
      <trkpt lat="43.766114" lon="11.329441"></trkpt>
      <trkpt lat="43.764552" lon="11.331291"></trkpt>
      <trkpt lat="43.76349" lon="11.332182"></trkpt>
      <trkpt lat="43.762494" lon="11.332831"></trkpt>
      <trkpt lat="43.75628" lon="11.336587"></trkpt>
      <trkpt lat="43.75439" lon="11.337881"></trkpt>
      <trkpt lat="43.752182" lon="11.339798"></trkpt>
      <trkpt lat="43.72307" lon="11.375221"></trkpt>
      <trkpt lat="43.721263" lon="11.377683"></trkpt>
      <trkpt lat="43.715566" lon="11.387282"></trkpt>
      <trkpt lat="43.713631" lon="11.391338"></trkpt>
      <trkpt lat="43.698277" lon="11.428806"></trkpt>
      <trkpt lat="43.695138" lon="11.434101"></trkpt>
      <trkpt lat="43.692478" lon="11.438203"></trkpt>
      <trkpt lat="43.689595" lon="11.441884"></trkpt>
      <trkpt lat="43.688489" lon="11.443039"></trkpt>
      <trkpt lat="43.687098" lon="11.444197"></trkpt>
      <trkpt lat="43.683628" lon="11.446354"></trkpt>
      <trkpt lat="43.681972" lon="11.447235"></trkpt>
      <trkpt lat="43.673573" lon="11.450659"></trkpt>
      <trkpt lat="43.670335" lon="11.452354"></trkpt>
      <trkpt lat="43.666914" lon="11.454206"></trkpt>
      <trkpt lat="43.661365" lon="11.458122"></trkpt>
      <trkpt lat="43.658844" lon="11.459534"></trkpt>
      <trkpt lat="43.655105" lon="11.460972"></trkpt>
      <trkpt lat="43.642055" lon="11.465327"></trkpt>
      <trkpt lat="43.639853" lon="11.466327"></trkpt>
      <trkpt lat="43.637449" lon="11.467759"></trkpt>
      <trkpt lat="43.634052" lon="11.470518"></trkpt>
      <trkpt lat="43.624649" lon="11.480742"></trkpt>
      <trkpt lat="43.621736" lon="11.483737"></trkpt>
      <trkpt lat="43.602052" lon="11.501243"></trkpt>
      <trkpt lat="43.595364" lon="11.50841"></trkpt>
      <trkpt lat="43.587863" lon="11.516757"></trkpt>
      <trkpt lat="43.586185" lon="11.518887"></trkpt>
      <trkpt lat="43.584639" lon="11.521128"></trkpt>
      <trkpt lat="43.583119" lon="11.523671"></trkpt>
      <trkpt lat="43.579564" lon="11.530276"></trkpt>
      <trkpt lat="43.578201" lon="11.532604"></trkpt>
      <trkpt lat="43.576171" lon="11.535726"></trkpt>
      <trkpt lat="43.573111" lon="11.539573"></trkpt>
      <trkpt lat="43.570644" lon="11.542131"></trkpt>
      <trkpt lat="43.566989" lon="11.54557"></trkpt>
      <trkpt lat="43.558959" lon="11.554641"></trkpt>
      <trkpt lat="43.551581" lon="11.565004"></trkpt>
      <trkpt lat="43.54561" lon="11.571942"></trkpt>
      <trkpt lat="43.541192" lon="11.578312"></trkpt>
      <trkpt lat="43.539493" lon="11.581937"></trkpt>
      <trkpt lat="43.53846" lon="11.584754"></trkpt>
      <trkpt lat="43.537271" lon="11.588101"></trkpt>
      <trkpt lat="43.53587" lon="11.593239"></trkpt>
      <trkpt lat="43.535225" lon="11.596512"></trkpt>
      <trkpt lat="43.534585" lon="11.601357"></trkpt>
      <trkpt lat="43.534023" lon="11.60705"></trkpt>
      <trkpt lat="43.533526" lon="11.614315"></trkpt>
      <trkpt lat="43.532688" lon="11.622289"></trkpt>
      <trkpt lat="43.531933" lon="11.626403"></trkpt>
      <trkpt lat="43.530818" lon="11.630368"></trkpt>
      <trkpt lat="43.524042" lon="11.658136"></trkpt>
      <trkpt lat="43.522882" lon="11.663022"></trkpt>
      <trkpt lat="43.522326" lon="11.665894"></trkpt>
      <trkpt lat="43.521905" lon="11.668673"></trkpt>
      <trkpt lat="43.51753" lon="11.708453"></trkpt>
      <trkpt lat="43.517148" lon="11.713409"></trkpt>
      <trkpt lat="43.51659" lon="11.723938"></trkpt>
      <trkpt lat="43.516079" lon="11.730206"></trkpt>
      <trkpt lat="43.515237" lon="11.735366"></trkpt>
      <trkpt lat="43.51444" lon="11.738724"></trkpt>
      <trkpt lat="43.51349" lon="11.741971"></trkpt>
      <trkpt lat="43.512185" lon="11.745594"></trkpt>
      <trkpt lat="43.510662" lon="11.749063"></trkpt>
      <trkpt lat="43.501359" lon="11.768078"></trkpt>
      <trkpt lat="43.49878" lon="11.772569"></trkpt>
      <trkpt lat="43.496037" lon="11.776281"></trkpt>
      <trkpt lat="43.493972" lon="11.778625"></trkpt>
      <trkpt lat="43.490287" lon="11.782093"></trkpt>
      <trkpt lat="43.465134" lon="11.803641"></trkpt>
      <trkpt lat="43.462468" lon="11.805882"></trkpt>
      <trkpt lat="43.459373" lon="11.808208"></trkpt>
      <trkpt lat="43.457427" lon="11.809394"></trkpt>
      <trkpt lat="43.447147" lon="11.81513"></trkpt>
      <trkpt lat="43.423495" lon="11.825839"></trkpt>
      <trkpt lat="43.385656" lon="11.845231"></trkpt>
      <trkpt lat="43.382078" lon="11.846905"></trkpt>
      <trkpt lat="43.363215" lon="11.853394"></trkpt>
      <trkpt lat="43.360067" lon="11.854563"></trkpt>
      <trkpt lat="43.35727" lon="11.855841"></trkpt>
      <trkpt lat="43.336308" lon="11.868884"></trkpt>
      <trkpt lat="43.333793" lon="11.870346"></trkpt>
      <trkpt lat="43.33049" lon="11.871782"></trkpt>
      <trkpt lat="43.328268" lon="11.8725"></trkpt>
      <trkpt lat="43.325405" lon="11.873099"></trkpt>
      <trkpt lat="43.322761" lon="11.87341"></trkpt>
      <trkpt lat="43.321013" lon="11.873436"></trkpt>
      <trkpt lat="43.318908" lon="11.87329"></trkpt>
      <trkpt lat="43.302502" lon="11.870578"></trkpt>
      <trkpt lat="43.299472" lon="11.870311"></trkpt>
      <trkpt lat="43.297423" lon="11.870311"></trkpt>
      <trkpt lat="43.279623" lon="11.87135"></trkpt>
      <trkpt lat="43.277649" lon="11.871648"></trkpt>
      <trkpt lat="43.274311" lon="11.872353"></trkpt>
      <trkpt lat="43.254536" lon="11.8768"></trkpt>
      <trkpt lat="43.251388" lon="11.877783"></trkpt>
      <trkpt lat="43.247824" lon="11.879358"></trkpt>
      <trkpt lat="43.239664" lon="11.884874"></trkpt>
      <trkpt lat="43.235918" lon="11.886823"></trkpt>
      <trkpt lat="43.233478" lon="11.887752"></trkpt>
      <trkpt lat="43.230947" lon="11.888494"></trkpt>
      <trkpt lat="43.227418" lon="11.889024"></trkpt>
      <trkpt lat="43.224272" lon="11.889075"></trkpt>
      <trkpt lat="43.221296" lon="11.888817"></trkpt>
      <trkpt lat="43.218571" lon="11.888262"></trkpt>
      <trkpt lat="43.211582" lon="11.886139"></trkpt>
      <trkpt lat="43.209789" lon="11.885783"></trkpt>
      <trkpt lat="43.20651" lon="11.885468"></trkpt>
      <trkpt lat="43.202552" lon="11.885534"></trkpt>
      <trkpt lat="43.200676" lon="11.885759"></trkpt>
      <trkpt lat="43.196421" lon="11.887102"></trkpt>
      <trkpt lat="43.192206" lon="11.88905"></trkpt>
      <trkpt lat="43.188625" lon="11.891037"></trkpt>
      <trkpt lat="43.186841" lon="11.89189"></trkpt>
      <trkpt lat="43.183586" lon="11.893135"></trkpt>
      <trkpt lat="43.181123" lon="11.893793"></trkpt>
      <trkpt lat="43.177683" lon="11.894322"></trkpt>
      <trkpt lat="43.175977" lon="11.894425"></trkpt>
      <trkpt lat="43.174018" lon="11.894367"></trkpt>
      <trkpt lat="43.171774" lon="11.894135"></trkpt>
      <trkpt lat="43.146032" lon="11.890961"></trkpt>
      <trkpt lat="43.136249" lon="11.889831"></trkpt>
      <trkpt lat="43.134127" lon="11.889773"></trkpt>
      <trkpt lat="43.113721" lon="11.890488"></trkpt>
      <trkpt lat="43.107923" lon="11.890854"></trkpt>
      <trkpt lat="43.106122" lon="11.891102"></trkpt>
      <trkpt lat="43.103408" lon="11.89175"></trkpt>
      <trkpt lat="43.08855" lon="11.895798"></trkpt>
      <trkpt lat="43.086353" lon="11.896536"></trkpt>
      <trkpt lat="43.080591" lon="11.899044"></trkpt>
      <trkpt lat="43.078072" lon="11.90035"></trkpt>
      <trkpt lat="43.075445" lon="11.901975"></trkpt>
      <trkpt lat="43.074285" lon="11.902824"></trkpt>
      <trkpt lat="43.071747" lon="11.904972"></trkpt>
      <trkpt lat="43.070054" lon="11.906652"></trkpt>
      <trkpt lat="43.065486" lon="11.911809"></trkpt>
      <trkpt lat="43.062414" lon="11.914813"></trkpt>
      <trkpt lat="43.058884" lon="11.917547"></trkpt>
      <trkpt lat="43.056083" lon="11.919277"></trkpt>
      <trkpt lat="43.054191" lon="11.920272"></trkpt>
      <trkpt lat="43.050313" lon="11.92177"></trkpt>
      <trkpt lat="43.024239" lon="11.928684"></trkpt>
      <trkpt lat="43.019639" lon="11.930142"></trkpt>
      <trkpt lat="43.016573" lon="11.931783"></trkpt>
      <trkpt lat="43.013824" lon="11.934228"></trkpt>
      <trkpt lat="43.007318" lon="11.942208"></trkpt>
      <trkpt lat="43.005512" lon="11.944203"></trkpt>
      <trkpt lat="43.003445" lon="11.946157"></trkpt>
      <trkpt lat="43.002152" lon="11.947158"></trkpt>
      <trkpt lat="42.99966" lon="11.94874"></trkpt>
      <trkpt lat="42.994244" lon="11.951258"></trkpt>
      <trkpt lat="42.984186" lon="11.955671"></trkpt>
      <trkpt lat="42.978871" lon="11.95783"></trkpt>
      <trkpt lat="42.975688" lon="11.958686"></trkpt>
      <trkpt lat="42.958508" lon="11.962116"></trkpt>
      <trkpt lat="42.956712" lon="11.962639"></trkpt>
      <trkpt lat="42.929985" lon="11.973594"></trkpt>
      <trkpt lat="42.927469" lon="11.974837"></trkpt>
      <trkpt lat="42.925379" lon="11.976109"></trkpt>
      <trkpt lat="42.901778" lon="11.990995"></trkpt>
      <trkpt lat="42.898705" lon="11.992899"></trkpt>
      <trkpt lat="42.896069" lon="11.994325"></trkpt>
      <trkpt lat="42.894134" lon="11.995026"></trkpt>
      <trkpt lat="42.892382" lon="11.995517"></trkpt>
      <trkpt lat="42.876723" lon="11.998582"></trkpt>
      <trkpt lat="42.872868" lon="11.999426"></trkpt>
      <trkpt lat="42.871667" lon="11.999793"></trkpt>
      <trkpt lat="42.845672" lon="12.011216"></trkpt>
      <trkpt lat="42.843431" lon="12.011882"></trkpt>
      <trkpt lat="42.841125" lon="12.012188"></trkpt>
      <trkpt lat="42.838942" lon="12.012067"></trkpt>
      <trkpt lat="42.837518" lon="12.011774"></trkpt>
      <trkpt lat="42.832088" lon="12.010111"></trkpt>
      <trkpt lat="42.827849" lon="12.008517"></trkpt>
      <trkpt lat="42.825206" lon="12.007911"></trkpt>
      <trkpt lat="42.822307" lon="12.007729"></trkpt>
      <trkpt lat="42.819309" lon="12.007986"></trkpt>
      <trkpt lat="42.816461" lon="12.008664"></trkpt>
      <trkpt lat="42.81357" lon="12.009834"></trkpt>
      <trkpt lat="42.810963" lon="12.011162"></trkpt>
      <trkpt lat="42.799884" lon="12.019794"></trkpt>
      <trkpt lat="42.799104" lon="12.020487"></trkpt>
      <trkpt lat="42.794417" lon="12.025454"></trkpt>
      <trkpt lat="42.791984" lon="12.027506"></trkpt>
      <trkpt lat="42.78911" lon="12.029346"></trkpt>
      <trkpt lat="42.778773" lon="12.034321"></trkpt>
      <trkpt lat="42.776077" lon="12.036021"></trkpt>
      <trkpt lat="42.773813" lon="12.037854"></trkpt>
      <trkpt lat="42.772246" lon="12.039384"></trkpt>
      <trkpt lat="42.77077" lon="12.041115"></trkpt>
      <trkpt lat="42.762998" lon="12.051767"></trkpt>
      <trkpt lat="42.761054" lon="12.054679"></trkpt>
      <trkpt lat="42.760194" lon="12.056192"></trkpt>
      <trkpt lat="42.757413" lon="12.061967"></trkpt>
      <trkpt lat="42.755789" lon="12.065012"></trkpt>
      <trkpt lat="42.750217" lon="12.073705"></trkpt>
      <trkpt lat="42.743624" lon="12.084455"></trkpt>
      <trkpt lat="42.741883" lon="12.087461"></trkpt>
      <trkpt lat="42.740693" lon="12.089923"></trkpt>
      <trkpt lat="42.729537" lon="12.117834"></trkpt>
      <trkpt lat="42.72288" lon="12.134813"></trkpt>
      <trkpt lat="42.721432" lon="12.138104"></trkpt>
      <trkpt lat="42.719481" lon="12.141529"></trkpt>
      <trkpt lat="42.716993" lon="12.144921"></trkpt>
      <trkpt lat="42.711637" lon="12.150504"></trkpt>
      <trkpt lat="42.707234" lon="12.155967"></trkpt>
      <trkpt lat="42.704576" lon="12.15891"></trkpt>
      <trkpt lat="42.700429" lon="12.162497"></trkpt>
      <trkpt lat="42.630388" lon="12.22139"></trkpt>
      <trkpt lat="42.628384" lon="12.222908"></trkpt>
      <trkpt lat="42.62671" lon="12.223957"></trkpt>
      <trkpt lat="42.625094" lon="12.224812"></trkpt>
      <trkpt lat="42.623422" lon="12.225508"></trkpt>
      <trkpt lat="42.547067" lon="12.252519"></trkpt>
      <trkpt lat="42.54413" lon="12.253389"></trkpt>
      <trkpt lat="42.539357" lon="12.254277"></trkpt>
      <trkpt lat="42.536952" lon="12.254894"></trkpt>
      <trkpt lat="42.534473" lon="12.25585"></trkpt>
      <trkpt lat="42.532334" lon="12.256855"></trkpt>
      <trkpt lat="42.529234" lon="12.259003"></trkpt>
      <trkpt lat="42.525941" lon="12.262068"></trkpt>
      <trkpt lat="42.52464" lon="12.263558"></trkpt>
      <trkpt lat="42.522385" lon="12.2668"></trkpt>
      <trkpt lat="42.518758" lon="12.273382"></trkpt>
      <trkpt lat="42.512237" lon="12.285741"></trkpt>
      <trkpt lat="42.510907" lon="12.288089"></trkpt>
      <trkpt lat="42.507098" lon="12.293953"></trkpt>
      <trkpt lat="42.503172" lon="12.301414"></trkpt>
      <trkpt lat="42.501256" lon="12.304469"></trkpt>
      <trkpt lat="42.500024" lon="12.306175"></trkpt>
      <trkpt lat="42.495878" lon="12.311202"></trkpt>
      <trkpt lat="42.493123" lon="12.315068"></trkpt>
      <trkpt lat="42.489819" lon="12.320551"></trkpt>
      <trkpt lat="42.48357" lon="12.331672"></trkpt>
      <trkpt lat="42.481982" lon="12.334232"></trkpt>
      <trkpt lat="42.480071" lon="12.336778"></trkpt>
      <trkpt lat="42.473026" lon="12.344461"></trkpt>
      <trkpt lat="42.471283" lon="12.346547"></trkpt>
      <trkpt lat="42.469715" lon="12.348758"></trkpt>
      <trkpt lat="42.467297" lon="12.352548"></trkpt>
      <trkpt lat="42.465335" lon="12.355259"></trkpt>
      <trkpt lat="42.461384" lon="12.359965"></trkpt>
      <trkpt lat="42.440342" lon="12.384072"></trkpt>
      <trkpt lat="42.407972" lon="12.41652"></trkpt>
      <trkpt lat="42.404772" lon="12.418959"></trkpt>
      <trkpt lat="42.394783" lon="12.428166"></trkpt>
      <trkpt lat="42.389708" lon="12.431987"></trkpt>
      <trkpt lat="42.388104" lon="12.433312"></trkpt>
      <trkpt lat="42.385827" lon="12.435536"></trkpt>
      <trkpt lat="42.378235" lon="12.44375"></trkpt>
      <trkpt lat="42.376949" lon="12.444932"></trkpt>
      <trkpt lat="42.374594" lon="12.44678"></trkpt>
      <trkpt lat="42.371124" lon="12.448787"></trkpt>
      <trkpt lat="42.368186" lon="12.449899"></trkpt>
      <trkpt lat="42.365859" lon="12.450474"></trkpt>
      <trkpt lat="42.359594" lon="12.451224"></trkpt>
      <trkpt lat="42.357629" lon="12.451645"></trkpt>
      <trkpt lat="42.355854" lon="12.4522"></trkpt>
      <trkpt lat="42.352773" lon="12.453558"></trkpt>
      <trkpt lat="42.349024" lon="12.45546"></trkpt>
      <trkpt lat="42.347151" lon="12.456162"></trkpt>
      <trkpt lat="42.342006" lon="12.457633"></trkpt>
      <trkpt lat="42.340443" lon="12.458224"></trkpt>
      <trkpt lat="42.338532" lon="12.45917"></trkpt>
      <trkpt lat="42.332751" lon="12.462676"></trkpt>
      <trkpt lat="42.330487" lon="12.464355"></trkpt>
      <trkpt lat="42.328409" lon="12.466221"></trkpt>
      <trkpt lat="42.320077" lon="12.474559"></trkpt>
      <trkpt lat="42.317664" lon="12.47654"></trkpt>
      <trkpt lat="42.315216" lon="12.478082"></trkpt>
      <trkpt lat="42.308062" lon="12.481815"></trkpt>
      <trkpt lat="42.306545" lon="12.482742"></trkpt>
      <trkpt lat="42.305002" lon="12.483863"></trkpt>
      <trkpt lat="42.300573" lon="12.487888"></trkpt>
      <trkpt lat="42.28942" lon="12.49897"></trkpt>
      <trkpt lat="42.286738" lon="12.501824"></trkpt>
      <trkpt lat="42.285313" lon="12.503625"></trkpt>
      <trkpt lat="42.283346" lon="12.50672"></trkpt>
      <trkpt lat="42.280943" lon="12.511379"></trkpt>
      <trkpt lat="42.279006" lon="12.515443"></trkpt>
      <trkpt lat="42.277209" lon="12.518748"></trkpt>
      <trkpt lat="42.275513" lon="12.521211"></trkpt>
      <trkpt lat="42.273818" lon="12.523057"></trkpt>
      <trkpt lat="42.268743" lon="12.526241"></trkpt>
      <trkpt lat="42.262439" lon="12.528269"></trkpt>
      <trkpt lat="42.261101" lon="12.528526"></trkpt>
      <trkpt lat="42.257725" lon="12.528711"></trkpt>
      <trkpt lat="42.249648" lon="12.528164"></trkpt>
      <trkpt lat="42.243751" lon="12.526936"></trkpt>
      <trkpt lat="42.234029" lon="12.524413"></trkpt>
      <trkpt lat="42.222837" lon="12.522258"></trkpt>
      <trkpt lat="42.219221" lon="12.522095"></trkpt>
      <trkpt lat="42.209876" lon="12.523554"></trkpt>
      <trkpt lat="42.190177" lon="12.529208"></trkpt>
      <trkpt lat="42.175596" lon="12.533943"></trkpt>
      <trkpt lat="42.167289" lon="12.537244"></trkpt>
      <trkpt lat="42.154672" lon="12.545197"></trkpt>
      <trkpt lat="42.149035" lon="12.548116"></trkpt>
      <trkpt lat="42.146614" lon="12.549052"></trkpt>
      <trkpt lat="42.139548" lon="12.551111"></trkpt>
      <trkpt lat="42.136055" lon="12.551827"></trkpt>
      <trkpt lat="42.134536" lon="12.551832"></trkpt>
      <trkpt lat="42.131691" lon="12.551498"></trkpt>
      <trkpt lat="42.127857" lon="12.5515"></trkpt>
      <trkpt lat="42.126632" lon="12.551622"></trkpt>
      <trkpt lat="42.118735" lon="12.552968"></trkpt>
      <trkpt lat="42.116395" lon="12.553095"></trkpt>
      <trkpt lat="42.114853" lon="12.553059"></trkpt>
      <trkpt lat="42.112408" lon="12.552681"></trkpt>
      <trkpt lat="42.110929" lon="12.552324"></trkpt>
      <trkpt lat="42.108609" lon="12.551568"></trkpt>
      <trkpt lat="42.100615" lon="12.547951"></trkpt>
      <trkpt lat="42.091888" lon="12.542416"></trkpt>
      <trkpt lat="42.089771" lon="12.541251"></trkpt>
      <trkpt lat="42.066224" lon="12.531518"></trkpt>
      <trkpt lat="42.06343" lon="12.530751"></trkpt>
      <trkpt lat="42.062328" lon="12.530665"></trkpt>
      <trkpt lat="42.043885" lon="12.530489"></trkpt>
      <trkpt lat="42.040972" lon="12.530359"></trkpt>
      <trkpt lat="42.033851" lon="12.529228"></trkpt>
      <trkpt lat="42.03152" lon="12.528561"></trkpt>
      <trkpt lat="42.02878" lon="12.527361"></trkpt>
      <trkpt lat="42.021856" lon="12.523154"></trkpt>
      <trkpt lat="42.019598" lon="12.522048"></trkpt>
      <trkpt lat="42.017845" lon="12.521395"></trkpt>
      <trkpt lat="42.015551" lon="12.520781"></trkpt>
      <trkpt lat="42.013379" lon="12.520436"></trkpt>
      <trkpt lat="42.004988" lon="12.519896"></trkpt>
      <trkpt lat="42.002751" lon="12.519862"></trkpt>
      <trkpt lat="41.997829" lon="12.519407"></trkpt>
      <trkpt lat="41.996341" lon="12.519092"></trkpt>
      <trkpt lat="41.994817" lon="12.518387"></trkpt>
      <trkpt lat="41.990704" lon="12.51559"></trkpt>
      <trkpt lat="41.985488" lon="12.51007"></trkpt>
      <trkpt lat="41.984671" lon="12.509324"></trkpt>
      <trkpt lat="41.98378" lon="12.508828"></trkpt>
      <trkpt lat="41.982581" lon="12.508564"></trkpt>
      <trkpt lat="41.974906" lon="12.508446"></trkpt>
      <trkpt lat="41.967012" lon="12.509696"></trkpt>
      <trkpt lat="41.959548" lon="12.51052"></trkpt>
      <trkpt lat="41.949436" lon="12.509998"></trkpt>
      <trkpt lat="41.94729" lon="12.510165"></trkpt>
      <trkpt lat="41.944647" lon="12.510552"></trkpt>
      <trkpt lat="41.943409" lon="12.511208"></trkpt>
      <trkpt lat="41.942438" lon="12.51195"></trkpt>
      <trkpt lat="41.941804" lon="12.512613"></trkpt>
      <trkpt lat="41.938684" lon="12.518199"></trkpt>
      <trkpt lat="41.937992" lon="12.519177"></trkpt>
      <trkpt lat="41.93703" lon="12.519986"></trkpt>
      <trkpt lat="41.934844" lon="12.521064"></trkpt>
      <trkpt lat="41.933819" lon="12.521841"></trkpt>
      <trkpt lat="41.933238" lon="12.522529"></trkpt>
      <trkpt lat="41.930443" lon="12.526587"></trkpt>
      <trkpt lat="41.929709" lon="12.52734"></trkpt>
      <trkpt lat="41.929081" lon="12.527772"></trkpt>
      <trkpt lat="41.928036" lon="12.528169"></trkpt>
      <trkpt lat="41.926866" lon="12.528214"></trkpt>
      <trkpt lat="41.922751" lon="12.526894"></trkpt>
      <trkpt lat="41.922043" lon="12.526796"></trkpt>
      <trkpt lat="41.918318" lon="12.527399"></trkpt>
      <trkpt lat="41.916729" lon="12.527814"></trkpt>
      <trkpt lat="41.915941" lon="12.528136"></trkpt>
      <trkpt lat="41.911625" lon="12.530648"></trkpt>
      <trkpt lat="41.910251" lon="12.531559"></trkpt>
      <trkpt lat="41.907833" lon="12.532875"></trkpt>
      <trkpt lat="41.906324" lon="12.533224"></trkpt>
      <trkpt lat="41.905368" lon="12.533261"></trkpt>
      <trkpt lat="41.904744" lon="12.53315"></trkpt>
      <trkpt lat="41.903538" lon="12.532675"></trkpt>
      <trkpt lat="41.90096" lon="12.531106"></trkpt>
      <trkpt lat="41.897871" lon="12.528836"></trkpt>
      <trkpt lat="41.896271" lon="12.528095"></trkpt>
      <trkpt lat="41.894855" lon="12.526865"></trkpt>
      <trkpt lat="41.894098" lon="12.525805"></trkpt>
      <trkpt lat="41.893627" lon="12.524664"></trkpt>
      <trkpt lat="41.892598" lon="12.519635"></trkpt>
      <trkpt lat="41.892518" lon="12.517125"></trkpt>
      <trkpt lat="41.892695" lon="12.516179"></trkpt>
      <trkpt lat="41.893068" lon="12.515233"></trkpt>
      <trkpt lat="41.900701" lon="12.502458"></trkpt>
      <trkpt lat="41.89806" lon="12.506829"></trkpt>
      <trkpt lat="41.897577" lon="12.507814"></trkpt>
      <trkpt lat="41.895716" lon="12.510505"></trkpt>
      <trkpt lat="41.892885" lon="12.515292"></trkpt>
      <trkpt lat="41.892549" lon="12.516198"></trkpt>
      <trkpt lat="41.892386" lon="12.517018"></trkpt>
      <trkpt lat="41.8924" lon="12.519209"></trkpt>
      <trkpt lat="41.893407" lon="12.524586"></trkpt>
      <trkpt lat="41.894336" lon="12.527542"></trkpt>
      <trkpt lat="41.89506" lon="12.532764"></trkpt>
      <trkpt lat="41.896292" lon="12.539321"></trkpt>
      <trkpt lat="41.897541" lon="12.544637"></trkpt>
      <trkpt lat="41.898238" lon="12.548185"></trkpt>
      <trkpt lat="41.899166" lon="12.554252"></trkpt>
      <trkpt lat="41.902412" lon="12.570344"></trkpt>
      <trkpt lat="41.914077" lon="12.630391"></trkpt>
      <trkpt lat="41.914475" lon="12.633189"></trkpt>
      <trkpt lat="41.916477" lon="12.655144"></trkpt>
      <trkpt lat="41.916958" lon="12.6592"></trkpt>
      <trkpt lat="41.917763" lon="12.663115"></trkpt>
      <trkpt lat="41.921289" lon="12.676838"></trkpt>
      <trkpt lat="41.922328" lon="12.682551"></trkpt>
      <trkpt lat="41.922648" lon="12.685682"></trkpt>
      <trkpt lat="41.922828" lon="12.689794"></trkpt>
      <trkpt lat="41.92275" lon="12.693418"></trkpt>
      <trkpt lat="41.92248" lon="12.696858"></trkpt>
      <trkpt lat="41.921919" lon="12.700772"></trkpt>
      <trkpt lat="41.921459" lon="12.703115"></trkpt>
      <trkpt lat="41.920777" lon="12.705868"></trkpt>
      <trkpt lat="41.919671" lon="12.709446"></trkpt>
      <trkpt lat="41.918116" lon="12.713396"></trkpt>
      <trkpt lat="41.916845" lon="12.716059"></trkpt>
      <trkpt lat="41.915029" lon="12.719256"></trkpt>
      <trkpt lat="41.913064" lon="12.722156"></trkpt>
      <trkpt lat="41.911111" lon="12.724605"></trkpt>
      <trkpt lat="41.907011" lon="12.729143"></trkpt>
      <trkpt lat="41.904911" lon="12.731286"></trkpt>
      <trkpt lat="41.900715" lon="12.735231"></trkpt>
      <trkpt lat="41.89787" lon="12.73836"></trkpt>
      <trkpt lat="41.894808" lon="12.742504"></trkpt>
      <trkpt lat="41.888087" lon="12.752678"></trkpt>
      <trkpt lat="41.885508" lon="12.755843"></trkpt>
      <trkpt lat="41.882959" lon="12.758426"></trkpt>
      <trkpt lat="41.881001" lon="12.760118"></trkpt>
      <trkpt lat="41.879144" lon="12.76153"></trkpt>
      <trkpt lat="41.877447" lon="12.762641"></trkpt>
      <trkpt lat="41.875103" lon="12.763955"></trkpt>
      <trkpt lat="41.835131" lon="12.783142"></trkpt>
      <trkpt lat="41.832198" lon="12.78468"></trkpt>
      <trkpt lat="41.830502" lon="12.785772"></trkpt>
      <trkpt lat="41.827928" lon="12.78792"></trkpt>
      <trkpt lat="41.823185" lon="12.792745"></trkpt>
      <trkpt lat="41.811374" lon="12.80659"></trkpt>
      <trkpt lat="41.792457" lon="12.827997"></trkpt>
      <trkpt lat="41.791247" lon="12.829994"></trkpt>
      <trkpt lat="41.790083" lon="12.832397"></trkpt>
      <trkpt lat="41.779029" lon="12.852914"></trkpt>
      <trkpt lat="41.77788" lon="12.855202"></trkpt>
      <trkpt lat="41.776348" lon="12.858664"></trkpt>
      <trkpt lat="41.774309" lon="12.864157"></trkpt>
      <trkpt lat="41.766017" lon="12.889051"></trkpt>
      <trkpt lat="41.76487" lon="12.892647"></trkpt>
      <trkpt lat="41.76376" lon="12.896753"></trkpt>
      <trkpt lat="41.76288" lon="12.900919"></trkpt>
      <trkpt lat="41.762094" lon="12.905855"></trkpt>
      <trkpt lat="41.760973" lon="12.916993"></trkpt>
      <trkpt lat="41.760393" lon="12.921277"></trkpt>
      <trkpt lat="41.754486" lon="12.95217"></trkpt>
      <trkpt lat="41.749524" lon="12.979972"></trkpt>
      <trkpt lat="41.749" lon="12.983924"></trkpt>
      <trkpt lat="41.748617" lon="12.988577"></trkpt>
      <trkpt lat="41.748412" lon="13.002352"></trkpt>
      <trkpt lat="41.748207" lon="13.005626"></trkpt>
      <trkpt lat="41.747804" lon="13.008797"></trkpt>
      <trkpt lat="41.746789" lon="13.014785"></trkpt>
      <trkpt lat="41.745565" lon="13.020042"></trkpt>
      <trkpt lat="41.744252" lon="13.024475"></trkpt>
      <trkpt lat="41.742767" lon="13.02877"></trkpt>
      <trkpt lat="41.741099" lon="13.032949"></trkpt>
      <trkpt lat="41.739591" lon="13.036316"></trkpt>
      <trkpt lat="41.737622" lon="13.04022"></trkpt>
      <trkpt lat="41.73466" lon="13.045363"></trkpt>
      <trkpt lat="41.727639" lon="13.055846"></trkpt>
      <trkpt lat="41.726279" lon="13.058048"></trkpt>
      <trkpt lat="41.724154" lon="13.06196"></trkpt>
      <trkpt lat="41.721825" lon="13.066964"></trkpt>
      <trkpt lat="41.697899" lon="13.121676"></trkpt>
      <trkpt lat="41.69605" lon="13.126831"></trkpt>
      <trkpt lat="41.692549" lon="13.13806"></trkpt>
      <trkpt lat="41.682127" lon="13.165544"></trkpt>
      <trkpt lat="41.679599" lon="13.171431"></trkpt>
      <trkpt lat="41.676836" lon="13.176693"></trkpt>
      <trkpt lat="41.673879" lon="13.181502"></trkpt>
      <trkpt lat="41.668889" lon="13.188608"></trkpt>
      <trkpt lat="41.666195" lon="13.193118"></trkpt>
      <trkpt lat="41.663932" lon="13.197623"></trkpt>
      <trkpt lat="41.650082" lon="13.228261"></trkpt>
      <trkpt lat="41.648004" lon="13.232209"></trkpt>
      <trkpt lat="41.645832" lon="13.235934"></trkpt>
      <trkpt lat="41.642783" lon="13.240572"></trkpt>
      <trkpt lat="41.640303" lon="13.243932"></trkpt>
      <trkpt lat="41.63608" lon="13.249"></trkpt>
      <trkpt lat="41.633491" lon="13.251662"></trkpt>
      <trkpt lat="41.631716" lon="13.253354"></trkpt>
      <trkpt lat="41.626469" lon="13.257487"></trkpt>
      <trkpt lat="41.623641" lon="13.259273"></trkpt>
      <trkpt lat="41.620776" lon="13.260802"></trkpt>
      <trkpt lat="41.608086" lon="13.266651"></trkpt>
      <trkpt lat="41.602838" lon="13.269318"></trkpt>
      <trkpt lat="41.600424" lon="13.271254"></trkpt>
      <trkpt lat="41.595629" lon="13.275544"></trkpt>
      <trkpt lat="41.587884" lon="13.28405"></trkpt>
      <trkpt lat="41.584923" lon="13.287"></trkpt>
      <trkpt lat="41.572735" lon="13.296729"></trkpt>
      <trkpt lat="41.569703" lon="13.299504"></trkpt>
      <trkpt lat="41.565816" lon="13.303312"></trkpt>
      <trkpt lat="41.561947" lon="13.30791"></trkpt>
      <trkpt lat="41.557678" lon="13.313613"></trkpt>
      <trkpt lat="41.553976" lon="13.319341"></trkpt>
      <trkpt lat="41.551453" lon="13.323798"></trkpt>
      <trkpt lat="41.542236" lon="13.341549"></trkpt>
      <trkpt lat="41.540243" lon="13.345505"></trkpt>
      <trkpt lat="41.538364" lon="13.349831"></trkpt>
      <trkpt lat="41.536781" lon="13.354176"></trkpt>
      <trkpt lat="41.535732" lon="13.357621"></trkpt>
      <trkpt lat="41.534821" lon="13.361165"></trkpt>
      <trkpt lat="41.533892" lon="13.365592"></trkpt>
      <trkpt lat="41.533105" lon="13.371218"></trkpt>
      <trkpt lat="41.531602" lon="13.386334"></trkpt>
      <trkpt lat="41.531139" lon="13.389389"></trkpt>
      <trkpt lat="41.530315" lon="13.393687"></trkpt>
      <trkpt lat="41.529" lon="13.398807"></trkpt>
      <trkpt lat="41.524458" lon="13.41283"></trkpt>
      <trkpt lat="41.523826" lon="13.415035"></trkpt>
      <trkpt lat="41.522652" lon="13.419957"></trkpt>
      <trkpt lat="41.521945" lon="13.423887"></trkpt>
      <trkpt lat="41.519434" lon="13.440628"></trkpt>
      <trkpt lat="41.518726" lon="13.446776"></trkpt>
      <trkpt lat="41.518585" lon="13.449258"></trkpt>
      <trkpt lat="41.518502" lon="13.4541"></trkpt>
      <trkpt lat="41.518596" lon="13.457348"></trkpt>
      <trkpt lat="41.519424" lon="13.475566"></trkpt>
      <trkpt lat="41.519932" lon="13.496676"></trkpt>
      <trkpt lat="41.520302" lon="13.501771"></trkpt>
      <trkpt lat="41.520847" lon="13.506124"></trkpt>
      <trkpt lat="41.522571" lon="13.5155"></trkpt>
      <trkpt lat="41.523307" lon="13.520182"></trkpt>
      <trkpt lat="41.524153" lon="13.528792"></trkpt>
      <trkpt lat="41.524768" lon="13.533616"></trkpt>
      <trkpt lat="41.525504" lon="13.537566"></trkpt>
      <trkpt lat="41.5272" lon="13.544955"></trkpt>
      <trkpt lat="41.528075" lon="13.549396"></trkpt>
      <trkpt lat="41.528753" lon="13.55413"></trkpt>
      <trkpt lat="41.529103" lon="13.558053"></trkpt>
      <trkpt lat="41.529293" lon="13.562879"></trkpt>
      <trkpt lat="41.529133" lon="13.569397"></trkpt>
      <trkpt lat="41.528494" lon="13.575695"></trkpt>
      <trkpt lat="41.527871" lon="13.579653"></trkpt>
      <trkpt lat="41.52728" lon="13.582526"></trkpt>
      <trkpt lat="41.525651" lon="13.588727"></trkpt>
      <trkpt lat="41.524176" lon="13.593062"></trkpt>
      <trkpt lat="41.513518" lon="13.61979"></trkpt>
      <trkpt lat="41.5109" lon="13.625262"></trkpt>
      <trkpt lat="41.504239" lon="13.637249"></trkpt>
      <trkpt lat="41.501866" lon="13.641849"></trkpt>
      <trkpt lat="41.499407" lon="13.647283"></trkpt>
      <trkpt lat="41.497134" lon="13.653075"></trkpt>
      <trkpt lat="41.49535" lon="13.658427"></trkpt>
      <trkpt lat="41.493888" lon="13.663511"></trkpt>
      <trkpt lat="41.48904" lon="13.683324"></trkpt>
      <trkpt lat="41.487017" lon="13.693345"></trkpt>
      <trkpt lat="41.486322" lon="13.696272"></trkpt>
      <trkpt lat="41.484941" lon="13.701065"></trkpt>
      <trkpt lat="41.483615" lon="13.704836"></trkpt>
      <trkpt lat="41.481637" lon="13.709539"></trkpt>
      <trkpt lat="41.473778" lon="13.726371"></trkpt>
      <trkpt lat="41.469293" lon="13.73689"></trkpt>
      <trkpt lat="41.467648" lon="13.741149"></trkpt>
      <trkpt lat="41.465932" lon="13.746092"></trkpt>
      <trkpt lat="41.461858" lon="13.759334"></trkpt>
      <trkpt lat="41.459349" lon="13.76597"></trkpt>
      <trkpt lat="41.457182" lon="13.770758"></trkpt>
      <trkpt lat="41.447465" lon="13.789791"></trkpt>
      <trkpt lat="41.446259" lon="13.792519"></trkpt>
      <trkpt lat="41.443379" lon="13.799756"></trkpt>
      <trkpt lat="41.441352" lon="13.80556"></trkpt>
      <trkpt lat="41.439648" lon="13.811921"></trkpt>
      <trkpt lat="41.437075" lon="13.824643"></trkpt>
      <trkpt lat="41.435617" lon="13.832543"></trkpt>
      <trkpt lat="41.433935" lon="13.845438"></trkpt>
      <trkpt lat="41.43329" lon="13.849424"></trkpt>
      <trkpt lat="41.428733" lon="13.870239"></trkpt>
      <trkpt lat="41.427634" lon="13.876314"></trkpt>
      <trkpt lat="41.426976" lon="13.88122"></trkpt>
      <trkpt lat="41.426471" lon="13.886469"></trkpt>
      <trkpt lat="41.425715" lon="13.901275"></trkpt>
      <trkpt lat="41.425399" lon="13.905258"></trkpt>
      <trkpt lat="41.424609" lon="13.911249"></trkpt>
      <trkpt lat="41.423394" lon="13.917312"></trkpt>
      <trkpt lat="41.422195" lon="13.921858"></trkpt>
      <trkpt lat="41.420431" lon="13.927235"></trkpt>
      <trkpt lat="41.405423" lon="13.965992"></trkpt>
      <trkpt lat="41.401558" lon="13.973314"></trkpt>
      <trkpt lat="41.399028" lon="13.977351"></trkpt>
      <trkpt lat="41.396679" lon="13.980674"></trkpt>
      <trkpt lat="41.394664" lon="13.983232"></trkpt>
      <trkpt lat="41.388875" lon="13.989961"></trkpt>
      <trkpt lat="41.386504" lon="13.992963"></trkpt>
      <trkpt lat="41.361471" lon="14.026844"></trkpt>
      <trkpt lat="41.354921" lon="14.035862"></trkpt>
      <trkpt lat="41.352983" lon="14.038306"></trkpt>
      <trkpt lat="41.346852" lon="14.046521"></trkpt>
      <trkpt lat="41.340516" lon="14.056253"></trkpt>
      <trkpt lat="41.334779" lon="14.064532"></trkpt>
      <trkpt lat="41.331828" lon="14.068604"></trkpt>
      <trkpt lat="41.329354" lon="14.071678"></trkpt>
      <trkpt lat="41.325118" lon="14.076364"></trkpt>
      <trkpt lat="41.322311" lon="14.079119"></trkpt>
      <trkpt lat="41.318601" lon="14.082178"></trkpt>
      <trkpt lat="41.314439" lon="14.084954"></trkpt>
      <trkpt lat="41.311573" lon="14.086502"></trkpt>
      <trkpt lat="41.309439" lon="14.08748"></trkpt>
      <trkpt lat="41.306914" lon="14.088461"></trkpt>
      <trkpt lat="41.302578" lon="14.089801"></trkpt>
      <trkpt lat="41.298644" lon="14.090361"></trkpt>
      <trkpt lat="41.295699" lon="14.090612"></trkpt>
      <trkpt lat="41.271573" lon="14.091094"></trkpt>
      <trkpt lat="41.260127" lon="14.090927"></trkpt>
      <trkpt lat="41.24387" lon="14.091531"></trkpt>
      <trkpt lat="41.232314" lon="14.090726"></trkpt>
      <trkpt lat="41.228383" lon="14.090768"></trkpt>
      <trkpt lat="41.226444" lon="14.090948"></trkpt>
      <trkpt lat="41.223656" lon="14.091411"></trkpt>
      <trkpt lat="41.220548" lon="14.092154"></trkpt>
      <trkpt lat="41.215166" lon="14.094101"></trkpt>
      <trkpt lat="41.211557" lon="14.095736"></trkpt>
      <trkpt lat="41.210114" lon="14.096555"></trkpt>
      <trkpt lat="41.20738" lon="14.098583"></trkpt>
      <trkpt lat="41.202191" lon="14.102818"></trkpt>
      <trkpt lat="41.19918" lon="14.105902"></trkpt>
      <trkpt lat="41.19607" lon="14.109602"></trkpt>
      <trkpt lat="41.184749" lon="14.123963"></trkpt>
      <trkpt lat="41.181197" lon="14.127954"></trkpt>
      <trkpt lat="41.17858" lon="14.130561"></trkpt>
      <trkpt lat="41.174794" lon="14.133915"></trkpt>
      <trkpt lat="41.170743" lon="14.137052"></trkpt>
      <trkpt lat="41.154734" lon="14.147625"></trkpt>
      <trkpt lat="41.150969" lon="14.149799"></trkpt>
      <trkpt lat="41.148125" lon="14.151135"></trkpt>
      <trkpt lat="41.145594" lon="14.152113"></trkpt>
      <trkpt lat="41.142529" lon="14.153036"></trkpt>
      <trkpt lat="41.138104" lon="14.153922"></trkpt>
      <trkpt lat="41.125965" lon="14.154884"></trkpt>
      <trkpt lat="41.122872" lon="14.155452"></trkpt>
      <trkpt lat="41.119847" lon="14.156253"></trkpt>
      <trkpt lat="41.1181" lon="14.156838"></trkpt>
      <trkpt lat="41.115096" lon="14.158069"></trkpt>
      <trkpt lat="41.111166" lon="14.160082"></trkpt>
      <trkpt lat="41.108452" lon="14.161798"></trkpt>
      <trkpt lat="41.105261" lon="14.16417"></trkpt>
      <trkpt lat="41.102934" lon="14.166177"></trkpt>
      <trkpt lat="41.101042" lon="14.167998"></trkpt>
      <trkpt lat="41.098336" lon="14.170911"></trkpt>
      <trkpt lat="41.090208" lon="14.180095"></trkpt>
      <trkpt lat="41.088192" lon="14.182125"></trkpt>
      <trkpt lat="41.086162" lon="14.183959"></trkpt>
      <trkpt lat="41.038198" lon="14.222206"></trkpt>
      <trkpt lat="41.035699" lon="14.224292"></trkpt>
      <trkpt lat="41.0338" lon="14.226059"></trkpt>
      <trkpt lat="41.030201" lon="14.229945"></trkpt>
      <trkpt lat="41.027129" lon="14.233874"></trkpt>
      <trkpt lat="41.02463" lon="14.2377"></trkpt>
      <trkpt lat="41.016888" lon="14.250628"></trkpt>
      <trkpt lat="41.015558" lon="14.252096"></trkpt>
      <trkpt lat="41.014538" lon="14.252766"></trkpt>
      <trkpt lat="41.012154" lon="14.253989"></trkpt>
      <trkpt lat="41.010737" lon="14.254317"></trkpt>
      <trkpt lat="41.009849" lon="14.254249"></trkpt>
      <trkpt lat="41.009027" lon="14.253998"></trkpt>
      <trkpt lat="41.008104" lon="14.253467"></trkpt>
      <trkpt lat="41.007479" lon="14.252917"></trkpt>
      <trkpt lat="41.002621" lon="14.246889"></trkpt>
      <trkpt lat="40.996077" lon="14.2378"></trkpt>
      <trkpt lat="40.983368" lon="14.220604"></trkpt>
      <trkpt lat="40.982399" lon="14.21939"></trkpt>
      <trkpt lat="40.981191" lon="14.218367"></trkpt>
      <trkpt lat="40.980207" lon="14.217833"></trkpt>
      <trkpt lat="40.979195" lon="14.217505"></trkpt>
      <trkpt lat="40.978246" lon="14.217377"></trkpt>
      <trkpt lat="40.977193" lon="14.217459"></trkpt>
      <trkpt lat="40.974581" lon="14.217932"></trkpt>
      <trkpt lat="40.96703" lon="14.220082"></trkpt>
      <trkpt lat="40.965254" lon="14.220753"></trkpt>
      <trkpt lat="40.963636" lon="14.22195"></trkpt>
      <trkpt lat="40.963025" lon="14.222605"></trkpt>
      <trkpt lat="40.962318" lon="14.223606"></trkpt>
      <trkpt lat="40.942" lon="14.260162"></trkpt>
      <trkpt lat="40.939665" lon="14.26405"></trkpt>
      <trkpt lat="40.93775" lon="14.266388"></trkpt>
      <trkpt lat="40.913895" lon="14.288066"></trkpt>
      <trkpt lat="40.911369" lon="14.290534"></trkpt>
      <trkpt lat="40.910485" lon="14.291785"></trkpt>
      <trkpt lat="40.909467" lon="14.293859"></trkpt>
      <trkpt lat="40.90692" lon="14.300915"></trkpt>
      <trkpt lat="40.904109" lon="14.309801"></trkpt>
      <trkpt lat="40.903324" lon="14.311583"></trkpt>
      <trkpt lat="40.902327" lon="14.313162"></trkpt>
      <trkpt lat="40.901139" lon="14.314436"></trkpt>
      <trkpt lat="40.900101" lon="14.315275"></trkpt>
      <trkpt lat="40.89843" lon="14.316186"></trkpt>
      <trkpt lat="40.897555" lon="14.316503"></trkpt>
      <trkpt lat="40.89623" lon="14.31677"></trkpt>
      <trkpt lat="40.894312" lon="14.316798"></trkpt>
      <trkpt lat="40.892844" lon="14.31652"></trkpt>
      <trkpt lat="40.887318" lon="14.314691"></trkpt>
      <trkpt lat="40.88603" lon="14.314123"></trkpt>
      <trkpt lat="40.884485" lon="14.313191"></trkpt>
      <trkpt lat="40.883244" lon="14.312063"></trkpt>
      <trkpt lat="40.881821" lon="14.31033"></trkpt>
      <trkpt lat="40.876769" lon="14.303369"></trkpt>
      <trkpt lat="40.875893" lon="14.302347"></trkpt>
      <trkpt lat="40.872369" lon="14.299043"></trkpt>
      <trkpt lat="40.868178" lon="14.296507"></trkpt>
      <trkpt lat="40.866708" lon="14.295466"></trkpt>
      <trkpt lat="40.865862" lon="14.295121"></trkpt>
      <trkpt lat="40.86493" lon="14.295045"></trkpt>
      <trkpt lat="40.860944" lon="14.295914"></trkpt>
      <trkpt lat="40.860012" lon="14.296004"></trkpt>
      <trkpt lat="40.858891" lon="14.295725"></trkpt>
      <trkpt lat="40.857836" lon="14.294981"></trkpt>
      <trkpt lat="40.857127" lon="14.294067"></trkpt>
      <trkpt lat="40.855226" lon="14.290462"></trkpt>
      <trkpt lat="40.854834" lon="14.289606"></trkpt>
      <trkpt lat="40.854455" lon="14.288344"></trkpt>
      <trkpt lat="40.853609" lon="14.280861"></trkpt>
      <trkpt lat="40.853514" lon="14.277511"></trkpt>
      <trkpt lat="40.853106" lon="14.273408"></trkpt>
      <trkpt lat="40.853514" lon="14.277511"></trkpt>
      <trkpt lat="40.853674" lon="14.283607"></trkpt>
      <trkpt lat="40.854082" lon="14.28889"></trkpt>
      <trkpt lat="40.853922" lon="14.290059"></trkpt>
      <trkpt lat="40.85303" lon="14.294144"></trkpt>
      <trkpt lat="40.852407" lon="14.295584"></trkpt>
      <trkpt lat="40.851765" lon="14.296279"></trkpt>
      <trkpt lat="40.851124" lon="14.296668"></trkpt>
      <trkpt lat="40.850602" lon="14.29682"></trkpt>
      <trkpt lat="40.849393" lon="14.29689"></trkpt>
      <trkpt lat="40.84843" lon="14.296687"></trkpt>
      <trkpt lat="40.845909" lon="14.295255"></trkpt>
      <trkpt lat="40.842842" lon="14.294077"></trkpt>
      <trkpt lat="40.842198" lon="14.29404"></trkpt>
      <trkpt lat="40.841357" lon="14.294224"></trkpt>
      <trkpt lat="40.840654" lon="14.294608"></trkpt>
      <trkpt lat="40.840037" lon="14.295166"></trkpt>
      <trkpt lat="40.838652" lon="14.297007"></trkpt>
      <trkpt lat="40.832399" lon="14.306296"></trkpt>
      <trkpt lat="40.831196" lon="14.307863"></trkpt>
      <trkpt lat="40.814502" lon="14.331996"></trkpt>
      <trkpt lat="40.813229" lon="14.333381"></trkpt>
      <trkpt lat="40.811858" lon="14.334566"></trkpt>
      <trkpt lat="40.81084" lon="14.33529"></trkpt>
      <trkpt lat="40.808049" lon="14.336924"></trkpt>
      <trkpt lat="40.806056" lon="14.338541"></trkpt>
      <trkpt lat="40.79847" lon="14.347379"></trkpt>
      <trkpt lat="40.797476" lon="14.348341"></trkpt>
      <trkpt lat="40.79541" lon="14.350047"></trkpt>
      <trkpt lat="40.79419" lon="14.351422"></trkpt>
      <trkpt lat="40.792922" lon="14.353602"></trkpt>
      <trkpt lat="40.791375" lon="14.358223"></trkpt>
      <trkpt lat="40.790272" lon="14.360295"></trkpt>
      <trkpt lat="40.789349" lon="14.361512"></trkpt>
      <trkpt lat="40.788617" lon="14.362281"></trkpt>
      <trkpt lat="40.783918" lon="14.36641"></trkpt>
      <trkpt lat="40.782908" lon="14.367503"></trkpt>
      <trkpt lat="40.781951" lon="14.368811"></trkpt>
      <trkpt lat="40.77968" lon="14.372459"></trkpt>
      <trkpt lat="40.775341" lon="14.37769"></trkpt>
      <trkpt lat="40.755828" lon="14.407038"></trkpt>
      <trkpt lat="40.754167" lon="14.409895"></trkpt>
      <trkpt lat="40.753177" lon="14.412413"></trkpt>
      <trkpt lat="40.752618" lon="14.414668"></trkpt>
      <trkpt lat="40.752242" lon="14.417637"></trkpt>
      <trkpt lat="40.75223" lon="14.42023"></trkpt>
      <trkpt lat="40.75264" lon="14.423616"></trkpt>
      <trkpt lat="40.75596" lon="14.43859"></trkpt>
      <trkpt lat="40.756127" lon="14.440329"></trkpt>
      <trkpt lat="40.756078" lon="14.442314"></trkpt>
      <trkpt lat="40.75561" lon="14.444978"></trkpt>
      <trkpt lat="40.754701" lon="14.447428"></trkpt>
      <trkpt lat="40.750168" lon="14.455077"></trkpt>
      <trkpt lat="40.748449" lon="14.458961"></trkpt>
      <trkpt lat="40.747829" lon="14.461024"></trkpt>
      <trkpt lat="40.746654" lon="14.466007"></trkpt>
      <trkpt lat="40.745844" lon="14.470129"></trkpt>
      <trkpt lat="40.745746" lon="14.471835"></trkpt>
      <trkpt lat="40.745881" lon="14.501094"></trkpt>
  </trkseg></trk>
</gpx>
