<?xml version="1.0" encoding="UTF-8"?>
<gpx version="1.1" creator="yatutbuv" xmlns="http://www.topografix.com/GPX/1/1">
  <trk><name>2007 Lviv -&gt; Odesa (743.7km)</name><trkseg>
      <trkpt lat="49.839945" lon="23.993772"></trkpt>
      <trkpt lat="49.841276" lon="23.994646"></trkpt>
      <trkpt lat="49.841934" lon="23.99493"></trkpt>
      <trkpt lat="49.842646" lon="23.994939"></trkpt>
      <trkpt lat="49.843637" lon="23.994579"></trkpt>
      <trkpt lat="49.847303" lon="23.991983"></trkpt>
      <trkpt lat="49.85448" lon="23.985582"></trkpt>
      <trkpt lat="49.855296" lon="23.985123"></trkpt>
      <trkpt lat="49.856654" lon="23.984837"></trkpt>
      <trkpt lat="49.857485" lon="23.984898"></trkpt>
      <trkpt lat="49.858298" lon="23.985124"></trkpt>
      <trkpt lat="49.85887" lon="23.985435"></trkpt>
      <trkpt lat="49.859539" lon="23.986006"></trkpt>
      <trkpt lat="49.861282" lon="23.988163"></trkpt>
      <trkpt lat="49.862642" lon="23.98948"></trkpt>
      <trkpt lat="49.863231" lon="23.990297"></trkpt>
      <trkpt lat="49.863732" lon="23.991439"></trkpt>
      <trkpt lat="49.86402" lon="23.992839"></trkpt>
      <trkpt lat="49.86405" lon="23.994464"></trkpt>
      <trkpt lat="49.863691" lon="23.997612"></trkpt>
      <trkpt lat="49.863387" lon="23.998863"></trkpt>
      <trkpt lat="49.862997" lon="23.999845"></trkpt>
      <trkpt lat="49.862159" lon="24.001076"></trkpt>
      <trkpt lat="49.860024" lon="24.003756"></trkpt>
      <trkpt lat="49.858705" lon="24.005781"></trkpt>
      <trkpt lat="49.855869" lon="24.011986"></trkpt>
      <trkpt lat="49.852082" lon="24.018602"></trkpt>
      <trkpt lat="49.851499" lon="24.02017"></trkpt>
      <trkpt lat="49.851218" lon="24.02161"></trkpt>
      <trkpt lat="49.850609" lon="24.030223"></trkpt>
      <trkpt lat="49.852206" lon="24.040596"></trkpt>
      <trkpt lat="49.852455" lon="24.043121"></trkpt>
      <trkpt lat="49.853064" lon="24.052394"></trkpt>
      <trkpt lat="49.853241" lon="24.060972"></trkpt>
      <trkpt lat="49.853212" lon="24.064426"></trkpt>
      <trkpt lat="49.852746" lon="24.069032"></trkpt>
      <trkpt lat="49.851609" lon="24.092197"></trkpt>
      <trkpt lat="49.848807" lon="24.117352"></trkpt>
      <trkpt lat="49.847896" lon="24.123779"></trkpt>
      <trkpt lat="49.84738" lon="24.128418"></trkpt>
      <trkpt lat="49.847133" lon="24.13398"></trkpt>
      <trkpt lat="49.847066" lon="24.140299"></trkpt>
      <trkpt lat="49.846254" lon="24.160866"></trkpt>
      <trkpt lat="49.845814" lon="24.164489"></trkpt>
      <trkpt lat="49.843738" lon="24.175254"></trkpt>
      <trkpt lat="49.843544" lon="24.177766"></trkpt>
      <trkpt lat="49.843618" lon="24.179587"></trkpt>
      <trkpt lat="49.843828" lon="24.181321"></trkpt>
      <trkpt lat="49.84667" lon="24.196021"></trkpt>
      <trkpt lat="49.847041" lon="24.197407"></trkpt>
      <trkpt lat="49.847473" lon="24.198446"></trkpt>
      <trkpt lat="49.84838" lon="24.19991"></trkpt>
      <trkpt lat="49.848933" lon="24.200507"></trkpt>
      <trkpt lat="49.855504" lon="24.204952"></trkpt>
      <trkpt lat="49.856183" lon="24.205559"></trkpt>
      <trkpt lat="49.857025" lon="24.206676"></trkpt>
      <trkpt lat="49.857518" lon="24.207623"></trkpt>
      <trkpt lat="49.85802" lon="24.20903"></trkpt>
      <trkpt lat="49.858314" lon="24.210393"></trkpt>
      <trkpt lat="49.858545" lon="24.213641"></trkpt>
      <trkpt lat="49.861969" lon="24.287021"></trkpt>
      <trkpt lat="49.862278" lon="24.290099"></trkpt>
      <trkpt lat="49.86437" lon="24.306171"></trkpt>
      <trkpt lat="49.864132" lon="24.318584"></trkpt>
      <trkpt lat="49.864305" lon="24.320781"></trkpt>
      <trkpt lat="49.864626" lon="24.322624"></trkpt>
      <trkpt lat="49.865219" lon="24.324631"></trkpt>
      <trkpt lat="49.876743" lon="24.357899"></trkpt>
      <trkpt lat="49.87726" lon="24.360024"></trkpt>
      <trkpt lat="49.877648" lon="24.362901"></trkpt>
      <trkpt lat="49.877777" lon="24.432888"></trkpt>
      <trkpt lat="49.877877" lon="24.444767"></trkpt>
      <trkpt lat="49.878213" lon="24.448788"></trkpt>
      <trkpt lat="49.879453" lon="24.454899"></trkpt>
      <trkpt lat="49.901663" lon="24.547624"></trkpt>
      <trkpt lat="49.915144" lon="24.599067"></trkpt>
      <trkpt lat="49.915595" lon="24.601421"></trkpt>
      <trkpt lat="49.915916" lon="24.604138"></trkpt>
      <trkpt lat="49.916326" lon="24.61109"></trkpt>
      <trkpt lat="49.917484" lon="24.622195"></trkpt>
      <trkpt lat="49.917451" lon="24.623615"></trkpt>
      <trkpt lat="49.917029" lon="24.625458"></trkpt>
      <trkpt lat="49.916526" lon="24.626583"></trkpt>
      <trkpt lat="49.916094" lon="24.627209"></trkpt>
      <trkpt lat="49.899103" lon="24.645475"></trkpt>
      <trkpt lat="49.898273" lon="24.646507"></trkpt>
      <trkpt lat="49.897196" lon="24.648365"></trkpt>
      <trkpt lat="49.896352" lon="24.650469"></trkpt>
      <trkpt lat="49.87971" lon="24.701824"></trkpt>
      <trkpt lat="49.871152" lon="24.721345"></trkpt>
      <trkpt lat="49.868652" lon="24.726793"></trkpt>
      <trkpt lat="49.867502" lon="24.728422"></trkpt>
      <trkpt lat="49.866098" lon="24.729621"></trkpt>
      <trkpt lat="49.858887" lon="24.732683"></trkpt>
      <trkpt lat="49.857075" lon="24.733957"></trkpt>
      <trkpt lat="49.855625" lon="24.735442"></trkpt>
      <trkpt lat="49.844055" lon="24.749084"></trkpt>
      <trkpt lat="49.842714" lon="24.750345"></trkpt>
      <trkpt lat="49.832617" lon="24.758792"></trkpt>
      <trkpt lat="49.831872" lon="24.759568"></trkpt>
      <trkpt lat="49.831232" lon="24.760473"></trkpt>
      <trkpt lat="49.83042" lon="24.76234"></trkpt>
      <trkpt lat="49.825134" lon="24.781032"></trkpt>
      <trkpt lat="49.824626" lon="24.782435"></trkpt>
      <trkpt lat="49.824038" lon="24.783631"></trkpt>
      <trkpt lat="49.823396" lon="24.784605"></trkpt>
      <trkpt lat="49.820083" lon="24.788728"></trkpt>
      <trkpt lat="49.818701" lon="24.790772"></trkpt>
      <trkpt lat="49.814543" lon="24.797074"></trkpt>
      <trkpt lat="49.813707" lon="24.79878"></trkpt>
      <trkpt lat="49.813249" lon="24.800204"></trkpt>
      <trkpt lat="49.81287" lon="24.802065"></trkpt>
      <trkpt lat="49.806986" lon="24.845245"></trkpt>
      <trkpt lat="49.806115" lon="24.849264"></trkpt>
      <trkpt lat="49.799934" lon="24.868277"></trkpt>
      <trkpt lat="49.798876" lon="24.870333"></trkpt>
      <trkpt lat="49.793703" lon="24.878953"></trkpt>
      <trkpt lat="49.787063" lon="24.896775"></trkpt>
      <trkpt lat="49.78656" lon="24.898426"></trkpt>
      <trkpt lat="49.785841" lon="24.901669"></trkpt>
      <trkpt lat="49.775815" lon="24.9609"></trkpt>
      <trkpt lat="49.775196" lon="24.962914"></trkpt>
      <trkpt lat="49.770147" lon="24.974859"></trkpt>
      <trkpt lat="49.769554" lon="24.976605"></trkpt>
      <trkpt lat="49.769293" lon="24.978228"></trkpt>
      <trkpt lat="49.769002" lon="24.984005"></trkpt>
      <trkpt lat="49.768741" lon="24.98636"></trkpt>
      <trkpt lat="49.76629" lon="24.998803"></trkpt>
      <trkpt lat="49.765929" lon="25.000222"></trkpt>
      <trkpt lat="49.758546" lon="25.017969"></trkpt>
      <trkpt lat="49.757198" lon="25.02025"></trkpt>
      <trkpt lat="49.752152" lon="25.027341"></trkpt>
      <trkpt lat="49.751169" lon="25.029105"></trkpt>
      <trkpt lat="49.750698" lon="25.030471"></trkpt>
      <trkpt lat="49.748595" lon="25.041898"></trkpt>
      <trkpt lat="49.748442" lon="25.044219"></trkpt>
      <trkpt lat="49.748574" lon="25.045629"></trkpt>
      <trkpt lat="49.74887" lon="25.046962"></trkpt>
      <trkpt lat="49.750868" lon="25.052239"></trkpt>
      <trkpt lat="49.751229" lon="25.054763"></trkpt>
      <trkpt lat="49.751103" lon="25.057095"></trkpt>
      <trkpt lat="49.750534" lon="25.05931"></trkpt>
      <trkpt lat="49.742033" lon="25.083384"></trkpt>
      <trkpt lat="49.741385" lon="25.08454"></trkpt>
      <trkpt lat="49.738412" lon="25.088723"></trkpt>
      <trkpt lat="49.736345" lon="25.091084"></trkpt>
      <trkpt lat="49.721077" lon="25.102343"></trkpt>
      <trkpt lat="49.720083" lon="25.103239"></trkpt>
      <trkpt lat="49.698454" lon="25.128149"></trkpt>
      <trkpt lat="49.695499" lon="25.130454"></trkpt>
      <trkpt lat="49.684429" lon="25.137737"></trkpt>
      <trkpt lat="49.67835" lon="25.143721"></trkpt>
      <trkpt lat="49.677511" lon="25.144998"></trkpt>
      <trkpt lat="49.676864" lon="25.146609"></trkpt>
      <trkpt lat="49.676506" lon="25.148193"></trkpt>
      <trkpt lat="49.676292" lon="25.15002"></trkpt>
      <trkpt lat="49.674681" lon="25.170389"></trkpt>
      <trkpt lat="49.673852" lon="25.178297"></trkpt>
      <trkpt lat="49.673332" lon="25.181034"></trkpt>
      <trkpt lat="49.667192" lon="25.201455"></trkpt>
      <trkpt lat="49.66575" lon="25.207207"></trkpt>
      <trkpt lat="49.662169" lon="25.218963"></trkpt>
      <trkpt lat="49.661742" lon="25.219862"></trkpt>
      <trkpt lat="49.66098" lon="25.221047"></trkpt>
      <trkpt lat="49.655515" lon="25.228611"></trkpt>
      <trkpt lat="49.654634" lon="25.230431"></trkpt>
      <trkpt lat="49.648065" lon="25.259204"></trkpt>
      <trkpt lat="49.647763" lon="25.261693"></trkpt>
      <trkpt lat="49.647748" lon="25.26449"></trkpt>
      <trkpt lat="49.649268" lon="25.299782"></trkpt>
      <trkpt lat="49.64843" lon="25.324736"></trkpt>
      <trkpt lat="49.647944" lon="25.326833"></trkpt>
      <trkpt lat="49.647105" lon="25.328602"></trkpt>
      <trkpt lat="49.637097" lon="25.340887"></trkpt>
      <trkpt lat="49.636195" lon="25.342515"></trkpt>
      <trkpt lat="49.635707" lon="25.344153"></trkpt>
      <trkpt lat="49.635491" lon="25.345601"></trkpt>
      <trkpt lat="49.635461" lon="25.347211"></trkpt>
      <trkpt lat="49.636477" lon="25.363504"></trkpt>
      <trkpt lat="49.636104" lon="25.371923"></trkpt>
      <trkpt lat="49.636113" lon="25.373641"></trkpt>
      <trkpt lat="49.63632" lon="25.375862"></trkpt>
      <trkpt lat="49.637345" lon="25.381513"></trkpt>
      <trkpt lat="49.637575" lon="25.383883"></trkpt>
      <trkpt lat="49.637489" lon="25.386016"></trkpt>
      <trkpt lat="49.637002" lon="25.391044"></trkpt>
      <trkpt lat="49.636623" lon="25.392835"></trkpt>
      <trkpt lat="49.636147" lon="25.394085"></trkpt>
      <trkpt lat="49.630594" lon="25.403481"></trkpt>
      <trkpt lat="49.629616" lon="25.405723"></trkpt>
      <trkpt lat="49.629043" lon="25.407626"></trkpt>
      <trkpt lat="49.628795" lon="25.408945"></trkpt>
      <trkpt lat="49.62863" lon="25.41095"></trkpt>
      <trkpt lat="49.628419" lon="25.425655"></trkpt>
      <trkpt lat="49.62813" lon="25.427957"></trkpt>
      <trkpt lat="49.627599" lon="25.430091"></trkpt>
      <trkpt lat="49.62702" lon="25.431665"></trkpt>
      <trkpt lat="49.626052" lon="25.433567"></trkpt>
      <trkpt lat="49.622559" lon="25.438282"></trkpt>
      <trkpt lat="49.621747" lon="25.439634"></trkpt>
      <trkpt lat="49.620525" lon="25.442781"></trkpt>
      <trkpt lat="49.620147" lon="25.444667"></trkpt>
      <trkpt lat="49.620099" lon="25.446505"></trkpt>
      <trkpt lat="49.620247" lon="25.447908"></trkpt>
      <trkpt lat="49.620967" lon="25.451906"></trkpt>
      <trkpt lat="49.621618" lon="25.453856"></trkpt>
      <trkpt lat="49.622033" lon="25.454642"></trkpt>
      <trkpt lat="49.622762" lon="25.455637"></trkpt>
      <trkpt lat="49.626656" lon="25.459291"></trkpt>
      <trkpt lat="49.627396" lon="25.460151"></trkpt>
      <trkpt lat="49.628269" lon="25.461839"></trkpt>
      <trkpt lat="49.628751" lon="25.463536"></trkpt>
      <trkpt lat="49.628924" lon="25.464904"></trkpt>
      <trkpt lat="49.628943" lon="25.466445"></trkpt>
      <trkpt lat="49.628785" lon="25.467913"></trkpt>
      <trkpt lat="49.628201" lon="25.470638"></trkpt>
      <trkpt lat="49.628111" lon="25.472005"></trkpt>
      <trkpt lat="49.628483" lon="25.488792"></trkpt>
      <trkpt lat="49.62864" lon="25.490382"></trkpt>
      <trkpt lat="49.630228" lon="25.499774"></trkpt>
      <trkpt lat="49.630528" lon="25.501033"></trkpt>
      <trkpt lat="49.631598" lon="25.504014"></trkpt>
      <trkpt lat="49.631923" lon="25.505291"></trkpt>
      <trkpt lat="49.632035" lon="25.506365"></trkpt>
      <trkpt lat="49.632" lon="25.507476"></trkpt>
      <trkpt lat="49.631597" lon="25.509305"></trkpt>
      <trkpt lat="49.630886" lon="25.510689"></trkpt>
      <trkpt lat="49.627063" lon="25.51576"></trkpt>
      <trkpt lat="49.619503" lon="25.527982"></trkpt>
      <trkpt lat="49.6181" lon="25.530737"></trkpt>
      <trkpt lat="49.614377" lon="25.539619"></trkpt>
      <trkpt lat="49.613225" lon="25.541556"></trkpt>
      <trkpt lat="49.612486" lon="25.542427"></trkpt>
      <trkpt lat="49.611632" lon="25.543181"></trkpt>
      <trkpt lat="49.604437" lon="25.547678"></trkpt>
      <trkpt lat="49.603692" lon="25.548295"></trkpt>
      <trkpt lat="49.603204" lon="25.548887"></trkpt>
      <trkpt lat="49.602553" lon="25.55022"></trkpt>
      <trkpt lat="49.599621" lon="25.558694"></trkpt>
      <trkpt lat="49.599175" lon="25.559737"></trkpt>
      <trkpt lat="49.598397" lon="25.561031"></trkpt>
      <trkpt lat="49.595937" lon="25.564413"></trkpt>
      <trkpt lat="49.593072" lon="25.567599"></trkpt>
      <trkpt lat="49.591922" lon="25.568716"></trkpt>
      <trkpt lat="49.590939" lon="25.569367"></trkpt>
      <trkpt lat="49.587268" lon="25.571154"></trkpt>
      <trkpt lat="49.586466" lon="25.571714"></trkpt>
      <trkpt lat="49.585264" lon="25.572803"></trkpt>
      <trkpt lat="49.581406" lon="25.576729"></trkpt>
      <trkpt lat="49.580454" lon="25.577839"></trkpt>
      <trkpt lat="49.579567" lon="25.579374"></trkpt>
      <trkpt lat="49.578148" lon="25.582604"></trkpt>
      <trkpt lat="49.577692" lon="25.583359"></trkpt>
      <trkpt lat="49.576585" lon="25.58475"></trkpt>
      <trkpt lat="49.569001" lon="25.591199"></trkpt>
      <trkpt lat="49.566413" lon="25.593161"></trkpt>
      <trkpt lat="49.56251" lon="25.596615"></trkpt>
      <trkpt lat="49.561071" lon="25.597644"></trkpt>
      <trkpt lat="49.558463" lon="25.598771"></trkpt>
      <trkpt lat="49.556522" lon="25.599859"></trkpt>
      <trkpt lat="49.553918" lon="25.601076"></trkpt>
      <trkpt lat="49.549646" lon="25.602948"></trkpt>
      <trkpt lat="49.548467" lon="25.603765"></trkpt>
      <trkpt lat="49.547513" lon="25.604929"></trkpt>
      <trkpt lat="49.546883" lon="25.605961"></trkpt>
      <trkpt lat="49.533824" lon="25.629296"></trkpt>
      <trkpt lat="49.532909" lon="25.631499"></trkpt>
      <trkpt lat="49.532249" lon="25.633914"></trkpt>
      <trkpt lat="49.514659" lon="25.723702"></trkpt>
      <trkpt lat="49.513905" lon="25.728369"></trkpt>
      <trkpt lat="49.51296" lon="25.732501"></trkpt>
      <trkpt lat="49.512871" lon="25.734279"></trkpt>
      <trkpt lat="49.513046" lon="25.73597"></trkpt>
      <trkpt lat="49.51543" lon="25.74666"></trkpt>
      <trkpt lat="49.516007" lon="25.747991"></trkpt>
      <trkpt lat="49.516943" lon="25.749236"></trkpt>
      <trkpt lat="49.517708" lon="25.749821"></trkpt>
      <trkpt lat="49.51869" lon="25.750181"></trkpt>
      <trkpt lat="49.519666" lon="25.750166"></trkpt>
      <trkpt lat="49.520235" lon="25.750044"></trkpt>
      <trkpt lat="49.524403" lon="25.748922"></trkpt>
      <trkpt lat="49.525251" lon="25.748949"></trkpt>
      <trkpt lat="49.526111" lon="25.749306"></trkpt>
      <trkpt lat="49.52784" lon="25.750747"></trkpt>
      <trkpt lat="49.528451" lon="25.751447"></trkpt>
      <trkpt lat="49.531005" lon="25.755612"></trkpt>
      <trkpt lat="49.531832" lon="25.757449"></trkpt>
      <trkpt lat="49.533177" lon="25.762383"></trkpt>
      <trkpt lat="49.533553" lon="25.764207"></trkpt>
      <trkpt lat="49.533614" lon="25.76522"></trkpt>
      <trkpt lat="49.53346" lon="25.766913"></trkpt>
      <trkpt lat="49.532038" lon="25.775222"></trkpt>
      <trkpt lat="49.531798" lon="25.777425"></trkpt>
      <trkpt lat="49.531886" lon="25.779342"></trkpt>
      <trkpt lat="49.532995" lon="25.785036"></trkpt>
      <trkpt lat="49.533089" lon="25.786966"></trkpt>
      <trkpt lat="49.532853" lon="25.788834"></trkpt>
      <trkpt lat="49.531488" lon="25.795853"></trkpt>
      <trkpt lat="49.531412" lon="25.797348"></trkpt>
      <trkpt lat="49.531519" lon="25.798372"></trkpt>
      <trkpt lat="49.531842" lon="25.799629"></trkpt>
      <trkpt lat="49.532605" lon="25.80108"></trkpt>
      <trkpt lat="49.533213" lon="25.801786"></trkpt>
      <trkpt lat="49.534151" lon="25.802412"></trkpt>
      <trkpt lat="49.563232" lon="25.81604"></trkpt>
      <trkpt lat="49.564661" lon="25.816905"></trkpt>
      <trkpt lat="49.565656" lon="25.817754"></trkpt>
      <trkpt lat="49.586017" lon="25.838733"></trkpt>
      <trkpt lat="49.587899" lon="25.841011"></trkpt>
      <trkpt lat="49.605444" lon="25.869888"></trkpt>
      <trkpt lat="49.605857" lon="25.870833"></trkpt>
      <trkpt lat="49.606178" lon="25.87202"></trkpt>
      <trkpt lat="49.606372" lon="25.87417"></trkpt>
      <trkpt lat="49.606192" lon="25.875906"></trkpt>
      <trkpt lat="49.605722" lon="25.877492"></trkpt>
      <trkpt lat="49.598113" lon="25.892114"></trkpt>
      <trkpt lat="49.597373" lon="25.893887"></trkpt>
      <trkpt lat="49.596864" lon="25.895975"></trkpt>
      <trkpt lat="49.596632" lon="25.899211"></trkpt>
      <trkpt lat="49.596486" lon="25.915663"></trkpt>
      <trkpt lat="49.596378" lon="25.917544"></trkpt>
      <trkpt lat="49.596171" lon="25.933771"></trkpt>
      <trkpt lat="49.595881" lon="25.935836"></trkpt>
      <trkpt lat="49.595183" lon="25.937876"></trkpt>
      <trkpt lat="49.592918" lon="25.941507"></trkpt>
      <trkpt lat="49.58332" lon="25.956123"></trkpt>
      <trkpt lat="49.582227" lon="25.95741"></trkpt>
      <trkpt lat="49.575324" lon="25.964555"></trkpt>
      <trkpt lat="49.574384" lon="25.965409"></trkpt>
      <trkpt lat="49.573817" lon="25.96575"></trkpt>
      <trkpt lat="49.57303" lon="25.966047"></trkpt>
      <trkpt lat="49.572252" lon="25.966138"></trkpt>
      <trkpt lat="49.57085" lon="25.965842"></trkpt>
      <trkpt lat="49.567686" lon="25.96435"></trkpt>
      <trkpt lat="49.566911" lon="25.964092"></trkpt>
      <trkpt lat="49.565675" lon="25.964132"></trkpt>
      <trkpt lat="49.56458" lon="25.964659"></trkpt>
      <trkpt lat="49.564017" lon="25.965151"></trkpt>
      <trkpt lat="49.563402" lon="25.965909"></trkpt>
      <trkpt lat="49.556348" lon="25.976077"></trkpt>
      <trkpt lat="49.555581" lon="25.977459"></trkpt>
      <trkpt lat="49.555103" lon="25.978814"></trkpt>
      <trkpt lat="49.554842" lon="25.980033"></trkpt>
      <trkpt lat="49.554185" lon="25.98472"></trkpt>
      <trkpt lat="49.55224" lon="26.005997"></trkpt>
      <trkpt lat="49.551681" lon="26.009357"></trkpt>
      <trkpt lat="49.54887" lon="26.023178"></trkpt>
      <trkpt lat="49.548767" lon="26.024495"></trkpt>
      <trkpt lat="49.548906" lon="26.026564"></trkpt>
      <trkpt lat="49.54922" lon="26.028291"></trkpt>
      <trkpt lat="49.554185" lon="26.040742"></trkpt>
      <trkpt lat="49.554866" lon="26.043438"></trkpt>
      <trkpt lat="49.554963" lon="26.045367"></trkpt>
      <trkpt lat="49.554416" lon="26.049643"></trkpt>
      <trkpt lat="49.554373" lon="26.053773"></trkpt>
      <trkpt lat="49.554019" lon="26.060765"></trkpt>
      <trkpt lat="49.554168" lon="26.062307"></trkpt>
      <trkpt lat="49.554481" lon="26.063777"></trkpt>
      <trkpt lat="49.555657" lon="26.067447"></trkpt>
      <trkpt lat="49.555872" lon="26.068427"></trkpt>
      <trkpt lat="49.555996" lon="26.071891"></trkpt>
      <trkpt lat="49.555835" lon="26.073822"></trkpt>
      <trkpt lat="49.555564" lon="26.074971"></trkpt>
      <trkpt lat="49.555141" lon="26.076133"></trkpt>
      <trkpt lat="49.547678" lon="26.093279"></trkpt>
      <trkpt lat="49.54686" lon="26.094727"></trkpt>
      <trkpt lat="49.544422" lon="26.098083"></trkpt>
      <trkpt lat="49.54382" lon="26.099078"></trkpt>
      <trkpt lat="49.530597" lon="26.128893"></trkpt>
      <trkpt lat="49.530261" lon="26.130107"></trkpt>
      <trkpt lat="49.529922" lon="26.132478"></trkpt>
      <trkpt lat="49.528675" lon="26.143725"></trkpt>
      <trkpt lat="49.528366" lon="26.14555"></trkpt>
      <trkpt lat="49.524602" lon="26.15919"></trkpt>
      <trkpt lat="49.524078" lon="26.161938"></trkpt>
      <trkpt lat="49.523345" lon="26.169362"></trkpt>
      <trkpt lat="49.52325" lon="26.171685"></trkpt>
      <trkpt lat="49.523376" lon="26.173943"></trkpt>
      <trkpt lat="49.523966" lon="26.177331"></trkpt>
      <trkpt lat="49.524748" lon="26.179761"></trkpt>
      <trkpt lat="49.525636" lon="26.181624"></trkpt>
      <trkpt lat="49.526359" lon="26.182752"></trkpt>
      <trkpt lat="49.531791" lon="26.190154"></trkpt>
      <trkpt lat="49.532352" lon="26.191099"></trkpt>
      <trkpt lat="49.532846" lon="26.192237"></trkpt>
      <trkpt lat="49.533211" lon="26.19344"></trkpt>
      <trkpt lat="49.533542" lon="26.195306"></trkpt>
      <trkpt lat="49.5336" lon="26.196571"></trkpt>
      <trkpt lat="49.533527" lon="26.198252"></trkpt>
      <trkpt lat="49.528923" lon="26.2364"></trkpt>
      <trkpt lat="49.527106" lon="26.310275"></trkpt>
      <trkpt lat="49.526742" lon="26.31552"></trkpt>
      <trkpt lat="49.526029" lon="26.32103"></trkpt>
      <trkpt lat="49.512845" lon="26.397953"></trkpt>
      <trkpt lat="49.511705" lon="26.401308"></trkpt>
      <trkpt lat="49.504708" lon="26.417948"></trkpt>
      <trkpt lat="49.50348" lon="26.421266"></trkpt>
      <trkpt lat="49.492776" lon="26.462025"></trkpt>
      <trkpt lat="49.492483" lon="26.463549"></trkpt>
      <trkpt lat="49.492291" lon="26.465356"></trkpt>
      <trkpt lat="49.492252" lon="26.466975"></trkpt>
      <trkpt lat="49.492396" lon="26.469334"></trkpt>
      <trkpt lat="49.495641" lon="26.497791"></trkpt>
      <trkpt lat="49.496234" lon="26.501351"></trkpt>
      <trkpt lat="49.497111" lon="26.504804"></trkpt>
      <trkpt lat="49.508832" lon="26.541898"></trkpt>
      <trkpt lat="49.509518" lon="26.544641"></trkpt>
      <trkpt lat="49.509978" lon="26.547225"></trkpt>
      <trkpt lat="49.510266" lon="26.549607"></trkpt>
      <trkpt lat="49.510442" lon="26.552665"></trkpt>
      <trkpt lat="49.510353" lon="26.55683"></trkpt>
      <trkpt lat="49.508802" lon="26.573851"></trkpt>
      <trkpt lat="49.508657" lon="26.576906"></trkpt>
      <trkpt lat="49.508905" lon="26.626404"></trkpt>
      <trkpt lat="49.509406" lon="26.635263"></trkpt>
      <trkpt lat="49.50938" lon="26.638109"></trkpt>
      <trkpt lat="49.508835" lon="26.641633"></trkpt>
      <trkpt lat="49.499473" lon="26.685772"></trkpt>
      <trkpt lat="49.498887" lon="26.689624"></trkpt>
      <trkpt lat="49.498655" lon="26.694498"></trkpt>
      <trkpt lat="49.499143" lon="26.724263"></trkpt>
      <trkpt lat="49.498985" lon="26.727666"></trkpt>
      <trkpt lat="49.498383" lon="26.731766"></trkpt>
      <trkpt lat="49.496051" lon="26.741089"></trkpt>
      <trkpt lat="49.48574" lon="26.779999"></trkpt>
      <trkpt lat="49.470051" lon="26.826172"></trkpt>
      <trkpt lat="49.46929" lon="26.82873"></trkpt>
      <trkpt lat="49.466141" lon="26.844423"></trkpt>
      <trkpt lat="49.45593" lon="26.897474"></trkpt>
      <trkpt lat="49.454782" lon="26.901918"></trkpt>
      <trkpt lat="49.45404" lon="26.904052"></trkpt>
      <trkpt lat="49.449168" lon="26.916241"></trkpt>
      <trkpt lat="49.448354" lon="26.917637"></trkpt>
      <trkpt lat="49.447011" lon="26.919213"></trkpt>
      <trkpt lat="49.446017" lon="26.921072"></trkpt>
      <trkpt lat="49.436956" lon="26.942278"></trkpt>
      <trkpt lat="49.435925" lon="26.943533"></trkpt>
      <trkpt lat="49.430713" lon="26.947548"></trkpt>
      <trkpt lat="49.428268" lon="26.950974"></trkpt>
      <trkpt lat="49.424554" lon="26.955233"></trkpt>
      <trkpt lat="49.423014" lon="26.957355"></trkpt>
      <trkpt lat="49.421946" lon="26.959117"></trkpt>
      <trkpt lat="49.420644" lon="26.961771"></trkpt>
      <trkpt lat="49.41967" lon="26.964266"></trkpt>
      <trkpt lat="49.417142" lon="26.97285"></trkpt>
      <trkpt lat="49.41676" lon="26.974902"></trkpt>
      <trkpt lat="49.416604" lon="26.976885"></trkpt>
      <trkpt lat="49.416585" lon="26.978544"></trkpt>
      <trkpt lat="49.416755" lon="26.980674"></trkpt>
      <trkpt lat="49.41886" lon="26.994129"></trkpt>
      <trkpt lat="49.418922" lon="26.997069"></trkpt>
      <trkpt lat="49.41865" lon="26.999734"></trkpt>
      <trkpt lat="49.418025" lon="27.002538"></trkpt>
      <trkpt lat="49.406094" lon="27.050197"></trkpt>
      <trkpt lat="49.404821" lon="27.054"></trkpt>
      <trkpt lat="49.385163" lon="27.101396"></trkpt>
      <trkpt lat="49.384275" lon="27.103836"></trkpt>
      <trkpt lat="49.371578" lon="27.148592"></trkpt>
      <trkpt lat="49.358657" lon="27.189513"></trkpt>
      <trkpt lat="49.357656" lon="27.191602"></trkpt>
      <trkpt lat="49.356244" lon="27.193613"></trkpt>
      <trkpt lat="49.355215" lon="27.194682"></trkpt>
      <trkpt lat="49.352727" lon="27.196907"></trkpt>
      <trkpt lat="49.351722" lon="27.198027"></trkpt>
      <trkpt lat="49.350958" lon="27.199091"></trkpt>
      <trkpt lat="49.350163" lon="27.200656"></trkpt>
      <trkpt lat="49.348257" lon="27.205097"></trkpt>
      <trkpt lat="49.347666" lon="27.206113"></trkpt>
      <trkpt lat="49.344165" lon="27.211023"></trkpt>
      <trkpt lat="49.343567" lon="27.212237"></trkpt>
      <trkpt lat="49.341256" lon="27.217852"></trkpt>
      <trkpt lat="49.339786" lon="27.22017"></trkpt>
      <trkpt lat="49.338916" lon="27.221147"></trkpt>
      <trkpt lat="49.337929" lon="27.221998"></trkpt>
      <trkpt lat="49.329923" lon="27.228102"></trkpt>
      <trkpt lat="49.325234" lon="27.231025"></trkpt>
      <trkpt lat="49.323085" lon="27.233176"></trkpt>
      <trkpt lat="49.322133" lon="27.234441"></trkpt>
      <trkpt lat="49.321576" lon="27.235572"></trkpt>
      <trkpt lat="49.321109" lon="27.237187"></trkpt>
      <trkpt lat="49.319759" lon="27.245041"></trkpt>
      <trkpt lat="49.318721" lon="27.249941"></trkpt>
      <trkpt lat="49.317269" lon="27.254726"></trkpt>
      <trkpt lat="49.316188" lon="27.257445"></trkpt>
      <trkpt lat="49.315105" lon="27.259384"></trkpt>
      <trkpt lat="49.313688" lon="27.261242"></trkpt>
      <trkpt lat="49.301201" lon="27.272324"></trkpt>
      <trkpt lat="49.300341" lon="27.2733"></trkpt>
      <trkpt lat="49.299165" lon="27.275091"></trkpt>
      <trkpt lat="49.298267" lon="27.277033"></trkpt>
      <trkpt lat="49.294566" lon="27.286306"></trkpt>
      <trkpt lat="49.286785" lon="27.30922"></trkpt>
      <trkpt lat="49.286186" lon="27.311365"></trkpt>
      <trkpt lat="49.282358" lon="27.327385"></trkpt>
      <trkpt lat="49.276903" lon="27.344462"></trkpt>
      <trkpt lat="49.276279" lon="27.346849"></trkpt>
      <trkpt lat="49.27568" lon="27.35003"></trkpt>
      <trkpt lat="49.272361" lon="27.380205"></trkpt>
      <trkpt lat="49.272316" lon="27.386056"></trkpt>
      <trkpt lat="49.272188" lon="27.387768"></trkpt>
      <trkpt lat="49.270188" lon="27.404216"></trkpt>
      <trkpt lat="49.268521" lon="27.410996"></trkpt>
      <trkpt lat="49.268123" lon="27.413076"></trkpt>
      <trkpt lat="49.267233" lon="27.426442"></trkpt>
      <trkpt lat="49.266111" lon="27.447978"></trkpt>
      <trkpt lat="49.265654" lon="27.451101"></trkpt>
      <trkpt lat="49.264827" lon="27.453829"></trkpt>
      <trkpt lat="49.263555" lon="27.456405"></trkpt>
      <trkpt lat="49.262421" lon="27.457965"></trkpt>
      <trkpt lat="49.255233" lon="27.466455"></trkpt>
      <trkpt lat="49.253683" lon="27.467923"></trkpt>
      <trkpt lat="49.25205" lon="27.469088"></trkpt>
      <trkpt lat="49.247837" lon="27.471552"></trkpt>
      <trkpt lat="49.246117" lon="27.472318"></trkpt>
      <trkpt lat="49.244353" lon="27.472873"></trkpt>
      <trkpt lat="49.240749" lon="27.473468"></trkpt>
      <trkpt lat="49.236733" lon="27.474349"></trkpt>
      <trkpt lat="49.227043" lon="27.478138"></trkpt>
      <trkpt lat="49.225982" lon="27.478697"></trkpt>
      <trkpt lat="49.224768" lon="27.4796"></trkpt>
      <trkpt lat="49.22335" lon="27.481186"></trkpt>
      <trkpt lat="49.222127" lon="27.483149"></trkpt>
      <trkpt lat="49.218393" lon="27.490838"></trkpt>
      <trkpt lat="49.216217" lon="27.496022"></trkpt>
      <trkpt lat="49.215247" lon="27.497873"></trkpt>
      <trkpt lat="49.214414" lon="27.499032"></trkpt>
      <trkpt lat="49.20725" lon="27.507767"></trkpt>
      <trkpt lat="49.206437" lon="27.508989"></trkpt>
      <trkpt lat="49.205709" lon="27.510592"></trkpt>
      <trkpt lat="49.205268" lon="27.512316"></trkpt>
      <trkpt lat="49.205068" lon="27.514285"></trkpt>
      <trkpt lat="49.205206" lon="27.516659"></trkpt>
      <trkpt lat="49.205629" lon="27.518427"></trkpt>
      <trkpt lat="49.206145" lon="27.519768"></trkpt>
      <trkpt lat="49.206737" lon="27.520827"></trkpt>
      <trkpt lat="49.21044" lon="27.526055"></trkpt>
      <trkpt lat="49.211176" lon="27.527285"></trkpt>
      <trkpt lat="49.211911" lon="27.529065"></trkpt>
      <trkpt lat="49.212535" lon="27.531434"></trkpt>
      <trkpt lat="49.212724" lon="27.533057"></trkpt>
      <trkpt lat="49.212761" lon="27.535296"></trkpt>
      <trkpt lat="49.211515" lon="27.551789"></trkpt>
      <trkpt lat="49.211443" lon="27.55354"></trkpt>
      <trkpt lat="49.211529" lon="27.555339"></trkpt>
      <trkpt lat="49.211787" lon="27.557603"></trkpt>
      <trkpt lat="49.212143" lon="27.559307"></trkpt>
      <trkpt lat="49.214899" lon="27.568151"></trkpt>
      <trkpt lat="49.215405" lon="27.570064"></trkpt>
      <trkpt lat="49.215649" lon="27.57166"></trkpt>
      <trkpt lat="49.215743" lon="27.573397"></trkpt>
      <trkpt lat="49.215605" lon="27.575794"></trkpt>
      <trkpt lat="49.214951" lon="27.578728"></trkpt>
      <trkpt lat="49.211095" lon="27.589124"></trkpt>
      <trkpt lat="49.210278" lon="27.592129"></trkpt>
      <trkpt lat="49.20896" lon="27.601567"></trkpt>
      <trkpt lat="49.208369" lon="27.610432"></trkpt>
      <trkpt lat="49.208006" lon="27.613998"></trkpt>
      <trkpt lat="49.205052" lon="27.629088"></trkpt>
      <trkpt lat="49.202872" lon="27.645662"></trkpt>
      <trkpt lat="49.202449" lon="27.647942"></trkpt>
      <trkpt lat="49.201834" lon="27.649983"></trkpt>
      <trkpt lat="49.201156" lon="27.651549"></trkpt>
      <trkpt lat="49.19877" lon="27.655683"></trkpt>
      <trkpt lat="49.197766" lon="27.657747"></trkpt>
      <trkpt lat="49.191969" lon="27.674302"></trkpt>
      <trkpt lat="49.191289" lon="27.677488"></trkpt>
      <trkpt lat="49.190499" lon="27.685932"></trkpt>
      <trkpt lat="49.189731" lon="27.690543"></trkpt>
      <trkpt lat="49.185265" lon="27.706318"></trkpt>
      <trkpt lat="49.184251" lon="27.708917"></trkpt>
      <trkpt lat="49.183447" lon="27.710255"></trkpt>
      <trkpt lat="49.182341" lon="27.711591"></trkpt>
      <trkpt lat="49.180585" lon="27.712975"></trkpt>
      <trkpt lat="49.170583" lon="27.720228"></trkpt>
      <trkpt lat="49.169319" lon="27.721539"></trkpt>
      <trkpt lat="49.168754" lon="27.72239"></trkpt>
      <trkpt lat="49.16752" lon="27.724765"></trkpt>
      <trkpt lat="49.156419" lon="27.749"></trkpt>
      <trkpt lat="49.155531" lon="27.750758"></trkpt>
      <trkpt lat="49.154053" lon="27.752764"></trkpt>
      <trkpt lat="49.148646" lon="27.758292"></trkpt>
      <trkpt lat="49.147664" lon="27.759461"></trkpt>
      <trkpt lat="49.146182" lon="27.762057"></trkpt>
      <trkpt lat="49.143866" lon="27.767137"></trkpt>
      <trkpt lat="49.142512" lon="27.769333"></trkpt>
      <trkpt lat="49.14142" lon="27.770473"></trkpt>
      <trkpt lat="49.137967" lon="27.773265"></trkpt>
      <trkpt lat="49.137193" lon="27.774156"></trkpt>
      <trkpt lat="49.136223" lon="27.775714"></trkpt>
      <trkpt lat="49.135615" lon="27.777121"></trkpt>
      <trkpt lat="49.135161" lon="27.778547"></trkpt>
      <trkpt lat="49.134254" lon="27.783833"></trkpt>
      <trkpt lat="49.1336" lon="27.78644"></trkpt>
      <trkpt lat="49.126087" lon="27.802287"></trkpt>
      <trkpt lat="49.125409" lon="27.803377"></trkpt>
      <trkpt lat="49.115549" lon="27.817118"></trkpt>
      <trkpt lat="49.114214" lon="27.818752"></trkpt>
      <trkpt lat="49.112235" lon="27.820533"></trkpt>
      <trkpt lat="49.111506" lon="27.821419"></trkpt>
      <trkpt lat="49.110938" lon="27.822319"></trkpt>
      <trkpt lat="49.110242" lon="27.823753"></trkpt>
      <trkpt lat="49.109521" lon="27.826419"></trkpt>
      <trkpt lat="49.099317" lon="27.877718"></trkpt>
      <trkpt lat="49.098535" lon="27.882079"></trkpt>
      <trkpt lat="49.098328" lon="27.883801"></trkpt>
      <trkpt lat="49.098256" lon="27.886918"></trkpt>
      <trkpt lat="49.098479" lon="27.889576"></trkpt>
      <trkpt lat="49.103137" lon="27.914594"></trkpt>
      <trkpt lat="49.103472" lon="27.918189"></trkpt>
      <trkpt lat="49.103408" lon="27.920519"></trkpt>
      <trkpt lat="49.102995" lon="27.923636"></trkpt>
      <trkpt lat="49.099985" lon="27.938209"></trkpt>
      <trkpt lat="49.099562" lon="27.939863"></trkpt>
      <trkpt lat="49.087707" lon="27.972861"></trkpt>
      <trkpt lat="49.08662" lon="27.975062"></trkpt>
      <trkpt lat="49.085517" lon="27.976519"></trkpt>
      <trkpt lat="49.084042" lon="27.97778"></trkpt>
      <trkpt lat="49.082924" lon="27.978351"></trkpt>
      <trkpt lat="49.081856" lon="27.978651"></trkpt>
      <trkpt lat="49.068457" lon="27.978487"></trkpt>
      <trkpt lat="49.067187" lon="27.978657"></trkpt>
      <trkpt lat="49.066197" lon="27.978976"></trkpt>
      <trkpt lat="49.064899" lon="27.979656"></trkpt>
      <trkpt lat="49.058985" lon="27.983328"></trkpt>
      <trkpt lat="49.057885" lon="27.984121"></trkpt>
      <trkpt lat="49.057232" lon="27.984766"></trkpt>
      <trkpt lat="49.056133" lon="27.986145"></trkpt>
      <trkpt lat="49.05481" lon="27.98866"></trkpt>
      <trkpt lat="49.054128" lon="27.990766"></trkpt>
      <trkpt lat="49.053674" lon="27.993273"></trkpt>
      <trkpt lat="49.051595" lon="28.021441"></trkpt>
      <trkpt lat="49.051067" lon="28.024511"></trkpt>
      <trkpt lat="49.050059" lon="28.027471"></trkpt>
      <trkpt lat="49.044552" lon="28.038533"></trkpt>
      <trkpt lat="49.04357" lon="28.040844"></trkpt>
      <trkpt lat="49.043081" lon="28.042416"></trkpt>
      <trkpt lat="49.042778" lon="28.044095"></trkpt>
      <trkpt lat="49.042444" lon="28.051111"></trkpt>
      <trkpt lat="49.042194" lon="28.052543"></trkpt>
      <trkpt lat="49.041632" lon="28.054576"></trkpt>
      <trkpt lat="49.037003" lon="28.063651"></trkpt>
      <trkpt lat="49.035556" lon="28.067032"></trkpt>
      <trkpt lat="49.035004" lon="28.068706"></trkpt>
      <trkpt lat="49.034898" lon="28.07093"></trkpt>
      <trkpt lat="49.034288" lon="28.074983"></trkpt>
      <trkpt lat="49.034297" lon="28.07741"></trkpt>
      <trkpt lat="49.034512" lon="28.0791"></trkpt>
      <trkpt lat="49.03508" lon="28.081957"></trkpt>
      <trkpt lat="49.035162" lon="28.086503"></trkpt>
      <trkpt lat="49.035556" lon="28.089205"></trkpt>
      <trkpt lat="49.036907" lon="28.096275"></trkpt>
      <trkpt lat="49.037014" lon="28.097685"></trkpt>
      <trkpt lat="49.036534" lon="28.101795"></trkpt>
      <trkpt lat="49.035449" lon="28.107778"></trkpt>
      <trkpt lat="49.034874" lon="28.109471"></trkpt>
      <trkpt lat="49.03276" lon="28.113184"></trkpt>
      <trkpt lat="49.030895" lon="28.115588"></trkpt>
      <trkpt lat="49.030054" lon="28.116608"></trkpt>
      <trkpt lat="49.028518" lon="28.118155"></trkpt>
      <trkpt lat="49.020795" lon="28.125265"></trkpt>
      <trkpt lat="49.019733" lon="28.126537"></trkpt>
      <trkpt lat="49.018546" lon="28.128541"></trkpt>
      <trkpt lat="49.017606" lon="28.13087"></trkpt>
      <trkpt lat="49.017195" lon="28.132442"></trkpt>
      <trkpt lat="49.012987" lon="28.15374"></trkpt>
      <trkpt lat="49.012519" lon="28.155355"></trkpt>
      <trkpt lat="49.011618" lon="28.157553"></trkpt>
      <trkpt lat="49.010991" lon="28.158699"></trkpt>
      <trkpt lat="49.010134" lon="28.159913"></trkpt>
      <trkpt lat="49.008438" lon="28.161648"></trkpt>
      <trkpt lat="49.006823" lon="28.162657"></trkpt>
      <trkpt lat="49.001218" lon="28.165387"></trkpt>
      <trkpt lat="48.999598" lon="28.16578"></trkpt>
      <trkpt lat="48.998234" lon="28.16584"></trkpt>
      <trkpt lat="48.992176" lon="28.164843"></trkpt>
      <trkpt lat="48.990584" lon="28.164842"></trkpt>
      <trkpt lat="48.989433" lon="28.165083"></trkpt>
      <trkpt lat="48.988132" lon="28.165642"></trkpt>
      <trkpt lat="48.986953" lon="28.16642"></trkpt>
      <trkpt lat="48.986129" lon="28.167152"></trkpt>
      <trkpt lat="48.985094" lon="28.168328"></trkpt>
      <trkpt lat="48.98431" lon="28.169491"></trkpt>
      <trkpt lat="48.983627" lon="28.170767"></trkpt>
      <trkpt lat="48.982897" lon="28.172555"></trkpt>
      <trkpt lat="48.975874" lon="28.199142"></trkpt>
      <trkpt lat="48.97489" lon="28.201545"></trkpt>
      <trkpt lat="48.974017" lon="28.203052"></trkpt>
      <trkpt lat="48.973001" lon="28.204368"></trkpt>
      <trkpt lat="48.971849" lon="28.205454"></trkpt>
      <trkpt lat="48.970617" lon="28.206309"></trkpt>
      <trkpt lat="48.969355" lon="28.20688"></trkpt>
      <trkpt lat="48.968311" lon="28.207142"></trkpt>
      <trkpt lat="48.95077" lon="28.207707"></trkpt>
      <trkpt lat="48.949609" lon="28.207984"></trkpt>
      <trkpt lat="48.948762" lon="28.208319"></trkpt>
      <trkpt lat="48.94709" lon="28.209418"></trkpt>
      <trkpt lat="48.945932" lon="28.210521"></trkpt>
      <trkpt lat="48.944608" lon="28.212322"></trkpt>
      <trkpt lat="48.927902" lon="28.241122"></trkpt>
      <trkpt lat="48.926935" lon="28.242492"></trkpt>
      <trkpt lat="48.925704" lon="28.243765"></trkpt>
      <trkpt lat="48.908928" lon="28.259272"></trkpt>
      <trkpt lat="48.906167" lon="28.262084"></trkpt>
      <trkpt lat="48.904113" lon="28.264808"></trkpt>
      <trkpt lat="48.899343" lon="28.272681"></trkpt>
      <trkpt lat="48.898211" lon="28.274355"></trkpt>
      <trkpt lat="48.890608" lon="28.287136"></trkpt>
      <trkpt lat="48.889365" lon="28.289429"></trkpt>
      <trkpt lat="48.887799" lon="28.292707"></trkpt>
      <trkpt lat="48.882456" lon="28.305136"></trkpt>
      <trkpt lat="48.881618" lon="28.307457"></trkpt>
      <trkpt lat="48.88081" lon="28.310503"></trkpt>
      <trkpt lat="48.880238" lon="28.314227"></trkpt>
      <trkpt lat="48.87891" lon="28.343042"></trkpt>
      <trkpt lat="48.878404" lon="28.346563"></trkpt>
      <trkpt lat="48.877565" lon="28.349434"></trkpt>
      <trkpt lat="48.865219" lon="28.383551"></trkpt>
      <trkpt lat="48.86441" lon="28.386483"></trkpt>
      <trkpt lat="48.863135" lon="28.392611"></trkpt>
      <trkpt lat="48.862764" lon="28.393904"></trkpt>
      <trkpt lat="48.862014" lon="28.395826"></trkpt>
      <trkpt lat="48.86058" lon="28.398276"></trkpt>
      <trkpt lat="48.859959" lon="28.399056"></trkpt>
      <trkpt lat="48.858819" lon="28.400182"></trkpt>
      <trkpt lat="48.857608" lon="28.401047"></trkpt>
      <trkpt lat="48.852457" lon="28.403954"></trkpt>
      <trkpt lat="48.851481" lon="28.404458"></trkpt>
      <trkpt lat="48.850617" lon="28.404754"></trkpt>
      <trkpt lat="48.838407" lon="28.407649"></trkpt>
      <trkpt lat="48.836697" lon="28.40855"></trkpt>
      <trkpt lat="48.835516" lon="28.409561"></trkpt>
      <trkpt lat="48.834811" lon="28.410366"></trkpt>
      <trkpt lat="48.833771" lon="28.411915"></trkpt>
      <trkpt lat="48.833291" lon="28.412873"></trkpt>
      <trkpt lat="48.812001" lon="28.458754"></trkpt>
      <trkpt lat="48.810277" lon="28.461899"></trkpt>
      <trkpt lat="48.80809" lon="28.464883"></trkpt>
      <trkpt lat="48.80624" lon="28.466761"></trkpt>
      <trkpt lat="48.804417" lon="28.468233"></trkpt>
      <trkpt lat="48.802563" lon="28.469344"></trkpt>
      <trkpt lat="48.80062" lon="28.470178"></trkpt>
      <trkpt lat="48.798441" lon="28.470731"></trkpt>
      <trkpt lat="48.78519" lon="28.47253"></trkpt>
      <trkpt lat="48.78375" lon="28.472986"></trkpt>
      <trkpt lat="48.782547" lon="28.473589"></trkpt>
      <trkpt lat="48.781985" lon="28.474015"></trkpt>
      <trkpt lat="48.781266" lon="28.47479"></trkpt>
      <trkpt lat="48.780756" lon="28.475484"></trkpt>
      <trkpt lat="48.780087" lon="28.476725"></trkpt>
      <trkpt lat="48.779473" lon="28.478374"></trkpt>
      <trkpt lat="48.778392" lon="28.483324"></trkpt>
      <trkpt lat="48.777777" lon="28.48526"></trkpt>
      <trkpt lat="48.776805" lon="28.487067"></trkpt>
      <trkpt lat="48.77547" lon="28.488583"></trkpt>
      <trkpt lat="48.769719" lon="28.492266"></trkpt>
      <trkpt lat="48.752057" lon="28.503134"></trkpt>
      <trkpt lat="48.750995" lon="28.504011"></trkpt>
      <trkpt lat="48.747279" lon="28.507765"></trkpt>
      <trkpt lat="48.746041" lon="28.508612"></trkpt>
      <trkpt lat="48.744673" lon="28.509231"></trkpt>
      <trkpt lat="48.743557" lon="28.509487"></trkpt>
      <trkpt lat="48.742542" lon="28.509532"></trkpt>
      <trkpt lat="48.740812" lon="28.509262"></trkpt>
      <trkpt lat="48.739795" lon="28.508877"></trkpt>
      <trkpt lat="48.738747" lon="28.508275"></trkpt>
      <trkpt lat="48.73735" lon="28.507104"></trkpt>
      <trkpt lat="48.736233" lon="28.505774"></trkpt>
      <trkpt lat="48.735354" lon="28.504391"></trkpt>
      <trkpt lat="48.730328" lon="28.49402"></trkpt>
      <trkpt lat="48.728989" lon="28.492286"></trkpt>
      <trkpt lat="48.72773" lon="28.491249"></trkpt>
      <trkpt lat="48.726538" lon="28.490677"></trkpt>
      <trkpt lat="48.725461" lon="28.490389"></trkpt>
      <trkpt lat="48.724384" lon="28.490359"></trkpt>
      <trkpt lat="48.72341" lon="28.490517"></trkpt>
      <trkpt lat="48.722511" lon="28.490836"></trkpt>
      <trkpt lat="48.721309" lon="28.491572"></trkpt>
      <trkpt lat="48.720356" lon="28.492432"></trkpt>
      <trkpt lat="48.719681" lon="28.493214"></trkpt>
      <trkpt lat="48.71886" lon="28.494472"></trkpt>
      <trkpt lat="48.718079" lon="28.496159"></trkpt>
      <trkpt lat="48.717559" lon="28.497861"></trkpt>
      <trkpt lat="48.717261" lon="28.499379"></trkpt>
      <trkpt lat="48.710578" lon="28.558949"></trkpt>
      <trkpt lat="48.709973" lon="28.561959"></trkpt>
      <trkpt lat="48.709399" lon="28.564079"></trkpt>
      <trkpt lat="48.708134" lon="28.567691"></trkpt>
      <trkpt lat="48.707336" lon="28.569386"></trkpt>
      <trkpt lat="48.673284" lon="28.630759"></trkpt>
      <trkpt lat="48.648813" lon="28.667814"></trkpt>
      <trkpt lat="48.646998" lon="28.67002"></trkpt>
      <trkpt lat="48.590019" lon="28.732798"></trkpt>
      <trkpt lat="48.588897" lon="28.733843"></trkpt>
      <trkpt lat="48.587237" lon="28.73506"></trkpt>
      <trkpt lat="48.586035" lon="28.735749"></trkpt>
      <trkpt lat="48.584261" lon="28.736465"></trkpt>
      <trkpt lat="48.58291" lon="28.73678"></trkpt>
      <trkpt lat="48.581059" lon="28.736922"></trkpt>
      <trkpt lat="48.579327" lon="28.736723"></trkpt>
      <trkpt lat="48.577536" lon="28.736216"></trkpt>
      <trkpt lat="48.575848" lon="28.735437"></trkpt>
      <trkpt lat="48.574148" lon="28.734298"></trkpt>
      <trkpt lat="48.562375" lon="28.723916"></trkpt>
      <trkpt lat="48.561347" lon="28.72328"></trkpt>
      <trkpt lat="48.560246" lon="28.722822"></trkpt>
      <trkpt lat="48.559119" lon="28.722567"></trkpt>
      <trkpt lat="48.558217" lon="28.722508"></trkpt>
      <trkpt lat="48.556476" lon="28.722746"></trkpt>
      <trkpt lat="48.555277" lon="28.723202"></trkpt>
      <trkpt lat="48.554523" lon="28.723633"></trkpt>
      <trkpt lat="48.544345" lon="28.731587"></trkpt>
      <trkpt lat="48.541701" lon="28.733748"></trkpt>
      <trkpt lat="48.540431" lon="28.73509"></trkpt>
      <trkpt lat="48.539562" lon="28.73626"></trkpt>
      <trkpt lat="48.524348" lon="28.761509"></trkpt>
      <trkpt lat="48.523326" lon="28.762983"></trkpt>
      <trkpt lat="48.522173" lon="28.764221"></trkpt>
      <trkpt lat="48.520882" lon="28.765224"></trkpt>
      <trkpt lat="48.519536" lon="28.765906"></trkpt>
      <trkpt lat="48.499042" lon="28.772903"></trkpt>
      <trkpt lat="48.497324" lon="28.773994"></trkpt>
      <trkpt lat="48.495827" lon="28.775475"></trkpt>
      <trkpt lat="48.494497" lon="28.777438"></trkpt>
      <trkpt lat="48.493333" lon="28.780081"></trkpt>
      <trkpt lat="48.492784" lon="28.782053"></trkpt>
      <trkpt lat="48.49072" lon="28.792186"></trkpt>
      <trkpt lat="48.490099" lon="28.793987"></trkpt>
      <trkpt lat="48.489235" lon="28.795662"></trkpt>
      <trkpt lat="48.48803" lon="28.79722"></trkpt>
      <trkpt lat="48.486906" lon="28.79821"></trkpt>
      <trkpt lat="48.485625" lon="28.798906"></trkpt>
      <trkpt lat="48.481471" lon="28.8003"></trkpt>
      <trkpt lat="48.480189" lon="28.800947"></trkpt>
      <trkpt lat="48.478556" lon="28.802188"></trkpt>
      <trkpt lat="48.476985" lon="28.803916"></trkpt>
      <trkpt lat="48.475658" lon="28.80594"></trkpt>
      <trkpt lat="48.459957" lon="28.835193"></trkpt>
      <trkpt lat="48.45927" lon="28.836268"></trkpt>
      <trkpt lat="48.45818" lon="28.837598"></trkpt>
      <trkpt lat="48.456621" lon="28.83892"></trkpt>
      <trkpt lat="48.455718" lon="28.839434"></trkpt>
      <trkpt lat="48.454501" lon="28.839947"></trkpt>
      <trkpt lat="48.443498" lon="28.843759"></trkpt>
      <trkpt lat="48.44255" lon="28.843958"></trkpt>
      <trkpt lat="48.441221" lon="28.844006"></trkpt>
      <trkpt lat="48.439941" lon="28.843791"></trkpt>
      <trkpt lat="48.438753" lon="28.843311"></trkpt>
      <trkpt lat="48.42103" lon="28.833613"></trkpt>
      <trkpt lat="48.419256" lon="28.832971"></trkpt>
      <trkpt lat="48.417922" lon="28.832789"></trkpt>
      <trkpt lat="48.416521" lon="28.832853"></trkpt>
      <trkpt lat="48.411462" lon="28.834238"></trkpt>
      <trkpt lat="48.40974" lon="28.834447"></trkpt>
      <trkpt lat="48.407984" lon="28.834243"></trkpt>
      <trkpt lat="48.403247" lon="28.83279"></trkpt>
      <trkpt lat="48.402027" lon="28.832542"></trkpt>
      <trkpt lat="48.401274" lon="28.832543"></trkpt>
      <trkpt lat="48.400159" lon="28.832748"></trkpt>
      <trkpt lat="48.39951" lon="28.832981"></trkpt>
      <trkpt lat="48.398538" lon="28.833524"></trkpt>
      <trkpt lat="48.3977" lon="28.834197"></trkpt>
      <trkpt lat="48.396645" lon="28.835342"></trkpt>
      <trkpt lat="48.395419" lon="28.837376"></trkpt>
      <trkpt lat="48.388167" lon="28.854626"></trkpt>
      <trkpt lat="48.386443" lon="28.85829"></trkpt>
      <trkpt lat="48.384945" lon="28.860499"></trkpt>
      <trkpt lat="48.383503" lon="28.861923"></trkpt>
      <trkpt lat="48.37082" lon="28.870614"></trkpt>
      <trkpt lat="48.369482" lon="28.871572"></trkpt>
      <trkpt lat="48.368047" lon="28.87279"></trkpt>
      <trkpt lat="48.367023" lon="28.873929"></trkpt>
      <trkpt lat="48.348117" lon="28.90033"></trkpt>
      <trkpt lat="48.33888" lon="28.910911"></trkpt>
      <trkpt lat="48.336179" lon="28.914211"></trkpt>
      <trkpt lat="48.32076" lon="28.928792"></trkpt>
      <trkpt lat="48.294447" lon="28.953397"></trkpt>
      <trkpt lat="48.292921" lon="28.954513"></trkpt>
      <trkpt lat="48.291973" lon="28.954987"></trkpt>
      <trkpt lat="48.291006" lon="28.955294"></trkpt>
      <trkpt lat="48.289128" lon="28.955461"></trkpt>
      <trkpt lat="48.287803" lon="28.955233"></trkpt>
      <trkpt lat="48.286818" lon="28.954868"></trkpt>
      <trkpt lat="48.285047" lon="28.9538"></trkpt>
      <trkpt lat="48.283443" lon="28.952204"></trkpt>
      <trkpt lat="48.270919" lon="28.936351"></trkpt>
      <trkpt lat="48.270202" lon="28.935564"></trkpt>
      <trkpt lat="48.26907" lon="28.934574"></trkpt>
      <trkpt lat="48.267453" lon="28.933641"></trkpt>
      <trkpt lat="48.265743" lon="28.933179"></trkpt>
      <trkpt lat="48.264272" lon="28.933146"></trkpt>
      <trkpt lat="48.263368" lon="28.93329"></trkpt>
      <trkpt lat="48.262343" lon="28.933614"></trkpt>
      <trkpt lat="48.253913" lon="28.937306"></trkpt>
      <trkpt lat="48.252639" lon="28.938058"></trkpt>
      <trkpt lat="48.251279" lon="28.939393"></trkpt>
      <trkpt lat="48.249915" lon="28.941047"></trkpt>
      <trkpt lat="48.245728" lon="28.947318"></trkpt>
      <trkpt lat="48.244218" lon="28.948933"></trkpt>
      <trkpt lat="48.243227" lon="28.949689"></trkpt>
      <trkpt lat="48.241614" lon="28.950521"></trkpt>
      <trkpt lat="48.240066" lon="28.951022"></trkpt>
      <trkpt lat="48.238384" lon="28.951252"></trkpt>
      <trkpt lat="48.235816" lon="28.951303"></trkpt>
      <trkpt lat="48.234841" lon="28.951516"></trkpt>
      <trkpt lat="48.234082" lon="28.951835"></trkpt>
      <trkpt lat="48.232675" lon="28.952696"></trkpt>
      <trkpt lat="48.224705" lon="28.95857"></trkpt>
      <trkpt lat="48.22387" lon="28.959367"></trkpt>
      <trkpt lat="48.223123" lon="28.960282"></trkpt>
      <trkpt lat="48.221852" lon="28.962323"></trkpt>
      <trkpt lat="48.208477" lon="28.98915"></trkpt>
      <trkpt lat="48.207699" lon="28.991528"></trkpt>
      <trkpt lat="48.207235" lon="28.994008"></trkpt>
      <trkpt lat="48.206978" lon="29.000054"></trkpt>
      <trkpt lat="48.206705" lon="29.002739"></trkpt>
      <trkpt lat="48.206081" lon="29.005396"></trkpt>
      <trkpt lat="48.205057" lon="29.007981"></trkpt>
      <trkpt lat="48.204438" lon="29.009099"></trkpt>
      <trkpt lat="48.20348" lon="29.010481"></trkpt>
      <trkpt lat="48.192073" lon="29.024795"></trkpt>
      <trkpt lat="48.190583" lon="29.026303"></trkpt>
      <trkpt lat="48.188765" lon="29.027799"></trkpt>
      <trkpt lat="48.187395" lon="29.028687"></trkpt>
      <trkpt lat="48.185522" lon="29.029631"></trkpt>
      <trkpt lat="48.184015" lon="29.030183"></trkpt>
      <trkpt lat="48.18048" lon="29.03102"></trkpt>
      <trkpt lat="48.177252" lon="29.031981"></trkpt>
      <trkpt lat="48.170203" lon="29.033279"></trkpt>
      <trkpt lat="48.169282" lon="29.033639"></trkpt>
      <trkpt lat="48.168467" lon="29.034104"></trkpt>
      <trkpt lat="48.167021" lon="29.035234"></trkpt>
      <trkpt lat="48.16561" lon="29.03685"></trkpt>
      <trkpt lat="48.164697" lon="29.038317"></trkpt>
      <trkpt lat="48.164139" lon="29.039472"></trkpt>
      <trkpt lat="48.161695" lon="29.046873"></trkpt>
      <trkpt lat="48.159666" lon="29.053844"></trkpt>
      <trkpt lat="48.157785" lon="29.057958"></trkpt>
      <trkpt lat="48.156188" lon="29.060732"></trkpt>
      <trkpt lat="48.154193" lon="29.063425"></trkpt>
      <trkpt lat="48.133169" lon="29.088728"></trkpt>
      <trkpt lat="48.131631" lon="29.090775"></trkpt>
      <trkpt lat="48.128808" lon="29.095552"></trkpt>
      <trkpt lat="48.127451" lon="29.097204"></trkpt>
      <trkpt lat="48.12587" lon="29.098425"></trkpt>
      <trkpt lat="48.12498" lon="29.098856"></trkpt>
      <trkpt lat="48.123204" lon="29.099291"></trkpt>
      <trkpt lat="48.122298" lon="29.099291"></trkpt>
      <trkpt lat="48.121422" lon="29.099146"></trkpt>
      <trkpt lat="48.117906" lon="29.098084"></trkpt>
      <trkpt lat="48.116112" lon="29.098033"></trkpt>
      <trkpt lat="48.115211" lon="29.098215"></trkpt>
      <trkpt lat="48.113477" lon="29.098929"></trkpt>
      <trkpt lat="48.112646" lon="29.099468"></trkpt>
      <trkpt lat="48.107" lon="29.103566"></trkpt>
      <trkpt lat="48.105371" lon="29.10513"></trkpt>
      <trkpt lat="48.092703" lon="29.119214"></trkpt>
      <trkpt lat="48.091276" lon="29.121181"></trkpt>
      <trkpt lat="48.080348" lon="29.139115"></trkpt>
      <trkpt lat="48.079009" lon="29.141041"></trkpt>
      <trkpt lat="48.078265" lon="29.141841"></trkpt>
      <trkpt lat="48.076756" lon="29.143035"></trkpt>
      <trkpt lat="48.065512" lon="29.150706"></trkpt>
      <trkpt lat="48.05794" lon="29.156049"></trkpt>
      <trkpt lat="48.056411" lon="29.15746"></trkpt>
      <trkpt lat="48.034807" lon="29.179191"></trkpt>
      <trkpt lat="48.033142" lon="29.180216"></trkpt>
      <trkpt lat="48.027966" lon="29.182558"></trkpt>
      <trkpt lat="48.027114" lon="29.183055"></trkpt>
      <trkpt lat="48.025542" lon="29.184387"></trkpt>
      <trkpt lat="48.01694" lon="29.194161"></trkpt>
      <trkpt lat="48.015629" lon="29.195967"></trkpt>
      <trkpt lat="48.014967" lon="29.197157"></trkpt>
      <trkpt lat="48.011085" lon="29.207513"></trkpt>
      <trkpt lat="48.006798" lon="29.222274"></trkpt>
      <trkpt lat="48.005805" lon="29.22447"></trkpt>
      <trkpt lat="47.999697" lon="29.236039"></trkpt>
      <trkpt lat="47.998397" lon="29.237906"></trkpt>
      <trkpt lat="47.972628" lon="29.270218"></trkpt>
      <trkpt lat="47.971437" lon="29.271385"></trkpt>
      <trkpt lat="47.969852" lon="29.27241"></trkpt>
      <trkpt lat="47.961847" lon="29.27536"></trkpt>
      <trkpt lat="47.96056" lon="29.276185"></trkpt>
      <trkpt lat="47.957627" lon="29.278611"></trkpt>
      <trkpt lat="47.956255" lon="29.280039"></trkpt>
      <trkpt lat="47.953679" lon="29.284062"></trkpt>
      <trkpt lat="47.952127" lon="29.285813"></trkpt>
      <trkpt lat="47.936802" lon="29.298914"></trkpt>
      <trkpt lat="47.929113" lon="29.304878"></trkpt>
      <trkpt lat="47.927199" lon="29.306523"></trkpt>
      <trkpt lat="47.924457" lon="29.308958"></trkpt>
      <trkpt lat="47.92161" lon="29.312328"></trkpt>
      <trkpt lat="47.920417" lon="29.313545"></trkpt>
      <trkpt lat="47.919688" lon="29.314078"></trkpt>
      <trkpt lat="47.918421" lon="29.314685"></trkpt>
      <trkpt lat="47.915379" lon="29.315255"></trkpt>
      <trkpt lat="47.914035" lon="29.315857"></trkpt>
      <trkpt lat="47.912814" lon="29.316797"></trkpt>
      <trkpt lat="47.911002" lon="29.318632"></trkpt>
      <trkpt lat="47.909778" lon="29.319648"></trkpt>
      <trkpt lat="47.906557" lon="29.321397"></trkpt>
      <trkpt lat="47.905311" lon="29.322358"></trkpt>
      <trkpt lat="47.902198" lon="29.325667"></trkpt>
      <trkpt lat="47.898307" lon="29.331238"></trkpt>
      <trkpt lat="47.897242" lon="29.332466"></trkpt>
      <trkpt lat="47.88791" lon="29.340548"></trkpt>
      <trkpt lat="47.887055" lon="29.341441"></trkpt>
      <trkpt lat="47.886192" lon="29.3426"></trkpt>
      <trkpt lat="47.885399" lon="29.343922"></trkpt>
      <trkpt lat="47.884422" lon="29.346266"></trkpt>
      <trkpt lat="47.88367" lon="29.349521"></trkpt>
      <trkpt lat="47.883481" lon="29.351335"></trkpt>
      <trkpt lat="47.883454" lon="29.353186"></trkpt>
      <trkpt lat="47.883724" lon="29.355855"></trkpt>
      <trkpt lat="47.884448" lon="29.358802"></trkpt>
      <trkpt lat="47.885114" lon="29.360506"></trkpt>
      <trkpt lat="47.887046" lon="29.364746"></trkpt>
      <trkpt lat="47.887733" lon="29.366975"></trkpt>
      <trkpt lat="47.8881" lon="29.369116"></trkpt>
      <trkpt lat="47.888214" lon="29.371227"></trkpt>
      <trkpt lat="47.887893" lon="29.37459"></trkpt>
      <trkpt lat="47.887304" lon="29.376868"></trkpt>
      <trkpt lat="47.881807" lon="29.393112"></trkpt>
      <trkpt lat="47.881076" lon="29.395551"></trkpt>
      <trkpt lat="47.864456" lon="29.451996"></trkpt>
      <trkpt lat="47.863853" lon="29.455097"></trkpt>
      <trkpt lat="47.863715" lon="29.457111"></trkpt>
      <trkpt lat="47.863793" lon="29.459764"></trkpt>
      <trkpt lat="47.864089" lon="29.461725"></trkpt>
      <trkpt lat="47.864567" lon="29.463604"></trkpt>
      <trkpt lat="47.865474" lon="29.465927"></trkpt>
      <trkpt lat="47.866016" lon="29.466982"></trkpt>
      <trkpt lat="47.869852" lon="29.473256"></trkpt>
      <trkpt lat="47.870951" lon="29.476125"></trkpt>
      <trkpt lat="47.871439" lon="29.478381"></trkpt>
      <trkpt lat="47.871587" lon="29.479936"></trkpt>
      <trkpt lat="47.871565" lon="29.482318"></trkpt>
      <trkpt lat="47.871349" lon="29.484094"></trkpt>
      <trkpt lat="47.870862" lon="29.486254"></trkpt>
      <trkpt lat="47.870257" lon="29.488037"></trkpt>
      <trkpt lat="47.86962" lon="29.489308"></trkpt>
      <trkpt lat="47.868657" lon="29.490615"></trkpt>
      <trkpt lat="47.86456" lon="29.495443"></trkpt>
      <trkpt lat="47.863097" lon="29.496977"></trkpt>
      <trkpt lat="47.861803" lon="29.497911"></trkpt>
      <trkpt lat="47.860903" lon="29.49831"></trkpt>
      <trkpt lat="47.859732" lon="29.498538"></trkpt>
      <trkpt lat="47.858445" lon="29.49853"></trkpt>
      <trkpt lat="47.857363" lon="29.498211"></trkpt>
      <trkpt lat="47.856442" lon="29.497797"></trkpt>
      <trkpt lat="47.853608" lon="29.496052"></trkpt>
      <trkpt lat="47.852749" lon="29.495657"></trkpt>
      <trkpt lat="47.851931" lon="29.495413"></trkpt>
      <trkpt lat="47.850808" lon="29.495295"></trkpt>
      <trkpt lat="47.849971" lon="29.495372"></trkpt>
      <trkpt lat="47.848942" lon="29.495681"></trkpt>
      <trkpt lat="47.848165" lon="29.49604"></trkpt>
      <trkpt lat="47.847144" lon="29.496735"></trkpt>
      <trkpt lat="47.846281" lon="29.497567"></trkpt>
      <trkpt lat="47.844366" lon="29.500022"></trkpt>
      <trkpt lat="47.842863" lon="29.501649"></trkpt>
      <trkpt lat="47.823761" lon="29.514661"></trkpt>
      <trkpt lat="47.821942" lon="29.515554"></trkpt>
      <trkpt lat="47.820809" lon="29.515822"></trkpt>
      <trkpt lat="47.819242" lon="29.515851"></trkpt>
      <trkpt lat="47.803836" lon="29.513615"></trkpt>
      <trkpt lat="47.802934" lon="29.513517"></trkpt>
      <trkpt lat="47.80176" lon="29.513585"></trkpt>
      <trkpt lat="47.800099" lon="29.514076"></trkpt>
      <trkpt lat="47.780351" lon="29.523515"></trkpt>
      <trkpt lat="47.778415" lon="29.524191"></trkpt>
      <trkpt lat="47.777561" lon="29.524303"></trkpt>
      <trkpt lat="47.776191" lon="29.524236"></trkpt>
      <trkpt lat="47.771371" lon="29.523134"></trkpt>
      <trkpt lat="47.769283" lon="29.522892"></trkpt>
      <trkpt lat="47.766954" lon="29.523059"></trkpt>
      <trkpt lat="47.760351" lon="29.523885"></trkpt>
      <trkpt lat="47.757145" lon="29.524459"></trkpt>
      <trkpt lat="47.755014" lon="29.525516"></trkpt>
      <trkpt lat="47.737133" lon="29.537044"></trkpt>
      <trkpt lat="47.727886" lon="29.542794"></trkpt>
      <trkpt lat="47.726854" lon="29.543197"></trkpt>
      <trkpt lat="47.726107" lon="29.543341"></trkpt>
      <trkpt lat="47.711639" lon="29.545144"></trkpt>
      <trkpt lat="47.71" lon="29.545793"></trkpt>
      <trkpt lat="47.708453" lon="29.546874"></trkpt>
      <trkpt lat="47.707485" lon="29.547807"></trkpt>
      <trkpt lat="47.697524" lon="29.558749"></trkpt>
      <trkpt lat="47.696208" lon="29.55978"></trkpt>
      <trkpt lat="47.695253" lon="29.560296"></trkpt>
      <trkpt lat="47.693939" lon="29.560769"></trkpt>
      <trkpt lat="47.691989" lon="29.560952"></trkpt>
      <trkpt lat="47.677887" lon="29.560482"></trkpt>
      <trkpt lat="47.676176" lon="29.560687"></trkpt>
      <trkpt lat="47.67462" lon="29.561275"></trkpt>
      <trkpt lat="47.660107" lon="29.569394"></trkpt>
      <trkpt lat="47.659101" lon="29.570092"></trkpt>
      <trkpt lat="47.658085" lon="29.570962"></trkpt>
      <trkpt lat="47.657088" lon="29.572105"></trkpt>
      <trkpt lat="47.656274" lon="29.573301"></trkpt>
      <trkpt lat="47.655487" lon="29.5748"></trkpt>
      <trkpt lat="47.634801" lon="29.625833"></trkpt>
      <trkpt lat="47.633544" lon="29.628607"></trkpt>
      <trkpt lat="47.625379" lon="29.643219"></trkpt>
      <trkpt lat="47.608554" lon="29.672602"></trkpt>
      <trkpt lat="47.607547" lon="29.674016"></trkpt>
      <trkpt lat="47.606223" lon="29.675588"></trkpt>
      <trkpt lat="47.566747" lon="29.715507"></trkpt>
      <trkpt lat="47.563505" lon="29.718149"></trkpt>
      <trkpt lat="47.540518" lon="29.735986"></trkpt>
      <trkpt lat="47.532652" lon="29.74194"></trkpt>
      <trkpt lat="47.531185" lon="29.742613"></trkpt>
      <trkpt lat="47.52978" lon="29.742914"></trkpt>
      <trkpt lat="47.518788" lon="29.743515"></trkpt>
      <trkpt lat="47.517579" lon="29.743802"></trkpt>
      <trkpt lat="47.516598" lon="29.744215"></trkpt>
      <trkpt lat="47.515503" lon="29.744909"></trkpt>
      <trkpt lat="47.501002" lon="29.756553"></trkpt>
      <trkpt lat="47.499337" lon="29.75758"></trkpt>
      <trkpt lat="47.498318" lon="29.757964"></trkpt>
      <trkpt lat="47.496982" lon="29.758215"></trkpt>
      <trkpt lat="47.461251" lon="29.760944"></trkpt>
      <trkpt lat="47.459629" lon="29.761279"></trkpt>
      <trkpt lat="47.459025" lon="29.761518"></trkpt>
      <trkpt lat="47.458135" lon="29.761976"></trkpt>
      <trkpt lat="47.457274" lon="29.762583"></trkpt>
      <trkpt lat="47.45589" lon="29.763902"></trkpt>
      <trkpt lat="47.454549" lon="29.765778"></trkpt>
      <trkpt lat="47.437854" lon="29.796642"></trkpt>
      <trkpt lat="47.436994" lon="29.798081"></trkpt>
      <trkpt lat="47.435547" lon="29.799865"></trkpt>
      <trkpt lat="47.381414" lon="29.85105"></trkpt>
      <trkpt lat="47.379315" lon="29.852262"></trkpt>
      <trkpt lat="47.344794" lon="29.866934"></trkpt>
      <trkpt lat="47.343935" lon="29.86739"></trkpt>
      <trkpt lat="47.342759" lon="29.8683"></trkpt>
      <trkpt lat="47.341708" lon="29.869442"></trkpt>
      <trkpt lat="47.33978" lon="29.872001"></trkpt>
      <trkpt lat="47.332644" lon="29.884579"></trkpt>
      <trkpt lat="47.330873" lon="29.887216"></trkpt>
      <trkpt lat="47.313046" lon="29.907097"></trkpt>
      <trkpt lat="47.303844" lon="29.919892"></trkpt>
      <trkpt lat="47.302464" lon="29.921605"></trkpt>
      <trkpt lat="47.299908" lon="29.924112"></trkpt>
      <trkpt lat="47.274876" lon="29.946155"></trkpt>
      <trkpt lat="47.273401" lon="29.947156"></trkpt>
      <trkpt lat="47.27098" lon="29.948108"></trkpt>
      <trkpt lat="47.250078" lon="29.955575"></trkpt>
      <trkpt lat="47.248974" lon="29.95583"></trkpt>
      <trkpt lat="47.24784" lon="29.955891"></trkpt>
      <trkpt lat="47.246229" lon="29.955606"></trkpt>
      <trkpt lat="47.245053" lon="29.955141"></trkpt>
      <trkpt lat="47.237472" lon="29.951075"></trkpt>
      <trkpt lat="47.23592" lon="29.949705"></trkpt>
      <trkpt lat="47.232104" lon="29.945039"></trkpt>
      <trkpt lat="47.230009" lon="29.942766"></trkpt>
      <trkpt lat="47.228778" lon="29.941851"></trkpt>
      <trkpt lat="47.227895" lon="29.941385"></trkpt>
      <trkpt lat="47.226995" lon="29.941046"></trkpt>
      <trkpt lat="47.225176" lon="29.940689"></trkpt>
      <trkpt lat="47.197762" lon="29.93685"></trkpt>
      <trkpt lat="47.196343" lon="29.936816"></trkpt>
      <trkpt lat="47.185699" lon="29.938062"></trkpt>
      <trkpt lat="47.159828" lon="29.941373"></trkpt>
      <trkpt lat="47.158388" lon="29.941686"></trkpt>
      <trkpt lat="47.157413" lon="29.942057"></trkpt>
      <trkpt lat="47.155892" lon="29.943004"></trkpt>
      <trkpt lat="47.154558" lon="29.944253"></trkpt>
      <trkpt lat="47.136494" lon="29.966333"></trkpt>
      <trkpt lat="47.135565" lon="29.967251"></trkpt>
      <trkpt lat="47.13438" lon="29.968109"></trkpt>
      <trkpt lat="47.133665" lon="29.968489"></trkpt>
      <trkpt lat="47.112921" lon="29.979147"></trkpt>
      <trkpt lat="47.111186" lon="29.980387"></trkpt>
      <trkpt lat="47.110212" lon="29.981385"></trkpt>
      <trkpt lat="47.109386" lon="29.98243"></trkpt>
      <trkpt lat="47.108377" lon="29.984524"></trkpt>
      <trkpt lat="47.100738" lon="30.007063"></trkpt>
      <trkpt lat="47.099891" lon="30.009109"></trkpt>
      <trkpt lat="47.098613" lon="30.011173"></trkpt>
      <trkpt lat="47.097281" lon="30.012671"></trkpt>
      <trkpt lat="47.070862" lon="30.039934"></trkpt>
      <trkpt lat="47.069946" lon="30.040768"></trkpt>
      <trkpt lat="47.069064" lon="30.041385"></trkpt>
      <trkpt lat="47.067667" lon="30.042071"></trkpt>
      <trkpt lat="47.066721" lon="30.042337"></trkpt>
      <trkpt lat="47.008505" lon="30.054659"></trkpt>
      <trkpt lat="47.007205" lon="30.054918"></trkpt>
      <trkpt lat="47.005902" lon="30.054985"></trkpt>
      <trkpt lat="47.004148" lon="30.054653"></trkpt>
      <trkpt lat="46.986953" lon="30.048027"></trkpt>
      <trkpt lat="46.977642" lon="30.044605"></trkpt>
      <trkpt lat="46.945394" lon="30.032413"></trkpt>
      <trkpt lat="46.944135" lon="30.032154"></trkpt>
      <trkpt lat="46.943062" lon="30.032084"></trkpt>
      <trkpt lat="46.941837" lon="30.032234"></trkpt>
      <trkpt lat="46.868243" lon="30.049551"></trkpt>
      <trkpt lat="46.866273" lon="30.050305"></trkpt>
      <trkpt lat="46.865532" lon="30.050761"></trkpt>
      <trkpt lat="46.864179" lon="30.051888"></trkpt>
      <trkpt lat="46.862672" lon="30.053791"></trkpt>
      <trkpt lat="46.837618" lon="30.093732"></trkpt>
      <trkpt lat="46.836198" lon="30.095771"></trkpt>
      <trkpt lat="46.797013" lon="30.140865"></trkpt>
      <trkpt lat="46.795736" lon="30.142448"></trkpt>
      <trkpt lat="46.794427" lon="30.144377"></trkpt>
      <trkpt lat="46.74809" lon="30.226691"></trkpt>
      <trkpt lat="46.746055" lon="30.229419"></trkpt>
      <trkpt lat="46.737207" lon="30.239427"></trkpt>
      <trkpt lat="46.735757" lon="30.241288"></trkpt>
      <trkpt lat="46.73366" lon="30.244563"></trkpt>
      <trkpt lat="46.720663" lon="30.266524"></trkpt>
      <trkpt lat="46.719516" lon="30.268986"></trkpt>
      <trkpt lat="46.697344" lon="30.322586"></trkpt>
      <trkpt lat="46.696363" lon="30.324552"></trkpt>
      <trkpt lat="46.694842" lon="30.326853"></trkpt>
      <trkpt lat="46.692893" lon="30.328945"></trkpt>
      <trkpt lat="46.691024" lon="30.330296"></trkpt>
      <trkpt lat="46.685675" lon="30.333367"></trkpt>
      <trkpt lat="46.632078" lon="30.365043"></trkpt>
      <trkpt lat="46.629741" lon="30.366807"></trkpt>
      <trkpt lat="46.628181" lon="30.368351"></trkpt>
      <trkpt lat="46.626498" lon="30.370423"></trkpt>
      <trkpt lat="46.624533" lon="30.373582"></trkpt>
      <trkpt lat="46.623811" lon="30.375052"></trkpt>
      <trkpt lat="46.608193" lon="30.411304"></trkpt>
      <trkpt lat="46.606892" lon="30.415243"></trkpt>
      <trkpt lat="46.606187" lon="30.418494"></trkpt>
      <trkpt lat="46.586551" lon="30.532524"></trkpt>
      <trkpt lat="46.586087" lon="30.534334"></trkpt>
      <trkpt lat="46.585003" lon="30.537521"></trkpt>
      <trkpt lat="46.576014" lon="30.556861"></trkpt>
      <trkpt lat="46.57457" lon="30.559255"></trkpt>
      <trkpt lat="46.57283" lon="30.5614"></trkpt>
      <trkpt lat="46.522499" lon="30.608002"></trkpt>
      <trkpt lat="46.521253" lon="30.609325"></trkpt>
      <trkpt lat="46.494577" lon="30.633914"></trkpt>
      <trkpt lat="46.491647" lon="30.636953"></trkpt>
      <trkpt lat="46.483833" lon="30.645997"></trkpt>
      <trkpt lat="46.482278" lon="30.648122"></trkpt>
      <trkpt lat="46.45562" lon="30.689189"></trkpt>
      <trkpt lat="46.454821" lon="30.690794"></trkpt>
      <trkpt lat="46.454223" lon="30.692465"></trkpt>
      <trkpt lat="46.453774" lon="30.695019"></trkpt>
      <trkpt lat="46.453784" lon="30.700918"></trkpt>
      <trkpt lat="46.453993" lon="30.703641"></trkpt>
      <trkpt lat="46.455179" lon="30.710435"></trkpt>
      <trkpt lat="46.455578" lon="30.715191"></trkpt>
      <trkpt lat="46.455655" lon="30.721364"></trkpt>
      <trkpt lat="46.45554" lon="30.727781"></trkpt>
      <trkpt lat="46.455698" lon="30.732839"></trkpt>
      <trkpt lat="46.455882" lon="30.734191"></trkpt>
      <trkpt lat="46.456246" lon="30.735514"></trkpt>
      <trkpt lat="46.456851" lon="30.73686"></trkpt>
      <trkpt lat="46.457998" lon="30.738376"></trkpt>
      <trkpt lat="46.459072" lon="30.739316"></trkpt>
      <trkpt lat="46.45997" lon="30.739795"></trkpt>
      <trkpt lat="46.460979" lon="30.740064"></trkpt>
      <trkpt lat="46.466538" lon="30.740777"></trkpt>
  </trkseg></trk>
</gpx>
