<?xml version="1.0" encoding="UTF-8"?>
<gpx version="1.1" creator="yatutbuv" xmlns="http://www.topografix.com/GPX/1/1">
  <trk><name>GraphHopper Track</name><trkseg>
      <trkpt lat="52.211531" lon="20.957096"></trkpt>
      <trkpt lat="52.211662" lon="20.956575"></trkpt>
      <trkpt lat="52.211779" lon="20.956654"></trkpt>
      <trkpt lat="52.211972" lon="20.955694"></trkpt>
      <trkpt lat="52.211886" lon="20.95302"></trkpt>
      <trkpt lat="52.209714" lon="20.94972"></trkpt>
      <trkpt lat="52.209434" lon="20.949801"></trkpt>
      <trkpt lat="52.209366" lon="20.949656"></trkpt>
      <trkpt lat="52.209335" lon="20.949517"></trkpt>
      <trkpt lat="52.209921" lon="20.94946"></trkpt>
      <trkpt lat="52.210175" lon="20.94929"></trkpt>
      <trkpt lat="52.202556" lon="20.938087"></trkpt>
      <trkpt lat="52.197333" lon="20.930182"></trkpt>
      <trkpt lat="52.195269" lon="20.927454"></trkpt>
      <trkpt lat="52.190509" lon="20.919818"></trkpt>
      <trkpt lat="52.189819" lon="20.918878"></trkpt>
      <trkpt lat="52.189246" lon="20.918236"></trkpt>
      <trkpt lat="52.188551" lon="20.917781"></trkpt>
      <trkpt lat="52.180435" lon="20.914908"></trkpt>
      <trkpt lat="52.178992" lon="20.91421"></trkpt>
      <trkpt lat="52.176784" lon="20.913412"></trkpt>
      <trkpt lat="52.176131" lon="20.91286"></trkpt>
      <trkpt lat="52.175686" lon="20.912131"></trkpt>
      <trkpt lat="52.174929" lon="20.909447"></trkpt>
      <trkpt lat="52.174845" lon="20.908059"></trkpt>
      <trkpt lat="52.175027" lon="20.906488"></trkpt>
      <trkpt lat="52.17705" lon="20.896321"></trkpt>
      <trkpt lat="52.178208" lon="20.891377"></trkpt>
      <trkpt lat="52.179917" lon="20.885879"></trkpt>
      <trkpt lat="52.182415" lon="20.879356"></trkpt>
      <trkpt lat="52.189123" lon="20.863469"></trkpt>
      <trkpt lat="52.190429" lon="20.860702"></trkpt>
      <trkpt lat="52.192461" lon="20.857395"></trkpt>
      <trkpt lat="52.197546" lon="20.851397"></trkpt>
      <trkpt lat="52.198333" lon="20.850183"></trkpt>
      <trkpt lat="52.198933" lon="20.848981"></trkpt>
      <trkpt lat="52.199739" lon="20.846507"></trkpt>
      <trkpt lat="52.200238" lon="20.843657"></trkpt>
      <trkpt lat="52.200329" lon="20.841227"></trkpt>
      <trkpt lat="52.200098" lon="20.838596"></trkpt>
      <trkpt lat="52.199553" lon="20.836182"></trkpt>
      <trkpt lat="52.194869" lon="20.821927"></trkpt>
      <trkpt lat="52.193736" lon="20.817596"></trkpt>
      <trkpt lat="52.193085" lon="20.813463"></trkpt>
      <trkpt lat="52.192567" lon="20.805111"></trkpt>
      <trkpt lat="52.191974" lon="20.799458"></trkpt>
      <trkpt lat="52.18968" lon="20.783841"></trkpt>
      <trkpt lat="52.188889" lon="20.780503"></trkpt>
      <trkpt lat="52.187776" lon="20.777794"></trkpt>
      <trkpt lat="52.187005" lon="20.776484"></trkpt>
      <trkpt lat="52.186136" lon="20.775306"></trkpt>
      <trkpt lat="52.184659" lon="20.773926"></trkpt>
      <trkpt lat="52.181354" lon="20.771811"></trkpt>
      <trkpt lat="52.179599" lon="20.770376"></trkpt>
      <trkpt lat="52.178209" lon="20.768766"></trkpt>
      <trkpt lat="52.176679" lon="20.766259"></trkpt>
      <trkpt lat="52.175455" lon="20.763582"></trkpt>
      <trkpt lat="52.172116" lon="20.75528"></trkpt>
      <trkpt lat="52.168477" lon="20.745657"></trkpt>
      <trkpt lat="52.165672" lon="20.736965"></trkpt>
      <trkpt lat="52.163118" lon="20.727427"></trkpt>
      <trkpt lat="52.162018" lon="20.72257"></trkpt>
      <trkpt lat="52.160501" lon="20.714953"></trkpt>
      <trkpt lat="52.155334" lon="20.686394"></trkpt>
      <trkpt lat="52.153984" lon="20.678254"></trkpt>
      <trkpt lat="52.149692" lon="20.648488"></trkpt>
      <trkpt lat="52.147778" lon="20.628896"></trkpt>
      <trkpt lat="52.146541" lon="20.618943"></trkpt>
      <trkpt lat="52.144548" lon="20.606374"></trkpt>
      <trkpt lat="52.142134" lon="20.594158"></trkpt>
      <trkpt lat="52.139441" lon="20.582364"></trkpt>
      <trkpt lat="52.130529" lon="20.545349"></trkpt>
      <trkpt lat="52.129032" lon="20.54013"></trkpt>
      <trkpt lat="52.124931" lon="20.527846"></trkpt>
      <trkpt lat="52.122859" lon="20.521096"></trkpt>
      <trkpt lat="52.120805" lon="20.51362"></trkpt>
      <trkpt lat="52.118817" lon="20.505386"></trkpt>
      <trkpt lat="52.116744" lon="20.495353"></trkpt>
      <trkpt lat="52.111918" lon="20.469384"></trkpt>
      <trkpt lat="52.110329" lon="20.461594"></trkpt>
      <trkpt lat="52.108542" lon="20.453977"></trkpt>
      <trkpt lat="52.103488" lon="20.43421"></trkpt>
      <trkpt lat="52.101709" lon="20.426415"></trkpt>
      <trkpt lat="52.100743" lon="20.421675"></trkpt>
      <trkpt lat="52.098743" lon="20.410238"></trkpt>
      <trkpt lat="52.095332" lon="20.386494"></trkpt>
      <trkpt lat="52.094394" lon="20.381355"></trkpt>
      <trkpt lat="52.093203" lon="20.376169"></trkpt>
      <trkpt lat="52.091521" lon="20.370091"></trkpt>
      <trkpt lat="52.089727" lon="20.364773"></trkpt>
      <trkpt lat="52.087921" lon="20.360171"></trkpt>
      <trkpt lat="52.083062" lon="20.348937"></trkpt>
      <trkpt lat="52.081358" lon="20.344504"></trkpt>
      <trkpt lat="52.079877" lon="20.340167"></trkpt>
      <trkpt lat="52.078421" lon="20.335343"></trkpt>
      <trkpt lat="52.077077" lon="20.33023"></trkpt>
      <trkpt lat="52.075683" lon="20.323863"></trkpt>
      <trkpt lat="52.074662" lon="20.318102"></trkpt>
      <trkpt lat="52.073701" lon="20.310949"></trkpt>
      <trkpt lat="52.073182" lon="20.305419"></trkpt>
      <trkpt lat="52.07288" lon="20.300495"></trkpt>
      <trkpt lat="52.072733" lon="20.294589"></trkpt>
      <trkpt lat="52.07279" lon="20.288348"></trkpt>
      <trkpt lat="52.072982" lon="20.28356"></trkpt>
      <trkpt lat="52.074844" lon="20.254445"></trkpt>
      <trkpt lat="52.075273" lon="20.243225"></trkpt>
      <trkpt lat="52.075272" lon="20.235757"></trkpt>
      <trkpt lat="52.075038" lon="20.228728"></trkpt>
      <trkpt lat="52.074536" lon="20.221199"></trkpt>
      <trkpt lat="52.073819" lon="20.214077"></trkpt>
      <trkpt lat="52.072391" lon="20.203993"></trkpt>
      <trkpt lat="52.070711" lon="20.19512"></trkpt>
      <trkpt lat="52.068756" lon="20.186755"></trkpt>
      <trkpt lat="52.063437" lon="20.16616"></trkpt>
      <trkpt lat="52.058985" lon="20.147851"></trkpt>
      <trkpt lat="52.056613" lon="20.136797"></trkpt>
      <trkpt lat="52.054135" lon="20.123551"></trkpt>
      <trkpt lat="52.052861" lon="20.115919"></trkpt>
      <trkpt lat="52.05141" lon="20.105865"></trkpt>
      <trkpt lat="52.049776" lon="20.092961"></trkpt>
      <trkpt lat="52.046486" lon="20.064221"></trkpt>
      <trkpt lat="52.045691" lon="20.058557"></trkpt>
      <trkpt lat="52.044425" lon="20.051426"></trkpt>
      <trkpt lat="52.044441" lon="20.050381"></trkpt>
      <trkpt lat="52.044656" lon="20.050038"></trkpt>
      <trkpt lat="52.045006" lon="20.049991"></trkpt>
      <trkpt lat="52.045314" lon="20.050462"></trkpt>
      <trkpt lat="52.045265" lon="20.051174"></trkpt>
      <trkpt lat="52.045069" lon="20.05145"></trkpt>
      <trkpt lat="52.043812" lon="20.052122"></trkpt>
      <trkpt lat="52.043445" lon="20.052454"></trkpt>
      <trkpt lat="52.043153" lon="20.053188"></trkpt>
      <trkpt lat="52.04311" lon="20.05375"></trkpt>
      <trkpt lat="52.043751" lon="20.05878"></trkpt>
      <trkpt lat="52.043696" lon="20.05936"></trkpt>
      <trkpt lat="52.043875" lon="20.059565"></trkpt>
      <trkpt lat="52.044328" lon="20.058917"></trkpt>
      <trkpt lat="52.048073" lon="20.055984"></trkpt>
      <trkpt lat="52.049888" lon="20.054275"></trkpt>
      <trkpt lat="52.051316" lon="20.052604"></trkpt>
      <trkpt lat="52.05549" lon="20.047185"></trkpt>
      <trkpt lat="52.056588" lon="20.046052"></trkpt>
      <trkpt lat="52.058231" lon="20.044742"></trkpt>
      <trkpt lat="52.068143" lon="20.038715"></trkpt>
      <trkpt lat="52.068841" lon="20.038499"></trkpt>
      <trkpt lat="52.069686" lon="20.038468"></trkpt>
      <trkpt lat="52.071559" lon="20.038955"></trkpt>
      <trkpt lat="52.072497" lon="20.038803"></trkpt>
      <trkpt lat="52.073189" lon="20.038507"></trkpt>
      <trkpt lat="52.073392" lon="20.039623"></trkpt>
      <trkpt lat="52.073318" lon="20.040536"></trkpt>
      <trkpt lat="52.071055" lon="20.050568"></trkpt>
      <trkpt lat="52.06852" lon="20.058135"></trkpt>
      <trkpt lat="52.068348" lon="20.058949"></trkpt>
      <trkpt lat="52.068286" lon="20.063719"></trkpt>
      <trkpt lat="52.068725" lon="20.068608"></trkpt>
      <trkpt lat="52.067426" lon="20.06897"></trkpt>
      <trkpt lat="52.067249" lon="20.069228"></trkpt>
      <trkpt lat="52.066829" lon="20.069351"></trkpt>
      <trkpt lat="52.066717" lon="20.06967"></trkpt>
  </trkseg></trk>
</gpx>
