<?xml version="1.0" encoding="UTF-8"?>
<gpx version="1.1" creator="yatutbuv" xmlns="http://www.topografix.com/GPX/1/1">
  <trk><name>2010_Lugano -&gt; Caslano (8km)</name><trkseg>
      <trkpt lat="46.005484" lon="8.946294"></trkpt>
      <trkpt lat="46.005677" lon="8.94619"></trkpt>
      <trkpt lat="46.005585" lon="8.944713"></trkpt>
      <trkpt lat="46.005039" lon="8.943712"></trkpt>
      <trkpt lat="46.004897" lon="8.942625"></trkpt>
      <trkpt lat="46.004405" lon="8.941914"></trkpt>
      <trkpt lat="46.003834" lon="8.941833"></trkpt>
      <trkpt lat="46.003012" lon="8.942"></trkpt>
      <trkpt lat="46.002591" lon="8.942475"></trkpt>
      <trkpt lat="46.001801" lon="8.941587"></trkpt>
      <trkpt lat="46.001212" lon="8.93952"></trkpt>
      <trkpt lat="46.000879" lon="8.939516"></trkpt>
      <trkpt lat="46.000344" lon="8.940225"></trkpt>
      <trkpt lat="45.999974" lon="8.940335"></trkpt>
      <trkpt lat="45.998408" lon="8.939028"></trkpt>
      <trkpt lat="45.997488" lon="8.938413"></trkpt>
      <trkpt lat="45.99725" lon="8.938107"></trkpt>
      <trkpt lat="45.996676" lon="8.935626"></trkpt>
      <trkpt lat="45.996541" lon="8.933671"></trkpt>
      <trkpt lat="45.995545" lon="8.931068"></trkpt>
      <trkpt lat="45.994389" lon="8.929764"></trkpt>
      <trkpt lat="45.994024" lon="8.929031"></trkpt>
      <trkpt lat="45.99303" lon="8.924142"></trkpt>
      <trkpt lat="45.993027" lon="8.922994"></trkpt>
      <trkpt lat="45.993353" lon="8.920908"></trkpt>
      <trkpt lat="45.993182" lon="8.918736"></trkpt>
      <trkpt lat="45.99322" lon="8.918019"></trkpt>
      <trkpt lat="45.993444" lon="8.91711"></trkpt>
      <trkpt lat="45.994013" lon="8.916156"></trkpt>
      <trkpt lat="45.994534" lon="8.915705"></trkpt>
      <trkpt lat="45.995147" lon="8.91547"></trkpt>
      <trkpt lat="45.996384" lon="8.915432"></trkpt>
      <trkpt lat="45.996964" lon="8.915196"></trkpt>
      <trkpt lat="45.997731" lon="8.913954"></trkpt>
      <trkpt lat="45.997746" lon="8.913361"></trkpt>
      <trkpt lat="45.997458" lon="8.912118"></trkpt>
      <trkpt lat="45.997347" lon="8.910768"></trkpt>
      <trkpt lat="45.997752" lon="8.906562"></trkpt>
      <trkpt lat="45.995508" lon="8.905797"></trkpt>
      <trkpt lat="45.995137" lon="8.903591"></trkpt>
      <trkpt lat="45.99515" lon="8.901481"></trkpt>
      <trkpt lat="45.99539" lon="8.900899"></trkpt>
      <trkpt lat="45.993495" lon="8.899414"></trkpt>
      <trkpt lat="45.992615" lon="8.898983"></trkpt>
      <trkpt lat="45.992816" lon="8.898257"></trkpt>
      <trkpt lat="45.992561" lon="8.897987"></trkpt>
      <trkpt lat="45.992569" lon="8.896948"></trkpt>
      <trkpt lat="45.991821" lon="8.896523"></trkpt>
      <trkpt lat="45.990452" lon="8.895354"></trkpt>
      <trkpt lat="45.989981" lon="8.895106"></trkpt>
      <trkpt lat="45.98886" lon="8.893707"></trkpt>
      <trkpt lat="45.987773" lon="8.892777"></trkpt>
      <trkpt lat="45.984027" lon="8.891122"></trkpt>
      <trkpt lat="45.983065" lon="8.890448"></trkpt>
      <trkpt lat="45.983093" lon="8.890281"></trkpt>
      <trkpt lat="45.982647" lon="8.889556"></trkpt>
      <trkpt lat="45.98234" lon="8.888627"></trkpt>
      <trkpt lat="45.981509" lon="8.883557"></trkpt>
      <trkpt lat="45.981263" lon="8.882642"></trkpt>
      <trkpt lat="45.977801" lon="8.876631"></trkpt>
      <trkpt lat="45.977494" lon="8.876437"></trkpt>
      <trkpt lat="45.977492" lon="8.876266"></trkpt>
  </trkseg></trk>
</gpx>
