<?xml version="1.0" encoding="UTF-8"?>
<gpx version="1.1" creator="yatutbuv" xmlns="http://www.topografix.com/GPX/1/1">
  <trk><name>2002 Lviv -&gt; Wrocław (591km)</name><trkseg>
      <trkpt lat="49.838665" lon="23.993458"></trkpt>
      <trkpt lat="49.837896" lon="23.992757"></trkpt>
      <trkpt lat="49.837295" lon="23.991601"></trkpt>
      <trkpt lat="49.837001" lon="23.990664"></trkpt>
      <trkpt lat="49.8357" lon="23.981636"></trkpt>
      <trkpt lat="49.834391" lon="23.976586"></trkpt>
      <trkpt lat="49.834196" lon="23.973884"></trkpt>
      <trkpt lat="49.834332" lon="23.971602"></trkpt>
      <trkpt lat="49.835793" lon="23.961574"></trkpt>
      <trkpt lat="49.835948" lon="23.959412"></trkpt>
      <trkpt lat="49.837417" lon="23.949741"></trkpt>
      <trkpt lat="49.837847" lon="23.936644"></trkpt>
      <trkpt lat="49.837786" lon="23.935457"></trkpt>
      <trkpt lat="49.838086" lon="23.923248"></trkpt>
      <trkpt lat="49.8377" lon="23.919944"></trkpt>
      <trkpt lat="49.835854" lon="23.913368"></trkpt>
      <trkpt lat="49.834336" lon="23.908609"></trkpt>
      <trkpt lat="49.83332" lon="23.904372"></trkpt>
      <trkpt lat="49.833135" lon="23.902247"></trkpt>
      <trkpt lat="49.832525" lon="23.887088"></trkpt>
      <trkpt lat="49.832615" lon="23.885262"></trkpt>
      <trkpt lat="49.832874" lon="23.883835"></trkpt>
      <trkpt lat="49.835633" lon="23.874044"></trkpt>
      <trkpt lat="49.836734" lon="23.869119"></trkpt>
      <trkpt lat="49.837101" lon="23.865608"></trkpt>
      <trkpt lat="49.837112" lon="23.861008"></trkpt>
      <trkpt lat="49.827332" lon="23.74446"></trkpt>
      <trkpt lat="49.827235" lon="23.741157"></trkpt>
      <trkpt lat="49.82744" lon="23.738895"></trkpt>
      <trkpt lat="49.82779" lon="23.73695"></trkpt>
      <trkpt lat="49.83734" lon="23.693672"></trkpt>
      <trkpt lat="49.838048" lon="23.68992"></trkpt>
      <trkpt lat="49.842587" lon="23.660097"></trkpt>
      <trkpt lat="49.842748" lon="23.657363"></trkpt>
      <trkpt lat="49.842569" lon="23.653937"></trkpt>
      <trkpt lat="49.842617" lon="23.651404"></trkpt>
      <trkpt lat="49.843229" lon="23.645362"></trkpt>
      <trkpt lat="49.843063" lon="23.642962"></trkpt>
      <trkpt lat="49.842617" lon="23.641007"></trkpt>
      <trkpt lat="49.84222" lon="23.63997"></trkpt>
      <trkpt lat="49.841502" lon="23.638599"></trkpt>
      <trkpt lat="49.840778" lon="23.63763"></trkpt>
      <trkpt lat="49.832869" lon="23.630063"></trkpt>
      <trkpt lat="49.831754" lon="23.629359"></trkpt>
      <trkpt lat="49.829856" lon="23.628671"></trkpt>
      <trkpt lat="49.829159" lon="23.628546"></trkpt>
      <trkpt lat="49.82633" lon="23.628573"></trkpt>
      <trkpt lat="49.823489" lon="23.628778"></trkpt>
      <trkpt lat="49.784125" lon="23.630027"></trkpt>
      <trkpt lat="49.783557" lon="23.629874"></trkpt>
      <trkpt lat="49.782796" lon="23.629382"></trkpt>
      <trkpt lat="49.781885" lon="23.628538"></trkpt>
      <trkpt lat="49.781184" lon="23.627593"></trkpt>
      <trkpt lat="49.780245" lon="23.625383"></trkpt>
      <trkpt lat="49.779844" lon="23.622844"></trkpt>
      <trkpt lat="49.779387" lon="23.610433"></trkpt>
      <trkpt lat="49.779533" lon="23.606929"></trkpt>
      <trkpt lat="49.779842" lon="23.605162"></trkpt>
      <trkpt lat="49.785076" lon="23.581901"></trkpt>
      <trkpt lat="49.785394" lon="23.579239"></trkpt>
      <trkpt lat="49.785777" lon="23.573569"></trkpt>
      <trkpt lat="49.785693" lon="23.568871"></trkpt>
      <trkpt lat="49.785917" lon="23.566444"></trkpt>
      <trkpt lat="49.787955" lon="23.558401"></trkpt>
      <trkpt lat="49.788303" lon="23.556644"></trkpt>
      <trkpt lat="49.791761" lon="23.536592"></trkpt>
      <trkpt lat="49.792136" lon="23.533308"></trkpt>
      <trkpt lat="49.793194" lon="23.511519"></trkpt>
      <trkpt lat="49.793242" lon="23.46518"></trkpt>
      <trkpt lat="49.794453" lon="23.446668"></trkpt>
      <trkpt lat="49.794889" lon="23.425835"></trkpt>
      <trkpt lat="49.799378" lon="23.386843"></trkpt>
      <trkpt lat="49.800854" lon="23.375117"></trkpt>
      <trkpt lat="49.802236" lon="23.369009"></trkpt>
      <trkpt lat="49.806139" lon="23.352952"></trkpt>
      <trkpt lat="49.806402" lon="23.351141"></trkpt>
      <trkpt lat="49.808937" lon="23.301597"></trkpt>
      <trkpt lat="49.809159" lon="23.299131"></trkpt>
      <trkpt lat="49.809827" lon="23.296289"></trkpt>
      <trkpt lat="49.814404" lon="23.284234"></trkpt>
      <trkpt lat="49.815168" lon="23.281981"></trkpt>
      <trkpt lat="49.815717" lon="23.279533"></trkpt>
      <trkpt lat="49.815931" lon="23.276283"></trkpt>
      <trkpt lat="49.816825" lon="23.234156"></trkpt>
      <trkpt lat="49.817139" lon="23.229555"></trkpt>
      <trkpt lat="49.817968" lon="23.225168"></trkpt>
      <trkpt lat="49.818887" lon="23.222014"></trkpt>
      <trkpt lat="49.82701" lon="23.201391"></trkpt>
      <trkpt lat="49.829265" lon="23.195387"></trkpt>
      <trkpt lat="49.830348" lon="23.191381"></trkpt>
      <trkpt lat="49.831114" lon="23.187229"></trkpt>
      <trkpt lat="49.831558" lon="23.183027"></trkpt>
      <trkpt lat="49.831675" lon="23.179503"></trkpt>
      <trkpt lat="49.831609" lon="23.176591"></trkpt>
      <trkpt lat="49.831353" lon="23.173496"></trkpt>
      <trkpt lat="49.829264" lon="23.158967"></trkpt>
      <trkpt lat="49.828867" lon="23.156996"></trkpt>
      <trkpt lat="49.827983" lon="23.154611"></trkpt>
      <trkpt lat="49.825246" lon="23.150318"></trkpt>
      <trkpt lat="49.824393" lon="23.14836"></trkpt>
      <trkpt lat="49.820582" lon="23.136519"></trkpt>
      <trkpt lat="49.819245" lon="23.132726"></trkpt>
      <trkpt lat="49.808264" lon="23.098589"></trkpt>
      <trkpt lat="49.807573" lon="23.09592"></trkpt>
      <trkpt lat="49.807218" lon="23.093765"></trkpt>
      <trkpt lat="49.806964" lon="23.090209"></trkpt>
      <trkpt lat="49.807014" lon="23.087737"></trkpt>
      <trkpt lat="49.807355" lon="23.084737"></trkpt>
      <trkpt lat="49.807817" lon="23.082309"></trkpt>
      <trkpt lat="49.808653" lon="23.07942"></trkpt>
      <trkpt lat="49.817274" lon="23.053131"></trkpt>
      <trkpt lat="49.81782" lon="23.050427"></trkpt>
      <trkpt lat="49.818183" lon="23.047922"></trkpt>
      <trkpt lat="49.818273" lon="23.045601"></trkpt>
      <trkpt lat="49.818206" lon="23.043225"></trkpt>
      <trkpt lat="49.818013" lon="23.041551"></trkpt>
      <trkpt lat="49.817142" lon="23.036941"></trkpt>
      <trkpt lat="49.813623" lon="23.021333"></trkpt>
      <trkpt lat="49.810309" lon="23.010951"></trkpt>
      <trkpt lat="49.808082" lon="23.004544"></trkpt>
      <trkpt lat="49.804344" lon="22.993008"></trkpt>
      <trkpt lat="49.803537" lon="22.98999"></trkpt>
      <trkpt lat="49.802979" lon="22.986693"></trkpt>
      <trkpt lat="49.802708" lon="22.983977"></trkpt>
      <trkpt lat="49.802631" lon="22.981956"></trkpt>
      <trkpt lat="49.802801" lon="22.977697"></trkpt>
      <trkpt lat="49.805929" lon="22.955358"></trkpt>
      <trkpt lat="49.805925" lon="22.953443"></trkpt>
      <trkpt lat="49.805286" lon="22.949069"></trkpt>
      <trkpt lat="49.802841" lon="22.940184"></trkpt>
      <trkpt lat="49.800555" lon="22.934791"></trkpt>
      <trkpt lat="49.800146" lon="22.933544"></trkpt>
      <trkpt lat="49.799785" lon="22.931661"></trkpt>
      <trkpt lat="49.799094" lon="22.926027"></trkpt>
      <trkpt lat="49.798462" lon="22.923119"></trkpt>
      <trkpt lat="49.78841" lon="22.893587"></trkpt>
      <trkpt lat="49.78788" lon="22.891502"></trkpt>
      <trkpt lat="49.786931" lon="22.886489"></trkpt>
      <trkpt lat="49.785166" lon="22.881035"></trkpt>
      <trkpt lat="49.784668" lon="22.878954"></trkpt>
      <trkpt lat="49.784369" lon="22.876426"></trkpt>
      <trkpt lat="49.784362" lon="22.874009"></trkpt>
      <trkpt lat="49.785728" lon="22.856503"></trkpt>
      <trkpt lat="49.785285" lon="22.848211"></trkpt>
      <trkpt lat="49.785387" lon="22.84637"></trkpt>
      <trkpt lat="49.785677" lon="22.845037"></trkpt>
      <trkpt lat="49.786117" lon="22.843792"></trkpt>
      <trkpt lat="49.787018" lon="22.842225"></trkpt>
      <trkpt lat="49.796073" lon="22.83204"></trkpt>
      <trkpt lat="49.797296" lon="22.830329"></trkpt>
      <trkpt lat="49.797923" lon="22.829174"></trkpt>
      <trkpt lat="49.801926" lon="22.820574"></trkpt>
      <trkpt lat="49.80316" lon="22.818494"></trkpt>
      <trkpt lat="49.80442" lon="22.817047"></trkpt>
      <trkpt lat="49.809905" lon="22.812241"></trkpt>
      <trkpt lat="49.811061" lon="22.811536"></trkpt>
      <trkpt lat="49.812125" lon="22.81126"></trkpt>
      <trkpt lat="49.813308" lon="22.811346"></trkpt>
      <trkpt lat="49.814574" lon="22.811914"></trkpt>
      <trkpt lat="49.815548" lon="22.812746"></trkpt>
      <trkpt lat="49.816463" lon="22.813986"></trkpt>
      <trkpt lat="49.816991" lon="22.815046"></trkpt>
      <trkpt lat="49.817604" lon="22.816851"></trkpt>
      <trkpt lat="49.818847" lon="22.821789"></trkpt>
      <trkpt lat="49.81945" lon="22.823612"></trkpt>
      <trkpt lat="49.823244" lon="22.830672"></trkpt>
      <trkpt lat="49.824338" lon="22.832002"></trkpt>
      <trkpt lat="49.826974" lon="22.833591"></trkpt>
      <trkpt lat="49.833369" lon="22.837898"></trkpt>
      <trkpt lat="49.835676" lon="22.839752"></trkpt>
      <trkpt lat="49.840175" lon="22.842858"></trkpt>
      <trkpt lat="49.84318" lon="22.845887"></trkpt>
      <trkpt lat="49.846314" lon="22.847946"></trkpt>
      <trkpt lat="49.871567" lon="22.862171"></trkpt>
      <trkpt lat="49.872473" lon="22.862637"></trkpt>
      <trkpt lat="49.873878" lon="22.863024"></trkpt>
      <trkpt lat="49.875313" lon="22.863067"></trkpt>
      <trkpt lat="49.876245" lon="22.862884"></trkpt>
      <trkpt lat="49.877156" lon="22.86254"></trkpt>
      <trkpt lat="49.934565" lon="22.836514"></trkpt>
      <trkpt lat="49.935433" lon="22.835998"></trkpt>
      <trkpt lat="49.935975" lon="22.835528"></trkpt>
      <trkpt lat="49.936985" lon="22.834367"></trkpt>
      <trkpt lat="49.937781" lon="22.833171"></trkpt>
      <trkpt lat="49.938616" lon="22.831424"></trkpt>
      <trkpt lat="49.940646" lon="22.82521"></trkpt>
      <trkpt lat="49.942189" lon="22.820914"></trkpt>
      <trkpt lat="49.961289" lon="22.762258"></trkpt>
      <trkpt lat="49.961854" lon="22.760621"></trkpt>
      <trkpt lat="49.962844" lon="22.758367"></trkpt>
      <trkpt lat="49.971442" lon="22.742186"></trkpt>
      <trkpt lat="49.972641" lon="22.740304"></trkpt>
      <trkpt lat="49.984185" lon="22.72622"></trkpt>
      <trkpt lat="49.991201" lon="22.71739"></trkpt>
      <trkpt lat="49.99557" lon="22.712265"></trkpt>
      <trkpt lat="50.000458" lon="22.706283"></trkpt>
      <trkpt lat="50.00325" lon="22.70285"></trkpt>
      <trkpt lat="50.003909" lon="22.70189"></trkpt>
      <trkpt lat="50.004767" lon="22.70023"></trkpt>
      <trkpt lat="50.007741" lon="22.69328"></trkpt>
      <trkpt lat="50.008585" lon="22.690867"></trkpt>
      <trkpt lat="50.008918" lon="22.689217"></trkpt>
      <trkpt lat="50.009777" lon="22.682727"></trkpt>
      <trkpt lat="50.012062" lon="22.667879"></trkpt>
      <trkpt lat="50.012537" lon="22.665919"></trkpt>
      <trkpt lat="50.014674" lon="22.658819"></trkpt>
      <trkpt lat="50.015612" lon="22.656444"></trkpt>
      <trkpt lat="50.017" lon="22.654241"></trkpt>
      <trkpt lat="50.054787" lon="22.601911"></trkpt>
      <trkpt lat="50.055854" lon="22.600113"></trkpt>
      <trkpt lat="50.056951" lon="22.597428"></trkpt>
      <trkpt lat="50.057556" lon="22.595155"></trkpt>
      <trkpt lat="50.06097" lon="22.577892"></trkpt>
      <trkpt lat="50.068022" lon="22.536003"></trkpt>
      <trkpt lat="50.068088" lon="22.532169"></trkpt>
      <trkpt lat="50.067909" lon="22.529571"></trkpt>
      <trkpt lat="50.067726" lon="22.52789"></trkpt>
      <trkpt lat="50.066663" lon="22.521584"></trkpt>
      <trkpt lat="50.066556" lon="22.518073"></trkpt>
      <trkpt lat="50.066293" lon="22.514758"></trkpt>
      <trkpt lat="50.066606" lon="22.51065"></trkpt>
      <trkpt lat="50.066866" lon="22.508935"></trkpt>
      <trkpt lat="50.067831" lon="22.496394"></trkpt>
      <trkpt lat="50.068126" lon="22.495187"></trkpt>
      <trkpt lat="50.068447" lon="22.49449"></trkpt>
      <trkpt lat="50.070318" lon="22.492234"></trkpt>
      <trkpt lat="50.072441" lon="22.489162"></trkpt>
      <trkpt lat="50.072897" lon="22.488367"></trkpt>
      <trkpt lat="50.073571" lon="22.486638"></trkpt>
      <trkpt lat="50.078823" lon="22.459178"></trkpt>
      <trkpt lat="50.080075" lon="22.452153"></trkpt>
      <trkpt lat="50.080361" lon="22.449224"></trkpt>
      <trkpt lat="50.083585" lon="22.391021"></trkpt>
      <trkpt lat="50.083664" lon="22.388029"></trkpt>
      <trkpt lat="50.083618" lon="22.338934"></trkpt>
      <trkpt lat="50.083471" lon="22.274267"></trkpt>
      <trkpt lat="50.083332" lon="22.271269"></trkpt>
      <trkpt lat="50.081823" lon="22.256477"></trkpt>
      <trkpt lat="50.081641" lon="22.253454"></trkpt>
      <trkpt lat="50.081837" lon="22.189928"></trkpt>
      <trkpt lat="50.081717" lon="22.187128"></trkpt>
      <trkpt lat="50.081442" lon="22.185224"></trkpt>
      <trkpt lat="50.069104" lon="22.122771"></trkpt>
      <trkpt lat="50.066761" lon="22.111666"></trkpt>
      <trkpt lat="50.065793" lon="22.105821"></trkpt>
      <trkpt lat="50.052985" lon="22.041232"></trkpt>
      <trkpt lat="50.052595" lon="22.037994"></trkpt>
      <trkpt lat="50.052381" lon="22.027129"></trkpt>
      <trkpt lat="50.052136" lon="22.024952"></trkpt>
      <trkpt lat="50.051454" lon="22.022847"></trkpt>
      <trkpt lat="50.050424" lon="22.021181"></trkpt>
      <trkpt lat="50.04963" lon="22.020399"></trkpt>
      <trkpt lat="50.045104" lon="22.017121"></trkpt>
      <trkpt lat="50.044519" lon="22.016487"></trkpt>
      <trkpt lat="50.044058" lon="22.015625"></trkpt>
      <trkpt lat="50.043722" lon="22.01443"></trkpt>
      <trkpt lat="50.043296" lon="22.01151"></trkpt>
      <trkpt lat="50.042961" lon="22.002769"></trkpt>
      <trkpt lat="50.04302" lon="22.000043"></trkpt>
      <trkpt lat="50.043191" lon="21.998728"></trkpt>
      <trkpt lat="50.043431" lon="21.997993"></trkpt>
      <trkpt lat="50.043844" lon="21.997219"></trkpt>
      <trkpt lat="50.044186" lon="21.996796"></trkpt>
      <trkpt lat="50.044777" lon="21.996335"></trkpt>
      <trkpt lat="50.045525" lon="21.996078"></trkpt>
      <trkpt lat="50.056092" lon="21.993612"></trkpt>
      <trkpt lat="50.059998" lon="21.992572"></trkpt>
      <trkpt lat="50.061175" lon="21.992085"></trkpt>
      <trkpt lat="50.062413" lon="21.991241"></trkpt>
      <trkpt lat="50.063734" lon="21.989861"></trkpt>
      <trkpt lat="50.075035" lon="21.975193"></trkpt>
      <trkpt lat="50.07604" lon="21.973446"></trkpt>
      <trkpt lat="50.076867" lon="21.971608"></trkpt>
      <trkpt lat="50.077594" lon="21.969523"></trkpt>
      <trkpt lat="50.078209" lon="21.966998"></trkpt>
      <trkpt lat="50.080759" lon="21.948834"></trkpt>
      <trkpt lat="50.081129" lon="21.944942"></trkpt>
      <trkpt lat="50.081131" lon="21.942386"></trkpt>
      <trkpt lat="50.080984" lon="21.940357"></trkpt>
      <trkpt lat="50.078229" lon="21.914879"></trkpt>
      <trkpt lat="50.078002" lon="21.911642"></trkpt>
      <trkpt lat="50.078638" lon="21.83507"></trkpt>
      <trkpt lat="50.078543" lon="21.831594"></trkpt>
      <trkpt lat="50.077984" lon="21.827786"></trkpt>
      <trkpt lat="50.073331" lon="21.806989"></trkpt>
      <trkpt lat="50.073037" lon="21.804821"></trkpt>
      <trkpt lat="50.072512" lon="21.797716"></trkpt>
      <trkpt lat="50.072075" lon="21.795012"></trkpt>
      <trkpt lat="50.071311" lon="21.792074"></trkpt>
      <trkpt lat="50.069608" lon="21.787474"></trkpt>
      <trkpt lat="50.068972" lon="21.785406"></trkpt>
      <trkpt lat="50.067248" lon="21.77647"></trkpt>
      <trkpt lat="50.062816" lon="21.760736"></trkpt>
      <trkpt lat="50.062253" lon="21.757983"></trkpt>
      <trkpt lat="50.061937" lon="21.753704"></trkpt>
      <trkpt lat="50.062052" lon="21.751036"></trkpt>
      <trkpt lat="50.062317" lon="21.748844"></trkpt>
      <trkpt lat="50.06276" lon="21.746596"></trkpt>
      <trkpt lat="50.063179" lon="21.745135"></trkpt>
      <trkpt lat="50.064982" lon="21.740575"></trkpt>
      <trkpt lat="50.069177" lon="21.730757"></trkpt>
      <trkpt lat="50.070145" lon="21.727857"></trkpt>
      <trkpt lat="50.070744" lon="21.725106"></trkpt>
      <trkpt lat="50.072438" lon="21.715323"></trkpt>
      <trkpt lat="50.074176" lon="21.708769"></trkpt>
      <trkpt lat="50.074674" lon="21.705671"></trkpt>
      <trkpt lat="50.075643" lon="21.68832"></trkpt>
      <trkpt lat="50.076426" lon="21.666932"></trkpt>
      <trkpt lat="50.076116" lon="21.663468"></trkpt>
      <trkpt lat="50.07419" lon="21.647021"></trkpt>
      <trkpt lat="50.07407" lon="21.642884"></trkpt>
      <trkpt lat="50.074333" lon="21.63969"></trkpt>
      <trkpt lat="50.074668" lon="21.637831"></trkpt>
      <trkpt lat="50.078122" lon="21.624943"></trkpt>
      <trkpt lat="50.078621" lon="21.622137"></trkpt>
      <trkpt lat="50.079753" lon="21.607337"></trkpt>
      <trkpt lat="50.079328" lon="21.588945"></trkpt>
      <trkpt lat="50.078687" lon="21.581958"></trkpt>
      <trkpt lat="50.058793" lon="21.419248"></trkpt>
      <trkpt lat="50.058256" lon="21.416548"></trkpt>
      <trkpt lat="50.057515" lon="21.41405"></trkpt>
      <trkpt lat="50.048156" lon="21.38841"></trkpt>
      <trkpt lat="50.047219" lon="21.385519"></trkpt>
      <trkpt lat="50.046637" lon="21.382729"></trkpt>
      <trkpt lat="50.046381" lon="21.380579"></trkpt>
      <trkpt lat="50.045815" lon="21.373637"></trkpt>
      <trkpt lat="50.045609" lon="21.369603"></trkpt>
      <trkpt lat="50.046247" lon="21.316626"></trkpt>
      <trkpt lat="50.046359" lon="21.314217"></trkpt>
      <trkpt lat="50.04663" lon="21.311783"></trkpt>
      <trkpt lat="50.053256" lon="21.266222"></trkpt>
      <trkpt lat="50.053803" lon="21.263944"></trkpt>
      <trkpt lat="50.054793" lon="21.261133"></trkpt>
      <trkpt lat="50.061206" lon="21.246911"></trkpt>
      <trkpt lat="50.062361" lon="21.243492"></trkpt>
      <trkpt lat="50.062869" lon="21.24126"></trkpt>
      <trkpt lat="50.06542" lon="21.227565"></trkpt>
      <trkpt lat="50.065993" lon="21.220602"></trkpt>
      <trkpt lat="50.066027" lon="21.216661"></trkpt>
      <trkpt lat="50.065576" lon="21.212837"></trkpt>
      <trkpt lat="50.052508" lon="21.148101"></trkpt>
      <trkpt lat="50.051866" lon="21.145973"></trkpt>
      <trkpt lat="50.051218" lon="21.144303"></trkpt>
      <trkpt lat="50.044164" lon="21.127563"></trkpt>
      <trkpt lat="50.043623" lon="21.126032"></trkpt>
      <trkpt lat="50.042957" lon="21.123512"></trkpt>
      <trkpt lat="50.037203" lon="21.08552"></trkpt>
      <trkpt lat="50.03629" lon="21.078621"></trkpt>
      <trkpt lat="50.0345" lon="21.067293"></trkpt>
      <trkpt lat="50.033028" lon="21.057057"></trkpt>
      <trkpt lat="50.032336" lon="21.05373"></trkpt>
      <trkpt lat="50.031501" lon="21.051135"></trkpt>
      <trkpt lat="50.030289" lon="21.048443"></trkpt>
      <trkpt lat="50.020557" lon="21.031155"></trkpt>
      <trkpt lat="50.010321" lon="21.008391"></trkpt>
      <trkpt lat="50.007777" lon="21.003186"></trkpt>
      <trkpt lat="50.007032" lon="21.001466"></trkpt>
      <trkpt lat="50.006218" lon="20.999036"></trkpt>
      <trkpt lat="50.005685" lon="20.996832"></trkpt>
      <trkpt lat="50.005235" lon="20.993835"></trkpt>
      <trkpt lat="50.005071" lon="20.990345"></trkpt>
      <trkpt lat="50.005165" lon="20.983607"></trkpt>
      <trkpt lat="50.005364" lon="20.980069"></trkpt>
      <trkpt lat="50.005563" lon="20.971179"></trkpt>
      <trkpt lat="50.005552" lon="20.965896"></trkpt>
      <trkpt lat="50.006225" lon="20.937464"></trkpt>
      <trkpt lat="50.0075" lon="20.87275"></trkpt>
      <trkpt lat="50.007545" lon="20.858294"></trkpt>
      <trkpt lat="50.003072" lon="20.712546"></trkpt>
      <trkpt lat="50.002476" lon="20.704812"></trkpt>
      <trkpt lat="50.002096" lon="20.702598"></trkpt>
      <trkpt lat="50.001579" lon="20.700517"></trkpt>
      <trkpt lat="49.9922" lon="20.674607"></trkpt>
      <trkpt lat="49.991297" lon="20.671362"></trkpt>
      <trkpt lat="49.990813" lon="20.668467"></trkpt>
      <trkpt lat="49.987001" lon="20.621315"></trkpt>
      <trkpt lat="49.986641" lon="20.614898"></trkpt>
      <trkpt lat="49.986688" lon="20.61226"></trkpt>
      <trkpt lat="49.987106" lon="20.606744"></trkpt>
      <trkpt lat="49.987517" lon="20.598259"></trkpt>
      <trkpt lat="49.986636" lon="20.530148"></trkpt>
      <trkpt lat="49.986417" lon="20.527631"></trkpt>
      <trkpt lat="49.978098" lon="20.46466"></trkpt>
      <trkpt lat="49.977768" lon="20.460635"></trkpt>
      <trkpt lat="49.977475" lon="20.441939"></trkpt>
      <trkpt lat="49.977541" lon="20.434636"></trkpt>
      <trkpt lat="49.977075" lon="20.414296"></trkpt>
      <trkpt lat="49.977178" lon="20.411312"></trkpt>
      <trkpt lat="49.977515" lon="20.408594"></trkpt>
      <trkpt lat="49.978294" lon="20.405149"></trkpt>
      <trkpt lat="49.993038" lon="20.350553"></trkpt>
      <trkpt lat="50.001395" lon="20.303419"></trkpt>
      <trkpt lat="50.009863" lon="20.254816"></trkpt>
      <trkpt lat="50.010289" lon="20.251821"></trkpt>
      <trkpt lat="50.010451" lon="20.248753"></trkpt>
      <trkpt lat="50.010669" lon="20.206551"></trkpt>
      <trkpt lat="50.010833" lon="20.203606"></trkpt>
      <trkpt lat="50.01144" lon="20.199872"></trkpt>
      <trkpt lat="50.019198" lon="20.163808"></trkpt>
      <trkpt lat="50.019648" lon="20.160897"></trkpt>
      <trkpt lat="50.01985" lon="20.157998"></trkpt>
      <trkpt lat="50.01956" lon="20.140309"></trkpt>
      <trkpt lat="50.017631" lon="20.060904"></trkpt>
      <trkpt lat="50.017726" lon="20.055137"></trkpt>
      <trkpt lat="50.018223" lon="20.051342"></trkpt>
      <trkpt lat="50.01951" lon="20.045896"></trkpt>
      <trkpt lat="50.021388" lon="20.032859"></trkpt>
      <trkpt lat="50.02333" lon="20.022757"></trkpt>
      <trkpt lat="50.023618" lon="20.020683"></trkpt>
      <trkpt lat="50.023818" lon="20.017237"></trkpt>
      <trkpt lat="50.026101" lon="20.003313"></trkpt>
      <trkpt lat="50.026358" lon="20.002295"></trkpt>
      <trkpt lat="50.027458" lon="19.999841"></trkpt>
      <trkpt lat="50.028421" lon="19.996"></trkpt>
      <trkpt lat="50.030107" lon="19.987922"></trkpt>
      <trkpt lat="50.030665" lon="19.985886"></trkpt>
      <trkpt lat="50.031364" lon="19.982633"></trkpt>
      <trkpt lat="50.032006" lon="19.980933"></trkpt>
      <trkpt lat="50.036814" lon="19.974268"></trkpt>
      <trkpt lat="50.038563" lon="19.970743"></trkpt>
      <trkpt lat="50.040706" lon="19.96779"></trkpt>
      <trkpt lat="50.041846" lon="19.96598"></trkpt>
      <trkpt lat="50.053176" lon="19.950638"></trkpt>
      <trkpt lat="50.054026" lon="19.949733"></trkpt>
      <trkpt lat="50.054961" lon="19.948985"></trkpt>
      <trkpt lat="50.056145" lon="19.948349"></trkpt>
      <trkpt lat="50.057258" lon="19.948022"></trkpt>
      <trkpt lat="50.066177" lon="19.947402"></trkpt>
      <trkpt lat="50.067323" lon="19.947068"></trkpt>
      <trkpt lat="50.070418" lon="19.946907"></trkpt>
      <trkpt lat="50.072279" lon="19.94645"></trkpt>
      <trkpt lat="50.074467" lon="19.944983"></trkpt>
      <trkpt lat="50.076417" lon="19.942757"></trkpt>
      <trkpt lat="50.077045" lon="19.941937"></trkpt>
      <trkpt lat="50.078061" lon="19.940237"></trkpt>
      <trkpt lat="50.079224" lon="19.937845"></trkpt>
      <trkpt lat="50.080257" lon="19.93379"></trkpt>
      <trkpt lat="50.080719" lon="19.929909"></trkpt>
      <trkpt lat="50.081406" lon="19.927258"></trkpt>
      <trkpt lat="50.081568" lon="19.926034"></trkpt>
      <trkpt lat="50.081829" lon="19.917236"></trkpt>
      <trkpt lat="50.082726" lon="19.895352"></trkpt>
      <trkpt lat="50.082611" lon="19.891371"></trkpt>
      <trkpt lat="50.082889" lon="19.888188"></trkpt>
      <trkpt lat="50.082976" lon="19.884597"></trkpt>
      <trkpt lat="50.082968" lon="19.882305"></trkpt>
      <trkpt lat="50.08253" lon="19.872268"></trkpt>
      <trkpt lat="50.082561" lon="19.868094"></trkpt>
      <trkpt lat="50.082744" lon="19.865662"></trkpt>
      <trkpt lat="50.083112" lon="19.862986"></trkpt>
      <trkpt lat="50.084512" lon="19.856792"></trkpt>
      <trkpt lat="50.085622" lon="19.853763"></trkpt>
      <trkpt lat="50.087169" lon="19.850779"></trkpt>
      <trkpt lat="50.098234" lon="19.833322"></trkpt>
      <trkpt lat="50.111102" lon="19.816358"></trkpt>
      <trkpt lat="50.112928" lon="19.813444"></trkpt>
      <trkpt lat="50.114007" lon="19.811212"></trkpt>
      <trkpt lat="50.115058" lon="19.808427"></trkpt>
      <trkpt lat="50.120692" lon="19.788651"></trkpt>
      <trkpt lat="50.121352" lon="19.785316"></trkpt>
      <trkpt lat="50.123529" lon="19.769665"></trkpt>
      <trkpt lat="50.123763" lon="19.767075"></trkpt>
      <trkpt lat="50.123826" lon="19.763862"></trkpt>
      <trkpt lat="50.123537" lon="19.759742"></trkpt>
      <trkpt lat="50.122079" lon="19.750301"></trkpt>
      <trkpt lat="50.121848" lon="19.748153"></trkpt>
      <trkpt lat="50.121717" lon="19.745235"></trkpt>
      <trkpt lat="50.121717" lon="19.739959"></trkpt>
      <trkpt lat="50.121496" lon="19.737124"></trkpt>
      <trkpt lat="50.118949" lon="19.720512"></trkpt>
      <trkpt lat="50.118789" lon="19.718285"></trkpt>
      <trkpt lat="50.118801" lon="19.716575"></trkpt>
      <trkpt lat="50.119022" lon="19.713204"></trkpt>
      <trkpt lat="50.119324" lon="19.710551"></trkpt>
      <trkpt lat="50.119844" lon="19.707762"></trkpt>
      <trkpt lat="50.120552" lon="19.705083"></trkpt>
      <trkpt lat="50.121678" lon="19.702014"></trkpt>
      <trkpt lat="50.126489" lon="19.690905"></trkpt>
      <trkpt lat="50.127472" lon="19.688058"></trkpt>
      <trkpt lat="50.128187" lon="19.685244"></trkpt>
      <trkpt lat="50.128862" lon="19.680596"></trkpt>
      <trkpt lat="50.130633" lon="19.662796"></trkpt>
      <trkpt lat="50.130799" lon="19.659121"></trkpt>
      <trkpt lat="50.130456" lon="19.648429"></trkpt>
      <trkpt lat="50.130457" lon="19.645509"></trkpt>
      <trkpt lat="50.131045" lon="19.632896"></trkpt>
      <trkpt lat="50.131138" lon="19.625223"></trkpt>
      <trkpt lat="50.130748" lon="19.621584"></trkpt>
      <trkpt lat="50.129028" lon="19.613457"></trkpt>
      <trkpt lat="50.128596" lon="19.610928"></trkpt>
      <trkpt lat="50.128327" lon="19.608376"></trkpt>
      <trkpt lat="50.12822" lon="19.60534"></trkpt>
      <trkpt lat="50.128362" lon="19.601943"></trkpt>
      <trkpt lat="50.130351" lon="19.580178"></trkpt>
      <trkpt lat="50.13104" lon="19.576377"></trkpt>
      <trkpt lat="50.132098" lon="19.572712"></trkpt>
      <trkpt lat="50.132765" lon="19.570968"></trkpt>
      <trkpt lat="50.137065" lon="19.561158"></trkpt>
      <trkpt lat="50.138276" lon="19.557792"></trkpt>
      <trkpt lat="50.139178" lon="19.554091"></trkpt>
      <trkpt lat="50.139966" lon="19.549349"></trkpt>
      <trkpt lat="50.140338" lon="19.546321"></trkpt>
      <trkpt lat="50.140482" lon="19.543498"></trkpt>
      <trkpt lat="50.140519" lon="19.518759"></trkpt>
      <trkpt lat="50.140775" lon="19.515343"></trkpt>
      <trkpt lat="50.141431" lon="19.511314"></trkpt>
      <trkpt lat="50.145099" lon="19.497443"></trkpt>
      <trkpt lat="50.153107" lon="19.456645"></trkpt>
      <trkpt lat="50.153978" lon="19.453607"></trkpt>
      <trkpt lat="50.157089" lon="19.444364"></trkpt>
      <trkpt lat="50.161945" lon="19.429102"></trkpt>
      <trkpt lat="50.162996" lon="19.426145"></trkpt>
      <trkpt lat="50.163625" lon="19.423463"></trkpt>
      <trkpt lat="50.164719" lon="19.416578"></trkpt>
      <trkpt lat="50.165711" lon="19.412733"></trkpt>
      <trkpt lat="50.167006" lon="19.409351"></trkpt>
      <trkpt lat="50.179399" lon="19.3828"></trkpt>
      <trkpt lat="50.201565" lon="19.346143"></trkpt>
      <trkpt lat="50.20344" lon="19.343747"></trkpt>
      <trkpt lat="50.205295" lon="19.341974"></trkpt>
      <trkpt lat="50.208104" lon="19.33998"></trkpt>
      <trkpt lat="50.213216" lon="19.336966"></trkpt>
      <trkpt lat="50.216665" lon="19.33463"></trkpt>
      <trkpt lat="50.230295" lon="19.324599"></trkpt>
      <trkpt lat="50.231655" lon="19.323386"></trkpt>
      <trkpt lat="50.232958" lon="19.321941"></trkpt>
      <trkpt lat="50.238798" lon="19.313886"></trkpt>
      <trkpt lat="50.24177" lon="19.309999"></trkpt>
      <trkpt lat="50.243033" lon="19.307715"></trkpt>
      <trkpt lat="50.244582" lon="19.303613"></trkpt>
      <trkpt lat="50.245619" lon="19.300074"></trkpt>
      <trkpt lat="50.247841" lon="19.289371"></trkpt>
      <trkpt lat="50.249349" lon="19.28132"></trkpt>
      <trkpt lat="50.250231" lon="19.274483"></trkpt>
      <trkpt lat="50.250416" lon="19.270992"></trkpt>
      <trkpt lat="50.250428" lon="19.265927"></trkpt>
      <trkpt lat="50.250806" lon="19.261759"></trkpt>
      <trkpt lat="50.251261" lon="19.259192"></trkpt>
      <trkpt lat="50.255608" lon="19.239674"></trkpt>
      <trkpt lat="50.25595" lon="19.23648"></trkpt>
      <trkpt lat="50.255796" lon="19.232727"></trkpt>
      <trkpt lat="50.255223" lon="19.22965"></trkpt>
      <trkpt lat="50.254333" lon="19.227041"></trkpt>
      <trkpt lat="50.246201" lon="19.211851"></trkpt>
      <trkpt lat="50.245065" lon="19.209433"></trkpt>
      <trkpt lat="50.244008" lon="19.206189"></trkpt>
      <trkpt lat="50.241809" lon="19.197612"></trkpt>
      <trkpt lat="50.24035" lon="19.193523"></trkpt>
      <trkpt lat="50.237413" lon="19.187578"></trkpt>
      <trkpt lat="50.232764" lon="19.180176"></trkpt>
      <trkpt lat="50.23165" lon="19.177906"></trkpt>
      <trkpt lat="50.230716" lon="19.175473"></trkpt>
      <trkpt lat="50.229566" lon="19.171164"></trkpt>
      <trkpt lat="50.228652" lon="19.165635"></trkpt>
      <trkpt lat="50.228455" lon="19.161156"></trkpt>
      <trkpt lat="50.228748" lon="19.155964"></trkpt>
      <trkpt lat="50.228944" lon="19.154401"></trkpt>
      <trkpt lat="50.229197" lon="19.153182"></trkpt>
      <trkpt lat="50.229827" lon="19.151215"></trkpt>
      <trkpt lat="50.231185" lon="19.147905"></trkpt>
      <trkpt lat="50.231876" lon="19.146668"></trkpt>
      <trkpt lat="50.232643" lon="19.145802"></trkpt>
      <trkpt lat="50.235712" lon="19.14298"></trkpt>
      <trkpt lat="50.239691" lon="19.140156"></trkpt>
      <trkpt lat="50.240302" lon="19.139544"></trkpt>
      <trkpt lat="50.241444" lon="19.137912"></trkpt>
      <trkpt lat="50.243627" lon="19.133827"></trkpt>
      <trkpt lat="50.244504" lon="19.132522"></trkpt>
      <trkpt lat="50.245778" lon="19.13105"></trkpt>
      <trkpt lat="50.246978" lon="19.129927"></trkpt>
      <trkpt lat="50.250068" lon="19.126095"></trkpt>
      <trkpt lat="50.255289" lon="19.118819"></trkpt>
      <trkpt lat="50.25719" lon="19.115647"></trkpt>
      <trkpt lat="50.258977" lon="19.110825"></trkpt>
      <trkpt lat="50.25948" lon="19.108649"></trkpt>
      <trkpt lat="50.259784" lon="19.105934"></trkpt>
      <trkpt lat="50.26" lon="19.103217"></trkpt>
      <trkpt lat="50.259955" lon="19.100441"></trkpt>
      <trkpt lat="50.258286" lon="19.088642"></trkpt>
      <trkpt lat="50.25806" lon="19.085608"></trkpt>
      <trkpt lat="50.256711" lon="19.075155"></trkpt>
      <trkpt lat="50.256363" lon="19.069647"></trkpt>
      <trkpt lat="50.256523" lon="19.064721"></trkpt>
      <trkpt lat="50.257744" lon="19.048733"></trkpt>
      <trkpt lat="50.256696" lon="19.03403"></trkpt>
      <trkpt lat="50.256539" lon="19.032936"></trkpt>
      <trkpt lat="50.2565" lon="19.029354"></trkpt>
      <trkpt lat="50.256989" lon="19.022993"></trkpt>
      <trkpt lat="50.257691" lon="19.019154"></trkpt>
      <trkpt lat="50.25797" lon="19.015538"></trkpt>
      <trkpt lat="50.258117" lon="19.011414"></trkpt>
      <trkpt lat="50.258619" lon="19.00809"></trkpt>
      <trkpt lat="50.260777" lon="19.000258"></trkpt>
      <trkpt lat="50.271376" lon="18.964235"></trkpt>
      <trkpt lat="50.275424" lon="18.95112"></trkpt>
      <trkpt lat="50.276604" lon="18.948323"></trkpt>
      <trkpt lat="50.278012" lon="18.945817"></trkpt>
      <trkpt lat="50.280995" lon="18.940021"></trkpt>
      <trkpt lat="50.281751" lon="18.938278"></trkpt>
      <trkpt lat="50.283805" lon="18.931456"></trkpt>
      <trkpt lat="50.285487" lon="18.926877"></trkpt>
      <trkpt lat="50.297024" lon="18.898906"></trkpt>
      <trkpt lat="50.297587" lon="18.89693"></trkpt>
      <trkpt lat="50.298514" lon="18.8926"></trkpt>
      <trkpt lat="50.299004" lon="18.891258"></trkpt>
      <trkpt lat="50.301605" lon="18.885671"></trkpt>
      <trkpt lat="50.303592" lon="18.87872"></trkpt>
      <trkpt lat="50.305207" lon="18.875379"></trkpt>
      <trkpt lat="50.307973" lon="18.870856"></trkpt>
      <trkpt lat="50.313805" lon="18.860266"></trkpt>
      <trkpt lat="50.314413" lon="18.858719"></trkpt>
      <trkpt lat="50.315026" lon="18.856521"></trkpt>
      <trkpt lat="50.315816" lon="18.852317"></trkpt>
      <trkpt lat="50.315882" lon="18.849172"></trkpt>
      <trkpt lat="50.315625" lon="18.84514"></trkpt>
      <trkpt lat="50.315246" lon="18.842083"></trkpt>
      <trkpt lat="50.31459" lon="18.838888"></trkpt>
      <trkpt lat="50.313639" lon="18.835747"></trkpt>
      <trkpt lat="50.308184" lon="18.821113"></trkpt>
      <trkpt lat="50.307338" lon="18.818192"></trkpt>
      <trkpt lat="50.306861" lon="18.81589"></trkpt>
      <trkpt lat="50.306537" lon="18.81309"></trkpt>
      <trkpt lat="50.306163" lon="18.806912"></trkpt>
      <trkpt lat="50.304681" lon="18.773552"></trkpt>
      <trkpt lat="50.304288" lon="18.769106"></trkpt>
      <trkpt lat="50.30381" lon="18.766129"></trkpt>
      <trkpt lat="50.300782" lon="18.75032"></trkpt>
      <trkpt lat="50.299269" lon="18.743467"></trkpt>
      <trkpt lat="50.298392" lon="18.73669"></trkpt>
      <trkpt lat="50.296414" lon="18.729156"></trkpt>
      <trkpt lat="50.295951" lon="18.726823"></trkpt>
      <trkpt lat="50.295838" lon="18.725027"></trkpt>
      <trkpt lat="50.29577" lon="18.715833"></trkpt>
      <trkpt lat="50.295591" lon="18.71417"></trkpt>
      <trkpt lat="50.294866" lon="18.710055"></trkpt>
      <trkpt lat="50.294721" lon="18.70835"></trkpt>
      <trkpt lat="50.294752" lon="18.697407"></trkpt>
      <trkpt lat="50.29492" lon="18.695449"></trkpt>
      <trkpt lat="50.295314" lon="18.693368"></trkpt>
      <trkpt lat="50.297506" lon="18.686494"></trkpt>
      <trkpt lat="50.303036" lon="18.672308"></trkpt>
      <trkpt lat="50.305553" lon="18.666806"></trkpt>
      <trkpt lat="50.307679" lon="18.662995"></trkpt>
      <trkpt lat="50.310642" lon="18.65898"></trkpt>
      <trkpt lat="50.313401" lon="18.656368"></trkpt>
      <trkpt lat="50.314197" lon="18.655454"></trkpt>
      <trkpt lat="50.31705" lon="18.651452"></trkpt>
      <trkpt lat="50.323051" lon="18.645995"></trkpt>
      <trkpt lat="50.325774" lon="18.642962"></trkpt>
      <trkpt lat="50.329632" lon="18.637786"></trkpt>
      <trkpt lat="50.333541" lon="18.630813"></trkpt>
      <trkpt lat="50.334711" lon="18.628998"></trkpt>
      <trkpt lat="50.338822" lon="18.62402"></trkpt>
      <trkpt lat="50.339689" lon="18.623196"></trkpt>
      <trkpt lat="50.3412" lon="18.622323"></trkpt>
      <trkpt lat="50.342983" lon="18.621793"></trkpt>
      <trkpt lat="50.351616" lon="18.620504"></trkpt>
      <trkpt lat="50.352899" lon="18.620434"></trkpt>
      <trkpt lat="50.354201" lon="18.620562"></trkpt>
      <trkpt lat="50.355745" lon="18.62098"></trkpt>
      <trkpt lat="50.356768" lon="18.621426"></trkpt>
      <trkpt lat="50.368029" lon="18.627974"></trkpt>
      <trkpt lat="50.369646" lon="18.628617"></trkpt>
      <trkpt lat="50.371497" lon="18.628964"></trkpt>
      <trkpt lat="50.373637" lon="18.628866"></trkpt>
      <trkpt lat="50.375793" lon="18.628216"></trkpt>
      <trkpt lat="50.378703" lon="18.626525"></trkpt>
      <trkpt lat="50.37987" lon="18.625446"></trkpt>
      <trkpt lat="50.385529" lon="18.616264"></trkpt>
      <trkpt lat="50.388804" lon="18.612128"></trkpt>
      <trkpt lat="50.389712" lon="18.610744"></trkpt>
      <trkpt lat="50.391983" lon="18.606009"></trkpt>
      <trkpt lat="50.412893" lon="18.570884"></trkpt>
      <trkpt lat="50.423432" lon="18.55242"></trkpt>
      <trkpt lat="50.425179" lon="18.549016"></trkpt>
      <trkpt lat="50.436945" lon="18.528005"></trkpt>
      <trkpt lat="50.437943" lon="18.525718"></trkpt>
      <trkpt lat="50.43874" lon="18.523433"></trkpt>
      <trkpt lat="50.456327" lon="18.463938"></trkpt>
      <trkpt lat="50.457932" lon="18.459157"></trkpt>
      <trkpt lat="50.494097" lon="18.382273"></trkpt>
      <trkpt lat="50.495425" lon="18.379129"></trkpt>
      <trkpt lat="50.496236" lon="18.376647"></trkpt>
      <trkpt lat="50.515197" lon="18.311472"></trkpt>
      <trkpt lat="50.516229" lon="18.308435"></trkpt>
      <trkpt lat="50.517494" lon="18.304092"></trkpt>
      <trkpt lat="50.520538" lon="18.292976"></trkpt>
      <trkpt lat="50.521107" lon="18.289953"></trkpt>
      <trkpt lat="50.525549" lon="18.237714"></trkpt>
      <trkpt lat="50.525719" lon="18.236176"></trkpt>
      <trkpt lat="50.526342" lon="18.232697"></trkpt>
      <trkpt lat="50.540388" lon="18.170538"></trkpt>
      <trkpt lat="50.549969" lon="18.129179"></trkpt>
      <trkpt lat="50.550621" lon="18.126817"></trkpt>
      <trkpt lat="50.553158" lon="18.115887"></trkpt>
      <trkpt lat="50.553833" lon="18.113595"></trkpt>
      <trkpt lat="50.554656" lon="18.111465"></trkpt>
      <trkpt lat="50.55565" lon="18.10936"></trkpt>
      <trkpt lat="50.592617" lon="18.03825"></trkpt>
      <trkpt lat="50.627301" lon="17.971023"></trkpt>
      <trkpt lat="50.62814" lon="17.969207"></trkpt>
      <trkpt lat="50.63019" lon="17.96381"></trkpt>
      <trkpt lat="50.630671" lon="17.962874"></trkpt>
      <trkpt lat="50.640747" lon="17.949028"></trkpt>
      <trkpt lat="50.657181" lon="17.933659"></trkpt>
      <trkpt lat="50.658495" lon="17.932258"></trkpt>
      <trkpt lat="50.659662" lon="17.93059"></trkpt>
      <trkpt lat="50.660208" lon="17.929636"></trkpt>
      <trkpt lat="50.660576" lon="17.928725"></trkpt>
      <trkpt lat="50.661786" lon="17.924168"></trkpt>
      <trkpt lat="50.662057" lon="17.922454"></trkpt>
      <trkpt lat="50.662165" lon="17.920475"></trkpt>
      <trkpt lat="50.660659" lon="17.895116"></trkpt>
      <trkpt lat="50.660675" lon="17.8861"></trkpt>
      <trkpt lat="50.660866" lon="17.882798"></trkpt>
      <trkpt lat="50.66123" lon="17.879321"></trkpt>
      <trkpt lat="50.669851" lon="17.818144"></trkpt>
      <trkpt lat="50.679252" lon="17.780921"></trkpt>
      <trkpt lat="50.679965" lon="17.778559"></trkpt>
      <trkpt lat="50.68097" lon="17.775982"></trkpt>
      <trkpt lat="50.755719" lon="17.620338"></trkpt>
      <trkpt lat="50.757674" lon="17.616709"></trkpt>
      <trkpt lat="50.763708" lon="17.604059"></trkpt>
      <trkpt lat="50.765372" lon="17.600195"></trkpt>
      <trkpt lat="50.798298" lon="17.531366"></trkpt>
      <trkpt lat="50.79972" lon="17.528653"></trkpt>
      <trkpt lat="50.801261" lon="17.526064"></trkpt>
      <trkpt lat="50.803368" lon="17.522998"></trkpt>
      <trkpt lat="50.805379" lon="17.520523"></trkpt>
      <trkpt lat="50.806959" lon="17.51884"></trkpt>
      <trkpt lat="50.846018" lon="17.483907"></trkpt>
      <trkpt lat="50.8472" lon="17.48268"></trkpt>
      <trkpt lat="50.84827" lon="17.481364"></trkpt>
      <trkpt lat="50.850264" lon="17.478219"></trkpt>
      <trkpt lat="50.851056" lon="17.476556"></trkpt>
      <trkpt lat="50.851869" lon="17.474245"></trkpt>
      <trkpt lat="50.855226" lon="17.462352"></trkpt>
      <trkpt lat="50.857282" lon="17.45573"></trkpt>
      <trkpt lat="50.860789" lon="17.443581"></trkpt>
      <trkpt lat="50.861995" lon="17.440169"></trkpt>
      <trkpt lat="50.863542" lon="17.436502"></trkpt>
      <trkpt lat="50.864899" lon="17.433747"></trkpt>
      <trkpt lat="50.866584" lon="17.430779"></trkpt>
      <trkpt lat="50.886747" lon="17.39795"></trkpt>
      <trkpt lat="50.888756" lon="17.394269"></trkpt>
      <trkpt lat="50.890182" lon="17.391173"></trkpt>
      <trkpt lat="50.929645" lon="17.299584"></trkpt>
      <trkpt lat="50.932572" lon="17.293874"></trkpt>
      <trkpt lat="50.96968" lon="17.21899"></trkpt>
      <trkpt lat="50.970944" lon="17.216637"></trkpt>
      <trkpt lat="50.973664" lon="17.212316"></trkpt>
      <trkpt lat="50.997898" lon="17.176975"></trkpt>
      <trkpt lat="51.028207" lon="17.125595"></trkpt>
      <trkpt lat="51.029852" lon="17.12296"></trkpt>
      <trkpt lat="51.033155" lon="17.118078"></trkpt>
      <trkpt lat="51.033816" lon="17.11736"></trkpt>
      <trkpt lat="51.038103" lon="17.113673"></trkpt>
      <trkpt lat="51.041685" lon="17.108926"></trkpt>
      <trkpt lat="51.043663" lon="17.106485"></trkpt>
      <trkpt lat="51.047324" lon="17.102408"></trkpt>
      <trkpt lat="51.05098" lon="17.098986"></trkpt>
      <trkpt lat="51.052008" lon="17.098091"></trkpt>
      <trkpt lat="51.052916" lon="17.09749"></trkpt>
      <trkpt lat="51.054147" lon="17.096371"></trkpt>
      <trkpt lat="51.060703" lon="17.090168"></trkpt>
      <trkpt lat="51.067211" lon="17.084996"></trkpt>
      <trkpt lat="51.068319" lon="17.083816"></trkpt>
      <trkpt lat="51.073129" lon="17.079468"></trkpt>
      <trkpt lat="51.081107" lon="17.073308"></trkpt>
      <trkpt lat="51.083845" lon="17.070279"></trkpt>
      <trkpt lat="51.08545" lon="17.068151"></trkpt>
      <trkpt lat="51.087123" lon="17.065533"></trkpt>
      <trkpt lat="51.089605" lon="17.059416"></trkpt>
      <trkpt lat="51.091529" lon="17.054999"></trkpt>
      <trkpt lat="51.092246" lon="17.05377"></trkpt>
      <trkpt lat="51.095636" lon="17.046606"></trkpt>
      <trkpt lat="51.096648" lon="17.043799"></trkpt>
      <trkpt lat="51.097494" lon="17.040402"></trkpt>
      <trkpt lat="51.097844" lon="17.037958"></trkpt>
  </trkseg></trk>
</gpx>
