<?xml version="1.0" encoding="UTF-8"?>
<gpx version="1.1" creator="yatutbuv" xmlns="http://www.topografix.com/GPX/1/1">
  <trk><name>2024_Oslo (22.3km)</name><trkseg>
      <trkpt lat="59.927165" lon="10.865293"></trkpt>
      <trkpt lat="59.926905" lon="10.863236"></trkpt>
      <trkpt lat="59.926613" lon="10.862021"></trkpt>
      <trkpt lat="59.925801" lon="10.860093"></trkpt>
      <trkpt lat="59.924668" lon="10.857882"></trkpt>
      <trkpt lat="59.923324" lon="10.855927"></trkpt>
      <trkpt lat="59.92107" lon="10.853392"></trkpt>
      <trkpt lat="59.91951" lon="10.851961"></trkpt>
      <trkpt lat="59.918847" lon="10.851097"></trkpt>
      <trkpt lat="59.918228" lon="10.850005"></trkpt>
      <trkpt lat="59.91673" lon="10.846425"></trkpt>
      <trkpt lat="59.913648" lon="10.841713"></trkpt>
      <trkpt lat="59.910938" lon="10.837313"></trkpt>
      <trkpt lat="59.910603" lon="10.836311"></trkpt>
      <trkpt lat="59.910378" lon="10.835154"></trkpt>
      <trkpt lat="59.910291" lon="10.831807"></trkpt>
      <trkpt lat="59.909731" lon="10.82658"></trkpt>
      <trkpt lat="59.909201" lon="10.825239"></trkpt>
      <trkpt lat="59.908179" lon="10.824141"></trkpt>
      <trkpt lat="59.907666" lon="10.823294"></trkpt>
      <trkpt lat="59.907218" lon="10.822012"></trkpt>
      <trkpt lat="59.906989" lon="10.820679"></trkpt>
      <trkpt lat="59.906973" lon="10.819006"></trkpt>
      <trkpt lat="59.907263" lon="10.817619"></trkpt>
      <trkpt lat="59.907688" lon="10.816732"></trkpt>
      <trkpt lat="59.90873" lon="10.815367"></trkpt>
      <trkpt lat="59.909112" lon="10.814235"></trkpt>
      <trkpt lat="59.909518" lon="10.807978"></trkpt>
      <trkpt lat="59.909683" lon="10.806954"></trkpt>
      <trkpt lat="59.910155" lon="10.805841"></trkpt>
      <trkpt lat="59.911642" lon="10.804454"></trkpt>
      <trkpt lat="59.912363" lon="10.802949"></trkpt>
      <trkpt lat="59.913187" lon="10.798716"></trkpt>
      <trkpt lat="59.913482" lon="10.795391"></trkpt>
      <trkpt lat="59.913495" lon="10.793627"></trkpt>
      <trkpt lat="59.913192" lon="10.790649"></trkpt>
      <trkpt lat="59.913366" lon="10.789132"></trkpt>
      <trkpt lat="59.914611" lon="10.785182"></trkpt>
      <trkpt lat="59.91524" lon="10.784198"></trkpt>
      <trkpt lat="59.916192" lon="10.783606"></trkpt>
      <trkpt lat="59.916613" lon="10.783138"></trkpt>
      <trkpt lat="59.917006" lon="10.782322"></trkpt>
      <trkpt lat="59.917273" lon="10.781133"></trkpt>
      <trkpt lat="59.917306" lon="10.779828"></trkpt>
      <trkpt lat="59.916966" lon="10.778201"></trkpt>
      <trkpt lat="59.914784" lon="10.774497"></trkpt>
      <trkpt lat="59.913941" lon="10.7713"></trkpt>
      <trkpt lat="59.913528" lon="10.770539"></trkpt>
      <trkpt lat="59.912777" lon="10.76969"></trkpt>
      <trkpt lat="59.912412" lon="10.768982"></trkpt>
      <trkpt lat="59.912192" lon="10.768213"></trkpt>
      <trkpt lat="59.912039" lon="10.766895"></trkpt>
      <trkpt lat="59.912086" lon="10.766013"></trkpt>
      <trkpt lat="59.912676" lon="10.762601"></trkpt>
      <trkpt lat="59.912877" lon="10.758328"></trkpt>
      <trkpt lat="59.912779" lon="10.756797"></trkpt>
      <trkpt lat="59.912284" lon="10.754855"></trkpt>
      <trkpt lat="59.912161" lon="10.753956"></trkpt>
      <trkpt lat="59.912347" lon="10.749352"></trkpt>
      <trkpt lat="59.912477" lon="10.748389"></trkpt>
      <trkpt lat="59.913305" lon="10.745022"></trkpt>
      <trkpt lat="59.91393" lon="10.73764"></trkpt>
      <trkpt lat="59.914852" lon="10.733587"></trkpt>
      <trkpt lat="59.915406" lon="10.73224"></trkpt>
      <trkpt lat="59.916017" lon="10.731404"></trkpt>
      <trkpt lat="59.916663" lon="10.730754"></trkpt>
      <trkpt lat="59.922744" lon="10.726694"></trkpt>
      <trkpt lat="59.923486" lon="10.726012"></trkpt>
      <trkpt lat="59.927404" lon="10.719766"></trkpt>
      <trkpt lat="59.92839" lon="10.717767"></trkpt>
      <trkpt lat="59.929625" lon="10.715641"></trkpt>
      <trkpt lat="59.933235" lon="10.710016"></trkpt>
      <trkpt lat="59.933619" lon="10.70965"></trkpt>
      <trkpt lat="59.934413" lon="10.709399"></trkpt>
      <trkpt lat="59.936361" lon="10.707768"></trkpt>
      <trkpt lat="59.938309" lon="10.705077"></trkpt>
      <trkpt lat="59.938982" lon="10.704389"></trkpt>
      <trkpt lat="59.939622" lon="10.70402"></trkpt>
      <trkpt lat="59.940367" lon="10.703877"></trkpt>
      <trkpt lat="59.941168" lon="10.703974"></trkpt>
      <trkpt lat="59.942191" lon="10.704467"></trkpt>
      <trkpt lat="59.943154" lon="10.705378"></trkpt>
      <trkpt lat="59.944516" lon="10.7072"></trkpt>
      <trkpt lat="59.945771" lon="10.710004"></trkpt>
      <trkpt lat="59.946334" lon="10.710502"></trkpt>
      <trkpt lat="59.946676" lon="10.71051"></trkpt>
      <trkpt lat="59.9469" lon="10.710323"></trkpt>
      <trkpt lat="59.94722" lon="10.709415"></trkpt>
      <trkpt lat="59.947184" lon="10.707059"></trkpt>
      <trkpt lat="59.948488" lon="10.703306"></trkpt>
      <trkpt lat="59.948801" lon="10.700408"></trkpt>
      <trkpt lat="59.949473" lon="10.698392"></trkpt>
      <trkpt lat="59.949619" lon="10.696106"></trkpt>
      <trkpt lat="59.949887" lon="10.695529"></trkpt>
      <trkpt lat="59.951394" lon="10.69393"></trkpt>
      <trkpt lat="59.951768" lon="10.693701"></trkpt>
      <trkpt lat="59.952085" lon="10.693687"></trkpt>
      <trkpt lat="59.952508" lon="10.69414"></trkpt>
      <trkpt lat="59.953204" lon="10.696627"></trkpt>
      <trkpt lat="59.953947" lon="10.699969"></trkpt>
      <trkpt lat="59.954246" lon="10.700569"></trkpt>
      <trkpt lat="59.954947" lon="10.701534"></trkpt>
      <trkpt lat="59.955334" lon="10.701845"></trkpt>
      <trkpt lat="59.955614" lon="10.701797"></trkpt>
      <trkpt lat="59.955798" lon="10.701631"></trkpt>
      <trkpt lat="59.956108" lon="10.700677"></trkpt>
      <trkpt lat="59.956112" lon="10.699373"></trkpt>
      <trkpt lat="59.955733" lon="10.697285"></trkpt>
      <trkpt lat="59.955829" lon="10.696542"></trkpt>
      <trkpt lat="59.956106" lon="10.695995"></trkpt>
      <trkpt lat="59.956548" lon="10.69582"></trkpt>
      <trkpt lat="59.957341" lon="10.696188"></trkpt>
      <trkpt lat="59.957917" lon="10.696278"></trkpt>
      <trkpt lat="59.959903" lon="10.695674"></trkpt>
      <trkpt lat="59.960316" lon="10.69531"></trkpt>
      <trkpt lat="59.960664" lon="10.694484"></trkpt>
      <trkpt lat="59.961138" lon="10.691832"></trkpt>
      <trkpt lat="59.961398" lon="10.691245"></trkpt>
      <trkpt lat="59.962182" lon="10.69015"></trkpt>
      <trkpt lat="59.962362" lon="10.689056"></trkpt>
      <trkpt lat="59.962152" lon="10.687973"></trkpt>
      <trkpt lat="59.961392" lon="10.686971"></trkpt>
      <trkpt lat="59.961117" lon="10.686191"></trkpt>
      <trkpt lat="59.961073" lon="10.685226"></trkpt>
      <trkpt lat="59.961322" lon="10.683669"></trkpt>
      <trkpt lat="59.96122" lon="10.682473"></trkpt>
      <trkpt lat="59.960484" lon="10.681079"></trkpt>
      <trkpt lat="59.959909" lon="10.678627"></trkpt>
      <trkpt lat="59.958518" lon="10.675914"></trkpt>
      <trkpt lat="59.957494" lon="10.672616"></trkpt>
      <trkpt lat="59.957509" lon="10.671691"></trkpt>
      <trkpt lat="59.957679" lon="10.671011"></trkpt>
      <trkpt lat="59.958529" lon="10.669904"></trkpt>
      <trkpt lat="59.9588" lon="10.66928"></trkpt>
      <trkpt lat="59.958855" lon="10.668601"></trkpt>
      <trkpt lat="59.9587" lon="10.667235"></trkpt>
      <trkpt lat="59.958785" lon="10.666689"></trkpt>
      <trkpt lat="59.959907" lon="10.664119"></trkpt>
      <trkpt lat="59.960597" lon="10.661579"></trkpt>
      <trkpt lat="59.960812" lon="10.661152"></trkpt>
      <trkpt lat="59.962788" lon="10.659526"></trkpt>
      <trkpt lat="59.96414" lon="10.659849"></trkpt>
      <trkpt lat="59.965021" lon="10.659631"></trkpt>
      <trkpt lat="59.96581" lon="10.659997"></trkpt>
      <trkpt lat="59.966281" lon="10.659815"></trkpt>
      <trkpt lat="59.966536" lon="10.659425"></trkpt>
      <trkpt lat="59.966714" lon="10.658823"></trkpt>
      <trkpt lat="59.966852" lon="10.655173"></trkpt>
      <trkpt lat="59.967215" lon="10.653853"></trkpt>
      <trkpt lat="59.968926" lon="10.652061"></trkpt>
      <trkpt lat="59.970248" lon="10.650141"></trkpt>
      <trkpt lat="59.971874" lon="10.648834"></trkpt>
      <trkpt lat="59.97343" lon="10.647986"></trkpt>
      <trkpt lat="59.975618" lon="10.647382"></trkpt>
      <trkpt lat="59.976488" lon="10.647456"></trkpt>
      <trkpt lat="59.977112" lon="10.647703"></trkpt>
      <trkpt lat="59.978703" lon="10.648876"></trkpt>
      <trkpt lat="59.97915" lon="10.6495"></trkpt>
      <trkpt lat="59.979294" lon="10.650433"></trkpt>
      <trkpt lat="59.979071" lon="10.65239"></trkpt>
      <trkpt lat="59.979161" lon="10.652929"></trkpt>
      <trkpt lat="59.979429" lon="10.653488"></trkpt>
      <trkpt lat="59.979775" lon="10.653681"></trkpt>
      <trkpt lat="59.980057" lon="10.653571"></trkpt>
      <trkpt lat="59.980783" lon="10.652487"></trkpt>
      <trkpt lat="59.981125" lon="10.652278"></trkpt>
      <trkpt lat="59.981448" lon="10.652391"></trkpt>
      <trkpt lat="59.981751" lon="10.652864"></trkpt>
      <trkpt lat="59.981935" lon="10.654042"></trkpt>
      <trkpt lat="59.981685" lon="10.656166"></trkpt>
      <trkpt lat="59.982099" lon="10.65798"></trkpt>
      <trkpt lat="59.982087" lon="10.658814"></trkpt>
      <trkpt lat="59.980667" lon="10.662505"></trkpt>
      <trkpt lat="59.980168" lon="10.664603"></trkpt>
      <trkpt lat="59.980055" lon="10.66564"></trkpt>
  </trkseg></trk>
</gpx>
