<?xml version="1.0" encoding="UTF-8"?>
<gpx version="1.1" creator="yatutbuv" xmlns="http://www.topografix.com/GPX/1/1">
  <trk><name>2025_Dublin-&gt; Tallaght (13.9km)</name><trkseg>
      <trkpt lat="53.347721" lon="-6.265274"></trkpt>
      <trkpt lat="53.346807" lon="-6.272614"></trkpt>
      <trkpt lat="53.347107" lon="-6.27532"></trkpt>
      <trkpt lat="53.347174" lon="-6.280159"></trkpt>
      <trkpt lat="53.347803" lon="-6.285202"></trkpt>
      <trkpt lat="53.34796" lon="-6.289844"></trkpt>
      <trkpt lat="53.347908" lon="-6.291616"></trkpt>
      <trkpt lat="53.347649" lon="-6.291843"></trkpt>
      <trkpt lat="53.343614" lon="-6.291198"></trkpt>
      <trkpt lat="53.343144" lon="-6.29099"></trkpt>
      <trkpt lat="53.342981" lon="-6.291234"></trkpt>
      <trkpt lat="53.342526" lon="-6.29332"></trkpt>
      <trkpt lat="53.342327" lon="-6.293532"></trkpt>
      <trkpt lat="53.341607" lon="-6.2931"></trkpt>
      <trkpt lat="53.341527" lon="-6.292759"></trkpt>
      <trkpt lat="53.341591" lon="-6.292208"></trkpt>
      <trkpt lat="53.341461" lon="-6.291912"></trkpt>
      <trkpt lat="53.339665" lon="-6.290751"></trkpt>
      <trkpt lat="53.339387" lon="-6.29068"></trkpt>
      <trkpt lat="53.339085" lon="-6.290769"></trkpt>
      <trkpt lat="53.338616" lon="-6.291406"></trkpt>
      <trkpt lat="53.337089" lon="-6.304696"></trkpt>
      <trkpt lat="53.336656" lon="-6.306838"></trkpt>
      <trkpt lat="53.334616" lon="-6.324712"></trkpt>
      <trkpt lat="53.334136" lon="-6.328135"></trkpt>
      <trkpt lat="53.333965" lon="-6.328505"></trkpt>
      <trkpt lat="53.333625" lon="-6.328813"></trkpt>
      <trkpt lat="53.331687" lon="-6.330136"></trkpt>
      <trkpt lat="53.330563" lon="-6.331392"></trkpt>
      <trkpt lat="53.329997" lon="-6.332266"></trkpt>
      <trkpt lat="53.32895" lon="-6.334573"></trkpt>
      <trkpt lat="53.328519" lon="-6.335872"></trkpt>
      <trkpt lat="53.326898" lon="-6.342546"></trkpt>
      <trkpt lat="53.325551" lon="-6.347207"></trkpt>
      <trkpt lat="53.319158" lon="-6.364966"></trkpt>
      <trkpt lat="53.318989" lon="-6.365863"></trkpt>
      <trkpt lat="53.318914" lon="-6.367796"></trkpt>
      <trkpt lat="53.318493" lon="-6.369342"></trkpt>
      <trkpt lat="53.318272" lon="-6.369659"></trkpt>
      <trkpt lat="53.31765" lon="-6.370096"></trkpt>
      <trkpt lat="53.316356" lon="-6.369642"></trkpt>
      <trkpt lat="53.316027" lon="-6.369154"></trkpt>
      <trkpt lat="53.315361" lon="-6.36688"></trkpt>
      <trkpt lat="53.313408" lon="-6.36479"></trkpt>
      <trkpt lat="53.312171" lon="-6.363137"></trkpt>
      <trkpt lat="53.309194" lon="-6.36071"></trkpt>
      <trkpt lat="53.307699" lon="-6.359074"></trkpt>
      <trkpt lat="53.307311" lon="-6.358849"></trkpt>
      <trkpt lat="53.306936" lon="-6.358831"></trkpt>
      <trkpt lat="53.306521" lon="-6.359029"></trkpt>
      <trkpt lat="53.306166" lon="-6.35945"></trkpt>
      <trkpt lat="53.304778" lon="-6.362444"></trkpt>
      <trkpt lat="53.304021" lon="-6.364362"></trkpt>
      <trkpt lat="53.302262" lon="-6.36961"></trkpt>
      <trkpt lat="53.300659" lon="-6.373158"></trkpt>
      <trkpt lat="53.300202" lon="-6.373528"></trkpt>
      <trkpt lat="53.299218" lon="-6.374898"></trkpt>
      <trkpt lat="53.297583" lon="-6.377701"></trkpt>
      <trkpt lat="53.296237" lon="-6.383746"></trkpt>
      <trkpt lat="53.296075" lon="-6.384178"></trkpt>
      <trkpt lat="53.29575" lon="-6.384598"></trkpt>
      <trkpt lat="53.294528" lon="-6.385202"></trkpt>
      <trkpt lat="53.294216" lon="-6.385162"></trkpt>
      <trkpt lat="53.293877" lon="-6.38492"></trkpt>
      <trkpt lat="53.290323" lon="-6.380018"></trkpt>
      <trkpt lat="53.288928" lon="-6.378365"></trkpt>
      <trkpt lat="53.28784" lon="-6.377448"></trkpt>
      <trkpt lat="53.287525" lon="-6.377052"></trkpt>
      <trkpt lat="53.287257" lon="-6.375932"></trkpt>
      <trkpt lat="53.287465" lon="-6.374683"></trkpt>
  </trkseg></trk>
</gpx>
