<?xml version="1.0" encoding="UTF-8"?>
<gpx version="1.1" creator="yatutbuv" xmlns="http://www.topografix.com/GPX/1/1">
  <trk><name>2024_Warsaw -&gt; Lublin (177.7km)</name><trkseg>
      <trkpt lat="52.220193" lon="20.965067"></trkpt>
      <trkpt lat="52.221436" lon="20.971089"></trkpt>
      <trkpt lat="52.222024" lon="20.974987"></trkpt>
      <trkpt lat="52.225086" lon="20.987666"></trkpt>
      <trkpt lat="52.229613" lon="21.009005"></trkpt>
      <trkpt lat="52.229965" lon="21.012556"></trkpt>
      <trkpt lat="52.231618" lon="21.020413"></trkpt>
      <trkpt lat="52.232989" lon="21.025854"></trkpt>
      <trkpt lat="52.233848" lon="21.028618"></trkpt>
      <trkpt lat="52.234869" lon="21.030902"></trkpt>
      <trkpt lat="52.235636" lon="21.032175"></trkpt>
      <trkpt lat="52.237034" lon="21.034098"></trkpt>
      <trkpt lat="52.240706" lon="21.041367"></trkpt>
      <trkpt lat="52.241566" lon="21.042666"></trkpt>
      <trkpt lat="52.242401" lon="21.043407"></trkpt>
      <trkpt lat="52.243492" lon="21.043903"></trkpt>
      <trkpt lat="52.247741" lon="21.044087"></trkpt>
      <trkpt lat="52.248496" lon="21.044565"></trkpt>
      <trkpt lat="52.24906" lon="21.045353"></trkpt>
      <trkpt lat="52.249685" lon="21.04699"></trkpt>
      <trkpt lat="52.250822" lon="21.051813"></trkpt>
      <trkpt lat="52.252278" lon="21.05651"></trkpt>
      <trkpt lat="52.254073" lon="21.064668"></trkpt>
      <trkpt lat="52.254657" lon="21.066355"></trkpt>
      <trkpt lat="52.256366" lon="21.07022"></trkpt>
      <trkpt lat="52.256846" lon="21.071931"></trkpt>
      <trkpt lat="52.257036" lon="21.073561"></trkpt>
      <trkpt lat="52.257081" lon="21.076103"></trkpt>
      <trkpt lat="52.256838" lon="21.078465"></trkpt>
      <trkpt lat="52.252588" lon="21.096295"></trkpt>
      <trkpt lat="52.248823" lon="21.110198"></trkpt>
      <trkpt lat="52.248225" lon="21.111908"></trkpt>
      <trkpt lat="52.242067" lon="21.125381"></trkpt>
      <trkpt lat="52.238577" lon="21.132695"></trkpt>
      <trkpt lat="52.236834" lon="21.135646"></trkpt>
      <trkpt lat="52.234993" lon="21.137986"></trkpt>
      <trkpt lat="52.226159" lon="21.147008"></trkpt>
      <trkpt lat="52.117229" lon="21.255482"></trkpt>
      <trkpt lat="52.114236" lon="21.25878"></trkpt>
      <trkpt lat="52.10602" lon="21.266941"></trkpt>
      <trkpt lat="52.104799" lon="21.268427"></trkpt>
      <trkpt lat="52.103734" lon="21.270345"></trkpt>
      <trkpt lat="52.103138" lon="21.271911"></trkpt>
      <trkpt lat="52.102628" lon="21.273777"></trkpt>
      <trkpt lat="52.102216" lon="21.276164"></trkpt>
      <trkpt lat="52.099726" lon="21.321513"></trkpt>
      <trkpt lat="52.097946" lon="21.332217"></trkpt>
      <trkpt lat="52.097084" lon="21.335262"></trkpt>
      <trkpt lat="52.096127" lon="21.337556"></trkpt>
      <trkpt lat="52.09347" lon="21.342886"></trkpt>
      <trkpt lat="52.07253" lon="21.378807"></trkpt>
      <trkpt lat="52.071163" lon="21.380465"></trkpt>
      <trkpt lat="52.069904" lon="21.381587"></trkpt>
      <trkpt lat="52.065261" lon="21.384333"></trkpt>
      <trkpt lat="52.063474" lon="21.385703"></trkpt>
      <trkpt lat="52.061377" lon="21.387952"></trkpt>
      <trkpt lat="52.059408" lon="21.390862"></trkpt>
      <trkpt lat="52.05602" lon="21.397008"></trkpt>
      <trkpt lat="52.047857" lon="21.411325"></trkpt>
      <trkpt lat="52.046445" lon="21.414156"></trkpt>
      <trkpt lat="52.04352" lon="21.421287"></trkpt>
      <trkpt lat="52.042628" lon="21.423844"></trkpt>
      <trkpt lat="52.041774" lon="21.427041"></trkpt>
      <trkpt lat="52.039739" lon="21.436562"></trkpt>
      <trkpt lat="52.039019" lon="21.438726"></trkpt>
      <trkpt lat="52.03801" lon="21.440911"></trkpt>
      <trkpt lat="52.037066" lon="21.442449"></trkpt>
      <trkpt lat="52.035755" lon="21.444067"></trkpt>
      <trkpt lat="52.01835" lon="21.462109"></trkpt>
      <trkpt lat="52.017343" lon="21.463221"></trkpt>
      <trkpt lat="52.016308" lon="21.464634"></trkpt>
      <trkpt lat="52.015096" lon="21.466783"></trkpt>
      <trkpt lat="51.994715" lon="21.506597"></trkpt>
      <trkpt lat="51.993846" lon="21.508153"></trkpt>
      <trkpt lat="51.992988" lon="21.509406"></trkpt>
      <trkpt lat="51.991481" lon="21.511078"></trkpt>
      <trkpt lat="51.989836" lon="21.512327"></trkpt>
      <trkpt lat="51.974052" lon="21.520811"></trkpt>
      <trkpt lat="51.972092" lon="21.522"></trkpt>
      <trkpt lat="51.960912" lon="21.530152"></trkpt>
      <trkpt lat="51.957787" lon="21.532009"></trkpt>
      <trkpt lat="51.956279" lon="21.53305"></trkpt>
      <trkpt lat="51.953421" lon="21.535093"></trkpt>
      <trkpt lat="51.945117" lon="21.54144"></trkpt>
      <trkpt lat="51.939913" lon="21.545163"></trkpt>
      <trkpt lat="51.938582" lon="21.545912"></trkpt>
      <trkpt lat="51.931383" lon="21.548397"></trkpt>
      <trkpt lat="51.929621" lon="21.548834"></trkpt>
      <trkpt lat="51.909307" lon="21.54983"></trkpt>
      <trkpt lat="51.907545" lon="21.550163"></trkpt>
      <trkpt lat="51.905904" lon="21.550881"></trkpt>
      <trkpt lat="51.900505" lon="21.554439"></trkpt>
      <trkpt lat="51.898698" lon="21.556025"></trkpt>
      <trkpt lat="51.887626" lon="21.569773"></trkpt>
      <trkpt lat="51.88665" lon="21.570822"></trkpt>
      <trkpt lat="51.885597" lon="21.571699"></trkpt>
      <trkpt lat="51.884484" lon="21.572389"></trkpt>
      <trkpt lat="51.883069" lon="21.57295"></trkpt>
      <trkpt lat="51.867394" lon="21.576469"></trkpt>
      <trkpt lat="51.86625" lon="21.576819"></trkpt>
      <trkpt lat="51.864984" lon="21.577436"></trkpt>
      <trkpt lat="51.863845" lon="21.578228"></trkpt>
      <trkpt lat="51.862872" lon="21.579109"></trkpt>
      <trkpt lat="51.855527" lon="21.587378"></trkpt>
      <trkpt lat="51.852118" lon="21.590458"></trkpt>
      <trkpt lat="51.850285" lon="21.591705"></trkpt>
      <trkpt lat="51.848841" lon="21.592302"></trkpt>
      <trkpt lat="51.831749" lon="21.597878"></trkpt>
      <trkpt lat="51.795473" lon="21.60941"></trkpt>
      <trkpt lat="51.793598" lon="21.610343"></trkpt>
      <trkpt lat="51.785325" lon="21.615574"></trkpt>
      <trkpt lat="51.778366" lon="21.620048"></trkpt>
      <trkpt lat="51.776819" lon="21.621206"></trkpt>
      <trkpt lat="51.775363" lon="21.622564"></trkpt>
      <trkpt lat="51.773805" lon="21.624351"></trkpt>
      <trkpt lat="51.759443" lon="21.64243"></trkpt>
      <trkpt lat="51.757939" lon="21.644453"></trkpt>
      <trkpt lat="51.74611" lon="21.664709"></trkpt>
      <trkpt lat="51.737843" lon="21.679174"></trkpt>
      <trkpt lat="51.735973" lon="21.682177"></trkpt>
      <trkpt lat="51.734778" lon="21.683571"></trkpt>
      <trkpt lat="51.733268" lon="21.684857"></trkpt>
      <trkpt lat="51.732096" lon="21.685562"></trkpt>
      <trkpt lat="51.722854" lon="21.69035"></trkpt>
      <trkpt lat="51.720912" lon="21.691762"></trkpt>
      <trkpt lat="51.719228" lon="21.693467"></trkpt>
      <trkpt lat="51.718132" lon="21.694879"></trkpt>
      <trkpt lat="51.716946" lon="21.696763"></trkpt>
      <trkpt lat="51.70724" lon="21.715127"></trkpt>
      <trkpt lat="51.706158" lon="21.71676"></trkpt>
      <trkpt lat="51.705196" lon="21.717905"></trkpt>
      <trkpt lat="51.703676" lon="21.71927"></trkpt>
      <trkpt lat="51.689259" lon="21.730587"></trkpt>
      <trkpt lat="51.687464" lon="21.732646"></trkpt>
      <trkpt lat="51.684603" lon="21.737209"></trkpt>
      <trkpt lat="51.683812" lon="21.738176"></trkpt>
      <trkpt lat="51.68276" lon="21.739197"></trkpt>
      <trkpt lat="51.681308" lon="21.74025"></trkpt>
      <trkpt lat="51.678029" lon="21.741922"></trkpt>
      <trkpt lat="51.67694" lon="21.742734"></trkpt>
      <trkpt lat="51.676066" lon="21.743563"></trkpt>
      <trkpt lat="51.675072" lon="21.744726"></trkpt>
      <trkpt lat="51.674278" lon="21.745874"></trkpt>
      <trkpt lat="51.66925" lon="21.754301"></trkpt>
      <trkpt lat="51.668112" lon="21.755726"></trkpt>
      <trkpt lat="51.66695" lon="21.756822"></trkpt>
      <trkpt lat="51.665071" lon="21.758004"></trkpt>
      <trkpt lat="51.66367" lon="21.758485"></trkpt>
      <trkpt lat="51.66271" lon="21.758636"></trkpt>
      <trkpt lat="51.661763" lon="21.758651"></trkpt>
      <trkpt lat="51.660718" lon="21.758507"></trkpt>
      <trkpt lat="51.656601" lon="21.757288"></trkpt>
      <trkpt lat="51.65487" lon="21.757025"></trkpt>
      <trkpt lat="51.653858" lon="21.757054"></trkpt>
      <trkpt lat="51.652676" lon="21.757269"></trkpt>
      <trkpt lat="51.65113" lon="21.757847"></trkpt>
      <trkpt lat="51.650038" lon="21.758474"></trkpt>
      <trkpt lat="51.648181" lon="21.760024"></trkpt>
      <trkpt lat="51.640665" lon="21.767826"></trkpt>
      <trkpt lat="51.639594" lon="21.768735"></trkpt>
      <trkpt lat="51.636744" lon="21.770653"></trkpt>
      <trkpt lat="51.635301" lon="21.772038"></trkpt>
      <trkpt lat="51.634585" lon="21.772933"></trkpt>
      <trkpt lat="51.633553" lon="21.774546"></trkpt>
      <trkpt lat="51.63106" lon="21.779349"></trkpt>
      <trkpt lat="51.629987" lon="21.780833"></trkpt>
      <trkpt lat="51.628868" lon="21.782016"></trkpt>
      <trkpt lat="51.627931" lon="21.782778"></trkpt>
      <trkpt lat="51.626973" lon="21.783377"></trkpt>
      <trkpt lat="51.618749" lon="21.787606"></trkpt>
      <trkpt lat="51.617616" lon="21.788406"></trkpt>
      <trkpt lat="51.616549" lon="21.789388"></trkpt>
      <trkpt lat="51.615359" lon="21.790818"></trkpt>
      <trkpt lat="51.614308" lon="21.792458"></trkpt>
      <trkpt lat="51.613444" lon="21.794204"></trkpt>
      <trkpt lat="51.612559" lon="21.796573"></trkpt>
      <trkpt lat="51.606728" lon="21.818019"></trkpt>
      <trkpt lat="51.606228" lon="21.819471"></trkpt>
      <trkpt lat="51.605643" lon="21.820755"></trkpt>
      <trkpt lat="51.604922" lon="21.821966"></trkpt>
      <trkpt lat="51.604155" lon="21.82295"></trkpt>
      <trkpt lat="51.603113" lon="21.823942"></trkpt>
      <trkpt lat="51.601596" lon="21.82484"></trkpt>
      <trkpt lat="51.600197" lon="21.825196"></trkpt>
      <trkpt lat="51.587643" lon="21.825238"></trkpt>
      <trkpt lat="51.58666" lon="21.825428"></trkpt>
      <trkpt lat="51.585871" lon="21.825775"></trkpt>
      <trkpt lat="51.583791" lon="21.826977"></trkpt>
      <trkpt lat="51.582613" lon="21.828051"></trkpt>
      <trkpt lat="51.581403" lon="21.829618"></trkpt>
      <trkpt lat="51.578558" lon="21.834182"></trkpt>
      <trkpt lat="51.57384" lon="21.840629"></trkpt>
      <trkpt lat="51.572801" lon="21.841727"></trkpt>
      <trkpt lat="51.572168" lon="21.842058"></trkpt>
      <trkpt lat="51.567263" lon="21.843511"></trkpt>
      <trkpt lat="51.566652" lon="21.843598"></trkpt>
      <trkpt lat="51.56488" lon="21.843549"></trkpt>
      <trkpt lat="51.563481" lon="21.843977"></trkpt>
      <trkpt lat="51.562512" lon="21.844526"></trkpt>
      <trkpt lat="51.560657" lon="21.84648"></trkpt>
      <trkpt lat="51.559864" lon="21.847157"></trkpt>
      <trkpt lat="51.558959" lon="21.847694"></trkpt>
      <trkpt lat="51.558264" lon="21.847925"></trkpt>
      <trkpt lat="51.557523" lon="21.848011"></trkpt>
      <trkpt lat="51.55667" lon="21.847918"></trkpt>
      <trkpt lat="51.556004" lon="21.847692"></trkpt>
      <trkpt lat="51.555326" lon="21.847315"></trkpt>
      <trkpt lat="51.554571" lon="21.846694"></trkpt>
      <trkpt lat="51.551866" lon="21.843819"></trkpt>
      <trkpt lat="51.550835" lon="21.843314"></trkpt>
      <trkpt lat="51.549763" lon="21.843191"></trkpt>
      <trkpt lat="51.548845" lon="21.843415"></trkpt>
      <trkpt lat="51.547232" lon="21.844219"></trkpt>
      <trkpt lat="51.540985" lon="21.847852"></trkpt>
      <trkpt lat="51.539615" lon="21.84892"></trkpt>
      <trkpt lat="51.538426" lon="21.850333"></trkpt>
      <trkpt lat="51.537436" lon="21.85203"></trkpt>
      <trkpt lat="51.517884" lon="21.893287"></trkpt>
      <trkpt lat="51.516976" lon="21.895026"></trkpt>
      <trkpt lat="51.515897" lon="21.896796"></trkpt>
      <trkpt lat="51.514794" lon="21.898335"></trkpt>
      <trkpt lat="51.507572" lon="21.906613"></trkpt>
      <trkpt lat="51.505902" lon="21.908937"></trkpt>
      <trkpt lat="51.504677" lon="21.911175"></trkpt>
      <trkpt lat="51.497292" lon="21.926394"></trkpt>
      <trkpt lat="51.495783" lon="21.928931"></trkpt>
      <trkpt lat="51.494556" lon="21.930597"></trkpt>
      <trkpt lat="51.49253" lon="21.93278"></trkpt>
      <trkpt lat="51.458945" lon="21.964034"></trkpt>
      <trkpt lat="51.457515" lon="21.965002"></trkpt>
      <trkpt lat="51.45623" lon="21.965603"></trkpt>
      <trkpt lat="51.454806" lon="21.966007"></trkpt>
      <trkpt lat="51.449318" lon="21.967097"></trkpt>
      <trkpt lat="51.447574" lon="21.967743"></trkpt>
      <trkpt lat="51.445884" lon="21.968739"></trkpt>
      <trkpt lat="51.430862" lon="21.981567"></trkpt>
      <trkpt lat="51.427196" lon="21.984857"></trkpt>
      <trkpt lat="51.425798" lon="21.986365"></trkpt>
      <trkpt lat="51.424319" lon="21.988501"></trkpt>
      <trkpt lat="51.410597" lon="22.011322"></trkpt>
      <trkpt lat="51.403627" lon="22.022514"></trkpt>
      <trkpt lat="51.40278" lon="22.024029"></trkpt>
      <trkpt lat="51.401929" lon="22.025948"></trkpt>
      <trkpt lat="51.401025" lon="22.028811"></trkpt>
      <trkpt lat="51.400458" lon="22.031771"></trkpt>
      <trkpt lat="51.399784" lon="22.041315"></trkpt>
      <trkpt lat="51.399334" lon="22.044583"></trkpt>
      <trkpt lat="51.393179" lon="22.070493"></trkpt>
      <trkpt lat="51.392727" lon="22.072028"></trkpt>
      <trkpt lat="51.39189" lon="22.074196"></trkpt>
      <trkpt lat="51.386025" lon="22.086894"></trkpt>
      <trkpt lat="51.385083" lon="22.088384"></trkpt>
      <trkpt lat="51.383742" lon="22.090003"></trkpt>
      <trkpt lat="51.382618" lon="22.09104"></trkpt>
      <trkpt lat="51.3815" lon="22.091834"></trkpt>
      <trkpt lat="51.379806" lon="22.092648"></trkpt>
      <trkpt lat="51.371857" lon="22.095548"></trkpt>
      <trkpt lat="51.370125" lon="22.096676"></trkpt>
      <trkpt lat="51.368538" lon="22.098227"></trkpt>
      <trkpt lat="51.367137" lon="22.100143"></trkpt>
      <trkpt lat="51.366091" lon="22.102057"></trkpt>
      <trkpt lat="51.363014" lon="22.109551"></trkpt>
      <trkpt lat="51.361386" lon="22.112786"></trkpt>
      <trkpt lat="51.352589" lon="22.126546"></trkpt>
      <trkpt lat="51.351271" lon="22.128148"></trkpt>
      <trkpt lat="51.34582" lon="22.133869"></trkpt>
      <trkpt lat="51.343845" lon="22.135281"></trkpt>
      <trkpt lat="51.338561" lon="22.138207"></trkpt>
      <trkpt lat="51.337555" lon="22.138994"></trkpt>
      <trkpt lat="51.336372" lon="22.140124"></trkpt>
      <trkpt lat="51.335074" lon="22.141687"></trkpt>
      <trkpt lat="51.333887" lon="22.143482"></trkpt>
      <trkpt lat="51.331127" lon="22.148525"></trkpt>
      <trkpt lat="51.330099" lon="22.150633"></trkpt>
      <trkpt lat="51.328771" lon="22.154447"></trkpt>
      <trkpt lat="51.327222" lon="22.161148"></trkpt>
      <trkpt lat="51.326587" lon="22.163359"></trkpt>
      <trkpt lat="51.320184" lon="22.180401"></trkpt>
      <trkpt lat="51.319605" lon="22.182306"></trkpt>
      <trkpt lat="51.318967" lon="22.185257"></trkpt>
      <trkpt lat="51.318658" lon="22.187656"></trkpt>
      <trkpt lat="51.318519" lon="22.190341"></trkpt>
      <trkpt lat="51.318909" lon="22.19793"></trkpt>
      <trkpt lat="51.3189" lon="22.200879"></trkpt>
      <trkpt lat="51.317369" lon="22.221774"></trkpt>
      <trkpt lat="51.316973" lon="22.225928"></trkpt>
      <trkpt lat="51.314298" lon="22.247906"></trkpt>
      <trkpt lat="51.31349" lon="22.251228"></trkpt>
      <trkpt lat="51.312825" lon="22.253108"></trkpt>
      <trkpt lat="51.312064" lon="22.254842"></trkpt>
      <trkpt lat="51.308924" lon="22.261056"></trkpt>
      <trkpt lat="51.307651" lon="22.262968"></trkpt>
      <trkpt lat="51.306607" lon="22.264249"></trkpt>
      <trkpt lat="51.305069" lon="22.265759"></trkpt>
      <trkpt lat="51.29177" lon="22.276862"></trkpt>
      <trkpt lat="51.290488" lon="22.278113"></trkpt>
      <trkpt lat="51.289109" lon="22.279847"></trkpt>
      <trkpt lat="51.257703" lon="22.330365"></trkpt>
      <trkpt lat="51.256262" lon="22.333052"></trkpt>
      <trkpt lat="51.229189" lon="22.390336"></trkpt>
      <trkpt lat="51.228186" lon="22.392913"></trkpt>
      <trkpt lat="51.227302" lon="22.396169"></trkpt>
      <trkpt lat="51.223153" lon="22.415439"></trkpt>
      <trkpt lat="51.222248" lon="22.420118"></trkpt>
      <trkpt lat="51.213694" lon="22.460255"></trkpt>
      <trkpt lat="51.2131" lon="22.464072"></trkpt>
      <trkpt lat="51.21288" lon="22.468574"></trkpt>
      <trkpt lat="51.213053" lon="22.471895"></trkpt>
      <trkpt lat="51.213562" lon="22.475156"></trkpt>
      <trkpt lat="51.21405" lon="22.47691"></trkpt>
      <trkpt lat="51.216087" lon="22.482541"></trkpt>
      <trkpt lat="51.216759" lon="22.485585"></trkpt>
      <trkpt lat="51.217746" lon="22.496312"></trkpt>
      <trkpt lat="51.217817" lon="22.500748"></trkpt>
      <trkpt lat="51.217987" lon="22.503147"></trkpt>
      <trkpt lat="51.219723" lon="22.513292"></trkpt>
      <trkpt lat="51.219859" lon="22.516572"></trkpt>
      <trkpt lat="51.219644" lon="22.533885"></trkpt>
      <trkpt lat="51.219774" lon="22.536304"></trkpt>
      <trkpt lat="51.220099" lon="22.538525"></trkpt>
      <trkpt lat="51.221842" lon="22.546316"></trkpt>
      <trkpt lat="51.223096" lon="22.550729"></trkpt>
      <trkpt lat="51.231247" lon="22.568749"></trkpt>
  </trkseg></trk>
</gpx>
