<?xml version="1.0" encoding="UTF-8"?>
<gpx version="1.1" creator="yatutbuv" xmlns="http://www.topografix.com/GPX/1/1">
  <trk><name>2024_Copenhagen -&gt; Roskilde (34.3km)</name><trkseg>
      <trkpt lat="55.693301" lon="12.588464"></trkpt>
      <trkpt lat="55.690211" lon="12.583377"></trkpt>
      <trkpt lat="55.68848" lon="12.579934"></trkpt>
      <trkpt lat="55.686576" lon="12.576566"></trkpt>
      <trkpt lat="55.682375" lon="12.570256"></trkpt>
      <trkpt lat="55.679971" lon="12.567131"></trkpt>
      <trkpt lat="55.678402" lon="12.564137"></trkpt>
      <trkpt lat="55.677759" lon="12.563339"></trkpt>
      <trkpt lat="55.676881" lon="12.562721"></trkpt>
      <trkpt lat="55.67613" lon="12.562494"></trkpt>
      <trkpt lat="55.675363" lon="12.56257"></trkpt>
      <trkpt lat="55.674115" lon="12.562945"></trkpt>
      <trkpt lat="55.672965" lon="12.56351"></trkpt>
      <trkpt lat="55.671212" lon="12.56527"></trkpt>
      <trkpt lat="55.67023" lon="12.56567"></trkpt>
      <trkpt lat="55.66956" lon="12.565665"></trkpt>
      <trkpt lat="55.668899" lon="12.565413"></trkpt>
      <trkpt lat="55.667867" lon="12.564429"></trkpt>
      <trkpt lat="55.667403" lon="12.563658"></trkpt>
      <trkpt lat="55.665543" lon="12.559733"></trkpt>
      <trkpt lat="55.664911" lon="12.557694"></trkpt>
      <trkpt lat="55.664631" lon="12.556041"></trkpt>
      <trkpt lat="55.663993" lon="12.550126"></trkpt>
      <trkpt lat="55.663528" lon="12.547131"></trkpt>
      <trkpt lat="55.662831" lon="12.544"></trkpt>
      <trkpt lat="55.662802" lon="12.542494"></trkpt>
      <trkpt lat="55.663367" lon="12.538416"></trkpt>
      <trkpt lat="55.663527" lon="12.535313"></trkpt>
      <trkpt lat="55.663772" lon="12.520319"></trkpt>
      <trkpt lat="55.663734" lon="12.512225"></trkpt>
      <trkpt lat="55.663976" lon="12.505686"></trkpt>
      <trkpt lat="55.665195" lon="12.425261"></trkpt>
      <trkpt lat="55.665104" lon="12.419671"></trkpt>
      <trkpt lat="55.664712" lon="12.414291"></trkpt>
      <trkpt lat="55.663424" lon="12.402001"></trkpt>
      <trkpt lat="55.653124" lon="12.309308"></trkpt>
      <trkpt lat="55.651679" lon="12.294718"></trkpt>
      <trkpt lat="55.649773" lon="12.278099"></trkpt>
      <trkpt lat="55.649166" lon="12.270955"></trkpt>
      <trkpt lat="55.646772" lon="12.252487"></trkpt>
      <trkpt lat="55.644577" lon="12.232467"></trkpt>
      <trkpt lat="55.644438" lon="12.229382"></trkpt>
      <trkpt lat="55.644442" lon="12.225918"></trkpt>
      <trkpt lat="55.644626" lon="12.22228"></trkpt>
      <trkpt lat="55.644988" lon="12.218784"></trkpt>
      <trkpt lat="55.649567" lon="12.191433"></trkpt>
      <trkpt lat="55.649982" lon="12.187562"></trkpt>
      <trkpt lat="55.650175" lon="12.183444"></trkpt>
      <trkpt lat="55.650029" lon="12.177175"></trkpt>
      <trkpt lat="55.647031" lon="12.117444"></trkpt>
      <trkpt lat="55.646164" lon="12.111396"></trkpt>
      <trkpt lat="55.645052" lon="12.106594"></trkpt>
      <trkpt lat="55.64373" lon="12.102414"></trkpt>
      <trkpt lat="55.638388" lon="12.087003"></trkpt>
  </trkseg></trk>
</gpx>
