<?xml version="1.0" encoding="UTF-8"?>
<gpx version="1.1" creator="yatutbuv" xmlns="http://www.topografix.com/GPX/1/1">
  <trk><name>2019_Rome -&gt; Fiumicino (33.3km)</name><trkseg>
      <trkpt lat="41.911172" lon="12.531868"></trkpt>
      <trkpt lat="41.910126" lon="12.532436"></trkpt>
      <trkpt lat="41.907336" lon="12.53333"></trkpt>
      <trkpt lat="41.906184" lon="12.533533"></trkpt>
      <trkpt lat="41.905026" lon="12.533483"></trkpt>
      <trkpt lat="41.904135" lon="12.533243"></trkpt>
      <trkpt lat="41.903262" lon="12.532832"></trkpt>
      <trkpt lat="41.896825" lon="12.528925"></trkpt>
      <trkpt lat="41.895902" lon="12.52846"></trkpt>
      <trkpt lat="41.894296" lon="12.528175"></trkpt>
      <trkpt lat="41.887029" lon="12.527358"></trkpt>
      <trkpt lat="41.885899" lon="12.527784"></trkpt>
      <trkpt lat="41.884062" lon="12.529045"></trkpt>
      <trkpt lat="41.883186" lon="12.52982"></trkpt>
      <trkpt lat="41.882547" lon="12.530893"></trkpt>
      <trkpt lat="41.882018" lon="12.532875"></trkpt>
      <trkpt lat="41.881629" lon="12.533709"></trkpt>
      <trkpt lat="41.880973" lon="12.534533"></trkpt>
      <trkpt lat="41.88018" lon="12.535112"></trkpt>
      <trkpt lat="41.881363" lon="12.5338"></trkpt>
      <trkpt lat="41.881889" lon="12.532645"></trkpt>
      <trkpt lat="41.882409" lon="12.53031"></trkpt>
      <trkpt lat="41.882459" lon="12.529307"></trkpt>
      <trkpt lat="41.882275" lon="12.528153"></trkpt>
      <trkpt lat="41.881667" lon="12.526887"></trkpt>
      <trkpt lat="41.879774" lon="12.524691"></trkpt>
      <trkpt lat="41.878119" lon="12.522173"></trkpt>
      <trkpt lat="41.877022" lon="12.519585"></trkpt>
      <trkpt lat="41.876663" lon="12.517813"></trkpt>
      <trkpt lat="41.876382" lon="12.512485"></trkpt>
      <trkpt lat="41.876147" lon="12.511448"></trkpt>
      <trkpt lat="41.87581" lon="12.51059"></trkpt>
      <trkpt lat="41.874859" lon="12.50922"></trkpt>
      <trkpt lat="41.872767" lon="12.507624"></trkpt>
      <trkpt lat="41.872051" lon="12.506836"></trkpt>
      <trkpt lat="41.871392" lon="12.505599"></trkpt>
      <trkpt lat="41.871006" lon="12.504076"></trkpt>
      <trkpt lat="41.870938" lon="12.495755"></trkpt>
      <trkpt lat="41.873125" lon="12.480866"></trkpt>
      <trkpt lat="41.873204" lon="12.479675"></trkpt>
      <trkpt lat="41.873099" lon="12.477025"></trkpt>
      <trkpt lat="41.871983" lon="12.463908"></trkpt>
      <trkpt lat="41.87183" lon="12.46309"></trkpt>
      <trkpt lat="41.871501" lon="12.462255"></trkpt>
      <trkpt lat="41.871084" lon="12.461641"></trkpt>
      <trkpt lat="41.870545" lon="12.461152"></trkpt>
      <trkpt lat="41.869638" lon="12.460743"></trkpt>
      <trkpt lat="41.868929" lon="12.46065"></trkpt>
      <trkpt lat="41.867846" lon="12.460951"></trkpt>
      <trkpt lat="41.865685" lon="12.462566"></trkpt>
      <trkpt lat="41.864563" lon="12.463035"></trkpt>
      <trkpt lat="41.863753" lon="12.463127"></trkpt>
      <trkpt lat="41.863126" lon="12.463063"></trkpt>
      <trkpt lat="41.861581" lon="12.462487"></trkpt>
      <trkpt lat="41.860948" lon="12.462124"></trkpt>
      <trkpt lat="41.860281" lon="12.46156"></trkpt>
      <trkpt lat="41.857934" lon="12.458325"></trkpt>
      <trkpt lat="41.856485" lon="12.457117"></trkpt>
      <trkpt lat="41.85513" lon="12.456545"></trkpt>
      <trkpt lat="41.846954" lon="12.454959"></trkpt>
      <trkpt lat="41.845253" lon="12.454358"></trkpt>
      <trkpt lat="41.844192" lon="12.453731"></trkpt>
      <trkpt lat="41.835898" lon="12.447937"></trkpt>
      <trkpt lat="41.835025" lon="12.447064"></trkpt>
      <trkpt lat="41.834292" lon="12.445831"></trkpt>
      <trkpt lat="41.833817" lon="12.444337"></trkpt>
      <trkpt lat="41.833662" lon="12.442995"></trkpt>
      <trkpt lat="41.834443" lon="12.427387"></trkpt>
      <trkpt lat="41.834336" lon="12.425937"></trkpt>
      <trkpt lat="41.834093" lon="12.424916"></trkpt>
      <trkpt lat="41.833706" lon="12.423847"></trkpt>
      <trkpt lat="41.833186" lon="12.422911"></trkpt>
      <trkpt lat="41.828975" lon="12.417532"></trkpt>
      <trkpt lat="41.827862" lon="12.415846"></trkpt>
      <trkpt lat="41.826721" lon="12.413744"></trkpt>
      <trkpt lat="41.825489" lon="12.410761"></trkpt>
      <trkpt lat="41.821736" lon="12.400016"></trkpt>
      <trkpt lat="41.821172" lon="12.398041"></trkpt>
      <trkpt lat="41.821075" lon="12.396588"></trkpt>
      <trkpt lat="41.821157" lon="12.395596"></trkpt>
      <trkpt lat="41.822758" lon="12.388316"></trkpt>
      <trkpt lat="41.822963" lon="12.386739"></trkpt>
      <trkpt lat="41.822985" lon="12.385092"></trkpt>
      <trkpt lat="41.822314" lon="12.377871"></trkpt>
      <trkpt lat="41.821788" lon="12.374805"></trkpt>
      <trkpt lat="41.820837" lon="12.371536"></trkpt>
      <trkpt lat="41.817489" lon="12.361307"></trkpt>
      <trkpt lat="41.816976" lon="12.359186"></trkpt>
      <trkpt lat="41.817014" lon="12.356931"></trkpt>
      <trkpt lat="41.818516" lon="12.343367"></trkpt>
      <trkpt lat="41.81855" lon="12.340795"></trkpt>
      <trkpt lat="41.818271" lon="12.339076"></trkpt>
      <trkpt lat="41.816155" lon="12.332918"></trkpt>
      <trkpt lat="41.787992" lon="12.26962"></trkpt>
      <trkpt lat="41.785948" lon="12.264786"></trkpt>
      <trkpt lat="41.785165" lon="12.262675"></trkpt>
      <trkpt lat="41.785075" lon="12.26189"></trkpt>
      <trkpt lat="41.785179" lon="12.261111"></trkpt>
      <trkpt lat="41.785648" lon="12.25998"></trkpt>
      <trkpt lat="41.786229" lon="12.259046"></trkpt>
      <trkpt lat="41.793384" lon="12.25183"></trkpt>
  </trkseg></trk>
</gpx>
