<?xml version="1.0" encoding="UTF-8"?>
<gpx version="1.1" creator="yatutbuv" xmlns="http://www.topografix.com/GPX/1/1">
  <trk><name>2009_Suzemka -&gt; Moscow (487.4km)</name><trkseg>
      <trkpt lat="52.311184" lon="34.06779"></trkpt>
      <trkpt lat="52.311604" lon="34.068632"></trkpt>
      <trkpt lat="52.311962" lon="34.069081"></trkpt>
      <trkpt lat="52.313217" lon="34.070241"></trkpt>
      <trkpt lat="52.314461" lon="34.071164"></trkpt>
      <trkpt lat="52.321557" lon="34.075268"></trkpt>
      <trkpt lat="52.322497" lon="34.076014"></trkpt>
      <trkpt lat="52.324533" lon="34.078001"></trkpt>
      <trkpt lat="52.325237" lon="34.07884"></trkpt>
      <trkpt lat="52.328312" lon="34.084389"></trkpt>
      <trkpt lat="52.32921" lon="34.085476"></trkpt>
      <trkpt lat="52.330639" lon="34.086651"></trkpt>
      <trkpt lat="52.362593" lon="34.104548"></trkpt>
      <trkpt lat="52.365533" lon="34.106229"></trkpt>
      <trkpt lat="52.36653" lon="34.106919"></trkpt>
      <trkpt lat="52.367156" lon="34.107462"></trkpt>
      <trkpt lat="52.382505" lon="34.123703"></trkpt>
      <trkpt lat="52.385513" lon="34.126808"></trkpt>
      <trkpt lat="52.386169" lon="34.127314"></trkpt>
      <trkpt lat="52.38794" lon="34.128211"></trkpt>
      <trkpt lat="52.393282" lon="34.129774"></trkpt>
      <trkpt lat="52.400605" lon="34.132142"></trkpt>
      <trkpt lat="52.401701" lon="34.132266"></trkpt>
      <trkpt lat="52.402669" lon="34.132168"></trkpt>
      <trkpt lat="52.406638" lon="34.131469"></trkpt>
      <trkpt lat="52.408334" lon="34.13178"></trkpt>
      <trkpt lat="52.409936" lon="34.132577"></trkpt>
      <trkpt lat="52.424257" lon="34.141416"></trkpt>
      <trkpt lat="52.427395" lon="34.143394"></trkpt>
      <trkpt lat="52.428674" lon="34.144428"></trkpt>
      <trkpt lat="52.500351" lon="34.208162"></trkpt>
      <trkpt lat="52.526002" lon="34.231292"></trkpt>
      <trkpt lat="52.540952" lon="34.24453"></trkpt>
      <trkpt lat="52.570152" lon="34.270732"></trkpt>
      <trkpt lat="52.587634" lon="34.286127"></trkpt>
      <trkpt lat="52.60789" lon="34.304435"></trkpt>
      <trkpt lat="52.611058" lon="34.307127"></trkpt>
      <trkpt lat="52.637202" lon="34.330582"></trkpt>
      <trkpt lat="52.670613" lon="34.360787"></trkpt>
      <trkpt lat="52.674512" lon="34.364175"></trkpt>
      <trkpt lat="52.682396" lon="34.371416"></trkpt>
      <trkpt lat="52.685603" lon="34.374016"></trkpt>
      <trkpt lat="52.69666" lon="34.384246"></trkpt>
      <trkpt lat="52.751189" lon="34.444093"></trkpt>
      <trkpt lat="52.791508" lon="34.488726"></trkpt>
      <trkpt lat="52.793295" lon="34.490845"></trkpt>
      <trkpt lat="52.798055" lon="34.496007"></trkpt>
      <trkpt lat="52.799055" lon="34.49687"></trkpt>
      <trkpt lat="52.800753" lon="34.497843"></trkpt>
      <trkpt lat="52.801759" lon="34.498173"></trkpt>
      <trkpt lat="52.802645" lon="34.498323"></trkpt>
      <trkpt lat="52.806382" lon="34.498621"></trkpt>
      <trkpt lat="52.810369" lon="34.49869"></trkpt>
      <trkpt lat="52.813111" lon="34.498881"></trkpt>
      <trkpt lat="52.815901" lon="34.498425"></trkpt>
      <trkpt lat="52.8184" lon="34.49738"></trkpt>
      <trkpt lat="52.819488" lon="34.496684"></trkpt>
      <trkpt lat="52.820606" lon="34.495622"></trkpt>
      <trkpt lat="52.82379" lon="34.491524"></trkpt>
      <trkpt lat="52.825034" lon="34.490268"></trkpt>
      <trkpt lat="52.827485" lon="34.48734"></trkpt>
      <trkpt lat="52.828723" lon="34.486253"></trkpt>
      <trkpt lat="52.830151" lon="34.485429"></trkpt>
      <trkpt lat="52.830868" lon="34.485154"></trkpt>
      <trkpt lat="52.842018" lon="34.482513"></trkpt>
      <trkpt lat="52.843352" lon="34.481897"></trkpt>
      <trkpt lat="52.845272" lon="34.480583"></trkpt>
      <trkpt lat="52.850863" lon="34.476258"></trkpt>
      <trkpt lat="52.858949" lon="34.467714"></trkpt>
      <trkpt lat="52.860473" lon="34.466568"></trkpt>
      <trkpt lat="52.861368" lon="34.466098"></trkpt>
      <trkpt lat="52.862404" lon="34.465742"></trkpt>
      <trkpt lat="52.863489" lon="34.46559"></trkpt>
      <trkpt lat="52.876576" lon="34.465006"></trkpt>
      <trkpt lat="52.877894" lon="34.465114"></trkpt>
      <trkpt lat="52.879978" lon="34.465884"></trkpt>
      <trkpt lat="52.890126" lon="34.470643"></trkpt>
      <trkpt lat="52.892061" lon="34.470916"></trkpt>
      <trkpt lat="52.893787" lon="34.47058"></trkpt>
      <trkpt lat="52.895133" lon="34.469922"></trkpt>
      <trkpt lat="52.900984" lon="34.466129"></trkpt>
      <trkpt lat="52.906806" lon="34.462147"></trkpt>
      <trkpt lat="52.909566" lon="34.460896"></trkpt>
      <trkpt lat="52.91048" lon="34.460625"></trkpt>
      <trkpt lat="52.919412" lon="34.459085"></trkpt>
      <trkpt lat="52.930069" lon="34.45731"></trkpt>
      <trkpt lat="52.93174" lon="34.457186"></trkpt>
      <trkpt lat="52.935232" lon="34.457554"></trkpt>
      <trkpt lat="52.974748" lon="34.466528"></trkpt>
      <trkpt lat="52.976593" lon="34.466364"></trkpt>
      <trkpt lat="52.977673" lon="34.46602"></trkpt>
      <trkpt lat="52.980183" lon="34.464467"></trkpt>
      <trkpt lat="53.000125" lon="34.451006"></trkpt>
      <trkpt lat="53.006413" lon="34.446933"></trkpt>
      <trkpt lat="53.026885" lon="34.43821"></trkpt>
      <trkpt lat="53.03523" lon="34.434456"></trkpt>
      <trkpt lat="53.037244" lon="34.433986"></trkpt>
      <trkpt lat="53.039231" lon="34.433778"></trkpt>
      <trkpt lat="53.04069" lon="34.433864"></trkpt>
      <trkpt lat="53.042099" lon="34.434119"></trkpt>
      <trkpt lat="53.046297" lon="34.435405"></trkpt>
      <trkpt lat="53.047637" lon="34.435714"></trkpt>
      <trkpt lat="53.050104" lon="34.435768"></trkpt>
      <trkpt lat="53.109829" lon="34.428564"></trkpt>
      <trkpt lat="53.139181" lon="34.42536"></trkpt>
      <trkpt lat="53.185258" lon="34.41733"></trkpt>
      <trkpt lat="53.187123" lon="34.416887"></trkpt>
      <trkpt lat="53.188844" lon="34.41667"></trkpt>
      <trkpt lat="53.189995" lon="34.416045"></trkpt>
      <trkpt lat="53.195624" lon="34.411738"></trkpt>
      <trkpt lat="53.197008" lon="34.410903"></trkpt>
      <trkpt lat="53.198177" lon="34.410413"></trkpt>
      <trkpt lat="53.20544" lon="34.40861"></trkpt>
      <trkpt lat="53.206911" lon="34.40811"></trkpt>
      <trkpt lat="53.208676" lon="34.408542"></trkpt>
      <trkpt lat="53.210519" lon="34.409361"></trkpt>
      <trkpt lat="53.217789" lon="34.414053"></trkpt>
      <trkpt lat="53.219042" lon="34.415265"></trkpt>
      <trkpt lat="53.220755" lon="34.417262"></trkpt>
      <trkpt lat="53.221763" lon="34.418637"></trkpt>
      <trkpt lat="53.222741" lon="34.420272"></trkpt>
      <trkpt lat="53.235276" lon="34.442721"></trkpt>
      <trkpt lat="53.236491" lon="34.444246"></trkpt>
      <trkpt lat="53.237826" lon="34.445524"></trkpt>
      <trkpt lat="53.242714" lon="34.449338"></trkpt>
      <trkpt lat="53.244143" lon="34.450771"></trkpt>
      <trkpt lat="53.245193" lon="34.452273"></trkpt>
      <trkpt lat="53.254643" lon="34.467392"></trkpt>
      <trkpt lat="53.270942" lon="34.487707"></trkpt>
      <trkpt lat="53.279414" lon="34.496704"></trkpt>
      <trkpt lat="53.281386" lon="34.498611"></trkpt>
      <trkpt lat="53.28909" lon="34.506785"></trkpt>
      <trkpt lat="53.292819" lon="34.510926"></trkpt>
      <trkpt lat="53.341244" lon="34.562187"></trkpt>
      <trkpt lat="53.343036" lon="34.564285"></trkpt>
      <trkpt lat="53.361312" lon="34.583723"></trkpt>
      <trkpt lat="53.375979" lon="34.599641"></trkpt>
      <trkpt lat="53.398761" lon="34.623738"></trkpt>
      <trkpt lat="53.42983" lon="34.65337"></trkpt>
      <trkpt lat="53.449426" lon="34.672482"></trkpt>
      <trkpt lat="53.466799" lon="34.689195"></trkpt>
      <trkpt lat="53.534056" lon="34.753046"></trkpt>
      <trkpt lat="53.535947" lon="34.754533"></trkpt>
      <trkpt lat="53.538145" lon="34.75579"></trkpt>
      <trkpt lat="53.613456" lon="34.791689"></trkpt>
      <trkpt lat="53.615886" lon="34.792986"></trkpt>
      <trkpt lat="53.618757" lon="34.794995"></trkpt>
      <trkpt lat="53.649093" lon="34.817314"></trkpt>
      <trkpt lat="53.676709" lon="34.83738"></trkpt>
      <trkpt lat="53.725315" lon="34.873012"></trkpt>
      <trkpt lat="53.727639" lon="34.875152"></trkpt>
      <trkpt lat="53.732385" lon="34.880216"></trkpt>
      <trkpt lat="53.738735" lon="34.887591"></trkpt>
      <trkpt lat="53.740957" lon="34.889825"></trkpt>
      <trkpt lat="53.758268" lon="34.902242"></trkpt>
      <trkpt lat="53.76239" lon="34.905522"></trkpt>
      <trkpt lat="53.766742" lon="34.908282"></trkpt>
      <trkpt lat="53.776754" lon="34.915445"></trkpt>
      <trkpt lat="53.779112" lon="34.917261"></trkpt>
      <trkpt lat="53.838791" lon="34.975667"></trkpt>
      <trkpt lat="53.846027" lon="34.98584"></trkpt>
      <trkpt lat="53.848532" lon="34.989726"></trkpt>
      <trkpt lat="53.85085" lon="34.993893"></trkpt>
      <trkpt lat="53.852598" lon="34.996021"></trkpt>
      <trkpt lat="53.853617" lon="34.997702"></trkpt>
      <trkpt lat="53.855521" lon="35.00295"></trkpt>
      <trkpt lat="53.857844" lon="35.007254"></trkpt>
      <trkpt lat="53.861853" lon="35.019434"></trkpt>
      <trkpt lat="53.863154" lon="35.022145"></trkpt>
      <trkpt lat="53.866083" lon="35.027457"></trkpt>
      <trkpt lat="53.866808" lon="35.029062"></trkpt>
      <trkpt lat="53.867515" lon="35.031165"></trkpt>
      <trkpt lat="53.869105" lon="35.038247"></trkpt>
      <trkpt lat="53.869315" lon="35.040136"></trkpt>
      <trkpt lat="53.870182" lon="35.055173"></trkpt>
      <trkpt lat="53.87212" lon="35.069056"></trkpt>
      <trkpt lat="53.873999" lon="35.078641"></trkpt>
      <trkpt lat="53.874976" lon="35.083929"></trkpt>
      <trkpt lat="53.87534" lon="35.086702"></trkpt>
      <trkpt lat="53.876503" lon="35.092616"></trkpt>
      <trkpt lat="53.877384" lon="35.096307"></trkpt>
      <trkpt lat="53.881495" lon="35.117506"></trkpt>
      <trkpt lat="53.882228" lon="35.119834"></trkpt>
      <trkpt lat="53.882653" lon="35.120899"></trkpt>
      <trkpt lat="53.883708" lon="35.122899"></trkpt>
      <trkpt lat="53.901701" lon="35.147634"></trkpt>
      <trkpt lat="53.902498" lon="35.148462"></trkpt>
      <trkpt lat="53.903033" lon="35.148858"></trkpt>
      <trkpt lat="53.903757" lon="35.149245"></trkpt>
      <trkpt lat="53.905003" lon="35.14961"></trkpt>
      <trkpt lat="53.919741" lon="35.149289"></trkpt>
      <trkpt lat="53.921166" lon="35.149426"></trkpt>
      <trkpt lat="53.922135" lon="35.149827"></trkpt>
      <trkpt lat="53.92315" lon="35.150522"></trkpt>
      <trkpt lat="53.924098" lon="35.151534"></trkpt>
      <trkpt lat="53.930346" lon="35.161558"></trkpt>
      <trkpt lat="53.931204" lon="35.162576"></trkpt>
      <trkpt lat="53.935887" lon="35.166157"></trkpt>
      <trkpt lat="53.946438" lon="35.173721"></trkpt>
      <trkpt lat="53.947338" lon="35.174221"></trkpt>
      <trkpt lat="53.972443" lon="35.184914"></trkpt>
      <trkpt lat="53.974153" lon="35.185878"></trkpt>
      <trkpt lat="53.978006" lon="35.189173"></trkpt>
      <trkpt lat="53.983742" lon="35.194393"></trkpt>
      <trkpt lat="53.98437" lon="35.194806"></trkpt>
      <trkpt lat="53.992912" lon="35.198736"></trkpt>
      <trkpt lat="53.994063" lon="35.199428"></trkpt>
      <trkpt lat="53.998913" lon="35.203333"></trkpt>
      <trkpt lat="53.999883" lon="35.20379"></trkpt>
      <trkpt lat="54.002273" lon="35.204621"></trkpt>
      <trkpt lat="54.017478" lon="35.209609"></trkpt>
      <trkpt lat="54.018887" lon="35.210548"></trkpt>
      <trkpt lat="54.019833" lon="35.211582"></trkpt>
      <trkpt lat="54.021982" lon="35.214993"></trkpt>
      <trkpt lat="54.02298" lon="35.217247"></trkpt>
      <trkpt lat="54.023497" lon="35.219204"></trkpt>
      <trkpt lat="54.028243" lon="35.242672"></trkpt>
      <trkpt lat="54.028691" lon="35.244192"></trkpt>
      <trkpt lat="54.029421" lon="35.24608"></trkpt>
      <trkpt lat="54.030347" lon="35.247946"></trkpt>
      <trkpt lat="54.031327" lon="35.249386"></trkpt>
      <trkpt lat="54.036808" lon="35.255123"></trkpt>
      <trkpt lat="54.037663" lon="35.256172"></trkpt>
      <trkpt lat="54.043128" lon="35.26415"></trkpt>
      <trkpt lat="54.043843" lon="35.264921"></trkpt>
      <trkpt lat="54.044694" lon="35.265549"></trkpt>
      <trkpt lat="54.045669" lon="35.266"></trkpt>
      <trkpt lat="54.046906" lon="35.266185"></trkpt>
      <trkpt lat="54.049195" lon="35.265798"></trkpt>
      <trkpt lat="54.050428" lon="35.265768"></trkpt>
      <trkpt lat="54.051349" lon="35.266089"></trkpt>
      <trkpt lat="54.052132" lon="35.266478"></trkpt>
      <trkpt lat="54.052813" lon="35.267004"></trkpt>
      <trkpt lat="54.054156" lon="35.268573"></trkpt>
      <trkpt lat="54.055404" lon="35.270956"></trkpt>
      <trkpt lat="54.057112" lon="35.276738"></trkpt>
      <trkpt lat="54.057843" lon="35.278452"></trkpt>
      <trkpt lat="54.058834" lon="35.279993"></trkpt>
      <trkpt lat="54.061146" lon="35.282336"></trkpt>
      <trkpt lat="54.061983" lon="35.283278"></trkpt>
      <trkpt lat="54.062615" lon="35.284209"></trkpt>
      <trkpt lat="54.064303" lon="35.2874"></trkpt>
      <trkpt lat="54.069063" lon="35.297415"></trkpt>
      <trkpt lat="54.070394" lon="35.300656"></trkpt>
      <trkpt lat="54.072324" lon="35.304307"></trkpt>
      <trkpt lat="54.072924" lon="35.305175"></trkpt>
      <trkpt lat="54.073575" lon="35.305997"></trkpt>
      <trkpt lat="54.078204" lon="35.310637"></trkpt>
      <trkpt lat="54.080171" lon="35.312766"></trkpt>
      <trkpt lat="54.089429" lon="35.319453"></trkpt>
      <trkpt lat="54.092743" lon="35.32238"></trkpt>
      <trkpt lat="54.094358" lon="35.323487"></trkpt>
      <trkpt lat="54.095064" lon="35.323762"></trkpt>
      <trkpt lat="54.095859" lon="35.323888"></trkpt>
      <trkpt lat="54.096959" lon="35.32368"></trkpt>
      <trkpt lat="54.097814" lon="35.323172"></trkpt>
      <trkpt lat="54.099128" lon="35.322009"></trkpt>
      <trkpt lat="54.100291" lon="35.321422"></trkpt>
      <trkpt lat="54.101348" lon="35.321287"></trkpt>
      <trkpt lat="54.102655" lon="35.321738"></trkpt>
      <trkpt lat="54.10334" lon="35.32226"></trkpt>
      <trkpt lat="54.10905" lon="35.328406"></trkpt>
      <trkpt lat="54.115196" lon="35.336393"></trkpt>
      <trkpt lat="54.116073" lon="35.338023"></trkpt>
      <trkpt lat="54.116716" lon="35.339946"></trkpt>
      <trkpt lat="54.118197" lon="35.34662"></trkpt>
      <trkpt lat="54.11885" lon="35.350616"></trkpt>
      <trkpt lat="54.118876" lon="35.352666"></trkpt>
      <trkpt lat="54.117991" lon="35.358274"></trkpt>
      <trkpt lat="54.117851" lon="35.360498"></trkpt>
      <trkpt lat="54.117979" lon="35.362877"></trkpt>
      <trkpt lat="54.118463" lon="35.365429"></trkpt>
      <trkpt lat="54.119619" lon="35.368389"></trkpt>
      <trkpt lat="54.128447" lon="35.386406"></trkpt>
      <trkpt lat="54.129349" lon="35.388104"></trkpt>
      <trkpt lat="54.130597" lon="35.390038"></trkpt>
      <trkpt lat="54.136384" lon="35.398384"></trkpt>
      <trkpt lat="54.173607" lon="35.453684"></trkpt>
      <trkpt lat="54.175547" lon="35.456415"></trkpt>
      <trkpt lat="54.242249" lon="35.53967"></trkpt>
      <trkpt lat="54.243236" lon="35.540508"></trkpt>
      <trkpt lat="54.243931" lon="35.540865"></trkpt>
      <trkpt lat="54.255928" lon="35.544579"></trkpt>
      <trkpt lat="54.259327" lon="35.54594"></trkpt>
      <trkpt lat="54.260611" lon="35.546774"></trkpt>
      <trkpt lat="54.261567" lon="35.547792"></trkpt>
      <trkpt lat="54.269016" lon="35.55817"></trkpt>
      <trkpt lat="54.272546" lon="35.565024"></trkpt>
      <trkpt lat="54.273393" lon="35.566383"></trkpt>
      <trkpt lat="54.27432" lon="35.567577"></trkpt>
      <trkpt lat="54.275367" lon="35.568538"></trkpt>
      <trkpt lat="54.276453" lon="35.569326"></trkpt>
      <trkpt lat="54.28275" lon="35.572701"></trkpt>
      <trkpt lat="54.284271" lon="35.573837"></trkpt>
      <trkpt lat="54.285323" lon="35.574983"></trkpt>
      <trkpt lat="54.289236" lon="35.580476"></trkpt>
      <trkpt lat="54.292281" lon="35.58666"></trkpt>
      <trkpt lat="54.29347" lon="35.58817"></trkpt>
      <trkpt lat="54.296642" lon="35.590973"></trkpt>
      <trkpt lat="54.297398" lon="35.591811"></trkpt>
      <trkpt lat="54.298374" lon="35.593281"></trkpt>
      <trkpt lat="54.299719" lon="35.595979"></trkpt>
      <trkpt lat="54.300255" lon="35.597606"></trkpt>
      <trkpt lat="54.300628" lon="35.599397"></trkpt>
      <trkpt lat="54.300785" lon="35.602033"></trkpt>
      <trkpt lat="54.300749" lon="35.606125"></trkpt>
      <trkpt lat="54.300849" lon="35.607264"></trkpt>
      <trkpt lat="54.301496" lon="35.610673"></trkpt>
      <trkpt lat="54.302726" lon="35.615531"></trkpt>
      <trkpt lat="54.303472" lon="35.617163"></trkpt>
      <trkpt lat="54.304506" lon="35.618595"></trkpt>
      <trkpt lat="54.30505" lon="35.619164"></trkpt>
      <trkpt lat="54.306214" lon="35.619829"></trkpt>
      <trkpt lat="54.306826" lon="35.620036"></trkpt>
      <trkpt lat="54.311579" lon="35.620827"></trkpt>
      <trkpt lat="54.312528" lon="35.621294"></trkpt>
      <trkpt lat="54.315714" lon="35.62354"></trkpt>
      <trkpt lat="54.317162" lon="35.624434"></trkpt>
      <trkpt lat="54.330695" lon="35.630366"></trkpt>
      <trkpt lat="54.339513" lon="35.636392"></trkpt>
      <trkpt lat="54.340675" lon="35.637649"></trkpt>
      <trkpt lat="54.341306" lon="35.638667"></trkpt>
      <trkpt lat="54.346722" lon="35.650538"></trkpt>
      <trkpt lat="54.34759" lon="35.652869"></trkpt>
      <trkpt lat="54.352854" lon="35.672207"></trkpt>
      <trkpt lat="54.357798" lon="35.686948"></trkpt>
      <trkpt lat="54.358249" lon="35.689864"></trkpt>
      <trkpt lat="54.358273" lon="35.693749"></trkpt>
      <trkpt lat="54.35841" lon="35.695251"></trkpt>
      <trkpt lat="54.360218" lon="35.702756"></trkpt>
      <trkpt lat="54.360706" lon="35.704301"></trkpt>
      <trkpt lat="54.364111" lon="35.713188"></trkpt>
      <trkpt lat="54.365072" lon="35.714763"></trkpt>
      <trkpt lat="54.365874" lon="35.715652"></trkpt>
      <trkpt lat="54.373559" lon="35.721911"></trkpt>
      <trkpt lat="54.375046" lon="35.723339"></trkpt>
      <trkpt lat="54.381905" lon="35.731772"></trkpt>
      <trkpt lat="54.383715" lon="35.733727"></trkpt>
      <trkpt lat="54.38579" lon="35.736281"></trkpt>
      <trkpt lat="54.390154" lon="35.74177"></trkpt>
      <trkpt lat="54.391177" lon="35.743228"></trkpt>
      <trkpt lat="54.394372" lon="35.747086"></trkpt>
      <trkpt lat="54.40468" lon="35.760015"></trkpt>
      <trkpt lat="54.40575" lon="35.762014"></trkpt>
      <trkpt lat="54.415178" lon="35.784326"></trkpt>
      <trkpt lat="54.419787" lon="35.79379"></trkpt>
      <trkpt lat="54.420751" lon="35.796343"></trkpt>
      <trkpt lat="54.430676" lon="35.826341"></trkpt>
      <trkpt lat="54.431041" lon="35.827817"></trkpt>
      <trkpt lat="54.431345" lon="35.829783"></trkpt>
      <trkpt lat="54.431453" lon="35.832116"></trkpt>
      <trkpt lat="54.431423" lon="35.84465"></trkpt>
      <trkpt lat="54.431109" lon="35.888359"></trkpt>
      <trkpt lat="54.431122" lon="35.889864"></trkpt>
      <trkpt lat="54.431419" lon="35.892465"></trkpt>
      <trkpt lat="54.431875" lon="35.894401"></trkpt>
      <trkpt lat="54.432458" lon="35.895995"></trkpt>
      <trkpt lat="54.435429" lon="35.901284"></trkpt>
      <trkpt lat="54.436508" lon="35.903897"></trkpt>
      <trkpt lat="54.438451" lon="35.90971"></trkpt>
      <trkpt lat="54.440205" lon="35.913439"></trkpt>
      <trkpt lat="54.440715" lon="35.914962"></trkpt>
      <trkpt lat="54.441189" lon="35.917852"></trkpt>
      <trkpt lat="54.44116" lon="35.922977"></trkpt>
      <trkpt lat="54.441496" lon="35.925745"></trkpt>
      <trkpt lat="54.447092" lon="35.945116"></trkpt>
      <trkpt lat="54.44766" lon="35.947633"></trkpt>
      <trkpt lat="54.447865" lon="35.950667"></trkpt>
      <trkpt lat="54.446676" lon="35.963468"></trkpt>
      <trkpt lat="54.446504" lon="35.965938"></trkpt>
      <trkpt lat="54.446582" lon="35.968138"></trkpt>
      <trkpt lat="54.446721" lon="35.969397"></trkpt>
      <trkpt lat="54.447257" lon="35.971436"></trkpt>
      <trkpt lat="54.449223" lon="35.975403"></trkpt>
      <trkpt lat="54.449943" lon="35.977323"></trkpt>
      <trkpt lat="54.450496" lon="35.979492"></trkpt>
      <trkpt lat="54.450774" lon="35.982338"></trkpt>
      <trkpt lat="54.450732" lon="35.983911"></trkpt>
      <trkpt lat="54.450495" lon="35.985663"></trkpt>
      <trkpt lat="54.448535" lon="35.992464"></trkpt>
      <trkpt lat="54.447978" lon="35.995379"></trkpt>
      <trkpt lat="54.447447" lon="36.00428"></trkpt>
      <trkpt lat="54.447602" lon="36.006681"></trkpt>
      <trkpt lat="54.447821" lon="36.007952"></trkpt>
      <trkpt lat="54.448181" lon="36.009397"></trkpt>
      <trkpt lat="54.448704" lon="36.010869"></trkpt>
      <trkpt lat="54.449331" lon="36.012142"></trkpt>
      <trkpt lat="54.450588" lon="36.013924"></trkpt>
      <trkpt lat="54.453353" lon="36.017119"></trkpt>
      <trkpt lat="54.455198" lon="36.019474"></trkpt>
      <trkpt lat="54.463504" lon="36.033092"></trkpt>
      <trkpt lat="54.464949" lon="36.036131"></trkpt>
      <trkpt lat="54.465768" lon="36.038195"></trkpt>
      <trkpt lat="54.47181" lon="36.0544"></trkpt>
      <trkpt lat="54.473234" lon="36.057313"></trkpt>
      <trkpt lat="54.492115" lon="36.085393"></trkpt>
      <trkpt lat="54.493354" lon="36.086661"></trkpt>
      <trkpt lat="54.498259" lon="36.090324"></trkpt>
      <trkpt lat="54.500361" lon="36.091537"></trkpt>
      <trkpt lat="54.503873" lon="36.093269"></trkpt>
      <trkpt lat="54.521761" lon="36.10525"></trkpt>
      <trkpt lat="54.523447" lon="36.106614"></trkpt>
      <trkpt lat="54.524771" lon="36.108201"></trkpt>
      <trkpt lat="54.541781" lon="36.131102"></trkpt>
      <trkpt lat="54.544979" lon="36.135169"></trkpt>
      <trkpt lat="54.549929" lon="36.142136"></trkpt>
      <trkpt lat="54.551132" lon="36.14366"></trkpt>
      <trkpt lat="54.552222" lon="36.144674"></trkpt>
      <trkpt lat="54.553823" lon="36.145822"></trkpt>
      <trkpt lat="54.554761" lon="36.14629"></trkpt>
      <trkpt lat="54.555731" lon="36.14656"></trkpt>
      <trkpt lat="54.556712" lon="36.146653"></trkpt>
      <trkpt lat="54.558063" lon="36.146509"></trkpt>
      <trkpt lat="54.570271" lon="36.142944"></trkpt>
      <trkpt lat="54.573605" lon="36.142093"></trkpt>
      <trkpt lat="54.574696" lon="36.141966"></trkpt>
      <trkpt lat="54.588796" lon="36.14297"></trkpt>
      <trkpt lat="54.59025" lon="36.143129"></trkpt>
      <trkpt lat="54.59474" lon="36.144322"></trkpt>
      <trkpt lat="54.595251" lon="36.144405"></trkpt>
      <trkpt lat="54.596363" lon="36.144307"></trkpt>
      <trkpt lat="54.597798" lon="36.143762"></trkpt>
      <trkpt lat="54.606557" lon="36.139313"></trkpt>
      <trkpt lat="54.608649" lon="36.138682"></trkpt>
      <trkpt lat="54.618795" lon="36.136934"></trkpt>
      <trkpt lat="54.621923" lon="36.136583"></trkpt>
      <trkpt lat="54.623378" lon="36.136766"></trkpt>
      <trkpt lat="54.624823" lon="36.137335"></trkpt>
      <trkpt lat="54.626165" lon="36.138256"></trkpt>
      <trkpt lat="54.62683" lon="36.13885"></trkpt>
      <trkpt lat="54.634768" lon="36.14641"></trkpt>
      <trkpt lat="54.638688" lon="36.150437"></trkpt>
      <trkpt lat="54.650172" lon="36.161287"></trkpt>
      <trkpt lat="54.654532" lon="36.164504"></trkpt>
      <trkpt lat="54.663623" lon="36.170874"></trkpt>
      <trkpt lat="54.665189" lon="36.172531"></trkpt>
      <trkpt lat="54.667756" lon="36.176216"></trkpt>
      <trkpt lat="54.66854" lon="36.177122"></trkpt>
      <trkpt lat="54.669291" lon="36.177792"></trkpt>
      <trkpt lat="54.670037" lon="36.178257"></trkpt>
      <trkpt lat="54.670911" lon="36.178616"></trkpt>
      <trkpt lat="54.671879" lon="36.178755"></trkpt>
      <trkpt lat="54.672899" lon="36.178625"></trkpt>
      <trkpt lat="54.674004" lon="36.178322"></trkpt>
      <trkpt lat="54.674943" lon="36.177906"></trkpt>
      <trkpt lat="54.6759" lon="36.17726"></trkpt>
      <trkpt lat="54.677961" lon="36.174922"></trkpt>
      <trkpt lat="54.678669" lon="36.174382"></trkpt>
      <trkpt lat="54.683905" lon="36.171821"></trkpt>
      <trkpt lat="54.691819" lon="36.169459"></trkpt>
      <trkpt lat="54.693743" lon="36.169331"></trkpt>
      <trkpt lat="54.695818" lon="36.169686"></trkpt>
      <trkpt lat="54.697358" lon="36.170249"></trkpt>
      <trkpt lat="54.706944" lon="36.175816"></trkpt>
      <trkpt lat="54.708137" lon="36.176865"></trkpt>
      <trkpt lat="54.711565" lon="36.180422"></trkpt>
      <trkpt lat="54.712699" lon="36.181438"></trkpt>
      <trkpt lat="54.713538" lon="36.181939"></trkpt>
      <trkpt lat="54.71447" lon="36.182252"></trkpt>
      <trkpt lat="54.7171" lon="36.182417"></trkpt>
      <trkpt lat="54.717683" lon="36.182555"></trkpt>
      <trkpt lat="54.719188" lon="36.183495"></trkpt>
      <trkpt lat="54.720076" lon="36.184609"></trkpt>
      <trkpt lat="54.722387" lon="36.188642"></trkpt>
      <trkpt lat="54.723134" lon="36.189703"></trkpt>
      <trkpt lat="54.72421" lon="36.190926"></trkpt>
      <trkpt lat="54.725246" lon="36.192424"></trkpt>
      <trkpt lat="54.727516" lon="36.19641"></trkpt>
      <trkpt lat="54.728195" lon="36.197864"></trkpt>
      <trkpt lat="54.728862" lon="36.200187"></trkpt>
      <trkpt lat="54.730255" lon="36.208747"></trkpt>
      <trkpt lat="54.730611" lon="36.209945"></trkpt>
      <trkpt lat="54.731414" lon="36.211719"></trkpt>
      <trkpt lat="54.738113" lon="36.221732"></trkpt>
      <trkpt lat="54.787059" lon="36.307005"></trkpt>
      <trkpt lat="54.787815" lon="36.30821"></trkpt>
      <trkpt lat="54.788548" lon="36.309127"></trkpt>
      <trkpt lat="54.789989" lon="36.310391"></trkpt>
      <trkpt lat="54.790864" lon="36.310952"></trkpt>
      <trkpt lat="54.794889" lon="36.312989"></trkpt>
      <trkpt lat="54.801505" lon="36.316587"></trkpt>
      <trkpt lat="54.804063" lon="36.317716"></trkpt>
      <trkpt lat="54.804922" lon="36.318296"></trkpt>
      <trkpt lat="54.806134" lon="36.31926"></trkpt>
      <trkpt lat="54.811937" lon="36.323353"></trkpt>
      <trkpt lat="54.814784" lon="36.325728"></trkpt>
      <trkpt lat="54.817567" lon="36.328329"></trkpt>
      <trkpt lat="54.82025" lon="36.33062"></trkpt>
      <trkpt lat="54.847945" lon="36.350499"></trkpt>
      <trkpt lat="54.849788" lon="36.351235"></trkpt>
      <trkpt lat="54.85053" lon="36.351315"></trkpt>
      <trkpt lat="54.856713" lon="36.351245"></trkpt>
      <trkpt lat="54.85807" lon="36.351683"></trkpt>
      <trkpt lat="54.85873" lon="36.35207"></trkpt>
      <trkpt lat="54.86551" lon="36.358406"></trkpt>
      <trkpt lat="54.869583" lon="36.361986"></trkpt>
      <trkpt lat="54.877744" lon="36.36965"></trkpt>
      <trkpt lat="54.878393" lon="36.370034"></trkpt>
      <trkpt lat="54.879046" lon="36.370338"></trkpt>
      <trkpt lat="54.891912" lon="36.373463"></trkpt>
      <trkpt lat="54.892463" lon="36.373674"></trkpt>
      <trkpt lat="54.89363" lon="36.374443"></trkpt>
      <trkpt lat="54.90499" lon="36.384858"></trkpt>
      <trkpt lat="54.905664" lon="36.385292"></trkpt>
      <trkpt lat="54.90893" lon="36.386383"></trkpt>
      <trkpt lat="54.939167" lon="36.395637"></trkpt>
      <trkpt lat="54.940502" lon="36.396298"></trkpt>
      <trkpt lat="54.941301" lon="36.39698"></trkpt>
      <trkpt lat="54.942425" lon="36.398391"></trkpt>
      <trkpt lat="54.942954" lon="36.399256"></trkpt>
      <trkpt lat="54.946294" lon="36.40596"></trkpt>
      <trkpt lat="54.946972" lon="36.407032"></trkpt>
      <trkpt lat="54.948481" lon="36.408758"></trkpt>
      <trkpt lat="54.949206" lon="36.409375"></trkpt>
      <trkpt lat="54.950579" lon="36.410195"></trkpt>
      <trkpt lat="54.952089" lon="36.410686"></trkpt>
      <trkpt lat="54.954171" lon="36.410864"></trkpt>
      <trkpt lat="54.955388" lon="36.411117"></trkpt>
      <trkpt lat="54.956668" lon="36.411684"></trkpt>
      <trkpt lat="54.958168" lon="36.412791"></trkpt>
      <trkpt lat="54.98195" lon="36.437905"></trkpt>
      <trkpt lat="54.983361" lon="36.440082"></trkpt>
      <trkpt lat="54.995741" lon="36.466802"></trkpt>
      <trkpt lat="54.996332" lon="36.468497"></trkpt>
      <trkpt lat="54.997273" lon="36.472106"></trkpt>
      <trkpt lat="54.997642" lon="36.473099"></trkpt>
      <trkpt lat="54.999731" lon="36.476856"></trkpt>
      <trkpt lat="55.000553" lon="36.477781"></trkpt>
      <trkpt lat="55.001497" lon="36.478384"></trkpt>
      <trkpt lat="55.011046" lon="36.482282"></trkpt>
      <trkpt lat="55.012522" lon="36.483022"></trkpt>
      <trkpt lat="55.01352" lon="36.483941"></trkpt>
      <trkpt lat="55.014342" lon="36.485005"></trkpt>
      <trkpt lat="55.015299" lon="36.486832"></trkpt>
      <trkpt lat="55.015987" lon="36.48882"></trkpt>
      <trkpt lat="55.01639" lon="36.490643"></trkpt>
      <trkpt lat="55.016592" lon="36.492596"></trkpt>
      <trkpt lat="55.016827" lon="36.497479"></trkpt>
      <trkpt lat="55.016845" lon="36.498883"></trkpt>
      <trkpt lat="55.01662" lon="36.501446"></trkpt>
      <trkpt lat="55.015359" lon="36.507086"></trkpt>
      <trkpt lat="55.014968" lon="36.511194"></trkpt>
      <trkpt lat="55.014995" lon="36.514231"></trkpt>
      <trkpt lat="55.015214" lon="36.515932"></trkpt>
      <trkpt lat="55.015575" lon="36.51735"></trkpt>
      <trkpt lat="55.016176" lon="36.518739"></trkpt>
      <trkpt lat="55.017289" lon="36.520257"></trkpt>
      <trkpt lat="55.018363" lon="36.521036"></trkpt>
      <trkpt lat="55.019071" lon="36.521283"></trkpt>
      <trkpt lat="55.019833" lon="36.521424"></trkpt>
      <trkpt lat="55.02113" lon="36.521455"></trkpt>
      <trkpt lat="55.02179" lon="36.521343"></trkpt>
      <trkpt lat="55.026127" lon="36.52004"></trkpt>
      <trkpt lat="55.027593" lon="36.519885"></trkpt>
      <trkpt lat="55.028705" lon="36.520064"></trkpt>
      <trkpt lat="55.030403" lon="36.520769"></trkpt>
      <trkpt lat="55.031226" lon="36.521313"></trkpt>
      <trkpt lat="55.032118" lon="36.522145"></trkpt>
      <trkpt lat="55.032757" lon="36.52295"></trkpt>
      <trkpt lat="55.033395" lon="36.524027"></trkpt>
      <trkpt lat="55.033942" lon="36.525276"></trkpt>
      <trkpt lat="55.034554" lon="36.527134"></trkpt>
      <trkpt lat="55.035008" lon="36.529055"></trkpt>
      <trkpt lat="55.035746" lon="36.530709"></trkpt>
      <trkpt lat="55.038264" lon="36.534545"></trkpt>
      <trkpt lat="55.038858" lon="36.535238"></trkpt>
      <trkpt lat="55.04082" lon="36.536742"></trkpt>
      <trkpt lat="55.041551" lon="36.537555"></trkpt>
      <trkpt lat="55.043669" lon="36.541136"></trkpt>
      <trkpt lat="55.044733" lon="36.542296"></trkpt>
      <trkpt lat="55.045294" lon="36.542717"></trkpt>
      <trkpt lat="55.046169" lon="36.543072"></trkpt>
      <trkpt lat="55.047926" lon="36.543507"></trkpt>
      <trkpt lat="55.048947" lon="36.543883"></trkpt>
      <trkpt lat="55.049364" lon="36.544158"></trkpt>
      <trkpt lat="55.05033" lon="36.545148"></trkpt>
      <trkpt lat="55.051683" lon="36.547642"></trkpt>
      <trkpt lat="55.052782" lon="36.550258"></trkpt>
      <trkpt lat="55.053341" lon="36.552569"></trkpt>
      <trkpt lat="55.05349" lon="36.55417"></trkpt>
      <trkpt lat="55.053775" lon="36.565616"></trkpt>
      <trkpt lat="55.054019" lon="36.567891"></trkpt>
      <trkpt lat="55.054693" lon="36.570473"></trkpt>
      <trkpt lat="55.056817" lon="36.575192"></trkpt>
      <trkpt lat="55.057965" lon="36.576715"></trkpt>
      <trkpt lat="55.061058" lon="36.578912"></trkpt>
      <trkpt lat="55.061742" lon="36.579211"></trkpt>
      <trkpt lat="55.062393" lon="36.579328"></trkpt>
      <trkpt lat="55.063932" lon="36.579099"></trkpt>
      <trkpt lat="55.066612" lon="36.57849"></trkpt>
      <trkpt lat="55.067642" lon="36.578584"></trkpt>
      <trkpt lat="55.068471" lon="36.578976"></trkpt>
      <trkpt lat="55.06935" lon="36.579675"></trkpt>
      <trkpt lat="55.069911" lon="36.580323"></trkpt>
      <trkpt lat="55.070694" lon="36.581593"></trkpt>
      <trkpt lat="55.071194" lon="36.582903"></trkpt>
      <trkpt lat="55.0715" lon="36.584387"></trkpt>
      <trkpt lat="55.071685" lon="36.58583"></trkpt>
      <trkpt lat="55.071708" lon="36.587087"></trkpt>
      <trkpt lat="55.070683" lon="36.599996"></trkpt>
      <trkpt lat="55.070769" lon="36.603443"></trkpt>
      <trkpt lat="55.071447" lon="36.606652"></trkpt>
      <trkpt lat="55.072454" lon="36.609109"></trkpt>
      <trkpt lat="55.074081" lon="36.611749"></trkpt>
      <trkpt lat="55.075384" lon="36.61289"></trkpt>
      <trkpt lat="55.07816" lon="36.614456"></trkpt>
      <trkpt lat="55.079054" lon="36.614799"></trkpt>
      <trkpt lat="55.085092" lon="36.615543"></trkpt>
      <trkpt lat="55.086282" lon="36.615769"></trkpt>
      <trkpt lat="55.087699" lon="36.616261"></trkpt>
      <trkpt lat="55.100813" lon="36.621866"></trkpt>
      <trkpt lat="55.124288" lon="36.632302"></trkpt>
      <trkpt lat="55.131968" lon="36.635316"></trkpt>
      <trkpt lat="55.136451" lon="36.637279"></trkpt>
      <trkpt lat="55.137386" lon="36.637871"></trkpt>
      <trkpt lat="55.138016" lon="36.638448"></trkpt>
      <trkpt lat="55.14011" lon="36.641125"></trkpt>
      <trkpt lat="55.143132" lon="36.644416"></trkpt>
      <trkpt lat="55.14507" lon="36.645866"></trkpt>
      <trkpt lat="55.149719" lon="36.648841"></trkpt>
      <trkpt lat="55.150887" lon="36.649296"></trkpt>
      <trkpt lat="55.15215" lon="36.649445"></trkpt>
      <trkpt lat="55.154801" lon="36.648894"></trkpt>
      <trkpt lat="55.155646" lon="36.648894"></trkpt>
      <trkpt lat="55.156597" lon="36.649032"></trkpt>
      <trkpt lat="55.158067" lon="36.649764"></trkpt>
      <trkpt lat="55.159115" lon="36.65075"></trkpt>
      <trkpt lat="55.161421" lon="36.653316"></trkpt>
      <trkpt lat="55.164719" lon="36.657828"></trkpt>
      <trkpt lat="55.165864" lon="36.659008"></trkpt>
      <trkpt lat="55.171685" lon="36.663021"></trkpt>
      <trkpt lat="55.172634" lon="36.663416"></trkpt>
      <trkpt lat="55.174314" lon="36.6636"></trkpt>
      <trkpt lat="55.176374" lon="36.66314"></trkpt>
      <trkpt lat="55.177612" lon="36.663064"></trkpt>
      <trkpt lat="55.18025" lon="36.662472"></trkpt>
      <trkpt lat="55.181451" lon="36.662519"></trkpt>
      <trkpt lat="55.185096" lon="36.663464"></trkpt>
      <trkpt lat="55.186793" lon="36.664106"></trkpt>
      <trkpt lat="55.187664" lon="36.664173"></trkpt>
      <trkpt lat="55.188482" lon="36.663923"></trkpt>
      <trkpt lat="55.189234" lon="36.663497"></trkpt>
      <trkpt lat="55.192111" lon="36.661352"></trkpt>
      <trkpt lat="55.192934" lon="36.660816"></trkpt>
      <trkpt lat="55.193625" lon="36.660548"></trkpt>
      <trkpt lat="55.201513" lon="36.659062"></trkpt>
      <trkpt lat="55.20403" lon="36.658724"></trkpt>
      <trkpt lat="55.211711" lon="36.658494"></trkpt>
      <trkpt lat="55.21408" lon="36.658571"></trkpt>
      <trkpt lat="55.224734" lon="36.660853"></trkpt>
      <trkpt lat="55.225381" lon="36.661069"></trkpt>
      <trkpt lat="55.23508" lon="36.665303"></trkpt>
      <trkpt lat="55.237345" lon="36.666023"></trkpt>
      <trkpt lat="55.240084" lon="36.667115"></trkpt>
      <trkpt lat="55.249578" lon="36.671299"></trkpt>
      <trkpt lat="55.250978" lon="36.671748"></trkpt>
      <trkpt lat="55.25208" lon="36.671939"></trkpt>
      <trkpt lat="55.256555" lon="36.671736"></trkpt>
      <trkpt lat="55.257747" lon="36.67155"></trkpt>
      <trkpt lat="55.26142" lon="36.671315"></trkpt>
      <trkpt lat="55.266985" lon="36.671122"></trkpt>
      <trkpt lat="55.270159" lon="36.670698"></trkpt>
      <trkpt lat="55.271005" lon="36.670714"></trkpt>
      <trkpt lat="55.281843" lon="36.667958"></trkpt>
      <trkpt lat="55.285423" lon="36.666722"></trkpt>
      <trkpt lat="55.290554" lon="36.666379"></trkpt>
      <trkpt lat="55.301998" lon="36.664471"></trkpt>
      <trkpt lat="55.302967" lon="36.664576"></trkpt>
      <trkpt lat="55.303744" lon="36.664841"></trkpt>
      <trkpt lat="55.305933" lon="36.666006"></trkpt>
      <trkpt lat="55.315509" lon="36.671967"></trkpt>
      <trkpt lat="55.333472" lon="36.678992"></trkpt>
      <trkpt lat="55.337672" lon="36.68049"></trkpt>
      <trkpt lat="55.340629" lon="36.682531"></trkpt>
      <trkpt lat="55.345472" lon="36.68636"></trkpt>
      <trkpt lat="55.346891" lon="36.688004"></trkpt>
      <trkpt lat="55.356989" lon="36.70227"></trkpt>
      <trkpt lat="55.360704" lon="36.707369"></trkpt>
      <trkpt lat="55.362509" lon="36.709654"></trkpt>
      <trkpt lat="55.363576" lon="36.711309"></trkpt>
      <trkpt lat="55.367159" lon="36.717918"></trkpt>
      <trkpt lat="55.371157" lon="36.723039"></trkpt>
      <trkpt lat="55.372143" lon="36.723896"></trkpt>
      <trkpt lat="55.37287" lon="36.724246"></trkpt>
      <trkpt lat="55.374284" lon="36.724344"></trkpt>
      <trkpt lat="55.375182" lon="36.724025"></trkpt>
      <trkpt lat="55.37738" lon="36.722857"></trkpt>
      <trkpt lat="55.378506" lon="36.722608"></trkpt>
      <trkpt lat="55.379473" lon="36.722639"></trkpt>
      <trkpt lat="55.380444" lon="36.722957"></trkpt>
      <trkpt lat="55.381512" lon="36.723581"></trkpt>
      <trkpt lat="55.382462" lon="36.724444"></trkpt>
      <trkpt lat="55.382873" lon="36.724985"></trkpt>
      <trkpt lat="55.383284" lon="36.725621"></trkpt>
      <trkpt lat="55.384008" lon="36.727298"></trkpt>
      <trkpt lat="55.384466" lon="36.729187"></trkpt>
      <trkpt lat="55.384611" lon="36.730788"></trkpt>
      <trkpt lat="55.384505" lon="36.733045"></trkpt>
      <trkpt lat="55.383631" lon="36.738598"></trkpt>
      <trkpt lat="55.383358" lon="36.741144"></trkpt>
      <trkpt lat="55.383212" lon="36.754325"></trkpt>
      <trkpt lat="55.383318" lon="36.756589"></trkpt>
      <trkpt lat="55.383296" lon="36.76355"></trkpt>
      <trkpt lat="55.383404" lon="36.76506"></trkpt>
      <trkpt lat="55.383905" lon="36.767706"></trkpt>
      <trkpt lat="55.38435" lon="36.769157"></trkpt>
      <trkpt lat="55.384928" lon="36.77051"></trkpt>
      <trkpt lat="55.385751" lon="36.771877"></trkpt>
      <trkpt lat="55.388078" lon="36.774822"></trkpt>
      <trkpt lat="55.393306" lon="36.781086"></trkpt>
      <trkpt lat="55.403898" lon="36.794144"></trkpt>
      <trkpt lat="55.415886" lon="36.815281"></trkpt>
      <trkpt lat="55.420168" lon="36.822018"></trkpt>
      <trkpt lat="55.421174" lon="36.823847"></trkpt>
      <trkpt lat="55.424105" lon="36.829376"></trkpt>
      <trkpt lat="55.426038" lon="36.83345"></trkpt>
      <trkpt lat="55.430418" lon="36.841886"></trkpt>
      <trkpt lat="55.433693" lon="36.847871"></trkpt>
      <trkpt lat="55.448049" lon="36.875196"></trkpt>
      <trkpt lat="55.449079" lon="36.876942"></trkpt>
      <trkpt lat="55.449757" lon="36.877882"></trkpt>
      <trkpt lat="55.461997" lon="36.891759"></trkpt>
      <trkpt lat="55.463793" lon="36.894019"></trkpt>
      <trkpt lat="55.466498" lon="36.897651"></trkpt>
      <trkpt lat="55.480067" lon="36.91677"></trkpt>
      <trkpt lat="55.484713" lon="36.922996"></trkpt>
      <trkpt lat="55.498112" lon="36.936437"></trkpt>
      <trkpt lat="55.499624" lon="36.938097"></trkpt>
      <trkpt lat="55.500952" lon="36.940211"></trkpt>
      <trkpt lat="55.511846" lon="36.959319"></trkpt>
      <trkpt lat="55.514499" lon="36.963662"></trkpt>
      <trkpt lat="55.518255" lon="36.970329"></trkpt>
      <trkpt lat="55.519988" lon="36.973693"></trkpt>
      <trkpt lat="55.522966" lon="36.980651"></trkpt>
      <trkpt lat="55.523915" lon="36.982164"></trkpt>
      <trkpt lat="55.525898" lon="36.984407"></trkpt>
      <trkpt lat="55.526859" lon="36.985851"></trkpt>
      <trkpt lat="55.527716" lon="36.987807"></trkpt>
      <trkpt lat="55.52826" lon="36.989679"></trkpt>
      <trkpt lat="55.530418" lon="37.000816"></trkpt>
      <trkpt lat="55.531003" lon="37.002942"></trkpt>
      <trkpt lat="55.532014" lon="37.005396"></trkpt>
      <trkpt lat="55.536623" lon="37.013755"></trkpt>
      <trkpt lat="55.537473" lon="37.015717"></trkpt>
      <trkpt lat="55.537924" lon="37.017192"></trkpt>
      <trkpt lat="55.538316" lon="37.019083"></trkpt>
      <trkpt lat="55.53852" lon="37.020857"></trkpt>
      <trkpt lat="55.538629" lon="37.029103"></trkpt>
      <trkpt lat="55.53888" lon="37.031516"></trkpt>
      <trkpt lat="55.539664" lon="37.03451"></trkpt>
      <trkpt lat="55.541571" lon="37.03867"></trkpt>
      <trkpt lat="55.542222" lon="37.040732"></trkpt>
      <trkpt lat="55.542571" lon="37.042519"></trkpt>
      <trkpt lat="55.543229" lon="37.048391"></trkpt>
      <trkpt lat="55.543589" lon="37.05028"></trkpt>
      <trkpt lat="55.543954" lon="37.051548"></trkpt>
      <trkpt lat="55.547105" lon="37.059348"></trkpt>
      <trkpt lat="55.549361" lon="37.065436"></trkpt>
      <trkpt lat="55.552046" lon="37.07196"></trkpt>
      <trkpt lat="55.553176" lon="37.07437"></trkpt>
      <trkpt lat="55.558224" lon="37.086377"></trkpt>
      <trkpt lat="55.559413" lon="37.088304"></trkpt>
      <trkpt lat="55.56048" lon="37.089401"></trkpt>
      <trkpt lat="55.567144" lon="37.093429"></trkpt>
      <trkpt lat="55.568216" lon="37.094235"></trkpt>
      <trkpt lat="55.570048" lon="37.096238"></trkpt>
      <trkpt lat="55.57391" lon="37.100999"></trkpt>
      <trkpt lat="55.574666" lon="37.102137"></trkpt>
      <trkpt lat="55.575963" lon="37.104855"></trkpt>
      <trkpt lat="55.578191" lon="37.110263"></trkpt>
      <trkpt lat="55.582472" lon="37.121339"></trkpt>
      <trkpt lat="55.582917" lon="37.123247"></trkpt>
      <trkpt lat="55.583166" lon="37.125032"></trkpt>
      <trkpt lat="55.583239" lon="37.127121"></trkpt>
      <trkpt lat="55.583147" lon="37.131453"></trkpt>
      <trkpt lat="55.583525" lon="37.135775"></trkpt>
      <trkpt lat="55.583848" lon="37.137367"></trkpt>
      <trkpt lat="55.584412" lon="37.139316"></trkpt>
      <trkpt lat="55.586139" lon="37.144701"></trkpt>
      <trkpt lat="55.586852" lon="37.146325"></trkpt>
      <trkpt lat="55.587827" lon="37.148122"></trkpt>
      <trkpt lat="55.588576" lon="37.149158"></trkpt>
      <trkpt lat="55.589297" lon="37.149855"></trkpt>
      <trkpt lat="55.591145" lon="37.150925"></trkpt>
      <trkpt lat="55.591838" lon="37.151524"></trkpt>
      <trkpt lat="55.593042" lon="37.152982"></trkpt>
      <trkpt lat="55.593758" lon="37.154181"></trkpt>
      <trkpt lat="55.594257" lon="37.155322"></trkpt>
      <trkpt lat="55.594779" lon="37.156959"></trkpt>
      <trkpt lat="55.596171" lon="37.16369"></trkpt>
      <trkpt lat="55.596897" lon="37.165844"></trkpt>
      <trkpt lat="55.59771" lon="37.167474"></trkpt>
      <trkpt lat="55.606828" lon="37.183958"></trkpt>
      <trkpt lat="55.612034" lon="37.19541"></trkpt>
      <trkpt lat="55.612745" lon="37.196584"></trkpt>
      <trkpt lat="55.615398" lon="37.199522"></trkpt>
      <trkpt lat="55.616434" lon="37.201075"></trkpt>
      <trkpt lat="55.617122" lon="37.202598"></trkpt>
      <trkpt lat="55.61855" lon="37.207208"></trkpt>
      <trkpt lat="55.619142" lon="37.208698"></trkpt>
      <trkpt lat="55.620204" lon="37.210342"></trkpt>
      <trkpt lat="55.620815" lon="37.211058"></trkpt>
      <trkpt lat="55.626532" lon="37.216377"></trkpt>
      <trkpt lat="55.627495" lon="37.216932"></trkpt>
      <trkpt lat="55.62929" lon="37.217604"></trkpt>
      <trkpt lat="55.631721" lon="37.21815"></trkpt>
      <trkpt lat="55.632257" lon="37.218365"></trkpt>
      <trkpt lat="55.63311" lon="37.218945"></trkpt>
      <trkpt lat="55.634024" lon="37.219895"></trkpt>
      <trkpt lat="55.634733" lon="37.220992"></trkpt>
      <trkpt lat="55.635386" lon="37.222437"></trkpt>
      <trkpt lat="55.63675" lon="37.227374"></trkpt>
      <trkpt lat="55.637291" lon="37.228714"></trkpt>
      <trkpt lat="55.637977" lon="37.22986"></trkpt>
      <trkpt lat="55.640596" lon="37.233266"></trkpt>
      <trkpt lat="55.641811" lon="37.2356"></trkpt>
      <trkpt lat="55.642857" lon="37.238663"></trkpt>
      <trkpt lat="55.645337" lon="37.2484"></trkpt>
      <trkpt lat="55.646028" lon="37.2502"></trkpt>
      <trkpt lat="55.647837" lon="37.253786"></trkpt>
      <trkpt lat="55.648349" lon="37.255122"></trkpt>
      <trkpt lat="55.648946" lon="37.257348"></trkpt>
      <trkpt lat="55.649166" lon="37.259181"></trkpt>
      <trkpt lat="55.649015" lon="37.268149"></trkpt>
      <trkpt lat="55.649213" lon="37.279196"></trkpt>
      <trkpt lat="55.649163" lon="37.282139"></trkpt>
      <trkpt lat="55.646102" lon="37.304702"></trkpt>
      <trkpt lat="55.645966" lon="37.306593"></trkpt>
      <trkpt lat="55.646379" lon="37.325399"></trkpt>
      <trkpt lat="55.646533" lon="37.326978"></trkpt>
      <trkpt lat="55.647135" lon="37.329534"></trkpt>
      <trkpt lat="55.647976" lon="37.33153"></trkpt>
      <trkpt lat="55.649027" lon="37.33295"></trkpt>
      <trkpt lat="55.650977" lon="37.334409"></trkpt>
      <trkpt lat="55.651945" lon="37.33542"></trkpt>
      <trkpt lat="55.653042" lon="37.337422"></trkpt>
      <trkpt lat="55.653651" lon="37.33949"></trkpt>
      <trkpt lat="55.655856" lon="37.350333"></trkpt>
      <trkpt lat="55.656156" lon="37.352611"></trkpt>
      <trkpt lat="55.656512" lon="37.360909"></trkpt>
      <trkpt lat="55.65603" lon="37.373272"></trkpt>
      <trkpt lat="55.656464" lon="37.378796"></trkpt>
      <trkpt lat="55.658937" lon="37.38895"></trkpt>
      <trkpt lat="55.659768" lon="37.394226"></trkpt>
      <trkpt lat="55.663008" lon="37.41161"></trkpt>
      <trkpt lat="55.668259" lon="37.429265"></trkpt>
      <trkpt lat="55.669089" lon="37.43135"></trkpt>
      <trkpt lat="55.670182" lon="37.433125"></trkpt>
      <trkpt lat="55.673566" lon="37.436889"></trkpt>
      <trkpt lat="55.676038" lon="37.439331"></trkpt>
      <trkpt lat="55.679164" lon="37.443294"></trkpt>
      <trkpt lat="55.690268" lon="37.46281"></trkpt>
      <trkpt lat="55.691555" lon="37.464229"></trkpt>
      <trkpt lat="55.696582" lon="37.46805"></trkpt>
      <trkpt lat="55.698952" lon="37.471023"></trkpt>
      <trkpt lat="55.702497" lon="37.476997"></trkpt>
      <trkpt lat="55.703532" lon="37.4793"></trkpt>
      <trkpt lat="55.706464" lon="37.486523"></trkpt>
      <trkpt lat="55.70715" lon="37.487903"></trkpt>
      <trkpt lat="55.708281" lon="37.489597"></trkpt>
      <trkpt lat="55.709294" lon="37.49064"></trkpt>
      <trkpt lat="55.710011" lon="37.491137"></trkpt>
      <trkpt lat="55.711914" lon="37.492315"></trkpt>
      <trkpt lat="55.713651" lon="37.493208"></trkpt>
      <trkpt lat="55.714988" lon="37.493457"></trkpt>
      <trkpt lat="55.715907" lon="37.493394"></trkpt>
      <trkpt lat="55.717414" lon="37.49349"></trkpt>
      <trkpt lat="55.718309" lon="37.493742"></trkpt>
      <trkpt lat="55.719009" lon="37.494149"></trkpt>
      <trkpt lat="55.72067" lon="37.495486"></trkpt>
      <trkpt lat="55.721243" lon="37.496086"></trkpt>
      <trkpt lat="55.722122" lon="37.497356"></trkpt>
      <trkpt lat="55.722881" lon="37.498995"></trkpt>
      <trkpt lat="55.723508" lon="37.500999"></trkpt>
      <trkpt lat="55.725116" lon="37.505121"></trkpt>
      <trkpt lat="55.7268" lon="37.508965"></trkpt>
      <trkpt lat="55.730848" lon="37.517632"></trkpt>
      <trkpt lat="55.732399" lon="37.522209"></trkpt>
      <trkpt lat="55.733155" lon="37.52515"></trkpt>
      <trkpt lat="55.733741" lon="37.529302"></trkpt>
      <trkpt lat="55.734132" lon="37.531177"></trkpt>
      <trkpt lat="55.734588" lon="37.533061"></trkpt>
      <trkpt lat="55.735629" lon="37.536271"></trkpt>
      <trkpt lat="55.736863" lon="37.54267"></trkpt>
      <trkpt lat="55.739642" lon="37.553001"></trkpt>
      <trkpt lat="55.741939" lon="37.562872"></trkpt>
  </trkseg></trk>
</gpx>
