<?xml version="1.0" encoding="UTF-8"?>
<gpx version="1.1" creator="yatutbuv" xmlns="http://www.topografix.com/GPX/1/1">
  <trk><name>2015_Barcelona -&gt; Seville (1,091.5km)</name><trkseg>
      <trkpt lat="41.379005" lon="2.139937"></trkpt>
      <trkpt lat="41.37702" lon="2.137276"></trkpt>
      <trkpt lat="41.375979" lon="2.136079"></trkpt>
      <trkpt lat="41.37409" lon="2.134157"></trkpt>
      <trkpt lat="41.370929" lon="2.131378"></trkpt>
      <trkpt lat="41.37008" lon="2.130392"></trkpt>
      <trkpt lat="41.369421" lon="2.129394"></trkpt>
      <trkpt lat="41.368717" lon="2.127828"></trkpt>
      <trkpt lat="41.368155" lon="2.125509"></trkpt>
      <trkpt lat="41.367986" lon="2.12311"></trkpt>
      <trkpt lat="41.368016" lon="2.12074"></trkpt>
      <trkpt lat="41.367869" lon="2.119602"></trkpt>
      <trkpt lat="41.367281" lon="2.118097"></trkpt>
      <trkpt lat="41.36631" lon="2.117018"></trkpt>
      <trkpt lat="41.365813" lon="2.116726"></trkpt>
      <trkpt lat="41.365092" lon="2.116492"></trkpt>
      <trkpt lat="41.362136" lon="2.116116"></trkpt>
      <trkpt lat="41.348107" lon="2.114819"></trkpt>
      <trkpt lat="41.341448" lon="2.11406"></trkpt>
      <trkpt lat="41.340579" lon="2.113827"></trkpt>
      <trkpt lat="41.339714" lon="2.113335"></trkpt>
      <trkpt lat="41.339165" lon="2.112825"></trkpt>
      <trkpt lat="41.338625" lon="2.112016"></trkpt>
      <trkpt lat="41.336386" lon="2.105982"></trkpt>
      <trkpt lat="41.335273" lon="2.102361"></trkpt>
      <trkpt lat="41.332892" lon="2.095558"></trkpt>
      <trkpt lat="41.331211" lon="2.089894"></trkpt>
      <trkpt lat="41.330519" lon="2.087901"></trkpt>
      <trkpt lat="41.329194" lon="2.084835"></trkpt>
      <trkpt lat="41.327561" lon="2.080208"></trkpt>
      <trkpt lat="41.305909" lon="2.017573"></trkpt>
      <trkpt lat="41.303727" lon="2.01178"></trkpt>
      <trkpt lat="41.302252" lon="2.009043"></trkpt>
      <trkpt lat="41.300646" lon="2.006721"></trkpt>
      <trkpt lat="41.295833" lon="2.000593"></trkpt>
      <trkpt lat="41.271784" lon="1.970661"></trkpt>
      <trkpt lat="41.270003" lon="1.968252"></trkpt>
      <trkpt lat="41.268667" lon="1.965654"></trkpt>
      <trkpt lat="41.268169" lon="1.964303"></trkpt>
      <trkpt lat="41.267655" lon="1.962126"></trkpt>
      <trkpt lat="41.264578" lon="1.93651"></trkpt>
      <trkpt lat="41.263945" lon="1.933798"></trkpt>
      <trkpt lat="41.262294" lon="1.928631"></trkpt>
      <trkpt lat="41.260909" lon="1.922991"></trkpt>
      <trkpt lat="41.260186" lon="1.921412"></trkpt>
      <trkpt lat="41.257961" lon="1.917481"></trkpt>
      <trkpt lat="41.257358" lon="1.915903"></trkpt>
      <trkpt lat="41.256261" lon="1.91195"></trkpt>
      <trkpt lat="41.255297" lon="1.905726"></trkpt>
      <trkpt lat="41.254653" lon="1.903562"></trkpt>
      <trkpt lat="41.252355" lon="1.899087"></trkpt>
      <trkpt lat="41.248769" lon="1.890211"></trkpt>
      <trkpt lat="41.247607" lon="1.883749"></trkpt>
      <trkpt lat="41.245028" lon="1.876873"></trkpt>
      <trkpt lat="41.244432" lon="1.874928"></trkpt>
      <trkpt lat="41.243994" lon="1.873178"></trkpt>
      <trkpt lat="41.243299" lon="1.868587"></trkpt>
      <trkpt lat="41.242596" lon="1.866252"></trkpt>
      <trkpt lat="41.241347" lon="1.863201"></trkpt>
      <trkpt lat="41.239827" lon="1.859998"></trkpt>
      <trkpt lat="41.238367" lon="1.858052"></trkpt>
      <trkpt lat="41.236598" lon="1.856254"></trkpt>
      <trkpt lat="41.235929" lon="1.855127"></trkpt>
      <trkpt lat="41.235618" lon="1.854138"></trkpt>
      <trkpt lat="41.235224" lon="1.852395"></trkpt>
      <trkpt lat="41.235113" lon="1.851309"></trkpt>
      <trkpt lat="41.235976" lon="1.842622"></trkpt>
      <trkpt lat="41.236151" lon="1.834042"></trkpt>
      <trkpt lat="41.236505" lon="1.831823"></trkpt>
      <trkpt lat="41.237498" lon="1.828482"></trkpt>
      <trkpt lat="41.237716" lon="1.827196"></trkpt>
      <trkpt lat="41.237737" lon="1.825792"></trkpt>
      <trkpt lat="41.237419" lon="1.820415"></trkpt>
      <trkpt lat="41.237427" lon="1.81904"></trkpt>
      <trkpt lat="41.237588" lon="1.817801"></trkpt>
      <trkpt lat="41.239059" lon="1.810498"></trkpt>
      <trkpt lat="41.239306" lon="1.808706"></trkpt>
      <trkpt lat="41.239409" lon="1.806736"></trkpt>
      <trkpt lat="41.239137" lon="1.803745"></trkpt>
      <trkpt lat="41.23884" lon="1.802542"></trkpt>
      <trkpt lat="41.237319" lon="1.798185"></trkpt>
      <trkpt lat="41.235008" lon="1.792421"></trkpt>
      <trkpt lat="41.231142" lon="1.785999"></trkpt>
      <trkpt lat="41.223575" lon="1.774036"></trkpt>
      <trkpt lat="41.222722" lon="1.772193"></trkpt>
      <trkpt lat="41.221762" lon="1.768972"></trkpt>
      <trkpt lat="41.220425" lon="1.763622"></trkpt>
      <trkpt lat="41.219966" lon="1.760994"></trkpt>
      <trkpt lat="41.219831" lon="1.758558"></trkpt>
      <trkpt lat="41.220032" lon="1.755161"></trkpt>
      <trkpt lat="41.220022" lon="1.753119"></trkpt>
      <trkpt lat="41.21949" lon="1.749316"></trkpt>
      <trkpt lat="41.218758" lon="1.745407"></trkpt>
      <trkpt lat="41.218612" lon="1.743678"></trkpt>
      <trkpt lat="41.21875" lon="1.740973"></trkpt>
      <trkpt lat="41.219818" lon="1.735311"></trkpt>
      <trkpt lat="41.219976" lon="1.733627"></trkpt>
      <trkpt lat="41.21989" lon="1.731283"></trkpt>
      <trkpt lat="41.219481" lon="1.729028"></trkpt>
      <trkpt lat="41.21792" lon="1.723553"></trkpt>
      <trkpt lat="41.217208" lon="1.72184"></trkpt>
      <trkpt lat="41.216452" lon="1.720494"></trkpt>
      <trkpt lat="41.209326" lon="1.709427"></trkpt>
      <trkpt lat="41.208752" lon="1.708273"></trkpt>
      <trkpt lat="41.208423" lon="1.707275"></trkpt>
      <trkpt lat="41.20815" lon="1.705082"></trkpt>
      <trkpt lat="41.208183" lon="1.696874"></trkpt>
      <trkpt lat="41.207632" lon="1.692172"></trkpt>
      <trkpt lat="41.19596" lon="1.638877"></trkpt>
      <trkpt lat="41.195179" lon="1.635011"></trkpt>
      <trkpt lat="41.194891" lon="1.632986"></trkpt>
      <trkpt lat="41.18865" lon="1.566448"></trkpt>
      <trkpt lat="41.188521" lon="1.562285"></trkpt>
      <trkpt lat="41.188589" lon="1.548013"></trkpt>
      <trkpt lat="41.188297" lon="1.542565"></trkpt>
      <trkpt lat="41.186491" lon="1.529012"></trkpt>
      <trkpt lat="41.186443" lon="1.527952"></trkpt>
      <trkpt lat="41.185302" lon="1.520208"></trkpt>
      <trkpt lat="41.182508" lon="1.499201"></trkpt>
      <trkpt lat="41.182231" lon="1.496252"></trkpt>
      <trkpt lat="41.182469" lon="1.477881"></trkpt>
      <trkpt lat="41.182633" lon="1.475348"></trkpt>
      <trkpt lat="41.183233" lon="1.472712"></trkpt>
      <trkpt lat="41.186134" lon="1.46353"></trkpt>
      <trkpt lat="41.186424" lon="1.461369"></trkpt>
      <trkpt lat="41.186447" lon="1.46001"></trkpt>
      <trkpt lat="41.186236" lon="1.45126"></trkpt>
      <trkpt lat="41.18582" lon="1.449055"></trkpt>
      <trkpt lat="41.184646" lon="1.444943"></trkpt>
      <trkpt lat="41.184094" lon="1.440675"></trkpt>
      <trkpt lat="41.183501" lon="1.437294"></trkpt>
      <trkpt lat="41.183046" lon="1.435477"></trkpt>
      <trkpt lat="41.182819" lon="1.432433"></trkpt>
      <trkpt lat="41.183229" lon="1.429479"></trkpt>
      <trkpt lat="41.188077" lon="1.414535"></trkpt>
      <trkpt lat="41.188436" lon="1.413109"></trkpt>
      <trkpt lat="41.188782" lon="1.410931"></trkpt>
      <trkpt lat="41.188898" lon="1.40776"></trkpt>
      <trkpt lat="41.188248" lon="1.391408"></trkpt>
      <trkpt lat="41.188403" lon="1.389947"></trkpt>
      <trkpt lat="41.188812" lon="1.38828"></trkpt>
      <trkpt lat="41.18923" lon="1.387143"></trkpt>
      <trkpt lat="41.190251" lon="1.385333"></trkpt>
      <trkpt lat="41.191068" lon="1.384416"></trkpt>
      <trkpt lat="41.195095" lon="1.380952"></trkpt>
      <trkpt lat="41.196667" lon="1.379969"></trkpt>
      <trkpt lat="41.197676" lon="1.379679"></trkpt>
      <trkpt lat="41.198771" lon="1.379547"></trkpt>
      <trkpt lat="41.199817" lon="1.379638"></trkpt>
      <trkpt lat="41.200769" lon="1.379911"></trkpt>
      <trkpt lat="41.208031" lon="1.38336"></trkpt>
      <trkpt lat="41.209456" lon="1.383583"></trkpt>
      <trkpt lat="41.211155" lon="1.383393"></trkpt>
      <trkpt lat="41.211907" lon="1.383142"></trkpt>
      <trkpt lat="41.212727" lon="1.382707"></trkpt>
      <trkpt lat="41.224047" lon="1.37599"></trkpt>
      <trkpt lat="41.225436" lon="1.374865"></trkpt>
      <trkpt lat="41.226599" lon="1.373345"></trkpt>
      <trkpt lat="41.227378" lon="1.371597"></trkpt>
      <trkpt lat="41.227849" lon="1.369503"></trkpt>
      <trkpt lat="41.227947" lon="1.367596"></trkpt>
      <trkpt lat="41.227669" lon="1.361116"></trkpt>
      <trkpt lat="41.22778" lon="1.360042"></trkpt>
      <trkpt lat="41.228355" lon="1.357673"></trkpt>
      <trkpt lat="41.228838" lon="1.3565"></trkpt>
      <trkpt lat="41.229826" lon="1.354605"></trkpt>
      <trkpt lat="41.230925" lon="1.353083"></trkpt>
      <trkpt lat="41.238931" lon="1.345592"></trkpt>
      <trkpt lat="41.239898" lon="1.3442"></trkpt>
      <trkpt lat="41.240333" lon="1.343304"></trkpt>
      <trkpt lat="41.240829" lon="1.341814"></trkpt>
      <trkpt lat="41.241204" lon="1.339289"></trkpt>
      <trkpt lat="41.241093" lon="1.337267"></trkpt>
      <trkpt lat="41.238252" lon="1.325684"></trkpt>
      <trkpt lat="41.238018" lon="1.324297"></trkpt>
      <trkpt lat="41.237965" lon="1.32281"></trkpt>
      <trkpt lat="41.238068" lon="1.321671"></trkpt>
      <trkpt lat="41.238533" lon="1.319718"></trkpt>
      <trkpt lat="41.244629" lon="1.304788"></trkpt>
      <trkpt lat="41.245517" lon="1.303078"></trkpt>
      <trkpt lat="41.246759" lon="1.301177"></trkpt>
      <trkpt lat="41.248256" lon="1.299412"></trkpt>
      <trkpt lat="41.257682" lon="1.289914"></trkpt>
      <trkpt lat="41.259667" lon="1.288467"></trkpt>
      <trkpt lat="41.261952" lon="1.287201"></trkpt>
      <trkpt lat="41.26429" lon="1.286514"></trkpt>
      <trkpt lat="41.265746" lon="1.286258"></trkpt>
      <trkpt lat="41.271968" lon="1.285762"></trkpt>
      <trkpt lat="41.273729" lon="1.285385"></trkpt>
      <trkpt lat="41.274846" lon="1.284817"></trkpt>
      <trkpt lat="41.275553" lon="1.284314"></trkpt>
      <trkpt lat="41.276639" lon="1.283218"></trkpt>
      <trkpt lat="41.27735" lon="1.282238"></trkpt>
      <trkpt lat="41.291835" lon="1.254815"></trkpt>
      <trkpt lat="41.292648" lon="1.252649"></trkpt>
      <trkpt lat="41.293011" lon="1.250942"></trkpt>
      <trkpt lat="41.293177" lon="1.249208"></trkpt>
      <trkpt lat="41.293359" lon="1.237487"></trkpt>
      <trkpt lat="41.293495" lon="1.235344"></trkpt>
      <trkpt lat="41.293809" lon="1.233678"></trkpt>
      <trkpt lat="41.294249" lon="1.232217"></trkpt>
      <trkpt lat="41.297169" lon="1.223372"></trkpt>
      <trkpt lat="41.297478" lon="1.221628"></trkpt>
      <trkpt lat="41.297541" lon="1.21849"></trkpt>
      <trkpt lat="41.296998" lon="1.210956"></trkpt>
      <trkpt lat="41.297046" lon="1.209814"></trkpt>
      <trkpt lat="41.297522" lon="1.207885"></trkpt>
      <trkpt lat="41.298207" lon="1.206448"></trkpt>
      <trkpt lat="41.299273" lon="1.205259"></trkpt>
      <trkpt lat="41.300151" lon="1.204737"></trkpt>
      <trkpt lat="41.304447" lon="1.203134"></trkpt>
      <trkpt lat="41.30505" lon="1.202658"></trkpt>
      <trkpt lat="41.305461" lon="1.20212"></trkpt>
      <trkpt lat="41.305886" lon="1.201134"></trkpt>
      <trkpt lat="41.306043" lon="1.200241"></trkpt>
      <trkpt lat="41.305932" lon="1.19651"></trkpt>
      <trkpt lat="41.306052" lon="1.195611"></trkpt>
      <trkpt lat="41.306308" lon="1.194861"></trkpt>
      <trkpt lat="41.30758" lon="1.192668"></trkpt>
      <trkpt lat="41.308199" lon="1.191813"></trkpt>
      <trkpt lat="41.308707" lon="1.191392"></trkpt>
      <trkpt lat="41.310602" lon="1.190374"></trkpt>
      <trkpt lat="41.311389" lon="1.189782"></trkpt>
      <trkpt lat="41.312172" lon="1.188752"></trkpt>
      <trkpt lat="41.312676" lon="1.187441"></trkpt>
      <trkpt lat="41.313633" lon="1.18248"></trkpt>
      <trkpt lat="41.313892" lon="1.18183"></trkpt>
      <trkpt lat="41.314468" lon="1.180946"></trkpt>
      <trkpt lat="41.315433" lon="1.180251"></trkpt>
      <trkpt lat="41.315985" lon="1.180126"></trkpt>
      <trkpt lat="41.316703" lon="1.180206"></trkpt>
      <trkpt lat="41.31746" lon="1.180551"></trkpt>
      <trkpt lat="41.3189" lon="1.181978"></trkpt>
      <trkpt lat="41.31979" lon="1.182599"></trkpt>
      <trkpt lat="41.320301" lon="1.18283"></trkpt>
      <trkpt lat="41.3215" lon="1.182832"></trkpt>
      <trkpt lat="41.322601" lon="1.18227"></trkpt>
      <trkpt lat="41.325829" lon="1.17889"></trkpt>
      <trkpt lat="41.327254" lon="1.177801"></trkpt>
      <trkpt lat="41.328513" lon="1.177316"></trkpt>
      <trkpt lat="41.334879" lon="1.176192"></trkpt>
      <trkpt lat="41.335823" lon="1.176136"></trkpt>
      <trkpt lat="41.33722" lon="1.176277"></trkpt>
      <trkpt lat="41.338169" lon="1.176567"></trkpt>
      <trkpt lat="41.344675" lon="1.179508"></trkpt>
      <trkpt lat="41.345436" lon="1.179821"></trkpt>
      <trkpt lat="41.346732" lon="1.180104"></trkpt>
      <trkpt lat="41.347713" lon="1.180077"></trkpt>
      <trkpt lat="41.348827" lon="1.179819"></trkpt>
      <trkpt lat="41.353454" lon="1.178105"></trkpt>
      <trkpt lat="41.355167" lon="1.177573"></trkpt>
      <trkpt lat="41.35565" lon="1.177522"></trkpt>
      <trkpt lat="41.356392" lon="1.177657"></trkpt>
      <trkpt lat="41.358287" lon="1.178398"></trkpt>
      <trkpt lat="41.359158" lon="1.178497"></trkpt>
      <trkpt lat="41.359797" lon="1.178388"></trkpt>
      <trkpt lat="41.367511" lon="1.173832"></trkpt>
      <trkpt lat="41.37001" lon="1.172158"></trkpt>
      <trkpt lat="41.377047" lon="1.16531"></trkpt>
      <trkpt lat="41.378486" lon="1.164106"></trkpt>
      <trkpt lat="41.379444" lon="1.16375"></trkpt>
      <trkpt lat="41.382144" lon="1.163383"></trkpt>
      <trkpt lat="41.38274" lon="1.163208"></trkpt>
      <trkpt lat="41.383648" lon="1.162745"></trkpt>
      <trkpt lat="41.384262" lon="1.162252"></trkpt>
      <trkpt lat="41.385314" lon="1.16101"></trkpt>
      <trkpt lat="41.39135" lon="1.151213"></trkpt>
      <trkpt lat="41.393197" lon="1.147148"></trkpt>
      <trkpt lat="41.393715" lon="1.145694"></trkpt>
      <trkpt lat="41.394235" lon="1.143707"></trkpt>
      <trkpt lat="41.394954" lon="1.139785"></trkpt>
      <trkpt lat="41.395533" lon="1.131178"></trkpt>
      <trkpt lat="41.395979" lon="1.129236"></trkpt>
      <trkpt lat="41.397587" lon="1.124995"></trkpt>
      <trkpt lat="41.39787" lon="1.123867"></trkpt>
      <trkpt lat="41.397925" lon="1.121472"></trkpt>
      <trkpt lat="41.397718" lon="1.120145"></trkpt>
      <trkpt lat="41.396485" lon="1.115273"></trkpt>
      <trkpt lat="41.396221" lon="1.113623"></trkpt>
      <trkpt lat="41.396227" lon="1.112156"></trkpt>
      <trkpt lat="41.396415" lon="1.110882"></trkpt>
      <trkpt lat="41.397176" lon="1.108846"></trkpt>
      <trkpt lat="41.399631" lon="1.104742"></trkpt>
      <trkpt lat="41.401153" lon="1.101624"></trkpt>
      <trkpt lat="41.402046" lon="1.098465"></trkpt>
      <trkpt lat="41.402496" lon="1.095087"></trkpt>
      <trkpt lat="41.402969" lon="1.084555"></trkpt>
      <trkpt lat="41.402784" lon="1.079401"></trkpt>
      <trkpt lat="41.403063" lon="1.075096"></trkpt>
      <trkpt lat="41.403058" lon="1.073104"></trkpt>
      <trkpt lat="41.402819" lon="1.071617"></trkpt>
      <trkpt lat="41.400436" lon="1.061503"></trkpt>
      <trkpt lat="41.400289" lon="1.060484"></trkpt>
      <trkpt lat="41.400306" lon="1.059056"></trkpt>
      <trkpt lat="41.402286" lon="1.051918"></trkpt>
      <trkpt lat="41.402561" lon="1.050298"></trkpt>
      <trkpt lat="41.402965" lon="1.043581"></trkpt>
      <trkpt lat="41.403246" lon="1.04176"></trkpt>
      <trkpt lat="41.403667" lon="1.040455"></trkpt>
      <trkpt lat="41.404209" lon="1.039244"></trkpt>
      <trkpt lat="41.408943" lon="1.029111"></trkpt>
      <trkpt lat="41.409485" lon="1.027498"></trkpt>
      <trkpt lat="41.41015" lon="1.02454"></trkpt>
      <trkpt lat="41.412168" lon="1.012815"></trkpt>
      <trkpt lat="41.412261" lon="1.011408"></trkpt>
      <trkpt lat="41.412154" lon="1.009725"></trkpt>
      <trkpt lat="41.408271" lon="0.994245"></trkpt>
      <trkpt lat="41.408078" lon="0.992602"></trkpt>
      <trkpt lat="41.408217" lon="0.991085"></trkpt>
      <trkpt lat="41.408613" lon="0.989724"></trkpt>
      <trkpt lat="41.40931" lon="0.988428"></trkpt>
      <trkpt lat="41.409937" lon="0.987711"></trkpt>
      <trkpt lat="41.412416" lon="0.985611"></trkpt>
      <trkpt lat="41.413102" lon="0.984801"></trkpt>
      <trkpt lat="41.413747" lon="0.983808"></trkpt>
      <trkpt lat="41.414352" lon="0.98262"></trkpt>
      <trkpt lat="41.418769" lon="0.972337"></trkpt>
      <trkpt lat="41.419533" lon="0.970864"></trkpt>
      <trkpt lat="41.4202" lon="0.970076"></trkpt>
      <trkpt lat="41.421319" lon="0.969342"></trkpt>
      <trkpt lat="41.422294" lon="0.969129"></trkpt>
      <trkpt lat="41.423046" lon="0.969184"></trkpt>
      <trkpt lat="41.423743" lon="0.969386"></trkpt>
      <trkpt lat="41.42611" lon="0.970878"></trkpt>
      <trkpt lat="41.428056" lon="0.972383"></trkpt>
      <trkpt lat="41.432272" lon="0.976566"></trkpt>
      <trkpt lat="41.432938" lon="0.976988"></trkpt>
      <trkpt lat="41.433811" lon="0.977295"></trkpt>
      <trkpt lat="41.434741" lon="0.977354"></trkpt>
      <trkpt lat="41.435657" lon="0.977153"></trkpt>
      <trkpt lat="41.439391" lon="0.974941"></trkpt>
      <trkpt lat="41.440451" lon="0.974602"></trkpt>
      <trkpt lat="41.441556" lon="0.974516"></trkpt>
      <trkpt lat="41.442384" lon="0.974626"></trkpt>
      <trkpt lat="41.443164" lon="0.974872"></trkpt>
      <trkpt lat="41.446209" lon="0.976592"></trkpt>
      <trkpt lat="41.447742" lon="0.977133"></trkpt>
      <trkpt lat="41.454757" lon="0.978963"></trkpt>
      <trkpt lat="41.455845" lon="0.979001"></trkpt>
      <trkpt lat="41.456992" lon="0.978753"></trkpt>
      <trkpt lat="41.45786" lon="0.978356"></trkpt>
      <trkpt lat="41.458728" lon="0.97775"></trkpt>
      <trkpt lat="41.467122" lon="0.970388"></trkpt>
      <trkpt lat="41.467976" lon="0.969487"></trkpt>
      <trkpt lat="41.468643" lon="0.96834"></trkpt>
      <trkpt lat="41.469814" lon="0.965074"></trkpt>
      <trkpt lat="41.470638" lon="0.963306"></trkpt>
      <trkpt lat="41.471566" lon="0.961878"></trkpt>
      <trkpt lat="41.474098" lon="0.958529"></trkpt>
      <trkpt lat="41.475901" lon="0.955062"></trkpt>
      <trkpt lat="41.476452" lon="0.95426"></trkpt>
      <trkpt lat="41.477184" lon="0.953492"></trkpt>
      <trkpt lat="41.47848" lon="0.952661"></trkpt>
      <trkpt lat="41.486188" lon="0.949234"></trkpt>
      <trkpt lat="41.487628" lon="0.948939"></trkpt>
      <trkpt lat="41.490134" lon="0.949277"></trkpt>
      <trkpt lat="41.490976" lon="0.949258"></trkpt>
      <trkpt lat="41.491716" lon="0.94909"></trkpt>
      <trkpt lat="41.493385" lon="0.948429"></trkpt>
      <trkpt lat="41.49468" lon="0.94772"></trkpt>
      <trkpt lat="41.495838" lon="0.946746"></trkpt>
      <trkpt lat="41.496865" lon="0.945566"></trkpt>
      <trkpt lat="41.497898" lon="0.943875"></trkpt>
      <trkpt lat="41.498825" lon="0.94151"></trkpt>
      <trkpt lat="41.499727" lon="0.937909"></trkpt>
      <trkpt lat="41.499947" lon="0.936061"></trkpt>
      <trkpt lat="41.500188" lon="0.930989"></trkpt>
      <trkpt lat="41.500417" lon="0.929783"></trkpt>
      <trkpt lat="41.500906" lon="0.928438"></trkpt>
      <trkpt lat="41.501926" lon="0.926816"></trkpt>
      <trkpt lat="41.510951" lon="0.91645"></trkpt>
      <trkpt lat="41.511901" lon="0.915165"></trkpt>
      <trkpt lat="41.513134" lon="0.912489"></trkpt>
      <trkpt lat="41.514682" lon="0.908526"></trkpt>
      <trkpt lat="41.515107" lon="0.906778"></trkpt>
      <trkpt lat="41.515164" lon="0.904659"></trkpt>
      <trkpt lat="41.515014" lon="0.903531"></trkpt>
      <trkpt lat="41.514189" lon="0.899889"></trkpt>
      <trkpt lat="41.513975" lon="0.897022"></trkpt>
      <trkpt lat="41.514416" lon="0.892704"></trkpt>
      <trkpt lat="41.515195" lon="0.889976"></trkpt>
      <trkpt lat="41.516523" lon="0.887326"></trkpt>
      <trkpt lat="41.532291" lon="0.857991"></trkpt>
      <trkpt lat="41.53296" lon="0.856552"></trkpt>
      <trkpt lat="41.533606" lon="0.854386"></trkpt>
      <trkpt lat="41.536539" lon="0.840524"></trkpt>
      <trkpt lat="41.536988" lon="0.838921"></trkpt>
      <trkpt lat="41.53757" lon="0.837508"></trkpt>
      <trkpt lat="41.544322" lon="0.8245"></trkpt>
      <trkpt lat="41.544925" lon="0.823075"></trkpt>
      <trkpt lat="41.54529" lon="0.821843"></trkpt>
      <trkpt lat="41.547882" lon="0.808858"></trkpt>
      <trkpt lat="41.548543" lon="0.80668"></trkpt>
      <trkpt lat="41.550328" lon="0.801848"></trkpt>
      <trkpt lat="41.55078" lon="0.799539"></trkpt>
      <trkpt lat="41.550886" lon="0.797783"></trkpt>
      <trkpt lat="41.550818" lon="0.796179"></trkpt>
      <trkpt lat="41.549997" lon="0.789416"></trkpt>
      <trkpt lat="41.549826" lon="0.786193"></trkpt>
      <trkpt lat="41.553522" lon="0.737635"></trkpt>
      <trkpt lat="41.55386" lon="0.735268"></trkpt>
      <trkpt lat="41.554233" lon="0.734212"></trkpt>
      <trkpt lat="41.554894" lon="0.733255"></trkpt>
      <trkpt lat="41.555333" lon="0.732677"></trkpt>
      <trkpt lat="41.556656" lon="0.731422"></trkpt>
      <trkpt lat="41.557109" lon="0.730768"></trkpt>
      <trkpt lat="41.557551" lon="0.729729"></trkpt>
      <trkpt lat="41.558226" lon="0.727329"></trkpt>
      <trkpt lat="41.562185" lon="0.710824"></trkpt>
      <trkpt lat="41.563346" lon="0.705575"></trkpt>
      <trkpt lat="41.564312" lon="0.699995"></trkpt>
      <trkpt lat="41.567156" lon="0.680192"></trkpt>
      <trkpt lat="41.568244" lon="0.674257"></trkpt>
      <trkpt lat="41.573271" lon="0.653889"></trkpt>
      <trkpt lat="41.574987" lon="0.647923"></trkpt>
      <trkpt lat="41.576879" lon="0.642595"></trkpt>
      <trkpt lat="41.579169" lon="0.637183"></trkpt>
      <trkpt lat="41.581665" lon="0.632205"></trkpt>
      <trkpt lat="41.583462" lon="0.629025"></trkpt>
      <trkpt lat="41.584779" lon="0.626948"></trkpt>
      <trkpt lat="41.58669" lon="0.624115"></trkpt>
      <trkpt lat="41.593227" lon="0.615333"></trkpt>
      <trkpt lat="41.609828" lon="0.593636"></trkpt>
      <trkpt lat="41.612393" lon="0.58992"></trkpt>
      <trkpt lat="41.614694" lon="0.586065"></trkpt>
      <trkpt lat="41.61633" lon="0.582971"></trkpt>
      <trkpt lat="41.617633" lon="0.580221"></trkpt>
      <trkpt lat="41.620274" lon="0.573617"></trkpt>
      <trkpt lat="41.622316" lon="0.56693"></trkpt>
      <trkpt lat="41.623816" lon="0.560126"></trkpt>
      <trkpt lat="41.624423" lon="0.556351"></trkpt>
      <trkpt lat="41.624931" lon="0.552129"></trkpt>
      <trkpt lat="41.628568" lon="0.515825"></trkpt>
      <trkpt lat="41.628955" lon="0.509932"></trkpt>
      <trkpt lat="41.629249" lon="0.50202"></trkpt>
      <trkpt lat="41.629301" lon="0.496575"></trkpt>
      <trkpt lat="41.629151" lon="0.488379"></trkpt>
      <trkpt lat="41.628715" lon="0.480153"></trkpt>
      <trkpt lat="41.625909" lon="0.447065"></trkpt>
      <trkpt lat="41.6253" lon="0.438825"></trkpt>
      <trkpt lat="41.624845" lon="0.430985"></trkpt>
      <trkpt lat="41.623922" lon="0.409426"></trkpt>
      <trkpt lat="41.623416" lon="0.402799"></trkpt>
      <trkpt lat="41.622466" lon="0.395676"></trkpt>
      <trkpt lat="41.616716" lon="0.356963"></trkpt>
      <trkpt lat="41.615967" lon="0.350964"></trkpt>
      <trkpt lat="41.615574" lon="0.346228"></trkpt>
      <trkpt lat="41.615364" lon="0.341626"></trkpt>
      <trkpt lat="41.615324" lon="0.336502"></trkpt>
      <trkpt lat="41.615448" lon="0.332218"></trkpt>
      <trkpt lat="41.61575" lon="0.327516"></trkpt>
      <trkpt lat="41.616554" lon="0.320257"></trkpt>
      <trkpt lat="41.618878" lon="0.30641"></trkpt>
      <trkpt lat="41.619494" lon="0.301918"></trkpt>
      <trkpt lat="41.61991" lon="0.297596"></trkpt>
      <trkpt lat="41.620141" lon="0.293713"></trkpt>
      <trkpt lat="41.620213" lon="0.286656"></trkpt>
      <trkpt lat="41.619881" lon="0.280141"></trkpt>
      <trkpt lat="41.619126" lon="0.273356"></trkpt>
      <trkpt lat="41.613616" lon="0.238269"></trkpt>
      <trkpt lat="41.612364" lon="0.231927"></trkpt>
      <trkpt lat="41.611395" lon="0.227763"></trkpt>
      <trkpt lat="41.608142" lon="0.216305"></trkpt>
      <trkpt lat="41.594771" lon="0.178924"></trkpt>
      <trkpt lat="41.592574" lon="0.1723"></trkpt>
      <trkpt lat="41.591199" lon="0.167202"></trkpt>
      <trkpt lat="41.586402" lon="0.146421"></trkpt>
      <trkpt lat="41.585234" lon="0.141765"></trkpt>
      <trkpt lat="41.583534" lon="0.136171"></trkpt>
      <trkpt lat="41.581522" lon="0.130688"></trkpt>
      <trkpt lat="41.565607" lon="0.091164"></trkpt>
      <trkpt lat="41.562801" lon="0.084899"></trkpt>
      <trkpt lat="41.560448" lon="0.080427"></trkpt>
      <trkpt lat="41.557073" lon="0.074951"></trkpt>
      <trkpt lat="41.553565" lon="0.070124"></trkpt>
      <trkpt lat="41.550436" lon="0.066397"></trkpt>
      <trkpt lat="41.543882" lon="0.059246"></trkpt>
      <trkpt lat="41.540104" lon="0.054425"></trkpt>
      <trkpt lat="41.53816" lon="0.05158"></trkpt>
      <trkpt lat="41.536264" lon="0.04852"></trkpt>
      <trkpt lat="41.533135" lon="0.04267"></trkpt>
      <trkpt lat="41.530877" lon="0.03772"></trkpt>
      <trkpt lat="41.529643" lon="0.034545"></trkpt>
      <trkpt lat="41.527999" lon="0.029603"></trkpt>
      <trkpt lat="41.527034" lon="0.026261"></trkpt>
      <trkpt lat="41.525506" lon="0.019792"></trkpt>
      <trkpt lat="41.524563" lon="0.013965"></trkpt>
      <trkpt lat="41.524094" lon="0.010028"></trkpt>
      <trkpt lat="41.523683" lon="0.004398"></trkpt>
      <trkpt lat="41.523592" lon="-0.000255"></trkpt>
      <trkpt lat="41.52384" lon="-0.007275"></trkpt>
      <trkpt lat="41.524353" lon="-0.012813"></trkpt>
      <trkpt lat="41.526115" lon="-0.025254"></trkpt>
      <trkpt lat="41.526495" lon="-0.028797"></trkpt>
      <trkpt lat="41.527873" lon="-0.048025"></trkpt>
      <trkpt lat="41.528207" lon="-0.055954"></trkpt>
      <trkpt lat="41.528187" lon="-0.062919"></trkpt>
      <trkpt lat="41.526289" lon="-0.126564"></trkpt>
      <trkpt lat="41.526203" lon="-0.13633"></trkpt>
      <trkpt lat="41.526327" lon="-0.143492"></trkpt>
      <trkpt lat="41.52782" lon="-0.189238"></trkpt>
      <trkpt lat="41.528921" lon="-0.20986"></trkpt>
      <trkpt lat="41.529171" lon="-0.217202"></trkpt>
      <trkpt lat="41.529618" lon="-0.307482"></trkpt>
      <trkpt lat="41.530024" lon="-0.316297"></trkpt>
      <trkpt lat="41.5346" lon="-0.37925"></trkpt>
      <trkpt lat="41.535354" lon="-0.391509"></trkpt>
      <trkpt lat="41.536528" lon="-0.459371"></trkpt>
      <trkpt lat="41.536579" lon="-0.467061"></trkpt>
      <trkpt lat="41.536487" lon="-0.470824"></trkpt>
      <trkpt lat="41.536169" lon="-0.476464"></trkpt>
      <trkpt lat="41.535603" lon="-0.482606"></trkpt>
      <trkpt lat="41.529619" lon="-0.536594"></trkpt>
      <trkpt lat="41.528967" lon="-0.541311"></trkpt>
      <trkpt lat="41.527902" lon="-0.546849"></trkpt>
      <trkpt lat="41.526362" lon="-0.552748"></trkpt>
      <trkpt lat="41.525022" lon="-0.556869"></trkpt>
      <trkpt lat="41.524023" lon="-0.559537"></trkpt>
      <trkpt lat="41.522009" lon="-0.56424"></trkpt>
      <trkpt lat="41.515046" lon="-0.57912"></trkpt>
      <trkpt lat="41.51258" lon="-0.584877"></trkpt>
      <trkpt lat="41.504214" lon="-0.608092"></trkpt>
      <trkpt lat="41.501425" lon="-0.616155"></trkpt>
      <trkpt lat="41.499831" lon="-0.622111"></trkpt>
      <trkpt lat="41.499059" lon="-0.625792"></trkpt>
      <trkpt lat="41.498328" lon="-0.630198"></trkpt>
      <trkpt lat="41.497636" lon="-0.636716"></trkpt>
      <trkpt lat="41.497423" lon="-0.641587"></trkpt>
      <trkpt lat="41.497417" lon="-0.645364"></trkpt>
      <trkpt lat="41.497638" lon="-0.650078"></trkpt>
      <trkpt lat="41.49794" lon="-0.653459"></trkpt>
      <trkpt lat="41.499112" lon="-0.661003"></trkpt>
      <trkpt lat="41.500433" lon="-0.667083"></trkpt>
      <trkpt lat="41.50154" lon="-0.67109"></trkpt>
      <trkpt lat="41.503421" lon="-0.676456"></trkpt>
      <trkpt lat="41.504963" lon="-0.680162"></trkpt>
      <trkpt lat="41.506743" lon="-0.683864"></trkpt>
      <trkpt lat="41.50823" lon="-0.686625"></trkpt>
      <trkpt lat="41.510477" lon="-0.690353"></trkpt>
      <trkpt lat="41.514114" lon="-0.695461"></trkpt>
      <trkpt lat="41.517293" lon="-0.699192"></trkpt>
      <trkpt lat="41.526614" lon="-0.709261"></trkpt>
      <trkpt lat="41.529168" lon="-0.712394"></trkpt>
      <trkpt lat="41.530758" lon="-0.71454"></trkpt>
      <trkpt lat="41.533923" lon="-0.719196"></trkpt>
      <trkpt lat="41.538613" lon="-0.727618"></trkpt>
      <trkpt lat="41.543335" lon="-0.737382"></trkpt>
      <trkpt lat="41.54907" lon="-0.748721"></trkpt>
      <trkpt lat="41.575572" lon="-0.802409"></trkpt>
      <trkpt lat="41.577781" lon="-0.806335"></trkpt>
      <trkpt lat="41.579594" lon="-0.809232"></trkpt>
      <trkpt lat="41.58775" lon="-0.820678"></trkpt>
      <trkpt lat="41.590933" lon="-0.825912"></trkpt>
      <trkpt lat="41.593319" lon="-0.830516"></trkpt>
      <trkpt lat="41.595099" lon="-0.83445"></trkpt>
      <trkpt lat="41.596933" lon="-0.839116"></trkpt>
      <trkpt lat="41.598216" lon="-0.8429"></trkpt>
      <trkpt lat="41.59964" lon="-0.847856"></trkpt>
      <trkpt lat="41.600808" lon="-0.852856"></trkpt>
      <trkpt lat="41.601723" lon="-0.857895"></trkpt>
      <trkpt lat="41.602406" lon="-0.863081"></trkpt>
      <trkpt lat="41.602787" lon="-0.867575"></trkpt>
      <trkpt lat="41.602986" lon="-0.872238"></trkpt>
      <trkpt lat="41.602965" lon="-0.884633"></trkpt>
      <trkpt lat="41.603185" lon="-0.890141"></trkpt>
      <trkpt lat="41.603983" lon="-0.898186"></trkpt>
      <trkpt lat="41.605396" lon="-0.906424"></trkpt>
      <trkpt lat="41.617788" lon="-0.967541"></trkpt>
      <trkpt lat="41.619305" lon="-0.974486"></trkpt>
      <trkpt lat="41.620146" lon="-0.977681"></trkpt>
      <trkpt lat="41.621795" lon="-0.983024"></trkpt>
      <trkpt lat="41.62336" lon="-0.987344"></trkpt>
      <trkpt lat="41.627058" lon="-0.996736"></trkpt>
      <trkpt lat="41.628584" lon="-1.001218"></trkpt>
      <trkpt lat="41.629468" lon="-1.004188"></trkpt>
      <trkpt lat="41.631038" lon="-1.010517"></trkpt>
      <trkpt lat="41.636138" lon="-1.033829"></trkpt>
      <trkpt lat="41.637569" lon="-1.039291"></trkpt>
      <trkpt lat="41.639022" lon="-1.043906"></trkpt>
      <trkpt lat="41.641065" lon="-1.049375"></trkpt>
      <trkpt lat="41.64427" lon="-1.056458"></trkpt>
      <trkpt lat="41.670647" lon="-1.106321"></trkpt>
      <trkpt lat="41.674562" lon="-1.114306"></trkpt>
      <trkpt lat="41.677673" lon="-1.121585"></trkpt>
      <trkpt lat="41.679737" lon="-1.127029"></trkpt>
      <trkpt lat="41.682003" lon="-1.133778"></trkpt>
      <trkpt lat="41.692304" lon="-1.168628"></trkpt>
      <trkpt lat="41.693714" lon="-1.17444"></trkpt>
      <trkpt lat="41.695018" lon="-1.181526"></trkpt>
      <trkpt lat="41.695581" lon="-1.185959"></trkpt>
      <trkpt lat="41.696104" lon="-1.192215"></trkpt>
      <trkpt lat="41.696263" lon="-1.19672"></trkpt>
      <trkpt lat="41.696204" lon="-1.201949"></trkpt>
      <trkpt lat="41.695941" lon="-1.207041"></trkpt>
      <trkpt lat="41.695552" lon="-1.211206"></trkpt>
      <trkpt lat="41.695098" lon="-1.214922"></trkpt>
      <trkpt lat="41.694499" lon="-1.218643"></trkpt>
      <trkpt lat="41.693678" lon="-1.222799"></trkpt>
      <trkpt lat="41.691642" lon="-1.230696"></trkpt>
      <trkpt lat="41.690448" lon="-1.234442"></trkpt>
      <trkpt lat="41.688852" lon="-1.238792"></trkpt>
      <trkpt lat="41.687216" lon="-1.242718"></trkpt>
      <trkpt lat="41.685445" lon="-1.246488"></trkpt>
      <trkpt lat="41.683099" lon="-1.250918"></trkpt>
      <trkpt lat="41.681239" lon="-1.254142"></trkpt>
      <trkpt lat="41.667016" lon="-1.27847"></trkpt>
      <trkpt lat="41.664283" lon="-1.28281"></trkpt>
      <trkpt lat="41.661192" lon="-1.287123"></trkpt>
      <trkpt lat="41.659296" lon="-1.289509"></trkpt>
      <trkpt lat="41.656334" lon="-1.292877"></trkpt>
      <trkpt lat="41.654431" lon="-1.29483"></trkpt>
      <trkpt lat="41.65178" lon="-1.297314"></trkpt>
      <trkpt lat="41.649836" lon="-1.298968"></trkpt>
      <trkpt lat="41.646071" lon="-1.301847"></trkpt>
      <trkpt lat="41.642077" lon="-1.304407"></trkpt>
      <trkpt lat="41.639545" lon="-1.30585"></trkpt>
      <trkpt lat="41.637014" lon="-1.307077"></trkpt>
      <trkpt lat="41.632059" lon="-1.309116"></trkpt>
      <trkpt lat="41.627393" lon="-1.31049"></trkpt>
      <trkpt lat="41.6226" lon="-1.311373"></trkpt>
      <trkpt lat="41.6202" lon="-1.311672"></trkpt>
      <trkpt lat="41.617134" lon="-1.311885"></trkpt>
      <trkpt lat="41.614255" lon="-1.311856"></trkpt>
      <trkpt lat="41.605897" lon="-1.311483"></trkpt>
      <trkpt lat="41.603123" lon="-1.311605"></trkpt>
      <trkpt lat="41.600263" lon="-1.311895"></trkpt>
      <trkpt lat="41.596388" lon="-1.312505"></trkpt>
      <trkpt lat="41.592508" lon="-1.313466"></trkpt>
      <trkpt lat="41.590217" lon="-1.31417"></trkpt>
      <trkpt lat="41.585725" lon="-1.315895"></trkpt>
      <trkpt lat="41.580791" lon="-1.318386"></trkpt>
      <trkpt lat="41.578304" lon="-1.319882"></trkpt>
      <trkpt lat="41.566417" lon="-1.327975"></trkpt>
      <trkpt lat="41.561264" lon="-1.331608"></trkpt>
      <trkpt lat="41.557583" lon="-1.334665"></trkpt>
      <trkpt lat="41.555467" lon="-1.336641"></trkpt>
      <trkpt lat="41.552835" lon="-1.339416"></trkpt>
      <trkpt lat="41.551466" lon="-1.341019"></trkpt>
      <trkpt lat="41.547425" lon="-1.346339"></trkpt>
      <trkpt lat="41.543717" lon="-1.352198"></trkpt>
      <trkpt lat="41.540236" lon="-1.358926"></trkpt>
      <trkpt lat="41.539105" lon="-1.361439"></trkpt>
      <trkpt lat="41.537039" lon="-1.366574"></trkpt>
      <trkpt lat="41.53529" lon="-1.371818"></trkpt>
      <trkpt lat="41.49933" lon="-1.493945"></trkpt>
      <trkpt lat="41.498473" lon="-1.496496"></trkpt>
      <trkpt lat="41.496665" lon="-1.501192"></trkpt>
      <trkpt lat="41.494683" lon="-1.505648"></trkpt>
      <trkpt lat="41.492243" lon="-1.510435"></trkpt>
      <trkpt lat="41.488877" lon="-1.515993"></trkpt>
      <trkpt lat="41.482267" lon="-1.524653"></trkpt>
      <trkpt lat="41.480128" lon="-1.52697"></trkpt>
      <trkpt lat="41.477407" lon="-1.529655"></trkpt>
      <trkpt lat="41.465927" lon="-1.540585"></trkpt>
      <trkpt lat="41.463101" lon="-1.54307"></trkpt>
      <trkpt lat="41.457926" lon="-1.546902"></trkpt>
      <trkpt lat="41.455236" lon="-1.5486"></trkpt>
      <trkpt lat="41.450657" lon="-1.551008"></trkpt>
      <trkpt lat="41.447668" lon="-1.552296"></trkpt>
      <trkpt lat="41.444668" lon="-1.553368"></trkpt>
      <trkpt lat="41.441639" lon="-1.554243"></trkpt>
      <trkpt lat="41.438657" lon="-1.554907"></trkpt>
      <trkpt lat="41.436139" lon="-1.555317"></trkpt>
      <trkpt lat="41.433657" lon="-1.555584"></trkpt>
      <trkpt lat="41.425896" lon="-1.556062"></trkpt>
      <trkpt lat="41.421689" lon="-1.556535"></trkpt>
      <trkpt lat="41.419594" lon="-1.556901"></trkpt>
      <trkpt lat="41.416413" lon="-1.557683"></trkpt>
      <trkpt lat="41.411148" lon="-1.5594"></trkpt>
      <trkpt lat="41.406541" lon="-1.56144"></trkpt>
      <trkpt lat="41.402981" lon="-1.563545"></trkpt>
      <trkpt lat="41.398939" lon="-1.566143"></trkpt>
      <trkpt lat="41.394703" lon="-1.569428"></trkpt>
      <trkpt lat="41.391915" lon="-1.572048"></trkpt>
      <trkpt lat="41.389209" lon="-1.574947"></trkpt>
      <trkpt lat="41.38507" lon="-1.579755"></trkpt>
      <trkpt lat="41.382309" lon="-1.583154"></trkpt>
      <trkpt lat="41.357673" lon="-1.618485"></trkpt>
      <trkpt lat="41.355423" lon="-1.622047"></trkpt>
      <trkpt lat="41.352671" lon="-1.626841"></trkpt>
      <trkpt lat="41.335039" lon="-1.659059"></trkpt>
      <trkpt lat="41.332749" lon="-1.663973"></trkpt>
      <trkpt lat="41.331516" lon="-1.66707"></trkpt>
      <trkpt lat="41.329939" lon="-1.671757"></trkpt>
      <trkpt lat="41.328869" lon="-1.675624"></trkpt>
      <trkpt lat="41.317237" lon="-1.73081"></trkpt>
      <trkpt lat="41.316363" lon="-1.735085"></trkpt>
      <trkpt lat="41.315387" lon="-1.740939"></trkpt>
      <trkpt lat="41.314746" lon="-1.746616"></trkpt>
      <trkpt lat="41.314515" lon="-1.749708"></trkpt>
      <trkpt lat="41.314319" lon="-1.755901"></trkpt>
      <trkpt lat="41.314342" lon="-1.758992"></trkpt>
      <trkpt lat="41.314674" lon="-1.765895"></trkpt>
      <trkpt lat="41.315513" lon="-1.774288"></trkpt>
      <trkpt lat="41.316049" lon="-1.782508"></trkpt>
      <trkpt lat="41.315797" lon="-1.794468"></trkpt>
      <trkpt lat="41.314843" lon="-1.803531"></trkpt>
      <trkpt lat="41.312097" lon="-1.825682"></trkpt>
      <trkpt lat="41.311353" lon="-1.830083"></trkpt>
      <trkpt lat="41.309077" lon="-1.839614"></trkpt>
      <trkpt lat="41.307989" lon="-1.843215"></trkpt>
      <trkpt lat="41.298047" lon="-1.868922"></trkpt>
      <trkpt lat="41.291536" lon="-1.885418"></trkpt>
      <trkpt lat="41.279166" lon="-1.913805"></trkpt>
      <trkpt lat="41.27614" lon="-1.920416"></trkpt>
      <trkpt lat="41.272564" lon="-1.926952"></trkpt>
      <trkpt lat="41.268667" lon="-1.933034"></trkpt>
      <trkpt lat="41.258195" lon="-1.946516"></trkpt>
      <trkpt lat="41.253068" lon="-1.955526"></trkpt>
      <trkpt lat="41.251667" lon="-1.958306"></trkpt>
      <trkpt lat="41.250709" lon="-1.960355"></trkpt>
      <trkpt lat="41.248755" lon="-1.965293"></trkpt>
      <trkpt lat="41.247592" lon="-1.968559"></trkpt>
      <trkpt lat="41.245343" lon="-1.976197"></trkpt>
      <trkpt lat="41.237731" lon="-2.008689"></trkpt>
      <trkpt lat="41.220044" lon="-2.104531"></trkpt>
      <trkpt lat="41.218647" lon="-2.111572"></trkpt>
      <trkpt lat="41.217217" lon="-2.117387"></trkpt>
      <trkpt lat="41.215747" lon="-2.122206"></trkpt>
      <trkpt lat="41.213637" lon="-2.12799"></trkpt>
      <trkpt lat="41.212038" lon="-2.131793"></trkpt>
      <trkpt lat="41.209104" lon="-2.137729"></trkpt>
      <trkpt lat="41.203446" lon="-2.147355"></trkpt>
      <trkpt lat="41.201279" lon="-2.15134"></trkpt>
      <trkpt lat="41.199153" lon="-2.155751"></trkpt>
      <trkpt lat="41.197193" lon="-2.160399"></trkpt>
      <trkpt lat="41.192926" lon="-2.172759"></trkpt>
      <trkpt lat="41.181616" lon="-2.206856"></trkpt>
      <trkpt lat="41.179683" lon="-2.214092"></trkpt>
      <trkpt lat="41.178206" lon="-2.221889"></trkpt>
      <trkpt lat="41.177885" lon="-2.224119"></trkpt>
      <trkpt lat="41.17632" lon="-2.240429"></trkpt>
      <trkpt lat="41.175384" lon="-2.246837"></trkpt>
      <trkpt lat="41.174941" lon="-2.249159"></trkpt>
      <trkpt lat="41.173178" lon="-2.256544"></trkpt>
      <trkpt lat="41.17151" lon="-2.262042"></trkpt>
      <trkpt lat="41.168963" lon="-2.268778"></trkpt>
      <trkpt lat="41.167689" lon="-2.271729"></trkpt>
      <trkpt lat="41.16571" lon="-2.275779"></trkpt>
      <trkpt lat="41.158665" lon="-2.288134"></trkpt>
      <trkpt lat="41.149763" lon="-2.306103"></trkpt>
      <trkpt lat="41.147891" lon="-2.309413"></trkpt>
      <trkpt lat="41.145719" lon="-2.312865"></trkpt>
      <trkpt lat="41.128689" lon="-2.338138"></trkpt>
      <trkpt lat="41.124878" lon="-2.343584"></trkpt>
      <trkpt lat="41.115485" lon="-2.356518"></trkpt>
      <trkpt lat="41.111905" lon="-2.361761"></trkpt>
      <trkpt lat="41.091309" lon="-2.396934"></trkpt>
      <trkpt lat="41.088648" lon="-2.401153"></trkpt>
      <trkpt lat="41.086302" lon="-2.404524"></trkpt>
      <trkpt lat="41.084524" lon="-2.406872"></trkpt>
      <trkpt lat="41.081159" lon="-2.410897"></trkpt>
      <trkpt lat="41.077129" lon="-2.415118"></trkpt>
      <trkpt lat="41.074819" lon="-2.417262"></trkpt>
      <trkpt lat="41.072315" lon="-2.419403"></trkpt>
      <trkpt lat="41.045654" lon="-2.440739"></trkpt>
      <trkpt lat="41.040628" lon="-2.445253"></trkpt>
      <trkpt lat="41.038193" lon="-2.447743"></trkpt>
      <trkpt lat="41.034774" lon="-2.45168"></trkpt>
      <trkpt lat="41.031682" lon="-2.455758"></trkpt>
      <trkpt lat="41.029352" lon="-2.459202"></trkpt>
      <trkpt lat="41.02551" lon="-2.465669"></trkpt>
      <trkpt lat="40.997532" lon="-2.51647"></trkpt>
      <trkpt lat="40.949034" lon="-2.604116"></trkpt>
      <trkpt lat="40.947611" lon="-2.606518"></trkpt>
      <trkpt lat="40.939717" lon="-2.618589"></trkpt>
      <trkpt lat="40.936075" lon="-2.625001"></trkpt>
      <trkpt lat="40.933164" lon="-2.630846"></trkpt>
      <trkpt lat="40.930497" lon="-2.636889"></trkpt>
      <trkpt lat="40.92954" lon="-2.639316"></trkpt>
      <trkpt lat="40.927866" lon="-2.642898"></trkpt>
      <trkpt lat="40.926286" lon="-2.646117"></trkpt>
      <trkpt lat="40.923321" lon="-2.65162"></trkpt>
      <trkpt lat="40.920637" lon="-2.656058"></trkpt>
      <trkpt lat="40.916106" lon="-2.662827"></trkpt>
      <trkpt lat="40.913674" lon="-2.666668"></trkpt>
      <trkpt lat="40.909981" lon="-2.673196"></trkpt>
      <trkpt lat="40.906985" lon="-2.679417"></trkpt>
      <trkpt lat="40.902167" lon="-2.690988"></trkpt>
      <trkpt lat="40.872851" lon="-2.765074"></trkpt>
      <trkpt lat="40.864989" lon="-2.788036"></trkpt>
      <trkpt lat="40.863696" lon="-2.792036"></trkpt>
      <trkpt lat="40.860267" lon="-2.80405"></trkpt>
      <trkpt lat="40.85892" lon="-2.808166"></trkpt>
      <trkpt lat="40.842351" lon="-2.856555"></trkpt>
      <trkpt lat="40.839951" lon="-2.863172"></trkpt>
      <trkpt lat="40.838816" lon="-2.865854"></trkpt>
      <trkpt lat="40.837626" lon="-2.868495"></trkpt>
      <trkpt lat="40.835896" lon="-2.871923"></trkpt>
      <trkpt lat="40.833729" lon="-2.875872"></trkpt>
      <trkpt lat="40.810528" lon="-2.911201"></trkpt>
      <trkpt lat="40.807567" lon="-2.915549"></trkpt>
      <trkpt lat="40.805883" lon="-2.917738"></trkpt>
      <trkpt lat="40.801014" lon="-2.923538"></trkpt>
      <trkpt lat="40.770724" lon="-2.957629"></trkpt>
      <trkpt lat="40.768067" lon="-2.960456"></trkpt>
      <trkpt lat="40.763072" lon="-2.966225"></trkpt>
      <trkpt lat="40.76009" lon="-2.969846"></trkpt>
      <trkpt lat="40.754958" lon="-2.976632"></trkpt>
      <trkpt lat="40.750055" lon="-2.983859"></trkpt>
      <trkpt lat="40.747463" lon="-2.987977"></trkpt>
      <trkpt lat="40.724635" lon="-3.026801"></trkpt>
      <trkpt lat="40.721696" lon="-3.031038"></trkpt>
      <trkpt lat="40.719993" lon="-3.033221"></trkpt>
      <trkpt lat="40.718474" lon="-3.035153"></trkpt>
      <trkpt lat="40.715151" lon="-3.038865"></trkpt>
      <trkpt lat="40.712766" lon="-3.041302"></trkpt>
      <trkpt lat="40.709146" lon="-3.044645"></trkpt>
      <trkpt lat="40.697521" lon="-3.053856"></trkpt>
      <trkpt lat="40.694092" lon="-3.056348"></trkpt>
      <trkpt lat="40.692079" lon="-3.057667"></trkpt>
      <trkpt lat="40.688762" lon="-3.05964"></trkpt>
      <trkpt lat="40.68481" lon="-3.06177"></trkpt>
      <trkpt lat="40.653513" lon="-3.076415"></trkpt>
      <trkpt lat="40.648534" lon="-3.079014"></trkpt>
      <trkpt lat="40.61622" lon="-3.098386"></trkpt>
      <trkpt lat="40.606544" lon="-3.104536"></trkpt>
      <trkpt lat="40.603657" lon="-3.106777"></trkpt>
      <trkpt lat="40.60102" lon="-3.109053"></trkpt>
      <trkpt lat="40.597101" lon="-3.112973"></trkpt>
      <trkpt lat="40.59408" lon="-3.11636"></trkpt>
      <trkpt lat="40.531236" lon="-3.196503"></trkpt>
      <trkpt lat="40.515621" lon="-3.21618"></trkpt>
      <trkpt lat="40.51386" lon="-3.218239"></trkpt>
      <trkpt lat="40.511284" lon="-3.220981"></trkpt>
      <trkpt lat="40.508479" lon="-3.223653"></trkpt>
      <trkpt lat="40.505924" lon="-3.225852"></trkpt>
      <trkpt lat="40.494922" lon="-3.234776"></trkpt>
      <trkpt lat="40.49204" lon="-3.237457"></trkpt>
      <trkpt lat="40.488783" lon="-3.240752"></trkpt>
      <trkpt lat="40.486071" lon="-3.244011"></trkpt>
      <trkpt lat="40.481052" lon="-3.25073"></trkpt>
      <trkpt lat="40.476926" lon="-3.258313"></trkpt>
      <trkpt lat="40.474818" lon="-3.262597"></trkpt>
      <trkpt lat="40.472553" lon="-3.268215"></trkpt>
      <trkpt lat="40.47104" lon="-3.272513"></trkpt>
      <trkpt lat="40.464944" lon="-3.291078"></trkpt>
      <trkpt lat="40.463473" lon="-3.29514"></trkpt>
      <trkpt lat="40.461818" lon="-3.299283"></trkpt>
      <trkpt lat="40.450469" lon="-3.326087"></trkpt>
      <trkpt lat="40.447221" lon="-3.333225"></trkpt>
      <trkpt lat="40.445231" lon="-3.336913"></trkpt>
      <trkpt lat="40.438015" lon="-3.348912"></trkpt>
      <trkpt lat="40.435591" lon="-3.353597"></trkpt>
      <trkpt lat="40.43351" lon="-3.358221"></trkpt>
      <trkpt lat="40.432408" lon="-3.360945"></trkpt>
      <trkpt lat="40.43083" lon="-3.365317"></trkpt>
      <trkpt lat="40.429818" lon="-3.368592"></trkpt>
      <trkpt lat="40.428112" lon="-3.375118"></trkpt>
      <trkpt lat="40.42729" lon="-3.379147"></trkpt>
      <trkpt lat="40.42634" lon="-3.385189"></trkpt>
      <trkpt lat="40.425837" lon="-3.389883"></trkpt>
      <trkpt lat="40.425456" lon="-3.397067"></trkpt>
      <trkpt lat="40.42548" lon="-3.402571"></trkpt>
      <trkpt lat="40.426378" lon="-3.417073"></trkpt>
      <trkpt lat="40.426463" lon="-3.424412"></trkpt>
      <trkpt lat="40.426226" lon="-3.429394"></trkpt>
      <trkpt lat="40.425875" lon="-3.433587"></trkpt>
      <trkpt lat="40.425087" lon="-3.439384"></trkpt>
      <trkpt lat="40.424183" lon="-3.444426"></trkpt>
      <trkpt lat="40.423288" lon="-3.448344"></trkpt>
      <trkpt lat="40.42102" lon="-3.455754"></trkpt>
      <trkpt lat="40.417168" lon="-3.465817"></trkpt>
      <trkpt lat="40.405301" lon="-3.492874"></trkpt>
      <trkpt lat="40.403451" lon="-3.497895"></trkpt>
      <trkpt lat="40.402314" lon="-3.501868"></trkpt>
      <trkpt lat="40.401436" lon="-3.505865"></trkpt>
      <trkpt lat="40.398606" lon="-3.523648"></trkpt>
      <trkpt lat="40.397735" lon="-3.52756"></trkpt>
      <trkpt lat="40.396161" lon="-3.532515"></trkpt>
      <trkpt lat="40.394102" lon="-3.537378"></trkpt>
      <trkpt lat="40.391805" lon="-3.541584"></trkpt>
      <trkpt lat="40.389958" lon="-3.544374"></trkpt>
      <trkpt lat="40.388297" lon="-3.546547"></trkpt>
      <trkpt lat="40.386233" lon="-3.548907"></trkpt>
      <trkpt lat="40.38317" lon="-3.551793"></trkpt>
      <trkpt lat="40.380431" lon="-3.553877"></trkpt>
      <trkpt lat="40.377078" lon="-3.555905"></trkpt>
      <trkpt lat="40.371373" lon="-3.55864"></trkpt>
      <trkpt lat="40.368991" lon="-3.560042"></trkpt>
      <trkpt lat="40.365963" lon="-3.562265"></trkpt>
      <trkpt lat="40.363179" lon="-3.564711"></trkpt>
      <trkpt lat="40.360956" lon="-3.567086"></trkpt>
      <trkpt lat="40.359098" lon="-3.569386"></trkpt>
      <trkpt lat="40.352283" lon="-3.579214"></trkpt>
      <trkpt lat="40.350555" lon="-3.581866"></trkpt>
      <trkpt lat="40.348452" lon="-3.585484"></trkpt>
      <trkpt lat="40.346705" lon="-3.588949"></trkpt>
      <trkpt lat="40.344661" lon="-3.593753"></trkpt>
      <trkpt lat="40.343288" lon="-3.59764"></trkpt>
      <trkpt lat="40.34185" lon="-3.602653"></trkpt>
      <trkpt lat="40.335588" lon="-3.629751"></trkpt>
      <trkpt lat="40.335208" lon="-3.632318"></trkpt>
      <trkpt lat="40.334954" lon="-3.635912"></trkpt>
      <trkpt lat="40.334988" lon="-3.63863"></trkpt>
      <trkpt lat="40.335206" lon="-3.641379"></trkpt>
      <trkpt lat="40.335638" lon="-3.644217"></trkpt>
      <trkpt lat="40.336243" lon="-3.646897"></trkpt>
      <trkpt lat="40.337196" lon="-3.649937"></trkpt>
      <trkpt lat="40.337862" lon="-3.651639"></trkpt>
      <trkpt lat="40.338746" lon="-3.653561"></trkpt>
      <trkpt lat="40.340029" lon="-3.655882"></trkpt>
      <trkpt lat="40.341081" lon="-3.657496"></trkpt>
      <trkpt lat="40.342451" lon="-3.659302"></trkpt>
      <trkpt lat="40.350085" lon="-3.667685"></trkpt>
      <trkpt lat="40.352557" lon="-3.670033"></trkpt>
      <trkpt lat="40.354852" lon="-3.67177"></trkpt>
      <trkpt lat="40.356355" lon="-3.672689"></trkpt>
      <trkpt lat="40.358516" lon="-3.673785"></trkpt>
      <trkpt lat="40.365373" lon="-3.676736"></trkpt>
      <trkpt lat="40.368746" lon="-3.677675"></trkpt>
      <trkpt lat="40.370793" lon="-3.678423"></trkpt>
      <trkpt lat="40.372661" lon="-3.679368"></trkpt>
      <trkpt lat="40.376104" lon="-3.68151"></trkpt>
      <trkpt lat="40.377044" lon="-3.681869"></trkpt>
      <trkpt lat="40.378134" lon="-3.682058"></trkpt>
      <trkpt lat="40.378998" lon="-3.682042"></trkpt>
      <trkpt lat="40.379954" lon="-3.681854"></trkpt>
      <trkpt lat="40.380712" lon="-3.681567"></trkpt>
      <trkpt lat="40.381818" lon="-3.680897"></trkpt>
      <trkpt lat="40.382732" lon="-3.680099"></trkpt>
      <trkpt lat="40.388436" lon="-3.674337"></trkpt>
      <trkpt lat="40.38948" lon="-3.673586"></trkpt>
      <trkpt lat="40.390309" lon="-3.673188"></trkpt>
      <trkpt lat="40.389244" lon="-3.673588"></trkpt>
      <trkpt lat="40.388113" lon="-3.67442"></trkpt>
      <trkpt lat="40.384859" lon="-3.677805"></trkpt>
      <trkpt lat="40.382673" lon="-3.679513"></trkpt>
      <trkpt lat="40.381104" lon="-3.681031"></trkpt>
      <trkpt lat="40.379699" lon="-3.681807"></trkpt>
      <trkpt lat="40.378942" lon="-3.681871"></trkpt>
      <trkpt lat="40.378145" lon="-3.681637"></trkpt>
      <trkpt lat="40.375273" lon="-3.679904"></trkpt>
      <trkpt lat="40.374058" lon="-3.678991"></trkpt>
      <trkpt lat="40.372421" lon="-3.677987"></trkpt>
      <trkpt lat="40.371059" lon="-3.67758"></trkpt>
      <trkpt lat="40.370026" lon="-3.67753"></trkpt>
      <trkpt lat="40.373588" lon="-3.677337"></trkpt>
      <trkpt lat="40.374178" lon="-3.677436"></trkpt>
      <trkpt lat="40.375759" lon="-3.67845"></trkpt>
      <trkpt lat="40.3778" lon="-3.680613"></trkpt>
      <trkpt lat="40.378521" lon="-3.680862"></trkpt>
      <trkpt lat="40.379061" lon="-3.680854"></trkpt>
      <trkpt lat="40.380043" lon="-3.680412"></trkpt>
      <trkpt lat="40.384334" lon="-3.676914"></trkpt>
      <trkpt lat="40.386695" lon="-3.675412"></trkpt>
      <trkpt lat="40.389205" lon="-3.673367"></trkpt>
      <trkpt lat="40.39" lon="-3.673049"></trkpt>
      <trkpt lat="40.391611" lon="-3.672825"></trkpt>
      <trkpt lat="40.392794" lon="-3.672859"></trkpt>
      <trkpt lat="40.394166" lon="-3.673205"></trkpt>
      <trkpt lat="40.395887" lon="-3.673853"></trkpt>
      <trkpt lat="40.396933" lon="-3.674462"></trkpt>
      <trkpt lat="40.398152" lon="-3.675603"></trkpt>
      <trkpt lat="40.399338" lon="-3.67693"></trkpt>
      <trkpt lat="40.399979" lon="-3.677925"></trkpt>
      <trkpt lat="40.400996" lon="-3.68013"></trkpt>
      <trkpt lat="40.402139" lon="-3.683752"></trkpt>
      <trkpt lat="40.402553" lon="-3.684627"></trkpt>
      <trkpt lat="40.403583" lon="-3.686209"></trkpt>
      <trkpt lat="40.405944" lon="-3.688888"></trkpt>
      <trkpt lat="40.403583" lon="-3.686209"></trkpt>
      <trkpt lat="40.402553" lon="-3.684627"></trkpt>
      <trkpt lat="40.402139" lon="-3.683752"></trkpt>
      <trkpt lat="40.400996" lon="-3.68013"></trkpt>
      <trkpt lat="40.399648" lon="-3.677353"></trkpt>
      <trkpt lat="40.398457" lon="-3.675925"></trkpt>
      <trkpt lat="40.397163" lon="-3.674654"></trkpt>
      <trkpt lat="40.395887" lon="-3.673853"></trkpt>
      <trkpt lat="40.394166" lon="-3.673205"></trkpt>
      <trkpt lat="40.392794" lon="-3.672859"></trkpt>
      <trkpt lat="40.391611" lon="-3.672825"></trkpt>
      <trkpt lat="40.389702" lon="-3.673138"></trkpt>
      <trkpt lat="40.388725" lon="-3.673696"></trkpt>
      <trkpt lat="40.386695" lon="-3.675412"></trkpt>
      <trkpt lat="40.384334" lon="-3.676914"></trkpt>
      <trkpt lat="40.380043" lon="-3.680412"></trkpt>
      <trkpt lat="40.379061" lon="-3.680854"></trkpt>
      <trkpt lat="40.378521" lon="-3.680862"></trkpt>
      <trkpt lat="40.3778" lon="-3.680613"></trkpt>
      <trkpt lat="40.375759" lon="-3.67845"></trkpt>
      <trkpt lat="40.374178" lon="-3.677436"></trkpt>
      <trkpt lat="40.373588" lon="-3.677337"></trkpt>
      <trkpt lat="40.370026" lon="-3.67753"></trkpt>
      <trkpt lat="40.371059" lon="-3.67758"></trkpt>
      <trkpt lat="40.372421" lon="-3.677987"></trkpt>
      <trkpt lat="40.374058" lon="-3.678991"></trkpt>
      <trkpt lat="40.375273" lon="-3.679904"></trkpt>
      <trkpt lat="40.378145" lon="-3.681637"></trkpt>
      <trkpt lat="40.378798" lon="-3.681852"></trkpt>
      <trkpt lat="40.379474" lon="-3.681853"></trkpt>
      <trkpt lat="40.380088" lon="-3.681663"></trkpt>
      <trkpt lat="40.381104" lon="-3.681031"></trkpt>
      <trkpt lat="40.382673" lon="-3.679513"></trkpt>
      <trkpt lat="40.384859" lon="-3.677805"></trkpt>
      <trkpt lat="40.388113" lon="-3.67442"></trkpt>
      <trkpt lat="40.389056" lon="-3.673708"></trkpt>
      <trkpt lat="40.389699" lon="-3.673384"></trkpt>
      <trkpt lat="40.39088" lon="-3.67302"></trkpt>
      <trkpt lat="40.392038" lon="-3.672922"></trkpt>
      <trkpt lat="40.392542" lon="-3.672995"></trkpt>
      <trkpt lat="40.391612" lon="-3.672994"></trkpt>
      <trkpt lat="40.390881" lon="-3.673119"></trkpt>
      <trkpt lat="40.389937" lon="-3.673471"></trkpt>
      <trkpt lat="40.389052" lon="-3.674004"></trkpt>
      <trkpt lat="40.38823" lon="-3.674723"></trkpt>
      <trkpt lat="40.381993" lon="-3.681057"></trkpt>
      <trkpt lat="40.380874" lon="-3.681939"></trkpt>
      <trkpt lat="40.379903" lon="-3.682327"></trkpt>
      <trkpt lat="40.37906" lon="-3.682435"></trkpt>
      <trkpt lat="40.378217" lon="-3.682357"></trkpt>
      <trkpt lat="40.376883" lon="-3.682002"></trkpt>
      <trkpt lat="40.375716" lon="-3.681491"></trkpt>
      <trkpt lat="40.373083" lon="-3.679799"></trkpt>
      <trkpt lat="40.370835" lon="-3.678629"></trkpt>
      <trkpt lat="40.369345" lon="-3.678018"></trkpt>
      <trkpt lat="40.366629" lon="-3.677331"></trkpt>
      <trkpt lat="40.365181" lon="-3.676796"></trkpt>
      <trkpt lat="40.357057" lon="-3.673284"></trkpt>
      <trkpt lat="40.354673" lon="-3.671966"></trkpt>
      <trkpt lat="40.352939" lon="-3.670687"></trkpt>
      <trkpt lat="40.351766" lon="-3.669653"></trkpt>
      <trkpt lat="40.347456" lon="-3.665094"></trkpt>
      <trkpt lat="40.343338" lon="-3.661104"></trkpt>
      <trkpt lat="40.333292" lon="-3.65233"></trkpt>
      <trkpt lat="40.332106" lon="-3.651436"></trkpt>
      <trkpt lat="40.330249" lon="-3.650292"></trkpt>
      <trkpt lat="40.328967" lon="-3.649664"></trkpt>
      <trkpt lat="40.326989" lon="-3.64893"></trkpt>
      <trkpt lat="40.325297" lon="-3.648518"></trkpt>
      <trkpt lat="40.32324" lon="-3.64823"></trkpt>
      <trkpt lat="40.322033" lon="-3.648205"></trkpt>
      <trkpt lat="40.319621" lon="-3.648465"></trkpt>
      <trkpt lat="40.316654" lon="-3.649265"></trkpt>
      <trkpt lat="40.314703" lon="-3.650135"></trkpt>
      <trkpt lat="40.312364" lon="-3.651568"></trkpt>
      <trkpt lat="40.309768" lon="-3.653746"></trkpt>
      <trkpt lat="40.308269" lon="-3.655405"></trkpt>
      <trkpt lat="40.306528" lon="-3.657708"></trkpt>
      <trkpt lat="40.291867" lon="-3.678643"></trkpt>
      <trkpt lat="40.290008" lon="-3.681837"></trkpt>
      <trkpt lat="40.288142" lon="-3.685948"></trkpt>
      <trkpt lat="40.286862" lon="-3.689733"></trkpt>
      <trkpt lat="40.285139" lon="-3.696008"></trkpt>
      <trkpt lat="40.283444" lon="-3.700589"></trkpt>
      <trkpt lat="40.281581" lon="-3.704318"></trkpt>
      <trkpt lat="40.279386" lon="-3.707759"></trkpt>
      <trkpt lat="40.278175" lon="-3.709346"></trkpt>
      <trkpt lat="40.276555" lon="-3.711195"></trkpt>
      <trkpt lat="40.272578" lon="-3.715036"></trkpt>
      <trkpt lat="40.269857" lon="-3.718069"></trkpt>
      <trkpt lat="40.267885" lon="-3.7207"></trkpt>
      <trkpt lat="40.264145" lon="-3.726542"></trkpt>
      <trkpt lat="40.2627" lon="-3.728619"></trkpt>
      <trkpt lat="40.259513" lon="-3.732456"></trkpt>
      <trkpt lat="40.257789" lon="-3.734167"></trkpt>
      <trkpt lat="40.255568" lon="-3.736102"></trkpt>
      <trkpt lat="40.253624" lon="-3.737536"></trkpt>
      <trkpt lat="40.250769" lon="-3.739305"></trkpt>
      <trkpt lat="40.247914" lon="-3.740688"></trkpt>
      <trkpt lat="40.244316" lon="-3.741955"></trkpt>
      <trkpt lat="40.219602" lon="-3.748073"></trkpt>
      <trkpt lat="40.217335" lon="-3.748478"></trkpt>
      <trkpt lat="40.214763" lon="-3.748762"></trkpt>
      <trkpt lat="40.181551" lon="-3.750768"></trkpt>
      <trkpt lat="40.17902" lon="-3.751169"></trkpt>
      <trkpt lat="40.172799" lon="-3.752434"></trkpt>
      <trkpt lat="40.170568" lon="-3.753082"></trkpt>
      <trkpt lat="40.167974" lon="-3.754068"></trkpt>
      <trkpt lat="40.162059" lon="-3.75701"></trkpt>
      <trkpt lat="40.159472" lon="-3.758137"></trkpt>
      <trkpt lat="40.154369" lon="-3.760094"></trkpt>
      <trkpt lat="40.150823" lon="-3.7619"></trkpt>
      <trkpt lat="40.14709" lon="-3.764342"></trkpt>
      <trkpt lat="40.117001" lon="-3.78499"></trkpt>
      <trkpt lat="40.112921" lon="-3.78741"></trkpt>
      <trkpt lat="40.110235" lon="-3.788577"></trkpt>
      <trkpt lat="40.107004" lon="-3.789632"></trkpt>
      <trkpt lat="40.085408" lon="-3.79397"></trkpt>
      <trkpt lat="40.083481" lon="-3.794512"></trkpt>
      <trkpt lat="40.080161" lon="-3.79582"></trkpt>
      <trkpt lat="40.077628" lon="-3.797117"></trkpt>
      <trkpt lat="40.039186" lon="-3.820058"></trkpt>
      <trkpt lat="40.035683" lon="-3.822115"></trkpt>
      <trkpt lat="40.033493" lon="-3.823258"></trkpt>
      <trkpt lat="40.031525" lon="-3.824082"></trkpt>
      <trkpt lat="40.028813" lon="-3.825024"></trkpt>
      <trkpt lat="39.964199" lon="-3.843645"></trkpt>
      <trkpt lat="39.961928" lon="-3.84444"></trkpt>
      <trkpt lat="39.959801" lon="-3.845355"></trkpt>
      <trkpt lat="39.956569" lon="-3.847119"></trkpt>
      <trkpt lat="39.954703" lon="-3.84839"></trkpt>
      <trkpt lat="39.951832" lon="-3.850706"></trkpt>
      <trkpt lat="39.949164" lon="-3.853324"></trkpt>
      <trkpt lat="39.94639" lon="-3.856662"></trkpt>
      <trkpt lat="39.945073" lon="-3.858519"></trkpt>
      <trkpt lat="39.940663" lon="-3.865843"></trkpt>
      <trkpt lat="39.938711" lon="-3.868742"></trkpt>
      <trkpt lat="39.935734" lon="-3.872374"></trkpt>
      <trkpt lat="39.932742" lon="-3.875297"></trkpt>
      <trkpt lat="39.930895" lon="-3.87681"></trkpt>
      <trkpt lat="39.929132" lon="-3.878076"></trkpt>
      <trkpt lat="39.926649" lon="-3.879586"></trkpt>
      <trkpt lat="39.924905" lon="-3.880471"></trkpt>
      <trkpt lat="39.921519" lon="-3.88181"></trkpt>
      <trkpt lat="39.920124" lon="-3.882241"></trkpt>
      <trkpt lat="39.917133" lon="-3.882902"></trkpt>
      <trkpt lat="39.91358" lon="-3.883253"></trkpt>
      <trkpt lat="39.911283" lon="-3.883242"></trkpt>
      <trkpt lat="39.909261" lon="-3.883068"></trkpt>
      <trkpt lat="39.907026" lon="-3.882708"></trkpt>
      <trkpt lat="39.905278" lon="-3.88229"></trkpt>
      <trkpt lat="39.901708" lon="-3.881117"></trkpt>
      <trkpt lat="39.898265" lon="-3.879458"></trkpt>
      <trkpt lat="39.881048" lon="-3.86928"></trkpt>
      <trkpt lat="39.878188" lon="-3.867905"></trkpt>
      <trkpt lat="39.875853" lon="-3.867054"></trkpt>
      <trkpt lat="39.873575" lon="-3.866433"></trkpt>
      <trkpt lat="39.871842" lon="-3.866087"></trkpt>
      <trkpt lat="39.864408" lon="-3.865008"></trkpt>
      <trkpt lat="39.858099" lon="-3.863404"></trkpt>
      <trkpt lat="39.855955" lon="-3.862996"></trkpt>
      <trkpt lat="39.851328" lon="-3.862715"></trkpt>
      <trkpt lat="39.843" lon="-3.862932"></trkpt>
      <trkpt lat="39.838417" lon="-3.862928"></trkpt>
      <trkpt lat="39.835844" lon="-3.862703"></trkpt>
      <trkpt lat="39.83435" lon="-3.862457"></trkpt>
      <trkpt lat="39.832198" lon="-3.86194"></trkpt>
      <trkpt lat="39.830006" lon="-3.861258"></trkpt>
      <trkpt lat="39.827184" lon="-3.860047"></trkpt>
      <trkpt lat="39.8247" lon="-3.858752"></trkpt>
      <trkpt lat="39.811847" lon="-3.851233"></trkpt>
      <trkpt lat="39.810266" lon="-3.850215"></trkpt>
      <trkpt lat="39.807429" lon="-3.848052"></trkpt>
      <trkpt lat="39.802736" lon="-3.843725"></trkpt>
      <trkpt lat="39.800437" lon="-3.841788"></trkpt>
      <trkpt lat="39.798553" lon="-3.84042"></trkpt>
      <trkpt lat="39.796428" lon="-3.8391"></trkpt>
      <trkpt lat="39.794308" lon="-3.837995"></trkpt>
      <trkpt lat="39.791033" lon="-3.836667"></trkpt>
      <trkpt lat="39.788412" lon="-3.835915"></trkpt>
      <trkpt lat="39.780706" lon="-3.83439"></trkpt>
      <trkpt lat="39.778434" lon="-3.833682"></trkpt>
      <trkpt lat="39.775553" lon="-3.832473"></trkpt>
      <trkpt lat="39.773108" lon="-3.831179"></trkpt>
      <trkpt lat="39.770322" lon="-3.829345"></trkpt>
      <trkpt lat="39.762092" lon="-3.822627"></trkpt>
      <trkpt lat="39.760111" lon="-3.82123"></trkpt>
      <trkpt lat="39.759061" lon="-3.820568"></trkpt>
      <trkpt lat="39.755903" lon="-3.818901"></trkpt>
      <trkpt lat="39.754044" lon="-3.81813"></trkpt>
      <trkpt lat="39.751796" lon="-3.81739"></trkpt>
      <trkpt lat="39.709397" lon="-3.806663"></trkpt>
      <trkpt lat="39.693995" lon="-3.803677"></trkpt>
      <trkpt lat="39.672697" lon="-3.799748"></trkpt>
      <trkpt lat="39.669963" lon="-3.799386"></trkpt>
      <trkpt lat="39.666011" lon="-3.799376"></trkpt>
      <trkpt lat="39.643377" lon="-3.801627"></trkpt>
      <trkpt lat="39.63896" lon="-3.801717"></trkpt>
      <trkpt lat="39.636277" lon="-3.801486"></trkpt>
      <trkpt lat="39.632441" lon="-3.800606"></trkpt>
      <trkpt lat="39.628945" lon="-3.799339"></trkpt>
      <trkpt lat="39.623303" lon="-3.796929"></trkpt>
      <trkpt lat="39.620454" lon="-3.796051"></trkpt>
      <trkpt lat="39.617066" lon="-3.795434"></trkpt>
      <trkpt lat="39.613465" lon="-3.795257"></trkpt>
      <trkpt lat="39.609953" lon="-3.795517"></trkpt>
      <trkpt lat="39.607228" lon="-3.796046"></trkpt>
      <trkpt lat="39.604275" lon="-3.796937"></trkpt>
      <trkpt lat="39.600912" lon="-3.798341"></trkpt>
      <trkpt lat="39.59875" lon="-3.799523"></trkpt>
      <trkpt lat="39.574841" lon="-3.814901"></trkpt>
      <trkpt lat="39.572959" lon="-3.815919"></trkpt>
      <trkpt lat="39.570768" lon="-3.816904"></trkpt>
      <trkpt lat="39.56816" lon="-3.817812"></trkpt>
      <trkpt lat="39.564295" lon="-3.818699"></trkpt>
      <trkpt lat="39.483472" lon="-3.831087"></trkpt>
      <trkpt lat="39.480049" lon="-3.831295"></trkpt>
      <trkpt lat="39.477786" lon="-3.831211"></trkpt>
      <trkpt lat="39.476039" lon="-3.831002"></trkpt>
      <trkpt lat="39.472407" lon="-3.830214"></trkpt>
      <trkpt lat="39.469095" lon="-3.829079"></trkpt>
      <trkpt lat="39.46744" lon="-3.828345"></trkpt>
      <trkpt lat="39.463856" lon="-3.826323"></trkpt>
      <trkpt lat="39.456547" lon="-3.82098"></trkpt>
      <trkpt lat="39.454349" lon="-3.819578"></trkpt>
      <trkpt lat="39.452192" lon="-3.818431"></trkpt>
      <trkpt lat="39.450083" lon="-3.817534"></trkpt>
      <trkpt lat="39.447662" lon="-3.816698"></trkpt>
      <trkpt lat="39.44306" lon="-3.815692"></trkpt>
      <trkpt lat="39.438994" lon="-3.81548"></trkpt>
      <trkpt lat="39.436538" lon="-3.815653"></trkpt>
      <trkpt lat="39.434553" lon="-3.815936"></trkpt>
      <trkpt lat="39.430754" lon="-3.816898"></trkpt>
      <trkpt lat="39.428105" lon="-3.817907"></trkpt>
      <trkpt lat="39.400597" lon="-3.829737"></trkpt>
      <trkpt lat="39.397365" lon="-3.831493"></trkpt>
      <trkpt lat="39.393968" lon="-3.833862"></trkpt>
      <trkpt lat="39.366524" lon="-3.854915"></trkpt>
      <trkpt lat="39.36272" lon="-3.85768"></trkpt>
      <trkpt lat="39.323974" lon="-3.881301"></trkpt>
      <trkpt lat="39.321893" lon="-3.882413"></trkpt>
      <trkpt lat="39.318827" lon="-3.883709"></trkpt>
      <trkpt lat="39.316859" lon="-3.884372"></trkpt>
      <trkpt lat="39.313537" lon="-3.885073"></trkpt>
      <trkpt lat="39.311262" lon="-3.885382"></trkpt>
      <trkpt lat="39.308617" lon="-3.885464"></trkpt>
      <trkpt lat="39.306272" lon="-3.885322"></trkpt>
      <trkpt lat="39.303808" lon="-3.884991"></trkpt>
      <trkpt lat="39.300969" lon="-3.884289"></trkpt>
      <trkpt lat="39.299422" lon="-3.883779"></trkpt>
      <trkpt lat="39.29187" lon="-3.881003"></trkpt>
      <trkpt lat="39.288468" lon="-3.880206"></trkpt>
      <trkpt lat="39.285543" lon="-3.879893"></trkpt>
      <trkpt lat="39.281391" lon="-3.879988"></trkpt>
      <trkpt lat="39.278947" lon="-3.880292"></trkpt>
      <trkpt lat="39.275399" lon="-3.881161"></trkpt>
      <trkpt lat="39.269094" lon="-3.883201"></trkpt>
      <trkpt lat="39.266503" lon="-3.883744"></trkpt>
      <trkpt lat="39.265054" lon="-3.883932"></trkpt>
      <trkpt lat="39.262234" lon="-3.884104"></trkpt>
      <trkpt lat="39.260747" lon="-3.88407"></trkpt>
      <trkpt lat="39.259391" lon="-3.88398"></trkpt>
      <trkpt lat="39.256475" lon="-3.883462"></trkpt>
      <trkpt lat="39.254955" lon="-3.883106"></trkpt>
      <trkpt lat="39.252226" lon="-3.882225"></trkpt>
      <trkpt lat="39.24728" lon="-3.880164"></trkpt>
      <trkpt lat="39.243454" lon="-3.878828"></trkpt>
      <trkpt lat="39.240031" lon="-3.878027"></trkpt>
      <trkpt lat="39.233775" lon="-3.877171"></trkpt>
      <trkpt lat="39.230822" lon="-3.876602"></trkpt>
      <trkpt lat="39.227719" lon="-3.875505"></trkpt>
      <trkpt lat="39.223975" lon="-3.873638"></trkpt>
      <trkpt lat="39.221364" lon="-3.871965"></trkpt>
      <trkpt lat="39.21678" lon="-3.8687"></trkpt>
      <trkpt lat="39.215027" lon="-3.867636"></trkpt>
      <trkpt lat="39.21294" lon="-3.866547"></trkpt>
      <trkpt lat="39.209095" lon="-3.864944"></trkpt>
      <trkpt lat="39.193233" lon="-3.858752"></trkpt>
      <trkpt lat="39.190296" lon="-3.857847"></trkpt>
      <trkpt lat="39.187406" lon="-3.857304"></trkpt>
      <trkpt lat="39.184576" lon="-3.857051"></trkpt>
      <trkpt lat="39.181975" lon="-3.857068"></trkpt>
      <trkpt lat="39.178061" lon="-3.857561"></trkpt>
      <trkpt lat="39.17505" lon="-3.858289"></trkpt>
      <trkpt lat="39.156357" lon="-3.863471"></trkpt>
      <trkpt lat="39.153132" lon="-3.864574"></trkpt>
      <trkpt lat="39.151239" lon="-3.865412"></trkpt>
      <trkpt lat="39.145466" lon="-3.868448"></trkpt>
      <trkpt lat="39.142934" lon="-3.86962"></trkpt>
      <trkpt lat="39.083599" lon="-3.894344"></trkpt>
      <trkpt lat="39.081232" lon="-3.895529"></trkpt>
      <trkpt lat="39.07844" lon="-3.897128"></trkpt>
      <trkpt lat="39.073417" lon="-3.900502"></trkpt>
      <trkpt lat="39.068904" lon="-3.903164"></trkpt>
      <trkpt lat="39.035126" lon="-3.920827"></trkpt>
      <trkpt lat="39.032504" lon="-3.921913"></trkpt>
      <trkpt lat="39.029643" lon="-3.922802"></trkpt>
      <trkpt lat="39.026578" lon="-3.923407"></trkpt>
      <trkpt lat="39.024923" lon="-3.923592"></trkpt>
      <trkpt lat="39.014567" lon="-3.923718"></trkpt>
      <trkpt lat="39.011725" lon="-3.92371"></trkpt>
      <trkpt lat="39.00905" lon="-3.923564"></trkpt>
      <trkpt lat="39.004437" lon="-3.922851"></trkpt>
      <trkpt lat="39.000516" lon="-3.921718"></trkpt>
      <trkpt lat="38.998099" lon="-3.920804"></trkpt>
      <trkpt lat="38.9959" lon="-3.919784"></trkpt>
      <trkpt lat="38.992723" lon="-3.918001"></trkpt>
      <trkpt lat="38.987574" lon="-3.914668"></trkpt>
      <trkpt lat="38.981937" lon="-3.911248"></trkpt>
      <trkpt lat="38.97984" lon="-3.910149"></trkpt>
      <trkpt lat="38.978547" lon="-3.909616"></trkpt>
      <trkpt lat="38.976171" lon="-3.908984"></trkpt>
      <trkpt lat="38.973998" lon="-3.908766"></trkpt>
      <trkpt lat="38.971192" lon="-3.908982"></trkpt>
      <trkpt lat="38.968982" lon="-3.909514"></trkpt>
      <trkpt lat="38.966552" lon="-3.910604"></trkpt>
      <trkpt lat="38.963678" lon="-3.912411"></trkpt>
      <trkpt lat="38.960996" lon="-3.914484"></trkpt>
      <trkpt lat="38.957683" lon="-3.917669"></trkpt>
      <trkpt lat="38.955684" lon="-3.92002"></trkpt>
      <trkpt lat="38.953225" lon="-3.923431"></trkpt>
      <trkpt lat="38.945451" lon="-3.93618"></trkpt>
      <trkpt lat="38.944029" lon="-3.938184"></trkpt>
      <trkpt lat="38.942365" lon="-3.94025"></trkpt>
      <trkpt lat="38.939668" lon="-3.943125"></trkpt>
      <trkpt lat="38.929428" lon="-3.951941"></trkpt>
      <trkpt lat="38.927074" lon="-3.953813"></trkpt>
      <trkpt lat="38.925573" lon="-3.954836"></trkpt>
      <trkpt lat="38.922836" lon="-3.95645"></trkpt>
      <trkpt lat="38.920778" lon="-3.957422"></trkpt>
      <trkpt lat="38.919388" lon="-3.957943"></trkpt>
      <trkpt lat="38.916412" lon="-3.958898"></trkpt>
      <trkpt lat="38.908669" lon="-3.960424"></trkpt>
      <trkpt lat="38.905834" lon="-3.96109"></trkpt>
      <trkpt lat="38.903005" lon="-3.962029"></trkpt>
      <trkpt lat="38.901128" lon="-3.96281"></trkpt>
      <trkpt lat="38.898009" lon="-3.964469"></trkpt>
      <trkpt lat="38.895227" lon="-3.966351"></trkpt>
      <trkpt lat="38.892219" lon="-3.968895"></trkpt>
      <trkpt lat="38.889949" lon="-3.971171"></trkpt>
      <trkpt lat="38.869255" lon="-3.995424"></trkpt>
      <trkpt lat="38.845627" lon="-4.026844"></trkpt>
      <trkpt lat="38.843718" lon="-4.029685"></trkpt>
      <trkpt lat="38.842037" lon="-4.032577"></trkpt>
      <trkpt lat="38.834962" lon="-4.047894"></trkpt>
      <trkpt lat="38.832727" lon="-4.051859"></trkpt>
      <trkpt lat="38.831031" lon="-4.054373"></trkpt>
      <trkpt lat="38.827785" lon="-4.058325"></trkpt>
      <trkpt lat="38.825574" lon="-4.060483"></trkpt>
      <trkpt lat="38.822539" lon="-4.062989"></trkpt>
      <trkpt lat="38.818824" lon="-4.065335"></trkpt>
      <trkpt lat="38.816948" lon="-4.066276"></trkpt>
      <trkpt lat="38.814928" lon="-4.067122"></trkpt>
      <trkpt lat="38.777067" lon="-4.079417"></trkpt>
      <trkpt lat="38.773621" lon="-4.080249"></trkpt>
      <trkpt lat="38.770235" lon="-4.080673"></trkpt>
      <trkpt lat="38.76653" lon="-4.080646"></trkpt>
      <trkpt lat="38.761184" lon="-4.080016"></trkpt>
      <trkpt lat="38.757684" lon="-4.079796"></trkpt>
      <trkpt lat="38.754912" lon="-4.079908"></trkpt>
      <trkpt lat="38.75104" lon="-4.080447"></trkpt>
      <trkpt lat="38.746753" lon="-4.081614"></trkpt>
      <trkpt lat="38.710954" lon="-4.093679"></trkpt>
      <trkpt lat="38.708133" lon="-4.095003"></trkpt>
      <trkpt lat="38.706206" lon="-4.096261"></trkpt>
      <trkpt lat="38.704735" lon="-4.097486"></trkpt>
      <trkpt lat="38.697026" lon="-4.105516"></trkpt>
      <trkpt lat="38.693908" lon="-4.109898"></trkpt>
      <trkpt lat="38.692769" lon="-4.111185"></trkpt>
      <trkpt lat="38.691971" lon="-4.111627"></trkpt>
      <trkpt lat="38.686427" lon="-4.113558"></trkpt>
      <trkpt lat="38.685603" lon="-4.114041"></trkpt>
      <trkpt lat="38.684866" lon="-4.114801"></trkpt>
      <trkpt lat="38.684015" lon="-4.116348"></trkpt>
      <trkpt lat="38.68364" lon="-4.117769"></trkpt>
      <trkpt lat="38.682953" lon="-4.128967"></trkpt>
      <trkpt lat="38.682704" lon="-4.130707"></trkpt>
      <trkpt lat="38.681983" lon="-4.133959"></trkpt>
      <trkpt lat="38.680995" lon="-4.136934"></trkpt>
      <trkpt lat="38.67128" lon="-4.16268"></trkpt>
      <trkpt lat="38.66504" lon="-4.182215"></trkpt>
      <trkpt lat="38.663779" lon="-4.186717"></trkpt>
      <trkpt lat="38.662868" lon="-4.190837"></trkpt>
      <trkpt lat="38.661994" lon="-4.196467"></trkpt>
      <trkpt lat="38.66169" lon="-4.199573"></trkpt>
      <trkpt lat="38.661472" lon="-4.203913"></trkpt>
      <trkpt lat="38.661476" lon="-4.20815"></trkpt>
      <trkpt lat="38.661643" lon="-4.211862"></trkpt>
      <trkpt lat="38.661991" lon="-4.215472"></trkpt>
      <trkpt lat="38.668824" lon="-4.261088"></trkpt>
      <trkpt lat="38.671428" lon="-4.29026"></trkpt>
      <trkpt lat="38.671782" lon="-4.295176"></trkpt>
      <trkpt lat="38.671838" lon="-4.298515"></trkpt>
      <trkpt lat="38.67174" lon="-4.301126"></trkpt>
      <trkpt lat="38.671467" lon="-4.304352"></trkpt>
      <trkpt lat="38.670907" lon="-4.30814"></trkpt>
      <trkpt lat="38.669772" lon="-4.313234"></trkpt>
      <trkpt lat="38.666229" lon="-4.32731"></trkpt>
      <trkpt lat="38.664912" lon="-4.331164"></trkpt>
      <trkpt lat="38.66285" lon="-4.335691"></trkpt>
      <trkpt lat="38.660034" lon="-4.340656"></trkpt>
      <trkpt lat="38.658565" lon="-4.343653"></trkpt>
      <trkpt lat="38.655899" lon="-4.347243"></trkpt>
      <trkpt lat="38.651944" lon="-4.35158"></trkpt>
      <trkpt lat="38.650961" lon="-4.352464"></trkpt>
      <trkpt lat="38.632102" lon="-4.367948"></trkpt>
      <trkpt lat="38.630087" lon="-4.369737"></trkpt>
      <trkpt lat="38.628179" lon="-4.371734"></trkpt>
      <trkpt lat="38.625972" lon="-4.374571"></trkpt>
      <trkpt lat="38.623949" lon="-4.377783"></trkpt>
      <trkpt lat="38.623001" lon="-4.37958"></trkpt>
      <trkpt lat="38.620319" lon="-4.3858"></trkpt>
      <trkpt lat="38.618812" lon="-4.388958"></trkpt>
      <trkpt lat="38.617666" lon="-4.390956"></trkpt>
      <trkpt lat="38.615585" lon="-4.394001"></trkpt>
      <trkpt lat="38.59508" lon="-4.418856"></trkpt>
      <trkpt lat="38.592305" lon="-4.421649"></trkpt>
      <trkpt lat="38.591323" lon="-4.422484"></trkpt>
      <trkpt lat="38.588786" lon="-4.424315"></trkpt>
      <trkpt lat="38.58559" lon="-4.426055"></trkpt>
      <trkpt lat="38.583379" lon="-4.426935"></trkpt>
      <trkpt lat="38.581672" lon="-4.427453"></trkpt>
      <trkpt lat="38.578381" lon="-4.42807"></trkpt>
      <trkpt lat="38.575288" lon="-4.428241"></trkpt>
      <trkpt lat="38.561808" lon="-4.428508"></trkpt>
      <trkpt lat="38.557674" lon="-4.428728"></trkpt>
      <trkpt lat="38.537781" lon="-4.429278"></trkpt>
      <trkpt lat="38.534511" lon="-4.429764"></trkpt>
      <trkpt lat="38.525927" lon="-4.431869"></trkpt>
      <trkpt lat="38.520932" lon="-4.43452"></trkpt>
      <trkpt lat="38.516057" lon="-4.437509"></trkpt>
      <trkpt lat="38.503058" lon="-4.449924"></trkpt>
      <trkpt lat="38.496755" lon="-4.454236"></trkpt>
      <trkpt lat="38.490403" lon="-4.45709"></trkpt>
      <trkpt lat="38.487745" lon="-4.457533"></trkpt>
      <trkpt lat="38.48422" lon="-4.457629"></trkpt>
      <trkpt lat="38.48191" lon="-4.457399"></trkpt>
      <trkpt lat="38.480573" lon="-4.457152"></trkpt>
      <trkpt lat="38.47799" lon="-4.456448"></trkpt>
      <trkpt lat="38.475251" lon="-4.455438"></trkpt>
      <trkpt lat="38.474511" lon="-4.455062"></trkpt>
      <trkpt lat="38.471827" lon="-4.453378"></trkpt>
      <trkpt lat="38.469564" lon="-4.451686"></trkpt>
      <trkpt lat="38.46811" lon="-4.450397"></trkpt>
      <trkpt lat="38.463551" lon="-4.445816"></trkpt>
      <trkpt lat="38.461619" lon="-4.444126"></trkpt>
      <trkpt lat="38.460463" lon="-4.443265"></trkpt>
      <trkpt lat="38.458585" lon="-4.442035"></trkpt>
      <trkpt lat="38.456417" lon="-4.440883"></trkpt>
      <trkpt lat="38.454196" lon="-4.439958"></trkpt>
      <trkpt lat="38.452342" lon="-4.43938"></trkpt>
      <trkpt lat="38.45007" lon="-4.438888"></trkpt>
      <trkpt lat="38.44779" lon="-4.438618"></trkpt>
      <trkpt lat="38.444244" lon="-4.438667"></trkpt>
      <trkpt lat="38.433231" lon="-4.440135"></trkpt>
      <trkpt lat="38.430406" lon="-4.440898"></trkpt>
      <trkpt lat="38.428153" lon="-4.441766"></trkpt>
      <trkpt lat="38.425982" lon="-4.442866"></trkpt>
      <trkpt lat="38.423359" lon="-4.444559"></trkpt>
      <trkpt lat="38.42147" lon="-4.446054"></trkpt>
      <trkpt lat="38.420043" lon="-4.447385"></trkpt>
      <trkpt lat="38.418257" lon="-4.449289"></trkpt>
      <trkpt lat="38.416633" lon="-4.451341"></trkpt>
      <trkpt lat="38.415102" lon="-4.453614"></trkpt>
      <trkpt lat="38.413392" lon="-4.456647"></trkpt>
      <trkpt lat="38.410994" lon="-4.461339"></trkpt>
      <trkpt lat="38.41017" lon="-4.462765"></trkpt>
      <trkpt lat="38.408435" lon="-4.46532"></trkpt>
      <trkpt lat="38.406775" lon="-4.467369"></trkpt>
      <trkpt lat="38.404352" lon="-4.469884"></trkpt>
      <trkpt lat="38.402241" lon="-4.471685"></trkpt>
      <trkpt lat="38.400835" lon="-4.472694"></trkpt>
      <trkpt lat="38.39758" lon="-4.474561"></trkpt>
      <trkpt lat="38.395885" lon="-4.475307"></trkpt>
      <trkpt lat="38.393611" lon="-4.476068"></trkpt>
      <trkpt lat="38.381109" lon="-4.478938"></trkpt>
      <trkpt lat="38.3731" lon="-4.480566"></trkpt>
      <trkpt lat="38.370445" lon="-4.481246"></trkpt>
      <trkpt lat="38.368055" lon="-4.482154"></trkpt>
      <trkpt lat="38.366696" lon="-4.482789"></trkpt>
      <trkpt lat="38.364117" lon="-4.48427"></trkpt>
      <trkpt lat="38.362093" lon="-4.48576"></trkpt>
      <trkpt lat="38.360614" lon="-4.486995"></trkpt>
      <trkpt lat="38.3535" lon="-4.493758"></trkpt>
      <trkpt lat="38.351465" lon="-4.496082"></trkpt>
      <trkpt lat="38.349498" lon="-4.498807"></trkpt>
      <trkpt lat="38.347778" lon="-4.501756"></trkpt>
      <trkpt lat="38.34628" lon="-4.504938"></trkpt>
      <trkpt lat="38.344577" lon="-4.509704"></trkpt>
      <trkpt lat="38.338048" lon="-4.531384"></trkpt>
      <trkpt lat="38.336553" lon="-4.535362"></trkpt>
      <trkpt lat="38.335457" lon="-4.537646"></trkpt>
      <trkpt lat="38.334328" lon="-4.53968"></trkpt>
      <trkpt lat="38.332853" lon="-4.541955"></trkpt>
      <trkpt lat="38.321681" lon="-4.557735"></trkpt>
      <trkpt lat="38.319473" lon="-4.560363"></trkpt>
      <trkpt lat="38.317031" lon="-4.562741"></trkpt>
      <trkpt lat="38.315554" lon="-4.563944"></trkpt>
      <trkpt lat="38.312963" lon="-4.565693"></trkpt>
      <trkpt lat="38.31088" lon="-4.566808"></trkpt>
      <trkpt lat="38.308673" lon="-4.567744"></trkpt>
      <trkpt lat="38.304714" lon="-4.568814"></trkpt>
      <trkpt lat="38.293108" lon="-4.570988"></trkpt>
      <trkpt lat="38.290575" lon="-4.571562"></trkpt>
      <trkpt lat="38.287353" lon="-4.572697"></trkpt>
      <trkpt lat="38.283644" lon="-4.574355"></trkpt>
      <trkpt lat="38.281652" lon="-4.575128"></trkpt>
      <trkpt lat="38.279851" lon="-4.575675"></trkpt>
      <trkpt lat="38.277762" lon="-4.576112"></trkpt>
      <trkpt lat="38.275426" lon="-4.576372"></trkpt>
      <trkpt lat="38.273317" lon="-4.576393"></trkpt>
      <trkpt lat="38.270827" lon="-4.576171"></trkpt>
      <trkpt lat="38.268502" lon="-4.575701"></trkpt>
      <trkpt lat="38.244575" lon="-4.567908"></trkpt>
      <trkpt lat="38.241916" lon="-4.566731"></trkpt>
      <trkpt lat="38.239941" lon="-4.565509"></trkpt>
      <trkpt lat="38.238104" lon="-4.564055"></trkpt>
      <trkpt lat="38.235897" lon="-4.561797"></trkpt>
      <trkpt lat="38.234519" lon="-4.559989"></trkpt>
      <trkpt lat="38.232958" lon="-4.557484"></trkpt>
      <trkpt lat="38.231447" lon="-4.554255"></trkpt>
      <trkpt lat="38.22784" lon="-4.544065"></trkpt>
      <trkpt lat="38.226801" lon="-4.541652"></trkpt>
      <trkpt lat="38.225587" lon="-4.539412"></trkpt>
      <trkpt lat="38.224365" lon="-4.53756"></trkpt>
      <trkpt lat="38.221977" lon="-4.534771"></trkpt>
      <trkpt lat="38.205958" lon="-4.52066"></trkpt>
      <trkpt lat="38.202391" lon="-4.517883"></trkpt>
      <trkpt lat="38.185732" lon="-4.50635"></trkpt>
      <trkpt lat="38.182969" lon="-4.505373"></trkpt>
      <trkpt lat="38.178953" lon="-4.504202"></trkpt>
      <trkpt lat="38.175627" lon="-4.50396"></trkpt>
      <trkpt lat="38.171355" lon="-4.504365"></trkpt>
      <trkpt lat="38.164232" lon="-4.506439"></trkpt>
      <trkpt lat="38.161291" lon="-4.507401"></trkpt>
      <trkpt lat="38.159283" lon="-4.508363"></trkpt>
      <trkpt lat="38.157658" lon="-4.50954"></trkpt>
      <trkpt lat="38.155841" lon="-4.511011"></trkpt>
      <trkpt lat="38.154351" lon="-4.512728"></trkpt>
      <trkpt lat="38.152025" lon="-4.514863"></trkpt>
      <trkpt lat="38.149694" lon="-4.516586"></trkpt>
      <trkpt lat="38.146571" lon="-4.518421"></trkpt>
      <trkpt lat="38.142666" lon="-4.519962"></trkpt>
      <trkpt lat="38.138605" lon="-4.520995"></trkpt>
      <trkpt lat="38.13658" lon="-4.521208"></trkpt>
      <trkpt lat="38.133743" lon="-4.521078"></trkpt>
      <trkpt lat="38.130848" lon="-4.520451"></trkpt>
      <trkpt lat="38.128137" lon="-4.519315"></trkpt>
      <trkpt lat="38.126016" lon="-4.518046"></trkpt>
      <trkpt lat="38.123659" lon="-4.516245"></trkpt>
      <trkpt lat="38.121047" lon="-4.513293"></trkpt>
      <trkpt lat="38.119952" lon="-4.511751"></trkpt>
      <trkpt lat="38.118933" lon="-4.510064"></trkpt>
      <trkpt lat="38.115754" lon="-4.503995"></trkpt>
      <trkpt lat="38.114274" lon="-4.501846"></trkpt>
      <trkpt lat="38.11181" lon="-4.499083"></trkpt>
      <trkpt lat="38.110509" lon="-4.49794"></trkpt>
      <trkpt lat="38.109202" lon="-4.496986"></trkpt>
      <trkpt lat="38.106864" lon="-4.495608"></trkpt>
      <trkpt lat="38.105317" lon="-4.494965"></trkpt>
      <trkpt lat="38.103587" lon="-4.494402"></trkpt>
      <trkpt lat="38.101551" lon="-4.493991"></trkpt>
      <trkpt lat="38.098679" lon="-4.493859"></trkpt>
      <trkpt lat="38.093365" lon="-4.494422"></trkpt>
      <trkpt lat="38.091284" lon="-4.494835"></trkpt>
      <trkpt lat="38.089507" lon="-4.495422"></trkpt>
      <trkpt lat="38.08527" lon="-4.497291"></trkpt>
      <trkpt lat="38.074022" lon="-4.502577"></trkpt>
      <trkpt lat="38.071976" lon="-4.503861"></trkpt>
      <trkpt lat="38.070228" lon="-4.505399"></trkpt>
      <trkpt lat="38.068493" lon="-4.507024"></trkpt>
      <trkpt lat="38.064532" lon="-4.511446"></trkpt>
      <trkpt lat="38.062505" lon="-4.513164"></trkpt>
      <trkpt lat="38.060279" lon="-4.514554"></trkpt>
      <trkpt lat="38.053857" lon="-4.517675"></trkpt>
      <trkpt lat="38.050508" lon="-4.519613"></trkpt>
      <trkpt lat="38.048" lon="-4.521757"></trkpt>
      <trkpt lat="38.04719" lon="-4.522625"></trkpt>
      <trkpt lat="38.045046" lon="-4.525335"></trkpt>
      <trkpt lat="38.043558" lon="-4.527842"></trkpt>
      <trkpt lat="38.042227" lon="-4.530734"></trkpt>
      <trkpt lat="38.04144" lon="-4.53299"></trkpt>
      <trkpt lat="38.040819" lon="-4.535368"></trkpt>
      <trkpt lat="38.039637" lon="-4.54187"></trkpt>
      <trkpt lat="38.039031" lon="-4.544197"></trkpt>
      <trkpt lat="38.038044" lon="-4.546963"></trkpt>
      <trkpt lat="38.03691" lon="-4.54938"></trkpt>
      <trkpt lat="38.03563" lon="-4.551546"></trkpt>
      <trkpt lat="38.033584" lon="-4.55424"></trkpt>
      <trkpt lat="38.032328" lon="-4.555562"></trkpt>
      <trkpt lat="38.029406" lon="-4.557933"></trkpt>
      <trkpt lat="38.026715" lon="-4.559446"></trkpt>
      <trkpt lat="38.023755" lon="-4.560545"></trkpt>
      <trkpt lat="38.002913" lon="-4.566933"></trkpt>
      <trkpt lat="37.998986" lon="-4.568625"></trkpt>
      <trkpt lat="37.990952" lon="-4.573372"></trkpt>
      <trkpt lat="37.987876" lon="-4.576095"></trkpt>
      <trkpt lat="37.986426" lon="-4.57784"></trkpt>
      <trkpt lat="37.98509" lon="-4.579707"></trkpt>
      <trkpt lat="37.983593" lon="-4.582168"></trkpt>
      <trkpt lat="37.982727" lon="-4.583838"></trkpt>
      <trkpt lat="37.980423" lon="-4.588867"></trkpt>
      <trkpt lat="37.978825" lon="-4.59202"></trkpt>
      <trkpt lat="37.976613" lon="-4.595459"></trkpt>
      <trkpt lat="37.974513" lon="-4.598079"></trkpt>
      <trkpt lat="37.972768" lon="-4.599894"></trkpt>
      <trkpt lat="37.96986" lon="-4.602327"></trkpt>
      <trkpt lat="37.968208" lon="-4.603462"></trkpt>
      <trkpt lat="37.962744" lon="-4.606625"></trkpt>
      <trkpt lat="37.959771" lon="-4.608758"></trkpt>
      <trkpt lat="37.958417" lon="-4.609959"></trkpt>
      <trkpt lat="37.956258" lon="-4.612196"></trkpt>
      <trkpt lat="37.953595" lon="-4.615672"></trkpt>
      <trkpt lat="37.951959" lon="-4.618345"></trkpt>
      <trkpt lat="37.950519" lon="-4.621239"></trkpt>
      <trkpt lat="37.949365" lon="-4.624074"></trkpt>
      <trkpt lat="37.947959" lon="-4.628823"></trkpt>
      <trkpt lat="37.946976" lon="-4.634232"></trkpt>
      <trkpt lat="37.946353" lon="-4.639095"></trkpt>
      <trkpt lat="37.945685" lon="-4.646993"></trkpt>
      <trkpt lat="37.945051" lon="-4.651384"></trkpt>
      <trkpt lat="37.944087" lon="-4.65556"></trkpt>
      <trkpt lat="37.942472" lon="-4.660294"></trkpt>
      <trkpt lat="37.937225" lon="-4.672725"></trkpt>
      <trkpt lat="37.935877" lon="-4.675422"></trkpt>
      <trkpt lat="37.933814" lon="-4.678565"></trkpt>
      <trkpt lat="37.928965" lon="-4.684099"></trkpt>
      <trkpt lat="37.927988" lon="-4.68546"></trkpt>
      <trkpt lat="37.92657" lon="-4.687847"></trkpt>
      <trkpt lat="37.925157" lon="-4.691121"></trkpt>
      <trkpt lat="37.922426" lon="-4.699368"></trkpt>
      <trkpt lat="37.923194" lon="-4.696409"></trkpt>
      <trkpt lat="37.925325" lon="-4.690093"></trkpt>
      <trkpt lat="37.92575" lon="-4.689054"></trkpt>
      <trkpt lat="37.926538" lon="-4.687596"></trkpt>
      <trkpt lat="37.923032" lon="-4.693405"></trkpt>
      <trkpt lat="37.922117" lon="-4.6954"></trkpt>
      <trkpt lat="37.921381" lon="-4.697472"></trkpt>
      <trkpt lat="37.919848" lon="-4.703074"></trkpt>
      <trkpt lat="37.919586" lon="-4.704857"></trkpt>
      <trkpt lat="37.919478" lon="-4.707639"></trkpt>
      <trkpt lat="37.919216" lon="-4.708933"></trkpt>
      <trkpt lat="37.918816" lon="-4.710057"></trkpt>
      <trkpt lat="37.918163" lon="-4.711165"></trkpt>
      <trkpt lat="37.917541" lon="-4.711918"></trkpt>
      <trkpt lat="37.914958" lon="-4.713988"></trkpt>
      <trkpt lat="37.914198" lon="-4.714735"></trkpt>
      <trkpt lat="37.913476" lon="-4.715762"></trkpt>
      <trkpt lat="37.912978" lon="-4.716792"></trkpt>
      <trkpt lat="37.912714" lon="-4.717622"></trkpt>
      <trkpt lat="37.912465" lon="-4.719193"></trkpt>
      <trkpt lat="37.913096" lon="-4.728134"></trkpt>
      <trkpt lat="37.912946" lon="-4.729857"></trkpt>
      <trkpt lat="37.912609" lon="-4.731292"></trkpt>
      <trkpt lat="37.912047" lon="-4.732707"></trkpt>
      <trkpt lat="37.905788" lon="-4.746117"></trkpt>
      <trkpt lat="37.905246" lon="-4.748003"></trkpt>
      <trkpt lat="37.903398" lon="-4.755731"></trkpt>
      <trkpt lat="37.902228" lon="-4.759137"></trkpt>
      <trkpt lat="37.890216" lon="-4.786454"></trkpt>
      <trkpt lat="37.879696" lon="-4.809775"></trkpt>
      <trkpt lat="37.876794" lon="-4.819065"></trkpt>
      <trkpt lat="37.875887" lon="-4.823054"></trkpt>
      <trkpt lat="37.873814" lon="-4.830071"></trkpt>
      <trkpt lat="37.873146" lon="-4.831673"></trkpt>
      <trkpt lat="37.872656" lon="-4.833266"></trkpt>
      <trkpt lat="37.871741" lon="-4.835374"></trkpt>
      <trkpt lat="37.869492" lon="-4.842889"></trkpt>
      <trkpt lat="37.868592" lon="-4.845312"></trkpt>
      <trkpt lat="37.858641" lon="-4.878642"></trkpt>
      <trkpt lat="37.857951" lon="-4.881101"></trkpt>
      <trkpt lat="37.857268" lon="-4.884147"></trkpt>
      <trkpt lat="37.856784" lon="-4.885604"></trkpt>
      <trkpt lat="37.855285" lon="-4.88899"></trkpt>
      <trkpt lat="37.854929" lon="-4.890025"></trkpt>
      <trkpt lat="37.853682" lon="-4.895173"></trkpt>
      <trkpt lat="37.850408" lon="-4.905611"></trkpt>
      <trkpt lat="37.839542" lon="-4.94243"></trkpt>
      <trkpt lat="37.836417" lon="-4.952343"></trkpt>
      <trkpt lat="37.8349" lon="-4.956071"></trkpt>
      <trkpt lat="37.833767" lon="-4.958357"></trkpt>
      <trkpt lat="37.827751" lon="-4.968446"></trkpt>
      <trkpt lat="37.82582" lon="-4.971984"></trkpt>
      <trkpt lat="37.82407" lon="-4.976021"></trkpt>
      <trkpt lat="37.822823" lon="-4.979681"></trkpt>
      <trkpt lat="37.821276" lon="-4.985297"></trkpt>
      <trkpt lat="37.82014" lon="-4.988382"></trkpt>
      <trkpt lat="37.818985" lon="-4.994294"></trkpt>
      <trkpt lat="37.817728" lon="-4.999213"></trkpt>
      <trkpt lat="37.816806" lon="-5.00209"></trkpt>
      <trkpt lat="37.815404" lon="-5.005398"></trkpt>
      <trkpt lat="37.813399" lon="-5.008973"></trkpt>
      <trkpt lat="37.808952" lon="-5.015229"></trkpt>
      <trkpt lat="37.808252" lon="-5.016598"></trkpt>
      <trkpt lat="37.806722" lon="-5.020207"></trkpt>
      <trkpt lat="37.803745" lon="-5.025011"></trkpt>
      <trkpt lat="37.80304" lon="-5.026657"></trkpt>
      <trkpt lat="37.80254" lon="-5.028211"></trkpt>
      <trkpt lat="37.802055" lon="-5.030621"></trkpt>
      <trkpt lat="37.801874" lon="-5.033178"></trkpt>
      <trkpt lat="37.802018" lon="-5.039545"></trkpt>
      <trkpt lat="37.802494" lon="-5.042594"></trkpt>
      <trkpt lat="37.803055" lon="-5.044482"></trkpt>
      <trkpt lat="37.804193" lon="-5.046994"></trkpt>
      <trkpt lat="37.805681" lon="-5.049256"></trkpt>
      <trkpt lat="37.808288" lon="-5.052354"></trkpt>
      <trkpt lat="37.808974" lon="-5.053742"></trkpt>
      <trkpt lat="37.809593" lon="-5.055592"></trkpt>
      <trkpt lat="37.809899" lon="-5.057081"></trkpt>
      <trkpt lat="37.80979" lon="-5.059955"></trkpt>
      <trkpt lat="37.809905" lon="-5.061348"></trkpt>
      <trkpt lat="37.812644" lon="-5.072328"></trkpt>
      <trkpt lat="37.812803" lon="-5.073692"></trkpt>
      <trkpt lat="37.812749" lon="-5.075006"></trkpt>
      <trkpt lat="37.812441" lon="-5.07638"></trkpt>
      <trkpt lat="37.812086" lon="-5.077336"></trkpt>
      <trkpt lat="37.808619" lon="-5.083299"></trkpt>
      <trkpt lat="37.808021" lon="-5.084533"></trkpt>
      <trkpt lat="37.807415" lon="-5.086548"></trkpt>
      <trkpt lat="37.806952" lon="-5.092636"></trkpt>
      <trkpt lat="37.806658" lon="-5.093853"></trkpt>
      <trkpt lat="37.804752" lon="-5.099507"></trkpt>
      <trkpt lat="37.804296" lon="-5.10176"></trkpt>
      <trkpt lat="37.803475" lon="-5.122157"></trkpt>
      <trkpt lat="37.802481" lon="-5.129866"></trkpt>
      <trkpt lat="37.80167" lon="-5.132525"></trkpt>
      <trkpt lat="37.800811" lon="-5.134171"></trkpt>
      <trkpt lat="37.799185" lon="-5.136859"></trkpt>
      <trkpt lat="37.798242" lon="-5.139674"></trkpt>
      <trkpt lat="37.794834" lon="-5.153233"></trkpt>
      <trkpt lat="37.789586" lon="-5.177194"></trkpt>
      <trkpt lat="37.788649" lon="-5.180995"></trkpt>
      <trkpt lat="37.787674" lon="-5.183197"></trkpt>
      <trkpt lat="37.784575" lon="-5.188938"></trkpt>
      <trkpt lat="37.779361" lon="-5.195211"></trkpt>
      <trkpt lat="37.778242" lon="-5.196702"></trkpt>
      <trkpt lat="37.777362" lon="-5.198154"></trkpt>
      <trkpt lat="37.776056" lon="-5.20089"></trkpt>
      <trkpt lat="37.767444" lon="-5.220912"></trkpt>
      <trkpt lat="37.766654" lon="-5.222315"></trkpt>
      <trkpt lat="37.765448" lon="-5.223839"></trkpt>
      <trkpt lat="37.763784" lon="-5.225214"></trkpt>
      <trkpt lat="37.733203" lon="-5.243228"></trkpt>
      <trkpt lat="37.732354" lon="-5.243895"></trkpt>
      <trkpt lat="37.731578" lon="-5.244735"></trkpt>
      <trkpt lat="37.730458" lon="-5.246546"></trkpt>
      <trkpt lat="37.729764" lon="-5.248595"></trkpt>
      <trkpt lat="37.729507" lon="-5.250273"></trkpt>
      <trkpt lat="37.727436" lon="-5.274162"></trkpt>
      <trkpt lat="37.727006" lon="-5.27638"></trkpt>
      <trkpt lat="37.725241" lon="-5.280386"></trkpt>
      <trkpt lat="37.724748" lon="-5.282092"></trkpt>
      <trkpt lat="37.72418" lon="-5.284825"></trkpt>
      <trkpt lat="37.723446" lon="-5.286616"></trkpt>
      <trkpt lat="37.722642" lon="-5.287731"></trkpt>
      <trkpt lat="37.720252" lon="-5.289783"></trkpt>
      <trkpt lat="37.719317" lon="-5.290843"></trkpt>
      <trkpt lat="37.718728" lon="-5.291796"></trkpt>
      <trkpt lat="37.716795" lon="-5.295955"></trkpt>
      <trkpt lat="37.71618" lon="-5.296987"></trkpt>
      <trkpt lat="37.713363" lon="-5.300192"></trkpt>
      <trkpt lat="37.712872" lon="-5.30111"></trkpt>
      <trkpt lat="37.712336" lon="-5.302873"></trkpt>
      <trkpt lat="37.712196" lon="-5.304471"></trkpt>
      <trkpt lat="37.712674" lon="-5.310238"></trkpt>
      <trkpt lat="37.712627" lon="-5.312061"></trkpt>
      <trkpt lat="37.712448" lon="-5.313519"></trkpt>
      <trkpt lat="37.711977" lon="-5.315532"></trkpt>
      <trkpt lat="37.708415" lon="-5.327606"></trkpt>
      <trkpt lat="37.70778" lon="-5.330066"></trkpt>
      <trkpt lat="37.707375" lon="-5.33305"></trkpt>
      <trkpt lat="37.707368" lon="-5.340375"></trkpt>
      <trkpt lat="37.707022" lon="-5.343491"></trkpt>
      <trkpt lat="37.706437" lon="-5.345768"></trkpt>
      <trkpt lat="37.704667" lon="-5.350074"></trkpt>
      <trkpt lat="37.704219" lon="-5.352172"></trkpt>
      <trkpt lat="37.704218" lon="-5.353951"></trkpt>
      <trkpt lat="37.704475" lon="-5.355435"></trkpt>
      <trkpt lat="37.70649" lon="-5.361601"></trkpt>
      <trkpt lat="37.707132" lon="-5.364504"></trkpt>
      <trkpt lat="37.707401" lon="-5.367236"></trkpt>
      <trkpt lat="37.707295" lon="-5.370721"></trkpt>
      <trkpt lat="37.706755" lon="-5.373843"></trkpt>
      <trkpt lat="37.705785" lon="-5.376987"></trkpt>
      <trkpt lat="37.704825" lon="-5.379063"></trkpt>
      <trkpt lat="37.702573" lon="-5.382714"></trkpt>
      <trkpt lat="37.701718" lon="-5.384377"></trkpt>
      <trkpt lat="37.701038" lon="-5.386042"></trkpt>
      <trkpt lat="37.700408" lon="-5.388334"></trkpt>
      <trkpt lat="37.700093" lon="-5.390152"></trkpt>
      <trkpt lat="37.699924" lon="-5.392421"></trkpt>
      <trkpt lat="37.700433" lon="-5.401393"></trkpt>
      <trkpt lat="37.700244" lon="-5.403459"></trkpt>
      <trkpt lat="37.699915" lon="-5.404892"></trkpt>
      <trkpt lat="37.68925" lon="-5.436761"></trkpt>
      <trkpt lat="37.68863" lon="-5.438255"></trkpt>
      <trkpt lat="37.684444" lon="-5.444613"></trkpt>
      <trkpt lat="37.677272" lon="-5.455117"></trkpt>
      <trkpt lat="37.67636" lon="-5.456822"></trkpt>
      <trkpt lat="37.675566" lon="-5.459256"></trkpt>
      <trkpt lat="37.675265" lon="-5.461349"></trkpt>
      <trkpt lat="37.675247" lon="-5.462598"></trkpt>
      <trkpt lat="37.675543" lon="-5.465093"></trkpt>
      <trkpt lat="37.678619" lon="-5.475047"></trkpt>
      <trkpt lat="37.679409" lon="-5.478208"></trkpt>
      <trkpt lat="37.679539" lon="-5.480221"></trkpt>
      <trkpt lat="37.67947" lon="-5.481893"></trkpt>
      <trkpt lat="37.679194" lon="-5.483677"></trkpt>
      <trkpt lat="37.678779" lon="-5.485108"></trkpt>
      <trkpt lat="37.678051" lon="-5.486857"></trkpt>
      <trkpt lat="37.664419" lon="-5.515905"></trkpt>
      <trkpt lat="37.663334" lon="-5.519693"></trkpt>
      <trkpt lat="37.661057" lon="-5.531985"></trkpt>
      <trkpt lat="37.660469" lon="-5.533984"></trkpt>
      <trkpt lat="37.659047" lon="-5.536989"></trkpt>
      <trkpt lat="37.657304" lon="-5.539491"></trkpt>
      <trkpt lat="37.646664" lon="-5.550785"></trkpt>
      <trkpt lat="37.645359" lon="-5.552389"></trkpt>
      <trkpt lat="37.643627" lon="-5.554898"></trkpt>
      <trkpt lat="37.642368" lon="-5.55712"></trkpt>
      <trkpt lat="37.641172" lon="-5.559593"></trkpt>
      <trkpt lat="37.633793" lon="-5.577255"></trkpt>
      <trkpt lat="37.632772" lon="-5.579333"></trkpt>
      <trkpt lat="37.630598" lon="-5.582812"></trkpt>
      <trkpt lat="37.628876" lon="-5.584956"></trkpt>
      <trkpt lat="37.627137" lon="-5.586837"></trkpt>
      <trkpt lat="37.613959" lon="-5.600026"></trkpt>
      <trkpt lat="37.612095" lon="-5.602386"></trkpt>
      <trkpt lat="37.586326" lon="-5.646579"></trkpt>
      <trkpt lat="37.584191" lon="-5.651145"></trkpt>
      <trkpt lat="37.583272" lon="-5.653514"></trkpt>
      <trkpt lat="37.581878" lon="-5.657865"></trkpt>
      <trkpt lat="37.58115" lon="-5.660732"></trkpt>
      <trkpt lat="37.580946" lon="-5.662243"></trkpt>
      <trkpt lat="37.580898" lon="-5.665161"></trkpt>
      <trkpt lat="37.581014" lon="-5.666423"></trkpt>
      <trkpt lat="37.58887" lon="-5.71815"></trkpt>
      <trkpt lat="37.589568" lon="-5.723641"></trkpt>
      <trkpt lat="37.589424" lon="-5.727179"></trkpt>
      <trkpt lat="37.588877" lon="-5.731723"></trkpt>
      <trkpt lat="37.568501" lon="-5.8349"></trkpt>
      <trkpt lat="37.56753" lon="-5.838852"></trkpt>
      <trkpt lat="37.566151" lon="-5.842461"></trkpt>
      <trkpt lat="37.564542" lon="-5.84556"></trkpt>
      <trkpt lat="37.5639" lon="-5.846589"></trkpt>
      <trkpt lat="37.562462" lon="-5.848541"></trkpt>
      <trkpt lat="37.560011" lon="-5.851374"></trkpt>
      <trkpt lat="37.473071" lon="-5.947467"></trkpt>
      <trkpt lat="37.47078" lon="-5.949715"></trkpt>
      <trkpt lat="37.4691" lon="-5.95107"></trkpt>
      <trkpt lat="37.452694" lon="-5.962093"></trkpt>
      <trkpt lat="37.451439" lon="-5.96275"></trkpt>
      <trkpt lat="37.450614" lon="-5.962969"></trkpt>
      <trkpt lat="37.449869" lon="-5.963013"></trkpt>
      <trkpt lat="37.448693" lon="-5.962812"></trkpt>
      <trkpt lat="37.447662" lon="-5.962369"></trkpt>
      <trkpt lat="37.434505" lon="-5.955231"></trkpt>
      <trkpt lat="37.432542" lon="-5.954209"></trkpt>
      <trkpt lat="37.431114" lon="-5.9536"></trkpt>
      <trkpt lat="37.422791" lon="-5.950466"></trkpt>
      <trkpt lat="37.421593" lon="-5.950389"></trkpt>
      <trkpt lat="37.420439" lon="-5.950645"></trkpt>
      <trkpt lat="37.41939" lon="-5.95118"></trkpt>
      <trkpt lat="37.415836" lon="-5.953816"></trkpt>
      <trkpt lat="37.413823" lon="-5.955679"></trkpt>
      <trkpt lat="37.411338" lon="-5.957081"></trkpt>
      <trkpt lat="37.41019" lon="-5.958296"></trkpt>
      <trkpt lat="37.408339" lon="-5.959336"></trkpt>
      <trkpt lat="37.407262" lon="-5.960161"></trkpt>
      <trkpt lat="37.402898" lon="-5.962849"></trkpt>
      <trkpt lat="37.400548" lon="-5.965679"></trkpt>
      <trkpt lat="37.39905" lon="-5.966596"></trkpt>
      <trkpt lat="37.397233" lon="-5.96863"></trkpt>
      <trkpt lat="37.396751" lon="-5.969254"></trkpt>
      <trkpt lat="37.395789" lon="-5.97093"></trkpt>
      <trkpt lat="37.391955" lon="-5.975722"></trkpt>
      <trkpt lat="37.390974" lon="-5.976529"></trkpt>
      <trkpt lat="37.389789" lon="-5.977028"></trkpt>
      <trkpt lat="37.391312" lon="-5.976701"></trkpt>
  </trkseg></trk>
</gpx>
