<?xml version="1.0" encoding="UTF-8"?>
<gpx version="1.1" creator="yatutbuv" xmlns="http://www.topografix.com/GPX/1/1">
  <trk><name>2016 Kyiv -&gt; Ivano-Frankivsk (707.5km)</name><trkseg>
      <trkpt lat="50.439847" lon="30.488627"></trkpt>
      <trkpt lat="50.440975" lon="30.487081"></trkpt>
      <trkpt lat="50.442339" lon="30.4858"></trkpt>
      <trkpt lat="50.444884" lon="30.482378"></trkpt>
      <trkpt lat="50.445712" lon="30.480411"></trkpt>
      <trkpt lat="50.446038" lon="30.478257"></trkpt>
      <trkpt lat="50.445954" lon="30.477015"></trkpt>
      <trkpt lat="50.445589" lon="30.475593"></trkpt>
      <trkpt lat="50.443673" lon="30.472007"></trkpt>
      <trkpt lat="50.443371" lon="30.471219"></trkpt>
      <trkpt lat="50.443099" lon="30.469991"></trkpt>
      <trkpt lat="50.442555" lon="30.466286"></trkpt>
      <trkpt lat="50.442157" lon="30.455154"></trkpt>
      <trkpt lat="50.441829" lon="30.453669"></trkpt>
      <trkpt lat="50.441322" lon="30.45236"></trkpt>
      <trkpt lat="50.440612" lon="30.451271"></trkpt>
      <trkpt lat="50.439862" lon="30.450582"></trkpt>
      <trkpt lat="50.435807" lon="30.447944"></trkpt>
      <trkpt lat="50.433145" lon="30.445939"></trkpt>
      <trkpt lat="50.416237" lon="30.434876"></trkpt>
      <trkpt lat="50.412238" lon="30.431839"></trkpt>
      <trkpt lat="50.405406" lon="30.42732"></trkpt>
      <trkpt lat="50.404088" lon="30.426322"></trkpt>
      <trkpt lat="50.403219" lon="30.42549"></trkpt>
      <trkpt lat="50.40109" lon="30.423194"></trkpt>
      <trkpt lat="50.399955" lon="30.421558"></trkpt>
      <trkpt lat="50.398881" lon="30.41971"></trkpt>
      <trkpt lat="50.397738" lon="30.417328"></trkpt>
      <trkpt lat="50.396338" lon="30.413561"></trkpt>
      <trkpt lat="50.376961" lon="30.341941"></trkpt>
      <trkpt lat="50.375521" lon="30.337582"></trkpt>
      <trkpt lat="50.374135" lon="30.334561"></trkpt>
      <trkpt lat="50.373258" lon="30.332945"></trkpt>
      <trkpt lat="50.371287" lon="30.330048"></trkpt>
      <trkpt lat="50.349848" lon="30.306854"></trkpt>
      <trkpt lat="50.34697" lon="30.304344"></trkpt>
      <trkpt lat="50.34454" lon="30.302721"></trkpt>
      <trkpt lat="50.341925" lon="30.30143"></trkpt>
      <trkpt lat="50.339454" lon="30.300593"></trkpt>
      <trkpt lat="50.338215" lon="30.300314"></trkpt>
      <trkpt lat="50.336974" lon="30.300104"></trkpt>
      <trkpt lat="50.33296" lon="30.299848"></trkpt>
      <trkpt lat="50.316358" lon="30.298921"></trkpt>
      <trkpt lat="50.308086" lon="30.298579"></trkpt>
      <trkpt lat="50.306999" lon="30.298673"></trkpt>
      <trkpt lat="50.303122" lon="30.299416"></trkpt>
      <trkpt lat="50.301374" lon="30.299991"></trkpt>
      <trkpt lat="50.28706" lon="30.306417"></trkpt>
      <trkpt lat="50.268603" lon="30.314914"></trkpt>
      <trkpt lat="50.267721" lon="30.315217"></trkpt>
      <trkpt lat="50.266831" lon="30.315405"></trkpt>
      <trkpt lat="50.264942" lon="30.315357"></trkpt>
      <trkpt lat="50.262884" lon="30.314659"></trkpt>
      <trkpt lat="50.261874" lon="30.313982"></trkpt>
      <trkpt lat="50.26096" lon="30.313197"></trkpt>
      <trkpt lat="50.260036" lon="30.312178"></trkpt>
      <trkpt lat="50.259183" lon="30.310999"></trkpt>
      <trkpt lat="50.258212" lon="30.309152"></trkpt>
      <trkpt lat="50.257545" lon="30.307518"></trkpt>
      <trkpt lat="50.248558" lon="30.283792"></trkpt>
      <trkpt lat="50.216935" lon="30.202672"></trkpt>
      <trkpt lat="50.216265" lon="30.20064"></trkpt>
      <trkpt lat="50.207205" lon="30.168351"></trkpt>
      <trkpt lat="50.206548" lon="30.166427"></trkpt>
      <trkpt lat="50.187106" lon="30.117739"></trkpt>
      <trkpt lat="50.184581" lon="30.111847"></trkpt>
      <trkpt lat="50.181908" lon="30.105185"></trkpt>
      <trkpt lat="50.176878" lon="30.092214"></trkpt>
      <trkpt lat="50.171006" lon="30.077649"></trkpt>
      <trkpt lat="50.170212" lon="30.07516"></trkpt>
      <trkpt lat="50.164405" lon="30.050001"></trkpt>
      <trkpt lat="50.163986" lon="30.04858"></trkpt>
      <trkpt lat="50.162915" lon="30.046188"></trkpt>
      <trkpt lat="50.161948" lon="30.044598"></trkpt>
      <trkpt lat="50.16103" lon="30.04347"></trkpt>
      <trkpt lat="50.122562" lon="29.997878"></trkpt>
      <trkpt lat="50.112223" lon="29.98332"></trkpt>
      <trkpt lat="50.109782" lon="29.980056"></trkpt>
      <trkpt lat="50.105125" lon="29.973332"></trkpt>
      <trkpt lat="50.103189" lon="29.970755"></trkpt>
      <trkpt lat="50.102058" lon="29.968902"></trkpt>
      <trkpt lat="50.101556" lon="29.967787"></trkpt>
      <trkpt lat="50.092434" lon="29.944993"></trkpt>
      <trkpt lat="50.091836" lon="29.943739"></trkpt>
      <trkpt lat="50.090962" lon="29.942325"></trkpt>
      <trkpt lat="50.089879" lon="29.940987"></trkpt>
      <trkpt lat="50.056125" lon="29.90634"></trkpt>
      <trkpt lat="50.042325" lon="29.892327"></trkpt>
      <trkpt lat="50.041315" lon="29.891148"></trkpt>
      <trkpt lat="50.040153" lon="29.889317"></trkpt>
      <trkpt lat="50.035275" lon="29.880224"></trkpt>
      <trkpt lat="50.015653" lon="29.843291"></trkpt>
      <trkpt lat="50.010505" lon="29.833801"></trkpt>
      <trkpt lat="50.009454" lon="29.831567"></trkpt>
      <trkpt lat="50.007407" lon="29.826005"></trkpt>
      <trkpt lat="49.985174" lon="29.756963"></trkpt>
      <trkpt lat="49.983959" lon="29.751478"></trkpt>
      <trkpt lat="49.960188" lon="29.575956"></trkpt>
      <trkpt lat="49.940859" lon="29.434413"></trkpt>
      <trkpt lat="49.940552" lon="29.430434"></trkpt>
      <trkpt lat="49.940452" lon="29.426359"></trkpt>
      <trkpt lat="49.940584" lon="29.422708"></trkpt>
      <trkpt lat="49.940873" lon="29.419341"></trkpt>
      <trkpt lat="49.951292" lon="29.341614"></trkpt>
      <trkpt lat="49.957699" lon="29.306114"></trkpt>
      <trkpt lat="49.957909" lon="29.302977"></trkpt>
      <trkpt lat="49.957855" lon="29.300253"></trkpt>
      <trkpt lat="49.957538" lon="29.297448"></trkpt>
      <trkpt lat="49.95689" lon="29.294407"></trkpt>
      <trkpt lat="49.956021" lon="29.291748"></trkpt>
      <trkpt lat="49.936153" lon="29.240002"></trkpt>
      <trkpt lat="49.923548" lon="29.209783"></trkpt>
      <trkpt lat="49.922784" lon="29.207546"></trkpt>
      <trkpt lat="49.907866" lon="29.157894"></trkpt>
      <trkpt lat="49.884547" lon="29.094856"></trkpt>
      <trkpt lat="49.868616" lon="29.059487"></trkpt>
      <trkpt lat="49.866511" lon="29.056065"></trkpt>
      <trkpt lat="49.846793" lon="29.029617"></trkpt>
      <trkpt lat="49.845069" lon="29.026947"></trkpt>
      <trkpt lat="49.839804" lon="29.019904"></trkpt>
      <trkpt lat="49.839038" lon="29.019076"></trkpt>
      <trkpt lat="49.792126" lon="28.956294"></trkpt>
      <trkpt lat="49.747886" lon="28.890617"></trkpt>
      <trkpt lat="49.746569" lon="28.888358"></trkpt>
      <trkpt lat="49.746136" lon="28.886923"></trkpt>
      <trkpt lat="49.746018" lon="28.886091"></trkpt>
      <trkpt lat="49.746007" lon="28.884797"></trkpt>
      <trkpt lat="49.74627" lon="28.881923"></trkpt>
      <trkpt lat="49.746053" lon="28.880032"></trkpt>
      <trkpt lat="49.745679" lon="28.878882"></trkpt>
      <trkpt lat="49.743135" lon="28.872807"></trkpt>
      <trkpt lat="49.742601" lon="28.870872"></trkpt>
      <trkpt lat="49.742074" lon="28.851482"></trkpt>
      <trkpt lat="49.742174" lon="28.849104"></trkpt>
      <trkpt lat="49.742608" lon="28.846537"></trkpt>
      <trkpt lat="49.746678" lon="28.832345"></trkpt>
      <trkpt lat="49.746871" lon="28.831121"></trkpt>
      <trkpt lat="49.74685" lon="28.829481"></trkpt>
      <trkpt lat="49.746556" lon="28.828031"></trkpt>
      <trkpt lat="49.746033" lon="28.826804"></trkpt>
      <trkpt lat="49.736795" lon="28.808944"></trkpt>
      <trkpt lat="49.736481" lon="28.808067"></trkpt>
      <trkpt lat="49.73623" lon="28.806792"></trkpt>
      <trkpt lat="49.736208" lon="28.804926"></trkpt>
      <trkpt lat="49.736518" lon="28.803425"></trkpt>
      <trkpt lat="49.737025" lon="28.802226"></trkpt>
      <trkpt lat="49.73796" lon="28.8009"></trkpt>
      <trkpt lat="49.739376" lon="28.79962"></trkpt>
      <trkpt lat="49.740342" lon="28.799106"></trkpt>
      <trkpt lat="49.741455" lon="28.798943"></trkpt>
      <trkpt lat="49.743875" lon="28.799109"></trkpt>
      <trkpt lat="49.744911" lon="28.798754"></trkpt>
      <trkpt lat="49.745986" lon="28.797894"></trkpt>
      <trkpt lat="49.748793" lon="28.794249"></trkpt>
      <trkpt lat="49.749735" lon="28.793226"></trkpt>
      <trkpt lat="49.751289" lon="28.790949"></trkpt>
      <trkpt lat="49.756306" lon="28.784974"></trkpt>
      <trkpt lat="49.75767" lon="28.783182"></trkpt>
      <trkpt lat="49.760205" lon="28.77906"></trkpt>
      <trkpt lat="49.76499" lon="28.774365"></trkpt>
      <trkpt lat="49.766509" lon="28.772549"></trkpt>
      <trkpt lat="49.767636" lon="28.770966"></trkpt>
      <trkpt lat="49.76879" lon="28.769081"></trkpt>
      <trkpt lat="49.770263" lon="28.766061"></trkpt>
      <trkpt lat="49.781028" lon="28.740508"></trkpt>
      <trkpt lat="49.783038" lon="28.737056"></trkpt>
      <trkpt lat="49.785234" lon="28.734294"></trkpt>
      <trkpt lat="49.786712" lon="28.732861"></trkpt>
      <trkpt lat="49.788695" lon="28.731318"></trkpt>
      <trkpt lat="49.83851" lon="28.698464"></trkpt>
      <trkpt lat="49.840474" lon="28.696988"></trkpt>
      <trkpt lat="49.842029" lon="28.695466"></trkpt>
      <trkpt lat="49.84369" lon="28.693426"></trkpt>
      <trkpt lat="49.857168" lon="28.673915"></trkpt>
      <trkpt lat="49.869132" lon="28.659007"></trkpt>
      <trkpt lat="49.870016" lon="28.657462"></trkpt>
      <trkpt lat="49.870989" lon="28.655024"></trkpt>
      <trkpt lat="49.873823" lon="28.643422"></trkpt>
      <trkpt lat="49.874371" lon="28.641562"></trkpt>
      <trkpt lat="49.875287" lon="28.639143"></trkpt>
      <trkpt lat="49.876471" lon="28.636793"></trkpt>
      <trkpt lat="49.880864" lon="28.628848"></trkpt>
      <trkpt lat="49.882277" lon="28.626549"></trkpt>
      <trkpt lat="49.887044" lon="28.617853"></trkpt>
      <trkpt lat="49.88789" lon="28.616728"></trkpt>
      <trkpt lat="49.890565" lon="28.611914"></trkpt>
      <trkpt lat="49.892277" lon="28.609405"></trkpt>
      <trkpt lat="49.893169" lon="28.608573"></trkpt>
      <trkpt lat="49.894107" lon="28.608007"></trkpt>
      <trkpt lat="49.894883" lon="28.60771"></trkpt>
      <trkpt lat="49.897433" lon="28.607137"></trkpt>
      <trkpt lat="49.898359" lon="28.606608"></trkpt>
      <trkpt lat="49.899426" lon="28.605612"></trkpt>
      <trkpt lat="49.900416" lon="28.604137"></trkpt>
      <trkpt lat="49.904292" lon="28.596051"></trkpt>
      <trkpt lat="49.906331" lon="28.590111"></trkpt>
      <trkpt lat="49.907652" lon="28.586808"></trkpt>
      <trkpt lat="49.915291" lon="28.570357"></trkpt>
      <trkpt lat="49.916911" lon="28.567336"></trkpt>
      <trkpt lat="49.920558" lon="28.562227"></trkpt>
      <trkpt lat="49.921687" lon="28.560401"></trkpt>
      <trkpt lat="49.922717" lon="28.55795"></trkpt>
      <trkpt lat="49.924828" lon="28.550829"></trkpt>
      <trkpt lat="49.92578" lon="28.548382"></trkpt>
      <trkpt lat="49.926731" lon="28.546653"></trkpt>
      <trkpt lat="49.929756" lon="28.542216"></trkpt>
      <trkpt lat="49.931714" lon="28.538441"></trkpt>
      <trkpt lat="49.939023" lon="28.518417"></trkpt>
      <trkpt lat="49.939613" lon="28.517049"></trkpt>
      <trkpt lat="49.94023" lon="28.51603"></trkpt>
      <trkpt lat="49.941341" lon="28.514816"></trkpt>
      <trkpt lat="49.948717" lon="28.509674"></trkpt>
      <trkpt lat="49.949626" lon="28.508882"></trkpt>
      <trkpt lat="49.950785" lon="28.507244"></trkpt>
      <trkpt lat="49.951538" lon="28.505436"></trkpt>
      <trkpt lat="49.951913" lon="28.503926"></trkpt>
      <trkpt lat="49.952921" lon="28.496956"></trkpt>
      <trkpt lat="49.955507" lon="28.486697"></trkpt>
      <trkpt lat="49.955706" lon="28.485009"></trkpt>
      <trkpt lat="49.955723" lon="28.483578"></trkpt>
      <trkpt lat="49.955469" lon="28.481558"></trkpt>
      <trkpt lat="49.954362" lon="28.476137"></trkpt>
      <trkpt lat="49.953921" lon="28.472893"></trkpt>
      <trkpt lat="49.952105" lon="28.449762"></trkpt>
      <trkpt lat="49.94783" lon="28.423217"></trkpt>
      <trkpt lat="49.947549" lon="28.42097"></trkpt>
      <trkpt lat="49.94738" lon="28.41868"></trkpt>
      <trkpt lat="49.947331" lon="28.415317"></trkpt>
      <trkpt lat="49.947863" lon="28.403872"></trkpt>
      <trkpt lat="49.948065" lon="28.40203"></trkpt>
      <trkpt lat="49.948731" lon="28.399703"></trkpt>
      <trkpt lat="49.949497" lon="28.398242"></trkpt>
      <trkpt lat="49.95004" lon="28.397474"></trkpt>
      <trkpt lat="49.952985" lon="28.394257"></trkpt>
      <trkpt lat="49.953923" lon="28.392792"></trkpt>
      <trkpt lat="49.954674" lon="28.391087"></trkpt>
      <trkpt lat="49.955318" lon="28.3888"></trkpt>
      <trkpt lat="49.95851" lon="28.371204"></trkpt>
      <trkpt lat="49.961269" lon="28.344724"></trkpt>
      <trkpt lat="49.961678" lon="28.341999"></trkpt>
      <trkpt lat="49.962262" lon="28.339346"></trkpt>
      <trkpt lat="49.96988" lon="28.312642"></trkpt>
      <trkpt lat="49.970484" lon="28.31006"></trkpt>
      <trkpt lat="49.970926" lon="28.305371"></trkpt>
      <trkpt lat="49.971586" lon="28.28953"></trkpt>
      <trkpt lat="49.971924" lon="28.286168"></trkpt>
      <trkpt lat="49.972525" lon="28.282116"></trkpt>
      <trkpt lat="49.975998" lon="28.263625"></trkpt>
      <trkpt lat="49.976927" lon="28.259709"></trkpt>
      <trkpt lat="49.978194" lon="28.256015"></trkpt>
      <trkpt lat="50.015574" lon="28.16846"></trkpt>
      <trkpt lat="50.016457" lon="28.165665"></trkpt>
      <trkpt lat="50.016969" lon="28.162251"></trkpt>
      <trkpt lat="50.021438" lon="28.117586"></trkpt>
      <trkpt lat="50.02382" lon="28.103224"></trkpt>
      <trkpt lat="50.023944" lon="28.101143"></trkpt>
      <trkpt lat="50.023877" lon="28.0844"></trkpt>
      <trkpt lat="50.023984" lon="28.081205"></trkpt>
      <trkpt lat="50.024461" lon="28.077084"></trkpt>
      <trkpt lat="50.026342" lon="28.067101"></trkpt>
      <trkpt lat="50.027263" lon="28.063505"></trkpt>
      <trkpt lat="50.02804" lon="28.061244"></trkpt>
      <trkpt lat="50.029033" lon="28.058852"></trkpt>
      <trkpt lat="50.039699" lon="28.038113"></trkpt>
      <trkpt lat="50.040704" lon="28.03584"></trkpt>
      <trkpt lat="50.041334" lon="28.033646"></trkpt>
      <trkpt lat="50.041667" lon="28.031839"></trkpt>
      <trkpt lat="50.0441" lon="28.013325"></trkpt>
      <trkpt lat="50.044547" lon="28.010776"></trkpt>
      <trkpt lat="50.045542" lon="28.007645"></trkpt>
      <trkpt lat="50.050906" lon="27.994314"></trkpt>
      <trkpt lat="50.051547" lon="27.992098"></trkpt>
      <trkpt lat="50.051803" lon="27.989467"></trkpt>
      <trkpt lat="50.054551" lon="27.904636"></trkpt>
      <trkpt lat="50.054806" lon="27.902026"></trkpt>
      <trkpt lat="50.055289" lon="27.899797"></trkpt>
      <trkpt lat="50.069506" lon="27.847265"></trkpt>
      <trkpt lat="50.07045" lon="27.842985"></trkpt>
      <trkpt lat="50.077007" lon="27.788523"></trkpt>
      <trkpt lat="50.088486" lon="27.691372"></trkpt>
      <trkpt lat="50.088822" lon="27.690087"></trkpt>
      <trkpt lat="50.089303" lon="27.688887"></trkpt>
      <trkpt lat="50.090034" lon="27.687647"></trkpt>
      <trkpt lat="50.090813" lon="27.686768"></trkpt>
      <trkpt lat="50.093633" lon="27.684828"></trkpt>
      <trkpt lat="50.097405" lon="27.682695"></trkpt>
      <trkpt lat="50.098798" lon="27.681394"></trkpt>
      <trkpt lat="50.099523" lon="27.680261"></trkpt>
      <trkpt lat="50.10007" lon="27.679058"></trkpt>
      <trkpt lat="50.100508" lon="27.677577"></trkpt>
      <trkpt lat="50.100772" lon="27.67611"></trkpt>
      <trkpt lat="50.100853" lon="27.67438"></trkpt>
      <trkpt lat="50.100714" lon="27.672677"></trkpt>
      <trkpt lat="50.096514" lon="27.644383"></trkpt>
      <trkpt lat="50.096388" lon="27.640734"></trkpt>
      <trkpt lat="50.096603" lon="27.638508"></trkpt>
      <trkpt lat="50.096938" lon="27.636706"></trkpt>
      <trkpt lat="50.11158" lon="27.571373"></trkpt>
      <trkpt lat="50.112362" lon="27.568394"></trkpt>
      <trkpt lat="50.112997" lon="27.566463"></trkpt>
      <trkpt lat="50.114028" lon="27.56388"></trkpt>
      <trkpt lat="50.115608" lon="27.56084"></trkpt>
      <trkpt lat="50.137112" lon="27.526451"></trkpt>
      <trkpt lat="50.138176" lon="27.524407"></trkpt>
      <trkpt lat="50.139336" lon="27.52168"></trkpt>
      <trkpt lat="50.142691" lon="27.512162"></trkpt>
      <trkpt lat="50.143071" lon="27.510589"></trkpt>
      <trkpt lat="50.143207" lon="27.507047"></trkpt>
      <trkpt lat="50.14305" lon="27.504484"></trkpt>
      <trkpt lat="50.135626" lon="27.468693"></trkpt>
      <trkpt lat="50.128251" lon="27.42134"></trkpt>
      <trkpt lat="50.127684" lon="27.416194"></trkpt>
      <trkpt lat="50.127614" lon="27.413834"></trkpt>
      <trkpt lat="50.127688" lon="27.411282"></trkpt>
      <trkpt lat="50.127918" lon="27.408244"></trkpt>
      <trkpt lat="50.128529" lon="27.404551"></trkpt>
      <trkpt lat="50.135104" lon="27.372619"></trkpt>
      <trkpt lat="50.135443" lon="27.370403"></trkpt>
      <trkpt lat="50.137022" lon="27.351062"></trkpt>
      <trkpt lat="50.137375" lon="27.348598"></trkpt>
      <trkpt lat="50.1401" lon="27.334529"></trkpt>
      <trkpt lat="50.140636" lon="27.331299"></trkpt>
      <trkpt lat="50.149544" lon="27.249747"></trkpt>
      <trkpt lat="50.150542" lon="27.244989"></trkpt>
      <trkpt lat="50.153084" lon="27.236128"></trkpt>
      <trkpt lat="50.153526" lon="27.234262"></trkpt>
      <trkpt lat="50.15976" lon="27.200375"></trkpt>
      <trkpt lat="50.160485" lon="27.197678"></trkpt>
      <trkpt lat="50.187775" lon="27.107554"></trkpt>
      <trkpt lat="50.193335" lon="27.084911"></trkpt>
      <trkpt lat="50.196803" lon="27.071312"></trkpt>
      <trkpt lat="50.19884" lon="27.06513"></trkpt>
      <trkpt lat="50.199986" lon="27.06078"></trkpt>
      <trkpt lat="50.201454" lon="27.054714"></trkpt>
      <trkpt lat="50.202506" lon="27.048685"></trkpt>
      <trkpt lat="50.20298" lon="27.046986"></trkpt>
      <trkpt lat="50.204076" lon="27.043916"></trkpt>
      <trkpt lat="50.205047" lon="27.040701"></trkpt>
      <trkpt lat="50.206322" lon="27.037775"></trkpt>
      <trkpt lat="50.220396" lon="27.008716"></trkpt>
      <trkpt lat="50.222026" lon="27.005998"></trkpt>
      <trkpt lat="50.26972" lon="26.935339"></trkpt>
      <trkpt lat="50.271676" lon="26.932451"></trkpt>
      <trkpt lat="50.272865" lon="26.931064"></trkpt>
      <trkpt lat="50.274434" lon="26.929495"></trkpt>
      <trkpt lat="50.27609" lon="26.928176"></trkpt>
      <trkpt lat="50.278458" lon="26.926822"></trkpt>
      <trkpt lat="50.27945" lon="26.926396"></trkpt>
      <trkpt lat="50.305512" lon="26.919182"></trkpt>
      <trkpt lat="50.306729" lon="26.918775"></trkpt>
      <trkpt lat="50.308473" lon="26.917979"></trkpt>
      <trkpt lat="50.309925" lon="26.917108"></trkpt>
      <trkpt lat="50.311392" lon="26.915949"></trkpt>
      <trkpt lat="50.313357" lon="26.913934"></trkpt>
      <trkpt lat="50.315106" lon="26.911368"></trkpt>
      <trkpt lat="50.316589" lon="26.908336"></trkpt>
      <trkpt lat="50.317737" lon="26.904804"></trkpt>
      <trkpt lat="50.318465" lon="26.901253"></trkpt>
      <trkpt lat="50.327595" lon="26.837945"></trkpt>
      <trkpt lat="50.328203" lon="26.834644"></trkpt>
      <trkpt lat="50.328856" lon="26.832119"></trkpt>
      <trkpt lat="50.329963" lon="26.828889"></trkpt>
      <trkpt lat="50.337063" lon="26.81256"></trkpt>
      <trkpt lat="50.337978" lon="26.809451"></trkpt>
      <trkpt lat="50.341538" lon="26.793253"></trkpt>
      <trkpt lat="50.342384" lon="26.790031"></trkpt>
      <trkpt lat="50.343151" lon="26.787781"></trkpt>
      <trkpt lat="50.349015" lon="26.773568"></trkpt>
      <trkpt lat="50.349518" lon="26.771824"></trkpt>
      <trkpt lat="50.349733" lon="26.770331"></trkpt>
      <trkpt lat="50.349802" lon="26.768386"></trkpt>
      <trkpt lat="50.349011" lon="26.761977"></trkpt>
      <trkpt lat="50.349027" lon="26.759994"></trkpt>
      <trkpt lat="50.349232" lon="26.758383"></trkpt>
      <trkpt lat="50.360144" lon="26.707318"></trkpt>
      <trkpt lat="50.362859" lon="26.695583"></trkpt>
      <trkpt lat="50.382186" lon="26.606803"></trkpt>
      <trkpt lat="50.38307" lon="26.604331"></trkpt>
      <trkpt lat="50.38482" lon="26.600783"></trkpt>
      <trkpt lat="50.38605" lon="26.598611"></trkpt>
      <trkpt lat="50.389347" lon="26.594141"></trkpt>
      <trkpt lat="50.390057" lon="26.593367"></trkpt>
      <trkpt lat="50.390758" lon="26.59283"></trkpt>
      <trkpt lat="50.393637" lon="26.591249"></trkpt>
      <trkpt lat="50.394448" lon="26.590529"></trkpt>
      <trkpt lat="50.395203" lon="26.58952"></trkpt>
      <trkpt lat="50.395852" lon="26.588326"></trkpt>
      <trkpt lat="50.398003" lon="26.583123"></trkpt>
      <trkpt lat="50.398824" lon="26.5816"></trkpt>
      <trkpt lat="50.399787" lon="26.580456"></trkpt>
      <trkpt lat="50.405092" lon="26.575443"></trkpt>
      <trkpt lat="50.406164" lon="26.574188"></trkpt>
      <trkpt lat="50.407063" lon="26.572775"></trkpt>
      <trkpt lat="50.417242" lon="26.553318"></trkpt>
      <trkpt lat="50.419086" lon="26.549321"></trkpt>
      <trkpt lat="50.42055" lon="26.545216"></trkpt>
      <trkpt lat="50.423104" lon="26.535676"></trkpt>
      <trkpt lat="50.4237" lon="26.533967"></trkpt>
      <trkpt lat="50.42464" lon="26.532285"></trkpt>
      <trkpt lat="50.427361" lon="26.528608"></trkpt>
      <trkpt lat="50.428328" lon="26.526918"></trkpt>
      <trkpt lat="50.4288" lon="26.525738"></trkpt>
      <trkpt lat="50.429352" lon="26.523929"></trkpt>
      <trkpt lat="50.439023" lon="26.486614"></trkpt>
      <trkpt lat="50.439471" lon="26.484171"></trkpt>
      <trkpt lat="50.43974" lon="26.481955"></trkpt>
      <trkpt lat="50.439799" lon="26.480391"></trkpt>
      <trkpt lat="50.439374" lon="26.472562"></trkpt>
      <trkpt lat="50.438781" lon="26.468585"></trkpt>
      <trkpt lat="50.436787" lon="26.459179"></trkpt>
      <trkpt lat="50.436606" lon="26.457331"></trkpt>
      <trkpt lat="50.436662" lon="26.455645"></trkpt>
      <trkpt lat="50.436988" lon="26.45369"></trkpt>
      <trkpt lat="50.437699" lon="26.451631"></trkpt>
      <trkpt lat="50.438411" lon="26.45038"></trkpt>
      <trkpt lat="50.441189" lon="26.44615"></trkpt>
      <trkpt lat="50.441865" lon="26.444768"></trkpt>
      <trkpt lat="50.442352" lon="26.443252"></trkpt>
      <trkpt lat="50.442688" lon="26.441233"></trkpt>
      <trkpt lat="50.442735" lon="26.440187"></trkpt>
      <trkpt lat="50.442327" lon="26.433787"></trkpt>
      <trkpt lat="50.442517" lon="26.431179"></trkpt>
      <trkpt lat="50.443152" lon="26.428844"></trkpt>
      <trkpt lat="50.446952" lon="26.41811"></trkpt>
      <trkpt lat="50.447868" lon="26.415012"></trkpt>
      <trkpt lat="50.448175" lon="26.413539"></trkpt>
      <trkpt lat="50.448705" lon="26.409663"></trkpt>
      <trkpt lat="50.44926" lon="26.398952"></trkpt>
      <trkpt lat="50.449761" lon="26.396211"></trkpt>
      <trkpt lat="50.450556" lon="26.394261"></trkpt>
      <trkpt lat="50.453689" lon="26.388604"></trkpt>
      <trkpt lat="50.454389" lon="26.386791"></trkpt>
      <trkpt lat="50.45518" lon="26.38405"></trkpt>
      <trkpt lat="50.456102" lon="26.378543"></trkpt>
      <trkpt lat="50.456742" lon="26.375914"></trkpt>
      <trkpt lat="50.478368" lon="26.31191"></trkpt>
      <trkpt lat="50.479054" lon="26.31053"></trkpt>
      <trkpt lat="50.479986" lon="26.309034"></trkpt>
      <trkpt lat="50.48763" lon="26.299562"></trkpt>
      <trkpt lat="50.496783" lon="26.287414"></trkpt>
      <trkpt lat="50.497968" lon="26.285217"></trkpt>
      <trkpt lat="50.499204" lon="26.282093"></trkpt>
      <trkpt lat="50.500063" lon="26.280276"></trkpt>
      <trkpt lat="50.501202" lon="26.278543"></trkpt>
      <trkpt lat="50.503602" lon="26.27539"></trkpt>
      <trkpt lat="50.505903" lon="26.271964"></trkpt>
      <trkpt lat="50.506797" lon="26.270106"></trkpt>
      <trkpt lat="50.508801" lon="26.265238"></trkpt>
      <trkpt lat="50.511532" lon="26.260594"></trkpt>
      <trkpt lat="50.512245" lon="26.258838"></trkpt>
      <trkpt lat="50.513043" lon="26.256002"></trkpt>
      <trkpt lat="50.513886" lon="26.250688"></trkpt>
      <trkpt lat="50.514553" lon="26.244677"></trkpt>
      <trkpt lat="50.516907" lon="26.235215"></trkpt>
      <trkpt lat="50.517169" lon="26.232927"></trkpt>
      <trkpt lat="50.517132" lon="26.23129"></trkpt>
      <trkpt lat="50.516868" lon="26.229537"></trkpt>
      <trkpt lat="50.514865" lon="26.22328"></trkpt>
      <trkpt lat="50.514446" lon="26.221451"></trkpt>
      <trkpt lat="50.51428" lon="26.219641"></trkpt>
      <trkpt lat="50.513838" lon="26.20829"></trkpt>
      <trkpt lat="50.51357" lon="26.206002"></trkpt>
      <trkpt lat="50.509199" lon="26.188472"></trkpt>
      <trkpt lat="50.50878" lon="26.186197"></trkpt>
      <trkpt lat="50.508713" lon="26.184322"></trkpt>
      <trkpt lat="50.508935" lon="26.182271"></trkpt>
      <trkpt lat="50.511576" lon="26.170336"></trkpt>
      <trkpt lat="50.511812" lon="26.168577"></trkpt>
      <trkpt lat="50.511831" lon="26.166791"></trkpt>
      <trkpt lat="50.511249" lon="26.16088"></trkpt>
      <trkpt lat="50.509944" lon="26.155007"></trkpt>
      <trkpt lat="50.507352" lon="26.147184"></trkpt>
      <trkpt lat="50.50696" lon="26.145638"></trkpt>
      <trkpt lat="50.506757" lon="26.143997"></trkpt>
      <trkpt lat="50.506561" lon="26.138879"></trkpt>
      <trkpt lat="50.506082" lon="26.135989"></trkpt>
      <trkpt lat="50.499275" lon="26.11462"></trkpt>
      <trkpt lat="50.498565" lon="26.111903"></trkpt>
      <trkpt lat="50.498246" lon="26.109592"></trkpt>
      <trkpt lat="50.498156" lon="26.107512"></trkpt>
      <trkpt lat="50.498761" lon="26.093951"></trkpt>
      <trkpt lat="50.49876" lon="26.091"></trkpt>
      <trkpt lat="50.498315" lon="26.083739"></trkpt>
      <trkpt lat="50.497248" lon="26.078424"></trkpt>
      <trkpt lat="50.496548" lon="26.076501"></trkpt>
      <trkpt lat="50.495773" lon="26.075211"></trkpt>
      <trkpt lat="50.490681" lon="26.068751"></trkpt>
      <trkpt lat="50.489582" lon="26.067666"></trkpt>
      <trkpt lat="50.488428" lon="26.067045"></trkpt>
      <trkpt lat="50.485838" lon="26.066339"></trkpt>
      <trkpt lat="50.484267" lon="26.065649"></trkpt>
      <trkpt lat="50.47854" lon="26.061232"></trkpt>
      <trkpt lat="50.477292" lon="26.060484"></trkpt>
      <trkpt lat="50.47608" lon="26.060026"></trkpt>
      <trkpt lat="50.47198" lon="26.059296"></trkpt>
      <trkpt lat="50.470857" lon="26.058907"></trkpt>
      <trkpt lat="50.469351" lon="26.057966"></trkpt>
      <trkpt lat="50.468169" lon="26.056828"></trkpt>
      <trkpt lat="50.46707" lon="26.055365"></trkpt>
      <trkpt lat="50.466095" lon="26.053539"></trkpt>
      <trkpt lat="50.454721" lon="26.029324"></trkpt>
      <trkpt lat="50.453847" lon="26.027047"></trkpt>
      <trkpt lat="50.453336" lon="26.024774"></trkpt>
      <trkpt lat="50.45314" lon="26.022788"></trkpt>
      <trkpt lat="50.452471" lon="25.988506"></trkpt>
      <trkpt lat="50.45239" lon="25.986658"></trkpt>
      <trkpt lat="50.452082" lon="25.984557"></trkpt>
      <trkpt lat="50.451256" lon="25.981751"></trkpt>
      <trkpt lat="50.43531" lon="25.944117"></trkpt>
      <trkpt lat="50.434321" lon="25.941171"></trkpt>
      <trkpt lat="50.426735" lon="25.90093"></trkpt>
      <trkpt lat="50.424754" lon="25.8795"></trkpt>
      <trkpt lat="50.420352" lon="25.845105"></trkpt>
      <trkpt lat="50.401303" lon="25.77403"></trkpt>
      <trkpt lat="50.400667" lon="25.771993"></trkpt>
      <trkpt lat="50.399656" lon="25.770128"></trkpt>
      <trkpt lat="50.398453" lon="25.768838"></trkpt>
      <trkpt lat="50.391969" lon="25.765139"></trkpt>
      <trkpt lat="50.390849" lon="25.764322"></trkpt>
      <trkpt lat="50.389398" lon="25.76263"></trkpt>
      <trkpt lat="50.38856" lon="25.761095"></trkpt>
      <trkpt lat="50.387699" lon="25.758559"></trkpt>
      <trkpt lat="50.386949" lon="25.755816"></trkpt>
      <trkpt lat="50.381449" lon="25.728226"></trkpt>
      <trkpt lat="50.380728" lon="25.726083"></trkpt>
      <trkpt lat="50.380137" lon="25.725009"></trkpt>
      <trkpt lat="50.379461" lon="25.724083"></trkpt>
      <trkpt lat="50.37836" lon="25.723088"></trkpt>
      <trkpt lat="50.377333" lon="25.722578"></trkpt>
      <trkpt lat="50.364045" lon="25.719496"></trkpt>
      <trkpt lat="50.362765" lon="25.71905"></trkpt>
      <trkpt lat="50.361539" lon="25.718201"></trkpt>
      <trkpt lat="50.360483" lon="25.716943"></trkpt>
      <trkpt lat="50.359771" lon="25.715641"></trkpt>
      <trkpt lat="50.359274" lon="25.714307"></trkpt>
      <trkpt lat="50.357014" lon="25.706622"></trkpt>
      <trkpt lat="50.3563" lon="25.70508"></trkpt>
      <trkpt lat="50.355585" lon="25.704025"></trkpt>
      <trkpt lat="50.352994" lon="25.70173"></trkpt>
      <trkpt lat="50.348719" lon="25.698561"></trkpt>
      <trkpt lat="50.348088" lon="25.697979"></trkpt>
      <trkpt lat="50.339123" lon="25.688418"></trkpt>
      <trkpt lat="50.333031" lon="25.681546"></trkpt>
      <trkpt lat="50.332404" lon="25.681045"></trkpt>
      <trkpt lat="50.331687" lon="25.680655"></trkpt>
      <trkpt lat="50.328061" lon="25.679262"></trkpt>
      <trkpt lat="50.326038" lon="25.678335"></trkpt>
      <trkpt lat="50.324943" lon="25.677456"></trkpt>
      <trkpt lat="50.323814" lon="25.675929"></trkpt>
      <trkpt lat="50.322856" lon="25.673781"></trkpt>
      <trkpt lat="50.322284" lon="25.671789"></trkpt>
      <trkpt lat="50.322091" lon="25.670649"></trkpt>
      <trkpt lat="50.321751" lon="25.666415"></trkpt>
      <trkpt lat="50.32141" lon="25.664592"></trkpt>
      <trkpt lat="50.318895" lon="25.656877"></trkpt>
      <trkpt lat="50.313785" lon="25.638695"></trkpt>
      <trkpt lat="50.312968" lon="25.63663"></trkpt>
      <trkpt lat="50.311723" lon="25.634859"></trkpt>
      <trkpt lat="50.307557" lon="25.63036"></trkpt>
      <trkpt lat="50.298155" lon="25.622149"></trkpt>
      <trkpt lat="50.296937" lon="25.620955"></trkpt>
      <trkpt lat="50.290407" lon="25.612268"></trkpt>
      <trkpt lat="50.285015" lon="25.603647"></trkpt>
      <trkpt lat="50.279975" lon="25.593672"></trkpt>
      <trkpt lat="50.275377" lon="25.585159"></trkpt>
      <trkpt lat="50.27368" lon="25.581766"></trkpt>
      <trkpt lat="50.271626" lon="25.576027"></trkpt>
      <trkpt lat="50.270645" lon="25.574229"></trkpt>
      <trkpt lat="50.269429" lon="25.572937"></trkpt>
      <trkpt lat="50.264761" lon="25.570227"></trkpt>
      <trkpt lat="50.264134" lon="25.569732"></trkpt>
      <trkpt lat="50.263334" lon="25.568852"></trkpt>
      <trkpt lat="50.24137" lon="25.533625"></trkpt>
      <trkpt lat="50.240073" lon="25.532039"></trkpt>
      <trkpt lat="50.235317" lon="25.52784"></trkpt>
      <trkpt lat="50.234007" lon="25.526023"></trkpt>
      <trkpt lat="50.232851" lon="25.523709"></trkpt>
      <trkpt lat="50.224692" lon="25.503907"></trkpt>
      <trkpt lat="50.224297" lon="25.502766"></trkpt>
      <trkpt lat="50.220331" lon="25.488211"></trkpt>
      <trkpt lat="50.219775" lon="25.486806"></trkpt>
      <trkpt lat="50.219127" lon="25.485673"></trkpt>
      <trkpt lat="50.218367" lon="25.484728"></trkpt>
      <trkpt lat="50.217382" lon="25.483892"></trkpt>
      <trkpt lat="50.212677" lon="25.480648"></trkpt>
      <trkpt lat="50.211524" lon="25.480158"></trkpt>
      <trkpt lat="50.200766" lon="25.476452"></trkpt>
      <trkpt lat="50.199547" lon="25.475773"></trkpt>
      <trkpt lat="50.198533" lon="25.474767"></trkpt>
      <trkpt lat="50.197461" lon="25.473068"></trkpt>
      <trkpt lat="50.175483" lon="25.428849"></trkpt>
      <trkpt lat="50.173876" lon="25.426772"></trkpt>
      <trkpt lat="50.152493" lon="25.405759"></trkpt>
      <trkpt lat="50.151078" lon="25.403943"></trkpt>
      <trkpt lat="50.150035" lon="25.401925"></trkpt>
      <trkpt lat="50.145202" lon="25.390426"></trkpt>
      <trkpt lat="50.144206" lon="25.387791"></trkpt>
      <trkpt lat="50.140732" lon="25.37661"></trkpt>
      <trkpt lat="50.139781" lon="25.373013"></trkpt>
      <trkpt lat="50.1392" lon="25.369725"></trkpt>
      <trkpt lat="50.131034" lon="25.303586"></trkpt>
      <trkpt lat="50.130546" lon="25.300514"></trkpt>
      <trkpt lat="50.129699" lon="25.297027"></trkpt>
      <trkpt lat="50.123558" lon="25.27637"></trkpt>
      <trkpt lat="50.121064" lon="25.26722"></trkpt>
      <trkpt lat="50.11806" lon="25.257192"></trkpt>
      <trkpt lat="50.117299" lon="25.255185"></trkpt>
      <trkpt lat="50.115835" lon="25.250311"></trkpt>
      <trkpt lat="50.114708" lon="25.247505"></trkpt>
      <trkpt lat="50.113848" lon="25.245846"></trkpt>
      <trkpt lat="50.112987" lon="25.244543"></trkpt>
      <trkpt lat="50.11157" lon="25.242883"></trkpt>
      <trkpt lat="50.106549" lon="25.2378"></trkpt>
      <trkpt lat="50.105289" lon="25.236081"></trkpt>
      <trkpt lat="50.104381" lon="25.234516"></trkpt>
      <trkpt lat="50.074965" lon="25.175264"></trkpt>
      <trkpt lat="50.073862" lon="25.172288"></trkpt>
      <trkpt lat="50.073511" lon="25.170252"></trkpt>
      <trkpt lat="50.073431" lon="25.168013"></trkpt>
      <trkpt lat="50.074032" lon="25.150275"></trkpt>
      <trkpt lat="50.074375" lon="25.134271"></trkpt>
      <trkpt lat="50.075576" lon="25.09472"></trkpt>
      <trkpt lat="50.075517" lon="25.092611"></trkpt>
      <trkpt lat="50.075326" lon="25.090766"></trkpt>
      <trkpt lat="50.074963" lon="25.08859"></trkpt>
      <trkpt lat="50.074386" lon="25.086425"></trkpt>
      <trkpt lat="50.058773" lon="25.038042"></trkpt>
      <trkpt lat="50.054629" lon="25.026507"></trkpt>
      <trkpt lat="50.052722" lon="25.019169"></trkpt>
      <trkpt lat="50.043591" lon="24.990516"></trkpt>
      <trkpt lat="50.042025" lon="24.98624"></trkpt>
      <trkpt lat="50.021038" lon="24.932937"></trkpt>
      <trkpt lat="49.985025" lon="24.844226"></trkpt>
      <trkpt lat="49.984133" lon="24.842531"></trkpt>
      <trkpt lat="49.983174" lon="24.841254"></trkpt>
      <trkpt lat="49.978013" lon="24.835723"></trkpt>
      <trkpt lat="49.977198" lon="24.83469"></trkpt>
      <trkpt lat="49.976432" lon="24.833389"></trkpt>
      <trkpt lat="49.975413" lon="24.831069"></trkpt>
      <trkpt lat="49.963153" lon="24.790648"></trkpt>
      <trkpt lat="49.941609" lon="24.737641"></trkpt>
      <trkpt lat="49.923557" lon="24.677405"></trkpt>
      <trkpt lat="49.922896" lon="24.674685"></trkpt>
      <trkpt lat="49.922497" lon="24.672211"></trkpt>
      <trkpt lat="49.916827" lon="24.614056"></trkpt>
      <trkpt lat="49.916426" lon="24.610879"></trkpt>
      <trkpt lat="49.915916" lon="24.604138"></trkpt>
      <trkpt lat="49.91531" lon="24.599819"></trkpt>
      <trkpt lat="49.901663" lon="24.547624"></trkpt>
      <trkpt lat="49.879453" lon="24.454899"></trkpt>
      <trkpt lat="49.878213" lon="24.448788"></trkpt>
      <trkpt lat="49.877877" lon="24.444767"></trkpt>
      <trkpt lat="49.877777" lon="24.432888"></trkpt>
      <trkpt lat="49.877648" lon="24.362901"></trkpt>
      <trkpt lat="49.87726" lon="24.360024"></trkpt>
      <trkpt lat="49.876743" lon="24.357899"></trkpt>
      <trkpt lat="49.865219" lon="24.324631"></trkpt>
      <trkpt lat="49.864626" lon="24.322624"></trkpt>
      <trkpt lat="49.864305" lon="24.320781"></trkpt>
      <trkpt lat="49.864132" lon="24.318584"></trkpt>
      <trkpt lat="49.86437" lon="24.306171"></trkpt>
      <trkpt lat="49.862278" lon="24.290099"></trkpt>
      <trkpt lat="49.861969" lon="24.287021"></trkpt>
      <trkpt lat="49.860357" lon="24.254254"></trkpt>
      <trkpt lat="49.860094" lon="24.246547"></trkpt>
      <trkpt lat="49.858545" lon="24.213641"></trkpt>
      <trkpt lat="49.858314" lon="24.210393"></trkpt>
      <trkpt lat="49.85802" lon="24.20903"></trkpt>
      <trkpt lat="49.857518" lon="24.207623"></trkpt>
      <trkpt lat="49.857025" lon="24.206676"></trkpt>
      <trkpt lat="49.856183" lon="24.205559"></trkpt>
      <trkpt lat="49.855504" lon="24.204952"></trkpt>
      <trkpt lat="49.848933" lon="24.200507"></trkpt>
      <trkpt lat="49.84838" lon="24.19991"></trkpt>
      <trkpt lat="49.847473" lon="24.198446"></trkpt>
      <trkpt lat="49.847041" lon="24.197407"></trkpt>
      <trkpt lat="49.84667" lon="24.196021"></trkpt>
      <trkpt lat="49.843828" lon="24.181321"></trkpt>
      <trkpt lat="49.843618" lon="24.179587"></trkpt>
      <trkpt lat="49.843544" lon="24.177766"></trkpt>
      <trkpt lat="49.843738" lon="24.175254"></trkpt>
      <trkpt lat="49.845814" lon="24.164489"></trkpt>
      <trkpt lat="49.846254" lon="24.160866"></trkpt>
      <trkpt lat="49.847066" lon="24.140299"></trkpt>
      <trkpt lat="49.847133" lon="24.13398"></trkpt>
      <trkpt lat="49.84738" lon="24.128418"></trkpt>
      <trkpt lat="49.847896" lon="24.123779"></trkpt>
      <trkpt lat="49.848807" lon="24.117352"></trkpt>
      <trkpt lat="49.851609" lon="24.092197"></trkpt>
      <trkpt lat="49.852746" lon="24.069032"></trkpt>
      <trkpt lat="49.853212" lon="24.064426"></trkpt>
      <trkpt lat="49.853241" lon="24.060972"></trkpt>
      <trkpt lat="49.853064" lon="24.052394"></trkpt>
      <trkpt lat="49.852455" lon="24.043121"></trkpt>
      <trkpt lat="49.852206" lon="24.040596"></trkpt>
      <trkpt lat="49.850609" lon="24.030223"></trkpt>
      <trkpt lat="49.851128" lon="24.022444"></trkpt>
      <trkpt lat="49.851499" lon="24.02017"></trkpt>
      <trkpt lat="49.852082" lon="24.018602"></trkpt>
      <trkpt lat="49.855869" lon="24.011986"></trkpt>
      <trkpt lat="49.858705" lon="24.005781"></trkpt>
      <trkpt lat="49.860024" lon="24.003756"></trkpt>
      <trkpt lat="49.862742" lon="24.000286"></trkpt>
      <trkpt lat="49.863387" lon="23.998863"></trkpt>
      <trkpt lat="49.863751" lon="23.997189"></trkpt>
      <trkpt lat="49.864066" lon="23.993515"></trkpt>
      <trkpt lat="49.863732" lon="23.991439"></trkpt>
      <trkpt lat="49.863448" lon="23.990717"></trkpt>
      <trkpt lat="49.862881" lon="23.989779"></trkpt>
      <trkpt lat="49.861282" lon="23.988163"></trkpt>
      <trkpt lat="49.859539" lon="23.986006"></trkpt>
      <trkpt lat="49.85887" lon="23.985435"></trkpt>
      <trkpt lat="49.858298" lon="23.985124"></trkpt>
      <trkpt lat="49.857485" lon="23.984898"></trkpt>
      <trkpt lat="49.856654" lon="23.984837"></trkpt>
      <trkpt lat="49.855905" lon="23.984946"></trkpt>
      <trkpt lat="49.855296" lon="23.985123"></trkpt>
      <trkpt lat="49.85448" lon="23.985582"></trkpt>
      <trkpt lat="49.847303" lon="23.991983"></trkpt>
      <trkpt lat="49.843837" lon="23.994459"></trkpt>
      <trkpt lat="49.842646" lon="23.994939"></trkpt>
      <trkpt lat="49.84167" lon="23.994851"></trkpt>
      <trkpt lat="49.838812" lon="23.993019"></trkpt>
      <trkpt lat="49.83816" lon="23.992337"></trkpt>
      <trkpt lat="49.837588" lon="23.991341"></trkpt>
      <trkpt lat="49.837159" lon="23.99016"></trkpt>
      <trkpt lat="49.836632" lon="23.987774"></trkpt>
      <trkpt lat="49.836914" lon="23.990254"></trkpt>
      <trkpt lat="49.837295" lon="23.991601"></trkpt>
      <trkpt lat="49.837896" lon="23.992757"></trkpt>
      <trkpt lat="49.838665" lon="23.993458"></trkpt>
      <trkpt lat="49.837896" lon="23.992757"></trkpt>
      <trkpt lat="49.837101" lon="23.991037"></trkpt>
      <trkpt lat="49.836881" lon="23.99003"></trkpt>
      <trkpt lat="49.836632" lon="23.987774"></trkpt>
      <trkpt lat="49.835459" lon="23.981448"></trkpt>
      <trkpt lat="49.833896" lon="23.975535"></trkpt>
      <trkpt lat="49.833292" lon="23.974303"></trkpt>
      <trkpt lat="49.832933" lon="23.973868"></trkpt>
      <trkpt lat="49.832277" lon="23.973416"></trkpt>
      <trkpt lat="49.830726" lon="23.973213"></trkpt>
      <trkpt lat="49.829961" lon="23.973388"></trkpt>
      <trkpt lat="49.829516" lon="23.973629"></trkpt>
      <trkpt lat="49.828536" lon="23.974609"></trkpt>
      <trkpt lat="49.827858" lon="23.975912"></trkpt>
      <trkpt lat="49.819051" lon="24.004731"></trkpt>
      <trkpt lat="49.818336" lon="24.006241"></trkpt>
      <trkpt lat="49.817587" lon="24.007509"></trkpt>
      <trkpt lat="49.813676" lon="24.01312"></trkpt>
      <trkpt lat="49.812966" lon="24.014421"></trkpt>
      <trkpt lat="49.812536" lon="24.015507"></trkpt>
      <trkpt lat="49.812114" lon="24.017059"></trkpt>
      <trkpt lat="49.811333" lon="24.02115"></trkpt>
      <trkpt lat="49.809155" lon="24.033632"></trkpt>
      <trkpt lat="49.805118" lon="24.054797"></trkpt>
      <trkpt lat="49.804133" lon="24.057726"></trkpt>
      <trkpt lat="49.800397" lon="24.066458"></trkpt>
      <trkpt lat="49.799403" lon="24.068279"></trkpt>
      <trkpt lat="49.798" lon="24.070132"></trkpt>
      <trkpt lat="49.797156" lon="24.070975"></trkpt>
      <trkpt lat="49.796203" lon="24.071683"></trkpt>
      <trkpt lat="49.793264" lon="24.072953"></trkpt>
      <trkpt lat="49.788006" lon="24.074066"></trkpt>
      <trkpt lat="49.787132" lon="24.074389"></trkpt>
      <trkpt lat="49.786368" lon="24.0748"></trkpt>
      <trkpt lat="49.784301" lon="24.076323"></trkpt>
      <trkpt lat="49.783157" lon="24.077481"></trkpt>
      <trkpt lat="49.782654" lon="24.078238"></trkpt>
      <trkpt lat="49.777521" lon="24.088082"></trkpt>
      <trkpt lat="49.776731" lon="24.089337"></trkpt>
      <trkpt lat="49.774441" lon="24.092449"></trkpt>
      <trkpt lat="49.772794" lon="24.095115"></trkpt>
      <trkpt lat="49.77176" lon="24.09726"></trkpt>
      <trkpt lat="49.770059" lon="24.101744"></trkpt>
      <trkpt lat="49.768969" lon="24.103724"></trkpt>
      <trkpt lat="49.765818" lon="24.10727"></trkpt>
      <trkpt lat="49.760444" lon="24.116019"></trkpt>
      <trkpt lat="49.75967" lon="24.11708"></trkpt>
      <trkpt lat="49.757967" lon="24.11881"></trkpt>
      <trkpt lat="49.755176" lon="24.120751"></trkpt>
      <trkpt lat="49.754001" lon="24.122044"></trkpt>
      <trkpt lat="49.747659" lon="24.132492"></trkpt>
      <trkpt lat="49.746845" lon="24.134027"></trkpt>
      <trkpt lat="49.746078" lon="24.136077"></trkpt>
      <trkpt lat="49.744509" lon="24.143397"></trkpt>
      <trkpt lat="49.743892" lon="24.14539"></trkpt>
      <trkpt lat="49.742679" lon="24.147832"></trkpt>
      <trkpt lat="49.736329" lon="24.157905"></trkpt>
      <trkpt lat="49.734512" lon="24.160292"></trkpt>
      <trkpt lat="49.723286" lon="24.172985"></trkpt>
      <trkpt lat="49.714855" lon="24.185058"></trkpt>
      <trkpt lat="49.711451" lon="24.190521"></trkpt>
      <trkpt lat="49.709887" lon="24.192351"></trkpt>
      <trkpt lat="49.708684" lon="24.193304"></trkpt>
      <trkpt lat="49.705343" lon="24.195374"></trkpt>
      <trkpt lat="49.704379" lon="24.195741"></trkpt>
      <trkpt lat="49.703171" lon="24.195803"></trkpt>
      <trkpt lat="49.702234" lon="24.195489"></trkpt>
      <trkpt lat="49.701148" lon="24.194648"></trkpt>
      <trkpt lat="49.695144" lon="24.187733"></trkpt>
      <trkpt lat="49.693463" lon="24.186277"></trkpt>
      <trkpt lat="49.692589" lon="24.185839"></trkpt>
      <trkpt lat="49.691896" lon="24.18573"></trkpt>
      <trkpt lat="49.678553" lon="24.185296"></trkpt>
      <trkpt lat="49.677911" lon="24.185405"></trkpt>
      <trkpt lat="49.677186" lon="24.185694"></trkpt>
      <trkpt lat="49.676394" lon="24.186247"></trkpt>
      <trkpt lat="49.675889" lon="24.186777"></trkpt>
      <trkpt lat="49.675392" lon="24.187461"></trkpt>
      <trkpt lat="49.67483" lon="24.188566"></trkpt>
      <trkpt lat="49.674274" lon="24.190556"></trkpt>
      <trkpt lat="49.673292" lon="24.202616"></trkpt>
      <trkpt lat="49.673255" lon="24.204674"></trkpt>
      <trkpt lat="49.673716" lon="24.216127"></trkpt>
      <trkpt lat="49.673627" lon="24.218468"></trkpt>
      <trkpt lat="49.673296" lon="24.220088"></trkpt>
      <trkpt lat="49.672596" lon="24.221826"></trkpt>
      <trkpt lat="49.671499" lon="24.22335"></trkpt>
      <trkpt lat="49.670507" lon="24.224135"></trkpt>
      <trkpt lat="49.669479" lon="24.224584"></trkpt>
      <trkpt lat="49.668268" lon="24.224713"></trkpt>
      <trkpt lat="49.639535" lon="24.222168"></trkpt>
      <trkpt lat="49.638412" lon="24.222155"></trkpt>
      <trkpt lat="49.63733" lon="24.222331"></trkpt>
      <trkpt lat="49.634384" lon="24.22342"></trkpt>
      <trkpt lat="49.627031" lon="24.226983"></trkpt>
      <trkpt lat="49.625521" lon="24.227543"></trkpt>
      <trkpt lat="49.623821" lon="24.227709"></trkpt>
      <trkpt lat="49.615111" lon="24.227173"></trkpt>
      <trkpt lat="49.612599" lon="24.227285"></trkpt>
      <trkpt lat="49.610828" lon="24.227795"></trkpt>
      <trkpt lat="49.604499" lon="24.230558"></trkpt>
      <trkpt lat="49.603729" lon="24.230751"></trkpt>
      <trkpt lat="49.602772" lon="24.230829"></trkpt>
      <trkpt lat="49.601512" lon="24.230661"></trkpt>
      <trkpt lat="49.60085" lon="24.230453"></trkpt>
      <trkpt lat="49.599949" lon="24.230059"></trkpt>
      <trkpt lat="49.599164" lon="24.229563"></trkpt>
      <trkpt lat="49.586566" lon="24.219231"></trkpt>
      <trkpt lat="49.584764" lon="24.218085"></trkpt>
      <trkpt lat="49.58263" lon="24.21739"></trkpt>
      <trkpt lat="49.578297" lon="24.216923"></trkpt>
      <trkpt lat="49.575905" lon="24.216309"></trkpt>
      <trkpt lat="49.574543" lon="24.215737"></trkpt>
      <trkpt lat="49.569446" lon="24.213094"></trkpt>
      <trkpt lat="49.568256" lon="24.212642"></trkpt>
      <trkpt lat="49.56734" lon="24.212429"></trkpt>
      <trkpt lat="49.566283" lon="24.212384"></trkpt>
      <trkpt lat="49.564943" lon="24.212736"></trkpt>
      <trkpt lat="49.542421" lon="24.221607"></trkpt>
      <trkpt lat="49.540445" lon="24.222073"></trkpt>
      <trkpt lat="49.533902" lon="24.222343"></trkpt>
      <trkpt lat="49.533006" lon="24.222281"></trkpt>
      <trkpt lat="49.53201" lon="24.222024"></trkpt>
      <trkpt lat="49.530742" lon="24.221379"></trkpt>
      <trkpt lat="49.529754" lon="24.220638"></trkpt>
      <trkpt lat="49.52438" lon="24.215797"></trkpt>
      <trkpt lat="49.523442" lon="24.215076"></trkpt>
      <trkpt lat="49.521935" lon="24.214197"></trkpt>
      <trkpt lat="49.519972" lon="24.213466"></trkpt>
      <trkpt lat="49.518639" lon="24.213203"></trkpt>
      <trkpt lat="49.517454" lon="24.213173"></trkpt>
      <trkpt lat="49.505011" lon="24.213874"></trkpt>
      <trkpt lat="49.503723" lon="24.214084"></trkpt>
      <trkpt lat="49.502239" lon="24.21456"></trkpt>
      <trkpt lat="49.500616" lon="24.215542"></trkpt>
      <trkpt lat="49.493519" lon="24.221693"></trkpt>
      <trkpt lat="49.492121" lon="24.222756"></trkpt>
      <trkpt lat="49.488887" lon="24.224568"></trkpt>
      <trkpt lat="49.478167" lon="24.230028"></trkpt>
      <trkpt lat="49.476912" lon="24.230851"></trkpt>
      <trkpt lat="49.475324" lon="24.232195"></trkpt>
      <trkpt lat="49.473325" lon="24.234574"></trkpt>
      <trkpt lat="49.472211" lon="24.236338"></trkpt>
      <trkpt lat="49.4715" lon="24.237713"></trkpt>
      <trkpt lat="49.470668" lon="24.23966"></trkpt>
      <trkpt lat="49.467025" lon="24.249248"></trkpt>
      <trkpt lat="49.465855" lon="24.251672"></trkpt>
      <trkpt lat="49.464044" lon="24.254468"></trkpt>
      <trkpt lat="49.455463" lon="24.265822"></trkpt>
      <trkpt lat="49.454446" lon="24.266879"></trkpt>
      <trkpt lat="49.452842" lon="24.268174"></trkpt>
      <trkpt lat="49.440757" lon="24.276059"></trkpt>
      <trkpt lat="49.438916" lon="24.277518"></trkpt>
      <trkpt lat="49.414884" lon="24.303239"></trkpt>
      <trkpt lat="49.412903" lon="24.305047"></trkpt>
      <trkpt lat="49.409792" lon="24.307604"></trkpt>
      <trkpt lat="49.408329" lon="24.308665"></trkpt>
      <trkpt lat="49.407509" lon="24.30889"></trkpt>
      <trkpt lat="49.404939" lon="24.309284"></trkpt>
      <trkpt lat="49.402811" lon="24.309262"></trkpt>
      <trkpt lat="49.401236" lon="24.308818"></trkpt>
      <trkpt lat="49.399249" lon="24.30783"></trkpt>
      <trkpt lat="49.397375" lon="24.306317"></trkpt>
      <trkpt lat="49.385513" lon="24.292893"></trkpt>
      <trkpt lat="49.384538" lon="24.292024"></trkpt>
      <trkpt lat="49.3823" lon="24.29082"></trkpt>
      <trkpt lat="49.376031" lon="24.288294"></trkpt>
      <trkpt lat="49.374874" lon="24.287933"></trkpt>
      <trkpt lat="49.368975" lon="24.286553"></trkpt>
      <trkpt lat="49.367743" lon="24.286475"></trkpt>
      <trkpt lat="49.361851" lon="24.286634"></trkpt>
      <trkpt lat="49.360574" lon="24.286868"></trkpt>
      <trkpt lat="49.359192" lon="24.287437"></trkpt>
      <trkpt lat="49.347239" lon="24.293283"></trkpt>
      <trkpt lat="49.345745" lon="24.294211"></trkpt>
      <trkpt lat="49.344849" lon="24.29508"></trkpt>
      <trkpt lat="49.343602" lon="24.296817"></trkpt>
      <trkpt lat="49.342703" lon="24.298639"></trkpt>
      <trkpt lat="49.32629" lon="24.335437"></trkpt>
      <trkpt lat="49.312188" lon="24.378172"></trkpt>
      <trkpt lat="49.311084" lon="24.381093"></trkpt>
      <trkpt lat="49.299774" lon="24.408435"></trkpt>
      <trkpt lat="49.298857" lon="24.410862"></trkpt>
      <trkpt lat="49.297339" lon="24.41661"></trkpt>
      <trkpt lat="49.291837" lon="24.439217"></trkpt>
      <trkpt lat="49.291188" lon="24.441533"></trkpt>
      <trkpt lat="49.290585" lon="24.443118"></trkpt>
      <trkpt lat="49.289364" lon="24.445354"></trkpt>
      <trkpt lat="49.288421" lon="24.446611"></trkpt>
      <trkpt lat="49.287611" lon="24.44748"></trkpt>
      <trkpt lat="49.285723" lon="24.448923"></trkpt>
      <trkpt lat="49.280233" lon="24.452309"></trkpt>
      <trkpt lat="49.279477" lon="24.452993"></trkpt>
      <trkpt lat="49.278632" lon="24.453974"></trkpt>
      <trkpt lat="49.277462" lon="24.456181"></trkpt>
      <trkpt lat="49.264249" lon="24.487505"></trkpt>
      <trkpt lat="49.262467" lon="24.491415"></trkpt>
      <trkpt lat="49.261112" lon="24.493453"></trkpt>
      <trkpt lat="49.253371" lon="24.501986"></trkpt>
      <trkpt lat="49.252367" lon="24.503579"></trkpt>
      <trkpt lat="49.251315" lon="24.505936"></trkpt>
      <trkpt lat="49.250631" lon="24.508194"></trkpt>
      <trkpt lat="49.250266" lon="24.51002"></trkpt>
      <trkpt lat="49.247791" lon="24.53196"></trkpt>
      <trkpt lat="49.239983" lon="24.570273"></trkpt>
      <trkpt lat="49.237013" lon="24.587448"></trkpt>
      <trkpt lat="49.233095" lon="24.603886"></trkpt>
      <trkpt lat="49.23232" lon="24.60614"></trkpt>
      <trkpt lat="49.23029" lon="24.610434"></trkpt>
      <trkpt lat="49.229548" lon="24.612645"></trkpt>
      <trkpt lat="49.22903" lon="24.615451"></trkpt>
      <trkpt lat="49.227618" lon="24.627531"></trkpt>
      <trkpt lat="49.227235" lon="24.629817"></trkpt>
      <trkpt lat="49.22624" lon="24.633381"></trkpt>
      <trkpt lat="49.225147" lon="24.636003"></trkpt>
      <trkpt lat="49.223824" lon="24.638313"></trkpt>
      <trkpt lat="49.205949" lon="24.663552"></trkpt>
      <trkpt lat="49.194747" lon="24.675528"></trkpt>
      <trkpt lat="49.178825" lon="24.692202"></trkpt>
      <trkpt lat="49.177985" lon="24.693201"></trkpt>
      <trkpt lat="49.176968" lon="24.694694"></trkpt>
      <trkpt lat="49.176193" lon="24.696074"></trkpt>
      <trkpt lat="49.173164" lon="24.70248"></trkpt>
      <trkpt lat="49.172467" lon="24.703649"></trkpt>
      <trkpt lat="49.171716" lon="24.704567"></trkpt>
      <trkpt lat="49.170652" lon="24.70551"></trkpt>
      <trkpt lat="49.140599" lon="24.727683"></trkpt>
      <trkpt lat="49.13992" lon="24.72825"></trkpt>
      <trkpt lat="49.139373" lon="24.728885"></trkpt>
      <trkpt lat="49.138048" lon="24.731021"></trkpt>
      <trkpt lat="49.131279" lon="24.74661"></trkpt>
      <trkpt lat="49.13071" lon="24.748627"></trkpt>
      <trkpt lat="49.127983" lon="24.762867"></trkpt>
      <trkpt lat="49.127143" lon="24.765191"></trkpt>
      <trkpt lat="49.125975" lon="24.767104"></trkpt>
      <trkpt lat="49.124402" lon="24.768599"></trkpt>
      <trkpt lat="49.091865" lon="24.795534"></trkpt>
      <trkpt lat="49.089265" lon="24.79725"></trkpt>
      <trkpt lat="49.08227" lon="24.800882"></trkpt>
      <trkpt lat="49.081573" lon="24.801178"></trkpt>
      <trkpt lat="49.08034" lon="24.801465"></trkpt>
      <trkpt lat="49.079221" lon="24.801461"></trkpt>
      <trkpt lat="49.078498" lon="24.801335"></trkpt>
      <trkpt lat="49.077378" lon="24.800961"></trkpt>
      <trkpt lat="49.062295" lon="24.7933"></trkpt>
      <trkpt lat="49.055811" lon="24.789708"></trkpt>
      <trkpt lat="49.049126" lon="24.786233"></trkpt>
      <trkpt lat="49.047848" lon="24.785267"></trkpt>
      <trkpt lat="49.046528" lon="24.783754"></trkpt>
      <trkpt lat="49.045708" lon="24.782315"></trkpt>
      <trkpt lat="49.045206" lon="24.78112"></trkpt>
      <trkpt lat="49.037754" lon="24.755567"></trkpt>
      <trkpt lat="49.035726" lon="24.75027"></trkpt>
      <trkpt lat="49.033828" lon="24.746367"></trkpt>
      <trkpt lat="49.021261" lon="24.723889"></trkpt>
      <trkpt lat="49.020242" lon="24.722428"></trkpt>
      <trkpt lat="49.019069" lon="24.721026"></trkpt>
      <trkpt lat="49.017045" lon="24.719089"></trkpt>
      <trkpt lat="49.015991" lon="24.718338"></trkpt>
      <trkpt lat="49.014719" lon="24.717553"></trkpt>
      <trkpt lat="48.999617" lon="24.710311"></trkpt>
      <trkpt lat="48.998052" lon="24.709759"></trkpt>
      <trkpt lat="48.996614" lon="24.709465"></trkpt>
      <trkpt lat="48.995616" lon="24.709403"></trkpt>
      <trkpt lat="48.994144" lon="24.709497"></trkpt>
      <trkpt lat="48.980265" lon="24.712009"></trkpt>
      <trkpt lat="48.970546" lon="24.713613"></trkpt>
      <trkpt lat="48.968816" lon="24.713799"></trkpt>
      <trkpt lat="48.96673" lon="24.713761"></trkpt>
      <trkpt lat="48.965357" lon="24.713587"></trkpt>
      <trkpt lat="48.95706" lon="24.711674"></trkpt>
      <trkpt lat="48.955164" lon="24.711553"></trkpt>
      <trkpt lat="48.953935" lon="24.71173"></trkpt>
      <trkpt lat="48.952928" lon="24.712033"></trkpt>
      <trkpt lat="48.948627" lon="24.713821"></trkpt>
      <trkpt lat="48.945383" lon="24.714909"></trkpt>
      <trkpt lat="48.941062" lon="24.717085"></trkpt>
      <trkpt lat="48.92847" lon="24.722441"></trkpt>
      <trkpt lat="48.925771" lon="24.723485"></trkpt>
  </trkseg></trk>
</gpx>
