<?xml version="1.0" encoding="UTF-8"?>
<gpx version="1.1" creator="yatutbuv" xmlns="http://www.topografix.com/GPX/1/1">
  <trk><name>2023 Copenhagen -&gt; Malmo (42.1km)</name><trkseg>
      <trkpt lat="55.672292" lon="12.564422"></trkpt>
      <trkpt lat="55.671564" lon="12.565193"></trkpt>
      <trkpt lat="55.670947" lon="12.565588"></trkpt>
      <trkpt lat="55.670326" lon="12.565785"></trkpt>
      <trkpt lat="55.669084" lon="12.565809"></trkpt>
      <trkpt lat="55.668442" lon="12.565589"></trkpt>
      <trkpt lat="55.667748" lon="12.565109"></trkpt>
      <trkpt lat="55.666751" lon="12.563864"></trkpt>
      <trkpt lat="55.664869" lon="12.560116"></trkpt>
      <trkpt lat="55.664048" lon="12.558001"></trkpt>
      <trkpt lat="55.663775" lon="12.556533"></trkpt>
      <trkpt lat="55.663565" lon="12.553881"></trkpt>
      <trkpt lat="55.662713" lon="12.549577"></trkpt>
      <trkpt lat="55.662236" lon="12.544817"></trkpt>
      <trkpt lat="55.661914" lon="12.543437"></trkpt>
      <trkpt lat="55.66158" lon="12.542621"></trkpt>
      <trkpt lat="55.6609" lon="12.541603"></trkpt>
      <trkpt lat="55.660003" lon="12.540909"></trkpt>
      <trkpt lat="55.657271" lon="12.539455"></trkpt>
      <trkpt lat="55.656211" lon="12.539105"></trkpt>
      <trkpt lat="55.655238" lon="12.538992"></trkpt>
      <trkpt lat="55.653825" lon="12.539127"></trkpt>
      <trkpt lat="55.652752" lon="12.539502"></trkpt>
      <trkpt lat="55.646977" lon="12.542558"></trkpt>
      <trkpt lat="55.646022" lon="12.543176"></trkpt>
      <trkpt lat="55.645194" lon="12.54389"></trkpt>
      <trkpt lat="55.642916" lon="12.546383"></trkpt>
      <trkpt lat="55.637727" lon="12.552462"></trkpt>
      <trkpt lat="55.634654" lon="12.556265"></trkpt>
      <trkpt lat="55.633548" lon="12.557998"></trkpt>
      <trkpt lat="55.632526" lon="12.559909"></trkpt>
      <trkpt lat="55.630968" lon="12.56367"></trkpt>
      <trkpt lat="55.629754" lon="12.567856"></trkpt>
      <trkpt lat="55.629184" lon="12.570681"></trkpt>
      <trkpt lat="55.62885" lon="12.572976"></trkpt>
      <trkpt lat="55.628434" lon="12.578273"></trkpt>
      <trkpt lat="55.628344" lon="12.584181"></trkpt>
      <trkpt lat="55.628525" lon="12.587949"></trkpt>
      <trkpt lat="55.629367" lon="12.595317"></trkpt>
      <trkpt lat="55.629654" lon="12.599601"></trkpt>
      <trkpt lat="55.630225" lon="12.621768"></trkpt>
      <trkpt lat="55.630673" lon="12.633793"></trkpt>
      <trkpt lat="55.630628" lon="12.636919"></trkpt>
      <trkpt lat="55.630457" lon="12.639477"></trkpt>
      <trkpt lat="55.629614" lon="12.647147"></trkpt>
      <trkpt lat="55.629579" lon="12.651124"></trkpt>
      <trkpt lat="55.629748" lon="12.653246"></trkpt>
      <trkpt lat="55.630069" lon="12.655027"></trkpt>
      <trkpt lat="55.630521" lon="12.656601"></trkpt>
      <trkpt lat="55.631947" lon="12.660478"></trkpt>
      <trkpt lat="55.632506" lon="12.663637"></trkpt>
      <trkpt lat="55.63268" lon="12.666329"></trkpt>
      <trkpt lat="55.632645" lon="12.668827"></trkpt>
      <trkpt lat="55.63242" lon="12.671274"></trkpt>
      <trkpt lat="55.63199" lon="12.67374"></trkpt>
      <trkpt lat="55.631383" lon="12.676033"></trkpt>
      <trkpt lat="55.63075" lon="12.67781"></trkpt>
      <trkpt lat="55.608274" lon="12.732815"></trkpt>
      <trkpt lat="55.605421" lon="12.739038"></trkpt>
      <trkpt lat="55.597723" lon="12.754283"></trkpt>
      <trkpt lat="55.595516" lon="12.75923"></trkpt>
      <trkpt lat="55.593967" lon="12.763252"></trkpt>
      <trkpt lat="55.586836" lon="12.78309"></trkpt>
      <trkpt lat="55.584393" lon="12.790591"></trkpt>
      <trkpt lat="55.582616" lon="12.796511"></trkpt>
      <trkpt lat="55.580406" lon="12.804538"></trkpt>
      <trkpt lat="55.57838" lon="12.812711"></trkpt>
      <trkpt lat="55.572028" lon="12.841482"></trkpt>
      <trkpt lat="55.570399" lon="12.849956"></trkpt>
      <trkpt lat="55.568675" lon="12.86058"></trkpt>
      <trkpt lat="55.567529" lon="12.869258"></trkpt>
      <trkpt lat="55.566812" lon="12.875761"></trkpt>
      <trkpt lat="55.566211" lon="12.88244"></trkpt>
      <trkpt lat="55.565644" lon="12.890605"></trkpt>
      <trkpt lat="55.565357" lon="12.898314"></trkpt>
      <trkpt lat="55.56589" lon="12.911975"></trkpt>
      <trkpt lat="55.565785" lon="12.915361"></trkpt>
      <trkpt lat="55.565515" lon="12.918533"></trkpt>
      <trkpt lat="55.56509" lon="12.921589"></trkpt>
      <trkpt lat="55.564476" lon="12.924792"></trkpt>
      <trkpt lat="55.559647" lon="12.943958"></trkpt>
      <trkpt lat="55.559159" lon="12.94671"></trkpt>
      <trkpt lat="55.558764" lon="12.950444"></trkpt>
      <trkpt lat="55.558673" lon="12.955267"></trkpt>
      <trkpt lat="55.558955" lon="12.959288"></trkpt>
      <trkpt lat="55.560173" lon="12.966826"></trkpt>
      <trkpt lat="55.561075" lon="12.970524"></trkpt>
      <trkpt lat="55.562522" lon="12.974831"></trkpt>
      <trkpt lat="55.564711" lon="12.980119"></trkpt>
      <trkpt lat="55.565472" lon="12.981569"></trkpt>
      <trkpt lat="55.566455" lon="12.98301"></trkpt>
      <trkpt lat="55.567565" lon="12.984372"></trkpt>
      <trkpt lat="55.570143" lon="12.986851"></trkpt>
      <trkpt lat="55.582976" lon="13.000375"></trkpt>
      <trkpt lat="55.584786" lon="13.001893"></trkpt>
      <trkpt lat="55.585619" lon="13.002319"></trkpt>
      <trkpt lat="55.586703" lon="13.002617"></trkpt>
      <trkpt lat="55.589501" lon="13.002535"></trkpt>
      <trkpt lat="55.591293" lon="13.002215"></trkpt>
      <trkpt lat="55.591839" lon="13.001999"></trkpt>
      <trkpt lat="55.59331" lon="13.001117"></trkpt>
      <trkpt lat="55.594733" lon="13.000141"></trkpt>
      <trkpt lat="55.59567" lon="12.999054"></trkpt>
      <trkpt lat="55.597434" lon="12.996413"></trkpt>
      <trkpt lat="55.600648" lon="12.991021"></trkpt>
      <trkpt lat="55.601043" lon="12.990652"></trkpt>
      <trkpt lat="55.602305" lon="12.989919"></trkpt>
      <trkpt lat="55.602928" lon="12.989729"></trkpt>
      <trkpt lat="55.604396" lon="12.98986"></trkpt>
      <trkpt lat="55.604926" lon="12.990061"></trkpt>
      <trkpt lat="55.605821" lon="12.990718"></trkpt>
      <trkpt lat="55.607445" lon="12.992862"></trkpt>
      <trkpt lat="55.608137" lon="12.994559"></trkpt>
      <trkpt lat="55.609226" lon="12.998388"></trkpt>
      <trkpt lat="55.609953" lon="13.002823"></trkpt>
      <trkpt lat="55.610088" lon="13.0053"></trkpt>
      <trkpt lat="55.609942" lon="13.009732"></trkpt>
      <trkpt lat="55.609756" lon="13.004331"></trkpt>
      <trkpt lat="55.609203" lon="13.00063"></trkpt>
  </trkseg></trk>
</gpx>
