<?xml version="1.0" encoding="UTF-8"?>
<gpx version="1.1" creator="yatutbuv" xmlns="http://www.topografix.com/GPX/1/1">
  <trk><name>2024_Adliswil -&gt; Zurich (6.1km)</name><trkseg>
      <trkpt lat="47.312322" lon="8.524014"></trkpt>
      <trkpt lat="47.313289" lon="8.524025"></trkpt>
      <trkpt lat="47.314023" lon="8.523811"></trkpt>
      <trkpt lat="47.319386" lon="8.521496"></trkpt>
      <trkpt lat="47.321534" lon="8.521302"></trkpt>
      <trkpt lat="47.322037" lon="8.52096"></trkpt>
      <trkpt lat="47.323811" lon="8.519047"></trkpt>
      <trkpt lat="47.324444" lon="8.518657"></trkpt>
      <trkpt lat="47.325139" lon="8.518594"></trkpt>
      <trkpt lat="47.326881" lon="8.519078"></trkpt>
      <trkpt lat="47.327578" lon="8.518975"></trkpt>
      <trkpt lat="47.329907" lon="8.517012"></trkpt>
      <trkpt lat="47.33072" lon="8.516737"></trkpt>
      <trkpt lat="47.331169" lon="8.516831"></trkpt>
      <trkpt lat="47.331623" lon="8.517116"></trkpt>
      <trkpt lat="47.333534" lon="8.51917"></trkpt>
      <trkpt lat="47.334209" lon="8.519522"></trkpt>
      <trkpt lat="47.343167" lon="8.519952"></trkpt>
      <trkpt lat="47.344735" lon="8.519866"></trkpt>
      <trkpt lat="47.346151" lon="8.520231"></trkpt>
      <trkpt lat="47.346694" lon="8.520558"></trkpt>
      <trkpt lat="47.347065" lon="8.52093"></trkpt>
      <trkpt lat="47.349876" lon="8.52475"></trkpt>
      <trkpt lat="47.350678" lon="8.525643"></trkpt>
      <trkpt lat="47.351227" lon="8.526081"></trkpt>
      <trkpt lat="47.351672" lon="8.526212"></trkpt>
      <trkpt lat="47.352077" lon="8.526175"></trkpt>
      <trkpt lat="47.352573" lon="8.525916"></trkpt>
      <trkpt lat="47.354366" lon="8.524019"></trkpt>
      <trkpt lat="47.358566" lon="8.521534"></trkpt>
      <trkpt lat="47.359761" lon="8.520258"></trkpt>
      <trkpt lat="47.360125" lon="8.520019"></trkpt>
      <trkpt lat="47.360561" lon="8.519949"></trkpt>
      <trkpt lat="47.361086" lon="8.520151"></trkpt>
      <trkpt lat="47.362619" lon="8.521939"></trkpt>
  </trkseg></trk>
</gpx>
