<?xml version="1.0" encoding="UTF-8"?>
<gpx version="1.1" creator="yatutbuv" xmlns="http://www.topografix.com/GPX/1/1">
  <trk><name>2024_Warsaw -&gt; Muchen (1,075.9km)</name><trkseg>
      <trkpt lat="52.220296" lon="20.965168"></trkpt>
      <trkpt lat="52.219007" lon="20.95842"></trkpt>
      <trkpt lat="52.217913" lon="20.954142"></trkpt>
      <trkpt lat="52.216119" lon="20.948674"></trkpt>
      <trkpt lat="52.21428" lon="20.940024"></trkpt>
      <trkpt lat="52.213482" lon="20.937124"></trkpt>
      <trkpt lat="52.205758" lon="20.913216"></trkpt>
      <trkpt lat="52.203202" lon="20.905874"></trkpt>
      <trkpt lat="52.201357" lon="20.899933"></trkpt>
      <trkpt lat="52.182647" lon="20.84247"></trkpt>
      <trkpt lat="52.113773" lon="20.633425"></trkpt>
      <trkpt lat="52.108464" lon="20.618099"></trkpt>
      <trkpt lat="52.105624" lon="20.608814"></trkpt>
      <trkpt lat="52.087684" lon="20.554698"></trkpt>
      <trkpt lat="52.085352" lon="20.547033"></trkpt>
      <trkpt lat="52.084678" lon="20.544182"></trkpt>
      <trkpt lat="52.082661" lon="20.534226"></trkpt>
      <trkpt lat="52.081973" lon="20.531531"></trkpt>
      <trkpt lat="52.081161" lon="20.52893"></trkpt>
      <trkpt lat="52.080214" lon="20.526401"></trkpt>
      <trkpt lat="52.079181" lon="20.524066"></trkpt>
      <trkpt lat="52.078026" lon="20.521832"></trkpt>
      <trkpt lat="52.076769" lon="20.519748"></trkpt>
      <trkpt lat="52.075417" lon="20.517827"></trkpt>
      <trkpt lat="52.073978" lon="20.516079"></trkpt>
      <trkpt lat="52.07246" lon="20.514515"></trkpt>
      <trkpt lat="52.070874" lon="20.513145"></trkpt>
      <trkpt lat="52.069559" lon="20.512191"></trkpt>
      <trkpt lat="52.068064" lon="20.511291"></trkpt>
      <trkpt lat="52.066794" lon="20.510669"></trkpt>
      <trkpt lat="52.064868" lon="20.509918"></trkpt>
      <trkpt lat="52.031682" lon="20.498786"></trkpt>
      <trkpt lat="51.99246" lon="20.485808"></trkpt>
      <trkpt lat="51.989206" lon="20.484609"></trkpt>
      <trkpt lat="51.986654" lon="20.483337"></trkpt>
      <trkpt lat="51.984094" lon="20.481711"></trkpt>
      <trkpt lat="51.975329" lon="20.474896"></trkpt>
      <trkpt lat="51.973564" lon="20.473674"></trkpt>
      <trkpt lat="51.971877" lon="20.47267"></trkpt>
      <trkpt lat="51.95632" lon="20.464964"></trkpt>
      <trkpt lat="51.93464" lon="20.454474"></trkpt>
      <trkpt lat="51.931622" lon="20.453237"></trkpt>
      <trkpt lat="51.929219" lon="20.452561"></trkpt>
      <trkpt lat="51.926947" lon="20.452168"></trkpt>
      <trkpt lat="51.924303" lon="20.451995"></trkpt>
      <trkpt lat="51.878384" lon="20.451399"></trkpt>
      <trkpt lat="51.874839" lon="20.450831"></trkpt>
      <trkpt lat="51.841025" lon="20.443062"></trkpt>
      <trkpt lat="51.838319" lon="20.44256"></trkpt>
      <trkpt lat="51.795797" lon="20.439572"></trkpt>
      <trkpt lat="51.781111" lon="20.438481"></trkpt>
      <trkpt lat="51.779147" lon="20.438235"></trkpt>
      <trkpt lat="51.775587" lon="20.437431"></trkpt>
      <trkpt lat="51.77169" lon="20.436003"></trkpt>
      <trkpt lat="51.732456" lon="20.417143"></trkpt>
      <trkpt lat="51.728956" lon="20.415826"></trkpt>
      <trkpt lat="51.726138" lon="20.415183"></trkpt>
      <trkpt lat="51.724596" lon="20.414984"></trkpt>
      <trkpt lat="51.721801" lon="20.414822"></trkpt>
      <trkpt lat="51.671484" lon="20.412669"></trkpt>
      <trkpt lat="51.668632" lon="20.412472"></trkpt>
      <trkpt lat="51.66611" lon="20.41203"></trkpt>
      <trkpt lat="51.664337" lon="20.411549"></trkpt>
      <trkpt lat="51.655173" lon="20.40864"></trkpt>
      <trkpt lat="51.651301" lon="20.407571"></trkpt>
      <trkpt lat="51.643168" lon="20.404984"></trkpt>
      <trkpt lat="51.640459" lon="20.40396"></trkpt>
      <trkpt lat="51.634357" lon="20.402022"></trkpt>
      <trkpt lat="51.631752" lon="20.401311"></trkpt>
      <trkpt lat="51.629827" lon="20.400974"></trkpt>
      <trkpt lat="51.520691" lon="20.39205"></trkpt>
      <trkpt lat="51.518229" lon="20.391687"></trkpt>
      <trkpt lat="51.515939" lon="20.391103"></trkpt>
      <trkpt lat="51.514183" lon="20.39049"></trkpt>
      <trkpt lat="51.511555" lon="20.38929"></trkpt>
      <trkpt lat="51.509059" lon="20.387819"></trkpt>
      <trkpt lat="51.507413" lon="20.386661"></trkpt>
      <trkpt lat="51.48965" lon="20.372738"></trkpt>
      <trkpt lat="51.486536" lon="20.369864"></trkpt>
      <trkpt lat="51.483617" lon="20.366507"></trkpt>
      <trkpt lat="51.482239" lon="20.364658"></trkpt>
      <trkpt lat="51.480522" lon="20.362076"></trkpt>
      <trkpt lat="51.439089" lon="20.295121"></trkpt>
      <trkpt lat="51.436617" lon="20.291628"></trkpt>
      <trkpt lat="51.433548" lon="20.28808"></trkpt>
      <trkpt lat="51.431208" lon="20.285858"></trkpt>
      <trkpt lat="51.429037" lon="20.284116"></trkpt>
      <trkpt lat="51.387759" lon="20.253965"></trkpt>
      <trkpt lat="51.385807" lon="20.252706"></trkpt>
      <trkpt lat="51.383544" lon="20.251482"></trkpt>
      <trkpt lat="51.377476" lon="20.248919"></trkpt>
      <trkpt lat="51.375385" lon="20.247925"></trkpt>
      <trkpt lat="51.372446" lon="20.246152"></trkpt>
      <trkpt lat="51.370293" lon="20.244522"></trkpt>
      <trkpt lat="51.368318" lon="20.242797"></trkpt>
      <trkpt lat="51.366205" lon="20.240635"></trkpt>
      <trkpt lat="51.348191" lon="20.219612"></trkpt>
      <trkpt lat="51.34486" lon="20.215776"></trkpt>
      <trkpt lat="51.342785" lon="20.213603"></trkpt>
      <trkpt lat="51.339672" lon="20.210925"></trkpt>
      <trkpt lat="51.312126" lon="20.188866"></trkpt>
      <trkpt lat="51.304259" lon="20.182428"></trkpt>
      <trkpt lat="51.301804" lon="20.17993"></trkpt>
      <trkpt lat="51.300316" lon="20.178179"></trkpt>
      <trkpt lat="51.298418" lon="20.175671"></trkpt>
      <trkpt lat="51.277438" lon="20.143325"></trkpt>
      <trkpt lat="51.273072" lon="20.136829"></trkpt>
      <trkpt lat="51.270829" lon="20.134054"></trkpt>
      <trkpt lat="51.268365" lon="20.131442"></trkpt>
      <trkpt lat="51.265346" lon="20.128858"></trkpt>
      <trkpt lat="51.263855" lon="20.12777"></trkpt>
      <trkpt lat="51.255819" lon="20.122449"></trkpt>
      <trkpt lat="51.245754" lon="20.115927"></trkpt>
      <trkpt lat="51.243138" lon="20.114578"></trkpt>
      <trkpt lat="51.240598" lon="20.113592"></trkpt>
      <trkpt lat="51.238202" lon="20.112935"></trkpt>
      <trkpt lat="51.235923" lon="20.112532"></trkpt>
      <trkpt lat="51.19664" lon="20.10723"></trkpt>
      <trkpt lat="51.19359" lon="20.106575"></trkpt>
      <trkpt lat="51.189985" lon="20.105352"></trkpt>
      <trkpt lat="51.186915" lon="20.103957"></trkpt>
      <trkpt lat="51.121892" lon="20.07126"></trkpt>
      <trkpt lat="51.119617" lon="20.070225"></trkpt>
      <trkpt lat="51.117645" lon="20.069552"></trkpt>
      <trkpt lat="51.11567" lon="20.069062"></trkpt>
      <trkpt lat="51.113713" lon="20.068737"></trkpt>
      <trkpt lat="51.111304" lon="20.068592"></trkpt>
      <trkpt lat="51.105005" lon="20.06851"></trkpt>
      <trkpt lat="51.096579" lon="20.068527"></trkpt>
      <trkpt lat="51.093197" lon="20.06867"></trkpt>
      <trkpt lat="51.023746" lon="20.068869"></trkpt>
      <trkpt lat="51.021773" lon="20.068787"></trkpt>
      <trkpt lat="51.019509" lon="20.068498"></trkpt>
      <trkpt lat="51.016429" lon="20.067739"></trkpt>
      <trkpt lat="51.014199" lon="20.066937"></trkpt>
      <trkpt lat="50.965618" lon="20.047511"></trkpt>
      <trkpt lat="50.962145" lon="20.04603"></trkpt>
      <trkpt lat="50.959388" lon="20.044514"></trkpt>
      <trkpt lat="50.956001" lon="20.042084"></trkpt>
      <trkpt lat="50.953561" lon="20.03989"></trkpt>
      <trkpt lat="50.937487" lon="20.023746"></trkpt>
      <trkpt lat="50.933255" lon="20.019338"></trkpt>
      <trkpt lat="50.891363" lon="19.967303"></trkpt>
      <trkpt lat="50.889706" lon="19.965369"></trkpt>
      <trkpt lat="50.887547" lon="19.963185"></trkpt>
      <trkpt lat="50.884748" lon="19.96082"></trkpt>
      <trkpt lat="50.882551" lon="19.959301"></trkpt>
      <trkpt lat="50.880702" lon="19.958213"></trkpt>
      <trkpt lat="50.866515" lon="19.951121"></trkpt>
      <trkpt lat="50.860869" lon="19.948145"></trkpt>
      <trkpt lat="50.844889" lon="19.940275"></trkpt>
      <trkpt lat="50.841994" lon="19.938536"></trkpt>
      <trkpt lat="50.839403" lon="19.936583"></trkpt>
      <trkpt lat="50.786518" lon="19.892803"></trkpt>
      <trkpt lat="50.784275" lon="19.890578"></trkpt>
      <trkpt lat="50.781581" lon="19.887629"></trkpt>
      <trkpt lat="50.750384" lon="19.852952"></trkpt>
      <trkpt lat="50.748014" lon="19.849793"></trkpt>
      <trkpt lat="50.746327" lon="19.847168"></trkpt>
      <trkpt lat="50.744441" lon="19.843776"></trkpt>
      <trkpt lat="50.742354" lon="19.839275"></trkpt>
      <trkpt lat="50.714885" lon="19.766859"></trkpt>
      <trkpt lat="50.711749" lon="19.758872"></trkpt>
      <trkpt lat="50.709363" lon="19.754039"></trkpt>
      <trkpt lat="50.707747" lon="19.751285"></trkpt>
      <trkpt lat="50.706036" lon="19.74874"></trkpt>
      <trkpt lat="50.703439" lon="19.745423"></trkpt>
      <trkpt lat="50.701704" lon="19.743551"></trkpt>
      <trkpt lat="50.699661" lon="19.741604"></trkpt>
      <trkpt lat="50.691263" lon="19.734158"></trkpt>
      <trkpt lat="50.688227" lon="19.732025"></trkpt>
      <trkpt lat="50.685388" lon="19.730459"></trkpt>
      <trkpt lat="50.68393" lon="19.729817"></trkpt>
      <trkpt lat="50.681559" lon="19.728994"></trkpt>
      <trkpt lat="50.679158" lon="19.72842"></trkpt>
      <trkpt lat="50.677179" lon="19.728156"></trkpt>
      <trkpt lat="50.67521" lon="19.728053"></trkpt>
      <trkpt lat="50.672644" lon="19.728173"></trkpt>
      <trkpt lat="50.670082" lon="19.728586"></trkpt>
      <trkpt lat="50.666611" lon="19.729546"></trkpt>
      <trkpt lat="50.642625" lon="19.737154"></trkpt>
      <trkpt lat="50.639156" lon="19.737951"></trkpt>
      <trkpt lat="50.636015" lon="19.738226"></trkpt>
      <trkpt lat="50.633522" lon="19.738121"></trkpt>
      <trkpt lat="50.630347" lon="19.7376"></trkpt>
      <trkpt lat="50.627664" lon="19.736807"></trkpt>
      <trkpt lat="50.625467" lon="19.735905"></trkpt>
      <trkpt lat="50.622615" lon="19.734374"></trkpt>
      <trkpt lat="50.620383" lon="19.732868"></trkpt>
      <trkpt lat="50.618199" lon="19.731119"></trkpt>
      <trkpt lat="50.615126" lon="19.728104"></trkpt>
      <trkpt lat="50.613258" lon="19.725916"></trkpt>
      <trkpt lat="50.611448" lon="19.72351"></trkpt>
      <trkpt lat="50.609751" lon="19.720907"></trkpt>
      <trkpt lat="50.60844" lon="19.718649"></trkpt>
      <trkpt lat="50.606172" lon="19.714076"></trkpt>
      <trkpt lat="50.604921" lon="19.711063"></trkpt>
      <trkpt lat="50.603514" lon="19.707067"></trkpt>
      <trkpt lat="50.602587" lon="19.703937"></trkpt>
      <trkpt lat="50.601774" lon="19.700664"></trkpt>
      <trkpt lat="50.593755" lon="19.664113"></trkpt>
      <trkpt lat="50.592745" lon="19.659224"></trkpt>
      <trkpt lat="50.59186" lon="19.653163"></trkpt>
      <trkpt lat="50.591514" lon="19.649107"></trkpt>
      <trkpt lat="50.591341" lon="19.644537"></trkpt>
      <trkpt lat="50.591482" lon="19.63858"></trkpt>
      <trkpt lat="50.591832" lon="19.634178"></trkpt>
      <trkpt lat="50.59518" lon="19.600273"></trkpt>
      <trkpt lat="50.595433" lon="19.596631"></trkpt>
      <trkpt lat="50.59613" lon="19.574056"></trkpt>
      <trkpt lat="50.596018" lon="19.567844"></trkpt>
      <trkpt lat="50.595797" lon="19.564654"></trkpt>
      <trkpt lat="50.595296" lon="19.560308"></trkpt>
      <trkpt lat="50.59442" lon="19.55521"></trkpt>
      <trkpt lat="50.593722" lon="19.552122"></trkpt>
      <trkpt lat="50.592512" lon="19.547736"></trkpt>
      <trkpt lat="50.59093" lon="19.543173"></trkpt>
      <trkpt lat="50.586973" lon="19.533849"></trkpt>
      <trkpt lat="50.584875" lon="19.527887"></trkpt>
      <trkpt lat="50.583185" lon="19.521289"></trkpt>
      <trkpt lat="50.582141" lon="19.515145"></trkpt>
      <trkpt lat="50.581706" lon="19.511302"></trkpt>
      <trkpt lat="50.581368" lon="19.504362"></trkpt>
      <trkpt lat="50.581417" lon="19.50054"></trkpt>
      <trkpt lat="50.581623" lon="19.496736"></trkpt>
      <trkpt lat="50.586809" lon="19.442654"></trkpt>
      <trkpt lat="50.587037" lon="19.438163"></trkpt>
      <trkpt lat="50.587036" lon="19.43404"></trkpt>
      <trkpt lat="50.586768" lon="19.42877"></trkpt>
      <trkpt lat="50.586477" lon="19.425841"></trkpt>
      <trkpt lat="50.58578" lon="19.421068"></trkpt>
      <trkpt lat="50.585072" lon="19.417479"></trkpt>
      <trkpt lat="50.584011" lon="19.413274"></trkpt>
      <trkpt lat="50.582505" lon="19.408472"></trkpt>
      <trkpt lat="50.58103" lon="19.404686"></trkpt>
      <trkpt lat="50.579678" lon="19.401711"></trkpt>
      <trkpt lat="50.578426" lon="19.399281"></trkpt>
      <trkpt lat="50.576525" lon="19.39606"></trkpt>
      <trkpt lat="50.570961" lon="19.388141"></trkpt>
      <trkpt lat="50.569336" lon="19.386179"></trkpt>
      <trkpt lat="50.567876" lon="19.384665"></trkpt>
      <trkpt lat="50.566253" lon="19.383191"></trkpt>
      <trkpt lat="50.564295" lon="19.381626"></trkpt>
      <trkpt lat="50.562195" lon="19.380211"></trkpt>
      <trkpt lat="50.560294" lon="19.379142"></trkpt>
      <trkpt lat="50.557851" lon="19.378067"></trkpt>
      <trkpt lat="50.555365" lon="19.377283"></trkpt>
      <trkpt lat="50.552899" lon="19.376807"></trkpt>
      <trkpt lat="50.550588" lon="19.376624"></trkpt>
      <trkpt lat="50.548403" lon="19.376684"></trkpt>
      <trkpt lat="50.546202" lon="19.376974"></trkpt>
      <trkpt lat="50.543465" lon="19.377658"></trkpt>
      <trkpt lat="50.540633" lon="19.378759"></trkpt>
      <trkpt lat="50.522103" lon="19.387382"></trkpt>
      <trkpt lat="50.520611" lon="19.388226"></trkpt>
      <trkpt lat="50.518819" lon="19.389563"></trkpt>
      <trkpt lat="50.517427" lon="19.390888"></trkpt>
      <trkpt lat="50.515844" lon="19.392742"></trkpt>
      <trkpt lat="50.496214" lon="19.417704"></trkpt>
      <trkpt lat="50.494146" lon="19.420541"></trkpt>
      <trkpt lat="50.49329" lon="19.421396"></trkpt>
      <trkpt lat="50.492511" lon="19.421911"></trkpt>
      <trkpt lat="50.491945" lon="19.422156"></trkpt>
      <trkpt lat="50.490967" lon="19.422363"></trkpt>
      <trkpt lat="50.485028" lon="19.422566"></trkpt>
      <trkpt lat="50.476681" lon="19.423367"></trkpt>
      <trkpt lat="50.474448" lon="19.423723"></trkpt>
      <trkpt lat="50.463305" lon="19.424778"></trkpt>
      <trkpt lat="50.462412" lon="19.424789"></trkpt>
      <trkpt lat="50.461326" lon="19.42463"></trkpt>
      <trkpt lat="50.46014" lon="19.424222"></trkpt>
      <trkpt lat="50.459211" lon="19.423715"></trkpt>
      <trkpt lat="50.457754" lon="19.422542"></trkpt>
      <trkpt lat="50.452575" lon="19.416911"></trkpt>
      <trkpt lat="50.440755" lon="19.403562"></trkpt>
      <trkpt lat="50.421773" lon="19.382474"></trkpt>
      <trkpt lat="50.419237" lon="19.379092"></trkpt>
      <trkpt lat="50.417902" lon="19.37571"></trkpt>
      <trkpt lat="50.417217" lon="19.372893"></trkpt>
      <trkpt lat="50.414746" lon="19.349152"></trkpt>
      <trkpt lat="50.414312" lon="19.346828"></trkpt>
      <trkpt lat="50.413728" lon="19.344871"></trkpt>
      <trkpt lat="50.412612" lon="19.342411"></trkpt>
      <trkpt lat="50.411353" lon="19.340538"></trkpt>
      <trkpt lat="50.394583" lon="19.323166"></trkpt>
      <trkpt lat="50.393358" lon="19.321575"></trkpt>
      <trkpt lat="50.392429" lon="19.31988"></trkpt>
      <trkpt lat="50.391528" lon="19.317517"></trkpt>
      <trkpt lat="50.390848" lon="19.314497"></trkpt>
      <trkpt lat="50.387978" lon="19.29183"></trkpt>
      <trkpt lat="50.387268" lon="19.287855"></trkpt>
      <trkpt lat="50.386259" lon="19.284456"></trkpt>
      <trkpt lat="50.385039" lon="19.281577"></trkpt>
      <trkpt lat="50.383618" lon="19.279172"></trkpt>
      <trkpt lat="50.38214" lon="19.277317"></trkpt>
      <trkpt lat="50.37983" lon="19.275157"></trkpt>
      <trkpt lat="50.377081" lon="19.27297"></trkpt>
      <trkpt lat="50.374147" lon="19.270908"></trkpt>
      <trkpt lat="50.368003" lon="19.266143"></trkpt>
      <trkpt lat="50.362923" lon="19.262015"></trkpt>
      <trkpt lat="50.359455" lon="19.259842"></trkpt>
      <trkpt lat="50.356808" lon="19.258492"></trkpt>
      <trkpt lat="50.354455" lon="19.257593"></trkpt>
      <trkpt lat="50.352542" lon="19.2566"></trkpt>
      <trkpt lat="50.350497" lon="19.255952"></trkpt>
      <trkpt lat="50.349534" lon="19.255817"></trkpt>
      <trkpt lat="50.348538" lon="19.255833"></trkpt>
      <trkpt lat="50.346014" lon="19.256121"></trkpt>
      <trkpt lat="50.344231" lon="19.256507"></trkpt>
      <trkpt lat="50.338623" lon="19.258324"></trkpt>
      <trkpt lat="50.335902" lon="19.259546"></trkpt>
      <trkpt lat="50.333731" lon="19.260223"></trkpt>
      <trkpt lat="50.333016" lon="19.260271"></trkpt>
      <trkpt lat="50.332191" lon="19.260062"></trkpt>
      <trkpt lat="50.331414" lon="19.259565"></trkpt>
      <trkpt lat="50.325894" lon="19.254522"></trkpt>
      <trkpt lat="50.324759" lon="19.253696"></trkpt>
      <trkpt lat="50.323557" lon="19.253103"></trkpt>
      <trkpt lat="50.322588" lon="19.252809"></trkpt>
      <trkpt lat="50.320323" lon="19.252676"></trkpt>
      <trkpt lat="50.319511" lon="19.252869"></trkpt>
      <trkpt lat="50.318721" lon="19.253242"></trkpt>
      <trkpt lat="50.317974" lon="19.253781"></trkpt>
      <trkpt lat="50.317257" lon="19.254511"></trkpt>
      <trkpt lat="50.316163" lon="19.256177"></trkpt>
      <trkpt lat="50.313653" lon="19.260459"></trkpt>
      <trkpt lat="50.312754" lon="19.262356"></trkpt>
      <trkpt lat="50.313409" lon="19.260454"></trkpt>
      <trkpt lat="50.313702" lon="19.25899"></trkpt>
      <trkpt lat="50.313836" lon="19.257513"></trkpt>
      <trkpt lat="50.313736" lon="19.255361"></trkpt>
      <trkpt lat="50.31347" lon="19.253864"></trkpt>
      <trkpt lat="50.312849" lon="19.251975"></trkpt>
      <trkpt lat="50.312227" lon="19.250757"></trkpt>
      <trkpt lat="50.311364" lon="19.249629"></trkpt>
      <trkpt lat="50.310491" lon="19.248856"></trkpt>
      <trkpt lat="50.309579" lon="19.248336"></trkpt>
      <trkpt lat="50.300496" lon="19.245457"></trkpt>
      <trkpt lat="50.29931" lon="19.244872"></trkpt>
      <trkpt lat="50.298376" lon="19.244221"></trkpt>
      <trkpt lat="50.297209" lon="19.24311"></trkpt>
      <trkpt lat="50.296396" lon="19.24207"></trkpt>
      <trkpt lat="50.289702" lon="19.232596"></trkpt>
      <trkpt lat="50.288601" lon="19.231652"></trkpt>
      <trkpt lat="50.28477" lon="19.229752"></trkpt>
      <trkpt lat="50.283725" lon="19.228925"></trkpt>
      <trkpt lat="50.282949" lon="19.227975"></trkpt>
      <trkpt lat="50.278531" lon="19.221372"></trkpt>
      <trkpt lat="50.277935" lon="19.220624"></trkpt>
      <trkpt lat="50.276945" lon="19.219763"></trkpt>
      <trkpt lat="50.273373" lon="19.217711"></trkpt>
      <trkpt lat="50.272498" lon="19.216853"></trkpt>
      <trkpt lat="50.271813" lon="19.215875"></trkpt>
      <trkpt lat="50.271076" lon="19.214242"></trkpt>
      <trkpt lat="50.266029" lon="19.199931"></trkpt>
      <trkpt lat="50.26561" lon="19.198238"></trkpt>
      <trkpt lat="50.265404" lon="19.196647"></trkpt>
      <trkpt lat="50.265398" lon="19.194297"></trkpt>
      <trkpt lat="50.266015" lon="19.189716"></trkpt>
      <trkpt lat="50.266095" lon="19.187704"></trkpt>
      <trkpt lat="50.264812" lon="19.156485"></trkpt>
      <trkpt lat="50.265023" lon="19.154379"></trkpt>
      <trkpt lat="50.265793" lon="19.151176"></trkpt>
      <trkpt lat="50.26602" lon="19.149679"></trkpt>
      <trkpt lat="50.266063" lon="19.147843"></trkpt>
      <trkpt lat="50.265833" lon="19.14605"></trkpt>
      <trkpt lat="50.265377" lon="19.144585"></trkpt>
      <trkpt lat="50.263478" lon="19.140367"></trkpt>
      <trkpt lat="50.263133" lon="19.13937"></trkpt>
      <trkpt lat="50.259616" lon="19.123634"></trkpt>
      <trkpt lat="50.2591" lon="19.122111"></trkpt>
      <trkpt lat="50.258359" lon="19.120825"></trkpt>
      <trkpt lat="50.257764" lon="19.120153"></trkpt>
      <trkpt lat="50.254113" lon="19.117161"></trkpt>
      <trkpt lat="50.253694" lon="19.116569"></trkpt>
      <trkpt lat="50.253308" lon="19.115675"></trkpt>
      <trkpt lat="50.253023" lon="19.114037"></trkpt>
      <trkpt lat="50.252844" lon="19.10847"></trkpt>
      <trkpt lat="50.252542" lon="19.106796"></trkpt>
      <trkpt lat="50.252089" lon="19.105516"></trkpt>
      <trkpt lat="50.246346" lon="19.094964"></trkpt>
      <trkpt lat="50.236968" lon="19.078747"></trkpt>
      <trkpt lat="50.234232" lon="19.073095"></trkpt>
      <trkpt lat="50.23351" lon="19.071045"></trkpt>
      <trkpt lat="50.230875" lon="19.061102"></trkpt>
      <trkpt lat="50.230633" lon="19.059391"></trkpt>
      <trkpt lat="50.230789" lon="19.056926"></trkpt>
      <trkpt lat="50.232214" lon="19.044465"></trkpt>
      <trkpt lat="50.232131" lon="19.041083"></trkpt>
      <trkpt lat="50.228719" lon="19.022974"></trkpt>
      <trkpt lat="50.226236" lon="19.008081"></trkpt>
      <trkpt lat="50.225666" lon="19.006269"></trkpt>
      <trkpt lat="50.223564" lon="19.001922"></trkpt>
      <trkpt lat="50.221989" lon="18.997426"></trkpt>
      <trkpt lat="50.221238" lon="18.995621"></trkpt>
      <trkpt lat="50.219644" lon="18.99282"></trkpt>
      <trkpt lat="50.218411" lon="18.991208"></trkpt>
      <trkpt lat="50.216581" lon="18.988298"></trkpt>
      <trkpt lat="50.216028" lon="18.987063"></trkpt>
      <trkpt lat="50.215735" lon="18.985833"></trkpt>
      <trkpt lat="50.215645" lon="18.984679"></trkpt>
      <trkpt lat="50.215754" lon="18.983293"></trkpt>
      <trkpt lat="50.216018" lon="18.982225"></trkpt>
      <trkpt lat="50.21639" lon="18.981354"></trkpt>
      <trkpt lat="50.216986" lon="18.980471"></trkpt>
      <trkpt lat="50.217675" lon="18.979847"></trkpt>
      <trkpt lat="50.218209" lon="18.979565"></trkpt>
      <trkpt lat="50.219312" lon="18.979321"></trkpt>
      <trkpt lat="50.218408" lon="18.97919"></trkpt>
      <trkpt lat="50.217446" lon="18.978542"></trkpt>
      <trkpt lat="50.216776" lon="18.977834"></trkpt>
      <trkpt lat="50.21622" lon="18.976843"></trkpt>
      <trkpt lat="50.191675" lon="18.916969"></trkpt>
      <trkpt lat="50.190285" lon="18.914134"></trkpt>
      <trkpt lat="50.189421" lon="18.912769"></trkpt>
      <trkpt lat="50.188063" lon="18.911057"></trkpt>
      <trkpt lat="50.1805" lon="18.903291"></trkpt>
      <trkpt lat="50.179356" lon="18.902432"></trkpt>
      <trkpt lat="50.178094" lon="18.901709"></trkpt>
      <trkpt lat="50.175368" lon="18.901018"></trkpt>
      <trkpt lat="50.174661" lon="18.900681"></trkpt>
      <trkpt lat="50.172685" lon="18.898915"></trkpt>
      <trkpt lat="50.172208" lon="18.898307"></trkpt>
      <trkpt lat="50.171534" lon="18.897003"></trkpt>
      <trkpt lat="50.170999" lon="18.895342"></trkpt>
      <trkpt lat="50.170761" lon="18.893741"></trkpt>
      <trkpt lat="50.170321" lon="18.883687"></trkpt>
      <trkpt lat="50.170023" lon="18.881191"></trkpt>
      <trkpt lat="50.168831" lon="18.8761"></trkpt>
      <trkpt lat="50.167377" lon="18.872128"></trkpt>
      <trkpt lat="50.167079" lon="18.871046"></trkpt>
      <trkpt lat="50.166771" lon="18.869205"></trkpt>
      <trkpt lat="50.166319" lon="18.864532"></trkpt>
      <trkpt lat="50.166048" lon="18.86303"></trkpt>
      <trkpt lat="50.165455" lon="18.860935"></trkpt>
      <trkpt lat="50.1634" lon="18.855045"></trkpt>
      <trkpt lat="50.162466" lon="18.853172"></trkpt>
      <trkpt lat="50.160665" lon="18.850218"></trkpt>
      <trkpt lat="50.160179" lon="18.849019"></trkpt>
      <trkpt lat="50.159699" lon="18.847259"></trkpt>
      <trkpt lat="50.1594" lon="18.84474"></trkpt>
      <trkpt lat="50.1594" lon="18.837216"></trkpt>
      <trkpt lat="50.159276" lon="18.835442"></trkpt>
      <trkpt lat="50.158737" lon="18.833264"></trkpt>
      <trkpt lat="50.157554" lon="18.83069"></trkpt>
      <trkpt lat="50.157016" lon="18.829041"></trkpt>
      <trkpt lat="50.156681" lon="18.826972"></trkpt>
      <trkpt lat="50.156703" lon="18.825022"></trkpt>
      <trkpt lat="50.157166" lon="18.822977"></trkpt>
      <trkpt lat="50.157903" lon="18.821223"></trkpt>
      <trkpt lat="50.162785" lon="18.812059"></trkpt>
      <trkpt lat="50.163941" lon="18.809336"></trkpt>
      <trkpt lat="50.16438" lon="18.807493"></trkpt>
      <trkpt lat="50.164553" lon="18.806132"></trkpt>
      <trkpt lat="50.164603" lon="18.804317"></trkpt>
      <trkpt lat="50.164422" lon="18.802337"></trkpt>
      <trkpt lat="50.163176" lon="18.793476"></trkpt>
      <trkpt lat="50.162814" lon="18.791517"></trkpt>
      <trkpt lat="50.161735" lon="18.787644"></trkpt>
      <trkpt lat="50.160621" lon="18.784841"></trkpt>
      <trkpt lat="50.159599" lon="18.783062"></trkpt>
      <trkpt lat="50.158181" lon="18.781275"></trkpt>
      <trkpt lat="50.155299" lon="18.778615"></trkpt>
      <trkpt lat="50.148856" lon="18.772169"></trkpt>
      <trkpt lat="50.147719" lon="18.770399"></trkpt>
      <trkpt lat="50.14682" lon="18.767991"></trkpt>
      <trkpt lat="50.14607" lon="18.764451"></trkpt>
      <trkpt lat="50.145612" lon="18.760644"></trkpt>
      <trkpt lat="50.14505" lon="18.744111"></trkpt>
      <trkpt lat="50.144726" lon="18.739753"></trkpt>
      <trkpt lat="50.144164" lon="18.73585"></trkpt>
      <trkpt lat="50.141564" lon="18.721141"></trkpt>
      <trkpt lat="50.14048" lon="18.710984"></trkpt>
      <trkpt lat="50.140367" lon="18.709043"></trkpt>
      <trkpt lat="50.140482" lon="18.705181"></trkpt>
      <trkpt lat="50.141094" lon="18.701181"></trkpt>
      <trkpt lat="50.141822" lon="18.698513"></trkpt>
      <trkpt lat="50.143481" lon="18.69405"></trkpt>
      <trkpt lat="50.144527" lon="18.691735"></trkpt>
      <trkpt lat="50.145874" lon="18.689351"></trkpt>
      <trkpt lat="50.150444" lon="18.682672"></trkpt>
      <trkpt lat="50.15244" lon="18.679207"></trkpt>
      <trkpt lat="50.154588" lon="18.674575"></trkpt>
      <trkpt lat="50.155406" lon="18.671993"></trkpt>
      <trkpt lat="50.15588" lon="18.669825"></trkpt>
      <trkpt lat="50.157078" lon="18.66178"></trkpt>
      <trkpt lat="50.157178" lon="18.660149"></trkpt>
      <trkpt lat="50.157129" lon="18.658719"></trkpt>
      <trkpt lat="50.155188" lon="18.64278"></trkpt>
      <trkpt lat="50.154363" lon="18.639109"></trkpt>
      <trkpt lat="50.153246" lon="18.636007"></trkpt>
      <trkpt lat="50.15175" lon="18.633139"></trkpt>
      <trkpt lat="50.146797" lon="18.625628"></trkpt>
      <trkpt lat="50.144731" lon="18.621836"></trkpt>
      <trkpt lat="50.143759" lon="18.620521"></trkpt>
      <trkpt lat="50.142456" lon="18.619453"></trkpt>
      <trkpt lat="50.132026" lon="18.612141"></trkpt>
      <trkpt lat="50.124518" lon="18.606328"></trkpt>
      <trkpt lat="50.123647" lon="18.605508"></trkpt>
      <trkpt lat="50.122913" lon="18.604618"></trkpt>
      <trkpt lat="50.121862" lon="18.602944"></trkpt>
      <trkpt lat="50.10286" lon="18.565595"></trkpt>
      <trkpt lat="50.10196" lon="18.56438"></trkpt>
      <trkpt lat="50.10095" lon="18.563537"></trkpt>
      <trkpt lat="50.100115" lon="18.563126"></trkpt>
      <trkpt lat="50.096952" lon="18.561933"></trkpt>
      <trkpt lat="50.096122" lon="18.561327"></trkpt>
      <trkpt lat="50.095373" lon="18.560521"></trkpt>
      <trkpt lat="50.094598" lon="18.559297"></trkpt>
      <trkpt lat="50.092671" lon="18.555371"></trkpt>
      <trkpt lat="50.090626" lon="18.551996"></trkpt>
      <trkpt lat="50.088126" lon="18.546715"></trkpt>
      <trkpt lat="50.086651" lon="18.544538"></trkpt>
      <trkpt lat="50.085454" lon="18.54339"></trkpt>
      <trkpt lat="50.084382" lon="18.542766"></trkpt>
      <trkpt lat="50.079626" lon="18.54177"></trkpt>
      <trkpt lat="50.077864" lon="18.541143"></trkpt>
      <trkpt lat="50.077024" lon="18.540583"></trkpt>
      <trkpt lat="50.076273" lon="18.539896"></trkpt>
      <trkpt lat="50.074345" lon="18.537434"></trkpt>
      <trkpt lat="50.073169" lon="18.535356"></trkpt>
      <trkpt lat="50.071728" lon="18.531744"></trkpt>
      <trkpt lat="50.070396" lon="18.529018"></trkpt>
      <trkpt lat="50.067597" lon="18.520984"></trkpt>
      <trkpt lat="50.066664" lon="18.516848"></trkpt>
      <trkpt lat="50.065687" lon="18.508847"></trkpt>
      <trkpt lat="50.065303" lon="18.507481"></trkpt>
      <trkpt lat="50.064696" lon="18.506402"></trkpt>
      <trkpt lat="50.063519" lon="18.505084"></trkpt>
      <trkpt lat="50.062797" lon="18.504534"></trkpt>
      <trkpt lat="50.059962" lon="18.502822"></trkpt>
      <trkpt lat="50.058899" lon="18.501819"></trkpt>
      <trkpt lat="50.054853" lon="18.495014"></trkpt>
      <trkpt lat="50.054177" lon="18.494126"></trkpt>
      <trkpt lat="50.053253" lon="18.493373"></trkpt>
      <trkpt lat="50.052411" lon="18.493013"></trkpt>
      <trkpt lat="50.051528" lon="18.492922"></trkpt>
      <trkpt lat="50.048975" lon="18.493326"></trkpt>
      <trkpt lat="50.048245" lon="18.493292"></trkpt>
      <trkpt lat="50.047428" lon="18.492965"></trkpt>
      <trkpt lat="50.046061" lon="18.492057"></trkpt>
      <trkpt lat="50.045394" lon="18.491846"></trkpt>
      <trkpt lat="50.044754" lon="18.491819"></trkpt>
      <trkpt lat="50.044088" lon="18.491977"></trkpt>
      <trkpt lat="50.043269" lon="18.492509"></trkpt>
      <trkpt lat="50.040418" lon="18.495516"></trkpt>
      <trkpt lat="50.039315" lon="18.496276"></trkpt>
      <trkpt lat="50.038625" lon="18.496495"></trkpt>
      <trkpt lat="50.037832" lon="18.496538"></trkpt>
      <trkpt lat="50.035378" lon="18.49591"></trkpt>
      <trkpt lat="50.034652" lon="18.495545"></trkpt>
      <trkpt lat="50.033624" lon="18.494601"></trkpt>
      <trkpt lat="50.031487" lon="18.491455"></trkpt>
      <trkpt lat="50.027166" lon="18.486578"></trkpt>
      <trkpt lat="50.026218" lon="18.485732"></trkpt>
      <trkpt lat="50.020099" lon="18.481094"></trkpt>
      <trkpt lat="50.015217" lon="18.478465"></trkpt>
      <trkpt lat="50.012907" lon="18.477375"></trkpt>
      <trkpt lat="50.003201" lon="18.475135"></trkpt>
      <trkpt lat="50.002277" lon="18.474627"></trkpt>
      <trkpt lat="50.001425" lon="18.47363"></trkpt>
      <trkpt lat="50.000786" lon="18.472281"></trkpt>
      <trkpt lat="49.998068" lon="18.462777"></trkpt>
      <trkpt lat="49.997322" lon="18.460974"></trkpt>
      <trkpt lat="49.996247" lon="18.459596"></trkpt>
      <trkpt lat="49.993444" lon="18.457505"></trkpt>
      <trkpt lat="49.991513" lon="18.454597"></trkpt>
      <trkpt lat="49.988713" lon="18.451364"></trkpt>
      <trkpt lat="49.987919" lon="18.450061"></trkpt>
      <trkpt lat="49.987446" lon="18.448775"></trkpt>
      <trkpt lat="49.987189" lon="18.447559"></trkpt>
      <trkpt lat="49.986844" lon="18.443258"></trkpt>
      <trkpt lat="49.986628" lon="18.441906"></trkpt>
      <trkpt lat="49.985855" lon="18.439502"></trkpt>
      <trkpt lat="49.985431" lon="18.438572"></trkpt>
      <trkpt lat="49.98478" lon="18.437587"></trkpt>
      <trkpt lat="49.984033" lon="18.436831"></trkpt>
      <trkpt lat="49.981658" lon="18.435354"></trkpt>
      <trkpt lat="49.980738" lon="18.434526"></trkpt>
      <trkpt lat="49.980014" lon="18.433473"></trkpt>
      <trkpt lat="49.978358" lon="18.430306"></trkpt>
      <trkpt lat="49.977573" lon="18.4294"></trkpt>
      <trkpt lat="49.975784" lon="18.427962"></trkpt>
      <trkpt lat="49.975079" lon="18.427254"></trkpt>
      <trkpt lat="49.974353" lon="18.426145"></trkpt>
      <trkpt lat="49.973788" lon="18.424753"></trkpt>
      <trkpt lat="49.973461" lon="18.423275"></trkpt>
      <trkpt lat="49.973354" lon="18.421693"></trkpt>
      <trkpt lat="49.974112" lon="18.414197"></trkpt>
      <trkpt lat="49.974072" lon="18.412857"></trkpt>
      <trkpt lat="49.973875" lon="18.411579"></trkpt>
      <trkpt lat="49.973348" lon="18.409937"></trkpt>
      <trkpt lat="49.971635" lon="18.406683"></trkpt>
      <trkpt lat="49.971285" lon="18.405778"></trkpt>
      <trkpt lat="49.969748" lon="18.399892"></trkpt>
      <trkpt lat="49.967893" lon="18.39532"></trkpt>
      <trkpt lat="49.967587" lon="18.393785"></trkpt>
      <trkpt lat="49.967512" lon="18.392721"></trkpt>
      <trkpt lat="49.967684" lon="18.390635"></trkpt>
      <trkpt lat="49.968254" lon="18.388706"></trkpt>
      <trkpt lat="49.972766" lon="18.380543"></trkpt>
      <trkpt lat="49.973266" lon="18.379103"></trkpt>
      <trkpt lat="49.973478" lon="18.377481"></trkpt>
      <trkpt lat="49.973432" lon="18.376286"></trkpt>
      <trkpt lat="49.972557" lon="18.371165"></trkpt>
      <trkpt lat="49.971951" lon="18.369226"></trkpt>
      <trkpt lat="49.966973" lon="18.357898"></trkpt>
      <trkpt lat="49.960809" lon="18.340157"></trkpt>
      <trkpt lat="49.952371" lon="18.317237"></trkpt>
      <trkpt lat="49.951451" lon="18.31553"></trkpt>
      <trkpt lat="49.943016" lon="18.304991"></trkpt>
      <trkpt lat="49.941869" lon="18.303901"></trkpt>
      <trkpt lat="49.940616" lon="18.30338"></trkpt>
      <trkpt lat="49.939654" lon="18.303374"></trkpt>
      <trkpt lat="49.934721" lon="18.305082"></trkpt>
      <trkpt lat="49.933003" lon="18.305921"></trkpt>
      <trkpt lat="49.930346" lon="18.30768"></trkpt>
      <trkpt lat="49.9262" lon="18.310989"></trkpt>
      <trkpt lat="49.92306" lon="18.313632"></trkpt>
      <trkpt lat="49.919616" lon="18.317264"></trkpt>
      <trkpt lat="49.918682" lon="18.318484"></trkpt>
      <trkpt lat="49.914582" lon="18.32547"></trkpt>
      <trkpt lat="49.903406" lon="18.339701"></trkpt>
      <trkpt lat="49.90235" lon="18.34086"></trkpt>
      <trkpt lat="49.90143" lon="18.34132"></trkpt>
      <trkpt lat="49.900467" lon="18.34136"></trkpt>
      <trkpt lat="49.89432" lon="18.340093"></trkpt>
      <trkpt lat="49.891796" lon="18.339754"></trkpt>
      <trkpt lat="49.891034" lon="18.339388"></trkpt>
      <trkpt lat="49.890237" lon="18.338657"></trkpt>
      <trkpt lat="49.88966" lon="18.337802"></trkpt>
      <trkpt lat="49.886072" lon="18.331041"></trkpt>
      <trkpt lat="49.884535" lon="18.328651"></trkpt>
      <trkpt lat="49.883467" lon="18.326342"></trkpt>
      <trkpt lat="49.879068" lon="18.318029"></trkpt>
      <trkpt lat="49.877559" lon="18.315682"></trkpt>
      <trkpt lat="49.855354" lon="18.273946"></trkpt>
      <trkpt lat="49.853302" lon="18.269719"></trkpt>
      <trkpt lat="49.850744" lon="18.26492"></trkpt>
      <trkpt lat="49.848887" lon="18.261802"></trkpt>
      <trkpt lat="49.847673" lon="18.259518"></trkpt>
      <trkpt lat="49.846822" lon="18.257376"></trkpt>
      <trkpt lat="49.835132" lon="18.23547"></trkpt>
      <trkpt lat="49.833195" lon="18.231051"></trkpt>
      <trkpt lat="49.82854" lon="18.216456"></trkpt>
      <trkpt lat="49.827737" lon="18.214766"></trkpt>
      <trkpt lat="49.827017" lon="18.213711"></trkpt>
      <trkpt lat="49.826147" lon="18.212787"></trkpt>
      <trkpt lat="49.824897" lon="18.211972"></trkpt>
      <trkpt lat="49.817885" lon="18.208767"></trkpt>
      <trkpt lat="49.814013" lon="18.206742"></trkpt>
      <trkpt lat="49.781436" lon="18.191302"></trkpt>
      <trkpt lat="49.779641" lon="18.190414"></trkpt>
      <trkpt lat="49.778622" lon="18.189778"></trkpt>
      <trkpt lat="49.777446" lon="18.188859"></trkpt>
      <trkpt lat="49.775815" lon="18.18718"></trkpt>
      <trkpt lat="49.758186" lon="18.165998"></trkpt>
      <trkpt lat="49.756566" lon="18.163813"></trkpt>
      <trkpt lat="49.742169" lon="18.139192"></trkpt>
      <trkpt lat="49.74117" lon="18.137203"></trkpt>
      <trkpt lat="49.740135" lon="18.134035"></trkpt>
      <trkpt lat="49.734082" lon="18.110003"></trkpt>
      <trkpt lat="49.733302" lon="18.107583"></trkpt>
      <trkpt lat="49.732456" lon="18.105753"></trkpt>
      <trkpt lat="49.731656" lon="18.104436"></trkpt>
      <trkpt lat="49.730521" lon="18.102953"></trkpt>
      <trkpt lat="49.712175" lon="18.081021"></trkpt>
      <trkpt lat="49.710884" lon="18.079177"></trkpt>
      <trkpt lat="49.710027" lon="18.077465"></trkpt>
      <trkpt lat="49.709347" lon="18.07555"></trkpt>
      <trkpt lat="49.708878" lon="18.073734"></trkpt>
      <trkpt lat="49.707163" lon="18.063616"></trkpt>
      <trkpt lat="49.7059" lon="18.057656"></trkpt>
      <trkpt lat="49.70483" lon="18.051453"></trkpt>
      <trkpt lat="49.704358" lon="18.049494"></trkpt>
      <trkpt lat="49.703545" lon="18.046928"></trkpt>
      <trkpt lat="49.703013" lon="18.045551"></trkpt>
      <trkpt lat="49.701159" lon="18.041763"></trkpt>
      <trkpt lat="49.687998" lon="18.015904"></trkpt>
      <trkpt lat="49.687244" lon="18.01425"></trkpt>
      <trkpt lat="49.686103" lon="18.011065"></trkpt>
      <trkpt lat="49.678064" lon="17.985475"></trkpt>
      <trkpt lat="49.676745" lon="17.982205"></trkpt>
      <trkpt lat="49.675677" lon="17.980282"></trkpt>
      <trkpt lat="49.674047" lon="17.978054"></trkpt>
      <trkpt lat="49.646907" lon="17.946501"></trkpt>
      <trkpt lat="49.645272" lon="17.944388"></trkpt>
      <trkpt lat="49.64464" lon="17.943429"></trkpt>
      <trkpt lat="49.643348" lon="17.941028"></trkpt>
      <trkpt lat="49.633461" lon="17.919474"></trkpt>
      <trkpt lat="49.632027" lon="17.916988"></trkpt>
      <trkpt lat="49.630809" lon="17.915392"></trkpt>
      <trkpt lat="49.629045" lon="17.913653"></trkpt>
      <trkpt lat="49.606597" lon="17.89461"></trkpt>
      <trkpt lat="49.604871" lon="17.893335"></trkpt>
      <trkpt lat="49.603531" lon="17.892842"></trkpt>
      <trkpt lat="49.601973" lon="17.892809"></trkpt>
      <trkpt lat="49.600844" lon="17.893132"></trkpt>
      <trkpt lat="49.595786" lon="17.895321"></trkpt>
      <trkpt lat="49.594787" lon="17.89553"></trkpt>
      <trkpt lat="49.593581" lon="17.895466"></trkpt>
      <trkpt lat="49.584714" lon="17.893441"></trkpt>
      <trkpt lat="49.583487" lon="17.893037"></trkpt>
      <trkpt lat="49.582566" lon="17.892485"></trkpt>
      <trkpt lat="49.581765" lon="17.891768"></trkpt>
      <trkpt lat="49.581037" lon="17.890931"></trkpt>
      <trkpt lat="49.580371" lon="17.889894"></trkpt>
      <trkpt lat="49.579381" lon="17.887693"></trkpt>
      <trkpt lat="49.577" lon="17.881743"></trkpt>
      <trkpt lat="49.575859" lon="17.878008"></trkpt>
      <trkpt lat="49.574095" lon="17.868703"></trkpt>
      <trkpt lat="49.573775" lon="17.864871"></trkpt>
      <trkpt lat="49.573779" lon="17.861664"></trkpt>
      <trkpt lat="49.574911" lon="17.849828"></trkpt>
      <trkpt lat="49.578891" lon="17.81275"></trkpt>
      <trkpt lat="49.579231" lon="17.811052"></trkpt>
      <trkpt lat="49.579911" lon="17.808855"></trkpt>
      <trkpt lat="49.584496" lon="17.797982"></trkpt>
      <trkpt lat="49.585103" lon="17.795892"></trkpt>
      <trkpt lat="49.585459" lon="17.793672"></trkpt>
      <trkpt lat="49.585556" lon="17.791834"></trkpt>
      <trkpt lat="49.585479" lon="17.789966"></trkpt>
      <trkpt lat="49.584032" lon="17.776293"></trkpt>
      <trkpt lat="49.584078" lon="17.774339"></trkpt>
      <trkpt lat="49.584922" lon="17.763917"></trkpt>
      <trkpt lat="49.584881" lon="17.762004"></trkpt>
      <trkpt lat="49.584636" lon="17.76"></trkpt>
      <trkpt lat="49.583943" lon="17.757329"></trkpt>
      <trkpt lat="49.58236" lon="17.753502"></trkpt>
      <trkpt lat="49.58149" lon="17.75203"></trkpt>
      <trkpt lat="49.580241" lon="17.750718"></trkpt>
      <trkpt lat="49.578843" lon="17.749906"></trkpt>
      <trkpt lat="49.577762" lon="17.749643"></trkpt>
      <trkpt lat="49.576806" lon="17.749644"></trkpt>
      <trkpt lat="49.574407" lon="17.750004"></trkpt>
      <trkpt lat="49.57345" lon="17.749931"></trkpt>
      <trkpt lat="49.572612" lon="17.74969"></trkpt>
      <trkpt lat="49.571226" lon="17.748855"></trkpt>
      <trkpt lat="49.568998" lon="17.746586"></trkpt>
      <trkpt lat="49.567255" lon="17.744351"></trkpt>
      <trkpt lat="49.566503" lon="17.743103"></trkpt>
      <trkpt lat="49.564486" lon="17.738716"></trkpt>
      <trkpt lat="49.562841" lon="17.734086"></trkpt>
      <trkpt lat="49.560077" lon="17.720613"></trkpt>
      <trkpt lat="49.558125" lon="17.709817"></trkpt>
      <trkpt lat="49.558053" lon="17.708561"></trkpt>
      <trkpt lat="49.558156" lon="17.706612"></trkpt>
      <trkpt lat="49.559209" lon="17.699542"></trkpt>
      <trkpt lat="49.559181" lon="17.697382"></trkpt>
      <trkpt lat="49.558789" lon="17.694945"></trkpt>
      <trkpt lat="49.558328" lon="17.693424"></trkpt>
      <trkpt lat="49.557799" lon="17.692221"></trkpt>
      <trkpt lat="49.55489" lon="17.68737"></trkpt>
      <trkpt lat="49.553505" lon="17.684817"></trkpt>
      <trkpt lat="49.553052" lon="17.683766"></trkpt>
      <trkpt lat="49.549903" lon="17.67365"></trkpt>
      <trkpt lat="49.546939" lon="17.663642"></trkpt>
      <trkpt lat="49.546089" lon="17.661609"></trkpt>
      <trkpt lat="49.544457" lon="17.658583"></trkpt>
      <trkpt lat="49.543787" lon="17.656886"></trkpt>
      <trkpt lat="49.543356" lon="17.65504"></trkpt>
      <trkpt lat="49.54269" lon="17.650652"></trkpt>
      <trkpt lat="49.542077" lon="17.648402"></trkpt>
      <trkpt lat="49.541402" lon="17.646647"></trkpt>
      <trkpt lat="49.539066" lon="17.64143"></trkpt>
      <trkpt lat="49.53846" lon="17.639582"></trkpt>
      <trkpt lat="49.53794" lon="17.637314"></trkpt>
      <trkpt lat="49.537611" lon="17.634877"></trkpt>
      <trkpt lat="49.532756" lon="17.583777"></trkpt>
      <trkpt lat="49.532463" lon="17.581467"></trkpt>
      <trkpt lat="49.532119" lon="17.579403"></trkpt>
      <trkpt lat="49.531408" lon="17.577011"></trkpt>
      <trkpt lat="49.530462" lon="17.575031"></trkpt>
      <trkpt lat="49.528259" lon="17.571295"></trkpt>
      <trkpt lat="49.52733" lon="17.568914"></trkpt>
      <trkpt lat="49.526964" lon="17.567209"></trkpt>
      <trkpt lat="49.526828" lon="17.565196"></trkpt>
      <trkpt lat="49.526915" lon="17.55018"></trkpt>
      <trkpt lat="49.52681" lon="17.548761"></trkpt>
      <trkpt lat="49.526454" lon="17.54689"></trkpt>
      <trkpt lat="49.525577" lon="17.54447"></trkpt>
      <trkpt lat="49.518347" lon="17.52863"></trkpt>
      <trkpt lat="49.517631" lon="17.526748"></trkpt>
      <trkpt lat="49.517129" lon="17.524331"></trkpt>
      <trkpt lat="49.516629" lon="17.516643"></trkpt>
      <trkpt lat="49.516424" lon="17.515352"></trkpt>
      <trkpt lat="49.515909" lon="17.513515"></trkpt>
      <trkpt lat="49.515048" lon="17.511673"></trkpt>
      <trkpt lat="49.509971" lon="17.504281"></trkpt>
      <trkpt lat="49.508417" lon="17.501438"></trkpt>
      <trkpt lat="49.507533" lon="17.499155"></trkpt>
      <trkpt lat="49.502094" lon="17.482111"></trkpt>
      <trkpt lat="49.501344" lon="17.480385"></trkpt>
      <trkpt lat="49.500395" lon="17.478814"></trkpt>
      <trkpt lat="49.497877" lon="17.475709"></trkpt>
      <trkpt lat="49.47636" lon="17.450717"></trkpt>
      <trkpt lat="49.474566" lon="17.449182"></trkpt>
      <trkpt lat="49.472762" lon="17.448126"></trkpt>
      <trkpt lat="49.471414" lon="17.447641"></trkpt>
      <trkpt lat="49.468344" lon="17.446975"></trkpt>
      <trkpt lat="49.467373" lon="17.446511"></trkpt>
      <trkpt lat="49.466593" lon="17.445954"></trkpt>
      <trkpt lat="49.465378" lon="17.444672"></trkpt>
      <trkpt lat="49.464555" lon="17.443394"></trkpt>
      <trkpt lat="49.461746" lon="17.437339"></trkpt>
      <trkpt lat="49.460756" lon="17.435833"></trkpt>
      <trkpt lat="49.460015" lon="17.435055"></trkpt>
      <trkpt lat="49.458722" lon="17.434169"></trkpt>
      <trkpt lat="49.457669" lon="17.433804"></trkpt>
      <trkpt lat="49.456632" lon="17.43372"></trkpt>
      <trkpt lat="49.455503" lon="17.433893"></trkpt>
      <trkpt lat="49.45448" lon="17.434321"></trkpt>
      <trkpt lat="49.45338" lon="17.435116"></trkpt>
      <trkpt lat="49.452687" lon="17.435828"></trkpt>
      <trkpt lat="49.448624" lon="17.441963"></trkpt>
      <trkpt lat="49.447403" lon="17.443552"></trkpt>
      <trkpt lat="49.444388" lon="17.448664"></trkpt>
      <trkpt lat="49.442392" lon="17.450495"></trkpt>
      <trkpt lat="49.441516" lon="17.450778"></trkpt>
      <trkpt lat="49.439973" lon="17.450978"></trkpt>
      <trkpt lat="49.433379" lon="17.451251"></trkpt>
      <trkpt lat="49.429073" lon="17.451911"></trkpt>
      <trkpt lat="49.375336" lon="17.454014"></trkpt>
      <trkpt lat="49.371921" lon="17.454294"></trkpt>
      <trkpt lat="49.350113" lon="17.455202"></trkpt>
      <trkpt lat="49.34862" lon="17.455389"></trkpt>
      <trkpt lat="49.3466" lon="17.455974"></trkpt>
      <trkpt lat="49.34502" lon="17.456711"></trkpt>
      <trkpt lat="49.343643" lon="17.457567"></trkpt>
      <trkpt lat="49.323185" lon="17.471691"></trkpt>
      <trkpt lat="49.311407" lon="17.479965"></trkpt>
      <trkpt lat="49.298032" lon="17.489046"></trkpt>
      <trkpt lat="49.29614" lon="17.490167"></trkpt>
      <trkpt lat="49.294334" lon="17.490867"></trkpt>
      <trkpt lat="49.291864" lon="17.491273"></trkpt>
      <trkpt lat="49.290271" lon="17.491315"></trkpt>
      <trkpt lat="49.272287" lon="17.490923"></trkpt>
      <trkpt lat="49.270289" lon="17.491177"></trkpt>
      <trkpt lat="49.268153" lon="17.491873"></trkpt>
      <trkpt lat="49.265973" lon="17.493033"></trkpt>
      <trkpt lat="49.258892" lon="17.498217"></trkpt>
      <trkpt lat="49.25554" lon="17.500509"></trkpt>
      <trkpt lat="49.238219" lon="17.508915"></trkpt>
      <trkpt lat="49.235843" lon="17.51034"></trkpt>
      <trkpt lat="49.234404" lon="17.511527"></trkpt>
      <trkpt lat="49.232768" lon="17.513238"></trkpt>
      <trkpt lat="49.227652" lon="17.520218"></trkpt>
      <trkpt lat="49.226449" lon="17.521672"></trkpt>
      <trkpt lat="49.225091" lon="17.522948"></trkpt>
      <trkpt lat="49.223428" lon="17.524102"></trkpt>
      <trkpt lat="49.221142" lon="17.525086"></trkpt>
      <trkpt lat="49.207656" lon="17.529537"></trkpt>
      <trkpt lat="49.205292" lon="17.529905"></trkpt>
      <trkpt lat="49.200272" lon="17.53149"></trkpt>
      <trkpt lat="49.199585" lon="17.531562"></trkpt>
      <trkpt lat="49.198381" lon="17.53138"></trkpt>
      <trkpt lat="49.196929" lon="17.530799"></trkpt>
      <trkpt lat="49.195799" lon="17.530009"></trkpt>
      <trkpt lat="49.195014" lon="17.529276"></trkpt>
      <trkpt lat="49.194245" lon="17.528351"></trkpt>
      <trkpt lat="49.193531" lon="17.527259"></trkpt>
      <trkpt lat="49.192668" lon="17.525514"></trkpt>
      <trkpt lat="49.191964" lon="17.523504"></trkpt>
      <trkpt lat="49.188571" lon="17.511177"></trkpt>
      <trkpt lat="49.188102" lon="17.509768"></trkpt>
      <trkpt lat="49.187581" lon="17.508617"></trkpt>
      <trkpt lat="49.186804" lon="17.507348"></trkpt>
      <trkpt lat="49.185904" lon="17.506303"></trkpt>
      <trkpt lat="49.184669" lon="17.505351"></trkpt>
      <trkpt lat="49.183296" lon="17.504778"></trkpt>
      <trkpt lat="49.179719" lon="17.503703"></trkpt>
      <trkpt lat="49.177808" lon="17.503191"></trkpt>
      <trkpt lat="49.176754" lon="17.50306"></trkpt>
      <trkpt lat="49.174784" lon="17.503166"></trkpt>
      <trkpt lat="49.16517" lon="17.504463"></trkpt>
      <trkpt lat="49.161865" lon="17.504592"></trkpt>
      <trkpt lat="49.159003" lon="17.50428"></trkpt>
      <trkpt lat="49.156583" lon="17.503865"></trkpt>
      <trkpt lat="49.153303" lon="17.502998"></trkpt>
      <trkpt lat="49.151579" lon="17.502369"></trkpt>
      <trkpt lat="49.14907" lon="17.501084"></trkpt>
      <trkpt lat="49.14627" lon="17.499059"></trkpt>
      <trkpt lat="49.143383" lon="17.496182"></trkpt>
      <trkpt lat="49.117522" lon="17.467844"></trkpt>
      <trkpt lat="49.116745" lon="17.466841"></trkpt>
      <trkpt lat="49.11299" lon="17.462712"></trkpt>
      <trkpt lat="49.110865" lon="17.460557"></trkpt>
      <trkpt lat="49.073315" lon="17.419482"></trkpt>
      <trkpt lat="49.069246" lon="17.415281"></trkpt>
      <trkpt lat="49.066539" lon="17.412164"></trkpt>
      <trkpt lat="49.037507" lon="17.380398"></trkpt>
      <trkpt lat="48.983596" lon="17.321678"></trkpt>
      <trkpt lat="48.982524" lon="17.320355"></trkpt>
      <trkpt lat="48.977801" lon="17.315126"></trkpt>
      <trkpt lat="48.973742" lon="17.311107"></trkpt>
      <trkpt lat="48.971939" lon="17.309504"></trkpt>
      <trkpt lat="48.970173" lon="17.308157"></trkpt>
      <trkpt lat="48.967693" lon="17.306576"></trkpt>
      <trkpt lat="48.965339" lon="17.305398"></trkpt>
      <trkpt lat="48.945482" lon="17.296536"></trkpt>
      <trkpt lat="48.942665" lon="17.294928"></trkpt>
      <trkpt lat="48.940315" lon="17.293025"></trkpt>
      <trkpt lat="48.938527" lon="17.291105"></trkpt>
      <trkpt lat="48.937107" lon="17.289392"></trkpt>
      <trkpt lat="48.935476" lon="17.287082"></trkpt>
      <trkpt lat="48.933983" lon="17.284663"></trkpt>
      <trkpt lat="48.932502" lon="17.281827"></trkpt>
      <trkpt lat="48.858446" lon="17.126447"></trkpt>
      <trkpt lat="48.856453" lon="17.121949"></trkpt>
      <trkpt lat="48.851304" lon="17.111515"></trkpt>
      <trkpt lat="48.822819" lon="17.052208"></trkpt>
      <trkpt lat="48.820471" lon="17.048179"></trkpt>
      <trkpt lat="48.819036" lon="17.046119"></trkpt>
      <trkpt lat="48.817647" lon="17.044358"></trkpt>
      <trkpt lat="48.815455" lon="17.041968"></trkpt>
      <trkpt lat="48.803994" lon="17.03068"></trkpt>
      <trkpt lat="48.802394" lon="17.028591"></trkpt>
      <trkpt lat="48.800892" lon="17.025723"></trkpt>
      <trkpt lat="48.799734" lon="17.022619"></trkpt>
      <trkpt lat="48.785914" lon="16.977743"></trkpt>
      <trkpt lat="48.785337" lon="16.975743"></trkpt>
      <trkpt lat="48.784779" lon="16.973236"></trkpt>
      <trkpt lat="48.784323" lon="16.969954"></trkpt>
      <trkpt lat="48.784151" lon="16.966872"></trkpt>
      <trkpt lat="48.784133" lon="16.947388"></trkpt>
      <trkpt lat="48.783952" lon="16.94124"></trkpt>
      <trkpt lat="48.783681" lon="16.937963"></trkpt>
      <trkpt lat="48.783361" lon="16.935592"></trkpt>
      <trkpt lat="48.782827" lon="16.932425"></trkpt>
      <trkpt lat="48.782175" lon="16.929586"></trkpt>
      <trkpt lat="48.7814" lon="16.926806"></trkpt>
      <trkpt lat="48.780659" lon="16.924623"></trkpt>
      <trkpt lat="48.779739" lon="16.922298"></trkpt>
      <trkpt lat="48.778315" lon="16.919253"></trkpt>
      <trkpt lat="48.776889" lon="16.916686"></trkpt>
      <trkpt lat="48.774741" lon="16.913391"></trkpt>
      <trkpt lat="48.772678" lon="16.910843"></trkpt>
      <trkpt lat="48.770692" lon="16.908791"></trkpt>
      <trkpt lat="48.765072" lon="16.903498"></trkpt>
      <trkpt lat="48.7598" lon="16.898855"></trkpt>
      <trkpt lat="48.749045" lon="16.888578"></trkpt>
      <trkpt lat="48.728919" lon="16.869748"></trkpt>
      <trkpt lat="48.727433" lon="16.86855"></trkpt>
      <trkpt lat="48.725871" lon="16.867582"></trkpt>
      <trkpt lat="48.724158" lon="16.866819"></trkpt>
      <trkpt lat="48.722192" lon="16.866296"></trkpt>
      <trkpt lat="48.720793" lon="16.86614"></trkpt>
      <trkpt lat="48.718992" lon="16.8662"></trkpt>
      <trkpt lat="48.717224" lon="16.866543"></trkpt>
      <trkpt lat="48.715945" lon="16.866974"></trkpt>
      <trkpt lat="48.634085" lon="16.902409"></trkpt>
      <trkpt lat="48.632359" lon="16.902976"></trkpt>
      <trkpt lat="48.63061" lon="16.903327"></trkpt>
      <trkpt lat="48.62812" lon="16.903425"></trkpt>
      <trkpt lat="48.602711" lon="16.901234"></trkpt>
      <trkpt lat="48.600494" lon="16.901172"></trkpt>
      <trkpt lat="48.592898" lon="16.900518"></trkpt>
      <trkpt lat="48.590705" lon="16.900133"></trkpt>
      <trkpt lat="48.543856" lon="16.896101"></trkpt>
      <trkpt lat="48.541424" lon="16.895761"></trkpt>
      <trkpt lat="48.534468" lon="16.895356"></trkpt>
      <trkpt lat="48.520265" lon="16.894054"></trkpt>
      <trkpt lat="48.517127" lon="16.893453"></trkpt>
      <trkpt lat="48.515112" lon="16.892825"></trkpt>
      <trkpt lat="48.513282" lon="16.892089"></trkpt>
      <trkpt lat="48.510675" lon="16.890746"></trkpt>
      <trkpt lat="48.509088" lon="16.889738"></trkpt>
      <trkpt lat="48.506577" lon="16.887844"></trkpt>
      <trkpt lat="48.497829" lon="16.880347"></trkpt>
      <trkpt lat="48.49599" lon="16.878935"></trkpt>
      <trkpt lat="48.478475" lon="16.866361"></trkpt>
      <trkpt lat="48.469354" lon="16.859672"></trkpt>
      <trkpt lat="48.468353" lon="16.859097"></trkpt>
      <trkpt lat="48.45883" lon="16.852272"></trkpt>
      <trkpt lat="48.456958" lon="16.851091"></trkpt>
      <trkpt lat="48.45471" lon="16.849979"></trkpt>
      <trkpt lat="48.4517" lon="16.84899"></trkpt>
      <trkpt lat="48.450119" lon="16.848683"></trkpt>
      <trkpt lat="48.448246" lon="16.84848"></trkpt>
      <trkpt lat="48.402756" lon="16.84601"></trkpt>
      <trkpt lat="48.401186" lon="16.845759"></trkpt>
      <trkpt lat="48.399994" lon="16.845348"></trkpt>
      <trkpt lat="48.398956" lon="16.844832"></trkpt>
      <trkpt lat="48.397813" lon="16.844056"></trkpt>
      <trkpt lat="48.396122" lon="16.842471"></trkpt>
      <trkpt lat="48.395073" lon="16.841154"></trkpt>
      <trkpt lat="48.38552" lon="16.827555"></trkpt>
      <trkpt lat="48.384376" lon="16.825847"></trkpt>
      <trkpt lat="48.382559" lon="16.822743"></trkpt>
      <trkpt lat="48.345709" lon="16.751615"></trkpt>
      <trkpt lat="48.344163" lon="16.748061"></trkpt>
      <trkpt lat="48.342883" lon="16.74424"></trkpt>
      <trkpt lat="48.34227" lon="16.741808"></trkpt>
      <trkpt lat="48.341563" lon="16.737923"></trkpt>
      <trkpt lat="48.339383" lon="16.728512"></trkpt>
      <trkpt lat="48.319652" lon="16.638905"></trkpt>
      <trkpt lat="48.317477" lon="16.629499"></trkpt>
      <trkpt lat="48.303547" lon="16.566793"></trkpt>
      <trkpt lat="48.300842" lon="16.554175"></trkpt>
      <trkpt lat="48.288112" lon="16.496848"></trkpt>
      <trkpt lat="48.287469" lon="16.494363"></trkpt>
      <trkpt lat="48.284709" lon="16.481992"></trkpt>
      <trkpt lat="48.284207" lon="16.48064"></trkpt>
      <trkpt lat="48.283834" lon="16.480116"></trkpt>
      <trkpt lat="48.283331" lon="16.479694"></trkpt>
      <trkpt lat="48.28214" lon="16.479083"></trkpt>
      <trkpt lat="48.280388" lon="16.477898"></trkpt>
      <trkpt lat="48.27616" lon="16.475709"></trkpt>
      <trkpt lat="48.275116" lon="16.474972"></trkpt>
      <trkpt lat="48.273795" lon="16.474228"></trkpt>
      <trkpt lat="48.241529" lon="16.458596"></trkpt>
      <trkpt lat="48.239795" lon="16.457541"></trkpt>
      <trkpt lat="48.2331" lon="16.454298"></trkpt>
      <trkpt lat="48.227424" lon="16.452022"></trkpt>
      <trkpt lat="48.225348" lon="16.450895"></trkpt>
      <trkpt lat="48.223459" lon="16.450058"></trkpt>
      <trkpt lat="48.22106" lon="16.44934"></trkpt>
      <trkpt lat="48.218059" lon="16.448096"></trkpt>
      <trkpt lat="48.217077" lon="16.44793"></trkpt>
      <trkpt lat="48.216221" lon="16.447994"></trkpt>
      <trkpt lat="48.208391" lon="16.450071"></trkpt>
      <trkpt lat="48.207216" lon="16.450078"></trkpt>
      <trkpt lat="48.206361" lon="16.449784"></trkpt>
      <trkpt lat="48.205744" lon="16.449385"></trkpt>
      <trkpt lat="48.205069" lon="16.448729"></trkpt>
      <trkpt lat="48.198881" lon="16.440162"></trkpt>
      <trkpt lat="48.197593" lon="16.438764"></trkpt>
      <trkpt lat="48.189739" lon="16.433384"></trkpt>
      <trkpt lat="48.172181" lon="16.421819"></trkpt>
      <trkpt lat="48.171207" lon="16.420944"></trkpt>
      <trkpt lat="48.170359" lon="16.419878"></trkpt>
      <trkpt lat="48.167852" lon="16.41568"></trkpt>
      <trkpt lat="48.167469" lon="16.414664"></trkpt>
      <trkpt lat="48.167184" lon="16.413484"></trkpt>
      <trkpt lat="48.167008" lon="16.411504"></trkpt>
      <trkpt lat="48.167234" lon="16.409316"></trkpt>
      <trkpt lat="48.167546" lon="16.408123"></trkpt>
      <trkpt lat="48.167944" lon="16.407125"></trkpt>
      <trkpt lat="48.175594" lon="16.395057"></trkpt>
      <trkpt lat="48.180142" lon="16.388643"></trkpt>
      <trkpt lat="48.182836" lon="16.38523"></trkpt>
      <trkpt lat="48.183811" lon="16.383707"></trkpt>
      <trkpt lat="48.184418" lon="16.382372"></trkpt>
      <trkpt lat="48.184772" lon="16.381076"></trkpt>
      <trkpt lat="48.18543" lon="16.376496"></trkpt>
      <trkpt lat="48.185395" lon="16.374985"></trkpt>
      <trkpt lat="48.185042" lon="16.373257"></trkpt>
      <trkpt lat="48.178145" lon="16.352321"></trkpt>
      <trkpt lat="48.176042" lon="16.343212"></trkpt>
      <trkpt lat="48.175606" lon="16.339007"></trkpt>
      <trkpt lat="48.17343" lon="16.329072"></trkpt>
      <trkpt lat="48.171585" lon="16.323813"></trkpt>
      <trkpt lat="48.169442" lon="16.319637"></trkpt>
      <trkpt lat="48.169055" lon="16.318436"></trkpt>
      <trkpt lat="48.168741" lon="16.316811"></trkpt>
      <trkpt lat="48.168637" lon="16.315388"></trkpt>
      <trkpt lat="48.168687" lon="16.313483"></trkpt>
      <trkpt lat="48.169007" lon="16.308186"></trkpt>
      <trkpt lat="48.169245" lon="16.306003"></trkpt>
      <trkpt lat="48.173105" lon="16.286314"></trkpt>
      <trkpt lat="48.173777" lon="16.284168"></trkpt>
      <trkpt lat="48.174667" lon="16.282072"></trkpt>
      <trkpt lat="48.176272" lon="16.279112"></trkpt>
      <trkpt lat="48.177653" lon="16.27683"></trkpt>
      <trkpt lat="48.199189" lon="16.245332"></trkpt>
      <trkpt lat="48.201762" lon="16.241427"></trkpt>
      <trkpt lat="48.204447" lon="16.236612"></trkpt>
      <trkpt lat="48.207354" lon="16.233141"></trkpt>
      <trkpt lat="48.2086" lon="16.231072"></trkpt>
      <trkpt lat="48.209362" lon="16.229204"></trkpt>
      <trkpt lat="48.209993" lon="16.226746"></trkpt>
      <trkpt lat="48.211378" lon="16.214571"></trkpt>
      <trkpt lat="48.211902" lon="16.211612"></trkpt>
      <trkpt lat="48.212713" lon="16.208193"></trkpt>
      <trkpt lat="48.214644" lon="16.201328"></trkpt>
      <trkpt lat="48.215824" lon="16.197706"></trkpt>
      <trkpt lat="48.21733" lon="16.194071"></trkpt>
      <trkpt lat="48.219442" lon="16.18983"></trkpt>
      <trkpt lat="48.2221" lon="16.185211"></trkpt>
      <trkpt lat="48.27967" lon="16.091228"></trkpt>
      <trkpt lat="48.282353" lon="16.086412"></trkpt>
      <trkpt lat="48.285561" lon="16.079883"></trkpt>
      <trkpt lat="48.287466" lon="16.075193"></trkpt>
      <trkpt lat="48.289597" lon="16.06843"></trkpt>
      <trkpt lat="48.290598" lon="16.064568"></trkpt>
      <trkpt lat="48.291519" lon="16.060346"></trkpt>
      <trkpt lat="48.29272" lon="16.053045"></trkpt>
      <trkpt lat="48.293436" lon="16.046058"></trkpt>
      <trkpt lat="48.293703" lon="16.040762"></trkpt>
      <trkpt lat="48.294747" lon="16.009626"></trkpt>
      <trkpt lat="48.296751" lon="15.945093"></trkpt>
      <trkpt lat="48.296816" lon="15.94114"></trkpt>
      <trkpt lat="48.296659" lon="15.937276"></trkpt>
      <trkpt lat="48.296086" lon="15.932332"></trkpt>
      <trkpt lat="48.295124" lon="15.92756"></trkpt>
      <trkpt lat="48.293689" lon="15.922767"></trkpt>
      <trkpt lat="48.29189" lon="15.918368"></trkpt>
      <trkpt lat="48.290431" lon="15.915552"></trkpt>
      <trkpt lat="48.288567" lon="15.91257"></trkpt>
      <trkpt lat="48.286686" lon="15.910071"></trkpt>
      <trkpt lat="48.281555" lon="15.90371"></trkpt>
      <trkpt lat="48.279168" lon="15.900176"></trkpt>
      <trkpt lat="48.277863" lon="15.897815"></trkpt>
      <trkpt lat="48.276497" lon="15.894884"></trkpt>
      <trkpt lat="48.275478" lon="15.892265"></trkpt>
      <trkpt lat="48.274465" lon="15.889096"></trkpt>
      <trkpt lat="48.273733" lon="15.886234"></trkpt>
      <trkpt lat="48.273149" lon="15.883297"></trkpt>
      <trkpt lat="48.272469" lon="15.877776"></trkpt>
      <trkpt lat="48.272304" lon="15.874196"></trkpt>
      <trkpt lat="48.272413" lon="15.864858"></trkpt>
      <trkpt lat="48.272345" lon="15.861722"></trkpt>
      <trkpt lat="48.27215" lon="15.858733"></trkpt>
      <trkpt lat="48.271225" lon="15.849121"></trkpt>
      <trkpt lat="48.270705" lon="15.845499"></trkpt>
      <trkpt lat="48.270099" lon="15.842515"></trkpt>
      <trkpt lat="48.269355" lon="15.839661"></trkpt>
      <trkpt lat="48.268469" lon="15.8369"></trkpt>
      <trkpt lat="48.267074" lon="15.83339"></trkpt>
      <trkpt lat="48.265877" lon="15.830906"></trkpt>
      <trkpt lat="48.260897" lon="15.822439"></trkpt>
      <trkpt lat="48.258764" lon="15.818239"></trkpt>
      <trkpt lat="48.257095" lon="15.814318"></trkpt>
      <trkpt lat="48.25462" lon="15.807597"></trkpt>
      <trkpt lat="48.253172" lon="15.804102"></trkpt>
      <trkpt lat="48.25141" lon="15.800602"></trkpt>
      <trkpt lat="48.246157" lon="15.791132"></trkpt>
      <trkpt lat="48.244981" lon="15.788715"></trkpt>
      <trkpt lat="48.243574" lon="15.785219"></trkpt>
      <trkpt lat="48.242281" lon="15.781054"></trkpt>
      <trkpt lat="48.241131" lon="15.775639"></trkpt>
      <trkpt lat="48.240517" lon="15.770336"></trkpt>
      <trkpt lat="48.237714" lon="15.72174"></trkpt>
      <trkpt lat="48.236898" lon="15.716264"></trkpt>
      <trkpt lat="48.235583" lon="15.71101"></trkpt>
      <trkpt lat="48.233794" lon="15.706081"></trkpt>
      <trkpt lat="48.232484" lon="15.703268"></trkpt>
      <trkpt lat="48.231413" lon="15.701296"></trkpt>
      <trkpt lat="48.227869" lon="15.695899"></trkpt>
      <trkpt lat="48.220979" lon="15.685993"></trkpt>
      <trkpt lat="48.21905" lon="15.682659"></trkpt>
      <trkpt lat="48.217538" lon="15.679534"></trkpt>
      <trkpt lat="48.216382" lon="15.676714"></trkpt>
      <trkpt lat="48.215503" lon="15.674218"></trkpt>
      <trkpt lat="48.209063" lon="15.653473"></trkpt>
      <trkpt lat="48.208336" lon="15.650689"></trkpt>
      <trkpt lat="48.207755" lon="15.647282"></trkpt>
      <trkpt lat="48.20748" lon="15.643098"></trkpt>
      <trkpt lat="48.207684" lon="15.636556"></trkpt>
      <trkpt lat="48.207979" lon="15.631319"></trkpt>
      <trkpt lat="48.208421" lon="15.627139"></trkpt>
      <trkpt lat="48.20879" lon="15.620518"></trkpt>
      <trkpt lat="48.209477" lon="15.61825"></trkpt>
      <trkpt lat="48.211569" lon="15.614265"></trkpt>
      <trkpt lat="48.2124" lon="15.611651"></trkpt>
      <trkpt lat="48.215275" lon="15.605509"></trkpt>
      <trkpt lat="48.216063" lon="15.603326"></trkpt>
      <trkpt lat="48.216541" lon="15.601148"></trkpt>
      <trkpt lat="48.216818" lon="15.599115"></trkpt>
      <trkpt lat="48.216916" lon="15.596777"></trkpt>
      <trkpt lat="48.21681" lon="15.594689"></trkpt>
      <trkpt lat="48.216494" lon="15.592494"></trkpt>
      <trkpt lat="48.216006" lon="15.590486"></trkpt>
      <trkpt lat="48.212825" lon="15.581135"></trkpt>
      <trkpt lat="48.212043" lon="15.578373"></trkpt>
      <trkpt lat="48.211214" lon="15.574727"></trkpt>
      <trkpt lat="48.210403" lon="15.569562"></trkpt>
      <trkpt lat="48.209535" lon="15.559136"></trkpt>
      <trkpt lat="48.20883" lon="15.554003"></trkpt>
      <trkpt lat="48.199629" lon="15.509546"></trkpt>
      <trkpt lat="48.189257" lon="15.468717"></trkpt>
      <trkpt lat="48.188705" lon="15.465627"></trkpt>
      <trkpt lat="48.188359" lon="15.462918"></trkpt>
      <trkpt lat="48.188055" lon="15.458812"></trkpt>
      <trkpt lat="48.187959" lon="15.45503"></trkpt>
      <trkpt lat="48.187983" lon="15.429453"></trkpt>
      <trkpt lat="48.188102" lon="15.418522"></trkpt>
      <trkpt lat="48.188534" lon="15.413321"></trkpt>
      <trkpt lat="48.189226" lon="15.409227"></trkpt>
      <trkpt lat="48.190061" lon="15.405792"></trkpt>
      <trkpt lat="48.191417" lon="15.401676"></trkpt>
      <trkpt lat="48.192798" lon="15.398438"></trkpt>
      <trkpt lat="48.194419" lon="15.395372"></trkpt>
      <trkpt lat="48.196203" lon="15.392616"></trkpt>
      <trkpt lat="48.197978" lon="15.390356"></trkpt>
      <trkpt lat="48.199412" lon="15.388805"></trkpt>
      <trkpt lat="48.205693" lon="15.382622"></trkpt>
      <trkpt lat="48.207212" lon="15.380879"></trkpt>
      <trkpt lat="48.208896" lon="15.378597"></trkpt>
      <trkpt lat="48.210791" lon="15.375463"></trkpt>
      <trkpt lat="48.212175" lon="15.37268"></trkpt>
      <trkpt lat="48.213461" lon="15.369563"></trkpt>
      <trkpt lat="48.214694" lon="15.365773"></trkpt>
      <trkpt lat="48.215867" lon="15.360671"></trkpt>
      <trkpt lat="48.21662" lon="15.35512"></trkpt>
      <trkpt lat="48.218766" lon="15.319749"></trkpt>
      <trkpt lat="48.219105" lon="15.315547"></trkpt>
      <trkpt lat="48.22062" lon="15.300835"></trkpt>
      <trkpt lat="48.220774" lon="15.29661"></trkpt>
      <trkpt lat="48.22063" lon="15.291631"></trkpt>
      <trkpt lat="48.22018" lon="15.287031"></trkpt>
      <trkpt lat="48.219477" lon="15.282762"></trkpt>
      <trkpt lat="48.218667" lon="15.279203"></trkpt>
      <trkpt lat="48.217848" lon="15.276314"></trkpt>
      <trkpt lat="48.213838" lon="15.26524"></trkpt>
      <trkpt lat="48.211901" lon="15.258958"></trkpt>
      <trkpt lat="48.210919" lon="15.254935"></trkpt>
      <trkpt lat="48.210287" lon="15.251774"></trkpt>
      <trkpt lat="48.209258" lon="15.244696"></trkpt>
      <trkpt lat="48.208815" lon="15.239145"></trkpt>
      <trkpt lat="48.208327" lon="15.226419"></trkpt>
      <trkpt lat="48.207089" lon="15.181326"></trkpt>
      <trkpt lat="48.206688" lon="15.176762"></trkpt>
      <trkpt lat="48.205932" lon="15.171967"></trkpt>
      <trkpt lat="48.204975" lon="15.167861"></trkpt>
      <trkpt lat="48.204273" lon="15.165399"></trkpt>
      <trkpt lat="48.202264" lon="15.159874"></trkpt>
      <trkpt lat="48.200465" lon="15.156057"></trkpt>
      <trkpt lat="48.194036" lon="15.143562"></trkpt>
      <trkpt lat="48.191591" lon="15.139252"></trkpt>
      <trkpt lat="48.189675" lon="15.136348"></trkpt>
      <trkpt lat="48.186613" lon="15.132344"></trkpt>
      <trkpt lat="48.183482" lon="15.128938"></trkpt>
      <trkpt lat="48.175186" lon="15.120422"></trkpt>
      <trkpt lat="48.166487" lon="15.110414"></trkpt>
      <trkpt lat="48.163257" lon="15.106359"></trkpt>
      <trkpt lat="48.160794" lon="15.102743"></trkpt>
      <trkpt lat="48.15414" lon="15.09097"></trkpt>
      <trkpt lat="48.15215" lon="15.086786"></trkpt>
      <trkpt lat="48.150631" lon="15.082583"></trkpt>
      <trkpt lat="48.146732" lon="15.068026"></trkpt>
      <trkpt lat="48.145326" lon="15.063195"></trkpt>
      <trkpt lat="48.135286" lon="15.025145"></trkpt>
      <trkpt lat="48.13387" lon="15.02081"></trkpt>
      <trkpt lat="48.130601" lon="15.01254"></trkpt>
      <trkpt lat="48.129384" lon="15.008671"></trkpt>
      <trkpt lat="48.126805" lon="14.9983"></trkpt>
      <trkpt lat="48.12595" lon="14.993521"></trkpt>
      <trkpt lat="48.125606" lon="14.990343"></trkpt>
      <trkpt lat="48.12543" lon="14.98732"></trkpt>
      <trkpt lat="48.122299" lon="14.89569"></trkpt>
      <trkpt lat="48.121527" lon="14.880977"></trkpt>
      <trkpt lat="48.121347" lon="14.874057"></trkpt>
      <trkpt lat="48.121122" lon="14.871205"></trkpt>
      <trkpt lat="48.12051" lon="14.866698"></trkpt>
      <trkpt lat="48.118399" lon="14.853007"></trkpt>
      <trkpt lat="48.11768" lon="14.850491"></trkpt>
      <trkpt lat="48.116827" lon="14.848429"></trkpt>
      <trkpt lat="48.105052" lon="14.826191"></trkpt>
      <trkpt lat="48.103605" lon="14.823133"></trkpt>
      <trkpt lat="48.092283" lon="14.79335"></trkpt>
      <trkpt lat="48.091256" lon="14.790899"></trkpt>
      <trkpt lat="48.089916" lon="14.788128"></trkpt>
      <trkpt lat="48.08753" lon="14.784057"></trkpt>
      <trkpt lat="48.069417" lon="14.75549"></trkpt>
      <trkpt lat="48.066401" lon="14.75011"></trkpt>
      <trkpt lat="48.06373" lon="14.744982"></trkpt>
      <trkpt lat="48.062706" lon="14.742741"></trkpt>
      <trkpt lat="48.061664" lon="14.740083"></trkpt>
      <trkpt lat="48.060548" lon="14.736566"></trkpt>
      <trkpt lat="48.059848" lon="14.73378"></trkpt>
      <trkpt lat="48.059195" lon="14.730377"></trkpt>
      <trkpt lat="48.05881" lon="14.727705"></trkpt>
      <trkpt lat="48.052588" lon="14.677976"></trkpt>
      <trkpt lat="48.052248" lon="14.672205"></trkpt>
      <trkpt lat="48.052365" lon="14.666621"></trkpt>
      <trkpt lat="48.052841" lon="14.661677"></trkpt>
      <trkpt lat="48.054245" lon="14.651166"></trkpt>
      <trkpt lat="48.055018" lon="14.647049"></trkpt>
      <trkpt lat="48.056177" lon="14.642543"></trkpt>
      <trkpt lat="48.057596" lon="14.638254"></trkpt>
      <trkpt lat="48.059292" lon="14.634053"></trkpt>
      <trkpt lat="48.061434" lon="14.629688"></trkpt>
      <trkpt lat="48.062914" lon="14.627085"></trkpt>
      <trkpt lat="48.064462" lon="14.62467"></trkpt>
      <trkpt lat="48.06659" lon="14.621774"></trkpt>
      <trkpt lat="48.069783" lon="14.618211"></trkpt>
      <trkpt lat="48.075957" lon="14.612535"></trkpt>
      <trkpt lat="48.079333" lon="14.609648"></trkpt>
      <trkpt lat="48.081238" lon="14.608244"></trkpt>
      <trkpt lat="48.083468" lon="14.606896"></trkpt>
      <trkpt lat="48.085677" lon="14.605846"></trkpt>
      <trkpt lat="48.087205" lon="14.605259"></trkpt>
      <trkpt lat="48.100811" lon="14.600896"></trkpt>
      <trkpt lat="48.102286" lon="14.600363"></trkpt>
      <trkpt lat="48.104964" lon="14.599129"></trkpt>
      <trkpt lat="48.107279" lon="14.597705"></trkpt>
      <trkpt lat="48.109282" lon="14.596215"></trkpt>
      <trkpt lat="48.111491" lon="14.594222"></trkpt>
      <trkpt lat="48.113572" lon="14.592033"></trkpt>
      <trkpt lat="48.115448" lon="14.589673"></trkpt>
      <trkpt lat="48.117026" lon="14.587372"></trkpt>
      <trkpt lat="48.118577" lon="14.584678"></trkpt>
      <trkpt lat="48.119943" lon="14.581969"></trkpt>
      <trkpt lat="48.12127" lon="14.578926"></trkpt>
      <trkpt lat="48.131437" lon="14.553155"></trkpt>
      <trkpt lat="48.13331" lon="14.549027"></trkpt>
      <trkpt lat="48.134617" lon="14.546684"></trkpt>
      <trkpt lat="48.136217" lon="14.544238"></trkpt>
      <trkpt lat="48.137314" lon="14.542781"></trkpt>
      <trkpt lat="48.13908" lon="14.540745"></trkpt>
      <trkpt lat="48.141076" lon="14.538827"></trkpt>
      <trkpt lat="48.143257" lon="14.537116"></trkpt>
      <trkpt lat="48.145181" lon="14.535902"></trkpt>
      <trkpt lat="48.147027" lon="14.534981"></trkpt>
      <trkpt lat="48.14988" lon="14.533949"></trkpt>
      <trkpt lat="48.165293" lon="14.529533"></trkpt>
      <trkpt lat="48.16757" lon="14.528607"></trkpt>
      <trkpt lat="48.169131" lon="14.527794"></trkpt>
      <trkpt lat="48.18689" lon="14.517413"></trkpt>
      <trkpt lat="48.193705" lon="14.513122"></trkpt>
      <trkpt lat="48.198324" lon="14.510561"></trkpt>
      <trkpt lat="48.210299" lon="14.50348"></trkpt>
      <trkpt lat="48.211663" lon="14.502493"></trkpt>
      <trkpt lat="48.213147" lon="14.501052"></trkpt>
      <trkpt lat="48.214186" lon="14.499839"></trkpt>
      <trkpt lat="48.215092" lon="14.498568"></trkpt>
      <trkpt lat="48.215823" lon="14.497367"></trkpt>
      <trkpt lat="48.216839" lon="14.495342"></trkpt>
      <trkpt lat="48.218101" lon="14.491974"></trkpt>
      <trkpt lat="48.219994" lon="14.484225"></trkpt>
      <trkpt lat="48.221089" lon="14.478426"></trkpt>
      <trkpt lat="48.221308" lon="14.476017"></trkpt>
      <trkpt lat="48.221378" lon="14.473344"></trkpt>
      <trkpt lat="48.220739" lon="14.457696"></trkpt>
      <trkpt lat="48.220707" lon="14.452707"></trkpt>
      <trkpt lat="48.220986" lon="14.449039"></trkpt>
      <trkpt lat="48.22168" lon="14.445184"></trkpt>
      <trkpt lat="48.222313" lon="14.442879"></trkpt>
      <trkpt lat="48.2366" lon="14.398909"></trkpt>
      <trkpt lat="48.246824" lon="14.366727"></trkpt>
      <trkpt lat="48.25087" lon="14.354825"></trkpt>
      <trkpt lat="48.251457" lon="14.35265"></trkpt>
      <trkpt lat="48.25194" lon="14.350068"></trkpt>
      <trkpt lat="48.252963" lon="14.340006"></trkpt>
      <trkpt lat="48.254418" lon="14.334745"></trkpt>
      <trkpt lat="48.255884" lon="14.331559"></trkpt>
      <trkpt lat="48.257406" lon="14.329159"></trkpt>
      <trkpt lat="48.2628" lon="14.322539"></trkpt>
      <trkpt lat="48.264196" lon="14.321256"></trkpt>
      <trkpt lat="48.264782" lon="14.320917"></trkpt>
      <trkpt lat="48.266511" lon="14.320258"></trkpt>
      <trkpt lat="48.277325" lon="14.316801"></trkpt>
      <trkpt lat="48.280154" lon="14.316387"></trkpt>
      <trkpt lat="48.281724" lon="14.315885"></trkpt>
      <trkpt lat="48.282938" lon="14.315398"></trkpt>
      <trkpt lat="48.285956" lon="14.313886"></trkpt>
      <trkpt lat="48.290737" lon="14.312292"></trkpt>
      <trkpt lat="48.291644" lon="14.311786"></trkpt>
      <trkpt lat="48.292265" lon="14.311138"></trkpt>
      <trkpt lat="48.294317" lon="14.308287"></trkpt>
      <trkpt lat="48.295465" lon="14.306429"></trkpt>
      <trkpt lat="48.29621" lon="14.304149"></trkpt>
      <trkpt lat="48.296449" lon="14.302022"></trkpt>
      <trkpt lat="48.296286" lon="14.30048"></trkpt>
      <trkpt lat="48.29586" lon="14.298478"></trkpt>
      <trkpt lat="48.295358" lon="14.297033"></trkpt>
      <trkpt lat="48.294675" lon="14.295742"></trkpt>
      <trkpt lat="48.293958" lon="14.294819"></trkpt>
      <trkpt lat="48.29314" lon="14.294007"></trkpt>
      <trkpt lat="48.291839" lon="14.293082"></trkpt>
      <trkpt lat="48.28863" lon="14.290299"></trkpt>
      <trkpt lat="48.287307" lon="14.288932"></trkpt>
      <trkpt lat="48.283363" lon="14.285455"></trkpt>
      <trkpt lat="48.281837" lon="14.283234"></trkpt>
      <trkpt lat="48.278154" lon="14.277092"></trkpt>
      <trkpt lat="48.276059" lon="14.273864"></trkpt>
      <trkpt lat="48.275415" lon="14.272643"></trkpt>
      <trkpt lat="48.274566" lon="14.269969"></trkpt>
      <trkpt lat="48.274156" lon="14.267039"></trkpt>
      <trkpt lat="48.274023" lon="14.249478"></trkpt>
      <trkpt lat="48.273765" lon="14.245825"></trkpt>
      <trkpt lat="48.273425" lon="14.24357"></trkpt>
      <trkpt lat="48.272956" lon="14.24139"></trkpt>
      <trkpt lat="48.272146" lon="14.238625"></trkpt>
      <trkpt lat="48.271356" lon="14.23657"></trkpt>
      <trkpt lat="48.246098" lon="14.186901"></trkpt>
      <trkpt lat="48.240046" lon="14.175419"></trkpt>
      <trkpt lat="48.20083" lon="14.099077"></trkpt>
      <trkpt lat="48.194919" lon="14.087335"></trkpt>
      <trkpt lat="48.192716" lon="14.082"></trkpt>
      <trkpt lat="48.191028" lon="14.079222"></trkpt>
      <trkpt lat="48.188902" lon="14.075283"></trkpt>
      <trkpt lat="48.184786" lon="14.067093"></trkpt>
      <trkpt lat="48.184172" lon="14.066096"></trkpt>
      <trkpt lat="48.169385" lon="14.037554"></trkpt>
      <trkpt lat="48.168604" lon="14.03551"></trkpt>
      <trkpt lat="48.165365" lon="14.024494"></trkpt>
      <trkpt lat="48.164666" lon="14.021412"></trkpt>
      <trkpt lat="48.164502" lon="14.020179"></trkpt>
      <trkpt lat="48.164623" lon="14.018508"></trkpt>
      <trkpt lat="48.165085" lon="14.017233"></trkpt>
      <trkpt lat="48.16723" lon="14.013639"></trkpt>
      <trkpt lat="48.168872" lon="14.011815"></trkpt>
      <trkpt lat="48.170513" lon="14.010664"></trkpt>
      <trkpt lat="48.187493" lon="14.00081"></trkpt>
      <trkpt lat="48.188864" lon="13.999759"></trkpt>
      <trkpt lat="48.189652" lon="13.998844"></trkpt>
      <trkpt lat="48.190233" lon="13.997969"></trkpt>
      <trkpt lat="48.19085" lon="13.996704"></trkpt>
      <trkpt lat="48.19161" lon="13.994216"></trkpt>
      <trkpt lat="48.193048" lon="13.983157"></trkpt>
      <trkpt lat="48.193432" lon="13.98121"></trkpt>
      <trkpt lat="48.193965" lon="13.97964"></trkpt>
      <trkpt lat="48.194622" lon="13.978308"></trkpt>
      <trkpt lat="48.19532" lon="13.977266"></trkpt>
      <trkpt lat="48.195981" lon="13.97652"></trkpt>
      <trkpt lat="48.197022" lon="13.975692"></trkpt>
      <trkpt lat="48.197905" lon="13.975218"></trkpt>
      <trkpt lat="48.198763" lon="13.974948"></trkpt>
      <trkpt lat="48.199726" lon="13.974834"></trkpt>
      <trkpt lat="48.200766" lon="13.974968"></trkpt>
      <trkpt lat="48.205399" lon="13.976249"></trkpt>
      <trkpt lat="48.206739" lon="13.976339"></trkpt>
      <trkpt lat="48.207848" lon="13.97608"></trkpt>
      <trkpt lat="48.208921" lon="13.975401"></trkpt>
      <trkpt lat="48.214134" lon="13.970874"></trkpt>
      <trkpt lat="48.215206" lon="13.969616"></trkpt>
      <trkpt lat="48.216034" lon="13.967962"></trkpt>
      <trkpt lat="48.216402" lon="13.966797"></trkpt>
      <trkpt lat="48.216643" lon="13.965452"></trkpt>
      <trkpt lat="48.216667" lon="13.962882"></trkpt>
      <trkpt lat="48.216295" lon="13.960915"></trkpt>
      <trkpt lat="48.214825" lon="13.956163"></trkpt>
      <trkpt lat="48.214434" lon="13.954227"></trkpt>
      <trkpt lat="48.214352" lon="13.951308"></trkpt>
      <trkpt lat="48.214741" lon="13.948746"></trkpt>
      <trkpt lat="48.215547" lon="13.946419"></trkpt>
      <trkpt lat="48.216013" lon="13.945523"></trkpt>
      <trkpt lat="48.216819" lon="13.944374"></trkpt>
      <trkpt lat="48.217921" lon="13.943246"></trkpt>
      <trkpt lat="48.224823" lon="13.93708"></trkpt>
      <trkpt lat="48.22596" lon="13.935708"></trkpt>
      <trkpt lat="48.226604" lon="13.934524"></trkpt>
      <trkpt lat="48.227068" lon="13.933078"></trkpt>
      <trkpt lat="48.227574" lon="13.930117"></trkpt>
      <trkpt lat="48.229414" lon="13.916818"></trkpt>
      <trkpt lat="48.229469" lon="13.913799"></trkpt>
      <trkpt lat="48.229278" lon="13.912169"></trkpt>
      <trkpt lat="48.228903" lon="13.910479"></trkpt>
      <trkpt lat="48.228185" lon="13.908461"></trkpt>
      <trkpt lat="48.221146" lon="13.890852"></trkpt>
      <trkpt lat="48.220642" lon="13.88865"></trkpt>
      <trkpt lat="48.220571" lon="13.885612"></trkpt>
      <trkpt lat="48.220949" lon="13.881349"></trkpt>
      <trkpt lat="48.221617" lon="13.87762"></trkpt>
      <trkpt lat="48.232578" lon="13.832751"></trkpt>
      <trkpt lat="48.232865" lon="13.830044"></trkpt>
      <trkpt lat="48.233598" lon="13.809708"></trkpt>
      <trkpt lat="48.233768" lon="13.807745"></trkpt>
      <trkpt lat="48.234204" lon="13.805392"></trkpt>
      <trkpt lat="48.242779" lon="13.771658"></trkpt>
      <trkpt lat="48.243293" lon="13.770074"></trkpt>
      <trkpt lat="48.243763" lon="13.769112"></trkpt>
      <trkpt lat="48.244821" lon="13.767711"></trkpt>
      <trkpt lat="48.245605" lon="13.767082"></trkpt>
      <trkpt lat="48.246699" lon="13.766602"></trkpt>
      <trkpt lat="48.247396" lon="13.766488"></trkpt>
      <trkpt lat="48.254612" lon="13.766199"></trkpt>
      <trkpt lat="48.255893" lon="13.765948"></trkpt>
      <trkpt lat="48.256742" lon="13.765625"></trkpt>
      <trkpt lat="48.258428" lon="13.764479"></trkpt>
      <trkpt lat="48.262094" lon="13.76096"></trkpt>
      <trkpt lat="48.262835" lon="13.759986"></trkpt>
      <trkpt lat="48.263839" lon="13.758233"></trkpt>
      <trkpt lat="48.272065" lon="13.740417"></trkpt>
      <trkpt lat="48.272736" lon="13.738415"></trkpt>
      <trkpt lat="48.273051" lon="13.73612"></trkpt>
      <trkpt lat="48.272921" lon="13.733575"></trkpt>
      <trkpt lat="48.269294" lon="13.712414"></trkpt>
      <trkpt lat="48.261724" lon="13.686714"></trkpt>
      <trkpt lat="48.25619" lon="13.660833"></trkpt>
      <trkpt lat="48.25533" lon="13.658023"></trkpt>
      <trkpt lat="48.254627" lon="13.656462"></trkpt>
      <trkpt lat="48.253873" lon="13.655159"></trkpt>
      <trkpt lat="48.252781" lon="13.653691"></trkpt>
      <trkpt lat="48.251849" lon="13.652755"></trkpt>
      <trkpt lat="48.250921" lon="13.652062"></trkpt>
      <trkpt lat="48.249914" lon="13.651524"></trkpt>
      <trkpt lat="48.247513" lon="13.650829"></trkpt>
      <trkpt lat="48.246786" lon="13.650495"></trkpt>
      <trkpt lat="48.246013" lon="13.649943"></trkpt>
      <trkpt lat="48.245351" lon="13.649295"></trkpt>
      <trkpt lat="48.244693" lon="13.648404"></trkpt>
      <trkpt lat="48.243937" lon="13.646907"></trkpt>
      <trkpt lat="48.243524" lon="13.645635"></trkpt>
      <trkpt lat="48.2429" lon="13.643033"></trkpt>
      <trkpt lat="48.242484" lon="13.641886"></trkpt>
      <trkpt lat="48.241892" lon="13.64076"></trkpt>
      <trkpt lat="48.240977" lon="13.639565"></trkpt>
      <trkpt lat="48.240257" lon="13.638927"></trkpt>
      <trkpt lat="48.237201" lon="13.637351"></trkpt>
      <trkpt lat="48.236193" lon="13.636579"></trkpt>
      <trkpt lat="48.235251" lon="13.635621"></trkpt>
      <trkpt lat="48.234398" lon="13.634454"></trkpt>
      <trkpt lat="48.233523" lon="13.632856"></trkpt>
      <trkpt lat="48.232948" lon="13.631414"></trkpt>
      <trkpt lat="48.232494" lon="13.629841"></trkpt>
      <trkpt lat="48.232171" lon="13.628021"></trkpt>
      <trkpt lat="48.232037" lon="13.626463"></trkpt>
      <trkpt lat="48.23161" lon="13.61136"></trkpt>
      <trkpt lat="48.231803" lon="13.608469"></trkpt>
      <trkpt lat="48.235161" lon="13.59352"></trkpt>
      <trkpt lat="48.235875" lon="13.591599"></trkpt>
      <trkpt lat="48.237361" lon="13.589"></trkpt>
      <trkpt lat="48.237874" lon="13.58771"></trkpt>
      <trkpt lat="48.238169" lon="13.586521"></trkpt>
      <trkpt lat="48.238377" lon="13.584579"></trkpt>
      <trkpt lat="48.23816" lon="13.58192"></trkpt>
      <trkpt lat="48.237636" lon="13.580162"></trkpt>
      <trkpt lat="48.236998" lon="13.57885"></trkpt>
      <trkpt lat="48.235302" lon="13.576499"></trkpt>
      <trkpt lat="48.23452" lon="13.575133"></trkpt>
      <trkpt lat="48.233863" lon="13.573465"></trkpt>
      <trkpt lat="48.233363" lon="13.571283"></trkpt>
      <trkpt lat="48.233198" lon="13.568298"></trkpt>
      <trkpt lat="48.233901" lon="13.550207"></trkpt>
      <trkpt lat="48.233772" lon="13.548526"></trkpt>
      <trkpt lat="48.233454" lon="13.547106"></trkpt>
      <trkpt lat="48.232935" lon="13.545751"></trkpt>
      <trkpt lat="48.232295" lon="13.544664"></trkpt>
      <trkpt lat="48.229291" lon="13.541439"></trkpt>
      <trkpt lat="48.227808" lon="13.539382"></trkpt>
      <trkpt lat="48.226368" lon="13.536678"></trkpt>
      <trkpt lat="48.225541" lon="13.534566"></trkpt>
      <trkpt lat="48.224757" lon="13.531809"></trkpt>
      <trkpt lat="48.224405" lon="13.529559"></trkpt>
      <trkpt lat="48.224336" lon="13.521745"></trkpt>
      <trkpt lat="48.224226" lon="13.520332"></trkpt>
      <trkpt lat="48.223962" lon="13.518981"></trkpt>
      <trkpt lat="48.223555" lon="13.517706"></trkpt>
      <trkpt lat="48.222615" lon="13.515937"></trkpt>
      <trkpt lat="48.221566" lon="13.514738"></trkpt>
      <trkpt lat="48.220357" lon="13.513925"></trkpt>
      <trkpt lat="48.210716" lon="13.510278"></trkpt>
      <trkpt lat="48.209469" lon="13.509521"></trkpt>
      <trkpt lat="48.208391" lon="13.508473"></trkpt>
      <trkpt lat="48.207498" lon="13.507224"></trkpt>
      <trkpt lat="48.205689" lon="13.503307"></trkpt>
      <trkpt lat="48.204871" lon="13.501957"></trkpt>
      <trkpt lat="48.204136" lon="13.501126"></trkpt>
      <trkpt lat="48.201899" lon="13.499164"></trkpt>
      <trkpt lat="48.200917" lon="13.497764"></trkpt>
      <trkpt lat="48.200331" lon="13.49617"></trkpt>
      <trkpt lat="48.199998" lon="13.49385"></trkpt>
      <trkpt lat="48.200778" lon="13.484812"></trkpt>
      <trkpt lat="48.200839" lon="13.481984"></trkpt>
      <trkpt lat="48.200667" lon="13.480853"></trkpt>
      <trkpt lat="48.200353" lon="13.479739"></trkpt>
      <trkpt lat="48.199196" lon="13.477202"></trkpt>
      <trkpt lat="48.198793" lon="13.476058"></trkpt>
      <trkpt lat="48.198493" lon="13.474613"></trkpt>
      <trkpt lat="48.198389" lon="13.472799"></trkpt>
      <trkpt lat="48.198499" lon="13.471469"></trkpt>
      <trkpt lat="48.19921" lon="13.467917"></trkpt>
      <trkpt lat="48.199461" lon="13.466085"></trkpt>
      <trkpt lat="48.200161" lon="13.458799"></trkpt>
      <trkpt lat="48.200051" lon="13.456074"></trkpt>
      <trkpt lat="48.199187" lon="13.451357"></trkpt>
      <trkpt lat="48.199213" lon="13.44878"></trkpt>
      <trkpt lat="48.199478" lon="13.447279"></trkpt>
      <trkpt lat="48.199949" lon="13.445805"></trkpt>
      <trkpt lat="48.201849" lon="13.442185"></trkpt>
      <trkpt lat="48.202231" lon="13.441135"></trkpt>
      <trkpt lat="48.20255" lon="13.439787"></trkpt>
      <trkpt lat="48.202712" lon="13.438373"></trkpt>
      <trkpt lat="48.202711" lon="13.43689"></trkpt>
      <trkpt lat="48.201831" lon="13.4313"></trkpt>
      <trkpt lat="48.201742" lon="13.429395"></trkpt>
      <trkpt lat="48.201856" lon="13.427446"></trkpt>
      <trkpt lat="48.202135" lon="13.425776"></trkpt>
      <trkpt lat="48.202562" lon="13.424233"></trkpt>
      <trkpt lat="48.204392" lon="13.419904"></trkpt>
      <trkpt lat="48.205003" lon="13.417935"></trkpt>
      <trkpt lat="48.205372" lon="13.415218"></trkpt>
      <trkpt lat="48.205466" lon="13.411086"></trkpt>
      <trkpt lat="48.205719" lon="13.409726"></trkpt>
      <trkpt lat="48.206151" lon="13.408413"></trkpt>
      <trkpt lat="48.20678" lon="13.407193"></trkpt>
      <trkpt lat="48.207453" lon="13.406311"></trkpt>
      <trkpt lat="48.208536" lon="13.405399"></trkpt>
      <trkpt lat="48.209411" lon="13.404989"></trkpt>
      <trkpt lat="48.210727" lon="13.404814"></trkpt>
      <trkpt lat="48.213807" lon="13.405378"></trkpt>
      <trkpt lat="48.214704" lon="13.405422"></trkpt>
      <trkpt lat="48.215665" lon="13.405236"></trkpt>
      <trkpt lat="48.21654" lon="13.404832"></trkpt>
      <trkpt lat="48.217341" lon="13.404249"></trkpt>
      <trkpt lat="48.218255" lon="13.403247"></trkpt>
      <trkpt lat="48.219235" lon="13.401747"></trkpt>
      <trkpt lat="48.219873" lon="13.400542"></trkpt>
      <trkpt lat="48.220798" lon="13.39828"></trkpt>
      <trkpt lat="48.221546" lon="13.395474"></trkpt>
      <trkpt lat="48.2219" lon="13.3931"></trkpt>
      <trkpt lat="48.222287" lon="13.386572"></trkpt>
      <trkpt lat="48.222548" lon="13.385024"></trkpt>
      <trkpt lat="48.223028" lon="13.383149"></trkpt>
      <trkpt lat="48.223891" lon="13.380874"></trkpt>
      <trkpt lat="48.225877" lon="13.377111"></trkpt>
      <trkpt lat="48.226687" lon="13.375268"></trkpt>
      <trkpt lat="48.228106" lon="13.370521"></trkpt>
      <trkpt lat="48.22896" lon="13.368265"></trkpt>
      <trkpt lat="48.229963" lon="13.366315"></trkpt>
      <trkpt lat="48.2321" lon="13.363047"></trkpt>
      <trkpt lat="48.233332" lon="13.360448"></trkpt>
      <trkpt lat="48.234265" lon="13.357331"></trkpt>
      <trkpt lat="48.235979" lon="13.348032"></trkpt>
      <trkpt lat="48.236447" lon="13.346076"></trkpt>
      <trkpt lat="48.237595" lon="13.342773"></trkpt>
      <trkpt lat="48.239079" lon="13.339874"></trkpt>
      <trkpt lat="48.240433" lon="13.33792"></trkpt>
      <trkpt lat="48.241968" lon="13.33625"></trkpt>
      <trkpt lat="48.262343" lon="13.317377"></trkpt>
      <trkpt lat="48.263567" lon="13.315853"></trkpt>
      <trkpt lat="48.264567" lon="13.314221"></trkpt>
      <trkpt lat="48.265432" lon="13.312367"></trkpt>
      <trkpt lat="48.265956" lon="13.310919"></trkpt>
      <trkpt lat="48.266384" lon="13.309414"></trkpt>
      <trkpt lat="48.266815" lon="13.307169"></trkpt>
      <trkpt lat="48.267072" lon="13.303447"></trkpt>
      <trkpt lat="48.265839" lon="13.284164"></trkpt>
      <trkpt lat="48.265794" lon="13.281667"></trkpt>
      <trkpt lat="48.265919" lon="13.279416"></trkpt>
      <trkpt lat="48.266496" lon="13.275676"></trkpt>
      <trkpt lat="48.270396" lon="13.258244"></trkpt>
      <trkpt lat="48.270638" lon="13.254965"></trkpt>
      <trkpt lat="48.270148" lon="13.248792"></trkpt>
      <trkpt lat="48.270238" lon="13.246151"></trkpt>
      <trkpt lat="48.270722" lon="13.243764"></trkpt>
      <trkpt lat="48.272128" lon="13.239739"></trkpt>
      <trkpt lat="48.272584" lon="13.236919"></trkpt>
      <trkpt lat="48.272575" lon="13.234701"></trkpt>
      <trkpt lat="48.272303" lon="13.23273"></trkpt>
      <trkpt lat="48.270143" lon="13.225047"></trkpt>
      <trkpt lat="48.269833" lon="13.223234"></trkpt>
      <trkpt lat="48.269706" lon="13.221146"></trkpt>
      <trkpt lat="48.271807" lon="13.15372"></trkpt>
      <trkpt lat="48.271733" lon="13.150636"></trkpt>
      <trkpt lat="48.271437" lon="13.148103"></trkpt>
      <trkpt lat="48.267447" lon="13.121965"></trkpt>
      <trkpt lat="48.266816" lon="13.119459"></trkpt>
      <trkpt lat="48.262139" lon="13.10489"></trkpt>
      <trkpt lat="48.261256" lon="13.100954"></trkpt>
      <trkpt lat="48.257834" lon="13.064497"></trkpt>
      <trkpt lat="48.257875" lon="13.062178"></trkpt>
      <trkpt lat="48.259515" lon="13.043594"></trkpt>
      <trkpt lat="48.25988" lon="13.042278"></trkpt>
      <trkpt lat="48.260405" lon="13.041068"></trkpt>
      <trkpt lat="48.263598" lon="13.035896"></trkpt>
      <trkpt lat="48.264097" lon="13.034883"></trkpt>
      <trkpt lat="48.264623" lon="13.032995"></trkpt>
      <trkpt lat="48.26476" lon="13.030653"></trkpt>
      <trkpt lat="48.264591" lon="13.029411"></trkpt>
      <trkpt lat="48.263954" lon="13.026555"></trkpt>
      <trkpt lat="48.261462" lon="13.018365"></trkpt>
      <trkpt lat="48.260612" lon="13.016115"></trkpt>
      <trkpt lat="48.252684" lon="12.990076"></trkpt>
      <trkpt lat="48.252117" lon="12.987393"></trkpt>
      <trkpt lat="48.251871" lon="12.984165"></trkpt>
      <trkpt lat="48.249731" lon="12.922331"></trkpt>
      <trkpt lat="48.249783" lon="12.905785"></trkpt>
      <trkpt lat="48.249932" lon="12.896486"></trkpt>
      <trkpt lat="48.250344" lon="12.893497"></trkpt>
      <trkpt lat="48.25542" lon="12.866335"></trkpt>
      <trkpt lat="48.256355" lon="12.856537"></trkpt>
      <trkpt lat="48.257092" lon="12.846523"></trkpt>
      <trkpt lat="48.257385" lon="12.844074"></trkpt>
      <trkpt lat="48.257943" lon="12.842074"></trkpt>
      <trkpt lat="48.259025" lon="12.839814"></trkpt>
      <trkpt lat="48.269703" lon="12.823525"></trkpt>
      <trkpt lat="48.270392" lon="12.82231"></trkpt>
      <trkpt lat="48.27103" lon="12.820782"></trkpt>
      <trkpt lat="48.271502" lon="12.819113"></trkpt>
      <trkpt lat="48.271826" lon="12.81723"></trkpt>
      <trkpt lat="48.271923" lon="12.815457"></trkpt>
      <trkpt lat="48.271425" lon="12.808528"></trkpt>
      <trkpt lat="48.270939" lon="12.805976"></trkpt>
      <trkpt lat="48.270369" lon="12.80393"></trkpt>
      <trkpt lat="48.269605" lon="12.801885"></trkpt>
      <trkpt lat="48.268517" lon="12.799705"></trkpt>
      <trkpt lat="48.265421" lon="12.795281"></trkpt>
      <trkpt lat="48.264261" lon="12.793114"></trkpt>
      <trkpt lat="48.263163" lon="12.78993"></trkpt>
      <trkpt lat="48.262614" lon="12.786893"></trkpt>
      <trkpt lat="48.261756" lon="12.759994"></trkpt>
      <trkpt lat="48.261524" lon="12.748924"></trkpt>
      <trkpt lat="48.261697" lon="12.747235"></trkpt>
      <trkpt lat="48.262069" lon="12.745356"></trkpt>
      <trkpt lat="48.264552" lon="12.737313"></trkpt>
      <trkpt lat="48.264954" lon="12.734912"></trkpt>
      <trkpt lat="48.265094" lon="12.731978"></trkpt>
      <trkpt lat="48.265045" lon="12.730682"></trkpt>
      <trkpt lat="48.25833" lon="12.661163"></trkpt>
      <trkpt lat="48.258356" lon="12.65896"></trkpt>
      <trkpt lat="48.258677" lon="12.656367"></trkpt>
      <trkpt lat="48.261059" lon="12.64626"></trkpt>
      <trkpt lat="48.261513" lon="12.642526"></trkpt>
      <trkpt lat="48.261539" lon="12.639607"></trkpt>
      <trkpt lat="48.26086" lon="12.612256"></trkpt>
      <trkpt lat="48.26016" lon="12.603833"></trkpt>
      <trkpt lat="48.259516" lon="12.598829"></trkpt>
      <trkpt lat="48.248524" lon="12.532746"></trkpt>
      <trkpt lat="48.248148" lon="12.529295"></trkpt>
      <trkpt lat="48.2481" lon="12.527435"></trkpt>
      <trkpt lat="48.248429" lon="12.512907"></trkpt>
      <trkpt lat="48.24924" lon="12.484246"></trkpt>
      <trkpt lat="48.252839" lon="12.446328"></trkpt>
      <trkpt lat="48.254127" lon="12.404838"></trkpt>
      <trkpt lat="48.254072" lon="12.403303"></trkpt>
      <trkpt lat="48.25381" lon="12.401174"></trkpt>
      <trkpt lat="48.24829" lon="12.368559"></trkpt>
      <trkpt lat="48.248064" lon="12.36623"></trkpt>
      <trkpt lat="48.248119" lon="12.364212"></trkpt>
      <trkpt lat="48.248282" lon="12.362898"></trkpt>
      <trkpt lat="48.248708" lon="12.361013"></trkpt>
      <trkpt lat="48.249301" lon="12.359326"></trkpt>
      <trkpt lat="48.25607" lon="12.342725"></trkpt>
      <trkpt lat="48.264089" lon="12.327238"></trkpt>
      <trkpt lat="48.264755" lon="12.325567"></trkpt>
      <trkpt lat="48.265249" lon="12.323577"></trkpt>
      <trkpt lat="48.265514" lon="12.321202"></trkpt>
      <trkpt lat="48.266065" lon="12.305508"></trkpt>
      <trkpt lat="48.266284" lon="12.302625"></trkpt>
      <trkpt lat="48.266719" lon="12.2992"></trkpt>
      <trkpt lat="48.267615" lon="12.294445"></trkpt>
      <trkpt lat="48.272567" lon="12.27435"></trkpt>
      <trkpt lat="48.273108" lon="12.271512"></trkpt>
      <trkpt lat="48.273458" lon="12.268552"></trkpt>
      <trkpt lat="48.273615" lon="12.26394"></trkpt>
      <trkpt lat="48.272977" lon="12.24516"></trkpt>
      <trkpt lat="48.273124" lon="12.238404"></trkpt>
      <trkpt lat="48.273445" lon="12.235723"></trkpt>
      <trkpt lat="48.274948" lon="12.230587"></trkpt>
      <trkpt lat="48.27529" lon="12.228713"></trkpt>
      <trkpt lat="48.275707" lon="12.222165"></trkpt>
      <trkpt lat="48.275814" lon="12.217425"></trkpt>
      <trkpt lat="48.275647" lon="12.211347"></trkpt>
      <trkpt lat="48.275271" lon="12.208271"></trkpt>
      <trkpt lat="48.27072" lon="12.19"></trkpt>
      <trkpt lat="48.269822" lon="12.18522"></trkpt>
      <trkpt lat="48.26938" lon="12.182009"></trkpt>
      <trkpt lat="48.266444" lon="12.154578"></trkpt>
      <trkpt lat="48.265856" lon="12.152115"></trkpt>
      <trkpt lat="48.260576" lon="12.136068"></trkpt>
      <trkpt lat="48.2599" lon="12.132848"></trkpt>
      <trkpt lat="48.259606" lon="12.129496"></trkpt>
      <trkpt lat="48.259683" lon="12.126368"></trkpt>
      <trkpt lat="48.260126" lon="12.123095"></trkpt>
      <trkpt lat="48.266514" lon="12.092413"></trkpt>
      <trkpt lat="48.266893" lon="12.090024"></trkpt>
      <trkpt lat="48.266949" lon="12.087768"></trkpt>
      <trkpt lat="48.266419" lon="12.052941"></trkpt>
      <trkpt lat="48.266439" lon="12.048591"></trkpt>
      <trkpt lat="48.266887" lon="12.044019"></trkpt>
      <trkpt lat="48.273011" lon="11.998401"></trkpt>
      <trkpt lat="48.273168" lon="11.994745"></trkpt>
      <trkpt lat="48.272807" lon="11.991441"></trkpt>
      <trkpt lat="48.271913" lon="11.988124"></trkpt>
      <trkpt lat="48.271155" lon="11.986369"></trkpt>
      <trkpt lat="48.27026" lon="11.984767"></trkpt>
      <trkpt lat="48.223962" lon="11.91383"></trkpt>
      <trkpt lat="48.203358" lon="11.876077"></trkpt>
      <trkpt lat="48.181313" lon="11.845074"></trkpt>
      <trkpt lat="48.179998" lon="11.842762"></trkpt>
      <trkpt lat="48.179254" lon="11.840925"></trkpt>
      <trkpt lat="48.149945" lon="11.724314"></trkpt>
      <trkpt lat="48.143687" lon="11.675389"></trkpt>
      <trkpt lat="48.143039" lon="11.671888"></trkpt>
      <trkpt lat="48.142366" lon="11.669466"></trkpt>
      <trkpt lat="48.141863" lon="11.668206"></trkpt>
      <trkpt lat="48.134024" lon="11.652737"></trkpt>
      <trkpt lat="48.13346" lon="11.651431"></trkpt>
      <trkpt lat="48.132968" lon="11.649693"></trkpt>
      <trkpt lat="48.132706" lon="11.647607"></trkpt>
      <trkpt lat="48.132724" lon="11.645978"></trkpt>
      <trkpt lat="48.1344" lon="11.628794"></trkpt>
      <trkpt lat="48.134904" lon="11.622439"></trkpt>
      <trkpt lat="48.134811" lon="11.62018"></trkpt>
      <trkpt lat="48.134104" lon="11.615789"></trkpt>
      <trkpt lat="48.133693" lon="11.614411"></trkpt>
      <trkpt lat="48.132915" lon="11.612632"></trkpt>
      <trkpt lat="48.129858" lon="11.60833"></trkpt>
      <trkpt lat="48.126925" lon="11.603882"></trkpt>
      <trkpt lat="48.126115" lon="11.602396"></trkpt>
      <trkpt lat="48.125747" lon="11.601085"></trkpt>
      <trkpt lat="48.125665" lon="11.599755"></trkpt>
      <trkpt lat="48.126011" lon="11.598359"></trkpt>
      <trkpt lat="48.128214" lon="11.594597"></trkpt>
      <trkpt lat="48.130838" lon="11.590742"></trkpt>
      <trkpt lat="48.131592" lon="11.589467"></trkpt>
      <trkpt lat="48.132875" lon="11.585605"></trkpt>
      <trkpt lat="48.133546" lon="11.584273"></trkpt>
      <trkpt lat="48.135059" lon="11.581911"></trkpt>
      <trkpt lat="48.135451" lon="11.581067"></trkpt>
      <trkpt lat="48.136271" lon="11.57817"></trkpt>
      <trkpt lat="48.137031" lon="11.575987"></trkpt>
      <trkpt lat="48.137593" lon="11.573317"></trkpt>
      <trkpt lat="48.138349" lon="11.570731"></trkpt>
      <trkpt lat="48.138643" lon="11.568365"></trkpt>
      <trkpt lat="48.138894" lon="11.567218"></trkpt>
      <trkpt lat="48.13916" lon="11.566434"></trkpt>
      <trkpt lat="48.139867" lon="11.565005"></trkpt>
      <trkpt lat="48.140857" lon="11.561892"></trkpt>
      <trkpt lat="48.142205" lon="11.555673"></trkpt>
      <trkpt lat="48.14231" lon="11.55388"></trkpt>
      <trkpt lat="48.141985" lon="11.551703"></trkpt>
      <trkpt lat="48.141914" lon="11.550309"></trkpt>
      <trkpt lat="48.142656" lon="11.539616"></trkpt>
      <trkpt lat="48.141879" lon="11.548064"></trkpt>
      <trkpt lat="48.141265" lon="11.552433"></trkpt>
      <trkpt lat="48.141259" lon="11.550958"></trkpt>
      <trkpt lat="48.141138" lon="11.551764"></trkpt>
      <trkpt lat="48.140743" lon="11.556959"></trkpt>
  </trkseg></trk>
</gpx>
