<?xml version="1.0" encoding="UTF-8"?>
<gpx version="1.1" creator="yatutbuv" xmlns="http://www.topografix.com/GPX/1/1">
  <trk><name>1990_Lviv-Mykolaiv (1,077.2km)</name><trkseg>
      <trkpt lat="49.839997" lon="23.993806"></trkpt>
      <trkpt lat="49.841276" lon="23.994646"></trkpt>
      <trkpt lat="49.841934" lon="23.99493"></trkpt>
      <trkpt lat="49.842646" lon="23.994939"></trkpt>
      <trkpt lat="49.843637" lon="23.994579"></trkpt>
      <trkpt lat="49.847303" lon="23.991983"></trkpt>
      <trkpt lat="49.85448" lon="23.985582"></trkpt>
      <trkpt lat="49.855296" lon="23.985123"></trkpt>
      <trkpt lat="49.856654" lon="23.984837"></trkpt>
      <trkpt lat="49.857485" lon="23.984898"></trkpt>
      <trkpt lat="49.858298" lon="23.985124"></trkpt>
      <trkpt lat="49.85887" lon="23.985435"></trkpt>
      <trkpt lat="49.859539" lon="23.986006"></trkpt>
      <trkpt lat="49.861282" lon="23.988163"></trkpt>
      <trkpt lat="49.862642" lon="23.98948"></trkpt>
      <trkpt lat="49.863231" lon="23.990297"></trkpt>
      <trkpt lat="49.863732" lon="23.991439"></trkpt>
      <trkpt lat="49.86402" lon="23.992839"></trkpt>
      <trkpt lat="49.86405" lon="23.994464"></trkpt>
      <trkpt lat="49.863691" lon="23.997612"></trkpt>
      <trkpt lat="49.863387" lon="23.998863"></trkpt>
      <trkpt lat="49.862997" lon="23.999845"></trkpt>
      <trkpt lat="49.862159" lon="24.001076"></trkpt>
      <trkpt lat="49.860024" lon="24.003756"></trkpt>
      <trkpt lat="49.858705" lon="24.005781"></trkpt>
      <trkpt lat="49.855869" lon="24.011986"></trkpt>
      <trkpt lat="49.852082" lon="24.018602"></trkpt>
      <trkpt lat="49.851499" lon="24.02017"></trkpt>
      <trkpt lat="49.851218" lon="24.02161"></trkpt>
      <trkpt lat="49.850609" lon="24.030223"></trkpt>
      <trkpt lat="49.852206" lon="24.040596"></trkpt>
      <trkpt lat="49.852455" lon="24.043121"></trkpt>
      <trkpt lat="49.853064" lon="24.052394"></trkpt>
      <trkpt lat="49.853241" lon="24.060972"></trkpt>
      <trkpt lat="49.853212" lon="24.064426"></trkpt>
      <trkpt lat="49.852746" lon="24.069032"></trkpt>
      <trkpt lat="49.851609" lon="24.092197"></trkpt>
      <trkpt lat="49.848807" lon="24.117352"></trkpt>
      <trkpt lat="49.847896" lon="24.123779"></trkpt>
      <trkpt lat="49.84738" lon="24.128418"></trkpt>
      <trkpt lat="49.847133" lon="24.13398"></trkpt>
      <trkpt lat="49.847066" lon="24.140299"></trkpt>
      <trkpt lat="49.846254" lon="24.160866"></trkpt>
      <trkpt lat="49.845814" lon="24.164489"></trkpt>
      <trkpt lat="49.843738" lon="24.175254"></trkpt>
      <trkpt lat="49.843544" lon="24.177766"></trkpt>
      <trkpt lat="49.843618" lon="24.179587"></trkpt>
      <trkpt lat="49.843828" lon="24.181321"></trkpt>
      <trkpt lat="49.84667" lon="24.196021"></trkpt>
      <trkpt lat="49.847041" lon="24.197407"></trkpt>
      <trkpt lat="49.847473" lon="24.198446"></trkpt>
      <trkpt lat="49.84838" lon="24.19991"></trkpt>
      <trkpt lat="49.848933" lon="24.200507"></trkpt>
      <trkpt lat="49.855504" lon="24.204952"></trkpt>
      <trkpt lat="49.856183" lon="24.205559"></trkpt>
      <trkpt lat="49.857025" lon="24.206676"></trkpt>
      <trkpt lat="49.857518" lon="24.207623"></trkpt>
      <trkpt lat="49.85802" lon="24.20903"></trkpt>
      <trkpt lat="49.858314" lon="24.210393"></trkpt>
      <trkpt lat="49.858545" lon="24.213641"></trkpt>
      <trkpt lat="49.861969" lon="24.287021"></trkpt>
      <trkpt lat="49.862278" lon="24.290099"></trkpt>
      <trkpt lat="49.86437" lon="24.306171"></trkpt>
      <trkpt lat="49.864132" lon="24.318584"></trkpt>
      <trkpt lat="49.864305" lon="24.320781"></trkpt>
      <trkpt lat="49.864626" lon="24.322624"></trkpt>
      <trkpt lat="49.865219" lon="24.324631"></trkpt>
      <trkpt lat="49.876743" lon="24.357899"></trkpt>
      <trkpt lat="49.87726" lon="24.360024"></trkpt>
      <trkpt lat="49.877648" lon="24.362901"></trkpt>
      <trkpt lat="49.877777" lon="24.432888"></trkpt>
      <trkpt lat="49.877877" lon="24.444767"></trkpt>
      <trkpt lat="49.878213" lon="24.448788"></trkpt>
      <trkpt lat="49.879453" lon="24.454899"></trkpt>
      <trkpt lat="49.901663" lon="24.547624"></trkpt>
      <trkpt lat="49.915144" lon="24.599067"></trkpt>
      <trkpt lat="49.915595" lon="24.601421"></trkpt>
      <trkpt lat="49.915977" lon="24.604791"></trkpt>
      <trkpt lat="49.91629" lon="24.610319"></trkpt>
      <trkpt lat="49.917484" lon="24.622195"></trkpt>
      <trkpt lat="49.91738" lon="24.624074"></trkpt>
      <trkpt lat="49.916874" lon="24.625862"></trkpt>
      <trkpt lat="49.916094" lon="24.627209"></trkpt>
      <trkpt lat="49.899103" lon="24.645475"></trkpt>
      <trkpt lat="49.898273" lon="24.646507"></trkpt>
      <trkpt lat="49.897196" lon="24.648365"></trkpt>
      <trkpt lat="49.896352" lon="24.650469"></trkpt>
      <trkpt lat="49.87971" lon="24.701824"></trkpt>
      <trkpt lat="49.871152" lon="24.721345"></trkpt>
      <trkpt lat="49.868652" lon="24.726793"></trkpt>
      <trkpt lat="49.867502" lon="24.728422"></trkpt>
      <trkpt lat="49.866098" lon="24.729621"></trkpt>
      <trkpt lat="49.858887" lon="24.732683"></trkpt>
      <trkpt lat="49.857075" lon="24.733957"></trkpt>
      <trkpt lat="49.855625" lon="24.735442"></trkpt>
      <trkpt lat="49.844055" lon="24.749084"></trkpt>
      <trkpt lat="49.842714" lon="24.750345"></trkpt>
      <trkpt lat="49.832617" lon="24.758792"></trkpt>
      <trkpt lat="49.831872" lon="24.759568"></trkpt>
      <trkpt lat="49.831232" lon="24.760473"></trkpt>
      <trkpt lat="49.83042" lon="24.76234"></trkpt>
      <trkpt lat="49.825134" lon="24.781032"></trkpt>
      <trkpt lat="49.824626" lon="24.782435"></trkpt>
      <trkpt lat="49.824038" lon="24.783631"></trkpt>
      <trkpt lat="49.823396" lon="24.784605"></trkpt>
      <trkpt lat="49.820083" lon="24.788728"></trkpt>
      <trkpt lat="49.818701" lon="24.790772"></trkpt>
      <trkpt lat="49.814543" lon="24.797074"></trkpt>
      <trkpt lat="49.813707" lon="24.79878"></trkpt>
      <trkpt lat="49.813249" lon="24.800204"></trkpt>
      <trkpt lat="49.81287" lon="24.802065"></trkpt>
      <trkpt lat="49.806986" lon="24.845245"></trkpt>
      <trkpt lat="49.806115" lon="24.849264"></trkpt>
      <trkpt lat="49.799934" lon="24.868277"></trkpt>
      <trkpt lat="49.798876" lon="24.870333"></trkpt>
      <trkpt lat="49.793703" lon="24.878953"></trkpt>
      <trkpt lat="49.787063" lon="24.896775"></trkpt>
      <trkpt lat="49.78656" lon="24.898426"></trkpt>
      <trkpt lat="49.785841" lon="24.901669"></trkpt>
      <trkpt lat="49.775815" lon="24.9609"></trkpt>
      <trkpt lat="49.775196" lon="24.962914"></trkpt>
      <trkpt lat="49.770147" lon="24.974859"></trkpt>
      <trkpt lat="49.769554" lon="24.976605"></trkpt>
      <trkpt lat="49.769293" lon="24.978228"></trkpt>
      <trkpt lat="49.769002" lon="24.984005"></trkpt>
      <trkpt lat="49.768741" lon="24.98636"></trkpt>
      <trkpt lat="49.76629" lon="24.998803"></trkpt>
      <trkpt lat="49.765929" lon="25.000222"></trkpt>
      <trkpt lat="49.758546" lon="25.017969"></trkpt>
      <trkpt lat="49.757198" lon="25.02025"></trkpt>
      <trkpt lat="49.752152" lon="25.027341"></trkpt>
      <trkpt lat="49.751169" lon="25.029105"></trkpt>
      <trkpt lat="49.750698" lon="25.030471"></trkpt>
      <trkpt lat="49.748595" lon="25.041898"></trkpt>
      <trkpt lat="49.748442" lon="25.044219"></trkpt>
      <trkpt lat="49.748574" lon="25.045629"></trkpt>
      <trkpt lat="49.74887" lon="25.046962"></trkpt>
      <trkpt lat="49.750868" lon="25.052239"></trkpt>
      <trkpt lat="49.751229" lon="25.054763"></trkpt>
      <trkpt lat="49.751103" lon="25.057095"></trkpt>
      <trkpt lat="49.750534" lon="25.05931"></trkpt>
      <trkpt lat="49.742033" lon="25.083384"></trkpt>
      <trkpt lat="49.741385" lon="25.08454"></trkpt>
      <trkpt lat="49.738412" lon="25.088723"></trkpt>
      <trkpt lat="49.736345" lon="25.091084"></trkpt>
      <trkpt lat="49.721077" lon="25.102343"></trkpt>
      <trkpt lat="49.720083" lon="25.103239"></trkpt>
      <trkpt lat="49.698454" lon="25.128149"></trkpt>
      <trkpt lat="49.695499" lon="25.130454"></trkpt>
      <trkpt lat="49.684429" lon="25.137737"></trkpt>
      <trkpt lat="49.67835" lon="25.143721"></trkpt>
      <trkpt lat="49.677511" lon="25.144998"></trkpt>
      <trkpt lat="49.676864" lon="25.146609"></trkpt>
      <trkpt lat="49.676506" lon="25.148193"></trkpt>
      <trkpt lat="49.676292" lon="25.15002"></trkpt>
      <trkpt lat="49.674681" lon="25.170389"></trkpt>
      <trkpt lat="49.673852" lon="25.178297"></trkpt>
      <trkpt lat="49.673332" lon="25.181034"></trkpt>
      <trkpt lat="49.667192" lon="25.201455"></trkpt>
      <trkpt lat="49.66575" lon="25.207207"></trkpt>
      <trkpt lat="49.662169" lon="25.218963"></trkpt>
      <trkpt lat="49.661742" lon="25.219862"></trkpt>
      <trkpt lat="49.66098" lon="25.221047"></trkpt>
      <trkpt lat="49.655515" lon="25.228611"></trkpt>
      <trkpt lat="49.654634" lon="25.230431"></trkpt>
      <trkpt lat="49.648065" lon="25.259204"></trkpt>
      <trkpt lat="49.647763" lon="25.261693"></trkpt>
      <trkpt lat="49.647748" lon="25.26449"></trkpt>
      <trkpt lat="49.649268" lon="25.299782"></trkpt>
      <trkpt lat="49.64843" lon="25.324736"></trkpt>
      <trkpt lat="49.647944" lon="25.326833"></trkpt>
      <trkpt lat="49.647105" lon="25.328602"></trkpt>
      <trkpt lat="49.637097" lon="25.340887"></trkpt>
      <trkpt lat="49.636195" lon="25.342515"></trkpt>
      <trkpt lat="49.635707" lon="25.344153"></trkpt>
      <trkpt lat="49.635491" lon="25.345601"></trkpt>
      <trkpt lat="49.635461" lon="25.347211"></trkpt>
      <trkpt lat="49.636477" lon="25.363504"></trkpt>
      <trkpt lat="49.636104" lon="25.371923"></trkpt>
      <trkpt lat="49.636113" lon="25.373641"></trkpt>
      <trkpt lat="49.63632" lon="25.375862"></trkpt>
      <trkpt lat="49.637345" lon="25.381513"></trkpt>
      <trkpt lat="49.637575" lon="25.383883"></trkpt>
      <trkpt lat="49.637489" lon="25.386016"></trkpt>
      <trkpt lat="49.637002" lon="25.391044"></trkpt>
      <trkpt lat="49.636623" lon="25.392835"></trkpt>
      <trkpt lat="49.636147" lon="25.394085"></trkpt>
      <trkpt lat="49.630594" lon="25.403481"></trkpt>
      <trkpt lat="49.629616" lon="25.405723"></trkpt>
      <trkpt lat="49.629043" lon="25.407626"></trkpt>
      <trkpt lat="49.628795" lon="25.408945"></trkpt>
      <trkpt lat="49.62863" lon="25.41095"></trkpt>
      <trkpt lat="49.628419" lon="25.425655"></trkpt>
      <trkpt lat="49.62813" lon="25.427957"></trkpt>
      <trkpt lat="49.627599" lon="25.430091"></trkpt>
      <trkpt lat="49.62702" lon="25.431665"></trkpt>
      <trkpt lat="49.626052" lon="25.433567"></trkpt>
      <trkpt lat="49.622559" lon="25.438282"></trkpt>
      <trkpt lat="49.621747" lon="25.439634"></trkpt>
      <trkpt lat="49.620525" lon="25.442781"></trkpt>
      <trkpt lat="49.620147" lon="25.444667"></trkpt>
      <trkpt lat="49.620099" lon="25.446505"></trkpt>
      <trkpt lat="49.620247" lon="25.447908"></trkpt>
      <trkpt lat="49.620967" lon="25.451906"></trkpt>
      <trkpt lat="49.621618" lon="25.453856"></trkpt>
      <trkpt lat="49.622033" lon="25.454642"></trkpt>
      <trkpt lat="49.622762" lon="25.455637"></trkpt>
      <trkpt lat="49.626656" lon="25.459291"></trkpt>
      <trkpt lat="49.627396" lon="25.460151"></trkpt>
      <trkpt lat="49.628269" lon="25.461839"></trkpt>
      <trkpt lat="49.628751" lon="25.463536"></trkpt>
      <trkpt lat="49.628924" lon="25.464904"></trkpt>
      <trkpt lat="49.628943" lon="25.466445"></trkpt>
      <trkpt lat="49.628785" lon="25.467913"></trkpt>
      <trkpt lat="49.628201" lon="25.470638"></trkpt>
      <trkpt lat="49.628111" lon="25.472005"></trkpt>
      <trkpt lat="49.628483" lon="25.488792"></trkpt>
      <trkpt lat="49.62864" lon="25.490382"></trkpt>
      <trkpt lat="49.630228" lon="25.499774"></trkpt>
      <trkpt lat="49.630528" lon="25.501033"></trkpt>
      <trkpt lat="49.631598" lon="25.504014"></trkpt>
      <trkpt lat="49.631923" lon="25.505291"></trkpt>
      <trkpt lat="49.632035" lon="25.506365"></trkpt>
      <trkpt lat="49.632" lon="25.507476"></trkpt>
      <trkpt lat="49.631597" lon="25.509305"></trkpt>
      <trkpt lat="49.630886" lon="25.510689"></trkpt>
      <trkpt lat="49.627063" lon="25.51576"></trkpt>
      <trkpt lat="49.619503" lon="25.527982"></trkpt>
      <trkpt lat="49.6181" lon="25.530737"></trkpt>
      <trkpt lat="49.614377" lon="25.539619"></trkpt>
      <trkpt lat="49.613225" lon="25.541556"></trkpt>
      <trkpt lat="49.612486" lon="25.542427"></trkpt>
      <trkpt lat="49.611632" lon="25.543181"></trkpt>
      <trkpt lat="49.604437" lon="25.547678"></trkpt>
      <trkpt lat="49.603692" lon="25.548295"></trkpt>
      <trkpt lat="49.603204" lon="25.548887"></trkpt>
      <trkpt lat="49.602553" lon="25.55022"></trkpt>
      <trkpt lat="49.599621" lon="25.558694"></trkpt>
      <trkpt lat="49.599175" lon="25.559737"></trkpt>
      <trkpt lat="49.598397" lon="25.561031"></trkpt>
      <trkpt lat="49.595937" lon="25.564413"></trkpt>
      <trkpt lat="49.593072" lon="25.567599"></trkpt>
      <trkpt lat="49.591922" lon="25.568716"></trkpt>
      <trkpt lat="49.590939" lon="25.569367"></trkpt>
      <trkpt lat="49.587268" lon="25.571154"></trkpt>
      <trkpt lat="49.586466" lon="25.571714"></trkpt>
      <trkpt lat="49.585264" lon="25.572803"></trkpt>
      <trkpt lat="49.581406" lon="25.576729"></trkpt>
      <trkpt lat="49.580454" lon="25.577839"></trkpt>
      <trkpt lat="49.579567" lon="25.579374"></trkpt>
      <trkpt lat="49.578148" lon="25.582604"></trkpt>
      <trkpt lat="49.577692" lon="25.583359"></trkpt>
      <trkpt lat="49.576585" lon="25.58475"></trkpt>
      <trkpt lat="49.569001" lon="25.591199"></trkpt>
      <trkpt lat="49.566413" lon="25.593161"></trkpt>
      <trkpt lat="49.56251" lon="25.596615"></trkpt>
      <trkpt lat="49.561366" lon="25.597466"></trkpt>
      <trkpt lat="49.560695" lon="25.597831"></trkpt>
      <trkpt lat="49.558463" lon="25.598771"></trkpt>
      <trkpt lat="49.556522" lon="25.599859"></trkpt>
      <trkpt lat="49.553918" lon="25.601076"></trkpt>
      <trkpt lat="49.549646" lon="25.602948"></trkpt>
      <trkpt lat="49.548748" lon="25.603511"></trkpt>
      <trkpt lat="49.547931" lon="25.604308"></trkpt>
      <trkpt lat="49.546849" lon="25.605931"></trkpt>
      <trkpt lat="49.534347" lon="25.628231"></trkpt>
      <trkpt lat="49.533314" lon="25.630302"></trkpt>
      <trkpt lat="49.532397" lon="25.633047"></trkpt>
      <trkpt lat="49.512925" lon="25.732437"></trkpt>
      <trkpt lat="49.512813" lon="25.733871"></trkpt>
      <trkpt lat="49.513024" lon="25.736123"></trkpt>
      <trkpt lat="49.515434" lon="25.746815"></trkpt>
      <trkpt lat="49.516072" lon="25.748207"></trkpt>
      <trkpt lat="49.516714" lon="25.749082"></trkpt>
      <trkpt lat="49.517595" lon="25.749813"></trkpt>
      <trkpt lat="49.518677" lon="25.750231"></trkpt>
      <trkpt lat="49.520289" lon="25.75011"></trkpt>
      <trkpt lat="49.52391" lon="25.749103"></trkpt>
      <trkpt lat="49.524738" lon="25.74899"></trkpt>
      <trkpt lat="49.525549" lon="25.749117"></trkpt>
      <trkpt lat="49.526464" lon="25.749603"></trkpt>
      <trkpt lat="49.52784" lon="25.750747"></trkpt>
      <trkpt lat="49.528451" lon="25.751447"></trkpt>
      <trkpt lat="49.531005" lon="25.755612"></trkpt>
      <trkpt lat="49.531832" lon="25.757449"></trkpt>
      <trkpt lat="49.533177" lon="25.762383"></trkpt>
      <trkpt lat="49.533553" lon="25.764207"></trkpt>
      <trkpt lat="49.533614" lon="25.76522"></trkpt>
      <trkpt lat="49.53346" lon="25.766913"></trkpt>
      <trkpt lat="49.532038" lon="25.775222"></trkpt>
      <trkpt lat="49.531798" lon="25.777425"></trkpt>
      <trkpt lat="49.531886" lon="25.779342"></trkpt>
      <trkpt lat="49.532995" lon="25.785036"></trkpt>
      <trkpt lat="49.533089" lon="25.786966"></trkpt>
      <trkpt lat="49.532853" lon="25.788834"></trkpt>
      <trkpt lat="49.531488" lon="25.795853"></trkpt>
      <trkpt lat="49.531412" lon="25.797348"></trkpt>
      <trkpt lat="49.531519" lon="25.798372"></trkpt>
      <trkpt lat="49.531842" lon="25.799629"></trkpt>
      <trkpt lat="49.532605" lon="25.80108"></trkpt>
      <trkpt lat="49.533213" lon="25.801786"></trkpt>
      <trkpt lat="49.534151" lon="25.802412"></trkpt>
      <trkpt lat="49.563232" lon="25.81604"></trkpt>
      <trkpt lat="49.564661" lon="25.816905"></trkpt>
      <trkpt lat="49.565656" lon="25.817754"></trkpt>
      <trkpt lat="49.586017" lon="25.838733"></trkpt>
      <trkpt lat="49.587899" lon="25.841011"></trkpt>
      <trkpt lat="49.605444" lon="25.869888"></trkpt>
      <trkpt lat="49.605857" lon="25.870833"></trkpt>
      <trkpt lat="49.606178" lon="25.87202"></trkpt>
      <trkpt lat="49.606372" lon="25.87417"></trkpt>
      <trkpt lat="49.606192" lon="25.875906"></trkpt>
      <trkpt lat="49.605722" lon="25.877492"></trkpt>
      <trkpt lat="49.598113" lon="25.892114"></trkpt>
      <trkpt lat="49.597373" lon="25.893887"></trkpt>
      <trkpt lat="49.596864" lon="25.895975"></trkpt>
      <trkpt lat="49.596675" lon="25.897634"></trkpt>
      <trkpt lat="49.596587" lon="25.899871"></trkpt>
      <trkpt lat="49.596171" lon="25.933771"></trkpt>
      <trkpt lat="49.595881" lon="25.935836"></trkpt>
      <trkpt lat="49.595183" lon="25.937876"></trkpt>
      <trkpt lat="49.592918" lon="25.941507"></trkpt>
      <trkpt lat="49.58332" lon="25.956123"></trkpt>
      <trkpt lat="49.582227" lon="25.95741"></trkpt>
      <trkpt lat="49.575324" lon="25.964555"></trkpt>
      <trkpt lat="49.574384" lon="25.965409"></trkpt>
      <trkpt lat="49.573817" lon="25.96575"></trkpt>
      <trkpt lat="49.57303" lon="25.966047"></trkpt>
      <trkpt lat="49.572252" lon="25.966138"></trkpt>
      <trkpt lat="49.57085" lon="25.965842"></trkpt>
      <trkpt lat="49.567686" lon="25.96435"></trkpt>
      <trkpt lat="49.566911" lon="25.964092"></trkpt>
      <trkpt lat="49.565675" lon="25.964132"></trkpt>
      <trkpt lat="49.56458" lon="25.964659"></trkpt>
      <trkpt lat="49.564017" lon="25.965151"></trkpt>
      <trkpt lat="49.563402" lon="25.965909"></trkpt>
      <trkpt lat="49.556348" lon="25.976077"></trkpt>
      <trkpt lat="49.555581" lon="25.977459"></trkpt>
      <trkpt lat="49.555103" lon="25.978814"></trkpt>
      <trkpt lat="49.554842" lon="25.980033"></trkpt>
      <trkpt lat="49.554185" lon="25.98472"></trkpt>
      <trkpt lat="49.55224" lon="26.005997"></trkpt>
      <trkpt lat="49.551681" lon="26.009357"></trkpt>
      <trkpt lat="49.54887" lon="26.023178"></trkpt>
      <trkpt lat="49.548767" lon="26.024495"></trkpt>
      <trkpt lat="49.548906" lon="26.026564"></trkpt>
      <trkpt lat="49.54922" lon="26.028291"></trkpt>
      <trkpt lat="49.554185" lon="26.040742"></trkpt>
      <trkpt lat="49.554866" lon="26.043438"></trkpt>
      <trkpt lat="49.554963" lon="26.045367"></trkpt>
      <trkpt lat="49.554416" lon="26.049643"></trkpt>
      <trkpt lat="49.554373" lon="26.053773"></trkpt>
      <trkpt lat="49.554019" lon="26.060765"></trkpt>
      <trkpt lat="49.554168" lon="26.062307"></trkpt>
      <trkpt lat="49.554481" lon="26.063777"></trkpt>
      <trkpt lat="49.555657" lon="26.067447"></trkpt>
      <trkpt lat="49.555872" lon="26.068427"></trkpt>
      <trkpt lat="49.555996" lon="26.071891"></trkpt>
      <trkpt lat="49.555835" lon="26.073822"></trkpt>
      <trkpt lat="49.555564" lon="26.074971"></trkpt>
      <trkpt lat="49.555141" lon="26.076133"></trkpt>
      <trkpt lat="49.547678" lon="26.093279"></trkpt>
      <trkpt lat="49.54686" lon="26.094727"></trkpt>
      <trkpt lat="49.544422" lon="26.098083"></trkpt>
      <trkpt lat="49.54382" lon="26.099078"></trkpt>
      <trkpt lat="49.530597" lon="26.128893"></trkpt>
      <trkpt lat="49.530167" lon="26.130677"></trkpt>
      <trkpt lat="49.528739" lon="26.143294"></trkpt>
      <trkpt lat="49.528366" lon="26.14555"></trkpt>
      <trkpt lat="49.524602" lon="26.15919"></trkpt>
      <trkpt lat="49.524078" lon="26.161938"></trkpt>
      <trkpt lat="49.523345" lon="26.169362"></trkpt>
      <trkpt lat="49.52325" lon="26.171685"></trkpt>
      <trkpt lat="49.523376" lon="26.173943"></trkpt>
      <trkpt lat="49.523966" lon="26.177331"></trkpt>
      <trkpt lat="49.524748" lon="26.179761"></trkpt>
      <trkpt lat="49.525636" lon="26.181624"></trkpt>
      <trkpt lat="49.526359" lon="26.182752"></trkpt>
      <trkpt lat="49.531791" lon="26.190154"></trkpt>
      <trkpt lat="49.532352" lon="26.191099"></trkpt>
      <trkpt lat="49.532846" lon="26.192237"></trkpt>
      <trkpt lat="49.533211" lon="26.19344"></trkpt>
      <trkpt lat="49.533542" lon="26.195306"></trkpt>
      <trkpt lat="49.5336" lon="26.196571"></trkpt>
      <trkpt lat="49.533527" lon="26.198252"></trkpt>
      <trkpt lat="49.528923" lon="26.2364"></trkpt>
      <trkpt lat="49.527106" lon="26.310275"></trkpt>
      <trkpt lat="49.526742" lon="26.31552"></trkpt>
      <trkpt lat="49.526029" lon="26.32103"></trkpt>
      <trkpt lat="49.512845" lon="26.397953"></trkpt>
      <trkpt lat="49.511705" lon="26.401308"></trkpt>
      <trkpt lat="49.504708" lon="26.417948"></trkpt>
      <trkpt lat="49.50348" lon="26.421266"></trkpt>
      <trkpt lat="49.492776" lon="26.462025"></trkpt>
      <trkpt lat="49.492483" lon="26.463549"></trkpt>
      <trkpt lat="49.492291" lon="26.465356"></trkpt>
      <trkpt lat="49.492252" lon="26.466975"></trkpt>
      <trkpt lat="49.492396" lon="26.469334"></trkpt>
      <trkpt lat="49.495641" lon="26.497791"></trkpt>
      <trkpt lat="49.496234" lon="26.501351"></trkpt>
      <trkpt lat="49.497111" lon="26.504804"></trkpt>
      <trkpt lat="49.508832" lon="26.541898"></trkpt>
      <trkpt lat="49.509518" lon="26.544641"></trkpt>
      <trkpt lat="49.509978" lon="26.547225"></trkpt>
      <trkpt lat="49.510266" lon="26.549607"></trkpt>
      <trkpt lat="49.510442" lon="26.552665"></trkpt>
      <trkpt lat="49.510353" lon="26.55683"></trkpt>
      <trkpt lat="49.508802" lon="26.573851"></trkpt>
      <trkpt lat="49.508657" lon="26.576906"></trkpt>
      <trkpt lat="49.508905" lon="26.626404"></trkpt>
      <trkpt lat="49.509406" lon="26.635263"></trkpt>
      <trkpt lat="49.50938" lon="26.638109"></trkpt>
      <trkpt lat="49.508835" lon="26.641633"></trkpt>
      <trkpt lat="49.499473" lon="26.685772"></trkpt>
      <trkpt lat="49.498887" lon="26.689624"></trkpt>
      <trkpt lat="49.498655" lon="26.694498"></trkpt>
      <trkpt lat="49.499143" lon="26.724263"></trkpt>
      <trkpt lat="49.498985" lon="26.727666"></trkpt>
      <trkpt lat="49.498383" lon="26.731766"></trkpt>
      <trkpt lat="49.496051" lon="26.741089"></trkpt>
      <trkpt lat="49.48574" lon="26.779999"></trkpt>
      <trkpt lat="49.470051" lon="26.826172"></trkpt>
      <trkpt lat="49.46929" lon="26.82873"></trkpt>
      <trkpt lat="49.466141" lon="26.844423"></trkpt>
      <trkpt lat="49.45593" lon="26.897474"></trkpt>
      <trkpt lat="49.454782" lon="26.901918"></trkpt>
      <trkpt lat="49.45404" lon="26.904052"></trkpt>
      <trkpt lat="49.449168" lon="26.916241"></trkpt>
      <trkpt lat="49.448354" lon="26.917637"></trkpt>
      <trkpt lat="49.447011" lon="26.919213"></trkpt>
      <trkpt lat="49.446017" lon="26.921072"></trkpt>
      <trkpt lat="49.436956" lon="26.942278"></trkpt>
      <trkpt lat="49.435925" lon="26.943533"></trkpt>
      <trkpt lat="49.430713" lon="26.947548"></trkpt>
      <trkpt lat="49.428268" lon="26.950974"></trkpt>
      <trkpt lat="49.424554" lon="26.955233"></trkpt>
      <trkpt lat="49.423014" lon="26.957355"></trkpt>
      <trkpt lat="49.421946" lon="26.959117"></trkpt>
      <trkpt lat="49.420644" lon="26.961771"></trkpt>
      <trkpt lat="49.41967" lon="26.964266"></trkpt>
      <trkpt lat="49.417142" lon="26.97285"></trkpt>
      <trkpt lat="49.41676" lon="26.974902"></trkpt>
      <trkpt lat="49.416604" lon="26.976885"></trkpt>
      <trkpt lat="49.416585" lon="26.978544"></trkpt>
      <trkpt lat="49.416755" lon="26.980674"></trkpt>
      <trkpt lat="49.41886" lon="26.994129"></trkpt>
      <trkpt lat="49.418922" lon="26.997069"></trkpt>
      <trkpt lat="49.41865" lon="26.999734"></trkpt>
      <trkpt lat="49.418025" lon="27.002538"></trkpt>
      <trkpt lat="49.406094" lon="27.050197"></trkpt>
      <trkpt lat="49.404821" lon="27.054"></trkpt>
      <trkpt lat="49.385163" lon="27.101396"></trkpt>
      <trkpt lat="49.384275" lon="27.103836"></trkpt>
      <trkpt lat="49.371578" lon="27.148592"></trkpt>
      <trkpt lat="49.358657" lon="27.189513"></trkpt>
      <trkpt lat="49.357656" lon="27.191602"></trkpt>
      <trkpt lat="49.356244" lon="27.193613"></trkpt>
      <trkpt lat="49.355215" lon="27.194682"></trkpt>
      <trkpt lat="49.352727" lon="27.196907"></trkpt>
      <trkpt lat="49.351722" lon="27.198027"></trkpt>
      <trkpt lat="49.350958" lon="27.199091"></trkpt>
      <trkpt lat="49.350163" lon="27.200656"></trkpt>
      <trkpt lat="49.348257" lon="27.205097"></trkpt>
      <trkpt lat="49.347666" lon="27.206113"></trkpt>
      <trkpt lat="49.344165" lon="27.211023"></trkpt>
      <trkpt lat="49.343567" lon="27.212237"></trkpt>
      <trkpt lat="49.341256" lon="27.217852"></trkpt>
      <trkpt lat="49.339786" lon="27.22017"></trkpt>
      <trkpt lat="49.338916" lon="27.221147"></trkpt>
      <trkpt lat="49.337929" lon="27.221998"></trkpt>
      <trkpt lat="49.329923" lon="27.228102"></trkpt>
      <trkpt lat="49.325234" lon="27.231025"></trkpt>
      <trkpt lat="49.323085" lon="27.233176"></trkpt>
      <trkpt lat="49.322133" lon="27.234441"></trkpt>
      <trkpt lat="49.321576" lon="27.235572"></trkpt>
      <trkpt lat="49.321109" lon="27.237187"></trkpt>
      <trkpt lat="49.319759" lon="27.245041"></trkpt>
      <trkpt lat="49.318721" lon="27.249941"></trkpt>
      <trkpt lat="49.317269" lon="27.254726"></trkpt>
      <trkpt lat="49.316188" lon="27.257445"></trkpt>
      <trkpt lat="49.315105" lon="27.259384"></trkpt>
      <trkpt lat="49.313688" lon="27.261242"></trkpt>
      <trkpt lat="49.301201" lon="27.272324"></trkpt>
      <trkpt lat="49.300341" lon="27.2733"></trkpt>
      <trkpt lat="49.299165" lon="27.275091"></trkpt>
      <trkpt lat="49.298267" lon="27.277033"></trkpt>
      <trkpt lat="49.293388" lon="27.289475"></trkpt>
      <trkpt lat="49.286785" lon="27.30922"></trkpt>
      <trkpt lat="49.286186" lon="27.311365"></trkpt>
      <trkpt lat="49.282358" lon="27.327385"></trkpt>
      <trkpt lat="49.276903" lon="27.344462"></trkpt>
      <trkpt lat="49.276279" lon="27.346849"></trkpt>
      <trkpt lat="49.27568" lon="27.35003"></trkpt>
      <trkpt lat="49.272361" lon="27.380205"></trkpt>
      <trkpt lat="49.272316" lon="27.386056"></trkpt>
      <trkpt lat="49.272188" lon="27.387768"></trkpt>
      <trkpt lat="49.270188" lon="27.404216"></trkpt>
      <trkpt lat="49.268521" lon="27.410996"></trkpt>
      <trkpt lat="49.268123" lon="27.413076"></trkpt>
      <trkpt lat="49.267712" lon="27.418508"></trkpt>
      <trkpt lat="49.26759" lon="27.422796"></trkpt>
      <trkpt lat="49.266111" lon="27.447978"></trkpt>
      <trkpt lat="49.265654" lon="27.451101"></trkpt>
      <trkpt lat="49.264827" lon="27.453829"></trkpt>
      <trkpt lat="49.263555" lon="27.456405"></trkpt>
      <trkpt lat="49.262421" lon="27.457965"></trkpt>
      <trkpt lat="49.255233" lon="27.466455"></trkpt>
      <trkpt lat="49.253683" lon="27.467923"></trkpt>
      <trkpt lat="49.25205" lon="27.469088"></trkpt>
      <trkpt lat="49.247837" lon="27.471552"></trkpt>
      <trkpt lat="49.246117" lon="27.472318"></trkpt>
      <trkpt lat="49.244353" lon="27.472873"></trkpt>
      <trkpt lat="49.240749" lon="27.473468"></trkpt>
      <trkpt lat="49.236733" lon="27.474349"></trkpt>
      <trkpt lat="49.227043" lon="27.478138"></trkpt>
      <trkpt lat="49.225982" lon="27.478697"></trkpt>
      <trkpt lat="49.224768" lon="27.4796"></trkpt>
      <trkpt lat="49.22335" lon="27.481186"></trkpt>
      <trkpt lat="49.222127" lon="27.483149"></trkpt>
      <trkpt lat="49.218393" lon="27.490838"></trkpt>
      <trkpt lat="49.216217" lon="27.496022"></trkpt>
      <trkpt lat="49.215247" lon="27.497873"></trkpt>
      <trkpt lat="49.214414" lon="27.499032"></trkpt>
      <trkpt lat="49.20725" lon="27.507767"></trkpt>
      <trkpt lat="49.206437" lon="27.508989"></trkpt>
      <trkpt lat="49.205709" lon="27.510592"></trkpt>
      <trkpt lat="49.205268" lon="27.512316"></trkpt>
      <trkpt lat="49.205068" lon="27.514285"></trkpt>
      <trkpt lat="49.205206" lon="27.516659"></trkpt>
      <trkpt lat="49.205629" lon="27.518427"></trkpt>
      <trkpt lat="49.206145" lon="27.519768"></trkpt>
      <trkpt lat="49.206737" lon="27.520827"></trkpt>
      <trkpt lat="49.21044" lon="27.526055"></trkpt>
      <trkpt lat="49.211176" lon="27.527285"></trkpt>
      <trkpt lat="49.211911" lon="27.529065"></trkpt>
      <trkpt lat="49.212535" lon="27.531434"></trkpt>
      <trkpt lat="49.212724" lon="27.533057"></trkpt>
      <trkpt lat="49.212761" lon="27.535296"></trkpt>
      <trkpt lat="49.211515" lon="27.551789"></trkpt>
      <trkpt lat="49.211443" lon="27.55354"></trkpt>
      <trkpt lat="49.211529" lon="27.555339"></trkpt>
      <trkpt lat="49.211787" lon="27.557603"></trkpt>
      <trkpt lat="49.212143" lon="27.559307"></trkpt>
      <trkpt lat="49.214899" lon="27.568151"></trkpt>
      <trkpt lat="49.215405" lon="27.570064"></trkpt>
      <trkpt lat="49.215649" lon="27.57166"></trkpt>
      <trkpt lat="49.215743" lon="27.573397"></trkpt>
      <trkpt lat="49.215605" lon="27.575794"></trkpt>
      <trkpt lat="49.214951" lon="27.578728"></trkpt>
      <trkpt lat="49.211095" lon="27.589124"></trkpt>
      <trkpt lat="49.210278" lon="27.592129"></trkpt>
      <trkpt lat="49.20896" lon="27.601567"></trkpt>
      <trkpt lat="49.208369" lon="27.610432"></trkpt>
      <trkpt lat="49.208006" lon="27.613998"></trkpt>
      <trkpt lat="49.205052" lon="27.629088"></trkpt>
      <trkpt lat="49.202872" lon="27.645662"></trkpt>
      <trkpt lat="49.202449" lon="27.647942"></trkpt>
      <trkpt lat="49.201834" lon="27.649983"></trkpt>
      <trkpt lat="49.201156" lon="27.651549"></trkpt>
      <trkpt lat="49.19877" lon="27.655683"></trkpt>
      <trkpt lat="49.197766" lon="27.657747"></trkpt>
      <trkpt lat="49.191969" lon="27.674302"></trkpt>
      <trkpt lat="49.191289" lon="27.677488"></trkpt>
      <trkpt lat="49.190499" lon="27.685932"></trkpt>
      <trkpt lat="49.189731" lon="27.690543"></trkpt>
      <trkpt lat="49.185265" lon="27.706318"></trkpt>
      <trkpt lat="49.184251" lon="27.708917"></trkpt>
      <trkpt lat="49.183447" lon="27.710255"></trkpt>
      <trkpt lat="49.182341" lon="27.711591"></trkpt>
      <trkpt lat="49.180585" lon="27.712975"></trkpt>
      <trkpt lat="49.170583" lon="27.720228"></trkpt>
      <trkpt lat="49.169319" lon="27.721539"></trkpt>
      <trkpt lat="49.168754" lon="27.72239"></trkpt>
      <trkpt lat="49.16752" lon="27.724765"></trkpt>
      <trkpt lat="49.156419" lon="27.749"></trkpt>
      <trkpt lat="49.155531" lon="27.750758"></trkpt>
      <trkpt lat="49.154053" lon="27.752764"></trkpt>
      <trkpt lat="49.148646" lon="27.758292"></trkpt>
      <trkpt lat="49.147664" lon="27.759461"></trkpt>
      <trkpt lat="49.146182" lon="27.762057"></trkpt>
      <trkpt lat="49.143866" lon="27.767137"></trkpt>
      <trkpt lat="49.142512" lon="27.769333"></trkpt>
      <trkpt lat="49.14142" lon="27.770473"></trkpt>
      <trkpt lat="49.137967" lon="27.773265"></trkpt>
      <trkpt lat="49.137193" lon="27.774156"></trkpt>
      <trkpt lat="49.136223" lon="27.775714"></trkpt>
      <trkpt lat="49.135615" lon="27.777121"></trkpt>
      <trkpt lat="49.135161" lon="27.778547"></trkpt>
      <trkpt lat="49.134254" lon="27.783833"></trkpt>
      <trkpt lat="49.1336" lon="27.78644"></trkpt>
      <trkpt lat="49.126087" lon="27.802287"></trkpt>
      <trkpt lat="49.125409" lon="27.803377"></trkpt>
      <trkpt lat="49.115549" lon="27.817118"></trkpt>
      <trkpt lat="49.114214" lon="27.818752"></trkpt>
      <trkpt lat="49.112235" lon="27.820533"></trkpt>
      <trkpt lat="49.111506" lon="27.821419"></trkpt>
      <trkpt lat="49.110938" lon="27.822319"></trkpt>
      <trkpt lat="49.110242" lon="27.823753"></trkpt>
      <trkpt lat="49.109521" lon="27.826419"></trkpt>
      <trkpt lat="49.099317" lon="27.877718"></trkpt>
      <trkpt lat="49.098535" lon="27.882079"></trkpt>
      <trkpt lat="49.098328" lon="27.883801"></trkpt>
      <trkpt lat="49.098256" lon="27.886918"></trkpt>
      <trkpt lat="49.098479" lon="27.889576"></trkpt>
      <trkpt lat="49.100601" lon="27.901441"></trkpt>
      <trkpt lat="49.103137" lon="27.914594"></trkpt>
      <trkpt lat="49.103472" lon="27.918189"></trkpt>
      <trkpt lat="49.103408" lon="27.920519"></trkpt>
      <trkpt lat="49.102995" lon="27.923636"></trkpt>
      <trkpt lat="49.099985" lon="27.938209"></trkpt>
      <trkpt lat="49.099562" lon="27.939863"></trkpt>
      <trkpt lat="49.087707" lon="27.972861"></trkpt>
      <trkpt lat="49.08662" lon="27.975062"></trkpt>
      <trkpt lat="49.085517" lon="27.976519"></trkpt>
      <trkpt lat="49.084042" lon="27.97778"></trkpt>
      <trkpt lat="49.082924" lon="27.978351"></trkpt>
      <trkpt lat="49.081856" lon="27.978651"></trkpt>
      <trkpt lat="49.068457" lon="27.978487"></trkpt>
      <trkpt lat="49.067187" lon="27.978657"></trkpt>
      <trkpt lat="49.066197" lon="27.978976"></trkpt>
      <trkpt lat="49.064899" lon="27.979656"></trkpt>
      <trkpt lat="49.058985" lon="27.983328"></trkpt>
      <trkpt lat="49.057885" lon="27.984121"></trkpt>
      <trkpt lat="49.056396" lon="27.985767"></trkpt>
      <trkpt lat="49.055698" lon="27.986838"></trkpt>
      <trkpt lat="49.055073" lon="27.988066"></trkpt>
      <trkpt lat="49.054547" lon="27.989351"></trkpt>
      <trkpt lat="49.054128" lon="27.990766"></trkpt>
      <trkpt lat="49.053674" lon="27.993273"></trkpt>
      <trkpt lat="49.051595" lon="28.021441"></trkpt>
      <trkpt lat="49.051214" lon="28.023887"></trkpt>
      <trkpt lat="49.050737" lon="28.025677"></trkpt>
      <trkpt lat="49.050059" lon="28.027471"></trkpt>
      <trkpt lat="49.044251" lon="28.039163"></trkpt>
      <trkpt lat="49.043308" lon="28.041605"></trkpt>
      <trkpt lat="49.043014" lon="28.042705"></trkpt>
      <trkpt lat="49.04274" lon="28.044432"></trkpt>
      <trkpt lat="49.042533" lon="28.051246"></trkpt>
      <trkpt lat="49.042298" lon="28.053989"></trkpt>
      <trkpt lat="49.041879" lon="28.056186"></trkpt>
      <trkpt lat="49.040913" lon="28.058966"></trkpt>
      <trkpt lat="49.037752" lon="28.065294"></trkpt>
      <trkpt lat="49.035653" lon="28.069861"></trkpt>
      <trkpt lat="49.035272" lon="28.071193"></trkpt>
      <trkpt lat="49.034724" lon="28.073892"></trkpt>
      <trkpt lat="49.034538" lon="28.076225"></trkpt>
      <trkpt lat="49.034821" lon="28.078632"></trkpt>
      <trkpt lat="49.035234" lon="28.080032"></trkpt>
      <trkpt lat="49.035648" lon="28.080991"></trkpt>
      <trkpt lat="49.039251" lon="28.086745"></trkpt>
      <trkpt lat="49.039868" lon="28.087642"></trkpt>
      <trkpt lat="49.040448" lon="28.088238"></trkpt>
      <trkpt lat="49.04131" lon="28.088724"></trkpt>
      <trkpt lat="49.042111" lon="28.088894"></trkpt>
      <trkpt lat="49.042819" lon="28.088797"></trkpt>
      <trkpt lat="49.045362" lon="28.087985"></trkpt>
      <trkpt lat="49.047547" lon="28.087916"></trkpt>
      <trkpt lat="49.048221" lon="28.088104"></trkpt>
      <trkpt lat="49.048691" lon="28.088367"></trkpt>
      <trkpt lat="49.04942" lon="28.088996"></trkpt>
      <trkpt lat="49.0501" lon="28.090037"></trkpt>
      <trkpt lat="49.052693" lon="28.095456"></trkpt>
      <trkpt lat="49.053166" lon="28.096212"></trkpt>
      <trkpt lat="49.053697" lon="28.0968"></trkpt>
      <trkpt lat="49.054349" lon="28.097279"></trkpt>
      <trkpt lat="49.0549" lon="28.09749"></trkpt>
      <trkpt lat="49.0586" lon="28.098055"></trkpt>
      <trkpt lat="49.059498" lon="28.098529"></trkpt>
      <trkpt lat="49.0601" lon="28.09913"></trkpt>
      <trkpt lat="49.060502" lon="28.099664"></trkpt>
      <trkpt lat="49.060938" lon="28.100554"></trkpt>
      <trkpt lat="49.062129" lon="28.104225"></trkpt>
      <trkpt lat="49.062761" lon="28.105307"></trkpt>
      <trkpt lat="49.063331" lon="28.105889"></trkpt>
      <trkpt lat="49.064988" lon="28.107122"></trkpt>
      <trkpt lat="49.06618" lon="28.107795"></trkpt>
      <trkpt lat="49.069603" lon="28.10809"></trkpt>
      <trkpt lat="49.070864" lon="28.10848"></trkpt>
      <trkpt lat="49.072038" lon="28.10925"></trkpt>
      <trkpt lat="49.074398" lon="28.110459"></trkpt>
      <trkpt lat="49.075883" lon="28.111357"></trkpt>
      <trkpt lat="49.076915" lon="28.112308"></trkpt>
      <trkpt lat="49.077611" lon="28.113127"></trkpt>
      <trkpt lat="49.078792" lon="28.114932"></trkpt>
      <trkpt lat="49.079852" lon="28.117415"></trkpt>
      <trkpt lat="49.082584" lon="28.128043"></trkpt>
      <trkpt lat="49.087302" lon="28.144774"></trkpt>
      <trkpt lat="49.088202" lon="28.149057"></trkpt>
      <trkpt lat="49.088744" lon="28.152964"></trkpt>
      <trkpt lat="49.089025" lon="28.156908"></trkpt>
      <trkpt lat="49.089091" lon="28.159972"></trkpt>
      <trkpt lat="49.086692" lon="28.209907"></trkpt>
      <trkpt lat="49.08663" lon="28.21444"></trkpt>
      <trkpt lat="49.086812" lon="28.217289"></trkpt>
      <trkpt lat="49.092512" lon="28.278304"></trkpt>
      <trkpt lat="49.092651" lon="28.281054"></trkpt>
      <trkpt lat="49.092624" lon="28.283763"></trkpt>
      <trkpt lat="49.092349" lon="28.287132"></trkpt>
      <trkpt lat="49.090101" lon="28.302594"></trkpt>
      <trkpt lat="49.090049" lon="28.304716"></trkpt>
      <trkpt lat="49.090274" lon="28.307487"></trkpt>
      <trkpt lat="49.090975" lon="28.3104"></trkpt>
      <trkpt lat="49.091873" lon="28.312524"></trkpt>
      <trkpt lat="49.103532" lon="28.33154"></trkpt>
      <trkpt lat="49.104628" lon="28.333523"></trkpt>
      <trkpt lat="49.106486" lon="28.337842"></trkpt>
      <trkpt lat="49.107403" lon="28.340911"></trkpt>
      <trkpt lat="49.10867" lon="28.347854"></trkpt>
      <trkpt lat="49.1141" lon="28.38207"></trkpt>
      <trkpt lat="49.114542" lon="28.384116"></trkpt>
      <trkpt lat="49.11544" lon="28.386663"></trkpt>
      <trkpt lat="49.116193" lon="28.388164"></trkpt>
      <trkpt lat="49.117007" lon="28.389423"></trkpt>
      <trkpt lat="49.120235" lon="28.393723"></trkpt>
      <trkpt lat="49.12115" lon="28.395259"></trkpt>
      <trkpt lat="49.121896" lon="28.396928"></trkpt>
      <trkpt lat="49.122503" lon="28.398824"></trkpt>
      <trkpt lat="49.123075" lon="28.401949"></trkpt>
      <trkpt lat="49.123194" lon="28.404093"></trkpt>
      <trkpt lat="49.123135" lon="28.405798"></trkpt>
      <trkpt lat="49.122683" lon="28.408988"></trkpt>
      <trkpt lat="49.120801" lon="28.415871"></trkpt>
      <trkpt lat="49.120412" lon="28.417734"></trkpt>
      <trkpt lat="49.120156" lon="28.421246"></trkpt>
      <trkpt lat="49.120401" lon="28.424281"></trkpt>
      <trkpt lat="49.12879" lon="28.465784"></trkpt>
      <trkpt lat="49.129567" lon="28.468307"></trkpt>
      <trkpt lat="49.130461" lon="28.470435"></trkpt>
      <trkpt lat="49.131451" lon="28.472259"></trkpt>
      <trkpt lat="49.133378" lon="28.474875"></trkpt>
      <trkpt lat="49.13544" lon="28.476745"></trkpt>
      <trkpt lat="49.157105" lon="28.493562"></trkpt>
      <trkpt lat="49.159668" lon="28.495686"></trkpt>
      <trkpt lat="49.160735" lon="28.496961"></trkpt>
      <trkpt lat="49.161905" lon="28.498869"></trkpt>
      <trkpt lat="49.162575" lon="28.500357"></trkpt>
      <trkpt lat="49.164573" lon="28.505964"></trkpt>
      <trkpt lat="49.165412" lon="28.507717"></trkpt>
      <trkpt lat="49.166811" lon="28.510049"></trkpt>
      <trkpt lat="49.167981" lon="28.511622"></trkpt>
      <trkpt lat="49.168749" lon="28.512438"></trkpt>
      <trkpt lat="49.174758" lon="28.518169"></trkpt>
      <trkpt lat="49.175548" lon="28.518849"></trkpt>
      <trkpt lat="49.176637" lon="28.519548"></trkpt>
      <trkpt lat="49.18636" lon="28.524671"></trkpt>
      <trkpt lat="49.187954" lon="28.525153"></trkpt>
      <trkpt lat="49.189082" lon="28.525232"></trkpt>
      <trkpt lat="49.190035" lon="28.525119"></trkpt>
      <trkpt lat="49.191351" lon="28.524698"></trkpt>
      <trkpt lat="49.193174" lon="28.523653"></trkpt>
      <trkpt lat="49.194057" lon="28.522918"></trkpt>
      <trkpt lat="49.194977" lon="28.521913"></trkpt>
      <trkpt lat="49.202707" lon="28.51218"></trkpt>
      <trkpt lat="49.203812" lon="28.511144"></trkpt>
      <trkpt lat="49.205336" lon="28.510171"></trkpt>
      <trkpt lat="49.206466" lon="28.509733"></trkpt>
      <trkpt lat="49.207532" lon="28.509524"></trkpt>
      <trkpt lat="49.212225" lon="28.509445"></trkpt>
      <trkpt lat="49.214621" lon="28.509024"></trkpt>
      <trkpt lat="49.21696" lon="28.508163"></trkpt>
      <trkpt lat="49.224325" lon="28.503987"></trkpt>
      <trkpt lat="49.225413" lon="28.503612"></trkpt>
      <trkpt lat="49.226509" lon="28.503423"></trkpt>
      <trkpt lat="49.227572" lon="28.503431"></trkpt>
      <trkpt lat="49.228588" lon="28.503611"></trkpt>
      <trkpt lat="49.23019" lon="28.504218"></trkpt>
      <trkpt lat="49.232229" lon="28.505643"></trkpt>
      <trkpt lat="49.233313" lon="28.506269"></trkpt>
      <trkpt lat="49.241157" lon="28.512295"></trkpt>
      <trkpt lat="49.242278" lon="28.513384"></trkpt>
      <trkpt lat="49.247884" lon="28.517485"></trkpt>
      <trkpt lat="49.252762" lon="28.520877"></trkpt>
      <trkpt lat="49.261973" lon="28.527793"></trkpt>
      <trkpt lat="49.263249" lon="28.528638"></trkpt>
      <trkpt lat="49.276841" lon="28.538892"></trkpt>
      <trkpt lat="49.278441" lon="28.540336"></trkpt>
      <trkpt lat="49.283514" lon="28.544152"></trkpt>
      <trkpt lat="49.285459" lon="28.545326"></trkpt>
      <trkpt lat="49.287729" lon="28.546476"></trkpt>
      <trkpt lat="49.315301" lon="28.558777"></trkpt>
      <trkpt lat="49.316433" lon="28.559219"></trkpt>
      <trkpt lat="49.319143" lon="28.559882"></trkpt>
      <trkpt lat="49.321006" lon="28.559989"></trkpt>
      <trkpt lat="49.323069" lon="28.559761"></trkpt>
      <trkpt lat="49.324599" lon="28.559373"></trkpt>
      <trkpt lat="49.32595" lon="28.55888"></trkpt>
      <trkpt lat="49.36933" lon="28.537562"></trkpt>
      <trkpt lat="49.372915" lon="28.536193"></trkpt>
      <trkpt lat="49.375532" lon="28.535475"></trkpt>
      <trkpt lat="49.435711" lon="28.52912"></trkpt>
      <trkpt lat="49.437601" lon="28.529164"></trkpt>
      <trkpt lat="49.439315" lon="28.529568"></trkpt>
      <trkpt lat="49.440887" lon="28.530256"></trkpt>
      <trkpt lat="49.442991" lon="28.531644"></trkpt>
      <trkpt lat="49.44508" lon="28.533635"></trkpt>
      <trkpt lat="49.458128" lon="28.548347"></trkpt>
      <trkpt lat="49.460892" lon="28.551863"></trkpt>
      <trkpt lat="49.520431" lon="28.644434"></trkpt>
      <trkpt lat="49.521801" lon="28.646217"></trkpt>
      <trkpt lat="49.54339" lon="28.67112"></trkpt>
      <trkpt lat="49.546103" lon="28.674716"></trkpt>
      <trkpt lat="49.547347" lon="28.676713"></trkpt>
      <trkpt lat="49.549051" lon="28.679884"></trkpt>
      <trkpt lat="49.568805" lon="28.72276"></trkpt>
      <trkpt lat="49.571326" lon="28.727222"></trkpt>
      <trkpt lat="49.573168" lon="28.729708"></trkpt>
      <trkpt lat="49.573857" lon="28.730528"></trkpt>
      <trkpt lat="49.576145" lon="28.73277"></trkpt>
      <trkpt lat="49.589719" lon="28.743675"></trkpt>
      <trkpt lat="49.591312" lon="28.74474"></trkpt>
      <trkpt lat="49.593031" lon="28.745705"></trkpt>
      <trkpt lat="49.594566" lon="28.746385"></trkpt>
      <trkpt lat="49.596532" lon="28.747056"></trkpt>
      <trkpt lat="49.599229" lon="28.747656"></trkpt>
      <trkpt lat="49.601827" lon="28.747851"></trkpt>
      <trkpt lat="49.603695" lon="28.747777"></trkpt>
      <trkpt lat="49.606367" lon="28.747339"></trkpt>
      <trkpt lat="49.607297" lon="28.747114"></trkpt>
      <trkpt lat="49.609298" lon="28.746377"></trkpt>
      <trkpt lat="49.61571" lon="28.743454"></trkpt>
      <trkpt lat="49.61705" lon="28.743013"></trkpt>
      <trkpt lat="49.618569" lon="28.742748"></trkpt>
      <trkpt lat="49.620382" lon="28.742783"></trkpt>
      <trkpt lat="49.622185" lon="28.74313"></trkpt>
      <trkpt lat="49.623864" lon="28.743815"></trkpt>
      <trkpt lat="49.625515" lon="28.744836"></trkpt>
      <trkpt lat="49.627079" lon="28.746223"></trkpt>
      <trkpt lat="49.628865" lon="28.748338"></trkpt>
      <trkpt lat="49.630427" lon="28.750805"></trkpt>
      <trkpt lat="49.631741" lon="28.753578"></trkpt>
      <trkpt lat="49.632733" lon="28.75658"></trkpt>
      <trkpt lat="49.641389" lon="28.788522"></trkpt>
      <trkpt lat="49.642582" lon="28.792347"></trkpt>
      <trkpt lat="49.643973" lon="28.795885"></trkpt>
      <trkpt lat="49.645758" lon="28.799432"></trkpt>
      <trkpt lat="49.648346" lon="28.803317"></trkpt>
      <trkpt lat="49.650321" lon="28.805636"></trkpt>
      <trkpt lat="49.651893" lon="28.807169"></trkpt>
      <trkpt lat="49.653828" lon="28.808716"></trkpt>
      <trkpt lat="49.65592" lon="28.810001"></trkpt>
      <trkpt lat="49.657647" lon="28.810816"></trkpt>
      <trkpt lat="49.697858" lon="28.826974"></trkpt>
      <trkpt lat="49.701988" lon="28.82876"></trkpt>
      <trkpt lat="49.70509" lon="28.830561"></trkpt>
      <trkpt lat="49.707788" lon="28.832858"></trkpt>
      <trkpt lat="49.710156" lon="28.834702"></trkpt>
      <trkpt lat="49.710759" lon="28.835313"></trkpt>
      <trkpt lat="49.711587" lon="28.836617"></trkpt>
      <trkpt lat="49.712884" lon="28.839448"></trkpt>
      <trkpt lat="49.714479" lon="28.842389"></trkpt>
      <trkpt lat="49.717553" lon="28.846867"></trkpt>
      <trkpt lat="49.719877" lon="28.849571"></trkpt>
      <trkpt lat="49.720584" lon="28.850166"></trkpt>
      <trkpt lat="49.721202" lon="28.850889"></trkpt>
      <trkpt lat="49.792126" lon="28.956294"></trkpt>
      <trkpt lat="49.839038" lon="29.019076"></trkpt>
      <trkpt lat="49.839804" lon="29.019904"></trkpt>
      <trkpt lat="49.845069" lon="29.026947"></trkpt>
      <trkpt lat="49.846793" lon="29.029617"></trkpt>
      <trkpt lat="49.866511" lon="29.056065"></trkpt>
      <trkpt lat="49.868616" lon="29.059487"></trkpt>
      <trkpt lat="49.884547" lon="29.094856"></trkpt>
      <trkpt lat="49.907866" lon="29.157894"></trkpt>
      <trkpt lat="49.922784" lon="29.207546"></trkpt>
      <trkpt lat="49.923548" lon="29.209783"></trkpt>
      <trkpt lat="49.936153" lon="29.240002"></trkpt>
      <trkpt lat="49.938184" lon="29.245164"></trkpt>
      <trkpt lat="49.956021" lon="29.291748"></trkpt>
      <trkpt lat="49.956656" lon="29.293608"></trkpt>
      <trkpt lat="49.957191" lon="29.295639"></trkpt>
      <trkpt lat="49.957591" lon="29.297816"></trkpt>
      <trkpt lat="49.957886" lon="29.300818"></trkpt>
      <trkpt lat="49.95789" lon="29.303594"></trkpt>
      <trkpt lat="49.957699" lon="29.306114"></trkpt>
      <trkpt lat="49.951735" lon="29.338945"></trkpt>
      <trkpt lat="49.951157" lon="29.342577"></trkpt>
      <trkpt lat="49.940873" lon="29.419341"></trkpt>
      <trkpt lat="49.940469" lon="29.425435"></trkpt>
      <trkpt lat="49.940602" lon="29.431374"></trkpt>
      <trkpt lat="49.940972" lon="29.435332"></trkpt>
      <trkpt lat="49.960188" lon="29.575956"></trkpt>
      <trkpt lat="49.98392" lon="29.751494"></trkpt>
      <trkpt lat="49.985136" lon="29.756989"></trkpt>
      <trkpt lat="50.007365" lon="29.826045"></trkpt>
      <trkpt lat="50.00942" lon="29.831602"></trkpt>
      <trkpt lat="50.011931" lon="29.836616"></trkpt>
      <trkpt lat="50.015622" lon="29.843332"></trkpt>
      <trkpt lat="50.040123" lon="29.88936"></trkpt>
      <trkpt lat="50.041288" lon="29.891197"></trkpt>
      <trkpt lat="50.042302" lon="29.89238"></trkpt>
      <trkpt lat="50.053054" lon="29.903294"></trkpt>
      <trkpt lat="50.054871" lon="29.905616"></trkpt>
      <trkpt lat="50.055589" lon="29.907198"></trkpt>
      <trkpt lat="50.056012" lon="29.909281"></trkpt>
      <trkpt lat="50.056489" lon="29.914975"></trkpt>
      <trkpt lat="50.057058" lon="29.932318"></trkpt>
      <trkpt lat="50.056948" lon="29.934225"></trkpt>
      <trkpt lat="50.056317" lon="29.936728"></trkpt>
      <trkpt lat="50.055675" lon="29.938063"></trkpt>
      <trkpt lat="50.042766" lon="29.960621"></trkpt>
      <trkpt lat="50.04163" lon="29.9624"></trkpt>
      <trkpt lat="49.99902" lon="30.025168"></trkpt>
      <trkpt lat="49.997309" lon="30.027351"></trkpt>
      <trkpt lat="49.996134" lon="30.028595"></trkpt>
      <trkpt lat="49.988565" lon="30.035213"></trkpt>
      <trkpt lat="49.987128" lon="30.036077"></trkpt>
      <trkpt lat="49.986138" lon="30.036423"></trkpt>
      <trkpt lat="49.984647" lon="30.0367"></trkpt>
      <trkpt lat="49.957402" lon="30.039862"></trkpt>
      <trkpt lat="49.956317" lon="30.040122"></trkpt>
      <trkpt lat="49.888044" lon="30.063643"></trkpt>
      <trkpt lat="49.839945" lon="30.08006"></trkpt>
      <trkpt lat="49.837334" lon="30.081119"></trkpt>
      <trkpt lat="49.835619" lon="30.082145"></trkpt>
      <trkpt lat="49.834023" lon="30.083401"></trkpt>
      <trkpt lat="49.817001" lon="30.098996"></trkpt>
      <trkpt lat="49.816229" lon="30.099765"></trkpt>
      <trkpt lat="49.81558" lon="30.100615"></trkpt>
      <trkpt lat="49.814986" lon="30.101717"></trkpt>
      <trkpt lat="49.81462" lon="30.102703"></trkpt>
      <trkpt lat="49.807277" lon="30.124468"></trkpt>
      <trkpt lat="49.806519" lon="30.126205"></trkpt>
      <trkpt lat="49.805086" lon="30.128848"></trkpt>
      <trkpt lat="49.803781" lon="30.130673"></trkpt>
      <trkpt lat="49.801443" lon="30.132928"></trkpt>
      <trkpt lat="49.800192" lon="30.133716"></trkpt>
      <trkpt lat="49.798063" lon="30.13482"></trkpt>
      <trkpt lat="49.796925" lon="30.135114"></trkpt>
      <trkpt lat="49.795803" lon="30.135142"></trkpt>
      <trkpt lat="49.79224" lon="30.134424"></trkpt>
      <trkpt lat="49.79128" lon="30.134341"></trkpt>
      <trkpt lat="49.790444" lon="30.134492"></trkpt>
      <trkpt lat="49.789575" lon="30.134897"></trkpt>
      <trkpt lat="49.788505" lon="30.135858"></trkpt>
      <trkpt lat="49.78727" lon="30.137515"></trkpt>
      <trkpt lat="49.786278" lon="30.139163"></trkpt>
      <trkpt lat="49.785524" lon="30.140876"></trkpt>
      <trkpt lat="49.78255" lon="30.149855"></trkpt>
      <trkpt lat="49.782162" lon="30.151464"></trkpt>
      <trkpt lat="49.781717" lon="30.154188"></trkpt>
      <trkpt lat="49.777926" lon="30.212148"></trkpt>
      <trkpt lat="49.777651" lon="30.214888"></trkpt>
      <trkpt lat="49.777207" lon="30.217574"></trkpt>
      <trkpt lat="49.770343" lon="30.245592"></trkpt>
      <trkpt lat="49.769482" lon="30.248266"></trkpt>
      <trkpt lat="49.768328" lon="30.250978"></trkpt>
      <trkpt lat="49.766941" lon="30.253462"></trkpt>
      <trkpt lat="49.762631" lon="30.258966"></trkpt>
      <trkpt lat="49.761632" lon="30.260315"></trkpt>
      <trkpt lat="49.760548" lon="30.262072"></trkpt>
      <trkpt lat="49.759356" lon="30.264536"></trkpt>
      <trkpt lat="49.758631" lon="30.266454"></trkpt>
      <trkpt lat="49.757664" lon="30.269949"></trkpt>
      <trkpt lat="49.740636" lon="30.351004"></trkpt>
      <trkpt lat="49.737976" lon="30.370269"></trkpt>
      <trkpt lat="49.73374" lon="30.402631"></trkpt>
      <trkpt lat="49.733218" lon="30.405622"></trkpt>
      <trkpt lat="49.732486" lon="30.408681"></trkpt>
      <trkpt lat="49.727172" lon="30.429454"></trkpt>
      <trkpt lat="49.726437" lon="30.431338"></trkpt>
      <trkpt lat="49.723551" lon="30.436056"></trkpt>
      <trkpt lat="49.722561" lon="30.43847"></trkpt>
      <trkpt lat="49.713797" lon="30.472335"></trkpt>
      <trkpt lat="49.712915" lon="30.474204"></trkpt>
      <trkpt lat="49.689987" lon="30.518419"></trkpt>
      <trkpt lat="49.688467" lon="30.521916"></trkpt>
      <trkpt lat="49.68752" lon="30.524882"></trkpt>
      <trkpt lat="49.679066" lon="30.563866"></trkpt>
      <trkpt lat="49.661283" lon="30.620768"></trkpt>
      <trkpt lat="49.661005" lon="30.6229"></trkpt>
      <trkpt lat="49.661049" lon="30.624905"></trkpt>
      <trkpt lat="49.662067" lon="30.631488"></trkpt>
      <trkpt lat="49.662219" lon="30.633111"></trkpt>
      <trkpt lat="49.662201" lon="30.635434"></trkpt>
      <trkpt lat="49.66184" lon="30.637936"></trkpt>
      <trkpt lat="49.64945" lon="30.676017"></trkpt>
      <trkpt lat="49.630516" lon="30.755493"></trkpt>
      <trkpt lat="49.630305" lon="30.757176"></trkpt>
      <trkpt lat="49.630202" lon="30.759526"></trkpt>
      <trkpt lat="49.631638" lon="30.809264"></trkpt>
      <trkpt lat="49.631814" lon="30.81215"></trkpt>
      <trkpt lat="49.632406" lon="30.816133"></trkpt>
      <trkpt lat="49.633295" lon="30.819778"></trkpt>
      <trkpt lat="49.634735" lon="30.824572"></trkpt>
      <trkpt lat="49.653745" lon="30.885653"></trkpt>
      <trkpt lat="49.656591" lon="30.896304"></trkpt>
      <trkpt lat="49.657065" lon="30.899547"></trkpt>
      <trkpt lat="49.657105" lon="30.902132"></trkpt>
      <trkpt lat="49.657013" lon="30.903361"></trkpt>
      <trkpt lat="49.651317" lon="30.943021"></trkpt>
      <trkpt lat="49.649107" lon="30.970468"></trkpt>
      <trkpt lat="49.648906" lon="30.971943"></trkpt>
      <trkpt lat="49.648339" lon="30.974335"></trkpt>
      <trkpt lat="49.643337" lon="30.988923"></trkpt>
      <trkpt lat="49.642207" lon="30.993049"></trkpt>
      <trkpt lat="49.641672" lon="30.9946"></trkpt>
      <trkpt lat="49.641072" lon="30.99573"></trkpt>
      <trkpt lat="49.637143" lon="31.001635"></trkpt>
      <trkpt lat="49.636417" lon="31.00291"></trkpt>
      <trkpt lat="49.630798" lon="31.016904"></trkpt>
      <trkpt lat="49.629868" lon="31.018959"></trkpt>
      <trkpt lat="49.628651" lon="31.020768"></trkpt>
      <trkpt lat="49.627727" lon="31.021661"></trkpt>
      <trkpt lat="49.626092" lon="31.022898"></trkpt>
      <trkpt lat="49.616156" lon="31.02948"></trkpt>
      <trkpt lat="49.614737" lon="31.030748"></trkpt>
      <trkpt lat="49.613631" lon="31.032264"></trkpt>
      <trkpt lat="49.612591" lon="31.034555"></trkpt>
      <trkpt lat="49.611067" lon="31.039115"></trkpt>
      <trkpt lat="49.606593" lon="31.057759"></trkpt>
      <trkpt lat="49.6061" lon="31.059478"></trkpt>
      <trkpt lat="49.605506" lon="31.061016"></trkpt>
      <trkpt lat="49.604363" lon="31.063102"></trkpt>
      <trkpt lat="49.599842" lon="31.06924"></trkpt>
      <trkpt lat="49.598112" lon="31.072407"></trkpt>
      <trkpt lat="49.590444" lon="31.089564"></trkpt>
      <trkpt lat="49.585238" lon="31.101915"></trkpt>
      <trkpt lat="49.584481" lon="31.10326"></trkpt>
      <trkpt lat="49.58358" lon="31.104475"></trkpt>
      <trkpt lat="49.579485" lon="31.109172"></trkpt>
      <trkpt lat="49.578" lon="31.110712"></trkpt>
      <trkpt lat="49.572534" lon="31.115545"></trkpt>
      <trkpt lat="49.571329" lon="31.116998"></trkpt>
      <trkpt lat="49.570563" lon="31.118361"></trkpt>
      <trkpt lat="49.56979" lon="31.120774"></trkpt>
      <trkpt lat="49.569573" lon="31.122156"></trkpt>
      <trkpt lat="49.569503" lon="31.123974"></trkpt>
      <trkpt lat="49.56976" lon="31.12662"></trkpt>
      <trkpt lat="49.571096" lon="31.136447"></trkpt>
      <trkpt lat="49.571221" lon="31.141897"></trkpt>
      <trkpt lat="49.571088" lon="31.143355"></trkpt>
      <trkpt lat="49.570824" lon="31.144625"></trkpt>
      <trkpt lat="49.570432" lon="31.145766"></trkpt>
      <trkpt lat="49.569895" lon="31.146847"></trkpt>
      <trkpt lat="49.568194" lon="31.149059"></trkpt>
      <trkpt lat="49.567389" lon="31.14971"></trkpt>
      <trkpt lat="49.566553" lon="31.150112"></trkpt>
      <trkpt lat="49.56562" lon="31.150328"></trkpt>
      <trkpt lat="49.564741" lon="31.150378"></trkpt>
      <trkpt lat="49.562086" lon="31.149983"></trkpt>
      <trkpt lat="49.560733" lon="31.149927"></trkpt>
      <trkpt lat="49.558477" lon="31.150248"></trkpt>
      <trkpt lat="49.557599" lon="31.15055"></trkpt>
      <trkpt lat="49.55676" lon="31.151001"></trkpt>
      <trkpt lat="49.555583" lon="31.15196"></trkpt>
      <trkpt lat="49.547799" lon="31.160215"></trkpt>
      <trkpt lat="49.547021" lon="31.160895"></trkpt>
      <trkpt lat="49.545375" lon="31.162053"></trkpt>
      <trkpt lat="49.543703" lon="31.162999"></trkpt>
      <trkpt lat="49.539416" lon="31.16505"></trkpt>
      <trkpt lat="49.537226" lon="31.165732"></trkpt>
      <trkpt lat="49.53607" lon="31.16621"></trkpt>
      <trkpt lat="49.529994" lon="31.169616"></trkpt>
      <trkpt lat="49.529115" lon="31.169884"></trkpt>
      <trkpt lat="49.527341" lon="31.170169"></trkpt>
      <trkpt lat="49.522839" lon="31.17055"></trkpt>
      <trkpt lat="49.52152" lon="31.171064"></trkpt>
      <trkpt lat="49.520296" lon="31.171893"></trkpt>
      <trkpt lat="49.519102" lon="31.172847"></trkpt>
      <trkpt lat="49.517995" lon="31.174078"></trkpt>
      <trkpt lat="49.513423" lon="31.180704"></trkpt>
      <trkpt lat="49.512534" lon="31.182233"></trkpt>
      <trkpt lat="49.512017" lon="31.183359"></trkpt>
      <trkpt lat="49.510963" lon="31.186443"></trkpt>
      <trkpt lat="49.51047" lon="31.187572"></trkpt>
      <trkpt lat="49.509863" lon="31.18859"></trkpt>
      <trkpt lat="49.509171" lon="31.189424"></trkpt>
      <trkpt lat="49.508365" lon="31.190105"></trkpt>
      <trkpt lat="49.507092" lon="31.190718"></trkpt>
      <trkpt lat="49.501707" lon="31.19163"></trkpt>
      <trkpt lat="49.500819" lon="31.191931"></trkpt>
      <trkpt lat="49.500002" lon="31.192419"></trkpt>
      <trkpt lat="49.498864" lon="31.193479"></trkpt>
      <trkpt lat="49.487099" lon="31.206936"></trkpt>
      <trkpt lat="49.486227" lon="31.208247"></trkpt>
      <trkpt lat="49.485526" lon="31.209674"></trkpt>
      <trkpt lat="49.483034" lon="31.216322"></trkpt>
      <trkpt lat="49.482535" lon="31.218244"></trkpt>
      <trkpt lat="49.481964" lon="31.221653"></trkpt>
      <trkpt lat="49.48142" lon="31.223843"></trkpt>
      <trkpt lat="49.480223" lon="31.22788"></trkpt>
      <trkpt lat="49.479717" lon="31.22906"></trkpt>
      <trkpt lat="49.479115" lon="31.230111"></trkpt>
      <trkpt lat="49.47807" lon="31.23143"></trkpt>
      <trkpt lat="49.476874" lon="31.232346"></trkpt>
      <trkpt lat="49.473856" lon="31.233588"></trkpt>
      <trkpt lat="49.469442" lon="31.235201"></trkpt>
      <trkpt lat="49.468577" lon="31.235615"></trkpt>
      <trkpt lat="49.467808" lon="31.236161"></trkpt>
      <trkpt lat="49.466639" lon="31.237292"></trkpt>
      <trkpt lat="49.465964" lon="31.238147"></trkpt>
      <trkpt lat="49.461506" lon="31.244838"></trkpt>
      <trkpt lat="49.460709" lon="31.246597"></trkpt>
      <trkpt lat="49.459923" lon="31.249056"></trkpt>
      <trkpt lat="49.456825" lon="31.262029"></trkpt>
      <trkpt lat="49.455811" lon="31.265783"></trkpt>
      <trkpt lat="49.455293" lon="31.266914"></trkpt>
      <trkpt lat="49.454324" lon="31.268355"></trkpt>
      <trkpt lat="49.453543" lon="31.269119"></trkpt>
      <trkpt lat="49.451962" lon="31.270336"></trkpt>
      <trkpt lat="49.450927" lon="31.271529"></trkpt>
      <trkpt lat="49.450308" lon="31.272582"></trkpt>
      <trkpt lat="49.449794" lon="31.273817"></trkpt>
      <trkpt lat="49.448559" lon="31.279587"></trkpt>
      <trkpt lat="49.448102" lon="31.280747"></trkpt>
      <trkpt lat="49.446734" lon="31.283409"></trkpt>
      <trkpt lat="49.446118" lon="31.285265"></trkpt>
      <trkpt lat="49.445871" lon="31.286553"></trkpt>
      <trkpt lat="49.445434" lon="31.290728"></trkpt>
      <trkpt lat="49.445138" lon="31.292046"></trkpt>
      <trkpt lat="49.444462" lon="31.293834"></trkpt>
      <trkpt lat="49.442504" lon="31.296841"></trkpt>
      <trkpt lat="49.438704" lon="31.301542"></trkpt>
      <trkpt lat="49.437533" lon="31.302543"></trkpt>
      <trkpt lat="49.43549" lon="31.303564"></trkpt>
      <trkpt lat="49.434604" lon="31.304136"></trkpt>
      <trkpt lat="49.432832" lon="31.305863"></trkpt>
      <trkpt lat="49.4318" lon="31.307764"></trkpt>
      <trkpt lat="49.428175" lon="31.318079"></trkpt>
      <trkpt lat="49.426968" lon="31.32083"></trkpt>
      <trkpt lat="49.426301" lon="31.321821"></trkpt>
      <trkpt lat="49.425494" lon="31.322701"></trkpt>
      <trkpt lat="49.421038" lon="31.325767"></trkpt>
      <trkpt lat="49.42031" lon="31.326545"></trkpt>
      <trkpt lat="49.419691" lon="31.327478"></trkpt>
      <trkpt lat="49.419255" lon="31.328459"></trkpt>
      <trkpt lat="49.418903" lon="31.329641"></trkpt>
      <trkpt lat="49.417645" lon="31.336718"></trkpt>
      <trkpt lat="49.41644" lon="31.342282"></trkpt>
      <trkpt lat="49.415977" lon="31.343461"></trkpt>
      <trkpt lat="49.415352" lon="31.344601"></trkpt>
      <trkpt lat="49.413974" lon="31.346224"></trkpt>
      <trkpt lat="49.413049" lon="31.346876"></trkpt>
      <trkpt lat="49.412275" lon="31.34722"></trkpt>
      <trkpt lat="49.408704" lon="31.347875"></trkpt>
      <trkpt lat="49.407678" lon="31.347969"></trkpt>
      <trkpt lat="49.40691" lon="31.347885"></trkpt>
      <trkpt lat="49.405633" lon="31.347367"></trkpt>
      <trkpt lat="49.404793" lon="31.346788"></trkpt>
      <trkpt lat="49.403956" lon="31.345992"></trkpt>
      <trkpt lat="49.400968" lon="31.341469"></trkpt>
      <trkpt lat="49.399594" lon="31.339994"></trkpt>
      <trkpt lat="49.398395" lon="31.33917"></trkpt>
      <trkpt lat="49.395427" lon="31.338048"></trkpt>
      <trkpt lat="49.394594" lon="31.337513"></trkpt>
      <trkpt lat="49.393802" lon="31.336804"></trkpt>
      <trkpt lat="49.39274" lon="31.335563"></trkpt>
      <trkpt lat="49.389176" lon="31.330278"></trkpt>
      <trkpt lat="49.387837" lon="31.329051"></trkpt>
      <trkpt lat="49.385967" lon="31.328003"></trkpt>
      <trkpt lat="49.385094" lon="31.327654"></trkpt>
      <trkpt lat="49.384186" lon="31.327515"></trkpt>
      <trkpt lat="49.381507" lon="31.327589"></trkpt>
      <trkpt lat="49.380191" lon="31.327341"></trkpt>
      <trkpt lat="49.379414" lon="31.326959"></trkpt>
      <trkpt lat="49.378675" lon="31.326397"></trkpt>
      <trkpt lat="49.376272" lon="31.32404"></trkpt>
      <trkpt lat="49.375015" lon="31.323374"></trkpt>
      <trkpt lat="49.374262" lon="31.323179"></trkpt>
      <trkpt lat="49.373134" lon="31.323127"></trkpt>
      <trkpt lat="49.371893" lon="31.323475"></trkpt>
      <trkpt lat="49.371314" lon="31.323819"></trkpt>
      <trkpt lat="49.370251" lon="31.324713"></trkpt>
      <trkpt lat="49.369582" lon="31.325552"></trkpt>
      <trkpt lat="49.366721" lon="31.330805"></trkpt>
      <trkpt lat="49.365329" lon="31.332588"></trkpt>
      <trkpt lat="49.363733" lon="31.333877"></trkpt>
      <trkpt lat="49.361647" lon="31.335137"></trkpt>
      <trkpt lat="49.360338" lon="31.335595"></trkpt>
      <trkpt lat="49.355003" lon="31.336903"></trkpt>
      <trkpt lat="49.35417" lon="31.337253"></trkpt>
      <trkpt lat="49.353342" lon="31.337787"></trkpt>
      <trkpt lat="49.352255" lon="31.338933"></trkpt>
      <trkpt lat="49.346952" lon="31.346201"></trkpt>
      <trkpt lat="49.345559" lon="31.348052"></trkpt>
      <trkpt lat="49.344993" lon="31.348621"></trkpt>
      <trkpt lat="49.344287" lon="31.349163"></trkpt>
      <trkpt lat="49.343501" lon="31.349576"></trkpt>
      <trkpt lat="49.342753" lon="31.349774"></trkpt>
      <trkpt lat="49.341987" lon="31.349823"></trkpt>
      <trkpt lat="49.340233" lon="31.349667"></trkpt>
      <trkpt lat="49.339233" lon="31.349774"></trkpt>
      <trkpt lat="49.338468" lon="31.35"></trkpt>
      <trkpt lat="49.33683" lon="31.350788"></trkpt>
      <trkpt lat="49.335912" lon="31.351467"></trkpt>
      <trkpt lat="49.335168" lon="31.352186"></trkpt>
      <trkpt lat="49.33432" lon="31.353258"></trkpt>
      <trkpt lat="49.331864" lon="31.357665"></trkpt>
      <trkpt lat="49.330597" lon="31.359605"></trkpt>
      <trkpt lat="49.318155" lon="31.373549"></trkpt>
      <trkpt lat="49.316417" lon="31.375971"></trkpt>
      <trkpt lat="49.315711" lon="31.377374"></trkpt>
      <trkpt lat="49.31149" lon="31.388299"></trkpt>
      <trkpt lat="49.310591" lon="31.390187"></trkpt>
      <trkpt lat="49.293284" lon="31.418349"></trkpt>
      <trkpt lat="49.292247" lon="31.419661"></trkpt>
      <trkpt lat="49.28948" lon="31.422151"></trkpt>
      <trkpt lat="49.288416" lon="31.423766"></trkpt>
      <trkpt lat="49.287769" lon="31.425359"></trkpt>
      <trkpt lat="49.286527" lon="31.430557"></trkpt>
      <trkpt lat="49.285991" lon="31.43236"></trkpt>
      <trkpt lat="49.28553" lon="31.433317"></trkpt>
      <trkpt lat="49.28438" lon="31.434991"></trkpt>
      <trkpt lat="49.283085" lon="31.436032"></trkpt>
      <trkpt lat="49.282418" lon="31.436319"></trkpt>
      <trkpt lat="49.281157" lon="31.436565"></trkpt>
      <trkpt lat="49.280494" lon="31.436506"></trkpt>
      <trkpt lat="49.27372" lon="31.434674"></trkpt>
      <trkpt lat="49.272675" lon="31.434532"></trkpt>
      <trkpt lat="49.266439" lon="31.432858"></trkpt>
      <trkpt lat="49.264711" lon="31.432741"></trkpt>
      <trkpt lat="49.262625" lon="31.433003"></trkpt>
      <trkpt lat="49.261033" lon="31.4335"></trkpt>
      <trkpt lat="49.259424" lon="31.434373"></trkpt>
      <trkpt lat="49.245173" lon="31.442497"></trkpt>
      <trkpt lat="49.243645" lon="31.443171"></trkpt>
      <trkpt lat="49.242797" lon="31.443334"></trkpt>
      <trkpt lat="49.241107" lon="31.443188"></trkpt>
      <trkpt lat="49.239469" lon="31.44257"></trkpt>
      <trkpt lat="49.231923" lon="31.436527"></trkpt>
      <trkpt lat="49.231245" lon="31.436174"></trkpt>
      <trkpt lat="49.230534" lon="31.435927"></trkpt>
      <trkpt lat="49.229404" lon="31.435824"></trkpt>
      <trkpt lat="49.227981" lon="31.436151"></trkpt>
      <trkpt lat="49.227005" lon="31.43674"></trkpt>
      <trkpt lat="49.226071" lon="31.437563"></trkpt>
      <trkpt lat="49.225177" lon="31.438617"></trkpt>
      <trkpt lat="49.22434" lon="31.439837"></trkpt>
      <trkpt lat="49.223551" lon="31.441771"></trkpt>
      <trkpt lat="49.222122" lon="31.445939"></trkpt>
      <trkpt lat="49.221169" lon="31.447472"></trkpt>
      <trkpt lat="49.220349" lon="31.448282"></trkpt>
      <trkpt lat="49.218179" lon="31.449889"></trkpt>
      <trkpt lat="49.2088" lon="31.456452"></trkpt>
      <trkpt lat="49.204679" lon="31.460766"></trkpt>
      <trkpt lat="49.20347" lon="31.46156"></trkpt>
      <trkpt lat="49.19977" lon="31.463539"></trkpt>
      <trkpt lat="49.198554" lon="31.464574"></trkpt>
      <trkpt lat="49.192298" lon="31.470996"></trkpt>
      <trkpt lat="49.191581" lon="31.471863"></trkpt>
      <trkpt lat="49.190917" lon="31.472923"></trkpt>
      <trkpt lat="49.189137" lon="31.476792"></trkpt>
      <trkpt lat="49.188458" lon="31.477701"></trkpt>
      <trkpt lat="49.186275" lon="31.47976"></trkpt>
      <trkpt lat="49.185447" lon="31.480734"></trkpt>
      <trkpt lat="49.184725" lon="31.481968"></trkpt>
      <trkpt lat="49.183392" lon="31.48488"></trkpt>
      <trkpt lat="49.182058" lon="31.486837"></trkpt>
      <trkpt lat="49.180674" lon="31.488143"></trkpt>
      <trkpt lat="49.17663" lon="31.490815"></trkpt>
      <trkpt lat="49.175492" lon="31.491799"></trkpt>
      <trkpt lat="49.174963" lon="31.492401"></trkpt>
      <trkpt lat="49.173492" lon="31.494592"></trkpt>
      <trkpt lat="49.160056" lon="31.517938"></trkpt>
      <trkpt lat="49.151482" lon="31.532991"></trkpt>
      <trkpt lat="49.150208" lon="31.535604"></trkpt>
      <trkpt lat="49.149398" lon="31.53812"></trkpt>
      <trkpt lat="49.148977" lon="31.540271"></trkpt>
      <trkpt lat="49.144334" lon="31.574225"></trkpt>
      <trkpt lat="49.144206" lon="31.576882"></trkpt>
      <trkpt lat="49.14464" lon="31.582543"></trkpt>
      <trkpt lat="49.145382" lon="31.586973"></trkpt>
      <trkpt lat="49.146031" lon="31.589477"></trkpt>
      <trkpt lat="49.147345" lon="31.592293"></trkpt>
      <trkpt lat="49.147861" lon="31.593802"></trkpt>
      <trkpt lat="49.148209" lon="31.595408"></trkpt>
      <trkpt lat="49.148334" lon="31.597435"></trkpt>
      <trkpt lat="49.148234" lon="31.598883"></trkpt>
      <trkpt lat="49.147219" lon="31.603898"></trkpt>
      <trkpt lat="49.14703" lon="31.605323"></trkpt>
      <trkpt lat="49.146832" lon="31.608129"></trkpt>
      <trkpt lat="49.146948" lon="31.610595"></trkpt>
      <trkpt lat="49.14714" lon="31.611921"></trkpt>
      <trkpt lat="49.149857" lon="31.623946"></trkpt>
      <trkpt lat="49.150131" lon="31.62571"></trkpt>
      <trkpt lat="49.150284" lon="31.628019"></trkpt>
      <trkpt lat="49.150431" lon="31.636141"></trkpt>
      <trkpt lat="49.150739" lon="31.638814"></trkpt>
      <trkpt lat="49.152795" lon="31.647403"></trkpt>
      <trkpt lat="49.153129" lon="31.648419"></trkpt>
      <trkpt lat="49.154104" lon="31.650278"></trkpt>
      <trkpt lat="49.154825" lon="31.651191"></trkpt>
      <trkpt lat="49.155487" lon="31.651768"></trkpt>
      <trkpt lat="49.15866" lon="31.653801"></trkpt>
      <trkpt lat="49.159736" lon="31.654952"></trkpt>
      <trkpt lat="49.164581" lon="31.66173"></trkpt>
      <trkpt lat="49.169469" lon="31.670219"></trkpt>
      <trkpt lat="49.170713" lon="31.672188"></trkpt>
      <trkpt lat="49.178645" lon="31.682341"></trkpt>
      <trkpt lat="49.180801" lon="31.684668"></trkpt>
      <trkpt lat="49.19265" lon="31.696751"></trkpt>
      <trkpt lat="49.194004" lon="31.697587"></trkpt>
      <trkpt lat="49.195285" lon="31.697948"></trkpt>
      <trkpt lat="49.196132" lon="31.697972"></trkpt>
      <trkpt lat="49.197581" lon="31.697579"></trkpt>
      <trkpt lat="49.201158" lon="31.695751"></trkpt>
      <trkpt lat="49.202385" lon="31.695468"></trkpt>
      <trkpt lat="49.203397" lon="31.695487"></trkpt>
      <trkpt lat="49.20796" lon="31.696656"></trkpt>
      <trkpt lat="49.209049" lon="31.697249"></trkpt>
      <trkpt lat="49.210486" lon="31.698542"></trkpt>
      <trkpt lat="49.211596" lon="31.700065"></trkpt>
      <trkpt lat="49.219708" lon="31.715347"></trkpt>
      <trkpt lat="49.220599" lon="31.717798"></trkpt>
      <trkpt lat="49.221037" lon="31.72037"></trkpt>
      <trkpt lat="49.221124" lon="31.721747"></trkpt>
      <trkpt lat="49.220986" lon="31.724459"></trkpt>
      <trkpt lat="49.219405" lon="31.733834"></trkpt>
      <trkpt lat="49.219249" lon="31.735156"></trkpt>
      <trkpt lat="49.219169" lon="31.737931"></trkpt>
      <trkpt lat="49.225344" lon="31.801983"></trkpt>
      <trkpt lat="49.225516" lon="31.805151"></trkpt>
      <trkpt lat="49.225488" lon="31.807187"></trkpt>
      <trkpt lat="49.225381" lon="31.809345"></trkpt>
      <trkpt lat="49.22501" lon="31.8125"></trkpt>
      <trkpt lat="49.224074" lon="31.817022"></trkpt>
      <trkpt lat="49.216905" lon="31.841711"></trkpt>
      <trkpt lat="49.216182" lon="31.844608"></trkpt>
      <trkpt lat="49.215931" lon="31.846488"></trkpt>
      <trkpt lat="49.215852" lon="31.849408"></trkpt>
      <trkpt lat="49.216405" lon="31.85474"></trkpt>
      <trkpt lat="49.216425" lon="31.856775"></trkpt>
      <trkpt lat="49.216241" lon="31.858627"></trkpt>
      <trkpt lat="49.215732" lon="31.860999"></trkpt>
      <trkpt lat="49.201641" lon="31.905997"></trkpt>
      <trkpt lat="49.201205" lon="31.906909"></trkpt>
      <trkpt lat="49.194491" lon="31.916853"></trkpt>
      <trkpt lat="49.19372" lon="31.918463"></trkpt>
      <trkpt lat="49.189763" lon="31.928676"></trkpt>
      <trkpt lat="49.18851" lon="31.93056"></trkpt>
      <trkpt lat="49.187448" lon="31.931678"></trkpt>
      <trkpt lat="49.186492" lon="31.932378"></trkpt>
      <trkpt lat="49.177476" lon="31.936863"></trkpt>
      <trkpt lat="49.176144" lon="31.937413"></trkpt>
      <trkpt lat="49.174975" lon="31.937589"></trkpt>
      <trkpt lat="49.173916" lon="31.937507"></trkpt>
      <trkpt lat="49.168378" lon="31.936508"></trkpt>
      <trkpt lat="49.166969" lon="31.936384"></trkpt>
      <trkpt lat="49.166385" lon="31.936463"></trkpt>
      <trkpt lat="49.165502" lon="31.936781"></trkpt>
      <trkpt lat="49.164278" lon="31.937615"></trkpt>
      <trkpt lat="49.16364" lon="31.938281"></trkpt>
      <trkpt lat="49.157634" lon="31.945931"></trkpt>
      <trkpt lat="49.156646" lon="31.946833"></trkpt>
      <trkpt lat="49.151718" lon="31.950196"></trkpt>
      <trkpt lat="49.150974" lon="31.950937"></trkpt>
      <trkpt lat="49.150159" lon="31.952014"></trkpt>
      <trkpt lat="49.149391" lon="31.953668"></trkpt>
      <trkpt lat="49.148955" lon="31.955224"></trkpt>
      <trkpt lat="49.148476" lon="31.958924"></trkpt>
      <trkpt lat="49.148045" lon="31.960776"></trkpt>
      <trkpt lat="49.147331" lon="31.962414"></trkpt>
      <trkpt lat="49.146411" lon="31.963761"></trkpt>
      <trkpt lat="49.145549" lon="31.964618"></trkpt>
      <trkpt lat="49.144384" lon="31.965392"></trkpt>
      <trkpt lat="49.142867" lon="31.966151"></trkpt>
      <trkpt lat="49.139355" lon="31.96828"></trkpt>
      <trkpt lat="49.110576" lon="31.992956"></trkpt>
      <trkpt lat="49.10935" lon="31.993516"></trkpt>
      <trkpt lat="49.107345" lon="31.994009"></trkpt>
      <trkpt lat="49.073423" lon="32.000552"></trkpt>
      <trkpt lat="49.072438" lon="32.000888"></trkpt>
      <trkpt lat="49.071829" lon="32.001273"></trkpt>
      <trkpt lat="49.070829" lon="32.002037"></trkpt>
      <trkpt lat="49.070111" lon="32.002772"></trkpt>
      <trkpt lat="49.06739" lon="32.006576"></trkpt>
      <trkpt lat="49.066769" lon="32.007689"></trkpt>
      <trkpt lat="49.066338" lon="32.008715"></trkpt>
      <trkpt lat="49.065134" lon="32.012753"></trkpt>
      <trkpt lat="49.064765" lon="32.013688"></trkpt>
      <trkpt lat="49.064037" lon="32.014955"></trkpt>
      <trkpt lat="49.063191" lon="32.015914"></trkpt>
      <trkpt lat="49.060322" lon="32.017823"></trkpt>
      <trkpt lat="49.059382" lon="32.018581"></trkpt>
      <trkpt lat="49.058238" lon="32.020179"></trkpt>
      <trkpt lat="49.057501" lon="32.021769"></trkpt>
      <trkpt lat="49.057069" lon="32.023018"></trkpt>
      <trkpt lat="49.05673" lon="32.024598"></trkpt>
      <trkpt lat="49.056634" lon="32.026351"></trkpt>
      <trkpt lat="49.056734" lon="32.027948"></trkpt>
      <trkpt lat="49.057197" lon="32.03138"></trkpt>
      <trkpt lat="49.057166" lon="32.032925"></trkpt>
      <trkpt lat="49.055644" lon="32.041224"></trkpt>
      <trkpt lat="49.053886" lon="32.047776"></trkpt>
      <trkpt lat="49.053702" lon="32.049271"></trkpt>
      <trkpt lat="49.053309" lon="32.056451"></trkpt>
      <trkpt lat="49.053029" lon="32.058409"></trkpt>
      <trkpt lat="49.052671" lon="32.059823"></trkpt>
      <trkpt lat="49.049727" lon="32.068455"></trkpt>
      <trkpt lat="49.049053" lon="32.069874"></trkpt>
      <trkpt lat="49.044782" lon="32.077683"></trkpt>
      <trkpt lat="49.04425" lon="32.078858"></trkpt>
      <trkpt lat="49.043863" lon="32.080143"></trkpt>
      <trkpt lat="49.043514" lon="32.082721"></trkpt>
      <trkpt lat="49.043697" lon="32.087579"></trkpt>
      <trkpt lat="49.043564" lon="32.089528"></trkpt>
      <trkpt lat="49.043104" lon="32.091532"></trkpt>
      <trkpt lat="49.041763" lon="32.095657"></trkpt>
      <trkpt lat="49.041496" lon="32.097163"></trkpt>
      <trkpt lat="49.041441" lon="32.098366"></trkpt>
      <trkpt lat="49.041678" lon="32.102243"></trkpt>
      <trkpt lat="49.041551" lon="32.104557"></trkpt>
      <trkpt lat="49.038383" lon="32.117621"></trkpt>
      <trkpt lat="49.03809" lon="32.119757"></trkpt>
      <trkpt lat="49.037647" lon="32.125127"></trkpt>
      <trkpt lat="49.037009" lon="32.127872"></trkpt>
      <trkpt lat="49.036506" lon="32.128963"></trkpt>
      <trkpt lat="49.035881" lon="32.129983"></trkpt>
      <trkpt lat="49.032681" lon="32.133292"></trkpt>
      <trkpt lat="49.031278" lon="32.135231"></trkpt>
      <trkpt lat="49.01906" lon="32.15938"></trkpt>
      <trkpt lat="49.008123" lon="32.177614"></trkpt>
      <trkpt lat="49.006969" lon="32.179732"></trkpt>
      <trkpt lat="49.006044" lon="32.181933"></trkpt>
      <trkpt lat="49.005503" lon="32.183637"></trkpt>
      <trkpt lat="48.999198" lon="32.209898"></trkpt>
      <trkpt lat="48.998547" lon="32.212128"></trkpt>
      <trkpt lat="48.997851" lon="32.213765"></trkpt>
      <trkpt lat="48.995058" lon="32.218836"></trkpt>
      <trkpt lat="48.992706" lon="32.222805"></trkpt>
      <trkpt lat="48.98938" lon="32.227467"></trkpt>
      <trkpt lat="48.982342" lon="32.240068"></trkpt>
      <trkpt lat="48.95949" lon="32.270275"></trkpt>
      <trkpt lat="48.959024" lon="32.271112"></trkpt>
      <trkpt lat="48.958229" lon="32.273051"></trkpt>
      <trkpt lat="48.954061" lon="32.289151"></trkpt>
      <trkpt lat="48.95358" lon="32.290626"></trkpt>
      <trkpt lat="48.953033" lon="32.291804"></trkpt>
      <trkpt lat="48.951354" lon="32.294824"></trkpt>
      <trkpt lat="48.95034" lon="32.296159"></trkpt>
      <trkpt lat="48.949496" lon="32.296987"></trkpt>
      <trkpt lat="48.945517" lon="32.300035"></trkpt>
      <trkpt lat="48.944685" lon="32.30089"></trkpt>
      <trkpt lat="48.943679" lon="32.30224"></trkpt>
      <trkpt lat="48.94147" lon="32.305877"></trkpt>
      <trkpt lat="48.940519" lon="32.307985"></trkpt>
      <trkpt lat="48.938017" lon="32.314305"></trkpt>
      <trkpt lat="48.937416" lon="32.315555"></trkpt>
      <trkpt lat="48.936637" lon="32.316791"></trkpt>
      <trkpt lat="48.934093" lon="32.320163"></trkpt>
      <trkpt lat="48.933052" lon="32.321101"></trkpt>
      <trkpt lat="48.932428" lon="32.321498"></trkpt>
      <trkpt lat="48.931707" lon="32.321926"></trkpt>
      <trkpt lat="48.930891" lon="32.322228"></trkpt>
      <trkpt lat="48.926097" lon="32.323297"></trkpt>
      <trkpt lat="48.92505" lon="32.323774"></trkpt>
      <trkpt lat="48.923419" lon="32.324964"></trkpt>
      <trkpt lat="48.922007" lon="32.32652"></trkpt>
      <trkpt lat="48.916465" lon="32.334041"></trkpt>
      <trkpt lat="48.907048" lon="32.34426"></trkpt>
      <trkpt lat="48.905572" lon="32.346255"></trkpt>
      <trkpt lat="48.904877" lon="32.34766"></trkpt>
      <trkpt lat="48.904036" lon="32.350531"></trkpt>
      <trkpt lat="48.901525" lon="32.363098"></trkpt>
      <trkpt lat="48.900982" lon="32.364961"></trkpt>
      <trkpt lat="48.900523" lon="32.365945"></trkpt>
      <trkpt lat="48.899512" lon="32.367442"></trkpt>
      <trkpt lat="48.895763" lon="32.370859"></trkpt>
      <trkpt lat="48.891193" lon="32.376717"></trkpt>
      <trkpt lat="48.890533" lon="32.378007"></trkpt>
      <trkpt lat="48.890087" lon="32.379273"></trkpt>
      <trkpt lat="48.889229" lon="32.383877"></trkpt>
      <trkpt lat="48.888736" lon="32.385642"></trkpt>
      <trkpt lat="48.888214" lon="32.386785"></trkpt>
      <trkpt lat="48.885195" lon="32.391672"></trkpt>
      <trkpt lat="48.88435" lon="32.392691"></trkpt>
      <trkpt lat="48.883604" lon="32.393322"></trkpt>
      <trkpt lat="48.88236" lon="32.39393"></trkpt>
      <trkpt lat="48.879751" lon="32.394319"></trkpt>
      <trkpt lat="48.87909" lon="32.394529"></trkpt>
      <trkpt lat="48.877631" lon="32.395438"></trkpt>
      <trkpt lat="48.876112" lon="32.396957"></trkpt>
      <trkpt lat="48.875345" lon="32.398207"></trkpt>
      <trkpt lat="48.874712" lon="32.399778"></trkpt>
      <trkpt lat="48.873503" lon="32.404795"></trkpt>
      <trkpt lat="48.872603" lon="32.407107"></trkpt>
      <trkpt lat="48.871746" lon="32.408287"></trkpt>
      <trkpt lat="48.871033" lon="32.408974"></trkpt>
      <trkpt lat="48.869879" lon="32.409725"></trkpt>
      <trkpt lat="48.869343" lon="32.409971"></trkpt>
      <trkpt lat="48.868224" lon="32.410133"></trkpt>
      <trkpt lat="48.866799" lon="32.409891"></trkpt>
      <trkpt lat="48.865669" lon="32.409446"></trkpt>
      <trkpt lat="48.860562" lon="32.406772"></trkpt>
      <trkpt lat="48.859887" lon="32.40652"></trkpt>
      <trkpt lat="48.858402" lon="32.406216"></trkpt>
      <trkpt lat="48.856834" lon="32.406311"></trkpt>
      <trkpt lat="48.853853" lon="32.407029"></trkpt>
      <trkpt lat="48.852713" lon="32.407459"></trkpt>
      <trkpt lat="48.849956" lon="32.408176"></trkpt>
      <trkpt lat="48.849216" lon="32.408479"></trkpt>
      <trkpt lat="48.848231" lon="32.409116"></trkpt>
      <trkpt lat="48.841183" lon="32.414556"></trkpt>
      <trkpt lat="48.840519" lon="32.415358"></trkpt>
      <trkpt lat="48.839917" lon="32.416331"></trkpt>
      <trkpt lat="48.838196" lon="32.420704"></trkpt>
      <trkpt lat="48.837167" lon="32.422429"></trkpt>
      <trkpt lat="48.8329" lon="32.427026"></trkpt>
      <trkpt lat="48.831771" lon="32.428736"></trkpt>
      <trkpt lat="48.831069" lon="32.430702"></trkpt>
      <trkpt lat="48.829802" lon="32.435983"></trkpt>
      <trkpt lat="48.827537" lon="32.440949"></trkpt>
      <trkpt lat="48.825963" lon="32.445109"></trkpt>
      <trkpt lat="48.824811" lon="32.447072"></trkpt>
      <trkpt lat="48.8223" lon="32.450377"></trkpt>
      <trkpt lat="48.821933" lon="32.451129"></trkpt>
      <trkpt lat="48.819421" lon="32.458926"></trkpt>
      <trkpt lat="48.819069" lon="32.459745"></trkpt>
      <trkpt lat="48.817937" lon="32.46155"></trkpt>
      <trkpt lat="48.816698" lon="32.462672"></trkpt>
      <trkpt lat="48.815835" lon="32.46312"></trkpt>
      <trkpt lat="48.815018" lon="32.463362"></trkpt>
      <trkpt lat="48.814146" lon="32.463392"></trkpt>
      <trkpt lat="48.81303" lon="32.463165"></trkpt>
      <trkpt lat="48.811914" lon="32.462575"></trkpt>
      <trkpt lat="48.80981" lon="32.460992"></trkpt>
      <trkpt lat="48.808694" lon="32.460555"></trkpt>
      <trkpt lat="48.806415" lon="32.460168"></trkpt>
      <trkpt lat="48.805373" lon="32.459729"></trkpt>
      <trkpt lat="48.804739" lon="32.45927"></trkpt>
      <trkpt lat="48.804142" lon="32.458621"></trkpt>
      <trkpt lat="48.802645" lon="32.456454"></trkpt>
      <trkpt lat="48.793462" lon="32.441922"></trkpt>
      <trkpt lat="48.792857" lon="32.441195"></trkpt>
      <trkpt lat="48.79151" lon="32.440111"></trkpt>
      <trkpt lat="48.788842" lon="32.43884"></trkpt>
      <trkpt lat="48.787574" lon="32.438513"></trkpt>
      <trkpt lat="48.78574" lon="32.438572"></trkpt>
      <trkpt lat="48.784701" lon="32.438902"></trkpt>
      <trkpt lat="48.783759" lon="32.43939"></trkpt>
      <trkpt lat="48.76605" lon="32.453568"></trkpt>
      <trkpt lat="48.758233" lon="32.459359"></trkpt>
      <trkpt lat="48.75775" lon="32.459916"></trkpt>
      <trkpt lat="48.75644" lon="32.462052"></trkpt>
      <trkpt lat="48.754703" lon="32.465469"></trkpt>
      <trkpt lat="48.753565" lon="32.468244"></trkpt>
      <trkpt lat="48.753193" lon="32.469754"></trkpt>
      <trkpt lat="48.752762" lon="32.472856"></trkpt>
      <trkpt lat="48.752219" lon="32.486159"></trkpt>
      <trkpt lat="48.752031" lon="32.488077"></trkpt>
      <trkpt lat="48.748093" lon="32.507706"></trkpt>
      <trkpt lat="48.747784" lon="32.509929"></trkpt>
      <trkpt lat="48.747771" lon="32.511979"></trkpt>
      <trkpt lat="48.7483" lon="32.517512"></trkpt>
      <trkpt lat="48.748465" lon="32.520425"></trkpt>
      <trkpt lat="48.751102" lon="32.542031"></trkpt>
      <trkpt lat="48.751115" lon="32.544047"></trkpt>
      <trkpt lat="48.750911" lon="32.546665"></trkpt>
      <trkpt lat="48.750702" lon="32.547702"></trkpt>
      <trkpt lat="48.750062" lon="32.54958"></trkpt>
      <trkpt lat="48.749026" lon="32.551813"></trkpt>
      <trkpt lat="48.743013" lon="32.562594"></trkpt>
      <trkpt lat="48.740729" lon="32.566429"></trkpt>
      <trkpt lat="48.72107" lon="32.587551"></trkpt>
      <trkpt lat="48.719612" lon="32.589138"></trkpt>
      <trkpt lat="48.71875" lon="32.590311"></trkpt>
      <trkpt lat="48.718132" lon="32.591464"></trkpt>
      <trkpt lat="48.717577" lon="32.592837"></trkpt>
      <trkpt lat="48.716525" lon="32.595965"></trkpt>
      <trkpt lat="48.716109" lon="32.597613"></trkpt>
      <trkpt lat="48.715918" lon="32.599744"></trkpt>
      <trkpt lat="48.715922" lon="32.60509"></trkpt>
      <trkpt lat="48.715599" lon="32.607332"></trkpt>
      <trkpt lat="48.715153" lon="32.609046"></trkpt>
      <trkpt lat="48.714806" lon="32.60991"></trkpt>
      <trkpt lat="48.714195" lon="32.610843"></trkpt>
      <trkpt lat="48.713718" lon="32.611308"></trkpt>
      <trkpt lat="48.712882" lon="32.61181"></trkpt>
      <trkpt lat="48.712196" lon="32.611996"></trkpt>
      <trkpt lat="48.711049" lon="32.612002"></trkpt>
      <trkpt lat="48.710289" lon="32.611804"></trkpt>
      <trkpt lat="48.709233" lon="32.611119"></trkpt>
      <trkpt lat="48.704689" lon="32.605812"></trkpt>
      <trkpt lat="48.704063" lon="32.605152"></trkpt>
      <trkpt lat="48.702557" lon="32.60398"></trkpt>
      <trkpt lat="48.701592" lon="32.60351"></trkpt>
      <trkpt lat="48.699556" lon="32.602917"></trkpt>
      <trkpt lat="48.698339" lon="32.602895"></trkpt>
      <trkpt lat="48.69688" lon="32.603183"></trkpt>
      <trkpt lat="48.684947" lon="32.608151"></trkpt>
      <trkpt lat="48.682034" lon="32.609461"></trkpt>
      <trkpt lat="48.645251" lon="32.624721"></trkpt>
      <trkpt lat="48.633182" lon="32.629897"></trkpt>
      <trkpt lat="48.573972" lon="32.659125"></trkpt>
      <trkpt lat="48.571822" lon="32.660357"></trkpt>
      <trkpt lat="48.570399" lon="32.661693"></trkpt>
      <trkpt lat="48.569515" lon="32.662795"></trkpt>
      <trkpt lat="48.568788" lon="32.664006"></trkpt>
      <trkpt lat="48.566668" lon="32.669141"></trkpt>
      <trkpt lat="48.562998" lon="32.679371"></trkpt>
      <trkpt lat="48.543311" lon="32.732926"></trkpt>
      <trkpt lat="48.542097" lon="32.735664"></trkpt>
      <trkpt lat="48.541385" lon="32.736802"></trkpt>
      <trkpt lat="48.534204" lon="32.745888"></trkpt>
      <trkpt lat="48.507896" lon="32.778641"></trkpt>
      <trkpt lat="48.506635" lon="32.780513"></trkpt>
      <trkpt lat="48.505627" lon="32.782737"></trkpt>
      <trkpt lat="48.503448" lon="32.788678"></trkpt>
      <trkpt lat="48.485886" lon="32.837871"></trkpt>
      <trkpt lat="48.485101" lon="32.839782"></trkpt>
      <trkpt lat="48.484365" lon="32.84101"></trkpt>
      <trkpt lat="48.482883" lon="32.842883"></trkpt>
      <trkpt lat="48.480539" lon="32.845116"></trkpt>
      <trkpt lat="48.465146" lon="32.858949"></trkpt>
      <trkpt lat="48.4643" lon="32.85948"></trkpt>
      <trkpt lat="48.463183" lon="32.859995"></trkpt>
      <trkpt lat="48.461314" lon="32.860358"></trkpt>
      <trkpt lat="48.460303" lon="32.860341"></trkpt>
      <trkpt lat="48.459303" lon="32.860165"></trkpt>
      <trkpt lat="48.458542" lon="32.859917"></trkpt>
      <trkpt lat="48.45718" lon="32.859224"></trkpt>
      <trkpt lat="48.378872" lon="32.806957"></trkpt>
      <trkpt lat="48.377255" lon="32.806056"></trkpt>
      <trkpt lat="48.375765" lon="32.805613"></trkpt>
      <trkpt lat="48.373934" lon="32.805557"></trkpt>
      <trkpt lat="48.33878" lon="32.808769"></trkpt>
      <trkpt lat="48.337883" lon="32.808717"></trkpt>
      <trkpt lat="48.335905" lon="32.808116"></trkpt>
      <trkpt lat="48.334765" lon="32.807455"></trkpt>
      <trkpt lat="48.305941" lon="32.785975"></trkpt>
      <trkpt lat="48.293127" lon="32.776627"></trkpt>
      <trkpt lat="48.267015" lon="32.757089"></trkpt>
      <trkpt lat="48.265415" lon="32.756214"></trkpt>
      <trkpt lat="48.264012" lon="32.755848"></trkpt>
      <trkpt lat="48.262543" lon="32.755709"></trkpt>
      <trkpt lat="48.237685" lon="32.755956"></trkpt>
      <trkpt lat="48.225143" lon="32.756308"></trkpt>
      <trkpt lat="48.16761" lon="32.758489"></trkpt>
      <trkpt lat="48.164322" lon="32.758361"></trkpt>
      <trkpt lat="48.129816" lon="32.755391"></trkpt>
      <trkpt lat="48.128776" lon="32.755413"></trkpt>
      <trkpt lat="48.126911" lon="32.755832"></trkpt>
      <trkpt lat="48.117686" lon="32.758945"></trkpt>
      <trkpt lat="48.09495" lon="32.769763"></trkpt>
      <trkpt lat="48.093621" lon="32.77026"></trkpt>
      <trkpt lat="48.092341" lon="32.770492"></trkpt>
      <trkpt lat="48.090869" lon="32.770409"></trkpt>
      <trkpt lat="48.089991" lon="32.77021"></trkpt>
      <trkpt lat="48.08824" lon="32.769427"></trkpt>
      <trkpt lat="48.078404" lon="32.761656"></trkpt>
      <trkpt lat="48.077138" lon="32.760823"></trkpt>
      <trkpt lat="48.076274" lon="32.760428"></trkpt>
      <trkpt lat="48.074189" lon="32.759927"></trkpt>
      <trkpt lat="48.05398" lon="32.756249"></trkpt>
      <trkpt lat="48.052634" lon="32.75609"></trkpt>
      <trkpt lat="48.014892" lon="32.755213"></trkpt>
      <trkpt lat="48.013543" lon="32.755286"></trkpt>
      <trkpt lat="48.011902" lon="32.755729"></trkpt>
      <trkpt lat="47.973702" lon="32.769443"></trkpt>
      <trkpt lat="47.972367" lon="32.769693"></trkpt>
      <trkpt lat="47.970363" lon="32.76958"></trkpt>
      <trkpt lat="47.966893" lon="32.769096"></trkpt>
      <trkpt lat="47.959543" lon="32.768389"></trkpt>
      <trkpt lat="47.958255" lon="32.768413"></trkpt>
      <trkpt lat="47.955478" lon="32.768159"></trkpt>
      <trkpt lat="47.918595" lon="32.764479"></trkpt>
      <trkpt lat="47.886879" lon="32.763175"></trkpt>
      <trkpt lat="47.885589" lon="32.763213"></trkpt>
      <trkpt lat="47.880335" lon="32.763009"></trkpt>
      <trkpt lat="47.875589" lon="32.762691"></trkpt>
      <trkpt lat="47.873738" lon="32.762309"></trkpt>
      <trkpt lat="47.872247" lon="32.76171"></trkpt>
      <trkpt lat="47.871223" lon="32.761139"></trkpt>
      <trkpt lat="47.869241" lon="32.759649"></trkpt>
      <trkpt lat="47.798829" lon="32.686487"></trkpt>
      <trkpt lat="47.77886" lon="32.665485"></trkpt>
      <trkpt lat="47.757287" lon="32.643225"></trkpt>
      <trkpt lat="47.707404" lon="32.591344"></trkpt>
      <trkpt lat="47.695125" lon="32.578679"></trkpt>
      <trkpt lat="47.69356" lon="32.57763"></trkpt>
      <trkpt lat="47.692806" lon="32.577392"></trkpt>
      <trkpt lat="47.690394" lon="32.576979"></trkpt>
      <trkpt lat="47.679479" lon="32.576374"></trkpt>
      <trkpt lat="47.641065" lon="32.573916"></trkpt>
      <trkpt lat="47.639288" lon="32.573575"></trkpt>
      <trkpt lat="47.638436" lon="32.573201"></trkpt>
      <trkpt lat="47.634368" lon="32.570884"></trkpt>
      <trkpt lat="47.552169" lon="32.523815"></trkpt>
      <trkpt lat="47.542586" lon="32.518552"></trkpt>
      <trkpt lat="47.541464" lon="32.518088"></trkpt>
      <trkpt lat="47.534881" lon="32.516897"></trkpt>
      <trkpt lat="47.53323" lon="32.516418"></trkpt>
      <trkpt lat="47.486465" lon="32.507894"></trkpt>
      <trkpt lat="47.446881" lon="32.500866"></trkpt>
      <trkpt lat="47.439193" lon="32.499476"></trkpt>
      <trkpt lat="47.438576" lon="32.499287"></trkpt>
      <trkpt lat="47.351362" lon="32.483553"></trkpt>
      <trkpt lat="47.332282" lon="32.480048"></trkpt>
      <trkpt lat="47.330714" lon="32.479521"></trkpt>
      <trkpt lat="47.328762" lon="32.478129"></trkpt>
      <trkpt lat="47.317967" lon="32.469218"></trkpt>
      <trkpt lat="47.293293" lon="32.449221"></trkpt>
      <trkpt lat="47.214112" lon="32.384587"></trkpt>
      <trkpt lat="47.059713" lon="32.259335"></trkpt>
      <trkpt lat="47.058598" lon="32.258286"></trkpt>
      <trkpt lat="47.056989" lon="32.25597"></trkpt>
      <trkpt lat="46.996546" lon="32.156686"></trkpt>
      <trkpt lat="46.980926" lon="32.123156"></trkpt>
      <trkpt lat="46.979675" lon="32.120955"></trkpt>
      <trkpt lat="46.978669" lon="32.119674"></trkpt>
      <trkpt lat="46.977153" lon="32.118305"></trkpt>
      <trkpt lat="46.959211" lon="32.105774"></trkpt>
      <trkpt lat="46.957768" lon="32.104396"></trkpt>
      <trkpt lat="46.956497" lon="32.102625"></trkpt>
      <trkpt lat="46.9554" lon="32.100391"></trkpt>
      <trkpt lat="46.952804" lon="32.093953"></trkpt>
      <trkpt lat="46.95063" lon="32.088993"></trkpt>
      <trkpt lat="46.949354" lon="32.085234"></trkpt>
      <trkpt lat="46.944755" lon="32.073799"></trkpt>
      <trkpt lat="46.944452" lon="32.072622"></trkpt>
      <trkpt lat="46.944255" lon="32.070439"></trkpt>
      <trkpt lat="46.94394" lon="32.069336"></trkpt>
      <trkpt lat="46.94324" lon="32.068236"></trkpt>
      <trkpt lat="46.938015" lon="32.062631"></trkpt>
  </trkseg></trk>
</gpx>
