<?xml version="1.0" encoding="UTF-8"?>
<gpx version="1.1" creator="yatutbuv" xmlns="http://www.topografix.com/GPX/1/1">
  <trk><name>2023_Przemysl -&gt; Warsaw (387.4km)</name><trkseg>
      <trkpt lat="49.78359" lon="22.780022"></trkpt>
      <trkpt lat="49.783758" lon="22.775059"></trkpt>
      <trkpt lat="49.784132" lon="22.773185"></trkpt>
      <trkpt lat="49.784577" lon="22.772033"></trkpt>
      <trkpt lat="49.786318" lon="22.769723"></trkpt>
      <trkpt lat="49.787602" lon="22.768385"></trkpt>
      <trkpt lat="49.788148" lon="22.768097"></trkpt>
      <trkpt lat="49.788783" lon="22.767945"></trkpt>
      <trkpt lat="49.789281" lon="22.767957"></trkpt>
      <trkpt lat="49.790043" lon="22.768197"></trkpt>
      <trkpt lat="49.790959" lon="22.768908"></trkpt>
      <trkpt lat="49.791798" lon="22.770234"></trkpt>
      <trkpt lat="49.800349" lon="22.788306"></trkpt>
      <trkpt lat="49.801238" lon="22.791203"></trkpt>
      <trkpt lat="49.803518" lon="22.803162"></trkpt>
      <trkpt lat="49.803849" lon="22.80427"></trkpt>
      <trkpt lat="49.804351" lon="22.805385"></trkpt>
      <trkpt lat="49.804996" lon="22.806383"></trkpt>
      <trkpt lat="49.805566" lon="22.807033"></trkpt>
      <trkpt lat="49.806856" lon="22.807942"></trkpt>
      <trkpt lat="49.807727" lon="22.808202"></trkpt>
      <trkpt lat="49.813414" lon="22.808741"></trkpt>
      <trkpt lat="49.814592" lon="22.809298"></trkpt>
      <trkpt lat="49.815529" lon="22.810236"></trkpt>
      <trkpt lat="49.816166" lon="22.8113"></trkpt>
      <trkpt lat="49.816586" lon="22.812366"></trkpt>
      <trkpt lat="49.81846" lon="22.820367"></trkpt>
      <trkpt lat="49.81945" lon="22.823612"></trkpt>
      <trkpt lat="49.82239" lon="22.829171"></trkpt>
      <trkpt lat="49.823244" lon="22.830672"></trkpt>
      <trkpt lat="49.823928" lon="22.831593"></trkpt>
      <trkpt lat="49.824778" lon="22.832331"></trkpt>
      <trkpt lat="49.826974" lon="22.833591"></trkpt>
      <trkpt lat="49.833369" lon="22.837898"></trkpt>
      <trkpt lat="49.835676" lon="22.839752"></trkpt>
      <trkpt lat="49.839888" lon="22.842634"></trkpt>
      <trkpt lat="49.84084" lon="22.843474"></trkpt>
      <trkpt lat="49.842912" lon="22.845664"></trkpt>
      <trkpt lat="49.845152" lon="22.847213"></trkpt>
      <trkpt lat="49.872473" lon="22.862637"></trkpt>
      <trkpt lat="49.873878" lon="22.863024"></trkpt>
      <trkpt lat="49.874836" lon="22.863085"></trkpt>
      <trkpt lat="49.876245" lon="22.862884"></trkpt>
      <trkpt lat="49.877156" lon="22.86254"></trkpt>
      <trkpt lat="49.934565" lon="22.836514"></trkpt>
      <trkpt lat="49.935706" lon="22.83578"></trkpt>
      <trkpt lat="49.936405" lon="22.83506"></trkpt>
      <trkpt lat="49.93736" lon="22.833808"></trkpt>
      <trkpt lat="49.938117" lon="22.832605"></trkpt>
      <trkpt lat="49.938616" lon="22.831424"></trkpt>
      <trkpt lat="49.940646" lon="22.82521"></trkpt>
      <trkpt lat="49.942189" lon="22.820914"></trkpt>
      <trkpt lat="49.961289" lon="22.762258"></trkpt>
      <trkpt lat="49.961854" lon="22.760621"></trkpt>
      <trkpt lat="49.962844" lon="22.758367"></trkpt>
      <trkpt lat="49.971442" lon="22.742186"></trkpt>
      <trkpt lat="49.972641" lon="22.740304"></trkpt>
      <trkpt lat="50.000458" lon="22.706283"></trkpt>
      <trkpt lat="50.00325" lon="22.70285"></trkpt>
      <trkpt lat="50.003909" lon="22.70189"></trkpt>
      <trkpt lat="50.004767" lon="22.70023"></trkpt>
      <trkpt lat="50.007741" lon="22.69328"></trkpt>
      <trkpt lat="50.008585" lon="22.690867"></trkpt>
      <trkpt lat="50.008918" lon="22.689217"></trkpt>
      <trkpt lat="50.009777" lon="22.682727"></trkpt>
      <trkpt lat="50.012062" lon="22.667879"></trkpt>
      <trkpt lat="50.012537" lon="22.665919"></trkpt>
      <trkpt lat="50.014674" lon="22.658819"></trkpt>
      <trkpt lat="50.015612" lon="22.656444"></trkpt>
      <trkpt lat="50.017" lon="22.654241"></trkpt>
      <trkpt lat="50.054787" lon="22.601911"></trkpt>
      <trkpt lat="50.055854" lon="22.600113"></trkpt>
      <trkpt lat="50.056707" lon="22.598145"></trkpt>
      <trkpt lat="50.057556" lon="22.595155"></trkpt>
      <trkpt lat="50.06097" lon="22.577892"></trkpt>
      <trkpt lat="50.068022" lon="22.536003"></trkpt>
      <trkpt lat="50.068088" lon="22.532169"></trkpt>
      <trkpt lat="50.067909" lon="22.529571"></trkpt>
      <trkpt lat="50.067726" lon="22.52789"></trkpt>
      <trkpt lat="50.066663" lon="22.521584"></trkpt>
      <trkpt lat="50.066323" lon="22.514806"></trkpt>
      <trkpt lat="50.066575" lon="22.511536"></trkpt>
      <trkpt lat="50.067334" lon="22.505406"></trkpt>
      <trkpt lat="50.067657" lon="22.501452"></trkpt>
      <trkpt lat="50.067709" lon="22.498016"></trkpt>
      <trkpt lat="50.067923" lon="22.49649"></trkpt>
      <trkpt lat="50.068197" lon="22.495702"></trkpt>
      <trkpt lat="50.068643" lon="22.494976"></trkpt>
      <trkpt lat="50.06923" lon="22.494485"></trkpt>
      <trkpt lat="50.069782" lon="22.494321"></trkpt>
      <trkpt lat="50.070332" lon="22.494398"></trkpt>
      <trkpt lat="50.070904" lon="22.494742"></trkpt>
      <trkpt lat="50.093417" lon="22.514019"></trkpt>
      <trkpt lat="50.106602" lon="22.528384"></trkpt>
      <trkpt lat="50.118491" lon="22.539668"></trkpt>
      <trkpt lat="50.1193" lon="22.5403"></trkpt>
      <trkpt lat="50.120116" lon="22.540694"></trkpt>
      <trkpt lat="50.121323" lon="22.540863"></trkpt>
      <trkpt lat="50.131402" lon="22.540547"></trkpt>
      <trkpt lat="50.13421" lon="22.540379"></trkpt>
      <trkpt lat="50.13508" lon="22.540118"></trkpt>
      <trkpt lat="50.135877" lon="22.539661"></trkpt>
      <trkpt lat="50.138427" lon="22.537323"></trkpt>
      <trkpt lat="50.144242" lon="22.531441"></trkpt>
      <trkpt lat="50.150208" lon="22.525718"></trkpt>
      <trkpt lat="50.166896" lon="22.511498"></trkpt>
      <trkpt lat="50.169639" lon="22.509003"></trkpt>
      <trkpt lat="50.182083" lon="22.498512"></trkpt>
      <trkpt lat="50.225145" lon="22.466472"></trkpt>
      <trkpt lat="50.231919" lon="22.46252"></trkpt>
      <trkpt lat="50.23277" lon="22.462184"></trkpt>
      <trkpt lat="50.233421" lon="22.4622"></trkpt>
      <trkpt lat="50.234027" lon="22.462435"></trkpt>
      <trkpt lat="50.237058" lon="22.4643"></trkpt>
      <trkpt lat="50.23786" lon="22.464438"></trkpt>
      <trkpt lat="50.238648" lon="22.464296"></trkpt>
      <trkpt lat="50.241533" lon="22.462904"></trkpt>
      <trkpt lat="50.244266" lon="22.460347"></trkpt>
      <trkpt lat="50.245073" lon="22.459143"></trkpt>
      <trkpt lat="50.245666" lon="22.457654"></trkpt>
      <trkpt lat="50.250974" lon="22.437873"></trkpt>
      <trkpt lat="50.251383" lon="22.43702"></trkpt>
      <trkpt lat="50.2519" lon="22.436296"></trkpt>
      <trkpt lat="50.255833" lon="22.432767"></trkpt>
      <trkpt lat="50.256915" lon="22.431255"></trkpt>
      <trkpt lat="50.257549" lon="22.429591"></trkpt>
      <trkpt lat="50.258844" lon="22.424163"></trkpt>
      <trkpt lat="50.259322" lon="22.422977"></trkpt>
      <trkpt lat="50.259796" lon="22.422308"></trkpt>
      <trkpt lat="50.260473" lon="22.421764"></trkpt>
      <trkpt lat="50.27086" lon="22.415996"></trkpt>
      <trkpt lat="50.271456" lon="22.415522"></trkpt>
      <trkpt lat="50.272088" lon="22.414756"></trkpt>
      <trkpt lat="50.272572" lon="22.413885"></trkpt>
      <trkpt lat="50.272906" lon="22.412945"></trkpt>
      <trkpt lat="50.273891" lon="22.408993"></trkpt>
      <trkpt lat="50.275156" lon="22.402278"></trkpt>
      <trkpt lat="50.275451" lon="22.401236"></trkpt>
      <trkpt lat="50.276043" lon="22.399862"></trkpt>
      <trkpt lat="50.284203" lon="22.387894"></trkpt>
      <trkpt lat="50.291864" lon="22.377153"></trkpt>
      <trkpt lat="50.294586" lon="22.372442"></trkpt>
      <trkpt lat="50.295536" lon="22.371246"></trkpt>
      <trkpt lat="50.296196" lon="22.370635"></trkpt>
      <trkpt lat="50.302788" lon="22.365842"></trkpt>
      <trkpt lat="50.315751" lon="22.353966"></trkpt>
      <trkpt lat="50.317407" lon="22.352011"></trkpt>
      <trkpt lat="50.319077" lon="22.349699"></trkpt>
      <trkpt lat="50.325077" lon="22.342186"></trkpt>
      <trkpt lat="50.333977" lon="22.332853"></trkpt>
      <trkpt lat="50.335465" lon="22.330817"></trkpt>
      <trkpt lat="50.33668" lon="22.328191"></trkpt>
      <trkpt lat="50.345324" lon="22.30482"></trkpt>
      <trkpt lat="50.345919" lon="22.303502"></trkpt>
      <trkpt lat="50.352103" lon="22.292021"></trkpt>
      <trkpt lat="50.352795" lon="22.290556"></trkpt>
      <trkpt lat="50.353168" lon="22.289301"></trkpt>
      <trkpt lat="50.353382" lon="22.288063"></trkpt>
      <trkpt lat="50.353673" lon="22.28327"></trkpt>
      <trkpt lat="50.353913" lon="22.281333"></trkpt>
      <trkpt lat="50.358486" lon="22.262923"></trkpt>
      <trkpt lat="50.359367" lon="22.261373"></trkpt>
      <trkpt lat="50.366471" lon="22.252549"></trkpt>
      <trkpt lat="50.367041" lon="22.252093"></trkpt>
      <trkpt lat="50.367798" lon="22.251764"></trkpt>
      <trkpt lat="50.370518" lon="22.251762"></trkpt>
      <trkpt lat="50.429098" lon="22.257675"></trkpt>
      <trkpt lat="50.429969" lon="22.25771"></trkpt>
      <trkpt lat="50.430519" lon="22.257564"></trkpt>
      <trkpt lat="50.431371" lon="22.256932"></trkpt>
      <trkpt lat="50.432025" lon="22.255963"></trkpt>
      <trkpt lat="50.447342" lon="22.228019"></trkpt>
      <trkpt lat="50.448659" lon="22.22595"></trkpt>
      <trkpt lat="50.464202" lon="22.211028"></trkpt>
      <trkpt lat="50.480289" lon="22.197793"></trkpt>
      <trkpt lat="50.481252" lon="22.196855"></trkpt>
      <trkpt lat="50.482236" lon="22.195646"></trkpt>
      <trkpt lat="50.510839" lon="22.147435"></trkpt>
      <trkpt lat="50.512447" lon="22.144352"></trkpt>
      <trkpt lat="50.518827" lon="22.130601"></trkpt>
      <trkpt lat="50.524944" lon="22.107246"></trkpt>
      <trkpt lat="50.525747" lon="22.105694"></trkpt>
      <trkpt lat="50.531394" lon="22.096974"></trkpt>
      <trkpt lat="50.543869" lon="22.08002"></trkpt>
      <trkpt lat="50.55" lon="22.074422"></trkpt>
      <trkpt lat="50.561071" lon="22.062141"></trkpt>
      <trkpt lat="50.56229" lon="22.06109"></trkpt>
      <trkpt lat="50.582512" lon="22.045979"></trkpt>
      <trkpt lat="50.5838" lon="22.04528"></trkpt>
      <trkpt lat="50.586678" lon="22.044329"></trkpt>
      <trkpt lat="50.588883" lon="22.043403"></trkpt>
      <trkpt lat="50.590588" lon="22.04231"></trkpt>
      <trkpt lat="50.591873" lon="22.040594"></trkpt>
      <trkpt lat="50.593739" lon="22.037589"></trkpt>
      <trkpt lat="50.596524" lon="22.033833"></trkpt>
      <trkpt lat="50.598637" lon="22.030554"></trkpt>
      <trkpt lat="50.599363" lon="22.028965"></trkpt>
      <trkpt lat="50.60278" lon="22.018682"></trkpt>
      <trkpt lat="50.635895" lon="21.917065"></trkpt>
      <trkpt lat="50.6362" lon="21.915474"></trkpt>
      <trkpt lat="50.636273" lon="21.913766"></trkpt>
      <trkpt lat="50.636133" lon="21.912082"></trkpt>
      <trkpt lat="50.635786" lon="21.910476"></trkpt>
      <trkpt lat="50.62502" lon="21.879546"></trkpt>
      <trkpt lat="50.599093" lon="21.827097"></trkpt>
      <trkpt lat="50.598356" lon="21.824978"></trkpt>
      <trkpt lat="50.598059" lon="21.823154"></trkpt>
      <trkpt lat="50.598017" lon="21.821295"></trkpt>
      <trkpt lat="50.599473" lon="21.795444"></trkpt>
      <trkpt lat="50.599756" lon="21.793545"></trkpt>
      <trkpt lat="50.60019" lon="21.791895"></trkpt>
      <trkpt lat="50.600849" lon="21.790261"></trkpt>
      <trkpt lat="50.601498" lon="21.789104"></trkpt>
      <trkpt lat="50.621947" lon="21.761168"></trkpt>
      <trkpt lat="50.623016" lon="21.760087"></trkpt>
      <trkpt lat="50.624214" lon="21.759312"></trkpt>
      <trkpt lat="50.625353" lon="21.758917"></trkpt>
      <trkpt lat="50.626703" lon="21.758831"></trkpt>
      <trkpt lat="50.656531" lon="21.764265"></trkpt>
      <trkpt lat="50.664499" lon="21.766317"></trkpt>
      <trkpt lat="50.665364" lon="21.76675"></trkpt>
      <trkpt lat="50.665929" lon="21.767248"></trkpt>
      <trkpt lat="50.666444" lon="21.767913"></trkpt>
      <trkpt lat="50.666886" lon="21.768723"></trkpt>
      <trkpt lat="50.667476" lon="21.770703"></trkpt>
      <trkpt lat="50.668773" lon="21.781919"></trkpt>
      <trkpt lat="50.668788" lon="21.782919"></trkpt>
      <trkpt lat="50.668597" lon="21.784436"></trkpt>
      <trkpt lat="50.667503" lon="21.788687"></trkpt>
      <trkpt lat="50.667462" lon="21.79089"></trkpt>
      <trkpt lat="50.667746" lon="21.792497"></trkpt>
      <trkpt lat="50.669954" lon="21.79819"></trkpt>
      <trkpt lat="50.670961" lon="21.800289"></trkpt>
      <trkpt lat="50.677906" lon="21.811363"></trkpt>
      <trkpt lat="50.67898" lon="21.812579"></trkpt>
      <trkpt lat="50.680352" lon="21.813294"></trkpt>
      <trkpt lat="50.681534" lon="21.813435"></trkpt>
      <trkpt lat="50.682433" lon="21.813185"></trkpt>
      <trkpt lat="50.683128" lon="21.812804"></trkpt>
      <trkpt lat="50.689633" lon="21.8074"></trkpt>
      <trkpt lat="50.690668" lon="21.806719"></trkpt>
      <trkpt lat="50.693291" lon="21.805299"></trkpt>
      <trkpt lat="50.694283" lon="21.804607"></trkpt>
      <trkpt lat="50.699025" lon="21.800117"></trkpt>
      <trkpt lat="50.700298" lon="21.799089"></trkpt>
      <trkpt lat="50.701626" lon="21.798237"></trkpt>
      <trkpt lat="50.707781" lon="21.79488"></trkpt>
      <trkpt lat="50.708844" lon="21.794441"></trkpt>
      <trkpt lat="50.718144" lon="21.791783"></trkpt>
      <trkpt lat="50.724272" lon="21.790087"></trkpt>
      <trkpt lat="50.72547" lon="21.789929"></trkpt>
      <trkpt lat="50.726665" lon="21.789941"></trkpt>
      <trkpt lat="50.737569" lon="21.792244"></trkpt>
      <trkpt lat="50.739111" lon="21.792919"></trkpt>
      <trkpt lat="50.739804" lon="21.793529"></trkpt>
      <trkpt lat="50.741813" lon="21.795877"></trkpt>
      <trkpt lat="50.74373" lon="21.797581"></trkpt>
      <trkpt lat="50.746216" lon="21.800489"></trkpt>
      <trkpt lat="50.746976" lon="21.801598"></trkpt>
      <trkpt lat="50.747768" lon="21.803158"></trkpt>
      <trkpt lat="50.748337" lon="21.803858"></trkpt>
      <trkpt lat="50.749838" lon="21.804918"></trkpt>
      <trkpt lat="50.751126" lon="21.805629"></trkpt>
      <trkpt lat="50.751973" lon="21.805695"></trkpt>
      <trkpt lat="50.752838" lon="21.805291"></trkpt>
      <trkpt lat="50.753426" lon="21.804679"></trkpt>
      <trkpt lat="50.753777" lon="21.804089"></trkpt>
      <trkpt lat="50.754264" lon="21.80242"></trkpt>
      <trkpt lat="50.754614" lon="21.796048"></trkpt>
      <trkpt lat="50.754576" lon="21.794874"></trkpt>
      <trkpt lat="50.754268" lon="21.793476"></trkpt>
      <trkpt lat="50.753796" lon="21.792475"></trkpt>
      <trkpt lat="50.753144" lon="21.791698"></trkpt>
      <trkpt lat="50.75152" lon="21.790557"></trkpt>
      <trkpt lat="50.75085" lon="21.789719"></trkpt>
      <trkpt lat="50.75055" lon="21.789149"></trkpt>
      <trkpt lat="50.750059" lon="21.787406"></trkpt>
      <trkpt lat="50.74991" lon="21.783788"></trkpt>
      <trkpt lat="50.749943" lon="21.78289"></trkpt>
      <trkpt lat="50.750189" lon="21.781399"></trkpt>
      <trkpt lat="50.751942" lon="21.77352"></trkpt>
      <trkpt lat="50.752576" lon="21.771346"></trkpt>
      <trkpt lat="50.753584" lon="21.769397"></trkpt>
      <trkpt lat="50.761227" lon="21.758146"></trkpt>
      <trkpt lat="50.761884" lon="21.756552"></trkpt>
      <trkpt lat="50.763195" lon="21.752083"></trkpt>
      <trkpt lat="50.763852" lon="21.7505"></trkpt>
      <trkpt lat="50.769879" lon="21.739744"></trkpt>
      <trkpt lat="50.772985" lon="21.733535"></trkpt>
      <trkpt lat="50.782305" lon="21.721351"></trkpt>
      <trkpt lat="50.783628" lon="21.719485"></trkpt>
      <trkpt lat="50.797145" lon="21.697995"></trkpt>
      <trkpt lat="50.797658" lon="21.696933"></trkpt>
      <trkpt lat="50.798105" lon="21.695476"></trkpt>
      <trkpt lat="50.798727" lon="21.691215"></trkpt>
      <trkpt lat="50.799233" lon="21.689153"></trkpt>
      <trkpt lat="50.802446" lon="21.682122"></trkpt>
      <trkpt lat="50.805097" lon="21.673318"></trkpt>
      <trkpt lat="50.806036" lon="21.670997"></trkpt>
      <trkpt lat="50.807558" lon="21.668925"></trkpt>
      <trkpt lat="50.81894" lon="21.654753"></trkpt>
      <trkpt lat="50.820345" lon="21.653172"></trkpt>
      <trkpt lat="50.821129" lon="21.652601"></trkpt>
      <trkpt lat="50.822298" lon="21.652118"></trkpt>
      <trkpt lat="50.829572" lon="21.650947"></trkpt>
      <trkpt lat="50.830973" lon="21.650503"></trkpt>
      <trkpt lat="50.838374" lon="21.645294"></trkpt>
      <trkpt lat="50.839454" lon="21.64438"></trkpt>
      <trkpt lat="50.856193" lon="21.622661"></trkpt>
      <trkpt lat="50.857184" lon="21.620697"></trkpt>
      <trkpt lat="50.858619" lon="21.616373"></trkpt>
      <trkpt lat="50.859072" lon="21.615314"></trkpt>
      <trkpt lat="50.862771" lon="21.609724"></trkpt>
      <trkpt lat="50.864415" lon="21.606815"></trkpt>
      <trkpt lat="50.866835" lon="21.600554"></trkpt>
      <trkpt lat="50.872255" lon="21.588244"></trkpt>
      <trkpt lat="50.874083" lon="21.584581"></trkpt>
      <trkpt lat="50.874747" lon="21.582895"></trkpt>
      <trkpt lat="50.875212" lon="21.581008"></trkpt>
      <trkpt lat="50.876308" lon="21.573201"></trkpt>
      <trkpt lat="50.878162" lon="21.564845"></trkpt>
      <trkpt lat="50.878723" lon="21.563294"></trkpt>
      <trkpt lat="50.88179" lon="21.556491"></trkpt>
      <trkpt lat="50.882244" lon="21.554772"></trkpt>
      <trkpt lat="50.882794" lon="21.550441"></trkpt>
      <trkpt lat="50.883197" lon="21.548676"></trkpt>
      <trkpt lat="50.883955" lon="21.546372"></trkpt>
      <trkpt lat="50.88552" lon="21.543194"></trkpt>
      <trkpt lat="50.886102" lon="21.541644"></trkpt>
      <trkpt lat="50.886557" lon="21.539621"></trkpt>
      <trkpt lat="50.887616" lon="21.530266"></trkpt>
      <trkpt lat="50.889692" lon="21.519921"></trkpt>
      <trkpt lat="50.890453" lon="21.517882"></trkpt>
      <trkpt lat="50.893354" lon="21.512019"></trkpt>
      <trkpt lat="50.894044" lon="21.510034"></trkpt>
      <trkpt lat="50.894691" lon="21.507418"></trkpt>
      <trkpt lat="50.895055" lon="21.505068"></trkpt>
      <trkpt lat="50.89519" lon="21.503281"></trkpt>
      <trkpt lat="50.895529" lon="21.497469"></trkpt>
      <trkpt lat="50.895671" lon="21.49262"></trkpt>
      <trkpt lat="50.896111" lon="21.490226"></trkpt>
      <trkpt lat="50.902211" lon="21.470049"></trkpt>
      <trkpt lat="50.905385" lon="21.46116"></trkpt>
      <trkpt lat="50.907097" lon="21.458183"></trkpt>
      <trkpt lat="50.907889" lon="21.456273"></trkpt>
      <trkpt lat="50.9088" lon="21.452775"></trkpt>
      <trkpt lat="50.909124" lon="21.44842"></trkpt>
      <trkpt lat="50.909492" lon="21.446354"></trkpt>
      <trkpt lat="50.911091" lon="21.441563"></trkpt>
      <trkpt lat="50.912509" lon="21.437743"></trkpt>
      <trkpt lat="50.918468" lon="21.418944"></trkpt>
      <trkpt lat="50.919155" lon="21.417255"></trkpt>
      <trkpt lat="50.920394" lon="21.415075"></trkpt>
      <trkpt lat="50.921048" lon="21.413614"></trkpt>
      <trkpt lat="50.930686" lon="21.386766"></trkpt>
      <trkpt lat="50.943799" lon="21.346338"></trkpt>
      <trkpt lat="50.945631" lon="21.340447"></trkpt>
      <trkpt lat="50.949356" lon="21.324908"></trkpt>
      <trkpt lat="50.950241" lon="21.322118"></trkpt>
      <trkpt lat="50.951055" lon="21.320386"></trkpt>
      <trkpt lat="50.951758" lon="21.319213"></trkpt>
      <trkpt lat="50.963168" lon="21.302363"></trkpt>
      <trkpt lat="50.968637" lon="21.294015"></trkpt>
      <trkpt lat="50.970758" lon="21.289326"></trkpt>
      <trkpt lat="50.972401" lon="21.28364"></trkpt>
      <trkpt lat="50.973127" lon="21.281596"></trkpt>
      <trkpt lat="50.97391" lon="21.279982"></trkpt>
      <trkpt lat="50.974982" lon="21.278335"></trkpt>
      <trkpt lat="50.976254" lon="21.276935"></trkpt>
      <trkpt lat="50.977626" lon="21.275887"></trkpt>
      <trkpt lat="50.978625" lon="21.27537"></trkpt>
      <trkpt lat="50.986854" lon="21.271853"></trkpt>
      <trkpt lat="50.987996" lon="21.271159"></trkpt>
      <trkpt lat="50.989147" lon="21.27018"></trkpt>
      <trkpt lat="50.990337" lon="21.268756"></trkpt>
      <trkpt lat="51.001303" lon="21.253085"></trkpt>
      <trkpt lat="51.020286" lon="21.217054"></trkpt>
      <trkpt lat="51.020856" lon="21.215874"></trkpt>
      <trkpt lat="51.021467" lon="21.214186"></trkpt>
      <trkpt lat="51.022084" lon="21.211112"></trkpt>
      <trkpt lat="51.022199" lon="21.209257"></trkpt>
      <trkpt lat="51.02216" lon="21.207795"></trkpt>
      <trkpt lat="51.021373" lon="21.199113"></trkpt>
      <trkpt lat="51.020281" lon="21.19395"></trkpt>
      <trkpt lat="51.019954" lon="21.188638"></trkpt>
      <trkpt lat="51.019745" lon="21.18722"></trkpt>
      <trkpt lat="51.019452" lon="21.186082"></trkpt>
      <trkpt lat="51.018942" lon="21.184759"></trkpt>
      <trkpt lat="51.016531" lon="21.180784"></trkpt>
      <trkpt lat="51.015724" lon="21.178714"></trkpt>
      <trkpt lat="51.015312" lon="21.176303"></trkpt>
      <trkpt lat="51.015066" lon="21.170576"></trkpt>
      <trkpt lat="51.014736" lon="21.168511"></trkpt>
      <trkpt lat="51.014184" lon="21.16685"></trkpt>
      <trkpt lat="51.011752" lon="21.161545"></trkpt>
      <trkpt lat="51.011304" lon="21.160306"></trkpt>
      <trkpt lat="51.010761" lon="21.157942"></trkpt>
      <trkpt lat="51.010564" lon="21.155465"></trkpt>
      <trkpt lat="51.010669" lon="21.153235"></trkpt>
      <trkpt lat="51.012081" lon="21.137865"></trkpt>
      <trkpt lat="51.012379" lon="21.121142"></trkpt>
      <trkpt lat="51.012633" lon="21.118343"></trkpt>
      <trkpt lat="51.013027" lon="21.11636"></trkpt>
      <trkpt lat="51.014682" lon="21.1102"></trkpt>
      <trkpt lat="51.015604" lon="21.104719"></trkpt>
      <trkpt lat="51.015961" lon="21.10321"></trkpt>
      <trkpt lat="51.019826" lon="21.091691"></trkpt>
      <trkpt lat="51.020731" lon="21.089648"></trkpt>
      <trkpt lat="51.022662" lon="21.086215"></trkpt>
      <trkpt lat="51.02348" lon="21.085239"></trkpt>
      <trkpt lat="51.024759" lon="21.08431"></trkpt>
      <trkpt lat="51.025948" lon="21.083931"></trkpt>
      <trkpt lat="51.027116" lon="21.083952"></trkpt>
      <trkpt lat="51.033109" lon="21.08596"></trkpt>
      <trkpt lat="51.033934" lon="21.086111"></trkpt>
      <trkpt lat="51.034742" lon="21.086082"></trkpt>
      <trkpt lat="51.035902" lon="21.08571"></trkpt>
      <trkpt lat="51.036817" lon="21.085113"></trkpt>
      <trkpt lat="51.037468" lon="21.084491"></trkpt>
      <trkpt lat="51.03899" lon="21.082562"></trkpt>
      <trkpt lat="51.040226" lon="21.080603"></trkpt>
      <trkpt lat="51.043691" lon="21.076038"></trkpt>
      <trkpt lat="51.044923" lon="21.073788"></trkpt>
      <trkpt lat="51.046082" lon="21.071017"></trkpt>
      <trkpt lat="51.048354" lon="21.064482"></trkpt>
      <trkpt lat="51.051549" lon="21.058066"></trkpt>
      <trkpt lat="51.054016" lon="21.050769"></trkpt>
      <trkpt lat="51.055255" lon="21.048242"></trkpt>
      <trkpt lat="51.05605" lon="21.047071"></trkpt>
      <trkpt lat="51.056846" lon="21.046134"></trkpt>
      <trkpt lat="51.058233" lon="21.044919"></trkpt>
      <trkpt lat="51.05945" lon="21.04421"></trkpt>
      <trkpt lat="51.062181" lon="21.043195"></trkpt>
      <trkpt lat="51.063354" lon="21.042602"></trkpt>
      <trkpt lat="51.064958" lon="21.041324"></trkpt>
      <trkpt lat="51.066212" lon="21.039841"></trkpt>
      <trkpt lat="51.08576" lon="21.006003"></trkpt>
      <trkpt lat="51.086698" lon="21.003896"></trkpt>
      <trkpt lat="51.09229" lon="20.988341"></trkpt>
      <trkpt lat="51.092776" lon="20.986091"></trkpt>
      <trkpt lat="51.09305" lon="20.98163"></trkpt>
      <trkpt lat="51.093322" lon="20.97996"></trkpt>
      <trkpt lat="51.094037" lon="20.977784"></trkpt>
      <trkpt lat="51.095173" lon="20.975695"></trkpt>
      <trkpt lat="51.096259" lon="20.974387"></trkpt>
      <trkpt lat="51.096872" lon="20.973897"></trkpt>
      <trkpt lat="51.097702" lon="20.973445"></trkpt>
      <trkpt lat="51.098626" lon="20.973189"></trkpt>
      <trkpt lat="51.101208" lon="20.972819"></trkpt>
      <trkpt lat="51.110812" lon="20.969053"></trkpt>
      <trkpt lat="51.111595" lon="20.968563"></trkpt>
      <trkpt lat="51.112195" lon="20.968029"></trkpt>
      <trkpt lat="51.113356" lon="20.966442"></trkpt>
      <trkpt lat="51.114137" lon="20.964625"></trkpt>
      <trkpt lat="51.122011" lon="20.940454"></trkpt>
      <trkpt lat="51.122481" lon="20.938733"></trkpt>
      <trkpt lat="51.122808" lon="20.936998"></trkpt>
      <trkpt lat="51.123025" lon="20.934838"></trkpt>
      <trkpt lat="51.123055" lon="20.93313"></trkpt>
      <trkpt lat="51.121737" lon="20.911197"></trkpt>
      <trkpt lat="51.121711" lon="20.909174"></trkpt>
      <trkpt lat="51.121941" lon="20.907442"></trkpt>
      <trkpt lat="51.122499" lon="20.905758"></trkpt>
      <trkpt lat="51.123382" lon="20.90432"></trkpt>
      <trkpt lat="51.129392" lon="20.898435"></trkpt>
      <trkpt lat="51.130315" lon="20.897957"></trkpt>
      <trkpt lat="51.135321" lon="20.896524"></trkpt>
      <trkpt lat="51.140061" lon="20.896736"></trkpt>
      <trkpt lat="51.146571" lon="20.898429"></trkpt>
      <trkpt lat="51.147879" lon="20.898857"></trkpt>
      <trkpt lat="51.150218" lon="20.899175"></trkpt>
      <trkpt lat="51.154925" lon="20.900964"></trkpt>
      <trkpt lat="51.191125" lon="20.910429"></trkpt>
      <trkpt lat="51.192911" lon="20.91126"></trkpt>
      <trkpt lat="51.194561" lon="20.9126"></trkpt>
      <trkpt lat="51.195645" lon="20.913866"></trkpt>
      <trkpt lat="51.200785" lon="20.920915"></trkpt>
      <trkpt lat="51.201755" lon="20.921949"></trkpt>
      <trkpt lat="51.202488" lon="20.922461"></trkpt>
      <trkpt lat="51.20326" lon="20.922802"></trkpt>
      <trkpt lat="51.204046" lon="20.922969"></trkpt>
      <trkpt lat="51.212947" lon="20.923782"></trkpt>
      <trkpt lat="51.215871" lon="20.924253"></trkpt>
      <trkpt lat="51.217047" lon="20.924665"></trkpt>
      <trkpt lat="51.21834" lon="20.925657"></trkpt>
      <trkpt lat="51.21927" lon="20.926833"></trkpt>
      <trkpt lat="51.21991" lon="20.928024"></trkpt>
      <trkpt lat="51.220334" lon="20.929106"></trkpt>
      <trkpt lat="51.220728" lon="20.930579"></trkpt>
      <trkpt lat="51.22102" lon="20.933085"></trkpt>
      <trkpt lat="51.220899" lon="20.938654"></trkpt>
      <trkpt lat="51.221322" lon="20.941399"></trkpt>
      <trkpt lat="51.221802" lon="20.942864"></trkpt>
      <trkpt lat="51.222285" lon="20.943912"></trkpt>
      <trkpt lat="51.223546" lon="20.94621"></trkpt>
      <trkpt lat="51.224318" lon="20.947294"></trkpt>
      <trkpt lat="51.225172" lon="20.948125"></trkpt>
      <trkpt lat="51.226115" lon="20.948717"></trkpt>
      <trkpt lat="51.226911" lon="20.949"></trkpt>
      <trkpt lat="51.227937" lon="20.949098"></trkpt>
      <trkpt lat="51.229331" lon="20.948771"></trkpt>
      <trkpt lat="51.23318" lon="20.946628"></trkpt>
      <trkpt lat="51.234362" lon="20.94634"></trkpt>
      <trkpt lat="51.235379" lon="20.9464"></trkpt>
      <trkpt lat="51.236546" lon="20.946835"></trkpt>
      <trkpt lat="51.237485" lon="20.947501"></trkpt>
      <trkpt lat="51.238316" lon="20.948397"></trkpt>
      <trkpt lat="51.239164" lon="20.949738"></trkpt>
      <trkpt lat="51.239924" lon="20.951633"></trkpt>
      <trkpt lat="51.240381" lon="20.953743"></trkpt>
      <trkpt lat="51.240857" lon="20.963284"></trkpt>
      <trkpt lat="51.241357" lon="20.966141"></trkpt>
      <trkpt lat="51.242043" lon="20.968419"></trkpt>
      <trkpt lat="51.25704" lon="21.004171"></trkpt>
      <trkpt lat="51.258403" lon="21.006762"></trkpt>
      <trkpt lat="51.25998" lon="21.008746"></trkpt>
      <trkpt lat="51.287372" lon="21.037332"></trkpt>
      <trkpt lat="51.288543" lon="21.038381"></trkpt>
      <trkpt lat="51.289497" lon="21.038996"></trkpt>
      <trkpt lat="51.305636" lon="21.045349"></trkpt>
      <trkpt lat="51.31124" lon="21.046272"></trkpt>
      <trkpt lat="51.320872" lon="21.049402"></trkpt>
      <trkpt lat="51.321885" lon="21.049549"></trkpt>
      <trkpt lat="51.322944" lon="21.049513"></trkpt>
      <trkpt lat="51.329546" lon="21.048321"></trkpt>
      <trkpt lat="51.331101" lon="21.048394"></trkpt>
      <trkpt lat="51.332641" lon="21.04862"></trkpt>
      <trkpt lat="51.33364" lon="21.049045"></trkpt>
      <trkpt lat="51.334577" lon="21.049707"></trkpt>
      <trkpt lat="51.337047" lon="21.051934"></trkpt>
      <trkpt lat="51.338331" lon="21.053423"></trkpt>
      <trkpt lat="51.339147" lon="21.054734"></trkpt>
      <trkpt lat="51.340039" lon="21.056595"></trkpt>
      <trkpt lat="51.342451" lon="21.062867"></trkpt>
      <trkpt lat="51.343162" lon="21.065348"></trkpt>
      <trkpt lat="51.349306" lon="21.099795"></trkpt>
      <trkpt lat="51.349689" lon="21.102855"></trkpt>
      <trkpt lat="51.350069" lon="21.109644"></trkpt>
      <trkpt lat="51.350356" lon="21.111912"></trkpt>
      <trkpt lat="51.355198" lon="21.130342"></trkpt>
      <trkpt lat="51.356032" lon="21.132545"></trkpt>
      <trkpt lat="51.356581" lon="21.133491"></trkpt>
      <trkpt lat="51.357364" lon="21.134475"></trkpt>
      <trkpt lat="51.35807" lon="21.135105"></trkpt>
      <trkpt lat="51.35901" lon="21.13565"></trkpt>
      <trkpt lat="51.371247" lon="21.139141"></trkpt>
      <trkpt lat="51.372445" lon="21.139281"></trkpt>
      <trkpt lat="51.373564" lon="21.139104"></trkpt>
      <trkpt lat="51.374574" lon="21.138651"></trkpt>
      <trkpt lat="51.376662" lon="21.137338"></trkpt>
      <trkpt lat="51.37806" lon="21.136965"></trkpt>
      <trkpt lat="51.378946" lon="21.137008"></trkpt>
      <trkpt lat="51.379856" lon="21.137279"></trkpt>
      <trkpt lat="51.380786" lon="21.137818"></trkpt>
      <trkpt lat="51.381681" lon="21.138626"></trkpt>
      <trkpt lat="51.382896" lon="21.140402"></trkpt>
      <trkpt lat="51.38591" lon="21.146226"></trkpt>
      <trkpt lat="51.3882" lon="21.149443"></trkpt>
      <trkpt lat="51.389322" lon="21.151611"></trkpt>
      <trkpt lat="51.391922" lon="21.159562"></trkpt>
      <trkpt lat="51.392825" lon="21.162002"></trkpt>
      <trkpt lat="51.39534" lon="21.167738"></trkpt>
      <trkpt lat="51.399212" lon="21.173813"></trkpt>
      <trkpt lat="51.406304" lon="21.18564"></trkpt>
      <trkpt lat="51.40747" lon="21.187067"></trkpt>
      <trkpt lat="51.408363" lon="21.187723"></trkpt>
      <trkpt lat="51.408933" lon="21.187992"></trkpt>
      <trkpt lat="51.409793" lon="21.188201"></trkpt>
      <trkpt lat="51.410515" lon="21.188212"></trkpt>
      <trkpt lat="51.414945" lon="21.187431"></trkpt>
      <trkpt lat="51.418683" lon="21.18656"></trkpt>
      <trkpt lat="51.42183" lon="21.186059"></trkpt>
      <trkpt lat="51.43026" lon="21.184376"></trkpt>
      <trkpt lat="51.431581" lon="21.18426"></trkpt>
      <trkpt lat="51.460723" lon="21.186511"></trkpt>
      <trkpt lat="51.462319" lon="21.186763"></trkpt>
      <trkpt lat="51.463723" lon="21.187275"></trkpt>
      <trkpt lat="51.474868" lon="21.193062"></trkpt>
      <trkpt lat="51.476204" lon="21.193502"></trkpt>
      <trkpt lat="51.477848" lon="21.193741"></trkpt>
      <trkpt lat="51.479204" lon="21.1937"></trkpt>
      <trkpt lat="51.480967" lon="21.193309"></trkpt>
      <trkpt lat="51.492747" lon="21.189005"></trkpt>
      <trkpt lat="51.49869" lon="21.186959"></trkpt>
      <trkpt lat="51.499979" lon="21.186738"></trkpt>
      <trkpt lat="51.508533" lon="21.186148"></trkpt>
      <trkpt lat="51.510321" lon="21.185779"></trkpt>
      <trkpt lat="51.513679" lon="21.184506"></trkpt>
      <trkpt lat="51.514943" lon="21.1839"></trkpt>
      <trkpt lat="51.516161" lon="21.183104"></trkpt>
      <trkpt lat="51.520029" lon="21.180135"></trkpt>
      <trkpt lat="51.522142" lon="21.178971"></trkpt>
      <trkpt lat="51.524275" lon="21.178235"></trkpt>
      <trkpt lat="51.531131" lon="21.176956"></trkpt>
      <trkpt lat="51.532168" lon="21.176865"></trkpt>
      <trkpt lat="51.533894" lon="21.17691"></trkpt>
      <trkpt lat="51.591568" lon="21.179487"></trkpt>
      <trkpt lat="51.626983" lon="21.177084"></trkpt>
      <trkpt lat="51.6595" lon="21.171802"></trkpt>
      <trkpt lat="51.661172" lon="21.171646"></trkpt>
      <trkpt lat="51.662514" lon="21.171769"></trkpt>
      <trkpt lat="51.663539" lon="21.172027"></trkpt>
      <trkpt lat="51.664564" lon="21.172427"></trkpt>
      <trkpt lat="51.668179" lon="21.174216"></trkpt>
      <trkpt lat="51.66919" lon="21.174509"></trkpt>
      <trkpt lat="51.670495" lon="21.17468"></trkpt>
      <trkpt lat="51.672063" lon="21.174586"></trkpt>
      <trkpt lat="51.683239" lon="21.172637"></trkpt>
      <trkpt lat="51.700843" lon="21.17269"></trkpt>
      <trkpt lat="51.702642" lon="21.172813"></trkpt>
      <trkpt lat="51.760891" lon="21.186549"></trkpt>
      <trkpt lat="51.761891" lon="21.186728"></trkpt>
      <trkpt lat="51.763235" lon="21.186782"></trkpt>
      <trkpt lat="51.76417" lon="21.186686"></trkpt>
      <trkpt lat="51.765406" lon="21.186378"></trkpt>
      <trkpt lat="51.767123" lon="21.185608"></trkpt>
      <trkpt lat="51.781574" lon="21.177137"></trkpt>
      <trkpt lat="51.783142" lon="21.176631"></trkpt>
      <trkpt lat="51.785144" lon="21.176483"></trkpt>
      <trkpt lat="51.786355" lon="21.176231"></trkpt>
      <trkpt lat="51.787796" lon="21.175558"></trkpt>
      <trkpt lat="51.788936" lon="21.174688"></trkpt>
      <trkpt lat="51.790047" lon="21.173494"></trkpt>
      <trkpt lat="51.817383" lon="21.138529"></trkpt>
      <trkpt lat="51.828504" lon="21.127281"></trkpt>
      <trkpt lat="51.830379" lon="21.125774"></trkpt>
      <trkpt lat="51.832258" lon="21.124892"></trkpt>
      <trkpt lat="51.896813" lon="21.102759"></trkpt>
      <trkpt lat="51.897944" lon="21.102477"></trkpt>
      <trkpt lat="51.903658" lon="21.100564"></trkpt>
      <trkpt lat="51.907065" lon="21.099149"></trkpt>
      <trkpt lat="51.915362" lon="21.096238"></trkpt>
      <trkpt lat="51.951928" lon="21.08379"></trkpt>
      <trkpt lat="51.964047" lon="21.0796"></trkpt>
      <trkpt lat="51.966096" lon="21.078735"></trkpt>
      <trkpt lat="51.981123" lon="21.069649"></trkpt>
      <trkpt lat="52.042063" lon="21.032194"></trkpt>
      <trkpt lat="52.043326" lon="21.031515"></trkpt>
      <trkpt lat="52.04492" lon="21.030891"></trkpt>
      <trkpt lat="52.052097" lon="21.028864"></trkpt>
      <trkpt lat="52.053067" lon="21.028446"></trkpt>
      <trkpt lat="52.054295" lon="21.027715"></trkpt>
      <trkpt lat="52.062329" lon="21.021546"></trkpt>
      <trkpt lat="52.072042" lon="21.011482"></trkpt>
      <trkpt lat="52.075387" lon="21.008257"></trkpt>
      <trkpt lat="52.080242" lon="21.003242"></trkpt>
      <trkpt lat="52.082614" lon="21.001063"></trkpt>
      <trkpt lat="52.087252" lon="20.997237"></trkpt>
      <trkpt lat="52.089052" lon="20.996069"></trkpt>
      <trkpt lat="52.090882" lon="20.995398"></trkpt>
      <trkpt lat="52.092828" lon="20.995009"></trkpt>
      <trkpt lat="52.096523" lon="20.994691"></trkpt>
      <trkpt lat="52.148229" lon="20.988918"></trkpt>
      <trkpt lat="52.151535" lon="20.988947"></trkpt>
      <trkpt lat="52.152449" lon="20.988831"></trkpt>
      <trkpt lat="52.153623" lon="20.988504"></trkpt>
      <trkpt lat="52.160464" lon="20.987768"></trkpt>
      <trkpt lat="52.17083" lon="20.987292"></trkpt>
      <trkpt lat="52.173924" lon="20.987427"></trkpt>
      <trkpt lat="52.178332" lon="20.987303"></trkpt>
      <trkpt lat="52.183011" lon="20.986888"></trkpt>
      <trkpt lat="52.189078" lon="20.98678"></trkpt>
      <trkpt lat="52.190109" lon="20.98647"></trkpt>
      <trkpt lat="52.190925" lon="20.985913"></trkpt>
      <trkpt lat="52.191651" lon="20.985119"></trkpt>
      <trkpt lat="52.192383" lon="20.983896"></trkpt>
      <trkpt lat="52.192878" lon="20.982569"></trkpt>
      <trkpt lat="52.197113" lon="20.964925"></trkpt>
      <trkpt lat="52.200991" lon="20.947779"></trkpt>
      <trkpt lat="52.201413" lon="20.946342"></trkpt>
      <trkpt lat="52.20213" lon="20.945014"></trkpt>
      <trkpt lat="52.20353" lon="20.943493"></trkpt>
      <trkpt lat="52.204988" lon="20.942214"></trkpt>
      <trkpt lat="52.207701" lon="20.939421"></trkpt>
      <trkpt lat="52.208326" lon="20.938939"></trkpt>
      <trkpt lat="52.209091" lon="20.938593"></trkpt>
      <trkpt lat="52.209792" lon="20.938483"></trkpt>
      <trkpt lat="52.210585" lon="20.938583"></trkpt>
      <trkpt lat="52.212073" lon="20.939283"></trkpt>
      <trkpt lat="52.213144" lon="20.94001"></trkpt>
      <trkpt lat="52.214066" lon="20.941217"></trkpt>
      <trkpt lat="52.215183" lon="20.943408"></trkpt>
      <trkpt lat="52.215536" lon="20.944368"></trkpt>
      <trkpt lat="52.216423" lon="20.949557"></trkpt>
      <trkpt lat="52.217948" lon="20.95407"></trkpt>
      <trkpt lat="52.219373" lon="20.959127"></trkpt>
      <trkpt lat="52.219691" lon="20.95974"></trkpt>
      <trkpt lat="52.22069" lon="20.960925"></trkpt>
      <trkpt lat="52.221213" lon="20.961213"></trkpt>
      <trkpt lat="52.22207" lon="20.961354"></trkpt>
  </trkseg></trk>
</gpx>
