<?xml version="1.0" encoding="UTF-8"?>
<gpx version="1.1" creator="yatutbuv" xmlns="http://www.topografix.com/GPX/1/1">
  <trk><name>Krakow -&gt; Lotnisko (11.6km)</name><trkseg>
      <trkpt lat="50.068466" lon="19.948005"></trkpt>
      <trkpt lat="50.069882" lon="19.947894"></trkpt>
      <trkpt lat="50.070754" lon="19.947522"></trkpt>
      <trkpt lat="50.073566" lon="19.945903"></trkpt>
      <trkpt lat="50.074941" lon="19.944627"></trkpt>
      <trkpt lat="50.077045" lon="19.941937"></trkpt>
      <trkpt lat="50.078526" lon="19.939386"></trkpt>
      <trkpt lat="50.079379" lon="19.937449"></trkpt>
      <trkpt lat="50.080135" lon="19.934324"></trkpt>
      <trkpt lat="50.080719" lon="19.929909"></trkpt>
      <trkpt lat="50.081406" lon="19.927258"></trkpt>
      <trkpt lat="50.081583" lon="19.925797"></trkpt>
      <trkpt lat="50.081829" lon="19.917236"></trkpt>
      <trkpt lat="50.082726" lon="19.895352"></trkpt>
      <trkpt lat="50.082611" lon="19.891371"></trkpt>
      <trkpt lat="50.082889" lon="19.888188"></trkpt>
      <trkpt lat="50.082976" lon="19.884597"></trkpt>
      <trkpt lat="50.082831" lon="19.878727"></trkpt>
      <trkpt lat="50.082252" lon="19.869276"></trkpt>
      <trkpt lat="50.082289" lon="19.866499"></trkpt>
      <trkpt lat="50.082573" lon="19.862262"></trkpt>
      <trkpt lat="50.082496" lon="19.860988"></trkpt>
      <trkpt lat="50.082208" lon="19.85977"></trkpt>
      <trkpt lat="50.080137" lon="19.8537"></trkpt>
      <trkpt lat="50.079791" lon="19.852397"></trkpt>
      <trkpt lat="50.079698" lon="19.85116"></trkpt>
      <trkpt lat="50.079854" lon="19.847108"></trkpt>
      <trkpt lat="50.079647" lon="19.845757"></trkpt>
      <trkpt lat="50.079177" lon="19.844545"></trkpt>
      <trkpt lat="50.07787" lon="19.842056"></trkpt>
      <trkpt lat="50.0775" lon="19.840905"></trkpt>
      <trkpt lat="50.077361" lon="19.839642"></trkpt>
      <trkpt lat="50.077329" lon="19.829672"></trkpt>
      <trkpt lat="50.077239" lon="19.82834"></trkpt>
      <trkpt lat="50.076933" lon="19.827041"></trkpt>
      <trkpt lat="50.071704" lon="19.809962"></trkpt>
      <trkpt lat="50.071449" lon="19.80819"></trkpt>
      <trkpt lat="50.071459" lon="19.804681"></trkpt>
      <trkpt lat="50.071007" lon="19.80128"></trkpt>
  </trkseg></trk>
</gpx>
