<?xml version="1.0" encoding="UTF-8"?>
<gpx version="1.1" creator="yatutbuv" xmlns="http://www.topografix.com/GPX/1/1">
  <trk><name>2015_Barcelona -&gt; Monistrol de Montserrat (41.3km)</name><trkseg>
      <trkpt lat="41.379005" lon="2.139937"></trkpt>
      <trkpt lat="41.37702" lon="2.137276"></trkpt>
      <trkpt lat="41.375979" lon="2.136079"></trkpt>
      <trkpt lat="41.370418" lon="2.130698"></trkpt>
      <trkpt lat="41.369497" lon="2.129367"></trkpt>
      <trkpt lat="41.368789" lon="2.127796"></trkpt>
      <trkpt lat="41.368233" lon="2.125477"></trkpt>
      <trkpt lat="41.368097" lon="2.124386"></trkpt>
      <trkpt lat="41.368161" lon="2.118096"></trkpt>
      <trkpt lat="41.368015" lon="2.116622"></trkpt>
      <trkpt lat="41.367653" lon="2.115129"></trkpt>
      <trkpt lat="41.366173" lon="2.110874"></trkpt>
      <trkpt lat="41.365742" lon="2.109323"></trkpt>
      <trkpt lat="41.365377" lon="2.107598"></trkpt>
      <trkpt lat="41.364804" lon="2.103266"></trkpt>
      <trkpt lat="41.363476" lon="2.097192"></trkpt>
      <trkpt lat="41.360951" lon="2.088568"></trkpt>
      <trkpt lat="41.357445" lon="2.080902"></trkpt>
      <trkpt lat="41.35668" lon="2.078358"></trkpt>
      <trkpt lat="41.356462" lon="2.076454"></trkpt>
      <trkpt lat="41.35661" lon="2.074323"></trkpt>
      <trkpt lat="41.357302" lon="2.071275"></trkpt>
      <trkpt lat="41.357867" lon="2.069966"></trkpt>
      <trkpt lat="41.358391" lon="2.069102"></trkpt>
      <trkpt lat="41.359447" lon="2.067836"></trkpt>
      <trkpt lat="41.360237" lon="2.067138"></trkpt>
      <trkpt lat="41.372815" lon="2.056866"></trkpt>
      <trkpt lat="41.375597" lon="2.054832"></trkpt>
      <trkpt lat="41.380166" lon="2.051151"></trkpt>
      <trkpt lat="41.381986" lon="2.049355"></trkpt>
      <trkpt lat="41.386183" lon="2.044137"></trkpt>
      <trkpt lat="41.387586" lon="2.042659"></trkpt>
      <trkpt lat="41.38919" lon="2.04147"></trkpt>
      <trkpt lat="41.394352" lon="2.038221"></trkpt>
      <trkpt lat="41.397953" lon="2.035191"></trkpt>
      <trkpt lat="41.398908" lon="2.034225"></trkpt>
      <trkpt lat="41.409177" lon="2.021868"></trkpt>
      <trkpt lat="41.410904" lon="2.02023"></trkpt>
      <trkpt lat="41.413536" lon="2.01887"></trkpt>
      <trkpt lat="41.414589" lon="2.018072"></trkpt>
      <trkpt lat="41.418641" lon="2.014501"></trkpt>
      <trkpt lat="41.419857" lon="2.012927"></trkpt>
      <trkpt lat="41.42115" lon="2.01014"></trkpt>
      <trkpt lat="41.421875" lon="2.008906"></trkpt>
      <trkpt lat="41.423197" lon="2.007362"></trkpt>
      <trkpt lat="41.424893" lon="2.006202"></trkpt>
      <trkpt lat="41.425454" lon="2.005955"></trkpt>
      <trkpt lat="41.430335" lon="2.004823"></trkpt>
      <trkpt lat="41.432676" lon="2.004024"></trkpt>
      <trkpt lat="41.434449" lon="2.003065"></trkpt>
      <trkpt lat="41.435993" lon="2.001981"></trkpt>
      <trkpt lat="41.43755" lon="2.000597"></trkpt>
      <trkpt lat="41.440012" lon="1.99776"></trkpt>
      <trkpt lat="41.441395" lon="1.99634"></trkpt>
      <trkpt lat="41.445575" lon="1.990693"></trkpt>
      <trkpt lat="41.447197" lon="1.988839"></trkpt>
      <trkpt lat="41.448941" lon="1.9871"></trkpt>
      <trkpt lat="41.451755" lon="1.984667"></trkpt>
      <trkpt lat="41.454235" lon="1.982803"></trkpt>
      <trkpt lat="41.45697" lon="1.981386"></trkpt>
      <trkpt lat="41.461487" lon="1.979784"></trkpt>
      <trkpt lat="41.463467" lon="1.978399"></trkpt>
      <trkpt lat="41.466391" lon="1.975364"></trkpt>
      <trkpt lat="41.471646" lon="1.969333"></trkpt>
      <trkpt lat="41.472894" lon="1.967744"></trkpt>
      <trkpt lat="41.473749" lon="1.966313"></trkpt>
      <trkpt lat="41.47543" lon="1.962562"></trkpt>
      <trkpt lat="41.476046" lon="1.960543"></trkpt>
      <trkpt lat="41.476714" lon="1.953802"></trkpt>
      <trkpt lat="41.479351" lon="1.940485"></trkpt>
      <trkpt lat="41.479629" lon="1.938047"></trkpt>
      <trkpt lat="41.479688" lon="1.93422"></trkpt>
      <trkpt lat="41.479523" lon="1.929989"></trkpt>
      <trkpt lat="41.479538" lon="1.929434"></trkpt>
      <trkpt lat="41.479562" lon="1.930142"></trkpt>
      <trkpt lat="41.479583" lon="1.927953"></trkpt>
      <trkpt lat="41.479155" lon="1.924925"></trkpt>
      <trkpt lat="41.47918" lon="1.923792"></trkpt>
      <trkpt lat="41.479323" lon="1.923183"></trkpt>
      <trkpt lat="41.479669" lon="1.922456"></trkpt>
      <trkpt lat="41.48113" lon="1.920928"></trkpt>
      <trkpt lat="41.482982" lon="1.919954"></trkpt>
      <trkpt lat="41.484442" lon="1.917921"></trkpt>
      <trkpt lat="41.484979" lon="1.917475"></trkpt>
      <trkpt lat="41.498613" lon="1.911648"></trkpt>
      <trkpt lat="41.501766" lon="1.909723"></trkpt>
      <trkpt lat="41.502674" lon="1.909585"></trkpt>
      <trkpt lat="41.505194" lon="1.909863"></trkpt>
      <trkpt lat="41.507001" lon="1.910535"></trkpt>
      <trkpt lat="41.507649" lon="1.910665"></trkpt>
      <trkpt lat="41.508201" lon="1.910637"></trkpt>
      <trkpt lat="41.508796" lon="1.910471"></trkpt>
      <trkpt lat="41.512147" lon="1.908928"></trkpt>
      <trkpt lat="41.514825" lon="1.907962"></trkpt>
      <trkpt lat="41.517337" lon="1.906875"></trkpt>
      <trkpt lat="41.518724" lon="1.90677"></trkpt>
      <trkpt lat="41.52721" lon="1.906794"></trkpt>
      <trkpt lat="41.528096" lon="1.90648"></trkpt>
      <trkpt lat="41.530596" lon="1.905297"></trkpt>
      <trkpt lat="41.531242" lon="1.904884"></trkpt>
      <trkpt lat="41.532054" lon="1.904133"></trkpt>
      <trkpt lat="41.536571" lon="1.898593"></trkpt>
      <trkpt lat="41.537525" lon="1.896751"></trkpt>
      <trkpt lat="41.538883" lon="1.892493"></trkpt>
      <trkpt lat="41.539497" lon="1.891226"></trkpt>
      <trkpt lat="41.541647" lon="1.887652"></trkpt>
      <trkpt lat="41.545374" lon="1.883209"></trkpt>
      <trkpt lat="41.546161" lon="1.882684"></trkpt>
      <trkpt lat="41.546726" lon="1.882458"></trkpt>
      <trkpt lat="41.555589" lon="1.879543"></trkpt>
      <trkpt lat="41.55637" lon="1.879768"></trkpt>
      <trkpt lat="41.558157" lon="1.881168"></trkpt>
      <trkpt lat="41.559651" lon="1.881519"></trkpt>
      <trkpt lat="41.561335" lon="1.881669"></trkpt>
      <trkpt lat="41.562827" lon="1.882313"></trkpt>
      <trkpt lat="41.564604" lon="1.882169"></trkpt>
      <trkpt lat="41.565741" lon="1.881276"></trkpt>
      <trkpt lat="41.566241" lon="1.881077"></trkpt>
      <trkpt lat="41.566869" lon="1.881071"></trkpt>
      <trkpt lat="41.568537" lon="1.881377"></trkpt>
      <trkpt lat="41.56949" lon="1.880947"></trkpt>
      <trkpt lat="41.571534" lon="1.878677"></trkpt>
      <trkpt lat="41.572011" lon="1.877955"></trkpt>
      <trkpt lat="41.572461" lon="1.87694"></trkpt>
      <trkpt lat="41.572844" lon="1.87445"></trkpt>
      <trkpt lat="41.573575" lon="1.866554"></trkpt>
      <trkpt lat="41.573851" lon="1.865946"></trkpt>
      <trkpt lat="41.575727" lon="1.863506"></trkpt>
      <trkpt lat="41.577038" lon="1.862371"></trkpt>
      <trkpt lat="41.577634" lon="1.86202"></trkpt>
      <trkpt lat="41.580487" lon="1.861844"></trkpt>
      <trkpt lat="41.581142" lon="1.861684"></trkpt>
      <trkpt lat="41.581624" lon="1.861244"></trkpt>
      <trkpt lat="41.582281" lon="1.860376"></trkpt>
      <trkpt lat="41.583373" lon="1.85974"></trkpt>
      <trkpt lat="41.58397" lon="1.859219"></trkpt>
      <trkpt lat="41.585374" lon="1.857354"></trkpt>
      <trkpt lat="41.586599" lon="1.856056"></trkpt>
      <trkpt lat="41.587707" lon="1.855442"></trkpt>
      <trkpt lat="41.588862" lon="1.854629"></trkpt>
      <trkpt lat="41.589732" lon="1.854277"></trkpt>
      <trkpt lat="41.590743" lon="1.853508"></trkpt>
      <trkpt lat="41.591235" lon="1.853351"></trkpt>
  </trkseg></trk>
</gpx>
