<?xml version="1.0" encoding="UTF-8"?>
<gpx version="1.1" creator="yatutbuv" xmlns="http://www.topografix.com/GPX/1/1">
  <trk><name>2025_US</name><trkseg>
      <trkpt lat="38.955851" lon="-77.448236"></trkpt>
      <trkpt lat="38.955918" lon="-77.445995"></trkpt>
      <trkpt lat="38.956197" lon="-77.445197"></trkpt>
      <trkpt lat="38.956584" lon="-77.44465"></trkpt>
      <trkpt lat="38.957041" lon="-77.444283"></trkpt>
      <trkpt lat="38.957661" lon="-77.444023"></trkpt>
      <trkpt lat="38.959682" lon="-77.44394"></trkpt>
      <trkpt lat="38.960611" lon="-77.443559"></trkpt>
      <trkpt lat="38.961562" lon="-77.44261"></trkpt>
      <trkpt lat="38.962173" lon="-77.441306"></trkpt>
      <trkpt lat="38.962349" lon="-77.440263"></trkpt>
      <trkpt lat="38.962479" lon="-77.437712"></trkpt>
      <trkpt lat="38.962538" lon="-77.430021"></trkpt>
      <trkpt lat="38.962443" lon="-77.422796"></trkpt>
      <trkpt lat="38.962054" lon="-77.419815"></trkpt>
      <trkpt lat="38.961555" lon="-77.417769"></trkpt>
      <trkpt lat="38.955527" lon="-77.400609"></trkpt>
      <trkpt lat="38.954886" lon="-77.398307"></trkpt>
      <trkpt lat="38.95434" lon="-77.39568"></trkpt>
      <trkpt lat="38.952925" lon="-77.387081"></trkpt>
      <trkpt lat="38.952651" lon="-77.383606"></trkpt>
      <trkpt lat="38.952635" lon="-77.382399"></trkpt>
      <trkpt lat="38.953262" lon="-77.373119"></trkpt>
      <trkpt lat="38.95335" lon="-77.36822"></trkpt>
      <trkpt lat="38.953146" lon="-77.363189"></trkpt>
      <trkpt lat="38.952597" lon="-77.358297"></trkpt>
      <trkpt lat="38.951823" lon="-77.353954"></trkpt>
      <trkpt lat="38.950911" lon="-77.349997"></trkpt>
      <trkpt lat="38.949865" lon="-77.346347"></trkpt>
      <trkpt lat="38.945634" lon="-77.333515"></trkpt>
      <trkpt lat="38.945148" lon="-77.331584"></trkpt>
      <trkpt lat="38.944822" lon="-77.329669"></trkpt>
      <trkpt lat="38.944626" lon="-77.325956"></trkpt>
      <trkpt lat="38.944738" lon="-77.323925"></trkpt>
      <trkpt lat="38.944977" lon="-77.322156"></trkpt>
      <trkpt lat="38.945483" lon="-77.319865"></trkpt>
      <trkpt lat="38.947474" lon="-77.313285"></trkpt>
      <trkpt lat="38.948009" lon="-77.310268"></trkpt>
      <trkpt lat="38.948157" lon="-77.307957"></trkpt>
      <trkpt lat="38.948148" lon="-77.305111"></trkpt>
      <trkpt lat="38.947723" lon="-77.300797"></trkpt>
      <trkpt lat="38.947202" lon="-77.298125"></trkpt>
      <trkpt lat="38.946249" lon="-77.294713"></trkpt>
      <trkpt lat="38.943482" lon="-77.287955"></trkpt>
      <trkpt lat="38.942668" lon="-77.285201"></trkpt>
      <trkpt lat="38.942137" lon="-77.28192"></trkpt>
      <trkpt lat="38.941754" lon="-77.276279"></trkpt>
      <trkpt lat="38.941429" lon="-77.274699"></trkpt>
      <trkpt lat="38.941069" lon="-77.273592"></trkpt>
      <trkpt lat="38.940432" lon="-77.272215"></trkpt>
      <trkpt lat="38.939611" lon="-77.270946"></trkpt>
      <trkpt lat="38.934727" lon="-77.265344"></trkpt>
      <trkpt lat="38.933503" lon="-77.263149"></trkpt>
      <trkpt lat="38.9329" lon="-77.261441"></trkpt>
      <trkpt lat="38.932453" lon="-77.259342"></trkpt>
      <trkpt lat="38.932258" lon="-77.25638"></trkpt>
      <trkpt lat="38.932538" lon="-77.253553"></trkpt>
      <trkpt lat="38.933641" lon="-77.248812"></trkpt>
      <trkpt lat="38.933611" lon="-77.247457"></trkpt>
      <trkpt lat="38.933317" lon="-77.246401"></trkpt>
      <trkpt lat="38.932984" lon="-77.245718"></trkpt>
      <trkpt lat="38.932356" lon="-77.244946"></trkpt>
      <trkpt lat="38.92022" lon="-77.233035"></trkpt>
      <trkpt lat="38.919661" lon="-77.232295"></trkpt>
      <trkpt lat="38.919435" lon="-77.231544"></trkpt>
      <trkpt lat="38.919482" lon="-77.230235"></trkpt>
      <trkpt lat="38.920323" lon="-77.225452"></trkpt>
      <trkpt lat="38.921092" lon="-77.218891"></trkpt>
      <trkpt lat="38.922313" lon="-77.215822"></trkpt>
      <trkpt lat="38.923127" lon="-77.213406"></trkpt>
      <trkpt lat="38.925373" lon="-77.208394"></trkpt>
      <trkpt lat="38.925891" lon="-77.207515"></trkpt>
      <trkpt lat="38.927434" lon="-77.205503"></trkpt>
      <trkpt lat="38.927913" lon="-77.20465"></trkpt>
      <trkpt lat="38.928248" lon="-77.203157"></trkpt>
      <trkpt lat="38.928133" lon="-77.201762"></trkpt>
      <trkpt lat="38.927799" lon="-77.200841"></trkpt>
      <trkpt lat="38.927068" lon="-77.1996"></trkpt>
      <trkpt lat="38.926531" lon="-77.198891"></trkpt>
      <trkpt lat="38.925491" lon="-77.197869"></trkpt>
      <trkpt lat="38.916309" lon="-77.191746"></trkpt>
      <trkpt lat="38.913036" lon="-77.188525"></trkpt>
      <trkpt lat="38.911723" lon="-77.187473"></trkpt>
      <trkpt lat="38.91053" lon="-77.187005"></trkpt>
      <trkpt lat="38.909277" lon="-77.186917"></trkpt>
      <trkpt lat="38.907705" lon="-77.1872"></trkpt>
      <trkpt lat="38.904319" lon="-77.188057"></trkpt>
      <trkpt lat="38.903489" lon="-77.188108"></trkpt>
      <trkpt lat="38.902996" lon="-77.188017"></trkpt>
      <trkpt lat="38.902263" lon="-77.187694"></trkpt>
      <trkpt lat="38.901743" lon="-77.187297"></trkpt>
      <trkpt lat="38.901266" lon="-77.186747"></trkpt>
      <trkpt lat="38.900805" lon="-77.18588"></trkpt>
      <trkpt lat="38.896223" lon="-77.172751"></trkpt>
      <trkpt lat="38.895606" lon="-77.171341"></trkpt>
      <trkpt lat="38.89456" lon="-77.169689"></trkpt>
      <trkpt lat="38.888467" lon="-77.162313"></trkpt>
      <trkpt lat="38.887476" lon="-77.160613"></trkpt>
      <trkpt lat="38.886794" lon="-77.15899"></trkpt>
      <trkpt lat="38.879588" lon="-77.137582"></trkpt>
      <trkpt lat="38.879329" lon="-77.135288"></trkpt>
      <trkpt lat="38.879536" lon="-77.127813"></trkpt>
      <trkpt lat="38.879857" lon="-77.126321"></trkpt>
      <trkpt lat="38.880185" lon="-77.125383"></trkpt>
      <trkpt lat="38.881498" lon="-77.12278"></trkpt>
      <trkpt lat="38.881886" lon="-77.121241"></trkpt>
      <trkpt lat="38.882663" lon="-77.105095"></trkpt>
      <trkpt lat="38.885564" lon="-77.097945"></trkpt>
      <trkpt lat="38.88777" lon="-77.093285"></trkpt>
      <trkpt lat="38.891192" lon="-77.084548"></trkpt>
      <trkpt lat="38.891646" lon="-77.082444"></trkpt>
      <trkpt lat="38.892334" lon="-77.073492"></trkpt>
      <trkpt lat="38.892565" lon="-77.072377"></trkpt>
      <trkpt lat="38.893187" lon="-77.071402"></trkpt>
      <trkpt lat="38.894043" lon="-77.070906"></trkpt>
      <trkpt lat="38.89764" lon="-77.070946"></trkpt>
      <trkpt lat="38.898501" lon="-77.07073"></trkpt>
      <trkpt lat="38.899132" lon="-77.070281"></trkpt>
      <trkpt lat="38.899618" lon="-77.069706"></trkpt>
      <trkpt lat="38.899946" lon="-77.069064"></trkpt>
      <trkpt lat="38.900215" lon="-77.068062"></trkpt>
      <trkpt lat="38.900677" lon="-77.057836"></trkpt>
      <trkpt lat="38.900765" lon="-77.046995"></trkpt>
      <trkpt lat="38.901373" lon="-77.044267"></trkpt>
      <trkpt lat="38.901381" lon="-77.0372"></trkpt>
      <trkpt lat="38.901457" lon="-77.037823"></trkpt>
      <trkpt lat="38.901669" lon="-77.038393"></trkpt>
      <trkpt lat="38.901998" lon="-77.038861"></trkpt>
      <trkpt lat="38.902417" lon="-77.03919"></trkpt>
      <trkpt lat="38.900902" lon="-77.038304"></trkpt>
      <trkpt lat="38.900012" lon="-77.037521"></trkpt>
      <trkpt lat="38.899454" lon="-77.036597"></trkpt>
      <trkpt lat="38.898464" lon="-77.034015"></trkpt>
      <trkpt lat="38.898325" lon="-77.032894"></trkpt>
      <trkpt lat="38.898295" lon="-77.020939"></trkpt>
      <trkpt lat="38.898105" lon="-77.020166"></trkpt>
      <trkpt lat="38.897452" lon="-77.018679"></trkpt>
      <trkpt lat="38.895389" lon="-77.015572"></trkpt>
      <trkpt lat="38.894936" lon="-77.014593"></trkpt>
      <trkpt lat="38.894806" lon="-77.013475"></trkpt>
      <trkpt lat="38.894809" lon="-77.010629"></trkpt>
      <trkpt lat="38.894967" lon="-77.009714"></trkpt>
      <trkpt lat="38.895233" lon="-77.009076"></trkpt>
      <trkpt lat="38.895702" lon="-77.008478"></trkpt>
      <trkpt lat="38.896292" lon="-77.008027"></trkpt>
      <trkpt lat="38.901077" lon="-77.006201"></trkpt>
      <trkpt lat="38.903849" lon="-77.004204"></trkpt>
      <trkpt lat="38.905541" lon="-77.003774"></trkpt>
      <trkpt lat="38.908135" lon="-77.002798"></trkpt>
      <trkpt lat="38.910005" lon="-77.001693"></trkpt>
      <trkpt lat="38.916354" lon="-76.998542"></trkpt>
      <trkpt lat="38.918907" lon="-76.996851"></trkpt>
      <trkpt lat="38.92542" lon="-76.994168"></trkpt>
      <trkpt lat="38.926847" lon="-76.993831"></trkpt>
      <trkpt lat="38.927883" lon="-76.99383"></trkpt>
      <trkpt lat="38.93023" lon="-76.994061"></trkpt>
      <trkpt lat="38.932697" lon="-76.994492"></trkpt>
      <trkpt lat="38.934159" lon="-76.994887"></trkpt>
      <trkpt lat="38.942814" lon="-76.998438"></trkpt>
      <trkpt lat="38.946345" lon="-76.999998"></trkpt>
      <trkpt lat="38.950859" lon="-77.001766"></trkpt>
      <trkpt lat="38.951185" lon="-77.001792"></trkpt>
      <trkpt lat="38.95149" lon="-77.001639"></trkpt>
      <trkpt lat="38.951716" lon="-77.001335"></trkpt>
      <trkpt lat="38.951821" lon="-77.000937"></trkpt>
      <trkpt lat="38.95246" lon="-76.99409"></trkpt>
      <trkpt lat="38.952569" lon="-76.990877"></trkpt>
      <trkpt lat="38.952355" lon="-76.986758"></trkpt>
      <trkpt lat="38.951297" lon="-76.974784"></trkpt>
      <trkpt lat="38.951309" lon="-76.973875"></trkpt>
      <trkpt lat="38.951572" lon="-76.972686"></trkpt>
      <trkpt lat="38.952158" lon="-76.971528"></trkpt>
      <trkpt lat="38.952951" lon="-76.970715"></trkpt>
      <trkpt lat="38.95687" lon="-76.968663"></trkpt>
      <trkpt lat="38.95763" lon="-76.968426"></trkpt>
      <trkpt lat="38.958397" lon="-76.968401"></trkpt>
      <trkpt lat="38.96087" lon="-76.968936"></trkpt>
      <trkpt lat="38.96217" lon="-76.968889"></trkpt>
      <trkpt lat="38.962925" lon="-76.968583"></trkpt>
      <trkpt lat="38.9636" lon="-76.968081"></trkpt>
      <trkpt lat="38.964128" lon="-76.967524"></trkpt>
      <trkpt lat="38.964722" lon="-76.966567"></trkpt>
      <trkpt lat="38.965158" lon="-76.965286"></trkpt>
      <trkpt lat="38.965296" lon="-76.964217"></trkpt>
      <trkpt lat="38.965341" lon="-76.952857"></trkpt>
      <trkpt lat="38.965624" lon="-76.950357"></trkpt>
      <trkpt lat="38.966009" lon="-76.949118"></trkpt>
      <trkpt lat="38.966419" lon="-76.948225"></trkpt>
      <trkpt lat="38.970969" lon="-76.941192"></trkpt>
      <trkpt lat="38.971329" lon="-76.940481"></trkpt>
      <trkpt lat="38.971549" lon="-76.939648"></trkpt>
      <trkpt lat="38.971681" lon="-76.938484"></trkpt>
      <trkpt lat="38.971503" lon="-76.933436"></trkpt>
      <trkpt lat="38.97177" lon="-76.932367"></trkpt>
      <trkpt lat="38.972422" lon="-76.931184"></trkpt>
      <trkpt lat="38.973218" lon="-76.930405"></trkpt>
      <trkpt lat="38.973885" lon="-76.930065"></trkpt>
      <trkpt lat="38.976511" lon="-76.929106"></trkpt>
      <trkpt lat="38.977489" lon="-76.928572"></trkpt>
      <trkpt lat="38.983329" lon="-76.926322"></trkpt>
      <trkpt lat="39.000014" lon="-76.919289"></trkpt>
      <trkpt lat="39.002165" lon="-76.91825"></trkpt>
      <trkpt lat="39.004162" lon="-76.917039"></trkpt>
      <trkpt lat="39.005378" lon="-76.916156"></trkpt>
      <trkpt lat="39.012798" lon="-76.909765"></trkpt>
      <trkpt lat="39.01382" lon="-76.909132"></trkpt>
      <trkpt lat="39.016394" lon="-76.907894"></trkpt>
      <trkpt lat="39.018165" lon="-76.90737"></trkpt>
      <trkpt lat="39.020344" lon="-76.907115"></trkpt>
      <trkpt lat="39.021294" lon="-76.907205"></trkpt>
      <trkpt lat="39.019188" lon="-76.907403"></trkpt>
      <trkpt lat="39.017856" lon="-76.907644"></trkpt>
      <trkpt lat="39.016204" lon="-76.908167"></trkpt>
      <trkpt lat="39.014292" lon="-76.909088"></trkpt>
      <trkpt lat="39.01236" lon="-76.91042"></trkpt>
      <trkpt lat="39.005794" lon="-76.916138"></trkpt>
      <trkpt lat="39.003218" lon="-76.917886"></trkpt>
      <trkpt lat="39.000507" lon="-76.919327"></trkpt>
      <trkpt lat="38.956539" lon="-76.937612"></trkpt>
      <trkpt lat="38.953134" lon="-76.939434"></trkpt>
      <trkpt lat="38.950781" lon="-76.941081"></trkpt>
      <trkpt lat="38.948978" lon="-76.942579"></trkpt>
      <trkpt lat="38.931197" lon="-76.959291"></trkpt>
      <trkpt lat="38.930529" lon="-76.960134"></trkpt>
      <trkpt lat="38.929831" lon="-76.961273"></trkpt>
      <trkpt lat="38.928404" lon="-76.964731"></trkpt>
      <trkpt lat="38.927302" lon="-76.966672"></trkpt>
      <trkpt lat="38.921568" lon="-76.973335"></trkpt>
      <trkpt lat="38.920259" lon="-76.975164"></trkpt>
      <trkpt lat="38.919214" lon="-76.977038"></trkpt>
      <trkpt lat="38.918307" lon="-76.979139"></trkpt>
      <trkpt lat="38.911332" lon="-76.999143"></trkpt>
      <trkpt lat="38.910742" lon="-77.000278"></trkpt>
      <trkpt lat="38.910136" lon="-77.001064"></trkpt>
      <trkpt lat="38.909165" lon="-77.001903"></trkpt>
      <trkpt lat="38.90862" lon="-77.002218"></trkpt>
      <trkpt lat="38.903551" lon="-77.004037"></trkpt>
      <trkpt lat="38.9" lon="-77.004745"></trkpt>
      <trkpt lat="38.896857" lon="-77.005852"></trkpt>
      <trkpt lat="38.895746" lon="-77.006001"></trkpt>
      <trkpt lat="38.887181" lon="-77.006036"></trkpt>
      <trkpt lat="38.886006" lon="-77.00648"></trkpt>
      <trkpt lat="38.885109" lon="-77.00727"></trkpt>
      <trkpt lat="38.884331" lon="-77.008531"></trkpt>
      <trkpt lat="38.883809" lon="-77.009954"></trkpt>
      <trkpt lat="38.883527" lon="-77.011361"></trkpt>
      <trkpt lat="38.883433" lon="-77.013027"></trkpt>
      <trkpt lat="38.883661" lon="-77.014293"></trkpt>
      <trkpt lat="38.885828" lon="-77.022286"></trkpt>
      <trkpt lat="38.885893" lon="-77.023129"></trkpt>
      <trkpt lat="38.885807" lon="-77.023731"></trkpt>
      <trkpt lat="38.88368" lon="-77.031092"></trkpt>
      <trkpt lat="38.883312" lon="-77.031678"></trkpt>
      <trkpt lat="38.882823" lon="-77.032169"></trkpt>
      <trkpt lat="38.877839" lon="-77.035794"></trkpt>
      <trkpt lat="38.865625" lon="-77.046306"></trkpt>
      <trkpt lat="38.863587" lon="-77.04758"></trkpt>
      <trkpt lat="38.86226" lon="-77.048104"></trkpt>
      <trkpt lat="38.860526" lon="-77.048138"></trkpt>
      <trkpt lat="38.858342" lon="-77.048383"></trkpt>
      <trkpt lat="38.856269" lon="-77.047917"></trkpt>
      <trkpt lat="38.854966" lon="-77.047817"></trkpt>
      <trkpt lat="38.852751" lon="-77.04818"></trkpt>
      <trkpt lat="38.851701" lon="-77.048595"></trkpt>
      <trkpt lat="38.850077" lon="-77.04965"></trkpt>
      <trkpt lat="38.849172" lon="-77.050101"></trkpt>
      <trkpt lat="38.848185" lon="-77.050417"></trkpt>
      <trkpt lat="38.846884" lon="-77.050574"></trkpt>
      <trkpt lat="38.845348" lon="-77.050405"></trkpt>
      <trkpt lat="38.842683" lon="-77.049702"></trkpt>
      <trkpt lat="38.841529" lon="-77.049216"></trkpt>
      <trkpt lat="38.837958" lon="-77.047186"></trkpt>
      <trkpt lat="38.836715" lon="-77.046851"></trkpt>
      <trkpt lat="38.835879" lon="-77.046811"></trkpt>
      <trkpt lat="38.831916" lon="-77.047162"></trkpt>
      <trkpt lat="38.826533" lon="-77.046905"></trkpt>
      <trkpt lat="38.825257" lon="-77.047"></trkpt>
      <trkpt lat="38.823748" lon="-77.047456"></trkpt>
      <trkpt lat="38.822605" lon="-77.048095"></trkpt>
      <trkpt lat="38.811673" lon="-77.055836"></trkpt>
      <trkpt lat="38.809659" lon="-77.057508"></trkpt>
      <trkpt lat="38.808225" lon="-77.059102"></trkpt>
      <trkpt lat="38.807571" lon="-77.059994"></trkpt>
      <trkpt lat="38.805715" lon="-77.063295"></trkpt>
      <trkpt lat="38.804852" lon="-77.065704"></trkpt>
      <trkpt lat="38.804504" lon="-77.068158"></trkpt>
      <trkpt lat="38.804749" lon="-77.074612"></trkpt>
      <trkpt lat="38.805697" lon="-77.090708"></trkpt>
      <trkpt lat="38.806068" lon="-77.093841"></trkpt>
      <trkpt lat="38.807264" lon="-77.100082"></trkpt>
      <trkpt lat="38.807333" lon="-77.101439"></trkpt>
      <trkpt lat="38.807157" lon="-77.103392"></trkpt>
      <trkpt lat="38.806726" lon="-77.105186"></trkpt>
      <trkpt lat="38.806241" lon="-77.10646"></trkpt>
      <trkpt lat="38.803679" lon="-77.110935"></trkpt>
      <trkpt lat="38.802337" lon="-77.11381"></trkpt>
      <trkpt lat="38.801454" lon="-77.116218"></trkpt>
      <trkpt lat="38.800756" lon="-77.118626"></trkpt>
      <trkpt lat="38.799993" lon="-77.122487"></trkpt>
      <trkpt lat="38.796565" lon="-77.146947"></trkpt>
      <trkpt lat="38.796013" lon="-77.149102"></trkpt>
      <trkpt lat="38.795158" lon="-77.150925"></trkpt>
      <trkpt lat="38.794282" lon="-77.152174"></trkpt>
      <trkpt lat="38.79311" lon="-77.153334"></trkpt>
      <trkpt lat="38.792012" lon="-77.154075"></trkpt>
      <trkpt lat="38.790932" lon="-77.154547"></trkpt>
      <trkpt lat="38.789891" lon="-77.154808"></trkpt>
      <trkpt lat="38.776055" lon="-77.157126"></trkpt>
      <trkpt lat="38.774665" lon="-77.157513"></trkpt>
      <trkpt lat="38.773141" lon="-77.158215"></trkpt>
      <trkpt lat="38.77193" lon="-77.159001"></trkpt>
      <trkpt lat="38.770956" lon="-77.159813"></trkpt>
      <trkpt lat="38.769874" lon="-77.160938"></trkpt>
      <trkpt lat="38.76911" lon="-77.161926"></trkpt>
      <trkpt lat="38.76786" lon="-77.164017"></trkpt>
      <trkpt lat="38.765721" lon="-77.169201"></trkpt>
      <trkpt lat="38.765136" lon="-77.170342"></trkpt>
      <trkpt lat="38.764136" lon="-77.171725"></trkpt>
      <trkpt lat="38.76287" lon="-77.172902"></trkpt>
      <trkpt lat="38.750115" lon="-77.180835"></trkpt>
      <trkpt lat="38.746561" lon="-77.182736"></trkpt>
      <trkpt lat="38.742115" lon="-77.184537"></trkpt>
      <trkpt lat="38.7321" lon="-77.187479"></trkpt>
      <trkpt lat="38.730944" lon="-77.188033"></trkpt>
      <trkpt lat="38.730207" lon="-77.188544"></trkpt>
      <trkpt lat="38.728714" lon="-77.190054"></trkpt>
      <trkpt lat="38.727629" lon="-77.19182"></trkpt>
      <trkpt lat="38.72279" lon="-77.204198"></trkpt>
      <trkpt lat="38.721214" lon="-77.207161"></trkpt>
      <trkpt lat="38.719838" lon="-77.209052"></trkpt>
      <trkpt lat="38.713449" lon="-77.216497"></trkpt>
      <trkpt lat="38.712276" lon="-77.217824"></trkpt>
      <trkpt lat="38.711197" lon="-77.218781"></trkpt>
      <trkpt lat="38.710332" lon="-77.219328"></trkpt>
      <trkpt lat="38.709376" lon="-77.219747"></trkpt>
      <trkpt lat="38.689178" lon="-77.226287"></trkpt>
      <trkpt lat="38.68661" lon="-77.226978"></trkpt>
      <trkpt lat="38.677578" lon="-77.228762"></trkpt>
      <trkpt lat="38.67662" lon="-77.229045"></trkpt>
      <trkpt lat="38.675657" lon="-77.2295"></trkpt>
      <trkpt lat="38.674322" lon="-77.230474"></trkpt>
      <trkpt lat="38.673198" lon="-77.231716"></trkpt>
      <trkpt lat="38.666376" lon="-77.241738"></trkpt>
      <trkpt lat="38.664751" lon="-77.243805"></trkpt>
      <trkpt lat="38.662627" lon="-77.245737"></trkpt>
      <trkpt lat="38.66004" lon="-77.247612"></trkpt>
      <trkpt lat="38.657392" lon="-77.249093"></trkpt>
      <trkpt lat="38.654423" lon="-77.25026"></trkpt>
      <trkpt lat="38.651601" lon="-77.250972"></trkpt>
      <trkpt lat="38.648773" lon="-77.251299"></trkpt>
      <trkpt lat="38.624177" lon="-77.251658"></trkpt>
      <trkpt lat="38.61086" lon="-77.253823"></trkpt>
      <trkpt lat="38.594194" lon="-77.25844"></trkpt>
      <trkpt lat="38.59237" lon="-77.259076"></trkpt>
      <trkpt lat="38.591013" lon="-77.259741"></trkpt>
      <trkpt lat="38.58991" lon="-77.260427"></trkpt>
      <trkpt lat="38.583664" lon="-77.264974"></trkpt>
      <trkpt lat="38.582342" lon="-77.265619"></trkpt>
      <trkpt lat="38.580623" lon="-77.266015"></trkpt>
      <trkpt lat="38.579163" lon="-77.265961"></trkpt>
      <trkpt lat="38.577907" lon="-77.265635"></trkpt>
      <trkpt lat="38.572027" lon="-77.263227"></trkpt>
      <trkpt lat="38.567006" lon="-77.262492"></trkpt>
      <trkpt lat="38.563668" lon="-77.262264"></trkpt>
      <trkpt lat="38.562377" lon="-77.262298"></trkpt>
      <trkpt lat="38.560758" lon="-77.262722"></trkpt>
      <trkpt lat="38.559681" lon="-77.263271"></trkpt>
      <trkpt lat="38.558523" lon="-77.264159"></trkpt>
      <trkpt lat="38.557739" lon="-77.264995"></trkpt>
      <trkpt lat="38.552274" lon="-77.273109"></trkpt>
      <trkpt lat="38.550697" lon="-77.274952"></trkpt>
      <trkpt lat="38.549174" lon="-77.276384"></trkpt>
      <trkpt lat="38.547404" lon="-77.277705"></trkpt>
      <trkpt lat="38.545853" lon="-77.278616"></trkpt>
      <trkpt lat="38.532252" lon="-77.284968"></trkpt>
      <trkpt lat="38.531027" lon="-77.285657"></trkpt>
      <trkpt lat="38.529643" lon="-77.286631"></trkpt>
      <trkpt lat="38.526539" lon="-77.289397"></trkpt>
      <trkpt lat="38.520777" lon="-77.294038"></trkpt>
      <trkpt lat="38.519574" lon="-77.295129"></trkpt>
      <trkpt lat="38.518099" lon="-77.296809"></trkpt>
      <trkpt lat="38.511353" lon="-77.305512"></trkpt>
      <trkpt lat="38.509709" lon="-77.307137"></trkpt>
      <trkpt lat="38.508538" lon="-77.307998"></trkpt>
      <trkpt lat="38.507116" lon="-77.308677"></trkpt>
      <trkpt lat="38.483648" lon="-77.314947"></trkpt>
      <trkpt lat="38.481289" lon="-77.316093"></trkpt>
      <trkpt lat="38.475924" lon="-77.319672"></trkpt>
      <trkpt lat="38.473881" lon="-77.320789"></trkpt>
      <trkpt lat="38.471829" lon="-77.321705"></trkpt>
      <trkpt lat="38.470141" lon="-77.322313"></trkpt>
      <trkpt lat="38.448684" lon="-77.328538"></trkpt>
      <trkpt lat="38.447308" lon="-77.329239"></trkpt>
      <trkpt lat="38.445447" lon="-77.330629"></trkpt>
      <trkpt lat="38.443813" lon="-77.332251"></trkpt>
      <trkpt lat="38.419486" lon="-77.358889"></trkpt>
      <trkpt lat="38.418017" lon="-77.360426"></trkpt>
      <trkpt lat="38.417228" lon="-77.361071"></trkpt>
      <trkpt lat="38.416348" lon="-77.361711"></trkpt>
      <trkpt lat="38.415079" lon="-77.362409"></trkpt>
      <trkpt lat="38.413717" lon="-77.362891"></trkpt>
      <trkpt lat="38.40536" lon="-77.364372"></trkpt>
      <trkpt lat="38.403805" lon="-77.365069"></trkpt>
      <trkpt lat="38.391737" lon="-77.372719"></trkpt>
      <trkpt lat="38.390003" lon="-77.373951"></trkpt>
      <trkpt lat="38.38905" lon="-77.375018"></trkpt>
      <trkpt lat="38.388042" lon="-77.376897"></trkpt>
      <trkpt lat="38.387552" lon="-77.378694"></trkpt>
      <trkpt lat="38.387121" lon="-77.38278"></trkpt>
      <trkpt lat="38.386835" lon="-77.384477"></trkpt>
      <trkpt lat="38.386128" lon="-77.386601"></trkpt>
      <trkpt lat="38.385589" lon="-77.387757"></trkpt>
      <trkpt lat="38.384664" lon="-77.389267"></trkpt>
      <trkpt lat="38.383983" lon="-77.390145"></trkpt>
      <trkpt lat="38.379504" lon="-77.3955"></trkpt>
      <trkpt lat="38.37851" lon="-77.39636"></trkpt>
      <trkpt lat="38.377301" lon="-77.397083"></trkpt>
      <trkpt lat="38.363636" lon="-77.403165"></trkpt>
      <trkpt lat="38.36222" lon="-77.4041"></trkpt>
      <trkpt lat="38.352489" lon="-77.411436"></trkpt>
      <trkpt lat="38.351315" lon="-77.412828"></trkpt>
      <trkpt lat="38.350297" lon="-77.414751"></trkpt>
      <trkpt lat="38.349861" lon="-77.41608"></trkpt>
      <trkpt lat="38.349484" lon="-77.417892"></trkpt>
      <trkpt lat="38.346551" lon="-77.441703"></trkpt>
      <trkpt lat="38.346137" lon="-77.443113"></trkpt>
      <trkpt lat="38.345395" lon="-77.444727"></trkpt>
      <trkpt lat="38.344287" lon="-77.446301"></trkpt>
      <trkpt lat="38.343194" lon="-77.447352"></trkpt>
      <trkpt lat="38.341836" lon="-77.448222"></trkpt>
      <trkpt lat="38.340945" lon="-77.44858"></trkpt>
      <trkpt lat="38.339922" lon="-77.448821"></trkpt>
      <trkpt lat="38.338886" lon="-77.448883"></trkpt>
      <trkpt lat="38.334526" lon="-77.448758"></trkpt>
      <trkpt lat="38.332465" lon="-77.448896"></trkpt>
      <trkpt lat="38.329874" lon="-77.449317"></trkpt>
      <trkpt lat="38.326112" lon="-77.45026"></trkpt>
      <trkpt lat="38.324662" lon="-77.450406"></trkpt>
      <trkpt lat="38.323279" lon="-77.450235"></trkpt>
      <trkpt lat="38.308332" lon="-77.446698"></trkpt>
      <trkpt lat="38.30687" lon="-77.446545"></trkpt>
      <trkpt lat="38.305408" lon="-77.446743"></trkpt>
      <trkpt lat="38.304004" lon="-77.447286"></trkpt>
      <trkpt lat="38.303043" lon="-77.447884"></trkpt>
      <trkpt lat="38.302032" lon="-77.448784"></trkpt>
      <trkpt lat="38.301382" lon="-77.449569"></trkpt>
      <trkpt lat="38.300421" lon="-77.451315"></trkpt>
      <trkpt lat="38.297605" lon="-77.45845"></trkpt>
      <trkpt lat="38.296829" lon="-77.459525"></trkpt>
      <trkpt lat="38.296004" lon="-77.460241"></trkpt>
      <trkpt lat="38.295183" lon="-77.460705"></trkpt>
      <trkpt lat="38.294532" lon="-77.46092"></trkpt>
      <trkpt lat="38.291501" lon="-77.461288"></trkpt>
      <trkpt lat="38.288738" lon="-77.461461"></trkpt>
      <trkpt lat="38.277411" lon="-77.460401"></trkpt>
      <trkpt lat="38.276137" lon="-77.459972"></trkpt>
      <trkpt lat="38.275335" lon="-77.45957"></trkpt>
      <trkpt lat="38.264783" lon="-77.453878"></trkpt>
      <trkpt lat="38.262219" lon="-77.452336"></trkpt>
      <trkpt lat="38.261061" lon="-77.451183"></trkpt>
      <trkpt lat="38.252896" lon="-77.439277"></trkpt>
      <trkpt lat="38.251256" lon="-77.43697"></trkpt>
      <trkpt lat="38.25042" lon="-77.435999"></trkpt>
      <trkpt lat="38.249767" lon="-77.435409"></trkpt>
      <trkpt lat="38.248594" lon="-77.434631"></trkpt>
      <trkpt lat="38.247433" lon="-77.434159"></trkpt>
      <trkpt lat="38.245881" lon="-77.433877"></trkpt>
      <trkpt lat="38.244364" lon="-77.433987"></trkpt>
      <trkpt lat="38.243374" lon="-77.434253"></trkpt>
      <trkpt lat="38.242581" lon="-77.434606"></trkpt>
      <trkpt lat="38.231149" lon="-77.442057"></trkpt>
      <trkpt lat="38.229776" lon="-77.442698"></trkpt>
      <trkpt lat="38.22816" lon="-77.443027"></trkpt>
      <trkpt lat="38.226697" lon="-77.442961"></trkpt>
      <trkpt lat="38.225482" lon="-77.442649"></trkpt>
      <trkpt lat="38.208546" lon="-77.43655"></trkpt>
      <trkpt lat="38.206883" lon="-77.436254"></trkpt>
      <trkpt lat="38.20507" lon="-77.436179"></trkpt>
      <trkpt lat="38.203546" lon="-77.436306"></trkpt>
      <trkpt lat="38.202161" lon="-77.436607"></trkpt>
      <trkpt lat="38.199616" lon="-77.437598"></trkpt>
      <trkpt lat="38.193535" lon="-77.441184"></trkpt>
      <trkpt lat="38.192751" lon="-77.441856"></trkpt>
      <trkpt lat="38.191564" lon="-77.443304"></trkpt>
      <trkpt lat="38.188354" lon="-77.449095"></trkpt>
      <trkpt lat="38.187434" lon="-77.450292"></trkpt>
      <trkpt lat="38.186724" lon="-77.450988"></trkpt>
      <trkpt lat="38.185789" lon="-77.451666"></trkpt>
      <trkpt lat="38.184795" lon="-77.45221"></trkpt>
      <trkpt lat="38.18131" lon="-77.453629"></trkpt>
      <trkpt lat="38.180505" lon="-77.454055"></trkpt>
      <trkpt lat="38.176228" lon="-77.457513"></trkpt>
      <trkpt lat="38.175545" lon="-77.457926"></trkpt>
      <trkpt lat="38.174035" lon="-77.458547"></trkpt>
      <trkpt lat="38.173132" lon="-77.458726"></trkpt>
      <trkpt lat="38.172047" lon="-77.458769"></trkpt>
      <trkpt lat="38.166369" lon="-77.458246"></trkpt>
      <trkpt lat="38.164647" lon="-77.457943"></trkpt>
      <trkpt lat="38.163757" lon="-77.457589"></trkpt>
      <trkpt lat="38.160796" lon="-77.455791"></trkpt>
      <trkpt lat="38.159506" lon="-77.454848"></trkpt>
      <trkpt lat="38.157817" lon="-77.45325"></trkpt>
      <trkpt lat="38.127253" lon="-77.420377"></trkpt>
      <trkpt lat="38.125834" lon="-77.418992"></trkpt>
      <trkpt lat="38.123581" lon="-77.417091"></trkpt>
      <trkpt lat="38.081006" lon="-77.383581"></trkpt>
      <trkpt lat="38.079328" lon="-77.382304"></trkpt>
      <trkpt lat="38.077215" lon="-77.381104"></trkpt>
      <trkpt lat="38.065664" lon="-77.376871"></trkpt>
      <trkpt lat="38.064297" lon="-77.376575"></trkpt>
      <trkpt lat="38.058807" lon="-77.375828"></trkpt>
      <trkpt lat="38.056407" lon="-77.375714"></trkpt>
      <trkpt lat="38.040879" lon="-77.376758"></trkpt>
      <trkpt lat="38.038924" lon="-77.376784"></trkpt>
      <trkpt lat="38.001691" lon="-77.371392"></trkpt>
      <trkpt lat="38.000004" lon="-77.371026"></trkpt>
      <trkpt lat="37.998347" lon="-77.37044"></trkpt>
      <trkpt lat="37.983077" lon="-77.364076"></trkpt>
      <trkpt lat="37.981596" lon="-77.363575"></trkpt>
      <trkpt lat="37.980128" lon="-77.363393"></trkpt>
      <trkpt lat="37.964677" lon="-77.362607"></trkpt>
      <trkpt lat="37.963135" lon="-77.362878"></trkpt>
      <trkpt lat="37.961828" lon="-77.36345"></trkpt>
      <trkpt lat="37.960836" lon="-77.364108"></trkpt>
      <trkpt lat="37.959692" lon="-77.365216"></trkpt>
      <trkpt lat="37.958647" lon="-77.366707"></trkpt>
      <trkpt lat="37.957987" lon="-77.368062"></trkpt>
      <trkpt lat="37.957488" lon="-77.369628"></trkpt>
      <trkpt lat="37.95719" lon="-77.371553"></trkpt>
      <trkpt lat="37.955314" lon="-77.39593"></trkpt>
      <trkpt lat="37.955352" lon="-77.399116"></trkpt>
      <trkpt lat="37.955598" lon="-77.401243"></trkpt>
      <trkpt lat="37.956029" lon="-77.40333"></trkpt>
      <trkpt lat="37.959859" lon="-77.415657"></trkpt>
      <trkpt lat="37.960154" lon="-77.417462"></trkpt>
      <trkpt lat="37.960195" lon="-77.418874"></trkpt>
      <trkpt lat="37.959677" lon="-77.427322"></trkpt>
      <trkpt lat="37.959487" lon="-77.428524"></trkpt>
      <trkpt lat="37.958421" lon="-77.431847"></trkpt>
      <trkpt lat="37.95693" lon="-77.435658"></trkpt>
      <trkpt lat="37.956178" lon="-77.437311"></trkpt>
      <trkpt lat="37.955071" lon="-77.438939"></trkpt>
      <trkpt lat="37.953798" lon="-77.440167"></trkpt>
      <trkpt lat="37.952407" lon="-77.441004"></trkpt>
      <trkpt lat="37.944183" lon="-77.444646"></trkpt>
      <trkpt lat="37.934805" lon="-77.447179"></trkpt>
      <trkpt lat="37.933762" lon="-77.447616"></trkpt>
      <trkpt lat="37.9327" lon="-77.448294"></trkpt>
      <trkpt lat="37.931658" lon="-77.449298"></trkpt>
      <trkpt lat="37.930375" lon="-77.451097"></trkpt>
      <trkpt lat="37.927014" lon="-77.458948"></trkpt>
      <trkpt lat="37.923356" lon="-77.464403"></trkpt>
      <trkpt lat="37.922147" lon="-77.465962"></trkpt>
      <trkpt lat="37.92111" lon="-77.467005"></trkpt>
      <trkpt lat="37.91986" lon="-77.4679"></trkpt>
      <trkpt lat="37.918496" lon="-77.468612"></trkpt>
      <trkpt lat="37.917415" lon="-77.46899"></trkpt>
      <trkpt lat="37.915905" lon="-77.469242"></trkpt>
      <trkpt lat="37.914994" lon="-77.469283"></trkpt>
      <trkpt lat="37.913172" lon="-77.469042"></trkpt>
      <trkpt lat="37.883902" lon="-77.460646"></trkpt>
      <trkpt lat="37.881517" lon="-77.460093"></trkpt>
      <trkpt lat="37.838928" lon="-77.45644"></trkpt>
      <trkpt lat="37.837342" lon="-77.456411"></trkpt>
      <trkpt lat="37.836071" lon="-77.456534"></trkpt>
      <trkpt lat="37.834802" lon="-77.456786"></trkpt>
      <trkpt lat="37.833291" lon="-77.457258"></trkpt>
      <trkpt lat="37.823997" lon="-77.46087"></trkpt>
      <trkpt lat="37.795072" lon="-77.470935"></trkpt>
      <trkpt lat="37.773128" lon="-77.476946"></trkpt>
      <trkpt lat="37.697622" lon="-77.500179"></trkpt>
      <trkpt lat="37.695277" lon="-77.500669"></trkpt>
      <trkpt lat="37.647277" lon="-77.507392"></trkpt>
      <trkpt lat="37.645657" lon="-77.507566"></trkpt>
      <trkpt lat="37.644226" lon="-77.507555"></trkpt>
      <trkpt lat="37.641826" lon="-77.507164"></trkpt>
      <trkpt lat="37.639716" lon="-77.506412"></trkpt>
      <trkpt lat="37.62011" lon="-77.497568"></trkpt>
      <trkpt lat="37.599723" lon="-77.488153"></trkpt>
      <trkpt lat="37.597768" lon="-77.487041"></trkpt>
      <trkpt lat="37.59453" lon="-77.484946"></trkpt>
      <trkpt lat="37.589391" lon="-77.481244"></trkpt>
      <trkpt lat="37.585063" lon="-77.478845"></trkpt>
      <trkpt lat="37.583312" lon="-77.477559"></trkpt>
      <trkpt lat="37.578456" lon="-77.473363"></trkpt>
      <trkpt lat="37.577879" lon="-77.472964"></trkpt>
      <trkpt lat="37.57702" lon="-77.472657"></trkpt>
      <trkpt lat="37.576213" lon="-77.472584"></trkpt>
      <trkpt lat="37.575464" lon="-77.472727"></trkpt>
      <trkpt lat="37.574672" lon="-77.473109"></trkpt>
      <trkpt lat="37.574098" lon="-77.473562"></trkpt>
      <trkpt lat="37.56077" lon="-77.487822"></trkpt>
      <trkpt lat="37.559259" lon="-77.48904"></trkpt>
      <trkpt lat="37.558477" lon="-77.489448"></trkpt>
      <trkpt lat="37.557322" lon="-77.489835"></trkpt>
      <trkpt lat="37.548293" lon="-77.491392"></trkpt>
      <trkpt lat="37.54594" lon="-77.491353"></trkpt>
      <trkpt lat="37.54203" lon="-77.490536"></trkpt>
      <trkpt lat="37.54101" lon="-77.490642"></trkpt>
      <trkpt lat="37.539776" lon="-77.491291"></trkpt>
      <trkpt lat="37.532007" lon="-77.49669"></trkpt>
      <trkpt lat="37.530989" lon="-77.497172"></trkpt>
      <trkpt lat="37.52974" lon="-77.497332"></trkpt>
      <trkpt lat="37.527743" lon="-77.49686"></trkpt>
      <trkpt lat="37.513102" lon="-77.492508"></trkpt>
      <trkpt lat="37.512384" lon="-77.49225"></trkpt>
      <trkpt lat="37.511544" lon="-77.491768"></trkpt>
      <trkpt lat="37.51054" lon="-77.490836"></trkpt>
      <trkpt lat="37.49554" lon="-77.474494"></trkpt>
      <trkpt lat="37.494126" lon="-77.473108"></trkpt>
      <trkpt lat="37.463314" lon="-77.45101"></trkpt>
      <trkpt lat="37.462124" lon="-77.450428"></trkpt>
      <trkpt lat="37.461105" lon="-77.450243"></trkpt>
      <trkpt lat="37.459842" lon="-77.450324"></trkpt>
      <trkpt lat="37.44433" lon="-77.452972"></trkpt>
      <trkpt lat="37.439632" lon="-77.453393"></trkpt>
      <trkpt lat="37.376865" lon="-77.454336"></trkpt>
      <trkpt lat="37.375126" lon="-77.454213"></trkpt>
      <trkpt lat="37.37354" lon="-77.453894"></trkpt>
      <trkpt lat="37.371624" lon="-77.45322"></trkpt>
      <trkpt lat="37.369361" lon="-77.451951"></trkpt>
      <trkpt lat="37.358164" lon="-77.444112"></trkpt>
      <trkpt lat="37.356222" lon="-77.44249"></trkpt>
      <trkpt lat="37.353954" lon="-77.439915"></trkpt>
      <trkpt lat="37.343595" lon="-77.42523"></trkpt>
      <trkpt lat="37.34233" lon="-77.42396"></trkpt>
      <trkpt lat="37.318228" lon="-77.406662"></trkpt>
      <trkpt lat="37.313512" lon="-77.403544"></trkpt>
      <trkpt lat="37.312288" lon="-77.402965"></trkpt>
      <trkpt lat="37.311114" lon="-77.402631"></trkpt>
      <trkpt lat="37.3102" lon="-77.402505"></trkpt>
      <trkpt lat="37.309024" lon="-77.402504"></trkpt>
      <trkpt lat="37.277884" lon="-77.405928"></trkpt>
      <trkpt lat="37.275278" lon="-77.406081"></trkpt>
      <trkpt lat="37.273005" lon="-77.406386"></trkpt>
      <trkpt lat="37.271675" lon="-77.406756"></trkpt>
      <trkpt lat="37.270778" lon="-77.407262"></trkpt>
      <trkpt lat="37.269714" lon="-77.408217"></trkpt>
      <trkpt lat="37.26437" lon="-77.415148"></trkpt>
      <trkpt lat="37.263686" lon="-77.415908"></trkpt>
      <trkpt lat="37.262973" lon="-77.416491"></trkpt>
      <trkpt lat="37.233995" lon="-77.433787"></trkpt>
      <trkpt lat="37.232522" lon="-77.434436"></trkpt>
      <trkpt lat="37.231065" lon="-77.434652"></trkpt>
      <trkpt lat="37.229693" lon="-77.434488"></trkpt>
      <trkpt lat="37.228466" lon="-77.43402"></trkpt>
      <trkpt lat="37.202688" lon="-77.420637"></trkpt>
      <trkpt lat="37.200907" lon="-77.419994"></trkpt>
      <trkpt lat="37.1998" lon="-77.419906"></trkpt>
      <trkpt lat="37.198744" lon="-77.419986"></trkpt>
      <trkpt lat="37.187822" lon="-77.421783"></trkpt>
      <trkpt lat="37.186349" lon="-77.421829"></trkpt>
      <trkpt lat="37.18228" lon="-77.421304"></trkpt>
      <trkpt lat="37.031404" lon="-77.394232"></trkpt>
      <trkpt lat="37.019543" lon="-77.393118"></trkpt>
      <trkpt lat="37.015998" lon="-77.393157"></trkpt>
      <trkpt lat="37.013176" lon="-77.393547"></trkpt>
      <trkpt lat="37.010357" lon="-77.394265"></trkpt>
      <trkpt lat="36.984562" lon="-77.402741"></trkpt>
      <trkpt lat="36.982722" lon="-77.403232"></trkpt>
      <trkpt lat="36.980016" lon="-77.403667"></trkpt>
      <trkpt lat="36.9765" lon="-77.403783"></trkpt>
      <trkpt lat="36.940885" lon="-77.401159"></trkpt>
      <trkpt lat="36.938007" lon="-77.401303"></trkpt>
      <trkpt lat="36.935236" lon="-77.401767"></trkpt>
      <trkpt lat="36.9327" lon="-77.402471"></trkpt>
      <trkpt lat="36.93022" lon="-77.403483"></trkpt>
      <trkpt lat="36.835634" lon="-77.447375"></trkpt>
      <trkpt lat="36.833501" lon="-77.448836"></trkpt>
      <trkpt lat="36.832462" lon="-77.449759"></trkpt>
      <trkpt lat="36.831302" lon="-77.451007"></trkpt>
      <trkpt lat="36.830061" lon="-77.452646"></trkpt>
      <trkpt lat="36.8263" lon="-77.458601"></trkpt>
      <trkpt lat="36.824691" lon="-77.460568"></trkpt>
      <trkpt lat="36.82267" lon="-77.462373"></trkpt>
      <trkpt lat="36.821361" lon="-77.463255"></trkpt>
      <trkpt lat="36.820144" lon="-77.463908"></trkpt>
      <trkpt lat="36.809975" lon="-77.468438"></trkpt>
      <trkpt lat="36.808579" lon="-77.468868"></trkpt>
      <trkpt lat="36.786168" lon="-77.471001"></trkpt>
      <trkpt lat="36.782974" lon="-77.47164"></trkpt>
      <trkpt lat="36.780977" lon="-77.472247"></trkpt>
      <trkpt lat="36.778923" lon="-77.473058"></trkpt>
      <trkpt lat="36.770176" lon="-77.477064"></trkpt>
      <trkpt lat="36.767918" lon="-77.478543"></trkpt>
      <trkpt lat="36.730975" lon="-77.508608"></trkpt>
      <trkpt lat="36.698648" lon="-77.531987"></trkpt>
      <trkpt lat="36.685769" lon="-77.541639"></trkpt>
      <trkpt lat="36.683169" lon="-77.543459"></trkpt>
      <trkpt lat="36.681441" lon="-77.544507"></trkpt>
      <trkpt lat="36.679481" lon="-77.545495"></trkpt>
      <trkpt lat="36.676842" lon="-77.546547"></trkpt>
      <trkpt lat="36.645427" lon="-77.55664"></trkpt>
      <trkpt lat="36.642466" lon="-77.557358"></trkpt>
      <trkpt lat="36.640494" lon="-77.557644"></trkpt>
      <trkpt lat="36.638691" lon="-77.557766"></trkpt>
      <trkpt lat="36.634896" lon="-77.5576"></trkpt>
      <trkpt lat="36.631681" lon="-77.557014"></trkpt>
      <trkpt lat="36.629306" lon="-77.556315"></trkpt>
      <trkpt lat="36.626359" lon="-77.555084"></trkpt>
      <trkpt lat="36.621762" lon="-77.5528"></trkpt>
      <trkpt lat="36.605284" lon="-77.543713"></trkpt>
      <trkpt lat="36.602731" lon="-77.542508"></trkpt>
      <trkpt lat="36.600557" lon="-77.541722"></trkpt>
      <trkpt lat="36.598686" lon="-77.54121"></trkpt>
      <trkpt lat="36.59658" lon="-77.540808"></trkpt>
      <trkpt lat="36.594642" lon="-77.540593"></trkpt>
      <trkpt lat="36.592545" lon="-77.540529"></trkpt>
      <trkpt lat="36.590025" lon="-77.540684"></trkpt>
      <trkpt lat="36.580573" lon="-77.541975"></trkpt>
      <trkpt lat="36.578744" lon="-77.541967"></trkpt>
      <trkpt lat="36.576893" lon="-77.541685"></trkpt>
      <trkpt lat="36.574815" lon="-77.541021"></trkpt>
      <trkpt lat="36.549532" lon="-77.530844"></trkpt>
      <trkpt lat="36.54814" lon="-77.530424"></trkpt>
      <trkpt lat="36.546275" lon="-77.530108"></trkpt>
      <trkpt lat="36.545052" lon="-77.530045"></trkpt>
      <trkpt lat="36.543496" lon="-77.530139"></trkpt>
      <trkpt lat="36.541931" lon="-77.530428"></trkpt>
      <trkpt lat="36.539549" lon="-77.531127"></trkpt>
      <trkpt lat="36.48166" lon="-77.548993"></trkpt>
      <trkpt lat="36.464129" lon="-77.554473"></trkpt>
      <trkpt lat="36.462842" lon="-77.554967"></trkpt>
      <trkpt lat="36.461389" lon="-77.5557"></trkpt>
      <trkpt lat="36.459296" lon="-77.557162"></trkpt>
      <trkpt lat="36.457138" lon="-77.559318"></trkpt>
      <trkpt lat="36.425265" lon="-77.601219"></trkpt>
      <trkpt lat="36.423767" lon="-77.602733"></trkpt>
      <trkpt lat="36.422195" lon="-77.603916"></trkpt>
      <trkpt lat="36.421156" lon="-77.604507"></trkpt>
      <trkpt lat="36.419078" lon="-77.605313"></trkpt>
      <trkpt lat="36.370271" lon="-77.616554"></trkpt>
      <trkpt lat="36.368481" lon="-77.616751"></trkpt>
      <trkpt lat="36.366983" lon="-77.616731"></trkpt>
      <trkpt lat="36.365624" lon="-77.61655"></trkpt>
      <trkpt lat="36.363708" lon="-77.616047"></trkpt>
      <trkpt lat="36.362217" lon="-77.615438"></trkpt>
      <trkpt lat="36.360627" lon="-77.614544"></trkpt>
      <trkpt lat="36.333895" lon="-77.59564"></trkpt>
      <trkpt lat="36.332728" lon="-77.594913"></trkpt>
      <trkpt lat="36.330778" lon="-77.594121"></trkpt>
      <trkpt lat="36.329427" lon="-77.593821"></trkpt>
      <trkpt lat="36.328255" lon="-77.593723"></trkpt>
      <trkpt lat="36.325002" lon="-77.593943"></trkpt>
      <trkpt lat="36.323605" lon="-77.594191"></trkpt>
      <trkpt lat="36.322139" lon="-77.594633"></trkpt>
      <trkpt lat="36.31688" lon="-77.596957"></trkpt>
      <trkpt lat="36.315587" lon="-77.597929"></trkpt>
      <trkpt lat="36.311289" lon="-77.601749"></trkpt>
      <trkpt lat="36.30978" lon="-77.602768"></trkpt>
      <trkpt lat="36.308808" lon="-77.603265"></trkpt>
      <trkpt lat="36.306639" lon="-77.604003"></trkpt>
      <trkpt lat="36.296934" lon="-77.605457"></trkpt>
      <trkpt lat="36.293652" lon="-77.606284"></trkpt>
      <trkpt lat="36.290947" lon="-77.607361"></trkpt>
      <trkpt lat="36.288621" lon="-77.608499"></trkpt>
      <trkpt lat="36.237689" lon="-77.6368"></trkpt>
      <trkpt lat="36.236288" lon="-77.637477"></trkpt>
      <trkpt lat="36.233988" lon="-77.638382"></trkpt>
      <trkpt lat="36.224202" lon="-77.641027"></trkpt>
      <trkpt lat="36.221281" lon="-77.641971"></trkpt>
      <trkpt lat="36.218535" lon="-77.643033"></trkpt>
      <trkpt lat="36.216092" lon="-77.644147"></trkpt>
      <trkpt lat="36.189867" lon="-77.657055"></trkpt>
      <trkpt lat="36.187779" lon="-77.658545"></trkpt>
      <trkpt lat="36.186141" lon="-77.660115"></trkpt>
      <trkpt lat="36.152145" lon="-77.699123"></trkpt>
      <trkpt lat="36.150644" lon="-77.700609"></trkpt>
      <trkpt lat="36.14942" lon="-77.701545"></trkpt>
      <trkpt lat="36.147952" lon="-77.702459"></trkpt>
      <trkpt lat="36.145843" lon="-77.703386"></trkpt>
      <trkpt lat="36.143097" lon="-77.704018"></trkpt>
      <trkpt lat="36.121939" lon="-77.705451"></trkpt>
      <trkpt lat="36.119876" lon="-77.705746"></trkpt>
      <trkpt lat="36.11682" lon="-77.706547"></trkpt>
      <trkpt lat="36.113611" lon="-77.707804"></trkpt>
      <trkpt lat="36.112091" lon="-77.708557"></trkpt>
      <trkpt lat="36.108914" lon="-77.710505"></trkpt>
      <trkpt lat="36.061604" lon="-77.741676"></trkpt>
      <trkpt lat="36.008916" lon="-77.770742"></trkpt>
      <trkpt lat="36.007159" lon="-77.771573"></trkpt>
      <trkpt lat="36.004507" lon="-77.772546"></trkpt>
      <trkpt lat="35.986498" lon="-77.777263"></trkpt>
      <trkpt lat="35.984039" lon="-77.778011"></trkpt>
      <trkpt lat="35.982671" lon="-77.778548"></trkpt>
      <trkpt lat="35.911157" lon="-77.808239"></trkpt>
      <trkpt lat="35.904313" lon="-77.8112"></trkpt>
      <trkpt lat="35.883872" lon="-77.8197"></trkpt>
      <trkpt lat="35.880018" lon="-77.821465"></trkpt>
      <trkpt lat="35.780396" lon="-77.876237"></trkpt>
      <trkpt lat="35.707239" lon="-77.916319"></trkpt>
      <trkpt lat="35.704288" lon="-77.918048"></trkpt>
      <trkpt lat="35.694904" lon="-77.92321"></trkpt>
      <trkpt lat="35.69358" lon="-77.92418"></trkpt>
      <trkpt lat="35.689019" lon="-77.92672"></trkpt>
      <trkpt lat="35.686812" lon="-77.927674"></trkpt>
      <trkpt lat="35.683076" lon="-77.929783"></trkpt>
      <trkpt lat="35.682058" lon="-77.930218"></trkpt>
      <trkpt lat="35.679226" lon="-77.931781"></trkpt>
      <trkpt lat="35.678094" lon="-77.932532"></trkpt>
      <trkpt lat="35.677176" lon="-77.933375"></trkpt>
      <trkpt lat="35.676248" lon="-77.934535"></trkpt>
      <trkpt lat="35.67571" lon="-77.935435"></trkpt>
      <trkpt lat="35.624763" lon="-78.059878"></trkpt>
      <trkpt lat="35.590535" lon="-78.130892"></trkpt>
      <trkpt lat="35.589771" lon="-78.13289"></trkpt>
      <trkpt lat="35.589415" lon="-78.13414"></trkpt>
      <trkpt lat="35.588886" lon="-78.136776"></trkpt>
      <trkpt lat="35.588186" lon="-78.147938"></trkpt>
      <trkpt lat="35.587556" lon="-78.150486"></trkpt>
      <trkpt lat="35.586661" lon="-78.152337"></trkpt>
      <trkpt lat="35.574328" lon="-78.17255"></trkpt>
      <trkpt lat="35.572154" lon="-78.176874"></trkpt>
      <trkpt lat="35.536364" lon="-78.272073"></trkpt>
      <trkpt lat="35.535393" lon="-78.274428"></trkpt>
      <trkpt lat="35.533134" lon="-78.279086"></trkpt>
      <trkpt lat="35.53298" lon="-78.279677"></trkpt>
      <trkpt lat="35.532971" lon="-78.280397"></trkpt>
      <trkpt lat="35.533238" lon="-78.281366"></trkpt>
      <trkpt lat="35.533672" lon="-78.282217"></trkpt>
      <trkpt lat="35.553035" lon="-78.317287"></trkpt>
      <trkpt lat="35.554431" lon="-78.318964"></trkpt>
      <trkpt lat="35.555906" lon="-78.320043"></trkpt>
      <trkpt lat="35.557136" lon="-78.320588"></trkpt>
      <trkpt lat="35.56066" lon="-78.32169"></trkpt>
      <trkpt lat="35.562243" lon="-78.322524"></trkpt>
      <trkpt lat="35.563366" lon="-78.323466"></trkpt>
      <trkpt lat="35.564555" lon="-78.324962"></trkpt>
      <trkpt lat="35.615903" lon="-78.408264"></trkpt>
      <trkpt lat="35.640423" lon="-78.447737"></trkpt>
      <trkpt lat="35.641547" lon="-78.449239"></trkpt>
      <trkpt lat="35.642824" lon="-78.450357"></trkpt>
      <trkpt lat="35.643641" lon="-78.450862"></trkpt>
      <trkpt lat="35.648159" lon="-78.452976"></trkpt>
      <trkpt lat="35.649414" lon="-78.453803"></trkpt>
      <trkpt lat="35.650098" lon="-78.45447"></trkpt>
      <trkpt lat="35.667807" lon="-78.476477"></trkpt>
      <trkpt lat="35.668644" lon="-78.477902"></trkpt>
      <trkpt lat="35.669287" lon="-78.479604"></trkpt>
      <trkpt lat="35.669581" lon="-78.480953"></trkpt>
      <trkpt lat="35.671886" lon="-78.499185"></trkpt>
      <trkpt lat="35.672085" lon="-78.500395"></trkpt>
      <trkpt lat="35.672589" lon="-78.502305"></trkpt>
      <trkpt lat="35.679879" lon="-78.521588"></trkpt>
      <trkpt lat="35.68039" lon="-78.522586"></trkpt>
      <trkpt lat="35.681174" lon="-78.523719"></trkpt>
      <trkpt lat="35.684372" lon="-78.52753"></trkpt>
      <trkpt lat="35.685223" lon="-78.528801"></trkpt>
      <trkpt lat="35.690075" lon="-78.539871"></trkpt>
      <trkpt lat="35.690639" lon="-78.542305"></trkpt>
      <trkpt lat="35.691225" lon="-78.550968"></trkpt>
      <trkpt lat="35.69167" lon="-78.552801"></trkpt>
      <trkpt lat="35.692415" lon="-78.554217"></trkpt>
      <trkpt lat="35.695816" lon="-78.55852"></trkpt>
      <trkpt lat="35.697009" lon="-78.56055"></trkpt>
      <trkpt lat="35.697935" lon="-78.562662"></trkpt>
      <trkpt lat="35.700623" lon="-78.571147"></trkpt>
      <trkpt lat="35.700898" lon="-78.572692"></trkpt>
      <trkpt lat="35.700811" lon="-78.574554"></trkpt>
      <trkpt lat="35.699038" lon="-78.582013"></trkpt>
      <trkpt lat="35.699027" lon="-78.583712"></trkpt>
      <trkpt lat="35.699254" lon="-78.584999"></trkpt>
      <trkpt lat="35.712676" lon="-78.619948"></trkpt>
      <trkpt lat="35.713803" lon="-78.622189"></trkpt>
      <trkpt lat="35.71475" lon="-78.623383"></trkpt>
      <trkpt lat="35.716032" lon="-78.624497"></trkpt>
      <trkpt lat="35.720433" lon="-78.626869"></trkpt>
      <trkpt lat="35.721631" lon="-78.627067"></trkpt>
      <trkpt lat="35.723452" lon="-78.62663"></trkpt>
      <trkpt lat="35.724668" lon="-78.626608"></trkpt>
      <trkpt lat="35.725457" lon="-78.626852"></trkpt>
      <trkpt lat="35.727882" lon="-78.62824"></trkpt>
      <trkpt lat="35.7303" lon="-78.630106"></trkpt>
      <trkpt lat="35.730933" lon="-78.630857"></trkpt>
      <trkpt lat="35.732149" lon="-78.632864"></trkpt>
      <trkpt lat="35.732952" lon="-78.633706"></trkpt>
      <trkpt lat="35.739987" lon="-78.638035"></trkpt>
      <trkpt lat="35.74057" lon="-78.638298"></trkpt>
      <trkpt lat="35.741933" lon="-78.63856"></trkpt>
      <trkpt lat="35.743355" lon="-78.638339"></trkpt>
      <trkpt lat="35.744425" lon="-78.637822"></trkpt>
      <trkpt lat="35.74892" lon="-78.635045"></trkpt>
      <trkpt lat="35.752167" lon="-78.634126"></trkpt>
      <trkpt lat="35.753737" lon="-78.633961"></trkpt>
      <trkpt lat="35.756606" lon="-78.634387"></trkpt>
      <trkpt lat="35.758042" lon="-78.634688"></trkpt>
      <trkpt lat="35.759134" lon="-78.635132"></trkpt>
      <trkpt lat="35.767556" lon="-78.639729"></trkpt>
      <trkpt lat="35.772965" lon="-78.643853"></trkpt>
  </trkseg></trk>
</gpx>
