<?xml version="1.0" encoding="UTF-8"?>
<gpx version="1.1" creator="yatutbuv" xmlns="http://www.topografix.com/GPX/1/1">
  <trk><name>2004Amsterdam -&gt; Koog aan de Zaan (11km)</name><trkseg>
      <trkpt lat="52.389105" lon="4.838675"></trkpt>
      <trkpt lat="52.389113" lon="4.82551"></trkpt>
      <trkpt lat="52.389205" lon="4.822948"></trkpt>
      <trkpt lat="52.389906" lon="4.817256"></trkpt>
      <trkpt lat="52.390516" lon="4.814309"></trkpt>
      <trkpt lat="52.391046" lon="4.812565"></trkpt>
      <trkpt lat="52.391822" lon="4.810597"></trkpt>
      <trkpt lat="52.392629" lon="4.808995"></trkpt>
      <trkpt lat="52.393633" lon="4.807402"></trkpt>
      <trkpt lat="52.394731" lon="4.806041"></trkpt>
      <trkpt lat="52.395942" lon="4.804879"></trkpt>
      <trkpt lat="52.3969" lon="4.804162"></trkpt>
      <trkpt lat="52.398243" lon="4.803438"></trkpt>
      <trkpt lat="52.399043" lon="4.803136"></trkpt>
      <trkpt lat="52.400496" lon="4.802832"></trkpt>
      <trkpt lat="52.404167" lon="4.802881"></trkpt>
      <trkpt lat="52.407988" lon="4.803234"></trkpt>
      <trkpt lat="52.409508" lon="4.803551"></trkpt>
      <trkpt lat="52.411467" lon="4.804159"></trkpt>
      <trkpt lat="52.413298" lon="4.804947"></trkpt>
      <trkpt lat="52.415438" lon="4.806158"></trkpt>
      <trkpt lat="52.427472" lon="4.814501"></trkpt>
      <trkpt lat="52.429661" lon="4.81537"></trkpt>
      <trkpt lat="52.431747" lon="4.815639"></trkpt>
      <trkpt lat="52.433008" lon="4.815549"></trkpt>
      <trkpt lat="52.434384" lon="4.815235"></trkpt>
      <trkpt lat="52.43746" lon="4.81391"></trkpt>
      <trkpt lat="52.445363" lon="4.809215"></trkpt>
      <trkpt lat="52.448919" lon="4.807358"></trkpt>
      <trkpt lat="52.452229" lon="4.806117"></trkpt>
      <trkpt lat="52.453734" lon="4.805869"></trkpt>
      <trkpt lat="52.469296" lon="4.805045"></trkpt>
  </trkseg></trk>
</gpx>
