<?xml version="1.0" encoding="UTF-8"?>
<gpx version="1.1" creator="yatutbuv" xmlns="http://www.topografix.com/GPX/1/1">
  <trk><name>2026 Warsaw -&gt; Krakow (339.2km)</name><trkseg>
      <trkpt lat="52.220193" lon="20.965067"></trkpt>
      <trkpt lat="52.217988" lon="20.955035"></trkpt>
      <trkpt lat="52.215971" lon="20.948615"></trkpt>
      <trkpt lat="52.214306" lon="20.940365"></trkpt>
      <trkpt lat="52.213438" lon="20.93713"></trkpt>
      <trkpt lat="52.208475" lon="20.921906"></trkpt>
      <trkpt lat="52.206629" lon="20.915879"></trkpt>
      <trkpt lat="52.203815" lon="20.907751"></trkpt>
      <trkpt lat="52.201357" lon="20.899933"></trkpt>
      <trkpt lat="52.182647" lon="20.84247"></trkpt>
      <trkpt lat="52.113773" lon="20.633425"></trkpt>
      <trkpt lat="52.108464" lon="20.618099"></trkpt>
      <trkpt lat="52.105624" lon="20.608814"></trkpt>
      <trkpt lat="52.087684" lon="20.554698"></trkpt>
      <trkpt lat="52.085958" lon="20.549181"></trkpt>
      <trkpt lat="52.08508" lon="20.545951"></trkpt>
      <trkpt lat="52.082661" lon="20.534226"></trkpt>
      <trkpt lat="52.081517" lon="20.530009"></trkpt>
      <trkpt lat="52.080642" lon="20.527488"></trkpt>
      <trkpt lat="52.079693" lon="20.525176"></trkpt>
      <trkpt lat="52.078666" lon="20.523027"></trkpt>
      <trkpt lat="52.077362" lon="20.520691"></trkpt>
      <trkpt lat="52.076289" lon="20.519032"></trkpt>
      <trkpt lat="52.074632" lon="20.516838"></trkpt>
      <trkpt lat="52.072024" lon="20.514112"></trkpt>
      <trkpt lat="52.070401" lon="20.512783"></trkpt>
      <trkpt lat="52.068479" lon="20.511522"></trkpt>
      <trkpt lat="52.066794" lon="20.510669"></trkpt>
      <trkpt lat="52.064868" lon="20.509918"></trkpt>
      <trkpt lat="52.031682" lon="20.498786"></trkpt>
      <trkpt lat="51.99246" lon="20.485808"></trkpt>
      <trkpt lat="51.989206" lon="20.484609"></trkpt>
      <trkpt lat="51.986654" lon="20.483337"></trkpt>
      <trkpt lat="51.984094" lon="20.481711"></trkpt>
      <trkpt lat="51.975329" lon="20.474896"></trkpt>
      <trkpt lat="51.973564" lon="20.473674"></trkpt>
      <trkpt lat="51.971877" lon="20.47267"></trkpt>
      <trkpt lat="51.95632" lon="20.464964"></trkpt>
      <trkpt lat="51.93464" lon="20.454474"></trkpt>
      <trkpt lat="51.931622" lon="20.453237"></trkpt>
      <trkpt lat="51.929219" lon="20.452561"></trkpt>
      <trkpt lat="51.926947" lon="20.452168"></trkpt>
      <trkpt lat="51.924303" lon="20.451995"></trkpt>
      <trkpt lat="51.878384" lon="20.451399"></trkpt>
      <trkpt lat="51.874839" lon="20.450831"></trkpt>
      <trkpt lat="51.841025" lon="20.443062"></trkpt>
      <trkpt lat="51.838319" lon="20.44256"></trkpt>
      <trkpt lat="51.795797" lon="20.439572"></trkpt>
      <trkpt lat="51.781111" lon="20.438481"></trkpt>
      <trkpt lat="51.779147" lon="20.438235"></trkpt>
      <trkpt lat="51.775587" lon="20.437431"></trkpt>
      <trkpt lat="51.77169" lon="20.436003"></trkpt>
      <trkpt lat="51.732456" lon="20.417143"></trkpt>
      <trkpt lat="51.728956" lon="20.415826"></trkpt>
      <trkpt lat="51.726138" lon="20.415183"></trkpt>
      <trkpt lat="51.724596" lon="20.414984"></trkpt>
      <trkpt lat="51.721801" lon="20.414822"></trkpt>
      <trkpt lat="51.671484" lon="20.412669"></trkpt>
      <trkpt lat="51.668632" lon="20.412472"></trkpt>
      <trkpt lat="51.66611" lon="20.41203"></trkpt>
      <trkpt lat="51.664337" lon="20.411549"></trkpt>
      <trkpt lat="51.655173" lon="20.40864"></trkpt>
      <trkpt lat="51.651301" lon="20.407571"></trkpt>
      <trkpt lat="51.643168" lon="20.404984"></trkpt>
      <trkpt lat="51.640459" lon="20.40396"></trkpt>
      <trkpt lat="51.634357" lon="20.402022"></trkpt>
      <trkpt lat="51.631752" lon="20.401311"></trkpt>
      <trkpt lat="51.629827" lon="20.400974"></trkpt>
      <trkpt lat="51.521292" lon="20.392107"></trkpt>
      <trkpt lat="51.518896" lon="20.391811"></trkpt>
      <trkpt lat="51.516951" lon="20.391391"></trkpt>
      <trkpt lat="51.515117" lon="20.390834"></trkpt>
      <trkpt lat="51.513313" lon="20.39013"></trkpt>
      <trkpt lat="51.510739" lon="20.388846"></trkpt>
      <trkpt lat="51.507413" lon="20.386661"></trkpt>
      <trkpt lat="51.490178" lon="20.373168"></trkpt>
      <trkpt lat="51.488071" lon="20.371363"></trkpt>
      <trkpt lat="51.486536" lon="20.369864"></trkpt>
      <trkpt lat="51.483617" lon="20.366507"></trkpt>
      <trkpt lat="51.482239" lon="20.364658"></trkpt>
      <trkpt lat="51.480522" lon="20.362076"></trkpt>
      <trkpt lat="51.439089" lon="20.295121"></trkpt>
      <trkpt lat="51.436617" lon="20.291628"></trkpt>
      <trkpt lat="51.433548" lon="20.28808"></trkpt>
      <trkpt lat="51.431208" lon="20.285858"></trkpt>
      <trkpt lat="51.429037" lon="20.284116"></trkpt>
      <trkpt lat="51.387759" lon="20.253965"></trkpt>
      <trkpt lat="51.385807" lon="20.252706"></trkpt>
      <trkpt lat="51.383544" lon="20.251482"></trkpt>
      <trkpt lat="51.377476" lon="20.248919"></trkpt>
      <trkpt lat="51.375385" lon="20.247925"></trkpt>
      <trkpt lat="51.373186" lon="20.246637"></trkpt>
      <trkpt lat="51.371339" lon="20.245357"></trkpt>
      <trkpt lat="51.368318" lon="20.242797"></trkpt>
      <trkpt lat="51.366205" lon="20.240635"></trkpt>
      <trkpt lat="51.348191" lon="20.219612"></trkpt>
      <trkpt lat="51.34486" lon="20.215776"></trkpt>
      <trkpt lat="51.342785" lon="20.213603"></trkpt>
      <trkpt lat="51.339672" lon="20.210925"></trkpt>
      <trkpt lat="51.305643" lon="20.183636"></trkpt>
      <trkpt lat="51.304259" lon="20.182428"></trkpt>
      <trkpt lat="51.301804" lon="20.17993"></trkpt>
      <trkpt lat="51.300316" lon="20.178179"></trkpt>
      <trkpt lat="51.298418" lon="20.175671"></trkpt>
      <trkpt lat="51.273957" lon="20.13807"></trkpt>
      <trkpt lat="51.271959" lon="20.135414"></trkpt>
      <trkpt lat="51.269606" lon="20.132724"></trkpt>
      <trkpt lat="51.266809" lon="20.130027"></trkpt>
      <trkpt lat="51.263855" lon="20.12777"></trkpt>
      <trkpt lat="51.247201" lon="20.116822"></trkpt>
      <trkpt lat="51.244282" lon="20.115118"></trkpt>
      <trkpt lat="51.241978" lon="20.114064"></trkpt>
      <trkpt lat="51.239198" lon="20.113178"></trkpt>
      <trkpt lat="51.236998" lon="20.112696"></trkpt>
      <trkpt lat="51.19664" lon="20.10723"></trkpt>
      <trkpt lat="51.194012" lon="20.10669"></trkpt>
      <trkpt lat="51.191085" lon="20.105782"></trkpt>
      <trkpt lat="51.186915" lon="20.103957"></trkpt>
      <trkpt lat="51.121892" lon="20.07126"></trkpt>
      <trkpt lat="51.119617" lon="20.070225"></trkpt>
      <trkpt lat="51.116658" lon="20.069281"></trkpt>
      <trkpt lat="51.114693" lon="20.068874"></trkpt>
      <trkpt lat="51.112511" lon="20.068647"></trkpt>
      <trkpt lat="51.105005" lon="20.06851"></trkpt>
      <trkpt lat="51.096579" lon="20.068527"></trkpt>
      <trkpt lat="51.093197" lon="20.06867"></trkpt>
      <trkpt lat="51.023746" lon="20.068869"></trkpt>
      <trkpt lat="51.021773" lon="20.068787"></trkpt>
      <trkpt lat="51.019509" lon="20.068498"></trkpt>
      <trkpt lat="51.016429" lon="20.067739"></trkpt>
      <trkpt lat="51.014199" lon="20.066937"></trkpt>
      <trkpt lat="50.965618" lon="20.047511"></trkpt>
      <trkpt lat="50.963018" lon="20.046439"></trkpt>
      <trkpt lat="50.961285" lon="20.045594"></trkpt>
      <trkpt lat="50.959388" lon="20.044514"></trkpt>
      <trkpt lat="50.957217" lon="20.043025"></trkpt>
      <trkpt lat="50.954775" lon="20.041035"></trkpt>
      <trkpt lat="50.953561" lon="20.03989"></trkpt>
      <trkpt lat="50.937487" lon="20.023746"></trkpt>
      <trkpt lat="50.933255" lon="20.019338"></trkpt>
      <trkpt lat="50.891363" lon="19.967303"></trkpt>
      <trkpt lat="50.889706" lon="19.965369"></trkpt>
      <trkpt lat="50.887547" lon="19.963185"></trkpt>
      <trkpt lat="50.884748" lon="19.96082"></trkpt>
      <trkpt lat="50.882551" lon="19.959301"></trkpt>
      <trkpt lat="50.880702" lon="19.958213"></trkpt>
      <trkpt lat="50.866515" lon="19.951121"></trkpt>
      <trkpt lat="50.860869" lon="19.948145"></trkpt>
      <trkpt lat="50.844889" lon="19.940275"></trkpt>
      <trkpt lat="50.841994" lon="19.938536"></trkpt>
      <trkpt lat="50.839403" lon="19.936583"></trkpt>
      <trkpt lat="50.786518" lon="19.892803"></trkpt>
      <trkpt lat="50.784275" lon="19.890578"></trkpt>
      <trkpt lat="50.781581" lon="19.887629"></trkpt>
      <trkpt lat="50.750384" lon="19.852952"></trkpt>
      <trkpt lat="50.748014" lon="19.849793"></trkpt>
      <trkpt lat="50.746327" lon="19.847168"></trkpt>
      <trkpt lat="50.744441" lon="19.843776"></trkpt>
      <trkpt lat="50.742354" lon="19.839275"></trkpt>
      <trkpt lat="50.714885" lon="19.766859"></trkpt>
      <trkpt lat="50.711749" lon="19.758872"></trkpt>
      <trkpt lat="50.709363" lon="19.754039"></trkpt>
      <trkpt lat="50.706905" lon="19.749989"></trkpt>
      <trkpt lat="50.704741" lon="19.747"></trkpt>
      <trkpt lat="50.703439" lon="19.745423"></trkpt>
      <trkpt lat="50.700477" lon="19.742354"></trkpt>
      <trkpt lat="50.691799" lon="19.734608"></trkpt>
      <trkpt lat="50.689629" lon="19.732929"></trkpt>
      <trkpt lat="50.688227" lon="19.732025"></trkpt>
      <trkpt lat="50.685388" lon="19.730459"></trkpt>
      <trkpt lat="50.682748" lon="19.729375"></trkpt>
      <trkpt lat="50.679158" lon="19.72842"></trkpt>
      <trkpt lat="50.676201" lon="19.72808"></trkpt>
      <trkpt lat="50.672644" lon="19.728173"></trkpt>
      <trkpt lat="50.670082" lon="19.728586"></trkpt>
      <trkpt lat="50.668339" lon="19.729036"></trkpt>
      <trkpt lat="50.642625" lon="19.737154"></trkpt>
      <trkpt lat="50.640025" lon="19.737802"></trkpt>
      <trkpt lat="50.637116" lon="19.738177"></trkpt>
      <trkpt lat="50.635121" lon="19.738219"></trkpt>
      <trkpt lat="50.632726" lon="19.73803"></trkpt>
      <trkpt lat="50.630347" lon="19.7376"></trkpt>
      <trkpt lat="50.627664" lon="19.736807"></trkpt>
      <trkpt lat="50.624381" lon="19.735374"></trkpt>
      <trkpt lat="50.621499" lon="19.733661"></trkpt>
      <trkpt lat="50.619282" lon="19.732023"></trkpt>
      <trkpt lat="50.617147" lon="19.730161"></trkpt>
      <trkpt lat="50.614179" lon="19.727032"></trkpt>
      <trkpt lat="50.611448" lon="19.72351"></trkpt>
      <trkpt lat="50.609441" lon="19.72039"></trkpt>
      <trkpt lat="50.606816" lon="19.715474"></trkpt>
      <trkpt lat="50.605008" lon="19.711287"></trkpt>
      <trkpt lat="50.603514" lon="19.707067"></trkpt>
      <trkpt lat="50.602186" lon="19.702401"></trkpt>
      <trkpt lat="50.593165" lon="19.661379"></trkpt>
      <trkpt lat="50.592375" lon="19.657047"></trkpt>
      <trkpt lat="50.591664" lon="19.651137"></trkpt>
      <trkpt lat="50.591341" lon="19.644537"></trkpt>
      <trkpt lat="50.591391" lon="19.640552"></trkpt>
      <trkpt lat="50.591617" lon="19.636602"></trkpt>
      <trkpt lat="50.59518" lon="19.600273"></trkpt>
      <trkpt lat="50.595433" lon="19.596631"></trkpt>
      <trkpt lat="50.59613" lon="19.574056"></trkpt>
      <trkpt lat="50.59612" lon="19.570613"></trkpt>
      <trkpt lat="50.595898" lon="19.565897"></trkpt>
      <trkpt lat="50.595483" lon="19.561704"></trkpt>
      <trkpt lat="50.594832" lon="19.557389"></trkpt>
      <trkpt lat="50.594043" lon="19.553457"></trkpt>
      <trkpt lat="50.592934" lon="19.549144"></trkpt>
      <trkpt lat="50.59093" lon="19.543173"></trkpt>
      <trkpt lat="50.586973" lon="19.533849"></trkpt>
      <trkpt lat="50.586053" lon="19.53143"></trkpt>
      <trkpt lat="50.584875" lon="19.527887"></trkpt>
      <trkpt lat="50.5837" lon="19.523564"></trkpt>
      <trkpt lat="50.582597" lon="19.5182"></trkpt>
      <trkpt lat="50.582062" lon="19.514611"></trkpt>
      <trkpt lat="50.581706" lon="19.511302"></trkpt>
      <trkpt lat="50.581419" lon="19.506641"></trkpt>
      <trkpt lat="50.581417" lon="19.50054"></trkpt>
      <trkpt lat="50.581716" lon="19.495612"></trkpt>
      <trkpt lat="50.586809" lon="19.442654"></trkpt>
      <trkpt lat="50.587037" lon="19.438163"></trkpt>
      <trkpt lat="50.587036" lon="19.43404"></trkpt>
      <trkpt lat="50.586768" lon="19.42877"></trkpt>
      <trkpt lat="50.586477" lon="19.425841"></trkpt>
      <trkpt lat="50.58578" lon="19.421068"></trkpt>
      <trkpt lat="50.584608" lon="19.415482"></trkpt>
      <trkpt lat="50.583379" lon="19.411096"></trkpt>
      <trkpt lat="50.581455" lon="19.405714"></trkpt>
      <trkpt lat="50.579678" lon="19.401711"></trkpt>
      <trkpt lat="50.57747" lon="19.397601"></trkpt>
      <trkpt lat="50.575543" lon="19.394577"></trkpt>
      <trkpt lat="50.570961" lon="19.388141"></trkpt>
      <trkpt lat="50.569336" lon="19.386179"></trkpt>
      <trkpt lat="50.567876" lon="19.384665"></trkpt>
      <trkpt lat="50.564919" lon="19.382101"></trkpt>
      <trkpt lat="50.56325" lon="19.380886"></trkpt>
      <trkpt lat="50.561248" lon="19.379648"></trkpt>
      <trkpt lat="50.557851" lon="19.378067"></trkpt>
      <trkpt lat="50.556146" lon="19.377498"></trkpt>
      <trkpt lat="50.553911" lon="19.376966"></trkpt>
      <trkpt lat="50.550588" lon="19.376624"></trkpt>
      <trkpt lat="50.548403" lon="19.376684"></trkpt>
      <trkpt lat="50.546748" lon="19.376879"></trkpt>
      <trkpt lat="50.543465" lon="19.377658"></trkpt>
      <trkpt lat="50.540633" lon="19.378759"></trkpt>
      <trkpt lat="50.522637" lon="19.387123"></trkpt>
      <trkpt lat="50.520611" lon="19.388226"></trkpt>
      <trkpt lat="50.518819" lon="19.389563"></trkpt>
      <trkpt lat="50.517427" lon="19.390888"></trkpt>
      <trkpt lat="50.515844" lon="19.392742"></trkpt>
      <trkpt lat="50.496214" lon="19.417704"></trkpt>
      <trkpt lat="50.494146" lon="19.420541"></trkpt>
      <trkpt lat="50.49329" lon="19.421396"></trkpt>
      <trkpt lat="50.492511" lon="19.421911"></trkpt>
      <trkpt lat="50.491945" lon="19.422156"></trkpt>
      <trkpt lat="50.490967" lon="19.422363"></trkpt>
      <trkpt lat="50.485028" lon="19.422566"></trkpt>
      <trkpt lat="50.476681" lon="19.423367"></trkpt>
      <trkpt lat="50.474448" lon="19.423723"></trkpt>
      <trkpt lat="50.463305" lon="19.424778"></trkpt>
      <trkpt lat="50.462412" lon="19.424789"></trkpt>
      <trkpt lat="50.461326" lon="19.42463"></trkpt>
      <trkpt lat="50.46014" lon="19.424222"></trkpt>
      <trkpt lat="50.459211" lon="19.423715"></trkpt>
      <trkpt lat="50.45816" lon="19.42292"></trkpt>
      <trkpt lat="50.45605" lon="19.420783"></trkpt>
      <trkpt lat="50.440755" lon="19.403562"></trkpt>
      <trkpt lat="50.421773" lon="19.382474"></trkpt>
      <trkpt lat="50.419663" lon="19.379748"></trkpt>
      <trkpt lat="50.419025" lon="19.378687"></trkpt>
      <trkpt lat="50.417677" lon="19.374998"></trkpt>
      <trkpt lat="50.417217" lon="19.372893"></trkpt>
      <trkpt lat="50.414746" lon="19.349152"></trkpt>
      <trkpt lat="50.414312" lon="19.346828"></trkpt>
      <trkpt lat="50.413728" lon="19.344871"></trkpt>
      <trkpt lat="50.412612" lon="19.342411"></trkpt>
      <trkpt lat="50.411353" lon="19.340538"></trkpt>
      <trkpt lat="50.394583" lon="19.323166"></trkpt>
      <trkpt lat="50.393358" lon="19.321575"></trkpt>
      <trkpt lat="50.392429" lon="19.31988"></trkpt>
      <trkpt lat="50.391528" lon="19.317517"></trkpt>
      <trkpt lat="50.390848" lon="19.314497"></trkpt>
      <trkpt lat="50.387978" lon="19.29183"></trkpt>
      <trkpt lat="50.387524" lon="19.289025"></trkpt>
      <trkpt lat="50.386822" lon="19.286178"></trkpt>
      <trkpt lat="50.386085" lon="19.283982"></trkpt>
      <trkpt lat="50.385039" lon="19.281577"></trkpt>
      <trkpt lat="50.384258" lon="19.280155"></trkpt>
      <trkpt lat="50.383177" lon="19.278565"></trkpt>
      <trkpt lat="50.38214" lon="19.277317"></trkpt>
      <trkpt lat="50.37983" lon="19.275157"></trkpt>
      <trkpt lat="50.377081" lon="19.27297"></trkpt>
      <trkpt lat="50.374147" lon="19.270908"></trkpt>
      <trkpt lat="50.368003" lon="19.266143"></trkpt>
      <trkpt lat="50.364713" lon="19.263516"></trkpt>
      <trkpt lat="50.362292" lon="19.261284"></trkpt>
      <trkpt lat="50.360973" lon="19.260247"></trkpt>
      <trkpt lat="50.359445" lon="19.259244"></trkpt>
      <trkpt lat="50.356331" lon="19.257696"></trkpt>
      <trkpt lat="50.354867" lon="19.25716"></trkpt>
      <trkpt lat="50.353358" lon="19.25685"></trkpt>
      <trkpt lat="50.35088" lon="19.256049"></trkpt>
      <trkpt lat="50.349945" lon="19.255856"></trkpt>
      <trkpt lat="50.348538" lon="19.255833"></trkpt>
      <trkpt lat="50.346014" lon="19.256121"></trkpt>
      <trkpt lat="50.343336" lon="19.256756"></trkpt>
      <trkpt lat="50.338195" lon="19.258495"></trkpt>
      <trkpt lat="50.333023" lon="19.261028"></trkpt>
      <trkpt lat="50.331612" lon="19.261975"></trkpt>
      <trkpt lat="50.330664" lon="19.262988"></trkpt>
      <trkpt lat="50.329749" lon="19.264319"></trkpt>
      <trkpt lat="50.328977" lon="19.265817"></trkpt>
      <trkpt lat="50.328363" lon="19.267463"></trkpt>
      <trkpt lat="50.327828" lon="19.269653"></trkpt>
      <trkpt lat="50.325522" lon="19.281558"></trkpt>
      <trkpt lat="50.324971" lon="19.283374"></trkpt>
      <trkpt lat="50.324211" lon="19.284857"></trkpt>
      <trkpt lat="50.323046" lon="19.286271"></trkpt>
      <trkpt lat="50.322021" lon="19.287"></trkpt>
      <trkpt lat="50.3209" lon="19.287399"></trkpt>
      <trkpt lat="50.316134" lon="19.287378"></trkpt>
      <trkpt lat="50.301071" lon="19.286966"></trkpt>
      <trkpt lat="50.289631" lon="19.284261"></trkpt>
      <trkpt lat="50.287792" lon="19.28358"></trkpt>
      <trkpt lat="50.286293" lon="19.282703"></trkpt>
      <trkpt lat="50.274295" lon="19.273936"></trkpt>
      <trkpt lat="50.269223" lon="19.270061"></trkpt>
      <trkpt lat="50.267667" lon="19.269103"></trkpt>
      <trkpt lat="50.266572" lon="19.268748"></trkpt>
      <trkpt lat="50.265192" lon="19.268538"></trkpt>
      <trkpt lat="50.264049" lon="19.268625"></trkpt>
      <trkpt lat="50.263187" lon="19.269048"></trkpt>
      <trkpt lat="50.260823" lon="19.270711"></trkpt>
      <trkpt lat="50.258696" lon="19.272604"></trkpt>
      <trkpt lat="50.25673" lon="19.275124"></trkpt>
      <trkpt lat="50.25532" lon="19.276029"></trkpt>
      <trkpt lat="50.25484" lon="19.276453"></trkpt>
      <trkpt lat="50.253951" lon="19.277803"></trkpt>
      <trkpt lat="50.250504" lon="19.285565"></trkpt>
      <trkpt lat="50.24853" lon="19.292648"></trkpt>
      <trkpt lat="50.247571" lon="19.294549"></trkpt>
      <trkpt lat="50.246779" lon="19.29751"></trkpt>
      <trkpt lat="50.246057" lon="19.301134"></trkpt>
      <trkpt lat="50.24575" lon="19.302118"></trkpt>
      <trkpt lat="50.24464" lon="19.303983"></trkpt>
      <trkpt lat="50.242898" lon="19.308009"></trkpt>
      <trkpt lat="50.241898" lon="19.309804"></trkpt>
      <trkpt lat="50.238798" lon="19.313886"></trkpt>
      <trkpt lat="50.232958" lon="19.321941"></trkpt>
      <trkpt lat="50.231655" lon="19.323386"></trkpt>
      <trkpt lat="50.230295" lon="19.324599"></trkpt>
      <trkpt lat="50.216665" lon="19.33463"></trkpt>
      <trkpt lat="50.213216" lon="19.336966"></trkpt>
      <trkpt lat="50.208104" lon="19.33998"></trkpt>
      <trkpt lat="50.205295" lon="19.341974"></trkpt>
      <trkpt lat="50.20344" lon="19.343747"></trkpt>
      <trkpt lat="50.201565" lon="19.346143"></trkpt>
      <trkpt lat="50.179399" lon="19.3828"></trkpt>
      <trkpt lat="50.166687" lon="19.410083"></trkpt>
      <trkpt lat="50.165711" lon="19.412733"></trkpt>
      <trkpt lat="50.1649" lon="19.415732"></trkpt>
      <trkpt lat="50.163625" lon="19.423463"></trkpt>
      <trkpt lat="50.162996" lon="19.426145"></trkpt>
      <trkpt lat="50.161945" lon="19.429102"></trkpt>
      <trkpt lat="50.157089" lon="19.444364"></trkpt>
      <trkpt lat="50.153877" lon="19.453922"></trkpt>
      <trkpt lat="50.152766" lon="19.458111"></trkpt>
      <trkpt lat="50.145099" lon="19.497443"></trkpt>
      <trkpt lat="50.141808" lon="19.509699"></trkpt>
      <trkpt lat="50.140936" lon="19.514087"></trkpt>
      <trkpt lat="50.140614" lon="19.517056"></trkpt>
      <trkpt lat="50.140495" lon="19.51959"></trkpt>
      <trkpt lat="50.140441" lon="19.544786"></trkpt>
      <trkpt lat="50.140147" lon="19.548104"></trkpt>
      <trkpt lat="50.139178" lon="19.554091"></trkpt>
      <trkpt lat="50.138504" lon="19.556993"></trkpt>
      <trkpt lat="50.137627" lon="19.559736"></trkpt>
      <trkpt lat="50.132765" lon="19.570968"></trkpt>
      <trkpt lat="50.132098" lon="19.572712"></trkpt>
      <trkpt lat="50.13104" lon="19.576377"></trkpt>
      <trkpt lat="50.130351" lon="19.580178"></trkpt>
      <trkpt lat="50.128362" lon="19.601943"></trkpt>
      <trkpt lat="50.12822" lon="19.60534"></trkpt>
      <trkpt lat="50.128327" lon="19.608376"></trkpt>
      <trkpt lat="50.128596" lon="19.610928"></trkpt>
      <trkpt lat="50.129028" lon="19.613457"></trkpt>
      <trkpt lat="50.130748" lon="19.621584"></trkpt>
      <trkpt lat="50.131138" lon="19.625223"></trkpt>
      <trkpt lat="50.131045" lon="19.632896"></trkpt>
      <trkpt lat="50.130457" lon="19.645509"></trkpt>
      <trkpt lat="50.130456" lon="19.648429"></trkpt>
      <trkpt lat="50.130799" lon="19.659121"></trkpt>
      <trkpt lat="50.130633" lon="19.662796"></trkpt>
      <trkpt lat="50.128862" lon="19.680596"></trkpt>
      <trkpt lat="50.128187" lon="19.685244"></trkpt>
      <trkpt lat="50.127472" lon="19.688058"></trkpt>
      <trkpt lat="50.126489" lon="19.690905"></trkpt>
      <trkpt lat="50.121678" lon="19.702014"></trkpt>
      <trkpt lat="50.120552" lon="19.705083"></trkpt>
      <trkpt lat="50.119844" lon="19.707762"></trkpt>
      <trkpt lat="50.119324" lon="19.710551"></trkpt>
      <trkpt lat="50.119022" lon="19.713204"></trkpt>
      <trkpt lat="50.118801" lon="19.716575"></trkpt>
      <trkpt lat="50.118789" lon="19.718285"></trkpt>
      <trkpt lat="50.118949" lon="19.720512"></trkpt>
      <trkpt lat="50.121496" lon="19.737124"></trkpt>
      <trkpt lat="50.121717" lon="19.739959"></trkpt>
      <trkpt lat="50.121717" lon="19.745235"></trkpt>
      <trkpt lat="50.121848" lon="19.748153"></trkpt>
      <trkpt lat="50.122079" lon="19.750301"></trkpt>
      <trkpt lat="50.123537" lon="19.759742"></trkpt>
      <trkpt lat="50.123809" lon="19.763253"></trkpt>
      <trkpt lat="50.123806" lon="19.766183"></trkpt>
      <trkpt lat="50.123529" lon="19.769665"></trkpt>
      <trkpt lat="50.121228" lon="19.786071"></trkpt>
      <trkpt lat="50.120478" lon="19.789504"></trkpt>
      <trkpt lat="50.118331" lon="19.796697"></trkpt>
      <trkpt lat="50.115362" lon="19.807456"></trkpt>
      <trkpt lat="50.114251" lon="19.810633"></trkpt>
      <trkpt lat="50.113249" lon="19.812834"></trkpt>
      <trkpt lat="50.112385" lon="19.81441"></trkpt>
      <trkpt lat="50.111102" lon="19.816358"></trkpt>
      <trkpt lat="50.098234" lon="19.833322"></trkpt>
      <trkpt lat="50.087169" lon="19.850779"></trkpt>
      <trkpt lat="50.085622" lon="19.853763"></trkpt>
      <trkpt lat="50.084633" lon="19.856394"></trkpt>
      <trkpt lat="50.083976" lon="19.858908"></trkpt>
      <trkpt lat="50.083112" lon="19.862986"></trkpt>
      <trkpt lat="50.082744" lon="19.865662"></trkpt>
      <trkpt lat="50.082561" lon="19.868094"></trkpt>
      <trkpt lat="50.08253" lon="19.872268"></trkpt>
      <trkpt lat="50.082977" lon="19.882694"></trkpt>
      <trkpt lat="50.082912" lon="19.887643"></trkpt>
      <trkpt lat="50.082604" lon="19.891724"></trkpt>
      <trkpt lat="50.082726" lon="19.895352"></trkpt>
      <trkpt lat="50.081829" lon="19.917236"></trkpt>
      <trkpt lat="50.081568" lon="19.926034"></trkpt>
      <trkpt lat="50.081406" lon="19.927258"></trkpt>
      <trkpt lat="50.080719" lon="19.929909"></trkpt>
      <trkpt lat="50.080293" lon="19.933603"></trkpt>
      <trkpt lat="50.079439" lon="19.937251"></trkpt>
      <trkpt lat="50.078664" lon="19.939093"></trkpt>
      <trkpt lat="50.077045" lon="19.941937"></trkpt>
      <trkpt lat="50.075468" lon="19.944032"></trkpt>
      <trkpt lat="50.074439" lon="19.945166"></trkpt>
      <trkpt lat="50.073566" lon="19.945903"></trkpt>
      <trkpt lat="50.071303" lon="19.947153"></trkpt>
      <trkpt lat="50.069803" lon="19.947671"></trkpt>
      <trkpt lat="50.068327" lon="19.947768"></trkpt>
  </trkseg></trk>
</gpx>
