<?xml version="1.0" encoding="UTF-8"?>
<gpx version="1.1" creator="yatutbuv" xmlns="http://www.topografix.com/GPX/1/1">
  <trk><name>2023_Warsaw -&gt; Wrocław (401.1km)</name><trkseg>
      <trkpt lat="52.220098" lon="20.965233"></trkpt>
      <trkpt lat="52.219057" lon="20.959658"></trkpt>
      <trkpt lat="52.218189" lon="20.955846"></trkpt>
      <trkpt lat="52.217618" lon="20.953741"></trkpt>
      <trkpt lat="52.215971" lon="20.948615"></trkpt>
      <trkpt lat="52.213898" lon="20.938689"></trkpt>
      <trkpt lat="52.208475" lon="20.921906"></trkpt>
      <trkpt lat="52.206629" lon="20.915879"></trkpt>
      <trkpt lat="52.203815" lon="20.907751"></trkpt>
      <trkpt lat="52.201357" lon="20.899933"></trkpt>
      <trkpt lat="52.182647" lon="20.84247"></trkpt>
      <trkpt lat="52.113773" lon="20.633425"></trkpt>
      <trkpt lat="52.108464" lon="20.618099"></trkpt>
      <trkpt lat="52.105588" lon="20.608705"></trkpt>
      <trkpt lat="52.057108" lon="20.462673"></trkpt>
      <trkpt lat="52.037913" lon="20.405238"></trkpt>
      <trkpt lat="52.001277" lon="20.293242"></trkpt>
      <trkpt lat="51.976765" lon="20.218719"></trkpt>
      <trkpt lat="51.976331" lon="20.21712"></trkpt>
      <trkpt lat="51.975841" lon="20.214624"></trkpt>
      <trkpt lat="51.975214" lon="20.209851"></trkpt>
      <trkpt lat="51.975033" lon="20.207558"></trkpt>
      <trkpt lat="51.975186" lon="20.183222"></trkpt>
      <trkpt lat="51.975058" lon="20.180204"></trkpt>
      <trkpt lat="51.9747" lon="20.177274"></trkpt>
      <trkpt lat="51.974131" lon="20.174786"></trkpt>
      <trkpt lat="51.969206" lon="20.158333"></trkpt>
      <trkpt lat="51.96852" lon="20.155792"></trkpt>
      <trkpt lat="51.967745" lon="20.152259"></trkpt>
      <trkpt lat="51.963989" lon="20.139439"></trkpt>
      <trkpt lat="51.963191" lon="20.137479"></trkpt>
      <trkpt lat="51.962168" lon="20.135789"></trkpt>
      <trkpt lat="51.960996" lon="20.134366"></trkpt>
      <trkpt lat="51.959364" lon="20.133029"></trkpt>
      <trkpt lat="51.957868" lon="20.132299"></trkpt>
      <trkpt lat="51.94366" lon="20.126684"></trkpt>
      <trkpt lat="51.942346" lon="20.125954"></trkpt>
      <trkpt lat="51.941077" lon="20.124895"></trkpt>
      <trkpt lat="51.939636" lon="20.123137"></trkpt>
      <trkpt lat="51.9383" lon="20.12069"></trkpt>
      <trkpt lat="51.93457" lon="20.110369"></trkpt>
      <trkpt lat="51.933856" lon="20.107503"></trkpt>
      <trkpt lat="51.933515" lon="20.105061"></trkpt>
      <trkpt lat="51.933394" lon="20.102307"></trkpt>
      <trkpt lat="51.933568" lon="20.099313"></trkpt>
      <trkpt lat="51.943382" lon="20.038704"></trkpt>
      <trkpt lat="51.943622" lon="20.036666"></trkpt>
      <trkpt lat="51.9437" lon="20.034652"></trkpt>
      <trkpt lat="51.943583" lon="20.032252"></trkpt>
      <trkpt lat="51.943288" lon="20.030161"></trkpt>
      <trkpt lat="51.942568" lon="20.027336"></trkpt>
      <trkpt lat="51.941632" lon="20.025013"></trkpt>
      <trkpt lat="51.940221" lon="20.022665"></trkpt>
      <trkpt lat="51.93868" lon="20.020966"></trkpt>
      <trkpt lat="51.937673" lon="20.020195"></trkpt>
      <trkpt lat="51.936711" lon="20.019639"></trkpt>
      <trkpt lat="51.924966" lon="20.013708"></trkpt>
      <trkpt lat="51.923614" lon="20.012656"></trkpt>
      <trkpt lat="51.922603" lon="20.011553"></trkpt>
      <trkpt lat="51.920656" lon="20.00865"></trkpt>
      <trkpt lat="51.907451" lon="19.986674"></trkpt>
      <trkpt lat="51.906349" lon="19.984771"></trkpt>
      <trkpt lat="51.905688" lon="19.983358"></trkpt>
      <trkpt lat="51.905044" lon="19.981562"></trkpt>
      <trkpt lat="51.904512" lon="19.979436"></trkpt>
      <trkpt lat="51.904187" lon="19.977282"></trkpt>
      <trkpt lat="51.904053" lon="19.975082"></trkpt>
      <trkpt lat="51.905382" lon="19.947457"></trkpt>
      <trkpt lat="51.905338" lon="19.944498"></trkpt>
      <trkpt lat="51.904985" lon="19.941828"></trkpt>
      <trkpt lat="51.904348" lon="19.939298"></trkpt>
      <trkpt lat="51.903387" lon="19.936887"></trkpt>
      <trkpt lat="51.902204" lon="19.93486"></trkpt>
      <trkpt lat="51.901319" lon="19.933742"></trkpt>
      <trkpt lat="51.900177" lon="19.932654"></trkpt>
      <trkpt lat="51.898924" lon="19.931817"></trkpt>
      <trkpt lat="51.897495" lon="19.931246"></trkpt>
      <trkpt lat="51.843955" lon="19.918682"></trkpt>
      <trkpt lat="51.842491" lon="19.918236"></trkpt>
      <trkpt lat="51.841005" lon="19.917419"></trkpt>
      <trkpt lat="51.839531" lon="19.916152"></trkpt>
      <trkpt lat="51.838308" lon="19.914666"></trkpt>
      <trkpt lat="51.793386" lon="19.851885"></trkpt>
      <trkpt lat="51.792076" lon="19.850307"></trkpt>
      <trkpt lat="51.790372" lon="19.848729"></trkpt>
      <trkpt lat="51.747104" lon="19.820445"></trkpt>
      <trkpt lat="51.745648" lon="19.819862"></trkpt>
      <trkpt lat="51.738015" lon="19.815894"></trkpt>
      <trkpt lat="51.728289" lon="19.811097"></trkpt>
      <trkpt lat="51.725015" lon="19.80934"></trkpt>
      <trkpt lat="51.678845" lon="19.786296"></trkpt>
      <trkpt lat="51.670417" lon="19.781987"></trkpt>
      <trkpt lat="51.668865" lon="19.781384"></trkpt>
      <trkpt lat="51.646514" lon="19.770368"></trkpt>
      <trkpt lat="51.64487" lon="19.769203"></trkpt>
      <trkpt lat="51.643386" lon="19.767807"></trkpt>
      <trkpt lat="51.610314" lon="19.73282"></trkpt>
      <trkpt lat="51.609078" lon="19.731675"></trkpt>
      <trkpt lat="51.607367" lon="19.730406"></trkpt>
      <trkpt lat="51.606205" lon="19.729737"></trkpt>
      <trkpt lat="51.593298" lon="19.723539"></trkpt>
      <trkpt lat="51.587672" lon="19.720724"></trkpt>
      <trkpt lat="51.586262" lon="19.720143"></trkpt>
      <trkpt lat="51.585047" lon="19.71991"></trkpt>
      <trkpt lat="51.58381" lon="19.719946"></trkpt>
      <trkpt lat="51.582692" lon="19.72021"></trkpt>
      <trkpt lat="51.581676" lon="19.720642"></trkpt>
      <trkpt lat="51.565917" lon="19.72878"></trkpt>
      <trkpt lat="51.564196" lon="19.729191"></trkpt>
      <trkpt lat="51.563177" lon="19.729193"></trkpt>
      <trkpt lat="51.562345" lon="19.729063"></trkpt>
      <trkpt lat="51.560733" lon="19.728481"></trkpt>
      <trkpt lat="51.50347" lon="19.700455"></trkpt>
      <trkpt lat="51.501064" lon="19.699416"></trkpt>
      <trkpt lat="51.499495" lon="19.699055"></trkpt>
      <trkpt lat="51.45528" lon="19.692215"></trkpt>
      <trkpt lat="51.315195" lon="19.669066"></trkpt>
      <trkpt lat="51.313061" lon="19.668398"></trkpt>
      <trkpt lat="51.311906" lon="19.667843"></trkpt>
      <trkpt lat="51.310372" lon="19.666877"></trkpt>
      <trkpt lat="51.2934" lon="19.65389"></trkpt>
      <trkpt lat="51.290917" lon="19.652269"></trkpt>
      <trkpt lat="51.289774" lon="19.651726"></trkpt>
      <trkpt lat="51.288261" lon="19.65119"></trkpt>
      <trkpt lat="51.278156" lon="19.648496"></trkpt>
      <trkpt lat="51.276646" lon="19.647896"></trkpt>
      <trkpt lat="51.275148" lon="19.647109"></trkpt>
      <trkpt lat="51.232347" lon="19.616708"></trkpt>
      <trkpt lat="51.22427" lon="19.610766"></trkpt>
      <trkpt lat="51.222325" lon="19.608818"></trkpt>
      <trkpt lat="51.220975" lon="19.607176"></trkpt>
      <trkpt lat="51.21746" lon="19.601704"></trkpt>
      <trkpt lat="51.214945" lon="19.598179"></trkpt>
      <trkpt lat="51.213702" lon="19.596894"></trkpt>
      <trkpt lat="51.211212" lon="19.594945"></trkpt>
      <trkpt lat="51.209953" lon="19.593454"></trkpt>
      <trkpt lat="51.20917" lon="19.592216"></trkpt>
      <trkpt lat="51.20846" lon="19.590817"></trkpt>
      <trkpt lat="51.207735" lon="19.588849"></trkpt>
      <trkpt lat="51.207319" lon="19.587353"></trkpt>
      <trkpt lat="51.187021" lon="19.501879"></trkpt>
      <trkpt lat="51.186041" lon="19.498483"></trkpt>
      <trkpt lat="51.18493" lon="19.496031"></trkpt>
      <trkpt lat="51.183894" lon="19.494401"></trkpt>
      <trkpt lat="51.182798" lon="19.493131"></trkpt>
      <trkpt lat="51.181525" lon="19.492055"></trkpt>
      <trkpt lat="51.179981" lon="19.491207"></trkpt>
      <trkpt lat="51.178865" lon="19.490835"></trkpt>
      <trkpt lat="51.149792" lon="19.483136"></trkpt>
      <trkpt lat="51.147929" lon="19.482269"></trkpt>
      <trkpt lat="51.145565" lon="19.480557"></trkpt>
      <trkpt lat="51.144369" lon="19.479393"></trkpt>
      <trkpt lat="51.143229" lon="19.477993"></trkpt>
      <trkpt lat="51.142385" lon="19.476768"></trkpt>
      <trkpt lat="51.141304" lon="19.474765"></trkpt>
      <trkpt lat="51.14017" lon="19.472067"></trkpt>
      <trkpt lat="51.139323" lon="19.469632"></trkpt>
      <trkpt lat="51.136351" lon="19.457881"></trkpt>
      <trkpt lat="51.13554" lon="19.455332"></trkpt>
      <trkpt lat="51.134589" lon="19.453199"></trkpt>
      <trkpt lat="51.133647" lon="19.45158"></trkpt>
      <trkpt lat="51.132401" lon="19.44993"></trkpt>
      <trkpt lat="51.131049" lon="19.448594"></trkpt>
      <trkpt lat="51.129784" lon="19.447675"></trkpt>
      <trkpt lat="51.110662" lon="19.435882"></trkpt>
      <trkpt lat="51.10907" lon="19.435115"></trkpt>
      <trkpt lat="51.107877" lon="19.434762"></trkpt>
      <trkpt lat="51.106441" lon="19.434605"></trkpt>
      <trkpt lat="51.105036" lon="19.434647"></trkpt>
      <trkpt lat="51.089121" lon="19.436099"></trkpt>
      <trkpt lat="51.087474" lon="19.436461"></trkpt>
      <trkpt lat="51.0735" lon="19.437762"></trkpt>
      <trkpt lat="51.072385" lon="19.437708"></trkpt>
      <trkpt lat="51.071455" lon="19.437527"></trkpt>
      <trkpt lat="51.06981" lon="19.436929"></trkpt>
      <trkpt lat="51.068612" lon="19.43624"></trkpt>
      <trkpt lat="51.067719" lon="19.435575"></trkpt>
      <trkpt lat="50.967933" lon="19.356919"></trkpt>
      <trkpt lat="50.965874" lon="19.355489"></trkpt>
      <trkpt lat="50.96388" lon="19.354498"></trkpt>
      <trkpt lat="50.962057" lon="19.353889"></trkpt>
      <trkpt lat="50.906321" lon="19.339006"></trkpt>
      <trkpt lat="50.903484" lon="19.338001"></trkpt>
      <trkpt lat="50.90267" lon="19.33751"></trkpt>
      <trkpt lat="50.901498" lon="19.336536"></trkpt>
      <trkpt lat="50.900282" lon="19.335148"></trkpt>
      <trkpt lat="50.89904" lon="19.33315"></trkpt>
      <trkpt lat="50.898047" lon="19.330831"></trkpt>
      <trkpt lat="50.897462" lon="19.328804"></trkpt>
      <trkpt lat="50.883052" lon="19.260563"></trkpt>
      <trkpt lat="50.869644" lon="19.18304"></trkpt>
      <trkpt lat="50.869209" lon="19.180929"></trkpt>
      <trkpt lat="50.868612" lon="19.178987"></trkpt>
      <trkpt lat="50.868023" lon="19.177555"></trkpt>
      <trkpt lat="50.867279" lon="19.17622"></trkpt>
      <trkpt lat="50.865587" lon="19.173884"></trkpt>
      <trkpt lat="50.864649" lon="19.172969"></trkpt>
      <trkpt lat="50.839544" lon="19.156795"></trkpt>
      <trkpt lat="50.838524" lon="19.156048"></trkpt>
      <trkpt lat="50.83738" lon="19.154927"></trkpt>
      <trkpt lat="50.83617" lon="19.153306"></trkpt>
      <trkpt lat="50.835261" lon="19.15164"></trkpt>
      <trkpt lat="50.824695" lon="19.129708"></trkpt>
      <trkpt lat="50.823964" lon="19.128459"></trkpt>
      <trkpt lat="50.82276" lon="19.126745"></trkpt>
      <trkpt lat="50.821698" lon="19.125508"></trkpt>
      <trkpt lat="50.820471" lon="19.124349"></trkpt>
      <trkpt lat="50.819345" lon="19.123539"></trkpt>
      <trkpt lat="50.818252" lon="19.12296"></trkpt>
      <trkpt lat="50.816164" lon="19.122052"></trkpt>
      <trkpt lat="50.814642" lon="19.121653"></trkpt>
      <trkpt lat="50.811676" lon="19.121432"></trkpt>
      <trkpt lat="50.809027" lon="19.120927"></trkpt>
      <trkpt lat="50.807533" lon="19.120846"></trkpt>
      <trkpt lat="50.805962" lon="19.120507"></trkpt>
      <trkpt lat="50.804685" lon="19.120048"></trkpt>
      <trkpt lat="50.803703" lon="19.119994"></trkpt>
      <trkpt lat="50.80198" lon="19.120541"></trkpt>
      <trkpt lat="50.800602" lon="19.120361"></trkpt>
      <trkpt lat="50.800095" lon="19.120466"></trkpt>
      <trkpt lat="50.799626" lon="19.120741"></trkpt>
      <trkpt lat="50.798427" lon="19.121856"></trkpt>
      <trkpt lat="50.797679" lon="19.122152"></trkpt>
      <trkpt lat="50.797124" lon="19.122176"></trkpt>
      <trkpt lat="50.796585" lon="19.122024"></trkpt>
      <trkpt lat="50.795994" lon="19.121613"></trkpt>
      <trkpt lat="50.795415" lon="19.120899"></trkpt>
      <trkpt lat="50.79506" lon="19.120195"></trkpt>
      <trkpt lat="50.794659" lon="19.118574"></trkpt>
      <trkpt lat="50.79469" lon="19.116972"></trkpt>
      <trkpt lat="50.794888" lon="19.116063"></trkpt>
      <trkpt lat="50.796134" lon="19.112292"></trkpt>
      <trkpt lat="50.796507" lon="19.110696"></trkpt>
      <trkpt lat="50.798123" lon="19.100352"></trkpt>
      <trkpt lat="50.798888" lon="19.096717"></trkpt>
      <trkpt lat="50.801109" lon="19.080356"></trkpt>
      <trkpt lat="50.801194" lon="19.078489"></trkpt>
      <trkpt lat="50.800876" lon="19.07587"></trkpt>
      <trkpt lat="50.794914" lon="19.045007"></trkpt>
      <trkpt lat="50.791705" lon="19.029482"></trkpt>
      <trkpt lat="50.791093" lon="19.026925"></trkpt>
      <trkpt lat="50.790349" lon="19.025087"></trkpt>
      <trkpt lat="50.789732" lon="19.024134"></trkpt>
      <trkpt lat="50.787401" lon="19.021488"></trkpt>
      <trkpt lat="50.786792" lon="19.020444"></trkpt>
      <trkpt lat="50.786262" lon="19.019005"></trkpt>
      <trkpt lat="50.785129" lon="19.012492"></trkpt>
      <trkpt lat="50.784076" lon="19.004118"></trkpt>
      <trkpt lat="50.783657" lon="19.002056"></trkpt>
      <trkpt lat="50.77287" lon="18.96595"></trkpt>
      <trkpt lat="50.766808" lon="18.946217"></trkpt>
      <trkpt lat="50.766333" lon="18.943967"></trkpt>
      <trkpt lat="50.765887" lon="18.940181"></trkpt>
      <trkpt lat="50.765554" lon="18.938523"></trkpt>
      <trkpt lat="50.761937" lon="18.923842"></trkpt>
      <trkpt lat="50.756621" lon="18.903031"></trkpt>
      <trkpt lat="50.75573" lon="18.900607"></trkpt>
      <trkpt lat="50.751961" lon="18.892981"></trkpt>
      <trkpt lat="50.749674" lon="18.887986"></trkpt>
      <trkpt lat="50.742128" lon="18.864295"></trkpt>
      <trkpt lat="50.741192" lon="18.860897"></trkpt>
      <trkpt lat="50.724195" lon="18.80593"></trkpt>
      <trkpt lat="50.722024" lon="18.797029"></trkpt>
      <trkpt lat="50.719041" lon="18.782489"></trkpt>
      <trkpt lat="50.718603" lon="18.780787"></trkpt>
      <trkpt lat="50.717901" lon="18.778854"></trkpt>
      <trkpt lat="50.716911" lon="18.776887"></trkpt>
      <trkpt lat="50.68036" lon="18.717311"></trkpt>
      <trkpt lat="50.679284" lon="18.716059"></trkpt>
      <trkpt lat="50.6785" lon="18.71537"></trkpt>
      <trkpt lat="50.677465" lon="18.714688"></trkpt>
      <trkpt lat="50.676189" lon="18.714151"></trkpt>
      <trkpt lat="50.674584" lon="18.713903"></trkpt>
      <trkpt lat="50.670751" lon="18.714274"></trkpt>
      <trkpt lat="50.670049" lon="18.714202"></trkpt>
      <trkpt lat="50.669241" lon="18.713907"></trkpt>
      <trkpt lat="50.668463" lon="18.713365"></trkpt>
      <trkpt lat="50.667741" lon="18.712573"></trkpt>
      <trkpt lat="50.667043" lon="18.711385"></trkpt>
      <trkpt lat="50.666575" lon="18.710118"></trkpt>
      <trkpt lat="50.666222" lon="18.70806"></trkpt>
      <trkpt lat="50.666307" lon="18.705907"></trkpt>
      <trkpt lat="50.666939" lon="18.703172"></trkpt>
      <trkpt lat="50.668031" lon="18.699755"></trkpt>
      <trkpt lat="50.669748" lon="18.696115"></trkpt>
      <trkpt lat="50.674704" lon="18.688071"></trkpt>
      <trkpt lat="50.676598" lon="18.684217"></trkpt>
      <trkpt lat="50.677062" lon="18.682827"></trkpt>
      <trkpt lat="50.677267" lon="18.681071"></trkpt>
      <trkpt lat="50.677107" lon="18.671965"></trkpt>
      <trkpt lat="50.676451" lon="18.658213"></trkpt>
      <trkpt lat="50.676499" lon="18.656214"></trkpt>
      <trkpt lat="50.676995" lon="18.653979"></trkpt>
      <trkpt lat="50.682499" lon="18.63826"></trkpt>
      <trkpt lat="50.682898" lon="18.636483"></trkpt>
      <trkpt lat="50.682982" lon="18.634816"></trkpt>
      <trkpt lat="50.68022" lon="18.584363"></trkpt>
      <trkpt lat="50.680218" lon="18.582113"></trkpt>
      <trkpt lat="50.680641" lon="18.570498"></trkpt>
      <trkpt lat="50.680611" lon="18.567398"></trkpt>
      <trkpt lat="50.680802" lon="18.561938"></trkpt>
      <trkpt lat="50.68074" lon="18.560484"></trkpt>
      <trkpt lat="50.680085" lon="18.556181"></trkpt>
      <trkpt lat="50.665647" lon="18.485783"></trkpt>
      <trkpt lat="50.66074" lon="18.395122"></trkpt>
      <trkpt lat="50.660485" lon="18.392487"></trkpt>
      <trkpt lat="50.657547" lon="18.372423"></trkpt>
      <trkpt lat="50.657435" lon="18.371133"></trkpt>
      <trkpt lat="50.657482" lon="18.369612"></trkpt>
      <trkpt lat="50.657664" lon="18.368494"></trkpt>
      <trkpt lat="50.658407" lon="18.365493"></trkpt>
      <trkpt lat="50.660541" lon="18.358386"></trkpt>
      <trkpt lat="50.661028" lon="18.354862"></trkpt>
      <trkpt lat="50.660966" lon="18.35283"></trkpt>
      <trkpt lat="50.659848" lon="18.339913"></trkpt>
      <trkpt lat="50.65985" lon="18.337563"></trkpt>
      <trkpt lat="50.660031" lon="18.335561"></trkpt>
      <trkpt lat="50.660536" lon="18.332933"></trkpt>
      <trkpt lat="50.664531" lon="18.317995"></trkpt>
      <trkpt lat="50.665024" lon="18.315368"></trkpt>
      <trkpt lat="50.66539" lon="18.312071"></trkpt>
      <trkpt lat="50.669037" lon="18.234922"></trkpt>
      <trkpt lat="50.670848" lon="18.186401"></trkpt>
      <trkpt lat="50.670753" lon="18.183812"></trkpt>
      <trkpt lat="50.670447" lon="18.181161"></trkpt>
      <trkpt lat="50.670068" lon="18.179139"></trkpt>
      <trkpt lat="50.669449" lon="18.176799"></trkpt>
      <trkpt lat="50.668728" lon="18.17475"></trkpt>
      <trkpt lat="50.667867" lon="18.17285"></trkpt>
      <trkpt lat="50.663576" lon="18.165544"></trkpt>
      <trkpt lat="50.66219" lon="18.162654"></trkpt>
      <trkpt lat="50.661532" lon="18.160804"></trkpt>
      <trkpt lat="50.660885" lon="18.158386"></trkpt>
      <trkpt lat="50.660403" lon="18.155606"></trkpt>
      <trkpt lat="50.660185" lon="18.153205"></trkpt>
      <trkpt lat="50.660142" lon="18.150569"></trkpt>
      <trkpt lat="50.660318" lon="18.147667"></trkpt>
      <trkpt lat="50.665447" lon="18.102818"></trkpt>
      <trkpt lat="50.665653" lon="18.098624"></trkpt>
      <trkpt lat="50.665491" lon="18.095795"></trkpt>
      <trkpt lat="50.665044" lon="18.092827"></trkpt>
      <trkpt lat="50.658116" lon="18.064828"></trkpt>
      <trkpt lat="50.657373" lon="18.060592"></trkpt>
      <trkpt lat="50.65709" lon="18.057839"></trkpt>
      <trkpt lat="50.657654" lon="18.005354"></trkpt>
      <trkpt lat="50.657138" lon="17.960678"></trkpt>
      <trkpt lat="50.657128" lon="17.949469"></trkpt>
      <trkpt lat="50.657303" lon="17.947743"></trkpt>
      <trkpt lat="50.658072" lon="17.945127"></trkpt>
      <trkpt lat="50.660404" lon="17.934559"></trkpt>
      <trkpt lat="50.661819" lon="17.929035"></trkpt>
      <trkpt lat="50.662062" lon="17.927307"></trkpt>
      <trkpt lat="50.662159" lon="17.920071"></trkpt>
      <trkpt lat="50.660659" lon="17.895116"></trkpt>
      <trkpt lat="50.660675" lon="17.8861"></trkpt>
      <trkpt lat="50.660866" lon="17.882798"></trkpt>
      <trkpt lat="50.661218" lon="17.879412"></trkpt>
      <trkpt lat="50.669851" lon="17.818144"></trkpt>
      <trkpt lat="50.679143" lon="17.781336"></trkpt>
      <trkpt lat="50.680242" lon="17.777778"></trkpt>
      <trkpt lat="50.681629" lon="17.774561"></trkpt>
      <trkpt lat="50.752135" lon="17.627926"></trkpt>
      <trkpt lat="50.798298" lon="17.531366"></trkpt>
      <trkpt lat="50.79972" lon="17.528653"></trkpt>
      <trkpt lat="50.801261" lon="17.526064"></trkpt>
      <trkpt lat="50.803368" lon="17.522998"></trkpt>
      <trkpt lat="50.805379" lon="17.520523"></trkpt>
      <trkpt lat="50.806959" lon="17.51884"></trkpt>
      <trkpt lat="50.846018" lon="17.483907"></trkpt>
      <trkpt lat="50.8472" lon="17.48268"></trkpt>
      <trkpt lat="50.84827" lon="17.481364"></trkpt>
      <trkpt lat="50.850264" lon="17.478219"></trkpt>
      <trkpt lat="50.851056" lon="17.476556"></trkpt>
      <trkpt lat="50.851869" lon="17.474245"></trkpt>
      <trkpt lat="50.855226" lon="17.462352"></trkpt>
      <trkpt lat="50.857282" lon="17.45573"></trkpt>
      <trkpt lat="50.860789" lon="17.443581"></trkpt>
      <trkpt lat="50.861995" lon="17.440169"></trkpt>
      <trkpt lat="50.863542" lon="17.436502"></trkpt>
      <trkpt lat="50.864899" lon="17.433747"></trkpt>
      <trkpt lat="50.866584" lon="17.430779"></trkpt>
      <trkpt lat="50.886747" lon="17.39795"></trkpt>
      <trkpt lat="50.888756" lon="17.394269"></trkpt>
      <trkpt lat="50.890182" lon="17.391173"></trkpt>
      <trkpt lat="50.929645" lon="17.299584"></trkpt>
      <trkpt lat="50.970715" lon="17.216956"></trkpt>
      <trkpt lat="50.973641" lon="17.212273"></trkpt>
      <trkpt lat="50.997871" lon="17.17693"></trkpt>
      <trkpt lat="51.020951" lon="17.137704"></trkpt>
      <trkpt lat="51.023062" lon="17.134358"></trkpt>
      <trkpt lat="51.028207" lon="17.125595"></trkpt>
      <trkpt lat="51.029852" lon="17.12296"></trkpt>
      <trkpt lat="51.033155" lon="17.118078"></trkpt>
      <trkpt lat="51.033816" lon="17.11736"></trkpt>
      <trkpt lat="51.038103" lon="17.113673"></trkpt>
      <trkpt lat="51.041685" lon="17.108926"></trkpt>
      <trkpt lat="51.043663" lon="17.106485"></trkpt>
      <trkpt lat="51.047324" lon="17.102408"></trkpt>
      <trkpt lat="51.05098" lon="17.098986"></trkpt>
      <trkpt lat="51.052008" lon="17.098091"></trkpt>
      <trkpt lat="51.052916" lon="17.09749"></trkpt>
      <trkpt lat="51.054147" lon="17.096371"></trkpt>
      <trkpt lat="51.060703" lon="17.090168"></trkpt>
      <trkpt lat="51.067211" lon="17.084996"></trkpt>
      <trkpt lat="51.068319" lon="17.083816"></trkpt>
      <trkpt lat="51.073129" lon="17.079468"></trkpt>
      <trkpt lat="51.081107" lon="17.073308"></trkpt>
      <trkpt lat="51.083845" lon="17.070279"></trkpt>
      <trkpt lat="51.08545" lon="17.068151"></trkpt>
      <trkpt lat="51.087123" lon="17.065533"></trkpt>
      <trkpt lat="51.089605" lon="17.059416"></trkpt>
      <trkpt lat="51.091529" lon="17.054999"></trkpt>
      <trkpt lat="51.092246" lon="17.05377"></trkpt>
      <trkpt lat="51.095636" lon="17.046606"></trkpt>
      <trkpt lat="51.096719" lon="17.043515"></trkpt>
      <trkpt lat="51.097454" lon="17.040372"></trkpt>
      <trkpt lat="51.097764" lon="17.038079"></trkpt>
  </trkseg></trk>
</gpx>
