<?xml version="1.0" encoding="UTF-8"?>
<gpx version="1.1" creator="yatutbuv" xmlns="http://www.topografix.com/GPX/1/1">
  <trk><name>2026_Valencia -&gt; Madrid (401.5km)</name><trkseg>
      <trkpt lat="39.45971" lon="-0.381003"></trkpt>
      <trkpt lat="39.457229" lon="-0.381567"></trkpt>
      <trkpt lat="39.454546" lon="-0.381334"></trkpt>
      <trkpt lat="39.453214" lon="-0.381804"></trkpt>
      <trkpt lat="39.452056" lon="-0.382803"></trkpt>
      <trkpt lat="39.451318" lon="-0.383137"></trkpt>
      <trkpt lat="39.448897" lon="-0.383982"></trkpt>
      <trkpt lat="39.447083" lon="-0.383929"></trkpt>
      <trkpt lat="39.444167" lon="-0.385097"></trkpt>
      <trkpt lat="39.44316" lon="-0.386137"></trkpt>
      <trkpt lat="39.442403" lon="-0.387546"></trkpt>
      <trkpt lat="39.441783" lon="-0.389471"></trkpt>
      <trkpt lat="39.441603" lon="-0.391126"></trkpt>
      <trkpt lat="39.441723" lon="-0.39279"></trkpt>
      <trkpt lat="39.442007" lon="-0.393989"></trkpt>
      <trkpt lat="39.4439" lon="-0.398512"></trkpt>
      <trkpt lat="39.444493" lon="-0.400757"></trkpt>
      <trkpt lat="39.444709" lon="-0.402647"></trkpt>
      <trkpt lat="39.444961" lon="-0.408991"></trkpt>
      <trkpt lat="39.445175" lon="-0.410823"></trkpt>
      <trkpt lat="39.446571" lon="-0.418931"></trkpt>
      <trkpt lat="39.447034" lon="-0.424234"></trkpt>
      <trkpt lat="39.447316" lon="-0.426133"></trkpt>
      <trkpt lat="39.447796" lon="-0.428476"></trkpt>
      <trkpt lat="39.448876" lon="-0.432751"></trkpt>
      <trkpt lat="39.449538" lon="-0.436236"></trkpt>
      <trkpt lat="39.449863" lon="-0.438927"></trkpt>
      <trkpt lat="39.450029" lon="-0.441724"></trkpt>
      <trkpt lat="39.450042" lon="-0.444815"></trkpt>
      <trkpt lat="39.449857" lon="-0.44901"></trkpt>
      <trkpt lat="39.449435" lon="-0.453697"></trkpt>
      <trkpt lat="39.448863" lon="-0.457937"></trkpt>
      <trkpt lat="39.44782" lon="-0.463491"></trkpt>
      <trkpt lat="39.445332" lon="-0.473721"></trkpt>
      <trkpt lat="39.444588" lon="-0.477989"></trkpt>
      <trkpt lat="39.44408" lon="-0.482315"></trkpt>
      <trkpt lat="39.44381" lon="-0.486677"></trkpt>
      <trkpt lat="39.443818" lon="-0.492564"></trkpt>
      <trkpt lat="39.444234" lon="-0.498601"></trkpt>
      <trkpt lat="39.444863" lon="-0.503591"></trkpt>
      <trkpt lat="39.445921" lon="-0.509128"></trkpt>
      <trkpt lat="39.446945" lon="-0.513359"></trkpt>
      <trkpt lat="39.450972" lon="-0.527528"></trkpt>
      <trkpt lat="39.452104" lon="-0.531143"></trkpt>
      <trkpt lat="39.461322" lon="-0.559062"></trkpt>
      <trkpt lat="39.462882" lon="-0.563087"></trkpt>
      <trkpt lat="39.467227" lon="-0.573175"></trkpt>
      <trkpt lat="39.468896" lon="-0.577791"></trkpt>
      <trkpt lat="39.470321" lon="-0.582542"></trkpt>
      <trkpt lat="39.471495" lon="-0.587407"></trkpt>
      <trkpt lat="39.472607" lon="-0.59362"></trkpt>
      <trkpt lat="39.473359" lon="-0.600554"></trkpt>
      <trkpt lat="39.473727" lon="-0.607379"></trkpt>
      <trkpt lat="39.473801" lon="-0.612698"></trkpt>
      <trkpt lat="39.47368" lon="-0.618206"></trkpt>
      <trkpt lat="39.472042" lon="-0.656249"></trkpt>
      <trkpt lat="39.471558" lon="-0.663653"></trkpt>
      <trkpt lat="39.471094" lon="-0.668622"></trkpt>
      <trkpt lat="39.470075" lon="-0.675953"></trkpt>
      <trkpt lat="39.469162" lon="-0.680446"></trkpt>
      <trkpt lat="39.46827" lon="-0.683998"></trkpt>
      <trkpt lat="39.467303" lon="-0.687311"></trkpt>
      <trkpt lat="39.465846" lon="-0.691574"></trkpt>
      <trkpt lat="39.464132" lon="-0.695847"></trkpt>
      <trkpt lat="39.462846" lon="-0.698674"></trkpt>
      <trkpt lat="39.458226" lon="-0.707524"></trkpt>
      <trkpt lat="39.456194" lon="-0.711765"></trkpt>
      <trkpt lat="39.453528" lon="-0.718528"></trkpt>
      <trkpt lat="39.451712" lon="-0.724382"></trkpt>
      <trkpt lat="39.450743" lon="-0.728292"></trkpt>
      <trkpt lat="39.450072" lon="-0.731553"></trkpt>
      <trkpt lat="39.449125" lon="-0.737662"></trkpt>
      <trkpt lat="39.447406" lon="-0.751468"></trkpt>
      <trkpt lat="39.44699" lon="-0.756221"></trkpt>
      <trkpt lat="39.446743" lon="-0.760988"></trkpt>
      <trkpt lat="39.446659" lon="-0.765765"></trkpt>
      <trkpt lat="39.446732" lon="-0.770551"></trkpt>
      <trkpt lat="39.447131" lon="-0.776925"></trkpt>
      <trkpt lat="39.447785" lon="-0.783265"></trkpt>
      <trkpt lat="39.44926" lon="-0.792665"></trkpt>
      <trkpt lat="39.450522" lon="-0.798263"></trkpt>
      <trkpt lat="39.458998" lon="-0.828589"></trkpt>
      <trkpt lat="39.460343" lon="-0.834486"></trkpt>
      <trkpt lat="39.461394" lon="-0.840481"></trkpt>
      <trkpt lat="39.462147" lon="-0.846552"></trkpt>
      <trkpt lat="39.4626" lon="-0.852672"></trkpt>
      <trkpt lat="39.462749" lon="-0.858818"></trkpt>
      <trkpt lat="39.462596" lon="-0.864963"></trkpt>
      <trkpt lat="39.46214" lon="-0.871083"></trkpt>
      <trkpt lat="39.460808" lon="-0.881436"></trkpt>
      <trkpt lat="39.460307" lon="-0.886249"></trkpt>
      <trkpt lat="39.458742" lon="-0.904706"></trkpt>
      <trkpt lat="39.4585" lon="-0.908921"></trkpt>
      <trkpt lat="39.458426" lon="-0.913774"></trkpt>
      <trkpt lat="39.458537" lon="-0.916455"></trkpt>
      <trkpt lat="39.458886" lon="-0.921804"></trkpt>
      <trkpt lat="39.459407" lon="-0.927129"></trkpt>
      <trkpt lat="39.460234" lon="-0.9328"></trkpt>
      <trkpt lat="39.465403" lon="-0.960998"></trkpt>
      <trkpt lat="39.466945" lon="-0.97332"></trkpt>
      <trkpt lat="39.467673" lon="-0.978026"></trkpt>
      <trkpt lat="39.46879" lon="-0.983482"></trkpt>
      <trkpt lat="39.470566" lon="-0.990083"></trkpt>
      <trkpt lat="39.471873" lon="-0.994065"></trkpt>
      <trkpt lat="39.47306" lon="-0.997258"></trkpt>
      <trkpt lat="39.474396" lon="-1.000493"></trkpt>
      <trkpt lat="39.476061" lon="-1.004099"></trkpt>
      <trkpt lat="39.478032" lon="-1.00794"></trkpt>
      <trkpt lat="39.495576" lon="-1.040187"></trkpt>
      <trkpt lat="39.497333" lon="-1.043874"></trkpt>
      <trkpt lat="39.498884" lon="-1.047479"></trkpt>
      <trkpt lat="39.501061" lon="-1.053305"></trkpt>
      <trkpt lat="39.502973" lon="-1.059485"></trkpt>
      <trkpt lat="39.504235" lon="-1.06446"></trkpt>
      <trkpt lat="39.505082" lon="-1.068461"></trkpt>
      <trkpt lat="39.505839" lon="-1.072881"></trkpt>
      <trkpt lat="39.506397" lon="-1.077007"></trkpt>
      <trkpt lat="39.507394" lon="-1.088062"></trkpt>
      <trkpt lat="39.508126" lon="-1.093867"></trkpt>
      <trkpt lat="39.509573" lon="-1.101481"></trkpt>
      <trkpt lat="39.51118" lon="-1.107613"></trkpt>
      <trkpt lat="39.512729" lon="-1.112415"></trkpt>
      <trkpt lat="39.514814" lon="-1.117838"></trkpt>
      <trkpt lat="39.53175" lon="-1.157186"></trkpt>
      <trkpt lat="39.536875" lon="-1.169778"></trkpt>
      <trkpt lat="39.540692" lon="-1.178756"></trkpt>
      <trkpt lat="39.542291" lon="-1.182886"></trkpt>
      <trkpt lat="39.547677" lon="-1.197785"></trkpt>
      <trkpt lat="39.548817" lon="-1.201189"></trkpt>
      <trkpt lat="39.550179" lon="-1.205833"></trkpt>
      <trkpt lat="39.550993" lon="-1.209019"></trkpt>
      <trkpt lat="39.552019" lon="-1.213765"></trkpt>
      <trkpt lat="39.552927" lon="-1.219042"></trkpt>
      <trkpt lat="39.553622" lon="-1.224423"></trkpt>
      <trkpt lat="39.554065" lon="-1.230834"></trkpt>
      <trkpt lat="39.554189" lon="-1.235149"></trkpt>
      <trkpt lat="39.554159" lon="-1.239557"></trkpt>
      <trkpt lat="39.553688" lon="-1.24762"></trkpt>
      <trkpt lat="39.550895" lon="-1.276407"></trkpt>
      <trkpt lat="39.550306" lon="-1.280927"></trkpt>
      <trkpt lat="39.548203" lon="-1.294107"></trkpt>
      <trkpt lat="39.547641" lon="-1.299285"></trkpt>
      <trkpt lat="39.547347" lon="-1.304069"></trkpt>
      <trkpt lat="39.545902" lon="-1.343601"></trkpt>
      <trkpt lat="39.545589" lon="-1.349013"></trkpt>
      <trkpt lat="39.544824" lon="-1.355772"></trkpt>
      <trkpt lat="39.542114" lon="-1.375453"></trkpt>
      <trkpt lat="39.54159" lon="-1.381143"></trkpt>
      <trkpt lat="39.541393" lon="-1.385988"></trkpt>
      <trkpt lat="39.541395" lon="-1.390185"></trkpt>
      <trkpt lat="39.541576" lon="-1.394401"></trkpt>
      <trkpt lat="39.542386" lon="-1.405469"></trkpt>
      <trkpt lat="39.54247" lon="-1.411544"></trkpt>
      <trkpt lat="39.541961" lon="-1.423926"></trkpt>
      <trkpt lat="39.541486" lon="-1.428582"></trkpt>
      <trkpt lat="39.54072" lon="-1.433173"></trkpt>
      <trkpt lat="39.540622" lon="-1.4365"></trkpt>
      <trkpt lat="39.541003" lon="-1.439793"></trkpt>
      <trkpt lat="39.541314" lon="-1.441108"></trkpt>
      <trkpt lat="39.544987" lon="-1.454956"></trkpt>
      <trkpt lat="39.548477" lon="-1.466668"></trkpt>
      <trkpt lat="39.549153" lon="-1.469517"></trkpt>
      <trkpt lat="39.549842" lon="-1.473119"></trkpt>
      <trkpt lat="39.550571" lon="-1.478579"></trkpt>
      <trkpt lat="39.551231" lon="-1.487439"></trkpt>
      <trkpt lat="39.551535" lon="-1.49633"></trkpt>
      <trkpt lat="39.5512" lon="-1.501307"></trkpt>
      <trkpt lat="39.550491" lon="-1.505703"></trkpt>
      <trkpt lat="39.549444" lon="-1.509923"></trkpt>
      <trkpt lat="39.548041" lon="-1.51385"></trkpt>
      <trkpt lat="39.546416" lon="-1.517503"></trkpt>
      <trkpt lat="39.544642" lon="-1.520811"></trkpt>
      <trkpt lat="39.54208" lon="-1.524719"></trkpt>
      <trkpt lat="39.54055" lon="-1.526719"></trkpt>
      <trkpt lat="39.537481" lon="-1.530287"></trkpt>
      <trkpt lat="39.53483" lon="-1.533996"></trkpt>
      <trkpt lat="39.532488" lon="-1.53804"></trkpt>
      <trkpt lat="39.530761" lon="-1.54165"></trkpt>
      <trkpt lat="39.529129" lon="-1.545962"></trkpt>
      <trkpt lat="39.528251" lon="-1.548654"></trkpt>
      <trkpt lat="39.526777" lon="-1.553739"></trkpt>
      <trkpt lat="39.515692" lon="-1.58938"></trkpt>
      <trkpt lat="39.514833" lon="-1.592686"></trkpt>
      <trkpt lat="39.5139" lon="-1.597143"></trkpt>
      <trkpt lat="39.512917" lon="-1.60395"></trkpt>
      <trkpt lat="39.512538" lon="-1.608796"></trkpt>
      <trkpt lat="39.512076" lon="-1.625184"></trkpt>
      <trkpt lat="39.511367" lon="-1.632984"></trkpt>
      <trkpt lat="39.51084" lon="-1.636779"></trkpt>
      <trkpt lat="39.509945" lon="-1.641753"></trkpt>
      <trkpt lat="39.507392" lon="-1.652908"></trkpt>
      <trkpt lat="39.506241" lon="-1.659027"></trkpt>
      <trkpt lat="39.505349" lon="-1.666323"></trkpt>
      <trkpt lat="39.50503" lon="-1.671396"></trkpt>
      <trkpt lat="39.504936" lon="-1.676331"></trkpt>
      <trkpt lat="39.505034" lon="-1.68042"></trkpt>
      <trkpt lat="39.505266" lon="-1.684348"></trkpt>
      <trkpt lat="39.505955" lon="-1.690647"></trkpt>
      <trkpt lat="39.506594" lon="-1.694683"></trkpt>
      <trkpt lat="39.507382" lon="-1.698666"></trkpt>
      <trkpt lat="39.51135" lon="-1.714405"></trkpt>
      <trkpt lat="39.512508" lon="-1.719696"></trkpt>
      <trkpt lat="39.513082" lon="-1.72291"></trkpt>
      <trkpt lat="39.513792" lon="-1.727863"></trkpt>
      <trkpt lat="39.514284" lon="-1.732751"></trkpt>
      <trkpt lat="39.515357" lon="-1.752924"></trkpt>
      <trkpt lat="39.51602" lon="-1.760046"></trkpt>
      <trkpt lat="39.516562" lon="-1.763931"></trkpt>
      <trkpt lat="39.517439" lon="-1.768861"></trkpt>
      <trkpt lat="39.520062" lon="-1.780615"></trkpt>
      <trkpt lat="39.520974" lon="-1.785691"></trkpt>
      <trkpt lat="39.521488" lon="-1.789256"></trkpt>
      <trkpt lat="39.526958" lon="-1.840012"></trkpt>
      <trkpt lat="39.527311" lon="-1.844371"></trkpt>
      <trkpt lat="39.527484" lon="-1.848687"></trkpt>
      <trkpt lat="39.527434" lon="-1.85458"></trkpt>
      <trkpt lat="39.526653" lon="-1.866911"></trkpt>
      <trkpt lat="39.526516" lon="-1.872189"></trkpt>
      <trkpt lat="39.526563" lon="-1.875555"></trkpt>
      <trkpt lat="39.526896" lon="-1.881467"></trkpt>
      <trkpt lat="39.527536" lon="-1.887202"></trkpt>
      <trkpt lat="39.528634" lon="-1.89367"></trkpt>
      <trkpt lat="39.529971" lon="-1.899446"></trkpt>
      <trkpt lat="39.531984" lon="-1.906173"></trkpt>
      <trkpt lat="39.534075" lon="-1.911773"></trkpt>
      <trkpt lat="39.535857" lon="-1.915863"></trkpt>
      <trkpt lat="39.538257" lon="-1.920628"></trkpt>
      <trkpt lat="39.541192" lon="-1.925659"></trkpt>
      <trkpt lat="39.543937" lon="-1.929741"></trkpt>
      <trkpt lat="39.547418" lon="-1.934254"></trkpt>
      <trkpt lat="39.551292" lon="-1.938539"></trkpt>
      <trkpt lat="39.55449" lon="-1.94161"></trkpt>
      <trkpt lat="39.557776" lon="-1.944396"></trkpt>
      <trkpt lat="39.5616" lon="-1.947233"></trkpt>
      <trkpt lat="39.566042" lon="-1.95004"></trkpt>
      <trkpt lat="39.569589" lon="-1.951928"></trkpt>
      <trkpt lat="39.57416" lon="-1.953983"></trkpt>
      <trkpt lat="39.577837" lon="-1.955295"></trkpt>
      <trkpt lat="39.58248" lon="-1.956587"></trkpt>
      <trkpt lat="39.587612" lon="-1.957532"></trkpt>
      <trkpt lat="39.590575" lon="-1.957849"></trkpt>
      <trkpt lat="39.594141" lon="-1.958022"></trkpt>
      <trkpt lat="39.605608" lon="-1.957698"></trkpt>
      <trkpt lat="39.612968" lon="-1.957394"></trkpt>
      <trkpt lat="39.616286" lon="-1.95714"></trkpt>
      <trkpt lat="39.62149" lon="-1.956312"></trkpt>
      <trkpt lat="39.624619" lon="-1.955556"></trkpt>
      <trkpt lat="39.635553" lon="-1.951917"></trkpt>
      <trkpt lat="39.638542" lon="-1.950986"></trkpt>
      <trkpt lat="39.641899" lon="-1.950104"></trkpt>
      <trkpt lat="39.670541" lon="-1.944134"></trkpt>
      <trkpt lat="39.676319" lon="-1.94272"></trkpt>
      <trkpt lat="39.681445" lon="-1.940969"></trkpt>
      <trkpt lat="39.689938" lon="-1.937137"></trkpt>
      <trkpt lat="39.693801" lon="-1.93559"></trkpt>
      <trkpt lat="39.699324" lon="-1.933892"></trkpt>
      <trkpt lat="39.702046" lon="-1.933271"></trkpt>
      <trkpt lat="39.705182" lon="-1.93273"></trkpt>
      <trkpt lat="39.708504" lon="-1.932358"></trkpt>
      <trkpt lat="39.712604" lon="-1.932152"></trkpt>
      <trkpt lat="39.715955" lon="-1.932227"></trkpt>
      <trkpt lat="39.7186" lon="-1.932421"></trkpt>
      <trkpt lat="39.722244" lon="-1.932899"></trkpt>
      <trkpt lat="39.725332" lon="-1.933493"></trkpt>
      <trkpt lat="39.730977" lon="-1.935058"></trkpt>
      <trkpt lat="39.736318" lon="-1.937104"></trkpt>
      <trkpt lat="39.740664" lon="-1.939208"></trkpt>
      <trkpt lat="39.743917" lon="-1.94107"></trkpt>
      <trkpt lat="39.746316" lon="-1.942616"></trkpt>
      <trkpt lat="39.751121" lon="-1.946154"></trkpt>
      <trkpt lat="39.755643" lon="-1.950082"></trkpt>
      <trkpt lat="39.758399" lon="-1.952814"></trkpt>
      <trkpt lat="39.771733" lon="-1.967804"></trkpt>
      <trkpt lat="39.774082" lon="-1.970304"></trkpt>
      <trkpt lat="39.776845" lon="-1.972976"></trkpt>
      <trkpt lat="39.779705" lon="-1.975469"></trkpt>
      <trkpt lat="39.783368" lon="-1.978444"></trkpt>
      <trkpt lat="39.78822" lon="-1.981929"></trkpt>
      <trkpt lat="39.79376" lon="-1.985309"></trkpt>
      <trkpt lat="39.843237" lon="-2.013146"></trkpt>
      <trkpt lat="39.845863" lon="-2.014524"></trkpt>
      <trkpt lat="39.851129" lon="-2.016846"></trkpt>
      <trkpt lat="39.856404" lon="-2.018591"></trkpt>
      <trkpt lat="39.861251" lon="-2.019735"></trkpt>
      <trkpt lat="39.867143" lon="-2.020657"></trkpt>
      <trkpt lat="39.871704" lon="-2.020834"></trkpt>
      <trkpt lat="39.882524" lon="-2.019922"></trkpt>
      <trkpt lat="39.887988" lon="-2.019854"></trkpt>
      <trkpt lat="39.891439" lon="-2.020073"></trkpt>
      <trkpt lat="39.894478" lon="-2.020438"></trkpt>
      <trkpt lat="39.897862" lon="-2.021064"></trkpt>
      <trkpt lat="39.902191" lon="-2.022139"></trkpt>
      <trkpt lat="39.907146" lon="-2.023834"></trkpt>
      <trkpt lat="39.910705" lon="-2.025379"></trkpt>
      <trkpt lat="39.914585" lon="-2.027356"></trkpt>
      <trkpt lat="39.928447" lon="-2.036042"></trkpt>
      <trkpt lat="39.934332" lon="-2.038635"></trkpt>
      <trkpt lat="39.942842" lon="-2.041566"></trkpt>
      <trkpt lat="39.946718" lon="-2.043174"></trkpt>
      <trkpt lat="39.95054" lon="-2.04512"></trkpt>
      <trkpt lat="39.960481" lon="-2.050574"></trkpt>
      <trkpt lat="39.964319" lon="-2.052935"></trkpt>
      <trkpt lat="39.96875" lon="-2.056148"></trkpt>
      <trkpt lat="39.972156" lon="-2.058954"></trkpt>
      <trkpt lat="39.974516" lon="-2.061139"></trkpt>
      <trkpt lat="39.997302" lon="-2.083718"></trkpt>
      <trkpt lat="40.000961" lon="-2.087888"></trkpt>
      <trkpt lat="40.004368" lon="-2.092404"></trkpt>
      <trkpt lat="40.007231" lon="-2.096755"></trkpt>
      <trkpt lat="40.009426" lon="-2.100563"></trkpt>
      <trkpt lat="40.012607" lon="-2.107016"></trkpt>
      <trkpt lat="40.018226" lon="-2.119404"></trkpt>
      <trkpt lat="40.020216" lon="-2.123258"></trkpt>
      <trkpt lat="40.021894" lon="-2.126194"></trkpt>
      <trkpt lat="40.025307" lon="-2.131479"></trkpt>
      <trkpt lat="40.036588" lon="-2.147337"></trkpt>
      <trkpt lat="40.043022" lon="-2.156695"></trkpt>
      <trkpt lat="40.050891" lon="-2.169845"></trkpt>
      <trkpt lat="40.051498" lon="-2.171071"></trkpt>
      <trkpt lat="40.055995" lon="-2.182623"></trkpt>
      <trkpt lat="40.057112" lon="-2.18644"></trkpt>
      <trkpt lat="40.058093" lon="-2.190347"></trkpt>
      <trkpt lat="40.058982" lon="-2.194522"></trkpt>
      <trkpt lat="40.059727" lon="-2.198973"></trkpt>
      <trkpt lat="40.060294" lon="-2.20343"></trkpt>
      <trkpt lat="40.060678" lon="-2.207921"></trkpt>
      <trkpt lat="40.060874" lon="-2.212433"></trkpt>
      <trkpt lat="40.060852" lon="-2.218421"></trkpt>
      <trkpt lat="40.060483" lon="-2.224446"></trkpt>
      <trkpt lat="40.059946" lon="-2.22939"></trkpt>
      <trkpt lat="40.05954" lon="-2.232223"></trkpt>
      <trkpt lat="40.058493" lon="-2.237856"></trkpt>
      <trkpt lat="40.057519" lon="-2.241964"></trkpt>
      <trkpt lat="40.056402" lon="-2.245959"></trkpt>
      <trkpt lat="40.05506" lon="-2.250078"></trkpt>
      <trkpt lat="40.053213" lon="-2.254961"></trkpt>
      <trkpt lat="40.05023" lon="-2.261476"></trkpt>
      <trkpt lat="40.043851" lon="-2.273474"></trkpt>
      <trkpt lat="40.042363" lon="-2.276661"></trkpt>
      <trkpt lat="40.041007" lon="-2.279948"></trkpt>
      <trkpt lat="40.039788" lon="-2.283325"></trkpt>
      <trkpt lat="40.038709" lon="-2.286782"></trkpt>
      <trkpt lat="40.037773" lon="-2.290309"></trkpt>
      <trkpt lat="40.036467" lon="-2.296441"></trkpt>
      <trkpt lat="40.035281" lon="-2.304125"></trkpt>
      <trkpt lat="40.034656" lon="-2.311513"></trkpt>
      <trkpt lat="40.034566" lon="-2.31809"></trkpt>
      <trkpt lat="40.034867" lon="-2.324599"></trkpt>
      <trkpt lat="40.035543" lon="-2.33098"></trkpt>
      <trkpt lat="40.036795" lon="-2.338198"></trkpt>
      <trkpt lat="40.038175" lon="-2.343827"></trkpt>
      <trkpt lat="40.040319" lon="-2.350789"></trkpt>
      <trkpt lat="40.041544" lon="-2.354183"></trkpt>
      <trkpt lat="40.044294" lon="-2.360771"></trkpt>
      <trkpt lat="40.046349" lon="-2.366798"></trkpt>
      <trkpt lat="40.047684" lon="-2.37164"></trkpt>
      <trkpt lat="40.049051" lon="-2.378169"></trkpt>
      <trkpt lat="40.049919" lon="-2.38445"></trkpt>
      <trkpt lat="40.050655" lon="-2.392448"></trkpt>
      <trkpt lat="40.051715" lon="-2.401883"></trkpt>
      <trkpt lat="40.052693" lon="-2.408862"></trkpt>
      <trkpt lat="40.055029" lon="-2.422623"></trkpt>
      <trkpt lat="40.055925" lon="-2.429041"></trkpt>
      <trkpt lat="40.056474" lon="-2.435582"></trkpt>
      <trkpt lat="40.056671" lon="-2.443023"></trkpt>
      <trkpt lat="40.056466" lon="-2.449575"></trkpt>
      <trkpt lat="40.055981" lon="-2.455517"></trkpt>
      <trkpt lat="40.054564" lon="-2.466375"></trkpt>
      <trkpt lat="40.049938" lon="-2.499157"></trkpt>
      <trkpt lat="40.048856" lon="-2.508644"></trkpt>
      <trkpt lat="40.048035" lon="-2.519996"></trkpt>
      <trkpt lat="40.047756" lon="-2.526445"></trkpt>
      <trkpt lat="40.047576" lon="-2.539359"></trkpt>
      <trkpt lat="40.047362" lon="-2.54417"></trkpt>
      <trkpt lat="40.046932" lon="-2.548956"></trkpt>
      <trkpt lat="40.046278" lon="-2.553699"></trkpt>
      <trkpt lat="40.045192" lon="-2.559383"></trkpt>
      <trkpt lat="40.043931" lon="-2.564639"></trkpt>
      <trkpt lat="40.041341" lon="-2.572823"></trkpt>
      <trkpt lat="40.038386" lon="-2.580041"></trkpt>
      <trkpt lat="40.034693" lon="-2.587758"></trkpt>
      <trkpt lat="40.032603" lon="-2.59248"></trkpt>
      <trkpt lat="40.03122" lon="-2.596049"></trkpt>
      <trkpt lat="40.029338" lon="-2.601725"></trkpt>
      <trkpt lat="40.02547" lon="-2.614592"></trkpt>
      <trkpt lat="40.023483" lon="-2.622099"></trkpt>
      <trkpt lat="40.022715" lon="-2.625809"></trkpt>
      <trkpt lat="40.021913" lon="-2.630723"></trkpt>
      <trkpt lat="40.021202" lon="-2.637074"></trkpt>
      <trkpt lat="40.020873" lon="-2.643286"></trkpt>
      <trkpt lat="40.020943" lon="-2.651201"></trkpt>
      <trkpt lat="40.021412" lon="-2.657333"></trkpt>
      <trkpt lat="40.022967" lon="-2.670958"></trkpt>
      <trkpt lat="40.023268" lon="-2.675082"></trkpt>
      <trkpt lat="40.023772" lon="-2.686329"></trkpt>
      <trkpt lat="40.024271" lon="-2.692771"></trkpt>
      <trkpt lat="40.02483" lon="-2.697669"></trkpt>
      <trkpt lat="40.030594" lon="-2.738066"></trkpt>
      <trkpt lat="40.031332" lon="-2.745376"></trkpt>
      <trkpt lat="40.031551" lon="-2.750027"></trkpt>
      <trkpt lat="40.031579" lon="-2.755286"></trkpt>
      <trkpt lat="40.031396" lon="-2.759805"></trkpt>
      <trkpt lat="40.030828" lon="-2.766141"></trkpt>
      <trkpt lat="40.024663" lon="-2.814446"></trkpt>
      <trkpt lat="40.023594" lon="-2.822487"></trkpt>
      <trkpt lat="40.023005" lon="-2.826063"></trkpt>
      <trkpt lat="40.022283" lon="-2.82968"></trkpt>
      <trkpt lat="40.020403" lon="-2.837417"></trkpt>
      <trkpt lat="40.01379" lon="-2.862544"></trkpt>
      <trkpt lat="40.01182" lon="-2.87143"></trkpt>
      <trkpt lat="40.01148" lon="-2.87356"></trkpt>
      <trkpt lat="40.010759" lon="-2.879109"></trkpt>
      <trkpt lat="40.010332" lon="-2.884436"></trkpt>
      <trkpt lat="40.010178" lon="-2.88905"></trkpt>
      <trkpt lat="40.010108" lon="-2.89852"></trkpt>
      <trkpt lat="40.009782" lon="-2.904551"></trkpt>
      <trkpt lat="40.009034" lon="-2.911265"></trkpt>
      <trkpt lat="40.007615" lon="-2.919121"></trkpt>
      <trkpt lat="40.006522" lon="-2.923548"></trkpt>
      <trkpt lat="40.005152" lon="-2.928231"></trkpt>
      <trkpt lat="40.003124" lon="-2.933976"></trkpt>
      <trkpt lat="40.001004" lon="-2.939003"></trkpt>
      <trkpt lat="39.998975" lon="-2.943161"></trkpt>
      <trkpt lat="39.991995" lon="-2.954905"></trkpt>
      <trkpt lat="39.98883" lon="-2.960666"></trkpt>
      <trkpt lat="39.985959" lon="-2.966975"></trkpt>
      <trkpt lat="39.984102" lon="-2.971836"></trkpt>
      <trkpt lat="39.98236" lon="-2.977263"></trkpt>
      <trkpt lat="39.972962" lon="-3.011413"></trkpt>
      <trkpt lat="39.971701" lon="-3.016567"></trkpt>
      <trkpt lat="39.971118" lon="-3.01947"></trkpt>
      <trkpt lat="39.970112" lon="-3.025974"></trkpt>
      <trkpt lat="39.969532" lon="-3.032441"></trkpt>
      <trkpt lat="39.969355" lon="-3.040169"></trkpt>
      <trkpt lat="39.969594" lon="-3.046089"></trkpt>
      <trkpt lat="39.970231" lon="-3.05246"></trkpt>
      <trkpt lat="39.971029" lon="-3.0576"></trkpt>
      <trkpt lat="39.972703" lon="-3.065214"></trkpt>
      <trkpt lat="39.974486" lon="-3.071225"></trkpt>
      <trkpt lat="39.978225" lon="-3.082505"></trkpt>
      <trkpt lat="39.979541" lon="-3.087513"></trkpt>
      <trkpt lat="39.980842" lon="-3.093896"></trkpt>
      <trkpt lat="39.981664" lon="-3.099594"></trkpt>
      <trkpt lat="39.982001" lon="-3.102759"></trkpt>
      <trkpt lat="39.982323" lon="-3.107701"></trkpt>
      <trkpt lat="39.982406" lon="-3.114251"></trkpt>
      <trkpt lat="39.982065" lon="-3.121554"></trkpt>
      <trkpt lat="39.981515" lon="-3.129354"></trkpt>
      <trkpt lat="39.980845" lon="-3.135269"></trkpt>
      <trkpt lat="39.979798" lon="-3.141409"></trkpt>
      <trkpt lat="39.978677" lon="-3.146411"></trkpt>
      <trkpt lat="39.977356" lon="-3.151181"></trkpt>
      <trkpt lat="39.970918" lon="-3.17201"></trkpt>
      <trkpt lat="39.969572" lon="-3.176902"></trkpt>
      <trkpt lat="39.968164" lon="-3.183405"></trkpt>
      <trkpt lat="39.966073" lon="-3.195747"></trkpt>
      <trkpt lat="39.964348" lon="-3.203026"></trkpt>
      <trkpt lat="39.963191" lon="-3.206907"></trkpt>
      <trkpt lat="39.961812" lon="-3.210944"></trkpt>
      <trkpt lat="39.957398" lon="-3.222276"></trkpt>
      <trkpt lat="39.956093" lon="-3.226195"></trkpt>
      <trkpt lat="39.955143" lon="-3.229483"></trkpt>
      <trkpt lat="39.953949" lon="-3.234284"></trkpt>
      <trkpt lat="39.953131" lon="-3.238323"></trkpt>
      <trkpt lat="39.952557" lon="-3.241747"></trkpt>
      <trkpt lat="39.951858" lon="-3.247526"></trkpt>
      <trkpt lat="39.951482" lon="-3.25285"></trkpt>
      <trkpt lat="39.9514" lon="-3.260686"></trkpt>
      <trkpt lat="39.951726" lon="-3.266834"></trkpt>
      <trkpt lat="39.952238" lon="-3.271723"></trkpt>
      <trkpt lat="39.95305" lon="-3.277117"></trkpt>
      <trkpt lat="39.954305" lon="-3.283102"></trkpt>
      <trkpt lat="39.955518" lon="-3.287744"></trkpt>
      <trkpt lat="39.959199" lon="-3.299598"></trkpt>
      <trkpt lat="39.960503" lon="-3.304955"></trkpt>
      <trkpt lat="39.961132" lon="-3.308179"></trkpt>
      <trkpt lat="39.961932" lon="-3.313593"></trkpt>
      <trkpt lat="39.96244" lon="-3.319254"></trkpt>
      <trkpt lat="39.962624" lon="-3.324029"></trkpt>
      <trkpt lat="39.962539" lon="-3.329404"></trkpt>
      <trkpt lat="39.961977" lon="-3.336608"></trkpt>
      <trkpt lat="39.961362" lon="-3.340992"></trkpt>
      <trkpt lat="39.960518" lon="-3.345462"></trkpt>
      <trkpt lat="39.952701" lon="-3.380437"></trkpt>
      <trkpt lat="39.946788" lon="-3.406263"></trkpt>
      <trkpt lat="39.945806" lon="-3.411101"></trkpt>
      <trkpt lat="39.94498" lon="-3.41658"></trkpt>
      <trkpt lat="39.944527" lon="-3.421505"></trkpt>
      <trkpt lat="39.944344" lon="-3.424974"></trkpt>
      <trkpt lat="39.944301" lon="-3.430197"></trkpt>
      <trkpt lat="39.944481" lon="-3.438986"></trkpt>
      <trkpt lat="39.944378" lon="-3.44272"></trkpt>
      <trkpt lat="39.944044" lon="-3.447188"></trkpt>
      <trkpt lat="39.943544" lon="-3.451242"></trkpt>
      <trkpt lat="39.943008" lon="-3.454425"></trkpt>
      <trkpt lat="39.940394" lon="-3.46599"></trkpt>
      <trkpt lat="39.93973" lon="-3.469752"></trkpt>
      <trkpt lat="39.939202" lon="-3.4739"></trkpt>
      <trkpt lat="39.938818" lon="-3.480096"></trkpt>
      <trkpt lat="39.938906" lon="-3.486212"></trkpt>
      <trkpt lat="39.939432" lon="-3.492111"></trkpt>
      <trkpt lat="39.940528" lon="-3.498561"></trkpt>
      <trkpt lat="39.941359" lon="-3.50207"></trkpt>
      <trkpt lat="39.942389" lon="-3.505699"></trkpt>
      <trkpt lat="39.9447" lon="-3.512008"></trkpt>
      <trkpt lat="39.947584" lon="-3.518204"></trkpt>
      <trkpt lat="39.951078" lon="-3.523754"></trkpt>
      <trkpt lat="39.959856" lon="-3.536108"></trkpt>
      <trkpt lat="39.962676" lon="-3.540909"></trkpt>
      <trkpt lat="39.964773" lon="-3.54516"></trkpt>
      <trkpt lat="39.966819" lon="-3.550156"></trkpt>
      <trkpt lat="39.96827" lon="-3.554453"></trkpt>
      <trkpt lat="39.972657" lon="-3.57073"></trkpt>
      <trkpt lat="39.973588" lon="-3.573682"></trkpt>
      <trkpt lat="39.975439" lon="-3.578639"></trkpt>
      <trkpt lat="39.977172" lon="-3.582403"></trkpt>
      <trkpt lat="39.978644" lon="-3.585236"></trkpt>
      <trkpt lat="39.980746" lon="-3.588762"></trkpt>
      <trkpt lat="39.982259" lon="-3.591014"></trkpt>
      <trkpt lat="39.984284" lon="-3.593711"></trkpt>
      <trkpt lat="39.986903" lon="-3.59679"></trkpt>
      <trkpt lat="39.989431" lon="-3.599366"></trkpt>
      <trkpt lat="39.991282" lon="-3.601053"></trkpt>
      <trkpt lat="39.996189" lon="-3.605016"></trkpt>
      <trkpt lat="39.998192" lon="-3.606893"></trkpt>
      <trkpt lat="40.000095" lon="-3.60894"></trkpt>
      <trkpt lat="40.001889" lon="-3.611148"></trkpt>
      <trkpt lat="40.003566" lon="-3.613507"></trkpt>
      <trkpt lat="40.00512" lon="-3.616006"></trkpt>
      <trkpt lat="40.006542" lon="-3.618635"></trkpt>
      <trkpt lat="40.008642" lon="-3.623383"></trkpt>
      <trkpt lat="40.010158" lon="-3.627868"></trkpt>
      <trkpt lat="40.01198" lon="-3.634808"></trkpt>
      <trkpt lat="40.012857" lon="-3.637681"></trkpt>
      <trkpt lat="40.014839" lon="-3.642708"></trkpt>
      <trkpt lat="40.016666" lon="-3.646326"></trkpt>
      <trkpt lat="40.018617" lon="-3.649538"></trkpt>
      <trkpt lat="40.021422" lon="-3.653301"></trkpt>
      <trkpt lat="40.023564" lon="-3.655682"></trkpt>
      <trkpt lat="40.026946" lon="-3.658755"></trkpt>
      <trkpt lat="40.036682" lon="-3.665839"></trkpt>
      <trkpt lat="40.039219" lon="-3.667486"></trkpt>
      <trkpt lat="40.042626" lon="-3.669351"></trkpt>
      <trkpt lat="40.045425" lon="-3.6706"></trkpt>
      <trkpt lat="40.048275" lon="-3.671631"></trkpt>
      <trkpt lat="40.051167" lon="-3.67244"></trkpt>
      <trkpt lat="40.055126" lon="-3.673182"></trkpt>
      <trkpt lat="40.074933" lon="-3.675749"></trkpt>
      <trkpt lat="40.07745" lon="-3.676032"></trkpt>
      <trkpt lat="40.080083" lon="-3.676171"></trkpt>
      <trkpt lat="40.082867" lon="-3.676101"></trkpt>
      <trkpt lat="40.087119" lon="-3.675549"></trkpt>
      <trkpt lat="40.094114" lon="-3.673746"></trkpt>
      <trkpt lat="40.096653" lon="-3.673256"></trkpt>
      <trkpt lat="40.099649" lon="-3.67297"></trkpt>
      <trkpt lat="40.101158" lon="-3.672943"></trkpt>
      <trkpt lat="40.104089" lon="-3.673141"></trkpt>
      <trkpt lat="40.107296" lon="-3.673726"></trkpt>
      <trkpt lat="40.109624" lon="-3.674401"></trkpt>
      <trkpt lat="40.112586" lon="-3.675558"></trkpt>
      <trkpt lat="40.115126" lon="-3.67684"></trkpt>
      <trkpt lat="40.125841" lon="-3.682909"></trkpt>
      <trkpt lat="40.128954" lon="-3.684878"></trkpt>
      <trkpt lat="40.13131" lon="-3.68664"></trkpt>
      <trkpt lat="40.13438" lon="-3.689383"></trkpt>
      <trkpt lat="40.136687" lon="-3.691842"></trkpt>
      <trkpt lat="40.146204" lon="-3.703469"></trkpt>
      <trkpt lat="40.177353" lon="-3.742287"></trkpt>
      <trkpt lat="40.179601" lon="-3.744539"></trkpt>
      <trkpt lat="40.181779" lon="-3.746254"></trkpt>
      <trkpt lat="40.184039" lon="-3.747616"></trkpt>
      <trkpt lat="40.186666" lon="-3.748758"></trkpt>
      <trkpt lat="40.188381" lon="-3.749274"></trkpt>
      <trkpt lat="40.190876" lon="-3.749712"></trkpt>
      <trkpt lat="40.193239" lon="-3.749844"></trkpt>
      <trkpt lat="40.195468" lon="-3.749821"></trkpt>
      <trkpt lat="40.205844" lon="-3.749198"></trkpt>
      <trkpt lat="40.211752" lon="-3.748318"></trkpt>
      <trkpt lat="40.213739" lon="-3.748157"></trkpt>
      <trkpt lat="40.220597" lon="-3.748018"></trkpt>
      <trkpt lat="40.223299" lon="-3.747588"></trkpt>
      <trkpt lat="40.230071" lon="-3.745662"></trkpt>
      <trkpt lat="40.244161" lon="-3.742181"></trkpt>
      <trkpt lat="40.24686" lon="-3.741349"></trkpt>
      <trkpt lat="40.249267" lon="-3.740443"></trkpt>
      <trkpt lat="40.252401" lon="-3.738813"></trkpt>
      <trkpt lat="40.256383" lon="-3.735953"></trkpt>
      <trkpt lat="40.257333" lon="-3.73519"></trkpt>
      <trkpt lat="40.259126" lon="-3.73341"></trkpt>
      <trkpt lat="40.260051" lon="-3.732433"></trkpt>
      <trkpt lat="40.261617" lon="-3.730481"></trkpt>
      <trkpt lat="40.263646" lon="-3.727689"></trkpt>
      <trkpt lat="40.267116" lon="-3.722144"></trkpt>
      <trkpt lat="40.270534" lon="-3.717483"></trkpt>
      <trkpt lat="40.27401" lon="-3.713869"></trkpt>
      <trkpt lat="40.276538" lon="-3.711448"></trkpt>
      <trkpt lat="40.27793" lon="-3.709924"></trkpt>
      <trkpt lat="40.279878" lon="-3.707489"></trkpt>
      <trkpt lat="40.282304" lon="-3.703486"></trkpt>
      <trkpt lat="40.284011" lon="-3.699724"></trkpt>
      <trkpt lat="40.285263" lon="-3.69616"></trkpt>
      <trkpt lat="40.287319" lon="-3.688713"></trkpt>
      <trkpt lat="40.288327" lon="-3.685906"></trkpt>
      <trkpt lat="40.289658" lon="-3.682834"></trkpt>
      <trkpt lat="40.291399" lon="-3.679676"></trkpt>
      <trkpt lat="40.293384" lon="-3.676702"></trkpt>
      <trkpt lat="40.305557" lon="-3.659553"></trkpt>
      <trkpt lat="40.308232" lon="-3.656477"></trkpt>
      <trkpt lat="40.31007" lon="-3.654638"></trkpt>
      <trkpt lat="40.311721" lon="-3.653178"></trkpt>
      <trkpt lat="40.313666" lon="-3.651669"></trkpt>
      <trkpt lat="40.314812" lon="-3.650926"></trkpt>
      <trkpt lat="40.316873" lon="-3.649887"></trkpt>
      <trkpt lat="40.318728" lon="-3.649228"></trkpt>
      <trkpt lat="40.319884" lon="-3.648943"></trkpt>
      <trkpt lat="40.322027" lon="-3.648639"></trkpt>
      <trkpt lat="40.323251" lon="-3.648619"></trkpt>
      <trkpt lat="40.325141" lon="-3.64881"></trkpt>
      <trkpt lat="40.326948" lon="-3.649197"></trkpt>
      <trkpt lat="40.329817" lon="-3.650278"></trkpt>
      <trkpt lat="40.331922" lon="-3.651527"></trkpt>
      <trkpt lat="40.334802" lon="-3.653847"></trkpt>
      <trkpt lat="40.340591" lon="-3.659327"></trkpt>
      <trkpt lat="40.351562" lon="-3.670244"></trkpt>
      <trkpt lat="40.353234" lon="-3.671719"></trkpt>
      <trkpt lat="40.354532" lon="-3.672687"></trkpt>
      <trkpt lat="40.356365" lon="-3.673821"></trkpt>
      <trkpt lat="40.358241" lon="-3.67472"></trkpt>
      <trkpt lat="40.365642" lon="-3.677374"></trkpt>
      <trkpt lat="40.368969" lon="-3.678354"></trkpt>
      <trkpt lat="40.37071" lon="-3.679056"></trkpt>
      <trkpt lat="40.373001" lon="-3.680285"></trkpt>
      <trkpt lat="40.375733" lon="-3.682031"></trkpt>
      <trkpt lat="40.376674" lon="-3.682442"></trkpt>
      <trkpt lat="40.378798" lon="-3.682956"></trkpt>
      <trkpt lat="40.379961" lon="-3.683073"></trkpt>
      <trkpt lat="40.380972" lon="-3.682919"></trkpt>
      <trkpt lat="40.382082" lon="-3.682429"></trkpt>
      <trkpt lat="40.383261" lon="-3.681333"></trkpt>
      <trkpt lat="40.38465" lon="-3.678993"></trkpt>
      <trkpt lat="40.385704" lon="-3.677672"></trkpt>
      <trkpt lat="40.388653" lon="-3.674697"></trkpt>
      <trkpt lat="40.38936" lon="-3.674141"></trkpt>
      <trkpt lat="40.390258" lon="-3.67365"></trkpt>
      <trkpt lat="40.39162" lon="-3.673281"></trkpt>
      <trkpt lat="40.392755" lon="-3.673295"></trkpt>
      <trkpt lat="40.39394" lon="-3.673601"></trkpt>
      <trkpt lat="40.395688" lon="-3.674286"></trkpt>
      <trkpt lat="40.396693" lon="-3.674854"></trkpt>
      <trkpt lat="40.397941" lon="-3.675914"></trkpt>
      <trkpt lat="40.398925" lon="-3.677008"></trkpt>
      <trkpt lat="40.399787" lon="-3.678231"></trkpt>
      <trkpt lat="40.400365" lon="-3.680007"></trkpt>
      <trkpt lat="40.40071" lon="-3.682999"></trkpt>
      <trkpt lat="40.401629" lon="-3.685556"></trkpt>
      <trkpt lat="40.402072" lon="-3.686399"></trkpt>
      <trkpt lat="40.40696" lon="-3.691796"></trkpt>
      <trkpt lat="40.407789" lon="-3.692272"></trkpt>
      <trkpt lat="40.408852" lon="-3.692334"></trkpt>
      <trkpt lat="40.409712" lon="-3.691898"></trkpt>
      <trkpt lat="40.410346" lon="-3.69115"></trkpt>
      <trkpt lat="40.411169" lon="-3.689492"></trkpt>
      <trkpt lat="40.411721" lon="-3.688972"></trkpt>
      <trkpt lat="40.412152" lon="-3.688851"></trkpt>
      <trkpt lat="40.417206" lon="-3.688973"></trkpt>
      <trkpt lat="40.422965" lon="-3.688297"></trkpt>
      <trkpt lat="40.430544" lon="-3.686945"></trkpt>
      <trkpt lat="40.446263" lon="-3.685582"></trkpt>
      <trkpt lat="40.449383" lon="-3.684842"></trkpt>
      <trkpt lat="40.452729" lon="-3.684284"></trkpt>
      <trkpt lat="40.4564" lon="-3.684295"></trkpt>
      <trkpt lat="40.46024" lon="-3.684671"></trkpt>
      <trkpt lat="40.461175" lon="-3.68438"></trkpt>
      <trkpt lat="40.463925" lon="-3.682856"></trkpt>
      <trkpt lat="40.464605" lon="-3.682657"></trkpt>
      <trkpt lat="40.465147" lon="-3.682621"></trkpt>
      <trkpt lat="40.468242" lon="-3.682983"></trkpt>
      <trkpt lat="40.469003" lon="-3.682877"></trkpt>
      <trkpt lat="40.479462" lon="-3.678536"></trkpt>
      <trkpt lat="40.482861" lon="-3.67672"></trkpt>
      <trkpt lat="40.484703" lon="-3.675967"></trkpt>
      <trkpt lat="40.485429" lon="-3.675919"></trkpt>
      <trkpt lat="40.485945" lon="-3.676025"></trkpt>
      <trkpt lat="40.487981" lon="-3.677151"></trkpt>
      <trkpt lat="40.486675" lon="-3.676588"></trkpt>
      <trkpt lat="40.48632" lon="-3.676538"></trkpt>
      <trkpt lat="40.484146" lon="-3.67683"></trkpt>
      <trkpt lat="40.480598" lon="-3.678584"></trkpt>
      <trkpt lat="40.477319" lon="-3.680471"></trkpt>
      <trkpt lat="40.472718" lon="-3.682394"></trkpt>
  </trkseg></trk>
</gpx>
