<?xml version="1.0" encoding="UTF-8"?>
<gpx version="1.1" creator="yatutbuv" xmlns="http://www.topografix.com/GPX/1/1">
  <trk><name>1990і_Lviv-Slavsko (137.9km)</name><trkseg>
      <trkpt lat="49.839997" lon="23.993806"></trkpt>
      <trkpt lat="49.838812" lon="23.993019"></trkpt>
      <trkpt lat="49.83816" lon="23.992337"></trkpt>
      <trkpt lat="49.837511" lon="23.991162"></trkpt>
      <trkpt lat="49.837002" lon="23.989601"></trkpt>
      <trkpt lat="49.835536" lon="23.981564"></trkpt>
      <trkpt lat="49.834454" lon="23.977559"></trkpt>
      <trkpt lat="49.834139" lon="23.975865"></trkpt>
      <trkpt lat="49.83405" lon="23.972758"></trkpt>
      <trkpt lat="49.834739" lon="23.967844"></trkpt>
      <trkpt lat="49.834573" lon="23.965832"></trkpt>
      <trkpt lat="49.827046" lon="23.942619"></trkpt>
      <trkpt lat="49.826245" lon="23.940541"></trkpt>
      <trkpt lat="49.825553" lon="23.939359"></trkpt>
      <trkpt lat="49.824596" lon="23.93807"></trkpt>
      <trkpt lat="49.817185" lon="23.931406"></trkpt>
      <trkpt lat="49.803208" lon="23.915906"></trkpt>
      <trkpt lat="49.801372" lon="23.913223"></trkpt>
      <trkpt lat="49.798234" lon="23.908253"></trkpt>
      <trkpt lat="49.796332" lon="23.904174"></trkpt>
      <trkpt lat="49.795566" lon="23.902794"></trkpt>
      <trkpt lat="49.791907" lon="23.89777"></trkpt>
      <trkpt lat="49.790755" lon="23.896574"></trkpt>
      <trkpt lat="49.788537" lon="23.895326"></trkpt>
      <trkpt lat="49.787545" lon="23.894925"></trkpt>
      <trkpt lat="49.776918" lon="23.891394"></trkpt>
      <trkpt lat="49.775225" lon="23.890445"></trkpt>
      <trkpt lat="49.768285" lon="23.885928"></trkpt>
      <trkpt lat="49.767207" lon="23.885365"></trkpt>
      <trkpt lat="49.766361" lon="23.885081"></trkpt>
      <trkpt lat="49.76532" lon="23.884897"></trkpt>
      <trkpt lat="49.763766" lon="23.885022"></trkpt>
      <trkpt lat="49.761912" lon="23.885416"></trkpt>
      <trkpt lat="49.754784" lon="23.88833"></trkpt>
      <trkpt lat="49.753088" lon="23.888893"></trkpt>
      <trkpt lat="49.751755" lon="23.889014"></trkpt>
      <trkpt lat="49.748543" lon="23.888941"></trkpt>
      <trkpt lat="49.747726" lon="23.889078"></trkpt>
      <trkpt lat="49.747126" lon="23.889312"></trkpt>
      <trkpt lat="49.746242" lon="23.889873"></trkpt>
      <trkpt lat="49.744412" lon="23.891763"></trkpt>
      <trkpt lat="49.74356" lon="23.892491"></trkpt>
      <trkpt lat="49.732229" lon="23.900641"></trkpt>
      <trkpt lat="49.729172" lon="23.902303"></trkpt>
      <trkpt lat="49.723313" lon="23.905117"></trkpt>
      <trkpt lat="49.718642" lon="23.90783"></trkpt>
      <trkpt lat="49.717483" lon="23.908324"></trkpt>
      <trkpt lat="49.716262" lon="23.908418"></trkpt>
      <trkpt lat="49.715129" lon="23.908103"></trkpt>
      <trkpt lat="49.70526" lon="23.902781"></trkpt>
      <trkpt lat="49.704093" lon="23.90242"></trkpt>
      <trkpt lat="49.702986" lon="23.902359"></trkpt>
      <trkpt lat="49.701838" lon="23.902574"></trkpt>
      <trkpt lat="49.700996" lon="23.902935"></trkpt>
      <trkpt lat="49.694127" lon="23.907103"></trkpt>
      <trkpt lat="49.692483" lon="23.907949"></trkpt>
      <trkpt lat="49.685108" lon="23.909858"></trkpt>
      <trkpt lat="49.683686" lon="23.909987"></trkpt>
      <trkpt lat="49.682753" lon="23.90985"></trkpt>
      <trkpt lat="49.681845" lon="23.909527"></trkpt>
      <trkpt lat="49.680956" lon="23.909016"></trkpt>
      <trkpt lat="49.680012" lon="23.908227"></trkpt>
      <trkpt lat="49.679252" lon="23.907348"></trkpt>
      <trkpt lat="49.66676" lon="23.886797"></trkpt>
      <trkpt lat="49.658108" lon="23.875515"></trkpt>
      <trkpt lat="49.656586" lon="23.872223"></trkpt>
      <trkpt lat="49.653791" lon="23.86459"></trkpt>
      <trkpt lat="49.653277" lon="23.863473"></trkpt>
      <trkpt lat="49.65192" lon="23.861378"></trkpt>
      <trkpt lat="49.650656" lon="23.859699"></trkpt>
      <trkpt lat="49.649932" lon="23.8591"></trkpt>
      <trkpt lat="49.648848" lon="23.85876"></trkpt>
      <trkpt lat="49.64844" lon="23.858756"></trkpt>
      <trkpt lat="49.647746" lon="23.858948"></trkpt>
      <trkpt lat="49.646949" lon="23.859379"></trkpt>
      <trkpt lat="49.640804" lon="23.864161"></trkpt>
      <trkpt lat="49.639764" lon="23.864857"></trkpt>
      <trkpt lat="49.6385" lon="23.865432"></trkpt>
      <trkpt lat="49.634721" lon="23.866542"></trkpt>
      <trkpt lat="49.633751" lon="23.866923"></trkpt>
      <trkpt lat="49.621162" lon="23.874457"></trkpt>
      <trkpt lat="49.620275" lon="23.874892"></trkpt>
      <trkpt lat="49.619434" lon="23.875187"></trkpt>
      <trkpt lat="49.618146" lon="23.875386"></trkpt>
      <trkpt lat="49.613731" lon="23.875117"></trkpt>
      <trkpt lat="49.612846" lon="23.875192"></trkpt>
      <trkpt lat="49.611888" lon="23.875456"></trkpt>
      <trkpt lat="49.599026" lon="23.882185"></trkpt>
      <trkpt lat="49.597925" lon="23.883095"></trkpt>
      <trkpt lat="49.596887" lon="23.884465"></trkpt>
      <trkpt lat="49.594392" lon="23.889342"></trkpt>
      <trkpt lat="49.592974" lon="23.891584"></trkpt>
      <trkpt lat="49.585493" lon="23.900114"></trkpt>
      <trkpt lat="49.583931" lon="23.901534"></trkpt>
      <trkpt lat="49.583123" lon="23.902031"></trkpt>
      <trkpt lat="49.582361" lon="23.902372"></trkpt>
      <trkpt lat="49.581026" lon="23.902724"></trkpt>
      <trkpt lat="49.567813" lon="23.90463"></trkpt>
      <trkpt lat="49.565086" lon="23.905127"></trkpt>
      <trkpt lat="49.562693" lon="23.905099"></trkpt>
      <trkpt lat="49.562008" lon="23.905276"></trkpt>
      <trkpt lat="49.561149" lon="23.905798"></trkpt>
      <trkpt lat="49.560429" lon="23.906486"></trkpt>
      <trkpt lat="49.551247" lon="23.917117"></trkpt>
      <trkpt lat="49.549742" lon="23.918447"></trkpt>
      <trkpt lat="49.548307" lon="23.919346"></trkpt>
      <trkpt lat="49.526803" lon="23.931321"></trkpt>
      <trkpt lat="49.525421" lon="23.932431"></trkpt>
      <trkpt lat="49.524427" lon="23.933661"></trkpt>
      <trkpt lat="49.519684" lon="23.940919"></trkpt>
      <trkpt lat="49.516845" lon="23.945524"></trkpt>
      <trkpt lat="49.514968" lon="23.948153"></trkpt>
      <trkpt lat="49.508949" lon="23.95739"></trkpt>
      <trkpt lat="49.508381" lon="23.958085"></trkpt>
      <trkpt lat="49.507226" lon="23.95917"></trkpt>
      <trkpt lat="49.502772" lon="23.962656"></trkpt>
      <trkpt lat="49.501559" lon="23.963347"></trkpt>
      <trkpt lat="49.50064" lon="23.96343"></trkpt>
      <trkpt lat="49.50007" lon="23.963299"></trkpt>
      <trkpt lat="49.498809" lon="23.962708"></trkpt>
      <trkpt lat="49.493593" lon="23.959625"></trkpt>
      <trkpt lat="49.492503" lon="23.95916"></trkpt>
      <trkpt lat="49.491662" lon="23.958963"></trkpt>
      <trkpt lat="49.454946" lon="23.956987"></trkpt>
      <trkpt lat="49.40803" lon="23.94849"></trkpt>
      <trkpt lat="49.397578" lon="23.946685"></trkpt>
      <trkpt lat="49.39652" lon="23.94637"></trkpt>
      <trkpt lat="49.395553" lon="23.945928"></trkpt>
      <trkpt lat="49.393111" lon="23.94446"></trkpt>
      <trkpt lat="49.388996" lon="23.941625"></trkpt>
      <trkpt lat="49.382607" lon="23.937695"></trkpt>
      <trkpt lat="49.340923" lon="23.911073"></trkpt>
      <trkpt lat="49.299578" lon="23.874741"></trkpt>
      <trkpt lat="49.275043" lon="23.856834"></trkpt>
      <trkpt lat="49.265395" lon="23.849628"></trkpt>
      <trkpt lat="49.264468" lon="23.848568"></trkpt>
      <trkpt lat="49.262503" lon="23.845808"></trkpt>
      <trkpt lat="49.254181" lon="23.833319"></trkpt>
      <trkpt lat="49.252109" lon="23.8299"></trkpt>
      <trkpt lat="49.250991" lon="23.827057"></trkpt>
      <trkpt lat="49.246981" lon="23.817786"></trkpt>
      <trkpt lat="49.24515" lon="23.814096"></trkpt>
      <trkpt lat="49.24155" lon="23.805715"></trkpt>
      <trkpt lat="49.21396" lon="23.747949"></trkpt>
      <trkpt lat="49.212466" lon="23.744895"></trkpt>
      <trkpt lat="49.211534" lon="23.743451"></trkpt>
      <trkpt lat="49.210584" lon="23.74257"></trkpt>
      <trkpt lat="49.14472" lon="23.691242"></trkpt>
      <trkpt lat="49.143037" lon="23.689642"></trkpt>
      <trkpt lat="49.131695" lon="23.677352"></trkpt>
      <trkpt lat="49.130649" lon="23.676343"></trkpt>
      <trkpt lat="49.12931" lon="23.67545"></trkpt>
      <trkpt lat="49.118185" lon="23.670274"></trkpt>
      <trkpt lat="49.116902" lon="23.669387"></trkpt>
      <trkpt lat="49.115407" lon="23.667818"></trkpt>
      <trkpt lat="49.114793" lon="23.666958"></trkpt>
      <trkpt lat="49.114236" lon="23.665866"></trkpt>
      <trkpt lat="49.103148" lon="23.639953"></trkpt>
      <trkpt lat="49.102495" lon="23.638226"></trkpt>
      <trkpt lat="49.101983" lon="23.636068"></trkpt>
      <trkpt lat="49.101789" lon="23.633064"></trkpt>
      <trkpt lat="49.101703" lon="23.621609"></trkpt>
      <trkpt lat="49.101802" lon="23.617139"></trkpt>
      <trkpt lat="49.102161" lon="23.614587"></trkpt>
      <trkpt lat="49.104419" lon="23.603741"></trkpt>
      <trkpt lat="49.104565" lon="23.602155"></trkpt>
      <trkpt lat="49.104457" lon="23.60049"></trkpt>
      <trkpt lat="49.104238" lon="23.599247"></trkpt>
      <trkpt lat="49.10253" lon="23.594595"></trkpt>
      <trkpt lat="49.101659" lon="23.593255"></trkpt>
      <trkpt lat="49.100712" lon="23.59245"></trkpt>
      <trkpt lat="49.099109" lon="23.591573"></trkpt>
      <trkpt lat="49.081908" lon="23.583554"></trkpt>
      <trkpt lat="49.080228" lon="23.582355"></trkpt>
      <trkpt lat="49.079018" lon="23.581008"></trkpt>
      <trkpt lat="49.054979" lon="23.540321"></trkpt>
      <trkpt lat="49.052551" lon="23.534619"></trkpt>
      <trkpt lat="49.051885" lon="23.530972"></trkpt>
      <trkpt lat="49.051385" lon="23.52941"></trkpt>
      <trkpt lat="49.050973" lon="23.528587"></trkpt>
      <trkpt lat="49.048663" lon="23.525188"></trkpt>
      <trkpt lat="49.048017" lon="23.52396"></trkpt>
      <trkpt lat="49.042728" lon="23.51163"></trkpt>
      <trkpt lat="49.041012" lon="23.50817"></trkpt>
      <trkpt lat="49.040476" lon="23.507469"></trkpt>
      <trkpt lat="49.039971" lon="23.507012"></trkpt>
      <trkpt lat="49.039009" lon="23.506262"></trkpt>
      <trkpt lat="49.038009" lon="23.505728"></trkpt>
      <trkpt lat="49.030894" lon="23.50385"></trkpt>
      <trkpt lat="49.028756" lon="23.503237"></trkpt>
      <trkpt lat="49.028178" lon="23.502967"></trkpt>
      <trkpt lat="49.027755" lon="23.502597"></trkpt>
      <trkpt lat="49.027221" lon="23.501877"></trkpt>
      <trkpt lat="49.026062" lon="23.498906"></trkpt>
      <trkpt lat="49.025491" lon="23.49808"></trkpt>
      <trkpt lat="49.024715" lon="23.49757"></trkpt>
      <trkpt lat="49.022229" lon="23.496938"></trkpt>
      <trkpt lat="49.021507" lon="23.496331"></trkpt>
      <trkpt lat="49.021029" lon="23.495509"></trkpt>
      <trkpt lat="49.02067" lon="23.494339"></trkpt>
      <trkpt lat="49.018531" lon="23.483015"></trkpt>
      <trkpt lat="49.018202" lon="23.481793"></trkpt>
      <trkpt lat="49.017749" lon="23.480708"></trkpt>
      <trkpt lat="49.01709" lon="23.479688"></trkpt>
      <trkpt lat="49.015241" lon="23.477647"></trkpt>
      <trkpt lat="49.014391" lon="23.477017"></trkpt>
      <trkpt lat="49.013827" lon="23.476775"></trkpt>
      <trkpt lat="49.013062" lon="23.476667"></trkpt>
      <trkpt lat="49.01099" lon="23.476724"></trkpt>
      <trkpt lat="49.010294" lon="23.476508"></trkpt>
      <trkpt lat="49.007119" lon="23.472952"></trkpt>
      <trkpt lat="49.003787" lon="23.470099"></trkpt>
      <trkpt lat="49.002865" lon="23.469538"></trkpt>
      <trkpt lat="49.002262" lon="23.46951"></trkpt>
      <trkpt lat="49.000715" lon="23.469991"></trkpt>
      <trkpt lat="48.99976" lon="23.470059"></trkpt>
      <trkpt lat="48.99908" lon="23.4698"></trkpt>
      <trkpt lat="48.996795" lon="23.467786"></trkpt>
      <trkpt lat="48.995791" lon="23.467299"></trkpt>
      <trkpt lat="48.988978" lon="23.466845"></trkpt>
      <trkpt lat="48.986726" lon="23.466805"></trkpt>
      <trkpt lat="48.985955" lon="23.467066"></trkpt>
      <trkpt lat="48.981566" lon="23.469329"></trkpt>
      <trkpt lat="48.974495" lon="23.471403"></trkpt>
      <trkpt lat="48.973205" lon="23.471641"></trkpt>
      <trkpt lat="48.97228" lon="23.472075"></trkpt>
      <trkpt lat="48.971562" lon="23.47297"></trkpt>
      <trkpt lat="48.97121" lon="23.473817"></trkpt>
      <trkpt lat="48.97075" lon="23.477995"></trkpt>
      <trkpt lat="48.970286" lon="23.479328"></trkpt>
      <trkpt lat="48.969435" lon="23.480379"></trkpt>
      <trkpt lat="48.967095" lon="23.481568"></trkpt>
      <trkpt lat="48.966504" lon="23.481624"></trkpt>
      <trkpt lat="48.96435" lon="23.481366"></trkpt>
      <trkpt lat="48.960435" lon="23.482294"></trkpt>
      <trkpt lat="48.959171" lon="23.482267"></trkpt>
      <trkpt lat="48.958533" lon="23.482041"></trkpt>
      <trkpt lat="48.957388" lon="23.481285"></trkpt>
      <trkpt lat="48.952828" lon="23.477048"></trkpt>
      <trkpt lat="48.951927" lon="23.476682"></trkpt>
      <trkpt lat="48.951464" lon="23.47667"></trkpt>
      <trkpt lat="48.950839" lon="23.476856"></trkpt>
      <trkpt lat="48.950049" lon="23.477447"></trkpt>
      <trkpt lat="48.949545" lon="23.47807"></trkpt>
      <trkpt lat="48.949006" lon="23.479394"></trkpt>
      <trkpt lat="48.947542" lon="23.488492"></trkpt>
      <trkpt lat="48.947117" lon="23.48981"></trkpt>
      <trkpt lat="48.946516" lon="23.490676"></trkpt>
      <trkpt lat="48.945638" lon="23.491238"></trkpt>
      <trkpt lat="48.942209" lon="23.491773"></trkpt>
      <trkpt lat="48.941427" lon="23.491557"></trkpt>
      <trkpt lat="48.940799" lon="23.490993"></trkpt>
      <trkpt lat="48.937919" lon="23.485142"></trkpt>
      <trkpt lat="48.937459" lon="23.484551"></trkpt>
      <trkpt lat="48.936371" lon="23.483683"></trkpt>
      <trkpt lat="48.935575" lon="23.483434"></trkpt>
      <trkpt lat="48.928653" lon="23.482456"></trkpt>
      <trkpt lat="48.927941" lon="23.482497"></trkpt>
      <trkpt lat="48.926373" lon="23.482842"></trkpt>
      <trkpt lat="48.92533" lon="23.482704"></trkpt>
      <trkpt lat="48.924134" lon="23.48205"></trkpt>
      <trkpt lat="48.919028" lon="23.477124"></trkpt>
      <trkpt lat="48.917629" lon="23.476146"></trkpt>
      <trkpt lat="48.916218" lon="23.475679"></trkpt>
      <trkpt lat="48.913304" lon="23.475319"></trkpt>
      <trkpt lat="48.912421" lon="23.475445"></trkpt>
      <trkpt lat="48.909359" lon="23.476386"></trkpt>
      <trkpt lat="48.908541" lon="23.476313"></trkpt>
      <trkpt lat="48.907312" lon="23.475903"></trkpt>
      <trkpt lat="48.906622" lon="23.475545"></trkpt>
      <trkpt lat="48.906029" lon="23.474943"></trkpt>
      <trkpt lat="48.903498" lon="23.47161"></trkpt>
      <trkpt lat="48.902623" lon="23.471092"></trkpt>
      <trkpt lat="48.901742" lon="23.470964"></trkpt>
      <trkpt lat="48.900519" lon="23.471211"></trkpt>
      <trkpt lat="48.898423" lon="23.47217"></trkpt>
      <trkpt lat="48.896416" lon="23.472468"></trkpt>
      <trkpt lat="48.894453" lon="23.473608"></trkpt>
      <trkpt lat="48.893053" lon="23.473906"></trkpt>
      <trkpt lat="48.892328" lon="23.474189"></trkpt>
      <trkpt lat="48.891694" lon="23.4747"></trkpt>
      <trkpt lat="48.891208" lon="23.47541"></trkpt>
      <trkpt lat="48.890352" lon="23.477752"></trkpt>
      <trkpt lat="48.889702" lon="23.47891"></trkpt>
      <trkpt lat="48.889089" lon="23.479519"></trkpt>
      <trkpt lat="48.885261" lon="23.482589"></trkpt>
      <trkpt lat="48.884344" lon="23.483093"></trkpt>
      <trkpt lat="48.882132" lon="23.483527"></trkpt>
      <trkpt lat="48.880263" lon="23.484318"></trkpt>
      <trkpt lat="48.879341" lon="23.484336"></trkpt>
      <trkpt lat="48.878294" lon="23.483668"></trkpt>
      <trkpt lat="48.876805" lon="23.482217"></trkpt>
      <trkpt lat="48.875619" lon="23.480076"></trkpt>
      <trkpt lat="48.873928" lon="23.477878"></trkpt>
      <trkpt lat="48.872635" lon="23.475546"></trkpt>
      <trkpt lat="48.871001" lon="23.473819"></trkpt>
      <trkpt lat="48.869894" lon="23.472279"></trkpt>
      <trkpt lat="48.868851" lon="23.471219"></trkpt>
      <trkpt lat="48.865734" lon="23.469469"></trkpt>
      <trkpt lat="48.863611" lon="23.467762"></trkpt>
      <trkpt lat="48.862549" lon="23.467191"></trkpt>
      <trkpt lat="48.861737" lon="23.46707"></trkpt>
      <trkpt lat="48.859936" lon="23.467308"></trkpt>
      <trkpt lat="48.859053" lon="23.46729"></trkpt>
      <trkpt lat="48.858246" lon="23.467148"></trkpt>
      <trkpt lat="48.857248" lon="23.466729"></trkpt>
      <trkpt lat="48.856364" lon="23.466051"></trkpt>
      <trkpt lat="48.853562" lon="23.46325"></trkpt>
      <trkpt lat="48.852998" lon="23.46234"></trkpt>
      <trkpt lat="48.852649" lon="23.4615"></trkpt>
      <trkpt lat="48.852298" lon="23.459645"></trkpt>
      <trkpt lat="48.852414" lon="23.457632"></trkpt>
      <trkpt lat="48.853145" lon="23.454724"></trkpt>
      <trkpt lat="48.853252" lon="23.453835"></trkpt>
      <trkpt lat="48.85321" lon="23.452636"></trkpt>
      <trkpt lat="48.853058" lon="23.451838"></trkpt>
      <trkpt lat="48.852842" lon="23.451151"></trkpt>
      <trkpt lat="48.852312" lon="23.450084"></trkpt>
      <trkpt lat="48.848607" lon="23.444654"></trkpt>
  </trkseg></trk>
</gpx>
