<?xml version="1.0" encoding="UTF-8"?>
<gpx version="1.1" creator="yatutbuv" xmlns="http://www.topografix.com/GPX/1/1">
  <trk><name>2023_Pontorson -&gt; Paris (436.2km)</name><trkseg>
      <trkpt lat="48.552737" lon="-1.504218"></trkpt>
      <trkpt lat="48.551612" lon="-1.510162"></trkpt>
      <trkpt lat="48.549986" lon="-1.515048"></trkpt>
      <trkpt lat="48.545517" lon="-1.534264"></trkpt>
      <trkpt lat="48.544827" lon="-1.536713"></trkpt>
      <trkpt lat="48.5436" lon="-1.539316"></trkpt>
      <trkpt lat="48.538653" lon="-1.546984"></trkpt>
      <trkpt lat="48.537904" lon="-1.548371"></trkpt>
      <trkpt lat="48.532374" lon="-1.562491"></trkpt>
      <trkpt lat="48.531386" lon="-1.564157"></trkpt>
      <trkpt lat="48.527883" lon="-1.56834"></trkpt>
      <trkpt lat="48.527048" lon="-1.569893"></trkpt>
      <trkpt lat="48.526369" lon="-1.572066"></trkpt>
      <trkpt lat="48.526079" lon="-1.573709"></trkpt>
      <trkpt lat="48.525962" lon="-1.575534"></trkpt>
      <trkpt lat="48.526895" lon="-1.598025"></trkpt>
      <trkpt lat="48.526819" lon="-1.600366"></trkpt>
      <trkpt lat="48.526146" lon="-1.604565"></trkpt>
      <trkpt lat="48.517538" lon="-1.652643"></trkpt>
      <trkpt lat="48.516288" lon="-1.671482"></trkpt>
      <trkpt lat="48.516498" lon="-1.674685"></trkpt>
      <trkpt lat="48.516951" lon="-1.676822"></trkpt>
      <trkpt lat="48.517449" lon="-1.678368"></trkpt>
      <trkpt lat="48.527074" lon="-1.700826"></trkpt>
      <trkpt lat="48.528096" lon="-1.702785"></trkpt>
      <trkpt lat="48.529399" lon="-1.704266"></trkpt>
      <trkpt lat="48.530631" lon="-1.705132"></trkpt>
      <trkpt lat="48.534892" lon="-1.706824"></trkpt>
      <trkpt lat="48.539219" lon="-1.709591"></trkpt>
      <trkpt lat="48.542213" lon="-1.711134"></trkpt>
      <trkpt lat="48.542817" lon="-1.711656"></trkpt>
      <trkpt lat="48.543601" lon="-1.712568"></trkpt>
      <trkpt lat="48.544659" lon="-1.714427"></trkpt>
      <trkpt lat="48.549679" lon="-1.730353"></trkpt>
      <trkpt lat="48.550512" lon="-1.733528"></trkpt>
      <trkpt lat="48.550809" lon="-1.736749"></trkpt>
      <trkpt lat="48.550364" lon="-1.745869"></trkpt>
      <trkpt lat="48.549815" lon="-1.747462"></trkpt>
      <trkpt lat="48.549343" lon="-1.7481"></trkpt>
      <trkpt lat="48.548725" lon="-1.748562"></trkpt>
      <trkpt lat="48.54494" lon="-1.749902"></trkpt>
      <trkpt lat="48.539092" lon="-1.751649"></trkpt>
      <trkpt lat="48.537547" lon="-1.752338"></trkpt>
      <trkpt lat="48.536204" lon="-1.753267"></trkpt>
      <trkpt lat="48.535175" lon="-1.75425"></trkpt>
      <trkpt lat="48.534356" lon="-1.755216"></trkpt>
      <trkpt lat="48.527585" lon="-1.764745"></trkpt>
      <trkpt lat="48.52605" lon="-1.766375"></trkpt>
      <trkpt lat="48.524815" lon="-1.76738"></trkpt>
      <trkpt lat="48.522368" lon="-1.768819"></trkpt>
      <trkpt lat="48.500233" lon="-1.781022"></trkpt>
      <trkpt lat="48.498271" lon="-1.781566"></trkpt>
      <trkpt lat="48.496589" lon="-1.781595"></trkpt>
      <trkpt lat="48.494742" lon="-1.781165"></trkpt>
      <trkpt lat="48.493851" lon="-1.780777"></trkpt>
      <trkpt lat="48.492773" lon="-1.780131"></trkpt>
      <trkpt lat="48.491709" lon="-1.779272"></trkpt>
      <trkpt lat="48.472216" lon="-1.761487"></trkpt>
      <trkpt lat="48.471075" lon="-1.760566"></trkpt>
      <trkpt lat="48.470152" lon="-1.759997"></trkpt>
      <trkpt lat="48.46889" lon="-1.759455"></trkpt>
      <trkpt lat="48.467484" lon="-1.759128"></trkpt>
      <trkpt lat="48.460068" lon="-1.759037"></trkpt>
      <trkpt lat="48.458821" lon="-1.758717"></trkpt>
      <trkpt lat="48.457624" lon="-1.758062"></trkpt>
      <trkpt lat="48.456489" lon="-1.757076"></trkpt>
      <trkpt lat="48.455709" lon="-1.756114"></trkpt>
      <trkpt lat="48.452036" lon="-1.749892"></trkpt>
      <trkpt lat="48.450557" lon="-1.747781"></trkpt>
      <trkpt lat="48.449558" lon="-1.746667"></trkpt>
      <trkpt lat="48.448424" lon="-1.745649"></trkpt>
      <trkpt lat="48.446258" lon="-1.744258"></trkpt>
      <trkpt lat="48.444981" lon="-1.74373"></trkpt>
      <trkpt lat="48.443886" lon="-1.74343"></trkpt>
      <trkpt lat="48.441968" lon="-1.743239"></trkpt>
      <trkpt lat="48.43216" lon="-1.744337"></trkpt>
      <trkpt lat="48.430741" lon="-1.744372"></trkpt>
      <trkpt lat="48.4295" lon="-1.744129"></trkpt>
      <trkpt lat="48.428785" lon="-1.743867"></trkpt>
      <trkpt lat="48.427356" lon="-1.74305"></trkpt>
      <trkpt lat="48.426088" lon="-1.741926"></trkpt>
      <trkpt lat="48.424975" lon="-1.740534"></trkpt>
      <trkpt lat="48.407821" lon="-1.715591"></trkpt>
      <trkpt lat="48.406387" lon="-1.71382"></trkpt>
      <trkpt lat="48.405143" lon="-1.712786"></trkpt>
      <trkpt lat="48.404142" lon="-1.712203"></trkpt>
      <trkpt lat="48.398236" lon="-1.710325"></trkpt>
      <trkpt lat="48.397076" lon="-1.709763"></trkpt>
      <trkpt lat="48.396104" lon="-1.709076"></trkpt>
      <trkpt lat="48.394438" lon="-1.707341"></trkpt>
      <trkpt lat="48.390652" lon="-1.701494"></trkpt>
      <trkpt lat="48.389201" lon="-1.699822"></trkpt>
      <trkpt lat="48.387917" lon="-1.698762"></trkpt>
      <trkpt lat="48.377468" lon="-1.691184"></trkpt>
      <trkpt lat="48.376223" lon="-1.690441"></trkpt>
      <trkpt lat="48.374294" lon="-1.68978"></trkpt>
      <trkpt lat="48.373182" lon="-1.689651"></trkpt>
      <trkpt lat="48.372092" lon="-1.689694"></trkpt>
      <trkpt lat="48.361825" lon="-1.692291"></trkpt>
      <trkpt lat="48.360658" lon="-1.692443"></trkpt>
      <trkpt lat="48.359217" lon="-1.69233"></trkpt>
      <trkpt lat="48.357694" lon="-1.691815"></trkpt>
      <trkpt lat="48.356516" lon="-1.691108"></trkpt>
      <trkpt lat="48.355457" lon="-1.690197"></trkpt>
      <trkpt lat="48.352145" lon="-1.686948"></trkpt>
      <trkpt lat="48.351119" lon="-1.686208"></trkpt>
      <trkpt lat="48.349702" lon="-1.685549"></trkpt>
      <trkpt lat="48.347927" lon="-1.68523"></trkpt>
      <trkpt lat="48.343528" lon="-1.685686"></trkpt>
      <trkpt lat="48.342672" lon="-1.685697"></trkpt>
      <trkpt lat="48.34154" lon="-1.685541"></trkpt>
      <trkpt lat="48.324546" lon="-1.681309"></trkpt>
      <trkpt lat="48.323296" lon="-1.680822"></trkpt>
      <trkpt lat="48.32018" lon="-1.679039"></trkpt>
      <trkpt lat="48.318961" lon="-1.678548"></trkpt>
      <trkpt lat="48.31753" lon="-1.678317"></trkpt>
      <trkpt lat="48.314677" lon="-1.678508"></trkpt>
      <trkpt lat="48.313336" lon="-1.678371"></trkpt>
      <trkpt lat="48.311971" lon="-1.677819"></trkpt>
      <trkpt lat="48.308388" lon="-1.675242"></trkpt>
      <trkpt lat="48.305962" lon="-1.673828"></trkpt>
      <trkpt lat="48.303918" lon="-1.673146"></trkpt>
      <trkpt lat="48.297165" lon="-1.671431"></trkpt>
      <trkpt lat="48.295899" lon="-1.671292"></trkpt>
      <trkpt lat="48.294341" lon="-1.671592"></trkpt>
      <trkpt lat="48.293388" lon="-1.672051"></trkpt>
      <trkpt lat="48.290705" lon="-1.673907"></trkpt>
      <trkpt lat="48.289793" lon="-1.674256"></trkpt>
      <trkpt lat="48.288797" lon="-1.674422"></trkpt>
      <trkpt lat="48.287643" lon="-1.674348"></trkpt>
      <trkpt lat="48.279215" lon="-1.672826"></trkpt>
      <trkpt lat="48.277802" lon="-1.672174"></trkpt>
      <trkpt lat="48.276527" lon="-1.671124"></trkpt>
      <trkpt lat="48.275587" lon="-1.66995"></trkpt>
      <trkpt lat="48.273911" lon="-1.667246"></trkpt>
      <trkpt lat="48.272884" lon="-1.666068"></trkpt>
      <trkpt lat="48.27153" lon="-1.66506"></trkpt>
      <trkpt lat="48.270291" lon="-1.664559"></trkpt>
      <trkpt lat="48.268695" lon="-1.664404"></trkpt>
      <trkpt lat="48.267433" lon="-1.664657"></trkpt>
      <trkpt lat="48.266354" lon="-1.665166"></trkpt>
      <trkpt lat="48.263081" lon="-1.667148"></trkpt>
      <trkpt lat="48.262269" lon="-1.667451"></trkpt>
      <trkpt lat="48.261139" lon="-1.667625"></trkpt>
      <trkpt lat="48.260221" lon="-1.667566"></trkpt>
      <trkpt lat="48.25906" lon="-1.667235"></trkpt>
      <trkpt lat="48.25795" lon="-1.666617"></trkpt>
      <trkpt lat="48.255779" lon="-1.665085"></trkpt>
      <trkpt lat="48.254891" lon="-1.664646"></trkpt>
      <trkpt lat="48.254006" lon="-1.664388"></trkpt>
      <trkpt lat="48.252412" lon="-1.664357"></trkpt>
      <trkpt lat="48.249544" lon="-1.664976"></trkpt>
      <trkpt lat="48.248531" lon="-1.665091"></trkpt>
      <trkpt lat="48.247714" lon="-1.665021"></trkpt>
      <trkpt lat="48.246711" lon="-1.664731"></trkpt>
      <trkpt lat="48.245781" lon="-1.664267"></trkpt>
      <trkpt lat="48.244841" lon="-1.663571"></trkpt>
      <trkpt lat="48.243405" lon="-1.661911"></trkpt>
      <trkpt lat="48.234086" lon="-1.643715"></trkpt>
      <trkpt lat="48.232847" lon="-1.641889"></trkpt>
      <trkpt lat="48.231528" lon="-1.640474"></trkpt>
      <trkpt lat="48.230448" lon="-1.639614"></trkpt>
      <trkpt lat="48.229258" lon="-1.638918"></trkpt>
      <trkpt lat="48.228055" lon="-1.638449"></trkpt>
      <trkpt lat="48.226791" lon="-1.638182"></trkpt>
      <trkpt lat="48.225349" lon="-1.638159"></trkpt>
      <trkpt lat="48.217315" lon="-1.638991"></trkpt>
      <trkpt lat="48.216334" lon="-1.63887"></trkpt>
      <trkpt lat="48.215065" lon="-1.638396"></trkpt>
      <trkpt lat="48.213849" lon="-1.637565"></trkpt>
      <trkpt lat="48.212664" lon="-1.636279"></trkpt>
      <trkpt lat="48.207311" lon="-1.628441"></trkpt>
      <trkpt lat="48.206409" lon="-1.62731"></trkpt>
      <trkpt lat="48.205472" lon="-1.626421"></trkpt>
      <trkpt lat="48.204579" lon="-1.625779"></trkpt>
      <trkpt lat="48.20369" lon="-1.625306"></trkpt>
      <trkpt lat="48.202443" lon="-1.624888"></trkpt>
      <trkpt lat="48.19228" lon="-1.624046"></trkpt>
      <trkpt lat="48.191046" lon="-1.624157"></trkpt>
      <trkpt lat="48.189768" lon="-1.624628"></trkpt>
      <trkpt lat="48.188514" lon="-1.625484"></trkpt>
      <trkpt lat="48.187517" lon="-1.626523"></trkpt>
      <trkpt lat="48.184205" lon="-1.631736"></trkpt>
      <trkpt lat="48.183085" lon="-1.632998"></trkpt>
      <trkpt lat="48.181873" lon="-1.634027"></trkpt>
      <trkpt lat="48.165301" lon="-1.644963"></trkpt>
      <trkpt lat="48.163988" lon="-1.645654"></trkpt>
      <trkpt lat="48.155689" lon="-1.649287"></trkpt>
      <trkpt lat="48.154592" lon="-1.649923"></trkpt>
      <trkpt lat="48.153746" lon="-1.650623"></trkpt>
      <trkpt lat="48.152863" lon="-1.651592"></trkpt>
      <trkpt lat="48.152128" lon="-1.652642"></trkpt>
      <trkpt lat="48.151415" lon="-1.653974"></trkpt>
      <trkpt lat="48.150886" lon="-1.65529"></trkpt>
      <trkpt lat="48.150239" lon="-1.657839"></trkpt>
      <trkpt lat="48.149287" lon="-1.66487"></trkpt>
      <trkpt lat="48.148619" lon="-1.667207"></trkpt>
      <trkpt lat="48.147746" lon="-1.669174"></trkpt>
      <trkpt lat="48.146713" lon="-1.670815"></trkpt>
      <trkpt lat="48.136841" lon="-1.684712"></trkpt>
      <trkpt lat="48.135868" lon="-1.685857"></trkpt>
      <trkpt lat="48.134577" lon="-1.686926"></trkpt>
      <trkpt lat="48.133222" lon="-1.687676"></trkpt>
      <trkpt lat="48.131933" lon="-1.688066"></trkpt>
      <trkpt lat="48.123114" lon="-1.688453"></trkpt>
      <trkpt lat="48.121927" lon="-1.688709"></trkpt>
      <trkpt lat="48.120853" lon="-1.689222"></trkpt>
      <trkpt lat="48.119401" lon="-1.690419"></trkpt>
      <trkpt lat="48.118212" lon="-1.692009"></trkpt>
      <trkpt lat="48.117608" lon="-1.693182"></trkpt>
      <trkpt lat="48.115836" lon="-1.697434"></trkpt>
      <trkpt lat="48.114858" lon="-1.699036"></trkpt>
      <trkpt lat="48.113975" lon="-1.700042"></trkpt>
      <trkpt lat="48.113329" lon="-1.700599"></trkpt>
      <trkpt lat="48.112309" lon="-1.701237"></trkpt>
      <trkpt lat="48.111444" lon="-1.701575"></trkpt>
      <trkpt lat="48.110173" lon="-1.701767"></trkpt>
      <trkpt lat="48.108912" lon="-1.701611"></trkpt>
      <trkpt lat="48.107952" lon="-1.701247"></trkpt>
      <trkpt lat="48.105685" lon="-1.700066"></trkpt>
      <trkpt lat="48.104739" lon="-1.699396"></trkpt>
      <trkpt lat="48.103687" lon="-1.698316"></trkpt>
      <trkpt lat="48.102947" lon="-1.697262"></trkpt>
      <trkpt lat="48.10223" lon="-1.695865"></trkpt>
      <trkpt lat="48.101591" lon="-1.694013"></trkpt>
      <trkpt lat="48.101266" lon="-1.692453"></trkpt>
      <trkpt lat="48.101106" lon="-1.69083"></trkpt>
      <trkpt lat="48.101141" lon="-1.688792"></trkpt>
      <trkpt lat="48.102273" lon="-1.680218"></trkpt>
      <trkpt lat="48.102804" lon="-1.674118"></trkpt>
      <trkpt lat="48.103514" lon="-1.668633"></trkpt>
      <trkpt lat="48.10406" lon="-1.664955"></trkpt>
      <trkpt lat="48.104766" lon="-1.661844"></trkpt>
      <trkpt lat="48.105855" lon="-1.652034"></trkpt>
      <trkpt lat="48.106401" lon="-1.649434"></trkpt>
      <trkpt lat="48.106573" lon="-1.647871"></trkpt>
      <trkpt lat="48.106917" lon="-1.640776"></trkpt>
      <trkpt lat="48.108085" lon="-1.633784"></trkpt>
      <trkpt lat="48.10824" lon="-1.631749"></trkpt>
      <trkpt lat="48.108742" lon="-1.628006"></trkpt>
      <trkpt lat="48.1092" lon="-1.622093"></trkpt>
      <trkpt lat="48.111168" lon="-1.612192"></trkpt>
      <trkpt lat="48.113159" lon="-1.59881"></trkpt>
      <trkpt lat="48.114036" lon="-1.595816"></trkpt>
      <trkpt lat="48.116201" lon="-1.590779"></trkpt>
      <trkpt lat="48.117193" lon="-1.587581"></trkpt>
      <trkpt lat="48.120042" lon="-1.573345"></trkpt>
      <trkpt lat="48.120377" lon="-1.571181"></trkpt>
      <trkpt lat="48.12051" lon="-1.569002"></trkpt>
      <trkpt lat="48.12045" lon="-1.566825"></trkpt>
      <trkpt lat="48.120137" lon="-1.564386"></trkpt>
      <trkpt lat="48.119745" lon="-1.562646"></trkpt>
      <trkpt lat="48.118365" lon="-1.557933"></trkpt>
      <trkpt lat="48.118025" lon="-1.556036"></trkpt>
      <trkpt lat="48.117822" lon="-1.553793"></trkpt>
      <trkpt lat="48.11793" lon="-1.550232"></trkpt>
      <trkpt lat="48.119379" lon="-1.540415"></trkpt>
      <trkpt lat="48.119568" lon="-1.537021"></trkpt>
      <trkpt lat="48.119415" lon="-1.53416"></trkpt>
      <trkpt lat="48.11691" lon="-1.507342"></trkpt>
      <trkpt lat="48.116945" lon="-1.501507"></trkpt>
      <trkpt lat="48.116828" lon="-1.499069"></trkpt>
      <trkpt lat="48.116407" lon="-1.496695"></trkpt>
      <trkpt lat="48.11561" lon="-1.494258"></trkpt>
      <trkpt lat="48.112943" lon="-1.489152"></trkpt>
      <trkpt lat="48.112206" lon="-1.487315"></trkpt>
      <trkpt lat="48.111532" lon="-1.484874"></trkpt>
      <trkpt lat="48.111192" lon="-1.482873"></trkpt>
      <trkpt lat="48.11103" lon="-1.480841"></trkpt>
      <trkpt lat="48.111049" lon="-1.478658"></trkpt>
      <trkpt lat="48.112261" lon="-1.465774"></trkpt>
      <trkpt lat="48.112195" lon="-1.463191"></trkpt>
      <trkpt lat="48.111905" lon="-1.461208"></trkpt>
      <trkpt lat="48.111368" lon="-1.459122"></trkpt>
      <trkpt lat="48.11072" lon="-1.457445"></trkpt>
      <trkpt lat="48.107843" lon="-1.452397"></trkpt>
      <trkpt lat="48.106713" lon="-1.449911"></trkpt>
      <trkpt lat="48.106136" lon="-1.448087"></trkpt>
      <trkpt lat="48.105779" lon="-1.446504"></trkpt>
      <trkpt lat="48.105497" lon="-1.444544"></trkpt>
      <trkpt lat="48.105388" lon="-1.442831"></trkpt>
      <trkpt lat="48.105513" lon="-1.423531"></trkpt>
      <trkpt lat="48.105007" lon="-1.418551"></trkpt>
      <trkpt lat="48.104917" lon="-1.415733"></trkpt>
      <trkpt lat="48.105241" lon="-1.412293"></trkpt>
      <trkpt lat="48.106466" lon="-1.403153"></trkpt>
      <trkpt lat="48.106649" lon="-1.400214"></trkpt>
      <trkpt lat="48.106524" lon="-1.398114"></trkpt>
      <trkpt lat="48.105373" lon="-1.38676"></trkpt>
      <trkpt lat="48.105308" lon="-1.384847"></trkpt>
      <trkpt lat="48.105387" lon="-1.383082"></trkpt>
      <trkpt lat="48.105839" lon="-1.380019"></trkpt>
      <trkpt lat="48.106834" lon="-1.376756"></trkpt>
      <trkpt lat="48.107862" lon="-1.37462"></trkpt>
      <trkpt lat="48.110077" lon="-1.370933"></trkpt>
      <trkpt lat="48.11101" lon="-1.36867"></trkpt>
      <trkpt lat="48.111687" lon="-1.365824"></trkpt>
      <trkpt lat="48.111917" lon="-1.362946"></trkpt>
      <trkpt lat="48.111808" lon="-1.360689"></trkpt>
      <trkpt lat="48.111547" lon="-1.358979"></trkpt>
      <trkpt lat="48.111198" lon="-1.357542"></trkpt>
      <trkpt lat="48.110572" lon="-1.355725"></trkpt>
      <trkpt lat="48.109425" lon="-1.353482"></trkpt>
      <trkpt lat="48.107541" lon="-1.350898"></trkpt>
      <trkpt lat="48.106889" lon="-1.349818"></trkpt>
      <trkpt lat="48.106183" lon="-1.348312"></trkpt>
      <trkpt lat="48.105693" lon="-1.346908"></trkpt>
      <trkpt lat="48.105043" lon="-1.343755"></trkpt>
      <trkpt lat="48.104917" lon="-1.342038"></trkpt>
      <trkpt lat="48.104948" lon="-1.340209"></trkpt>
      <trkpt lat="48.105139" lon="-1.338465"></trkpt>
      <trkpt lat="48.105529" lon="-1.336572"></trkpt>
      <trkpt lat="48.105898" lon="-1.335348"></trkpt>
      <trkpt lat="48.10707" lon="-1.332332"></trkpt>
      <trkpt lat="48.107689" lon="-1.330192"></trkpt>
      <trkpt lat="48.108626" lon="-1.32403"></trkpt>
      <trkpt lat="48.109047" lon="-1.322123"></trkpt>
      <trkpt lat="48.109766" lon="-1.320015"></trkpt>
      <trkpt lat="48.111661" lon="-1.315921"></trkpt>
      <trkpt lat="48.112418" lon="-1.313367"></trkpt>
      <trkpt lat="48.113422" lon="-1.306531"></trkpt>
      <trkpt lat="48.113461" lon="-1.302657"></trkpt>
      <trkpt lat="48.112949" lon="-1.298941"></trkpt>
      <trkpt lat="48.112269" lon="-1.295929"></trkpt>
      <trkpt lat="48.111682" lon="-1.294053"></trkpt>
      <trkpt lat="48.110848" lon="-1.292232"></trkpt>
      <trkpt lat="48.109196" lon="-1.289629"></trkpt>
      <trkpt lat="48.108578" lon="-1.288352"></trkpt>
      <trkpt lat="48.107819" lon="-1.286171"></trkpt>
      <trkpt lat="48.10689" lon="-1.282228"></trkpt>
      <trkpt lat="48.105827" lon="-1.279705"></trkpt>
      <trkpt lat="48.104484" lon="-1.277714"></trkpt>
      <trkpt lat="48.101813" lon="-1.274876"></trkpt>
      <trkpt lat="48.101141" lon="-1.273878"></trkpt>
      <trkpt lat="48.100441" lon="-1.27251"></trkpt>
      <trkpt lat="48.099903" lon="-1.27108"></trkpt>
      <trkpt lat="48.099448" lon="-1.26932"></trkpt>
      <trkpt lat="48.099224" lon="-1.267861"></trkpt>
      <trkpt lat="48.099124" lon="-1.266104"></trkpt>
      <trkpt lat="48.09924" lon="-1.263958"></trkpt>
      <trkpt lat="48.099727" lon="-1.261026"></trkpt>
      <trkpt lat="48.100301" lon="-1.258937"></trkpt>
      <trkpt lat="48.101272" lon="-1.256527"></trkpt>
      <trkpt lat="48.102485" lon="-1.254421"></trkpt>
      <trkpt lat="48.103947" lon="-1.252611"></trkpt>
      <trkpt lat="48.105182" lon="-1.251495"></trkpt>
      <trkpt lat="48.109915" lon="-1.247886"></trkpt>
      <trkpt lat="48.110978" lon="-1.246679"></trkpt>
      <trkpt lat="48.111872" lon="-1.245316"></trkpt>
      <trkpt lat="48.112868" lon="-1.243149"></trkpt>
      <trkpt lat="48.113518" lon="-1.241002"></trkpt>
      <trkpt lat="48.113894" lon="-1.238776"></trkpt>
      <trkpt lat="48.114215" lon="-1.233932"></trkpt>
      <trkpt lat="48.114563" lon="-1.232128"></trkpt>
      <trkpt lat="48.115109" lon="-1.230402"></trkpt>
      <trkpt lat="48.115871" lon="-1.228656"></trkpt>
      <trkpt lat="48.116495" lon="-1.227601"></trkpt>
      <trkpt lat="48.117271" lon="-1.226575"></trkpt>
      <trkpt lat="48.120265" lon="-1.223224"></trkpt>
      <trkpt lat="48.120894" lon="-1.222316"></trkpt>
      <trkpt lat="48.12151" lon="-1.221074"></trkpt>
      <trkpt lat="48.12204" lon="-1.219332"></trkpt>
      <trkpt lat="48.122322" lon="-1.217613"></trkpt>
      <trkpt lat="48.122536" lon="-1.208694"></trkpt>
      <trkpt lat="48.122755" lon="-1.206519"></trkpt>
      <trkpt lat="48.123345" lon="-1.20435"></trkpt>
      <trkpt lat="48.124545" lon="-1.201694"></trkpt>
      <trkpt lat="48.125068" lon="-1.20023"></trkpt>
      <trkpt lat="48.125412" lon="-1.19877"></trkpt>
      <trkpt lat="48.125636" lon="-1.197018"></trkpt>
      <trkpt lat="48.125614" lon="-1.19457"></trkpt>
      <trkpt lat="48.124375" lon="-1.185841"></trkpt>
      <trkpt lat="48.124181" lon="-1.183694"></trkpt>
      <trkpt lat="48.124176" lon="-1.180755"></trkpt>
      <trkpt lat="48.124669" lon="-1.17405"></trkpt>
      <trkpt lat="48.124494" lon="-1.169596"></trkpt>
      <trkpt lat="48.124031" lon="-1.166254"></trkpt>
      <trkpt lat="48.120794" lon="-1.148848"></trkpt>
      <trkpt lat="48.120057" lon="-1.145955"></trkpt>
      <trkpt lat="48.118909" lon="-1.143008"></trkpt>
      <trkpt lat="48.118272" lon="-1.141757"></trkpt>
      <trkpt lat="48.114115" lon="-1.134696"></trkpt>
      <trkpt lat="48.113274" lon="-1.132895"></trkpt>
      <trkpt lat="48.112424" lon="-1.12996"></trkpt>
      <trkpt lat="48.112068" lon="-1.126888"></trkpt>
      <trkpt lat="48.112141" lon="-1.115978"></trkpt>
      <trkpt lat="48.111921" lon="-1.079725"></trkpt>
      <trkpt lat="48.112275" lon="-1.075655"></trkpt>
      <trkpt lat="48.114151" lon="-1.064147"></trkpt>
      <trkpt lat="48.114393" lon="-1.061286"></trkpt>
      <trkpt lat="48.114439" lon="-1.059276"></trkpt>
      <trkpt lat="48.114299" lon="-1.056037"></trkpt>
      <trkpt lat="48.113399" lon="-1.047791"></trkpt>
      <trkpt lat="48.11276" lon="-1.033516"></trkpt>
      <trkpt lat="48.1128" lon="-1.030395"></trkpt>
      <trkpt lat="48.112975" lon="-1.028517"></trkpt>
      <trkpt lat="48.113377" lon="-1.026208"></trkpt>
      <trkpt lat="48.12006" lon="-0.998832"></trkpt>
      <trkpt lat="48.120523" lon="-0.995796"></trkpt>
      <trkpt lat="48.120596" lon="-0.993369"></trkpt>
      <trkpt lat="48.120371" lon="-0.990525"></trkpt>
      <trkpt lat="48.119921" lon="-0.988222"></trkpt>
      <trkpt lat="48.119326" lon="-0.98622"></trkpt>
      <trkpt lat="48.11828" lon="-0.983809"></trkpt>
      <trkpt lat="48.116976" lon="-0.981769"></trkpt>
      <trkpt lat="48.11006" lon="-0.973308"></trkpt>
      <trkpt lat="48.108922" lon="-0.971621"></trkpt>
      <trkpt lat="48.107961" lon="-0.969687"></trkpt>
      <trkpt lat="48.107006" lon="-0.966821"></trkpt>
      <trkpt lat="48.105979" lon="-0.961263"></trkpt>
      <trkpt lat="48.104803" lon="-0.956826"></trkpt>
      <trkpt lat="48.103711" lon="-0.953839"></trkpt>
      <trkpt lat="48.097901" lon="-0.939872"></trkpt>
      <trkpt lat="48.096693" lon="-0.936093"></trkpt>
      <trkpt lat="48.095838" lon="-0.93244"></trkpt>
      <trkpt lat="48.095362" lon="-0.929512"></trkpt>
      <trkpt lat="48.093505" lon="-0.915243"></trkpt>
      <trkpt lat="48.093251" lon="-0.912062"></trkpt>
      <trkpt lat="48.093244" lon="-0.909227"></trkpt>
      <trkpt lat="48.094177" lon="-0.898854"></trkpt>
      <trkpt lat="48.096931" lon="-0.884762"></trkpt>
      <trkpt lat="48.097384" lon="-0.881846"></trkpt>
      <trkpt lat="48.097602" lon="-0.878461"></trkpt>
      <trkpt lat="48.097435" lon="-0.874343"></trkpt>
      <trkpt lat="48.097102" lon="-0.871853"></trkpt>
      <trkpt lat="48.096561" lon="-0.869291"></trkpt>
      <trkpt lat="48.093317" lon="-0.859"></trkpt>
      <trkpt lat="48.092572" lon="-0.857198"></trkpt>
      <trkpt lat="48.090999" lon="-0.853981"></trkpt>
      <trkpt lat="48.088227" lon="-0.849543"></trkpt>
      <trkpt lat="48.08756" lon="-0.848088"></trkpt>
      <trkpt lat="48.087083" lon="-0.846685"></trkpt>
      <trkpt lat="48.080994" lon="-0.819753"></trkpt>
      <trkpt lat="48.076619" lon="-0.805159"></trkpt>
      <trkpt lat="48.076045" lon="-0.802624"></trkpt>
      <trkpt lat="48.075219" lon="-0.795949"></trkpt>
      <trkpt lat="48.07511" lon="-0.79316"></trkpt>
      <trkpt lat="48.07525" lon="-0.790464"></trkpt>
      <trkpt lat="48.076801" lon="-0.775661"></trkpt>
      <trkpt lat="48.076206" lon="-0.757038"></trkpt>
      <trkpt lat="48.076108" lon="-0.750595"></trkpt>
      <trkpt lat="48.076435" lon="-0.74713"></trkpt>
      <trkpt lat="48.077244" lon="-0.743628"></trkpt>
      <trkpt lat="48.078263" lon="-0.741166"></trkpt>
      <trkpt lat="48.078961" lon="-0.739983"></trkpt>
      <trkpt lat="48.079725" lon="-0.738955"></trkpt>
      <trkpt lat="48.080599" lon="-0.738021"></trkpt>
      <trkpt lat="48.081687" lon="-0.737161"></trkpt>
      <trkpt lat="48.088278" lon="-0.733437"></trkpt>
      <trkpt lat="48.089362" lon="-0.732668"></trkpt>
      <trkpt lat="48.106526" lon="-0.717315"></trkpt>
      <trkpt lat="48.107921" lon="-0.715619"></trkpt>
      <trkpt lat="48.110244" lon="-0.712145"></trkpt>
      <trkpt lat="48.112905" lon="-0.706305"></trkpt>
      <trkpt lat="48.115574" lon="-0.702024"></trkpt>
      <trkpt lat="48.119943" lon="-0.691923"></trkpt>
      <trkpt lat="48.12088" lon="-0.689072"></trkpt>
      <trkpt lat="48.121187" lon="-0.687622"></trkpt>
      <trkpt lat="48.121459" lon="-0.685465"></trkpt>
      <trkpt lat="48.121505" lon="-0.680713"></trkpt>
      <trkpt lat="48.121645" lon="-0.678724"></trkpt>
      <trkpt lat="48.122003" lon="-0.67669"></trkpt>
      <trkpt lat="48.123655" lon="-0.669478"></trkpt>
      <trkpt lat="48.124682" lon="-0.658436"></trkpt>
      <trkpt lat="48.125075" lon="-0.655777"></trkpt>
      <trkpt lat="48.126058" lon="-0.652109"></trkpt>
      <trkpt lat="48.131068" lon="-0.639791"></trkpt>
      <trkpt lat="48.131793" lon="-0.636767"></trkpt>
      <trkpt lat="48.13195" lon="-0.635452"></trkpt>
      <trkpt lat="48.13201" lon="-0.63348"></trkpt>
      <trkpt lat="48.131788" lon="-0.630836"></trkpt>
      <trkpt lat="48.131297" lon="-0.62856"></trkpt>
      <trkpt lat="48.129631" lon="-0.623565"></trkpt>
      <trkpt lat="48.129201" lon="-0.621049"></trkpt>
      <trkpt lat="48.129098" lon="-0.61933"></trkpt>
      <trkpt lat="48.12929" lon="-0.616211"></trkpt>
      <trkpt lat="48.130766" lon="-0.608365"></trkpt>
      <trkpt lat="48.131077" lon="-0.605667"></trkpt>
      <trkpt lat="48.130696" lon="-0.588102"></trkpt>
      <trkpt lat="48.130929" lon="-0.584211"></trkpt>
      <trkpt lat="48.132435" lon="-0.575966"></trkpt>
      <trkpt lat="48.132942" lon="-0.573909"></trkpt>
      <trkpt lat="48.133854" lon="-0.571582"></trkpt>
      <trkpt lat="48.135759" lon="-0.568346"></trkpt>
      <trkpt lat="48.136515" lon="-0.566593"></trkpt>
      <trkpt lat="48.145006" lon="-0.538913"></trkpt>
      <trkpt lat="48.149341" lon="-0.516206"></trkpt>
      <trkpt lat="48.149616" lon="-0.513271"></trkpt>
      <trkpt lat="48.150142" lon="-0.502572"></trkpt>
      <trkpt lat="48.150625" lon="-0.499245"></trkpt>
      <trkpt lat="48.151224" lon="-0.496864"></trkpt>
      <trkpt lat="48.15768" lon="-0.475782"></trkpt>
      <trkpt lat="48.157942" lon="-0.474518"></trkpt>
      <trkpt lat="48.158274" lon="-0.47032"></trkpt>
      <trkpt lat="48.161004" lon="-0.408503"></trkpt>
      <trkpt lat="48.16084" lon="-0.406408"></trkpt>
      <trkpt lat="48.160446" lon="-0.404429"></trkpt>
      <trkpt lat="48.159738" lon="-0.402359"></trkpt>
      <trkpt lat="48.158871" lon="-0.400694"></trkpt>
      <trkpt lat="48.15756" lon="-0.398998"></trkpt>
      <trkpt lat="48.147955" lon="-0.389261"></trkpt>
      <trkpt lat="48.146319" lon="-0.386959"></trkpt>
      <trkpt lat="48.144938" lon="-0.384237"></trkpt>
      <trkpt lat="48.143968" lon="-0.381513"></trkpt>
      <trkpt lat="48.143333" lon="-0.378859"></trkpt>
      <trkpt lat="48.142928" lon="-0.375955"></trkpt>
      <trkpt lat="48.141688" lon="-0.363961"></trkpt>
      <trkpt lat="48.141313" lon="-0.361894"></trkpt>
      <trkpt lat="48.140701" lon="-0.359637"></trkpt>
      <trkpt lat="48.139546" lon="-0.356776"></trkpt>
      <trkpt lat="48.138195" lon="-0.354406"></trkpt>
      <trkpt lat="48.130803" lon="-0.345283"></trkpt>
      <trkpt lat="48.129676" lon="-0.343666"></trkpt>
      <trkpt lat="48.129132" lon="-0.342622"></trkpt>
      <trkpt lat="48.128285" lon="-0.340448"></trkpt>
      <trkpt lat="48.127675" lon="-0.337719"></trkpt>
      <trkpt lat="48.127415" lon="-0.334694"></trkpt>
      <trkpt lat="48.127546" lon="-0.331532"></trkpt>
      <trkpt lat="48.128114" lon="-0.328282"></trkpt>
      <trkpt lat="48.129185" lon="-0.325117"></trkpt>
      <trkpt lat="48.129835" lon="-0.323795"></trkpt>
      <trkpt lat="48.130573" lon="-0.322621"></trkpt>
      <trkpt lat="48.133192" lon="-0.319214"></trkpt>
      <trkpt lat="48.134112" lon="-0.317774"></trkpt>
      <trkpt lat="48.135253" lon="-0.315133"></trkpt>
      <trkpt lat="48.135946" lon="-0.312179"></trkpt>
      <trkpt lat="48.136136" lon="-0.310277"></trkpt>
      <trkpt lat="48.136102" lon="-0.307718"></trkpt>
      <trkpt lat="48.134183" lon="-0.293975"></trkpt>
      <trkpt lat="48.133972" lon="-0.290234"></trkpt>
      <trkpt lat="48.133998" lon="-0.28758"></trkpt>
      <trkpt lat="48.134241" lon="-0.284716"></trkpt>
      <trkpt lat="48.134695" lon="-0.281792"></trkpt>
      <trkpt lat="48.135155" lon="-0.279781"></trkpt>
      <trkpt lat="48.136262" lon="-0.276111"></trkpt>
      <trkpt lat="48.148802" lon="-0.242825"></trkpt>
      <trkpt lat="48.149759" lon="-0.240027"></trkpt>
      <trkpt lat="48.150647" lon="-0.236239"></trkpt>
      <trkpt lat="48.151845" lon="-0.227742"></trkpt>
      <trkpt lat="48.152665" lon="-0.224055"></trkpt>
      <trkpt lat="48.153482" lon="-0.221488"></trkpt>
      <trkpt lat="48.158054" lon="-0.208944"></trkpt>
      <trkpt lat="48.158633" lon="-0.206769"></trkpt>
      <trkpt lat="48.159186" lon="-0.203109"></trkpt>
      <trkpt lat="48.159554" lon="-0.201558"></trkpt>
      <trkpt lat="48.161381" lon="-0.196747"></trkpt>
      <trkpt lat="48.16201" lon="-0.194664"></trkpt>
      <trkpt lat="48.162312" lon="-0.19306"></trkpt>
      <trkpt lat="48.162472" lon="-0.191385"></trkpt>
      <trkpt lat="48.162513" lon="-0.187452"></trkpt>
      <trkpt lat="48.162645" lon="-0.185459"></trkpt>
      <trkpt lat="48.162902" lon="-0.183861"></trkpt>
      <trkpt lat="48.163446" lon="-0.181826"></trkpt>
      <trkpt lat="48.164135" lon="-0.180069"></trkpt>
      <trkpt lat="48.165029" lon="-0.178446"></trkpt>
      <trkpt lat="48.1733" lon="-0.166375"></trkpt>
      <trkpt lat="48.174234" lon="-0.164478"></trkpt>
      <trkpt lat="48.174947" lon="-0.162441"></trkpt>
      <trkpt lat="48.175347" lon="-0.160249"></trkpt>
      <trkpt lat="48.176469" lon="-0.150877"></trkpt>
      <trkpt lat="48.176824" lon="-0.148759"></trkpt>
      <trkpt lat="48.180851" lon="-0.132937"></trkpt>
      <trkpt lat="48.181938" lon="-0.125031"></trkpt>
      <trkpt lat="48.182515" lon="-0.117052"></trkpt>
      <trkpt lat="48.182594" lon="-0.114026"></trkpt>
      <trkpt lat="48.182499" lon="-0.111794"></trkpt>
      <trkpt lat="48.181424" lon="-0.100646"></trkpt>
      <trkpt lat="48.181124" lon="-0.09809"></trkpt>
      <trkpt lat="48.180815" lon="-0.096504"></trkpt>
      <trkpt lat="48.180384" lon="-0.095021"></trkpt>
      <trkpt lat="48.179686" lon="-0.093286"></trkpt>
      <trkpt lat="48.177417" lon="-0.089468"></trkpt>
      <trkpt lat="48.176537" lon="-0.087478"></trkpt>
      <trkpt lat="48.175956" lon="-0.085499"></trkpt>
      <trkpt lat="48.175044" lon="-0.080409"></trkpt>
      <trkpt lat="48.174196" lon="-0.077056"></trkpt>
      <trkpt lat="48.17329" lon="-0.0745"></trkpt>
      <trkpt lat="48.171935" lon="-0.07161"></trkpt>
      <trkpt lat="48.170445" lon="-0.069142"></trkpt>
      <trkpt lat="48.166719" lon="-0.06402"></trkpt>
      <trkpt lat="48.16538" lon="-0.062673"></trkpt>
      <trkpt lat="48.164054" lon="-0.061789"></trkpt>
      <trkpt lat="48.162771" lon="-0.061265"></trkpt>
      <trkpt lat="48.161299" lon="-0.061017"></trkpt>
      <trkpt lat="48.156348" lon="-0.061401"></trkpt>
      <trkpt lat="48.15502" lon="-0.061296"></trkpt>
      <trkpt lat="48.153293" lon="-0.060781"></trkpt>
      <trkpt lat="48.151431" lon="-0.059706"></trkpt>
      <trkpt lat="48.150032" lon="-0.058457"></trkpt>
      <trkpt lat="48.149141" lon="-0.05741"></trkpt>
      <trkpt lat="48.142101" lon="-0.048154"></trkpt>
      <trkpt lat="48.140932" lon="-0.046176"></trkpt>
      <trkpt lat="48.140088" lon="-0.044459"></trkpt>
      <trkpt lat="48.132979" lon="-0.027669"></trkpt>
      <trkpt lat="48.12172" lon="0.004923"></trkpt>
      <trkpt lat="48.11992" lon="0.009361"></trkpt>
      <trkpt lat="48.118438" lon="0.012248"></trkpt>
      <trkpt lat="48.116265" lon="0.015678"></trkpt>
      <trkpt lat="48.10674" lon="0.027455"></trkpt>
      <trkpt lat="48.105905" lon="0.028685"></trkpt>
      <trkpt lat="48.105144" lon="0.030187"></trkpt>
      <trkpt lat="48.10429" lon="0.032657"></trkpt>
      <trkpt lat="48.103815" lon="0.035129"></trkpt>
      <trkpt lat="48.10304" lon="0.049833"></trkpt>
      <trkpt lat="48.10062" lon="0.072193"></trkpt>
      <trkpt lat="48.10006" lon="0.074544"></trkpt>
      <trkpt lat="48.099248" lon="0.07676"></trkpt>
      <trkpt lat="48.098339" lon="0.078567"></trkpt>
      <trkpt lat="48.096309" lon="0.081777"></trkpt>
      <trkpt lat="48.095448" lon="0.083531"></trkpt>
      <trkpt lat="48.094789" lon="0.085525"></trkpt>
      <trkpt lat="48.094353" lon="0.087575"></trkpt>
      <trkpt lat="48.094183" lon="0.089141"></trkpt>
      <trkpt lat="48.094147" lon="0.091327"></trkpt>
      <trkpt lat="48.094775" lon="0.09636"></trkpt>
      <trkpt lat="48.09492" lon="0.098646"></trkpt>
      <trkpt lat="48.094775" lon="0.101161"></trkpt>
      <trkpt lat="48.094221" lon="0.103899"></trkpt>
      <trkpt lat="48.093406" lon="0.106171"></trkpt>
      <trkpt lat="48.085987" lon="0.122018"></trkpt>
      <trkpt lat="48.08253" lon="0.127798"></trkpt>
      <trkpt lat="48.078523" lon="0.132541"></trkpt>
      <trkpt lat="48.077815" lon="0.134084"></trkpt>
      <trkpt lat="48.077417" lon="0.135976"></trkpt>
      <trkpt lat="48.077424" lon="0.138065"></trkpt>
      <trkpt lat="48.077896" lon="0.141325"></trkpt>
      <trkpt lat="48.081137" lon="0.159126"></trkpt>
      <trkpt lat="48.082357" lon="0.165157"></trkpt>
      <trkpt lat="48.083869" lon="0.171116"></trkpt>
      <trkpt lat="48.085393" lon="0.176108"></trkpt>
      <trkpt lat="48.087107" lon="0.18094"></trkpt>
      <trkpt lat="48.088908" lon="0.185347"></trkpt>
      <trkpt lat="48.093441" lon="0.19565"></trkpt>
      <trkpt lat="48.095481" lon="0.201005"></trkpt>
      <trkpt lat="48.09742" lon="0.207226"></trkpt>
      <trkpt lat="48.098997" lon="0.213754"></trkpt>
      <trkpt lat="48.100329" lon="0.221435"></trkpt>
      <trkpt lat="48.100893" lon="0.226278"></trkpt>
      <trkpt lat="48.101198" lon="0.230172"></trkpt>
      <trkpt lat="48.101403" lon="0.235363"></trkpt>
      <trkpt lat="48.101413" lon="0.239088"></trkpt>
      <trkpt lat="48.101245" lon="0.243926"></trkpt>
      <trkpt lat="48.100981" lon="0.247656"></trkpt>
      <trkpt lat="48.100437" lon="0.252652"></trkpt>
      <trkpt lat="48.097255" lon="0.274888"></trkpt>
      <trkpt lat="48.096622" lon="0.280099"></trkpt>
      <trkpt lat="48.096117" lon="0.286552"></trkpt>
      <trkpt lat="48.095666" lon="0.303247"></trkpt>
      <trkpt lat="48.0953" lon="0.309345"></trkpt>
      <trkpt lat="48.09444" lon="0.316945"></trkpt>
      <trkpt lat="48.093" lon="0.32507"></trkpt>
      <trkpt lat="48.091898" lon="0.3298"></trkpt>
      <trkpt lat="48.090675" lon="0.334254"></trkpt>
      <trkpt lat="48.089194" lon="0.338902"></trkpt>
      <trkpt lat="48.083885" lon="0.354525"></trkpt>
      <trkpt lat="48.066621" lon="0.41192"></trkpt>
      <trkpt lat="48.064989" lon="0.417794"></trkpt>
      <trkpt lat="48.058458" lon="0.44518"></trkpt>
      <trkpt lat="48.048368" lon="0.486326"></trkpt>
      <trkpt lat="48.047305" lon="0.491961"></trkpt>
      <trkpt lat="48.046524" lon="0.49764"></trkpt>
      <trkpt lat="48.045953" lon="0.504031"></trkpt>
      <trkpt lat="48.045719" lon="0.510424"></trkpt>
      <trkpt lat="48.04603" lon="0.540164"></trkpt>
      <trkpt lat="48.046196" lon="0.546722"></trkpt>
      <trkpt lat="48.047843" lon="0.572407"></trkpt>
      <trkpt lat="48.04827" lon="0.576644"></trkpt>
      <trkpt lat="48.048971" lon="0.581664"></trkpt>
      <trkpt lat="48.04973" lon="0.585861"></trkpt>
      <trkpt lat="48.05063" lon="0.59001"></trkpt>
      <trkpt lat="48.051768" lon="0.594428"></trkpt>
      <trkpt lat="48.05288" lon="0.598161"></trkpt>
      <trkpt lat="48.055767" lon="0.606078"></trkpt>
      <trkpt lat="48.062585" lon="0.621359"></trkpt>
      <trkpt lat="48.064483" lon="0.625975"></trkpt>
      <trkpt lat="48.065901" lon="0.629789"></trkpt>
      <trkpt lat="48.067655" lon="0.635077"></trkpt>
      <trkpt lat="48.069013" lon="0.639734"></trkpt>
      <trkpt lat="48.070624" lon="0.646048"></trkpt>
      <trkpt lat="48.071608" lon="0.650519"></trkpt>
      <trkpt lat="48.07247" lon="0.65494"></trkpt>
      <trkpt lat="48.073246" lon="0.659859"></trkpt>
      <trkpt lat="48.073843" lon="0.664836"></trkpt>
      <trkpt lat="48.074821" lon="0.674773"></trkpt>
      <trkpt lat="48.075724" lon="0.681344"></trkpt>
      <trkpt lat="48.076773" lon="0.686913"></trkpt>
      <trkpt lat="48.07959" lon="0.699448"></trkpt>
      <trkpt lat="48.080365" lon="0.703638"></trkpt>
      <trkpt lat="48.080991" lon="0.707914"></trkpt>
      <trkpt lat="48.081631" lon="0.714049"></trkpt>
      <trkpt lat="48.08423" lon="0.749372"></trkpt>
      <trkpt lat="48.084362" lon="0.756632"></trkpt>
      <trkpt lat="48.084159" lon="0.762409"></trkpt>
      <trkpt lat="48.083833" lon="0.766732"></trkpt>
      <trkpt lat="48.082658" lon="0.778637"></trkpt>
      <trkpt lat="48.082298" lon="0.785031"></trkpt>
      <trkpt lat="48.082314" lon="0.808992"></trkpt>
      <trkpt lat="48.082414" lon="0.813796"></trkpt>
      <trkpt lat="48.082678" lon="0.818692"></trkpt>
      <trkpt lat="48.083092" lon="0.823411"></trkpt>
      <trkpt lat="48.084613" lon="0.836616"></trkpt>
      <trkpt lat="48.084992" lon="0.841645"></trkpt>
      <trkpt lat="48.085176" lon="0.845968"></trkpt>
      <trkpt lat="48.085049" lon="0.879879"></trkpt>
      <trkpt lat="48.085477" lon="0.896445"></trkpt>
      <trkpt lat="48.085369" lon="0.904162"></trkpt>
      <trkpt lat="48.084852" lon="0.911208"></trkpt>
      <trkpt lat="48.084002" lon="0.917752"></trkpt>
      <trkpt lat="48.083072" lon="0.922894"></trkpt>
      <trkpt lat="48.080493" lon="0.93519"></trkpt>
      <trkpt lat="48.076684" lon="0.955766"></trkpt>
      <trkpt lat="48.075797" lon="0.961129"></trkpt>
      <trkpt lat="48.075059" lon="0.966817"></trkpt>
      <trkpt lat="48.074636" lon="0.971112"></trkpt>
      <trkpt lat="48.073508" lon="0.985934"></trkpt>
      <trkpt lat="48.070961" lon="1.010046"></trkpt>
      <trkpt lat="48.070368" lon="1.017494"></trkpt>
      <trkpt lat="48.070139" lon="1.023249"></trkpt>
      <trkpt lat="48.070099" lon="1.027857"></trkpt>
      <trkpt lat="48.07023" lon="1.033654"></trkpt>
      <trkpt lat="48.070562" lon="1.039435"></trkpt>
      <trkpt lat="48.071246" lon="1.046485"></trkpt>
      <trkpt lat="48.072426" lon="1.054658"></trkpt>
      <trkpt lat="48.073426" lon="1.05996"></trkpt>
      <trkpt lat="48.077688" lon="1.080207"></trkpt>
      <trkpt lat="48.079819" lon="1.094157"></trkpt>
      <trkpt lat="48.080709" lon="1.098426"></trkpt>
      <trkpt lat="48.081813" lon="1.102277"></trkpt>
      <trkpt lat="48.084063" lon="1.108744"></trkpt>
      <trkpt lat="48.087877" lon="1.120503"></trkpt>
      <trkpt lat="48.09712" lon="1.147256"></trkpt>
      <trkpt lat="48.098653" lon="1.151338"></trkpt>
      <trkpt lat="48.100387" lon="1.155224"></trkpt>
      <trkpt lat="48.102724" lon="1.159621"></trkpt>
      <trkpt lat="48.104718" lon="1.162798"></trkpt>
      <trkpt lat="48.10725" lon="1.166255"></trkpt>
      <trkpt lat="48.109271" lon="1.168627"></trkpt>
      <trkpt lat="48.111138" lon="1.170565"></trkpt>
      <trkpt lat="48.118164" lon="1.176737"></trkpt>
      <trkpt lat="48.120499" lon="1.17904"></trkpt>
      <trkpt lat="48.123358" lon="1.182308"></trkpt>
      <trkpt lat="48.12551" lon="1.185158"></trkpt>
      <trkpt lat="48.128214" lon="1.189326"></trkpt>
      <trkpt lat="48.135319" lon="1.201807"></trkpt>
      <trkpt lat="48.137386" lon="1.204972"></trkpt>
      <trkpt lat="48.143375" lon="1.21357"></trkpt>
      <trkpt lat="48.144877" lon="1.215931"></trkpt>
      <trkpt lat="48.146861" lon="1.219367"></trkpt>
      <trkpt lat="48.149752" lon="1.225192"></trkpt>
      <trkpt lat="48.152483" lon="1.231933"></trkpt>
      <trkpt lat="48.154324" lon="1.237532"></trkpt>
      <trkpt lat="48.157967" lon="1.250345"></trkpt>
      <trkpt lat="48.159453" lon="1.254726"></trkpt>
      <trkpt lat="48.160762" lon="1.258114"></trkpt>
      <trkpt lat="48.162819" lon="1.2628"></trkpt>
      <trkpt lat="48.179895" lon="1.299713"></trkpt>
      <trkpt lat="48.181979" lon="1.304631"></trkpt>
      <trkpt lat="48.184304" lon="1.310888"></trkpt>
      <trkpt lat="48.185713" lon="1.315214"></trkpt>
      <trkpt lat="48.18712" lon="1.320056"></trkpt>
      <trkpt lat="48.188438" lon="1.325293"></trkpt>
      <trkpt lat="48.189546" lon="1.33045"></trkpt>
      <trkpt lat="48.190684" lon="1.336955"></trkpt>
      <trkpt lat="48.193647" lon="1.356992"></trkpt>
      <trkpt lat="48.195547" lon="1.366824"></trkpt>
      <trkpt lat="48.197468" lon="1.374668"></trkpt>
      <trkpt lat="48.205134" lon="1.402673"></trkpt>
      <trkpt lat="48.207181" lon="1.409201"></trkpt>
      <trkpt lat="48.209261" lon="1.414896"></trkpt>
      <trkpt lat="48.210871" lon="1.418835"></trkpt>
      <trkpt lat="48.217045" lon="1.432599"></trkpt>
      <trkpt lat="48.218803" lon="1.437236"></trkpt>
      <trkpt lat="48.220359" lon="1.441981"></trkpt>
      <trkpt lat="48.235544" lon="1.498877"></trkpt>
      <trkpt lat="48.239107" lon="1.51317"></trkpt>
      <trkpt lat="48.24257" lon="1.52515"></trkpt>
      <trkpt lat="48.251542" lon="1.558492"></trkpt>
      <trkpt lat="48.253948" lon="1.568364"></trkpt>
      <trkpt lat="48.255324" lon="1.573487"></trkpt>
      <trkpt lat="48.257258" lon="1.579469"></trkpt>
      <trkpt lat="48.25948" lon="1.585182"></trkpt>
      <trkpt lat="48.262016" lon="1.590688"></trkpt>
      <trkpt lat="48.265127" lon="1.596411"></trkpt>
      <trkpt lat="48.268457" lon="1.601587"></trkpt>
      <trkpt lat="48.275329" lon="1.61079"></trkpt>
      <trkpt lat="48.277199" lon="1.613502"></trkpt>
      <trkpt lat="48.279031" lon="1.616416"></trkpt>
      <trkpt lat="48.281912" lon="1.621587"></trkpt>
      <trkpt lat="48.288153" lon="1.634405"></trkpt>
      <trkpt lat="48.289838" lon="1.637444"></trkpt>
      <trkpt lat="48.291661" lon="1.640434"></trkpt>
      <trkpt lat="48.294131" lon="1.644087"></trkpt>
      <trkpt lat="48.29612" lon="1.646721"></trkpt>
      <trkpt lat="48.298682" lon="1.649803"></trkpt>
      <trkpt lat="48.301152" lon="1.652464"></trkpt>
      <trkpt lat="48.304211" lon="1.655352"></trkpt>
      <trkpt lat="48.308269" lon="1.658609"></trkpt>
      <trkpt lat="48.354323" lon="1.692108"></trkpt>
      <trkpt lat="48.357059" lon="1.694142"></trkpt>
      <trkpt lat="48.359898" lon="1.696499"></trkpt>
      <trkpt lat="48.362737" lon="1.699194"></trkpt>
      <trkpt lat="48.364567" lon="1.701126"></trkpt>
      <trkpt lat="48.393405" lon="1.733402"></trkpt>
      <trkpt lat="48.395684" lon="1.735838"></trkpt>
      <trkpt lat="48.398606" lon="1.738603"></trkpt>
      <trkpt lat="48.432307" lon="1.768304"></trkpt>
      <trkpt lat="48.435783" lon="1.771787"></trkpt>
      <trkpt lat="48.438358" lon="1.774859"></trkpt>
      <trkpt lat="48.441513" lon="1.779335"></trkpt>
      <trkpt lat="48.448181" lon="1.790149"></trkpt>
      <trkpt lat="48.456566" lon="1.801885"></trkpt>
      <trkpt lat="48.458834" lon="1.805718"></trkpt>
      <trkpt lat="48.460615" lon="1.809243"></trkpt>
      <trkpt lat="48.462531" lon="1.813732"></trkpt>
      <trkpt lat="48.464192" lon="1.818488"></trkpt>
      <trkpt lat="48.465581" lon="1.823496"></trkpt>
      <trkpt lat="48.467651" lon="1.832711"></trkpt>
      <trkpt lat="48.468772" lon="1.837009"></trkpt>
      <trkpt lat="48.470201" lon="1.841524"></trkpt>
      <trkpt lat="48.472121" lon="1.846533"></trkpt>
      <trkpt lat="48.484201" lon="1.875249"></trkpt>
      <trkpt lat="48.486439" lon="1.880303"></trkpt>
      <trkpt lat="48.488102" lon="1.883549"></trkpt>
      <trkpt lat="48.490206" lon="1.887146"></trkpt>
      <trkpt lat="48.492708" lon="1.890831"></trkpt>
      <trkpt lat="48.494927" lon="1.893664"></trkpt>
      <trkpt lat="48.498062" lon="1.89709"></trkpt>
      <trkpt lat="48.500767" lon="1.899582"></trkpt>
      <trkpt lat="48.503803" lon="1.901948"></trkpt>
      <trkpt lat="48.507247" lon="1.90412"></trkpt>
      <trkpt lat="48.510124" lon="1.905567"></trkpt>
      <trkpt lat="48.535737" lon="1.916713"></trkpt>
      <trkpt lat="48.539297" lon="1.918653"></trkpt>
      <trkpt lat="48.540913" lon="1.919746"></trkpt>
      <trkpt lat="48.542986" lon="1.921355"></trkpt>
      <trkpt lat="48.546096" lon="1.924268"></trkpt>
      <trkpt lat="48.54898" lon="1.927598"></trkpt>
      <trkpt lat="48.551359" lon="1.930904"></trkpt>
      <trkpt lat="48.553509" lon="1.934456"></trkpt>
      <trkpt lat="48.555793" lon="1.939022"></trkpt>
      <trkpt lat="48.557499" lon="1.943197"></trkpt>
      <trkpt lat="48.559132" lon="1.94818"></trkpt>
      <trkpt lat="48.560031" lon="1.951598"></trkpt>
      <trkpt lat="48.560837" lon="1.955401"></trkpt>
      <trkpt lat="48.564006" lon="1.974573"></trkpt>
      <trkpt lat="48.564756" lon="1.978434"></trkpt>
      <trkpt lat="48.566291" lon="1.984415"></trkpt>
      <trkpt lat="48.567977" lon="1.989453"></trkpt>
      <trkpt lat="48.569399" lon="1.992979"></trkpt>
      <trkpt lat="48.571301" lon="1.997004"></trkpt>
      <trkpt lat="48.577964" lon="2.009994"></trkpt>
      <trkpt lat="48.582524" lon="2.018476"></trkpt>
      <trkpt lat="48.584316" lon="2.022269"></trkpt>
      <trkpt lat="48.586248" lon="2.027181"></trkpt>
      <trkpt lat="48.590619" lon="2.040053"></trkpt>
      <trkpt lat="48.59177" lon="2.043161"></trkpt>
      <trkpt lat="48.593423" lon="2.047054"></trkpt>
      <trkpt lat="48.597331" lon="2.055241"></trkpt>
      <trkpt lat="48.598816" lon="2.058944"></trkpt>
      <trkpt lat="48.599875" lon="2.062002"></trkpt>
      <trkpt lat="48.601671" lon="2.068476"></trkpt>
      <trkpt lat="48.60748" lon="2.093614"></trkpt>
      <trkpt lat="48.611347" lon="2.112721"></trkpt>
      <trkpt lat="48.613101" lon="2.118726"></trkpt>
      <trkpt lat="48.615244" lon="2.124192"></trkpt>
      <trkpt lat="48.617027" lon="2.127848"></trkpt>
      <trkpt lat="48.618576" lon="2.13057"></trkpt>
      <trkpt lat="48.620534" lon="2.13355"></trkpt>
      <trkpt lat="48.622773" lon="2.136451"></trkpt>
      <trkpt lat="48.625418" lon="2.139307"></trkpt>
      <trkpt lat="48.632323" lon="2.1452"></trkpt>
      <trkpt lat="48.635007" lon="2.147841"></trkpt>
      <trkpt lat="48.636107" lon="2.149119"></trkpt>
      <trkpt lat="48.638706" lon="2.152575"></trkpt>
      <trkpt lat="48.641117" lon="2.156409"></trkpt>
      <trkpt lat="48.648438" lon="2.169227"></trkpt>
      <trkpt lat="48.654163" lon="2.178878"></trkpt>
      <trkpt lat="48.657135" lon="2.182975"></trkpt>
      <trkpt lat="48.664376" lon="2.191534"></trkpt>
      <trkpt lat="48.667679" lon="2.19609"></trkpt>
      <trkpt lat="48.669167" lon="2.198386"></trkpt>
      <trkpt lat="48.679013" lon="2.219608"></trkpt>
      <trkpt lat="48.683665" lon="2.230785"></trkpt>
      <trkpt lat="48.68577" lon="2.234808"></trkpt>
      <trkpt lat="48.687416" lon="2.23725"></trkpt>
      <trkpt lat="48.68955" lon="2.24001"></trkpt>
      <trkpt lat="48.692575" lon="2.243204"></trkpt>
      <trkpt lat="48.695252" lon="2.245584"></trkpt>
      <trkpt lat="48.697718" lon="2.247383"></trkpt>
      <trkpt lat="48.701014" lon="2.249302"></trkpt>
      <trkpt lat="48.704771" lon="2.250804"></trkpt>
      <trkpt lat="48.710701" lon="2.252486"></trkpt>
      <trkpt lat="48.719378" lon="2.255347"></trkpt>
      <trkpt lat="48.720237" lon="2.255669"></trkpt>
      <trkpt lat="48.721045" lon="2.256143"></trkpt>
      <trkpt lat="48.72244" lon="2.257274"></trkpt>
      <trkpt lat="48.72385" lon="2.258813"></trkpt>
      <trkpt lat="48.731945" lon="2.269142"></trkpt>
      <trkpt lat="48.73407" lon="2.271197"></trkpt>
      <trkpt lat="48.735122" lon="2.27196"></trkpt>
      <trkpt lat="48.74239" lon="2.276356"></trkpt>
      <trkpt lat="48.752077" lon="2.282543"></trkpt>
      <trkpt lat="48.754667" lon="2.283832"></trkpt>
      <trkpt lat="48.756767" lon="2.284547"></trkpt>
      <trkpt lat="48.759044" lon="2.285022"></trkpt>
      <trkpt lat="48.76121" lon="2.285195"></trkpt>
      <trkpt lat="48.768163" lon="2.28527"></trkpt>
      <trkpt lat="48.771985" lon="2.285469"></trkpt>
      <trkpt lat="48.774468" lon="2.285819"></trkpt>
      <trkpt lat="48.782729" lon="2.287433"></trkpt>
      <trkpt lat="48.784861" lon="2.288428"></trkpt>
      <trkpt lat="48.787404" lon="2.290296"></trkpt>
      <trkpt lat="48.788534" lon="2.290965"></trkpt>
      <trkpt lat="48.792418" lon="2.292502"></trkpt>
      <trkpt lat="48.794161" lon="2.293448"></trkpt>
      <trkpt lat="48.795206" lon="2.294195"></trkpt>
      <trkpt lat="48.798301" lon="2.296878"></trkpt>
      <trkpt lat="48.80001" lon="2.298139"></trkpt>
      <trkpt lat="48.802119" lon="2.299973"></trkpt>
      <trkpt lat="48.803137" lon="2.300623"></trkpt>
      <trkpt lat="48.803921" lon="2.300881"></trkpt>
      <trkpt lat="48.809357" lon="2.301466"></trkpt>
      <trkpt lat="48.809937" lon="2.301448"></trkpt>
      <trkpt lat="48.810492" lon="2.301284"></trkpt>
      <trkpt lat="48.811068" lon="2.300958"></trkpt>
      <trkpt lat="48.812478" lon="2.299751"></trkpt>
      <trkpt lat="48.816074" lon="2.296051"></trkpt>
      <trkpt lat="48.816798" lon="2.295529"></trkpt>
      <trkpt lat="48.817441" lon="2.295247"></trkpt>
      <trkpt lat="48.818325" lon="2.295083"></trkpt>
      <trkpt lat="48.819302" lon="2.29518"></trkpt>
      <trkpt lat="48.819995" lon="2.29545"></trkpt>
      <trkpt lat="48.820784" lon="2.295996"></trkpt>
      <trkpt lat="48.822023" lon="2.29731"></trkpt>
      <trkpt lat="48.832292" lon="2.309914"></trkpt>
      <trkpt lat="48.834651" lon="2.312188"></trkpt>
      <trkpt lat="48.835928" lon="2.313152"></trkpt>
      <trkpt lat="48.838322" lon="2.315805"></trkpt>
  </trkseg></trk>
</gpx>
