<?xml version="1.0" encoding="UTF-8"?>
<gpx version="1.1" creator="yatutbuv" xmlns="http://www.topografix.com/GPX/1/1">
  <trk><name>2004_Zaporizzhia_Simpheropol</name><trkseg>
      <trkpt lat="44.961298" lon="34.079926"></trkpt>
      <trkpt lat="44.962189" lon="34.081043"></trkpt>
      <trkpt lat="44.963325" lon="34.083167"></trkpt>
      <trkpt lat="44.96421" lon="34.084419"></trkpt>
      <trkpt lat="44.966598" lon="34.08734"></trkpt>
      <trkpt lat="44.967845" lon="34.08835"></trkpt>
      <trkpt lat="44.969308" lon="34.088963"></trkpt>
      <trkpt lat="44.971023" lon="34.089129"></trkpt>
      <trkpt lat="44.972198" lon="34.088982"></trkpt>
      <trkpt lat="44.973122" lon="34.088732"></trkpt>
      <trkpt lat="44.974925" lon="34.087852"></trkpt>
      <trkpt lat="44.976627" lon="34.086462"></trkpt>
      <trkpt lat="44.98522" lon="34.076991"></trkpt>
      <trkpt lat="44.996216" lon="34.059165"></trkpt>
      <trkpt lat="44.998402" lon="34.056115"></trkpt>
      <trkpt lat="45.0093" lon="34.04445"></trkpt>
      <trkpt lat="45.010736" lon="34.043151"></trkpt>
      <trkpt lat="45.012017" lon="34.042288"></trkpt>
      <trkpt lat="45.017608" lon="34.039707"></trkpt>
      <trkpt lat="45.022076" lon="34.037812"></trkpt>
      <trkpt lat="45.044971" lon="34.027204"></trkpt>
      <trkpt lat="45.054763" lon="34.022832"></trkpt>
      <trkpt lat="45.055588" lon="34.022577"></trkpt>
      <trkpt lat="45.057878" lon="34.022161"></trkpt>
      <trkpt lat="45.060166" lon="34.022133"></trkpt>
      <trkpt lat="45.102182" lon="34.025114"></trkpt>
      <trkpt lat="45.106943" lon="34.025981"></trkpt>
      <trkpt lat="45.137459" lon="34.032666"></trkpt>
      <trkpt lat="45.139307" lon="34.033261"></trkpt>
      <trkpt lat="45.208526" lon="34.075662"></trkpt>
      <trkpt lat="45.257114" lon="34.105531"></trkpt>
      <trkpt lat="45.258822" lon="34.106689"></trkpt>
      <trkpt lat="45.296787" lon="34.135867"></trkpt>
      <trkpt lat="45.298095" lon="34.137015"></trkpt>
      <trkpt lat="45.396544" lon="34.21271"></trkpt>
      <trkpt lat="45.40454" lon="34.21896"></trkpt>
      <trkpt lat="45.496708" lon="34.289639"></trkpt>
      <trkpt lat="45.506381" lon="34.296894"></trkpt>
      <trkpt lat="45.509398" lon="34.298373"></trkpt>
      <trkpt lat="45.517203" lon="34.301844"></trkpt>
      <trkpt lat="45.566248" lon="34.323466"></trkpt>
      <trkpt lat="45.603039" lon="34.339848"></trkpt>
      <trkpt lat="45.605417" lon="34.340769"></trkpt>
      <trkpt lat="45.695665" lon="34.381187"></trkpt>
      <trkpt lat="45.696947" lon="34.381691"></trkpt>
      <trkpt lat="45.70139" lon="34.382787"></trkpt>
      <trkpt lat="45.702113" lon="34.38317"></trkpt>
      <trkpt lat="45.70357" lon="34.384213"></trkpt>
      <trkpt lat="45.705624" lon="34.385377"></trkpt>
      <trkpt lat="45.70811" lon="34.386163"></trkpt>
      <trkpt lat="45.712411" lon="34.388059"></trkpt>
      <trkpt lat="45.71587" lon="34.389713"></trkpt>
      <trkpt lat="45.716826" lon="34.390273"></trkpt>
      <trkpt lat="45.719315" lon="34.391397"></trkpt>
      <trkpt lat="45.722017" lon="34.392993"></trkpt>
      <trkpt lat="45.819468" lon="34.436764"></trkpt>
      <trkpt lat="45.820829" lon="34.43724"></trkpt>
      <trkpt lat="45.82219" lon="34.437561"></trkpt>
      <trkpt lat="45.917333" lon="34.455489"></trkpt>
      <trkpt lat="45.919097" lon="34.45586"></trkpt>
      <trkpt lat="45.920681" lon="34.456426"></trkpt>
      <trkpt lat="45.922703" lon="34.45761"></trkpt>
      <trkpt lat="45.957614" lon="34.483164"></trkpt>
      <trkpt lat="45.959511" lon="34.484383"></trkpt>
      <trkpt lat="45.962175" lon="34.48547"></trkpt>
      <trkpt lat="45.995244" lon="34.4957"></trkpt>
      <trkpt lat="45.996748" lon="34.496351"></trkpt>
      <trkpt lat="46.000013" lon="34.498493"></trkpt>
      <trkpt lat="46.002034" lon="34.500364"></trkpt>
      <trkpt lat="46.08769" lon="34.588053"></trkpt>
      <trkpt lat="46.089729" lon="34.589823"></trkpt>
      <trkpt lat="46.091672" lon="34.591059"></trkpt>
      <trkpt lat="46.094367" lon="34.592211"></trkpt>
      <trkpt lat="46.096248" lon="34.592653"></trkpt>
      <trkpt lat="46.154331" lon="34.601228"></trkpt>
      <trkpt lat="46.155465" lon="34.601296"></trkpt>
      <trkpt lat="46.156712" lon="34.601143"></trkpt>
      <trkpt lat="46.165911" lon="34.598619"></trkpt>
      <trkpt lat="46.166971" lon="34.598412"></trkpt>
      <trkpt lat="46.168128" lon="34.598401"></trkpt>
      <trkpt lat="46.169348" lon="34.59863"></trkpt>
      <trkpt lat="46.17086" lon="34.599428"></trkpt>
      <trkpt lat="46.222564" lon="34.643415"></trkpt>
      <trkpt lat="46.27852" lon="34.691331"></trkpt>
      <trkpt lat="46.281058" lon="34.693692"></trkpt>
      <trkpt lat="46.322295" lon="34.741417"></trkpt>
      <trkpt lat="46.328027" lon="34.748212"></trkpt>
      <trkpt lat="46.415644" lon="34.849888"></trkpt>
      <trkpt lat="46.505047" lon="34.954138"></trkpt>
      <trkpt lat="46.577349" lon="35.038976"></trkpt>
      <trkpt lat="46.578582" lon="35.04062"></trkpt>
      <trkpt lat="46.582685" lon="35.046715"></trkpt>
      <trkpt lat="46.58398" lon="35.048367"></trkpt>
      <trkpt lat="46.586018" lon="35.050374"></trkpt>
      <trkpt lat="46.590824" lon="35.05402"></trkpt>
      <trkpt lat="46.59224" lon="35.055406"></trkpt>
      <trkpt lat="46.596767" lon="35.061725"></trkpt>
      <trkpt lat="46.648181" lon="35.122056"></trkpt>
      <trkpt lat="46.664105" lon="35.142681"></trkpt>
      <trkpt lat="46.671006" lon="35.152809"></trkpt>
      <trkpt lat="46.698559" lon="35.186778"></trkpt>
      <trkpt lat="46.700325" lon="35.188196"></trkpt>
      <trkpt lat="46.71934" lon="35.198546"></trkpt>
      <trkpt lat="46.729912" lon="35.204685"></trkpt>
      <trkpt lat="46.731039" lon="35.205254"></trkpt>
      <trkpt lat="46.734358" lon="35.206615"></trkpt>
      <trkpt lat="46.785662" lon="35.234479"></trkpt>
      <trkpt lat="46.787011" lon="35.235406"></trkpt>
      <trkpt lat="46.788393" lon="35.236761"></trkpt>
      <trkpt lat="46.789322" lon="35.237947"></trkpt>
      <trkpt lat="46.790332" lon="35.239655"></trkpt>
      <trkpt lat="46.795696" lon="35.250516"></trkpt>
      <trkpt lat="46.803056" lon="35.264924"></trkpt>
      <trkpt lat="46.853277" lon="35.355852"></trkpt>
      <trkpt lat="46.855116" lon="35.358831"></trkpt>
      <trkpt lat="46.855733" lon="35.359498"></trkpt>
      <trkpt lat="46.856814" lon="35.36029"></trkpt>
      <trkpt lat="46.857761" lon="35.360653"></trkpt>
      <trkpt lat="46.858759" lon="35.360773"></trkpt>
      <trkpt lat="46.859781" lon="35.360625"></trkpt>
      <trkpt lat="46.860579" lon="35.360303"></trkpt>
      <trkpt lat="46.871235" lon="35.354584"></trkpt>
      <trkpt lat="46.917415" lon="35.32892"></trkpt>
      <trkpt lat="46.918972" lon="35.328202"></trkpt>
      <trkpt lat="46.920631" lon="35.327669"></trkpt>
      <trkpt lat="46.921773" lon="35.327428"></trkpt>
      <trkpt lat="46.927482" lon="35.326719"></trkpt>
      <trkpt lat="46.928371" lon="35.326691"></trkpt>
      <trkpt lat="46.971047" lon="35.321509"></trkpt>
      <trkpt lat="46.977596" lon="35.320451"></trkpt>
      <trkpt lat="46.997821" lon="35.317896"></trkpt>
      <trkpt lat="47.061131" lon="35.313873"></trkpt>
      <trkpt lat="47.063049" lon="35.313853"></trkpt>
      <trkpt lat="47.086554" lon="35.314943"></trkpt>
      <trkpt lat="47.095878" lon="35.315602"></trkpt>
      <trkpt lat="47.159699" lon="35.319062"></trkpt>
      <trkpt lat="47.161634" lon="35.319212"></trkpt>
      <trkpt lat="47.171376" lon="35.320736"></trkpt>
      <trkpt lat="47.250187" lon="35.324964"></trkpt>
      <trkpt lat="47.345561" lon="35.330485"></trkpt>
  </trkseg></trk>
</gpx>
