<?xml version="1.0" encoding="UTF-8"?>
<gpx version="1.1" creator="yatutbuv" xmlns="http://www.topografix.com/GPX/1/1">
  <trk><name>2023_Schwechat -&gt; Favoriten (17.6km)</name><trkseg>
      <trkpt lat="48.120307" lon="16.564531"></trkpt>
      <trkpt lat="48.120881" lon="16.563101"></trkpt>
      <trkpt lat="48.125864" lon="16.55336"></trkpt>
      <trkpt lat="48.127272" lon="16.549029"></trkpt>
      <trkpt lat="48.131822" lon="16.537881"></trkpt>
      <trkpt lat="48.132577" lon="16.535607"></trkpt>
      <trkpt lat="48.133323" lon="16.531866"></trkpt>
      <trkpt lat="48.135306" lon="16.513003"></trkpt>
      <trkpt lat="48.136021" lon="16.509501"></trkpt>
      <trkpt lat="48.137896" lon="16.501732"></trkpt>
      <trkpt lat="48.138939" lon="16.493924"></trkpt>
      <trkpt lat="48.139653" lon="16.492079"></trkpt>
      <trkpt lat="48.141841" lon="16.488368"></trkpt>
      <trkpt lat="48.142124" lon="16.487226"></trkpt>
      <trkpt lat="48.142417" lon="16.484032"></trkpt>
      <trkpt lat="48.14267" lon="16.482939"></trkpt>
      <trkpt lat="48.143035" lon="16.482193"></trkpt>
      <trkpt lat="48.145494" lon="16.478518"></trkpt>
      <trkpt lat="48.145769" lon="16.477653"></trkpt>
      <trkpt lat="48.146166" lon="16.4748"></trkpt>
      <trkpt lat="48.14654" lon="16.473933"></trkpt>
      <trkpt lat="48.147793" lon="16.471799"></trkpt>
      <trkpt lat="48.148146" lon="16.470681"></trkpt>
      <trkpt lat="48.14819" lon="16.469299"></trkpt>
      <trkpt lat="48.148033" lon="16.468505"></trkpt>
      <trkpt lat="48.147736" lon="16.467747"></trkpt>
      <trkpt lat="48.146645" lon="16.465924"></trkpt>
      <trkpt lat="48.140358" lon="16.456666"></trkpt>
      <trkpt lat="48.139636" lon="16.455338"></trkpt>
      <trkpt lat="48.139118" lon="16.453829"></trkpt>
      <trkpt lat="48.138768" lon="16.451393"></trkpt>
      <trkpt lat="48.138359" lon="16.441913"></trkpt>
      <trkpt lat="48.138469" lon="16.438705"></trkpt>
      <trkpt lat="48.138837" lon="16.436957"></trkpt>
      <trkpt lat="48.139538" lon="16.435618"></trkpt>
      <trkpt lat="48.140871" lon="16.434275"></trkpt>
      <trkpt lat="48.147922" lon="16.42958"></trkpt>
      <trkpt lat="48.149369" lon="16.42834"></trkpt>
      <trkpt lat="48.151028" lon="16.426031"></trkpt>
      <trkpt lat="48.153819" lon="16.423348"></trkpt>
      <trkpt lat="48.160347" lon="16.415815"></trkpt>
      <trkpt lat="48.162357" lon="16.412818"></trkpt>
      <trkpt lat="48.167864" lon="16.40638"></trkpt>
      <trkpt lat="48.16944" lon="16.404134"></trkpt>
      <trkpt lat="48.171394" lon="16.400983"></trkpt>
      <trkpt lat="48.176698" lon="16.393078"></trkpt>
      <trkpt lat="48.178908" lon="16.390001"></trkpt>
      <trkpt lat="48.18235" lon="16.385623"></trkpt>
      <trkpt lat="48.184176" lon="16.381583"></trkpt>
      <trkpt lat="48.184454" lon="16.380459"></trkpt>
      <trkpt lat="48.184918" lon="16.377293"></trkpt>
  </trkseg></trk>
</gpx>
