{"type":"FeatureCollection","features":[{"type":"Feature","id":"p-7135e5286a554c03991acea7263e05f0","properties":{"name":"HU-HR Letenye - Goričan","_umap_options":{"color":"#000000","iconColor":"#000000"}},"geometry":{"type":"Point","coordinates":[16.69815,46.42023]}},{"type":"Feature","id":"p-849a21e268534444b077743475152a97","properties":{"name":"HU-RS Röszke - Хоргош","_umap_options":{"color":"#000000","iconColor":"#000000"}},"geometry":{"type":"Point","coordinates":[19.97662,46.17333]}},{"type":"Feature","id":"p-e948dc193b9f480eaacc70eab1ec7483","properties":{"name":"RO-BG Giurgiu - Ruse","_umap_options":{"color":"#000000","iconColor":"#000000"}},"geometry":{"type":"Point","coordinates":[26.0073,43.88723]}},{"type":"Feature","id":"p-217c9a698fe34f9394da7f80c0487a68","properties":{"name":"RO-BG Negru Voda","_umap_options":{"color":"#000000","iconColor":"#000000"}},"geometry":{"type":"Point","coordinates":[28.1492,43.78739]}},{"type":"Feature","id":"p-45780edb82a34003b0076a173db7df69","properties":{"name":"UA-BY Піща - Олтуш","_umap_options":{"color":"#000000","iconColor":"#000000"}},"geometry":{"type":"Point","coordinates":[23.87763,51.64133]}},{"type":"Feature","id":"p-b9504a22485c4bf2a546e1ecadf4c08e","properties":{"name":"UA-BY Пулемець - Томашівка","_umap_options":{"color":"#000000","iconColor":"#000000"}},"geometry":{"type":"Point","coordinates":[23.69731,51.57439]}},{"type":"Feature","id":"p-f8f0a294024f43cc9b682129d6284552","properties":{"name":"UA-HU Лужанка - Beregsurány","_umap_options":{"color":"#000000","iconColor":"#000000"}},"geometry":{"type":"Point","coordinates":[22.57394,48.16572]}},{"type":"Feature","id":"p-50887f7a3adc477b9e191d30ad2e6103","properties":{"name":"UA-HU Чоп - Záhony","_umap_options":{"color":"#000000","iconColor":"#000000"}},"geometry":{"type":"Point","coordinates":[22.16978,48.41755]}},{"type":"Feature","id":"p-231e2bbb387a46499d8328bcdb749dc1","properties":{"name":"UA-HU Чоп - Záhony (rail)","_umap_options":{"color":"#000000","iconColor":"#000000"}},"geometry":{"type":"Point","coordinates":[22.18512,48.41514]}},{"type":"Feature","id":"p-a965540944b64886a42ff4ced616dd26","properties":{"name":"UA-MD* Платонове","_umap_options":{"color":"#000000","iconColor":"#000000"}},"geometry":{"type":"Point","coordinates":[29.33351,47.40573]}},{"type":"Feature","id":"p-32ad5aad7730486bab93f25e0f40cffb","properties":{"name":"UA-PL Краковець - Korczowa","_umap_options":{"color":"#000000","iconColor":"#000000"}},"geometry":{"type":"Point","coordinates":[23.11644,49.9553]}},{"type":"Feature","id":"p-b0b4f491104148a28711a6dc561c2d6c","properties":{"name":"UA-PL Рава руська - Hrebenne","_umap_options":{"color":"#000000","iconColor":"#000000"}},"geometry":{"type":"Point","coordinates":[23.58857,50.27664]}},{"type":"Feature","id":"p-3162bee17fa74714ae84b7b76dee8e44","properties":{"name":"UA-PL Шегині - Medyka","_umap_options":{"color":"#000000","iconColor":"#000000"}},"geometry":{"type":"Point","coordinates":[22.95004,49.79909]}},{"type":"Feature","id":"p-b8b525f90d57482397fc027668bec6af","properties":{"name":"UA-PL Ягодин-Dorohusk","_umap_options":{"color":"#000000","iconColor":"#000000"}},"geometry":{"type":"Point","coordinates":[23.81045,51.18809]}},{"type":"Feature","id":"p-fe5a5ac366024450a1005f45f378e4ca","properties":{"name":"UA-RO Порубне - Siret","_umap_options":{"color":"#000000","iconColor":"#000000"}},"geometry":{"type":"Point","coordinates":[26.06004,47.98871]}},{"type":"Feature","id":"p-32fb4e854b294b249fb32ea7bd9afae3","properties":{"name":"UA-RU Керч - Кавказ","_umap_options":{"color":"#000000","iconColor":"#000000"}},"geometry":{"type":"Point","coordinates":[36.47691,45.35628]}},{"type":"Feature","id":"p-d9ac26822b0f4ed58ef8ba5276ad0aae","properties":{"name":"UA-RU Новоазовськ - Веселовознесенка","_umap_options":{"color":"#000000","iconColor":"#000000"}},"geometry":{"type":"Point","coordinates":[38.235,47.15973]}},{"type":"Feature","id":"p-8795abdc14a449368fd395520740740a","properties":{"name":"UA-RU Хутір Михайлівський (rail)","_umap_options":{"color":"#000000","iconColor":"#000000"}},"geometry":{"type":"Point","coordinates":[34.02517,52.20127]}},{"type":"Feature","id":"p-af4d66fab6f94a4e8081611fec087e07","properties":{"name":"UA-SK Ужгород - Vyšné Nemecké","_umap_options":{"color":"#000000","iconColor":"#000000"}},"geometry":{"type":"Point","coordinates":[22.26988,48.65391]}}]}