{"type":"FeatureCollection","features":[{"type":"Feature","properties":{"name":"Autorent M.C LTD - Larnaca","country":"CY","_umap_options":{"color":"#0288d1","iconColor":"#0288d1"}},"geometry":{"type":"Point","coordinates":[33.59866,34.87714]}},{"type":"Feature","properties":{"name":"Alamo Rent A Car - Muscat Airport","country":"OM","_umap_options":{"color":"#0288d1","iconColor":"#0288d1"}},"geometry":{"type":"Point","coordinates":[58.28957,23.60075]}},{"type":"Feature","properties":{"name":"ACE Rent A Car","country":"PL","_umap_options":{"color":"#0288d1","iconColor":"#0288d1"}},"geometry":{"type":"Point","coordinates":[20.97429,52.17059]}},{"type":"Feature","properties":{"name":"Hertz Car Rental","country":"PL","_umap_options":{"color":"#0288d1","iconColor":"#0288d1"}},"geometry":{"type":"Point","coordinates":[20.97244,52.17233]}},{"type":"Feature","properties":{"name":"Enterprise Rent-A-Car","country":"US","date":"2008","_umap_options":{"color":"#0288d1","iconColor":"#0288d1"}},"geometry":{"type":"Point","coordinates":[-118.35015,34.19302]}},{"type":"Feature","properties":{"name":"קאנטרי שרותי ליסינג בע\"מ - IS‎","date":"2014","_umap_options":{"color":"#0288d1","iconColor":"#0288d1"}},"geometry":{"type":"Point","coordinates":[34.84984,32.32964]}}]}