{"type":"FeatureCollection","features":[{"type":"Feature","properties":{"name":"Vienna, Ernst Happel Stadium","country":"AT","_umap_options":{"color":"#0f9d58","iconColor":"#0f9d58"}},"geometry":{"type":"Point","coordinates":[16.42099,48.20721]}},{"type":"Feature","properties":{"name":"Düsseldorf Arena","country":"DE","_umap_options":{"color":"#0f9d58","iconColor":"#0f9d58"}},"geometry":{"type":"Point","coordinates":[6.73357,51.26179]}},{"type":"Feature","properties":{"name":"Munich Football Arena","country":"DE","_umap_options":{"color":"#0f9d58","iconColor":"#0f9d58"}},"geometry":{"type":"Point","coordinates":[11.62471,48.2188]}},{"type":"Feature","properties":{"name":"Camp Nou","country":"ES","_umap_options":{"color":"#0f9d58","iconColor":"#0f9d58"}},"geometry":{"type":"Point","coordinates":[2.12282,41.3809]}},{"type":"Feature","properties":{"name":"Estadio Ciudad de Valencia","country":"ES","_umap_options":{"color":"#0f9d58","iconColor":"#0f9d58"}},"geometry":{"type":"Point","coordinates":[-0.36382,39.49469]}},{"type":"Feature","properties":{"name":"La Condomina Stadium","country":"ES","_umap_options":{"color":"#0f9d58","iconColor":"#0f9d58"}},"geometry":{"type":"Point","coordinates":[-1.12136,37.98621]}},{"type":"Feature","properties":{"name":"Mestalla Stadium","country":"ES","_umap_options":{"color":"#0f9d58","iconColor":"#0f9d58"}},"geometry":{"type":"Point","coordinates":[-0.35859,39.47466]}},{"type":"Feature","properties":{"name":"Metropolitano Stadium, Madrid","country":"ES","_umap_options":{"color":"#0f9d58","iconColor":"#0f9d58"}},"geometry":{"type":"Point","coordinates":[-3.59947,40.43619]}},{"type":"Feature","properties":{"name":"Santiago Bernabéu Stadium","country":"ES","description":"Stadium tour","_umap_options":{"color":"#0f9d58","iconColor":"#0f9d58"}},"geometry":{"type":"Point","coordinates":[-3.68833,40.45304]}},{"type":"Feature","properties":{"name":"Parc des Princes","country":"FR","_umap_options":{"color":"#0f9d58","iconColor":"#0f9d58"}},"geometry":{"type":"Point","coordinates":[2.25305,48.84144]}},{"type":"Feature","properties":{"name":"Budapest, Puskás Aréna","country":"HU","_umap_options":{"color":"#0f9d58","iconColor":"#0f9d58"}},"geometry":{"type":"Point","coordinates":[19.09702,47.50317]}},{"type":"Feature","properties":{"name":"Tallaght Stadium","country":"IE","_umap_options":{"color":"#0f9d58","iconColor":"#0f9d58"}},"geometry":{"type":"Point","coordinates":[-6.37367,53.28354]}},{"type":"Feature","properties":{"name":"Milan, San Siro Stadium","country":"IT","date":"2010","description":"2010 Stadium tour","_umap_options":{"color":"#0f9d58","iconColor":"#0f9d58"}},"geometry":{"type":"Point","coordinates":[9.12396,45.47812]}},{"type":"Feature","properties":{"name":"Stadio Olimpico","country":"IT","_umap_options":{"color":"#0f9d58","iconColor":"#0f9d58"}},"geometry":{"type":"Point","coordinates":[12.45472,41.93408]}},{"type":"Feature","properties":{"name":"Lublin Arena","country":"PL","_umap_options":{"color":"#0f9d58","iconColor":"#0f9d58"}},"geometry":{"type":"Point","coordinates":[22.55745,51.23243]}},{"type":"Feature","properties":{"name":"Poznan Enea Stadium","country":"PL","_umap_options":{"color":"#0f9d58","iconColor":"#0f9d58"}},"geometry":{"type":"Point","coordinates":[16.85809,52.39771]}},{"type":"Feature","properties":{"name":"PL - Warsaw. Legia","description":"{'@type': 'html', 'value': \"Marshall Józef Piłsudski's Municipal Stadium of Legia Warsaw\"}","_umap_options":{"color":"#0f9d58","iconColor":"#0f9d58"}},"geometry":{"type":"Point","coordinates":[21.04144,52.22043]}},{"type":"Feature","properties":{"name":"Warszawa, Narodowy","country":"PL","_umap_options":{"color":"#0f9d58","iconColor":"#0f9d58"}},"geometry":{"type":"Point","coordinates":[21.04579,52.2395]}},{"type":"Feature","properties":{"name":"Wrocław Stadium","country":"PL","_umap_options":{"color":"#0f9d58","iconColor":"#0f9d58"}},"geometry":{"type":"Point","coordinates":[16.94228,51.14096]}},{"type":"Feature","properties":{"name":"Buchurest, National Arena","country":"RO","_umap_options":{"color":"#0f9d58","iconColor":"#0f9d58"}},"geometry":{"type":"Point","coordinates":[26.15259,44.43716]}},{"type":"Feature","properties":{"name":"Донецьк, Донбас Арена","country":"UA","date":"2012","description":"2012 Stadium tour","_umap_options":{"color":"#0f9d58","iconColor":"#0f9d58"}},"geometry":{"type":"Point","coordinates":[37.81017,48.02118]}},{"type":"Feature","properties":{"name":"Київ, НСК Олімпійський","country":"UA","_umap_options":{"color":"#0f9d58","iconColor":"#0f9d58"}},"geometry":{"type":"Point","coordinates":[30.52186,50.43341]}},{"type":"Feature","properties":{"name":"Київ, Стадіон «Динамо» імені Валерія Лобановського","country":"UA","_umap_options":{"color":"#0f9d58","iconColor":"#0f9d58"}},"geometry":{"type":"Point","coordinates":[30.5351,50.4504]}},{"type":"Feature","properties":{"name":"Лівий Берег","country":"UA","_umap_options":{"color":"#0f9d58","iconColor":"#0f9d58"}},"geometry":{"type":"Point","coordinates":[30.62434,50.33692]}},{"type":"Feature","properties":{"name":"Львів-Арена","country":"UA","_umap_options":{"color":"#0f9d58","iconColor":"#0f9d58"}},"geometry":{"type":"Point","coordinates":[24.02768,49.77486]}},{"type":"Feature","properties":{"name":"Львів, Стадіон Україна","country":"UA","_umap_options":{"color":"#0f9d58","iconColor":"#0f9d58"}},"geometry":{"type":"Point","coordinates":[24.04813,49.81934]}},{"type":"Feature","properties":{"name":"Оболнь-Арена","country":"UA","_umap_options":{"color":"#0f9d58","iconColor":"#0f9d58"}},"geometry":{"type":"Point","coordinates":[30.50752,50.5271]}},{"type":"Feature","properties":{"name":"Одеса, Стадіон Чорноморець","country":"UA","_umap_options":{"color":"#0f9d58","iconColor":"#0f9d58"}},"geometry":{"type":"Point","coordinates":[30.75537,46.48069]}},{"type":"Feature","properties":{"name":"Stamford Bridge","country":"GB","date":"2023","description":"2023 Charity game","_umap_options":{"color":"#0f9d58","iconColor":"#0f9d58"}},"geometry":{"type":"Point","coordinates":[-0.19096,51.48166]}},{"type":"Feature","properties":{"name":"Tottenham Hotspur Stadium","country":"GB","_umap_options":{"color":"#0f9d58","iconColor":"#0f9d58"}},"geometry":{"type":"Point","coordinates":[-0.06622,51.60422]}},{"type":"Feature","properties":{"name":"Wallace Wade Stadium","country":"US","_umap_options":{"color":"#0f9d58","iconColor":"#0f9d58"}},"geometry":{"type":"Point","coordinates":[-78.94174,35.99536]}},{"type":"Feature","properties":{"name":"Stadion Miejski im. Henryka Reymana","country":"PL"},"geometry":{"type":"Point","coordinates":[19.91174,50.06358]}}]}