{"type":"FeatureCollection","features":[{"type":"Feature","properties":{"name":"AD - Andorra la Vella","date":"2012","_umap_options":{"color":"#0288d1","iconColor":"#0288d1"}},"geometry":{"type":"Point","coordinates":[1.5269,42.50539]}},{"type":"Feature","properties":{"name":"Mirador Roc Del Quer","country":"AD","_umap_options":{"color":"#0288d1","iconColor":"#0288d1"}},"geometry":{"type":"Point","coordinates":[1.59099,42.56728]}},{"type":"Feature","properties":{"name":"Historic Centre of Vienna","country":"AT","_umap_options":{"color":"#673ab7","iconColor":"#673ab7"}},"geometry":{"type":"Point","coordinates":[16.37382,48.20817]}},{"type":"Feature","properties":{"name":"Imperial Treasury Vienna","country":"AT","_umap_options":{"color":"#0288d1","iconColor":"#0288d1"}},"geometry":{"type":"Point","coordinates":[16.36577,48.20674]}},{"type":"Feature","properties":{"name":"Kunsthistorisches Museum Wien","country":"AT","_umap_options":{"color":"#0288d1","iconColor":"#0288d1"}},"geometry":{"type":"Point","coordinates":[16.36179,48.2038]}},{"type":"Feature","properties":{"name":"Vienna, St. Stephen's Cathedral","country":"AT","_umap_options":{"color":"#0288d1","iconColor":"#0288d1"}},"geometry":{"type":"Point","coordinates":[16.37347,48.20841]}},{"type":"Feature","properties":{"name":"Baku, Jumeirah Bilgah Beach Hotel","country":"AZ","_umap_options":{"color":"#0288d1","iconColor":"#0288d1"}},"geometry":{"type":"Point","coordinates":[50.0617,40.57614]}},{"type":"Feature","properties":{"name":"Baku, Park Bulvar Mall","country":"AZ","_umap_options":{"color":"#0288d1","iconColor":"#0288d1"}},"geometry":{"type":"Point","coordinates":[49.8497,40.37074]}},{"type":"Feature","properties":{"name":"Gobustan Rock Art Cultural Landscape","country":"AZ","_umap_options":{"color":"#673ab7","iconColor":"#673ab7"}},"geometry":{"type":"Point","coordinates":[49.31592,40.15405]}},{"type":"Feature","properties":{"name":"Бургас, Mall Galleria","country":"BG","_umap_options":{"color":"#0288d1","iconColor":"#0288d1"}},"geometry":{"type":"Point","coordinates":[27.45521,42.51273]}},{"type":"Feature","properties":{"name":"Свети Влас, Marina View Fort Beach","country":"BG","date":"2010","description":"{'@type': 'html', 'value': 'Room 1, Studio - Non Refundable<br>€ 350.00<br>Arrival\\tWednesday, 4 August 2010, check-in after 14:00<br>Departure\\tSaturday, 14 August 2010, check-out before 11:00'}","_umap_options":{"color":"#0288d1","iconColor":"#0288d1"}},"geometry":{"type":"Point","coordinates":[27.79331,42.70366]}},{"type":"Feature","properties":{"name":"Старият Несебър","country":"BG","_umap_options":{"color":"#673ab7","iconColor":"#673ab7"}},"geometry":{"type":"Point","coordinates":[27.73631,42.65946]}},{"type":"Feature","properties":{"name":"Брэст, Брэсцкая крэпасць","country":"BY","_umap_options":{"color":"#0288d1","iconColor":"#0288d1"}},"geometry":{"type":"Point","coordinates":[23.65805,52.08276]}},{"type":"Feature","properties":{"name":"Altstadt Grossbasel","country":"CH","_umap_options":{"color":"#0288d1","iconColor":"#0288d1"}},"geometry":{"type":"Point","coordinates":[7.58967,47.55595]}},{"type":"Feature","properties":{"name":"FIFA Museum","country":"CH","_umap_options":{"color":"#0288d1","iconColor":"#0288d1"}},"geometry":{"type":"Point","coordinates":[8.5317,47.36333]}},{"type":"Feature","properties":{"name":"Geneva","country":"CH","date":"2012","_umap_options":{"color":"#0288d1","iconColor":"#0288d1"}},"geometry":{"type":"Point","coordinates":[6.14316,46.20439]}},{"type":"Feature","properties":{"name":"Panoramic Viewpoint Monte Brè","country":"CH","_umap_options":{"color":"#0288d1","iconColor":"#0288d1"}},"geometry":{"type":"Point","coordinates":[8.98726,46.00906]}},{"type":"Feature","properties":{"name":"Rhine Falls","country":"CH","date":"2012","_umap_options":{"color":"#0288d1","iconColor":"#0288d1"}},"geometry":{"type":"Point","coordinates":[8.61558,47.67795]}},{"type":"Feature","properties":{"name":"Zürich","country":"CH","date":"2012","_umap_options":{"color":"#0288d1","iconColor":"#0288d1"}},"geometry":{"type":"Point","coordinates":[8.54169,47.37689]}},{"type":"Feature","properties":{"name":"Ayia Napa Island","country":"CY","date":"2021","_umap_options":{"color":"#0288d1","iconColor":"#0288d1"}},"geometry":{"type":"Point","coordinates":[33.96825,34.98548]}},{"type":"Feature","properties":{"name":"Ayia Napa, Ocean Basket","country":"CY","date":"2021","_umap_options":{"color":"#0288d1","iconColor":"#0288d1"}},"geometry":{"type":"Point","coordinates":[34.00313,34.98323]}},{"type":"Feature","properties":{"name":"Bath of Aphrodite beach","country":"CY","date":"2019","_umap_options":{"color":"#0288d1","iconColor":"#0288d1"}},"geometry":{"type":"Point","coordinates":[32.34839,35.05591]}},{"type":"Feature","properties":{"name":"Kalymnos Fish Tavern","country":"CY","date":"2017","_umap_options":{"color":"#0288d1","iconColor":"#0288d1"}},"geometry":{"type":"Point","coordinates":[33.27539,34.71872]}},{"type":"Feature","properties":{"name":"Larnaca, Ocean Basket","country":"CY","date":"2021","_umap_options":{"color":"#0288d1","iconColor":"#0288d1"}},"geometry":{"type":"Point","coordinates":[33.63785,34.91509]}},{"type":"Feature","properties":{"name":"Limassol, Pixida Fish Tavern (New Limassol Marina)","country":"CY","date":"2019","_umap_options":{"color":"#0288d1","iconColor":"#0288d1"}},"geometry":{"type":"Point","coordinates":[33.0393,34.66957]}},{"type":"Feature","properties":{"name":"Mount Olympos","country":"CY","date":"2021","_umap_options":{"color":"#0288d1","iconColor":"#0288d1"}},"geometry":{"type":"Point","coordinates":[32.86396,34.93637]}},{"type":"Feature","properties":{"name":"Pissouri, Cape Aspro Trail","country":"CY","date":"2021","_umap_options":{"color":"#0288d1","iconColor":"#0288d1"}},"geometry":{"type":"Point","coordinates":[32.71744,34.64743]}},{"type":"Feature","properties":{"name":"CZ - Historic Centre of Prague","_umap_options":{"color":"#673ab7","iconColor":"#673ab7"}},"geometry":{"type":"Point","coordinates":[14.42115,50.0877]}},{"type":"Feature","properties":{"name":"Praha, St. Vitus Cathedral","country":"CZ","date":"2012","_umap_options":{"color":"#0288d1","iconColor":"#0288d1"}},"geometry":{"type":"Point","coordinates":[14.40051,50.09089]}},{"type":"Feature","properties":{"name":"The Chamber","country":"CZ","date":"2023","description":"2023. Ales Marsal birthday party","_umap_options":{"color":"#0288d1","iconColor":"#0288d1"}},"geometry":{"type":"Point","coordinates":[14.43167,50.09167]}},{"type":"Feature","properties":{"name":"Altstadt von Meersburg","country":"DE","date":"2022","_umap_options":{"color":"#0288d1","iconColor":"#0288d1"}},"geometry":{"type":"Point","coordinates":[9.27248,47.69461]}},{"type":"Feature","properties":{"name":"Berlin, Bundesministerium für Wirtschaft und Energie","country":"DE","_umap_options":{"color":"#0288d1","iconColor":"#0288d1"}},"geometry":{"type":"Point","coordinates":[13.37481,52.52832]}},{"type":"Feature","properties":{"name":"Berlin, Forum Transregional Studies","country":"DE","date":"2018","description":"{'@type': 'html', 'value': '2018<br>9.30-11.00 Discussion with Julda Kielyte, European Commission, Support Group for Ukraine, Team<br>leader Economic and Fiscal Reforms, Alexander Antonyuk, European Investment Bank, and Inna<br>Melnykovska, Assistant professor, Central European University, Budapest, Post-doctoral Fellow,<br>Harvard University, “Economic policy alternatives - How much market does Ukraine need?”<br>11-12.30 Seminar “Political economy of reforms and growth diagnostics for Ukraine” with Vitaly<br>Protsenko, Vox Ukraine, and Ewa Dabrowska, Polis180'}","_umap_options":{"color":"#0288d1","iconColor":"#0288d1"}},"geometry":{"type":"Point","coordinates":[13.27818,52.49136]}},{"type":"Feature","properties":{"name":"Berlin, Reichstag Building","country":"DE","date":"2010","_umap_options":{"color":"#0288d1","iconColor":"#0288d1"}},"geometry":{"type":"Point","coordinates":[13.37619,52.51862]}},{"type":"Feature","properties":{"name":"Berliner Fernsehturm","country":"DE","date":"2010","_umap_options":{"color":"#0288d1","iconColor":"#0288d1"}},"geometry":{"type":"Point","coordinates":[13.40942,52.52081]}},{"type":"Feature","properties":{"name":"Boblingen, Breuningerland Sindelfingen","country":"DE","date":"2012","_umap_options":{"color":"#0288d1","iconColor":"#0288d1"}},"geometry":{"type":"Point","coordinates":[9.03038,48.70403]}},{"type":"Feature","properties":{"name":"Buchenwald Memorial","country":"DE","date":"2010","description":"2010 - Ievgen Zveriev","_umap_options":{"color":"#0288d1","iconColor":"#0288d1"}},"geometry":{"type":"Point","coordinates":[11.24924,51.02151]}},{"type":"Feature","properties":{"name":"Duisburg","country":"DE","date":"2010","_umap_options":{"color":"#0288d1","iconColor":"#0288d1"}},"geometry":{"type":"Point","coordinates":[6.76233,51.43441]}},{"type":"Feature","properties":{"name":"Düsseldorf, Carlsplatz Markt","country":"DE","_umap_options":{"color":"#0288d1","iconColor":"#0288d1"}},"geometry":{"type":"Point","coordinates":[6.77366,51.22343]}},{"type":"Feature","properties":{"name":"Erfurt","country":"DE","date":"2010","description":"2010 - Ievgen Zveriev","_umap_options":{"color":"#0288d1","iconColor":"#0288d1"}},"geometry":{"type":"Point","coordinates":[11.02988,50.98477]}},{"type":"Feature","properties":{"name":"Jena","country":"DE","date":"2010","description":"2010 - Ievgen Zveriev","_umap_options":{"color":"#0288d1","iconColor":"#0288d1"}},"geometry":{"type":"Point","coordinates":[11.58924,50.92705]}},{"type":"Feature","properties":{"name":"Konstanz, SEA LIFE","country":"DE","date":"2022","_umap_options":{"color":"#0288d1","iconColor":"#0288d1"}},"geometry":{"type":"Point","coordinates":[9.18016,47.65701]}},{"type":"Feature","properties":{"name":"Konstanz, Stadtgarten","country":"DE","date":"2012","_umap_options":{"color":"#0288d1","iconColor":"#0288d1"}},"geometry":{"type":"Point","coordinates":[9.17891,47.66228]}},{"type":"Feature","properties":{"name":"Munich, Siegestor","country":"DE","_umap_options":{"color":"#0288d1","iconColor":"#0288d1"}},"geometry":{"type":"Point","coordinates":[11.58215,48.15237]}},{"type":"Feature","properties":{"name":"Neuschwanstein Castle","country":"DE","date":"2022","_umap_options":{"color":"#0288d1","iconColor":"#0288d1"}},"geometry":{"type":"Point","coordinates":[10.7498,47.55757]}},{"type":"Feature","properties":{"name":"Spielplatz Strandbad - Uhldingen-Mühlhofen am Bodensee","country":"DE","_umap_options":{"color":"#0288d1","iconColor":"#0288d1"}},"geometry":{"type":"Point","coordinates":[9.22856,47.72469]}},{"type":"Feature","properties":{"name":"Überlingen, Uferpromenade","country":"DE","_umap_options":{"color":"#0288d1","iconColor":"#0288d1"}},"geometry":{"type":"Point","coordinates":[9.15899,47.76595]}},{"type":"Feature","properties":{"name":"DE -Lindau Insel","_umap_options":{"color":"#0288d1","iconColor":"#0288d1"}},"geometry":{"type":"Point","coordinates":[9.68182,47.54615]}},{"type":"Feature","properties":{"name":"Amalienborg","country":"DK","_umap_options":{"color":"#0288d1","iconColor":"#0288d1"}},"geometry":{"type":"Point","coordinates":[12.59295,55.68401]}},{"type":"Feature","properties":{"name":"LEGO House","country":"DK","_umap_options":{"color":"#0288d1","iconColor":"#0288d1"}},"geometry":{"type":"Point","coordinates":[9.11494,55.73069]}},{"type":"Feature","properties":{"name":"LEGOLAND® Billund Resort","country":"DK","_umap_options":{"color":"#0288d1","iconColor":"#0288d1"}},"geometry":{"type":"Point","coordinates":[9.12832,55.73521]}},{"type":"Feature","properties":{"name":"Mini Chef","country":"DK","_umap_options":{"color":"#0288d1","iconColor":"#0288d1"}},"geometry":{"type":"Point","coordinates":[9.11507,55.73042]}},{"type":"Feature","properties":{"name":"Rosenborg Castle","country":"DK","_umap_options":{"color":"#0288d1","iconColor":"#0288d1"}},"geometry":{"type":"Point","coordinates":[12.57727,55.68583]}},{"type":"Feature","properties":{"name":"Viking Ship Museum","country":"DK","_umap_options":{"color":"#673ab7","iconColor":"#673ab7"}},"geometry":{"type":"Point","coordinates":[12.08102,55.6507]}},{"type":"Feature","properties":{"name":"Historic Centre of Tallinn","country":"EE","description":"Historic Centre (Old Town) of Tallinn","_umap_options":{"color":"#673ab7","iconColor":"#673ab7"}},"geometry":{"type":"Point","coordinates":[24.74458,59.43637]}},{"type":"Feature","properties":{"name":"Margherita Pizzeria & Trattoria","country":"EE","_umap_options":{"color":"#0288d1","iconColor":"#0288d1"}},"geometry":{"type":"Point","coordinates":[24.74315,59.4379]}},{"type":"Feature","properties":{"name":"Al Mina Mosque","country":"EG","_umap_options":{"color":"#0288d1","iconColor":"#0288d1"}},"geometry":{"type":"Point","coordinates":[33.84307,27.22949]}},{"type":"Feature","properties":{"name":"Bedouin Camel Ride","country":"EG","_umap_options":{"color":"#0288d1","iconColor":"#0288d1"}},"geometry":{"type":"Point","coordinates":[33.65411,27.03865]}},{"type":"Feature","properties":{"name":"Hurghada Mall","country":"EG","description":"aka Hurghada Museum","_umap_options":{"color":"#0288d1","iconColor":"#0288d1"}},"geometry":{"type":"Point","coordinates":[33.82146,27.16055]}},{"type":"Feature","properties":{"name":"Saint Shenouda Coptic Orthodox Church","country":"EG","_umap_options":{"color":"#0288d1","iconColor":"#0288d1"}},"geometry":{"type":"Point","coordinates":[33.81596,27.25429]}},{"type":"Feature","properties":{"name":"Abbey of Montserrat","country":"ES","_umap_options":{"color":"#0288d1","iconColor":"#0288d1"}},"geometry":{"type":"Point","coordinates":[1.83768,41.59333]}},{"type":"Feature","properties":{"name":"Alhambra","country":"ES","_umap_options":{"color":"#673ab7","iconColor":"#673ab7"}},"geometry":{"type":"Point","coordinates":[-3.58814,37.17608]}},{"type":"Feature","properties":{"name":"Alicante. Ficus Monumentales","country":"ES","date":"2022","_umap_options":{"color":"#0288d1","iconColor":"#0288d1"}},"geometry":{"type":"Point","coordinates":[-0.48685,38.34129]}},{"type":"Feature","properties":{"name":"Aquopolis Villanueva de la Cañada","country":"ES","_umap_options":{"color":"#0288d1","iconColor":"#0288d1"}},"geometry":{"type":"Point","coordinates":[-3.99041,40.45666]}},{"type":"Feature","properties":{"name":"Basílica de Nuestra Señora del Pilar","country":"ES","_umap_options":{"color":"#0288d1","iconColor":"#0288d1"}},"geometry":{"type":"Point","coordinates":[-0.87852,41.65677]}},{"type":"Feature","properties":{"name":"Bilbao, Casco Viejo","country":"ES","_umap_options":{"color":"#0288d1","iconColor":"#0288d1"}},"geometry":{"type":"Point","coordinates":[-2.92384,43.25957]}},{"type":"Feature","properties":{"name":"Cartagena. Museo Foro Romano. Molinete.","country":"ES","date":"2022","_umap_options":{"color":"#0288d1","iconColor":"#0288d1"}},"geometry":{"type":"Point","coordinates":[-0.98415,37.60276]}},{"type":"Feature","properties":{"name":"Castillo de Peñíscola","country":"ES","_umap_options":{"color":"#0288d1","iconColor":"#0288d1"}},"geometry":{"type":"Point","coordinates":[0.40796,40.35858]}},{"type":"Feature","properties":{"name":"Donostia-San Sebastian","country":"ES","_umap_options":{"color":"#0288d1","iconColor":"#0288d1"}},"geometry":{"type":"Point","coordinates":[-1.98123,43.31833]}},{"type":"Feature","properties":{"name":"Gaztelugatxe","country":"ES","_umap_options":{"color":"#0288d1","iconColor":"#0288d1"}},"geometry":{"type":"Point","coordinates":[-2.785,43.447]}},{"type":"Feature","properties":{"name":"La Lonja de la Seda","country":"ES","_umap_options":{"color":"#673ab7","iconColor":"#673ab7"}},"geometry":{"type":"Point","coordinates":[-0.37833,39.47437]}},{"type":"Feature","properties":{"name":"La Sagrada Familia","country":"ES","_umap_options":{"color":"#0288d1","iconColor":"#0288d1"}},"geometry":{"type":"Point","coordinates":[2.17436,41.40363]}},{"type":"Feature","properties":{"name":"Llagostera, La Torre de la Presó","country":"ES","_umap_options":{"color":"#0288d1","iconColor":"#0288d1"}},"geometry":{"type":"Point","coordinates":[2.89194,41.82902]}},{"type":"Feature","properties":{"name":"Lleida, Porta dels Apòstols","country":"ES","_umap_options":{"color":"#0288d1","iconColor":"#0288d1"}},"geometry":{"type":"Point","coordinates":[0.62647,41.61761]}},{"type":"Feature","properties":{"name":"Montgrí Castle","country":"ES","_umap_options":{"color":"#0288d1","iconColor":"#0288d1"}},"geometry":{"type":"Point","coordinates":[3.13163,42.05201]}},{"type":"Feature","properties":{"name":"Montjuïc Castle","country":"ES","_umap_options":{"color":"#0288d1","iconColor":"#0288d1"}},"geometry":{"type":"Point","coordinates":[2.16506,41.36296]}},{"type":"Feature","properties":{"name":"Mosque-Cathedral of Córdoba","country":"ES","_umap_options":{"color":"#0288d1","iconColor":"#0288d1"}},"geometry":{"type":"Point","coordinates":[-4.77939,37.87891]}},{"type":"Feature","properties":{"name":"Muralles de Girona","country":"ES","_umap_options":{"color":"#0288d1","iconColor":"#0288d1"}},"geometry":{"type":"Point","coordinates":[2.82838,41.98658]}},{"type":"Feature","properties":{"name":"Museu de les Ciències Príncipe Felipe","country":"ES","_umap_options":{"color":"#0288d1","iconColor":"#0288d1"}},"geometry":{"type":"Point","coordinates":[-0.35208,39.45611]}},{"type":"Feature","properties":{"name":"Museu del Mar - Can Garriga","country":"ES","date":"2023","_umap_options":{"color":"#0288d1","iconColor":"#0288d1"}},"geometry":{"type":"Point","coordinates":[2.85073,41.69965]}},{"type":"Feature","properties":{"name":"Palamos, Escenari Espai Sardanes","country":"ES","_umap_options":{"color":"#0288d1","iconColor":"#0288d1"}},"geometry":{"type":"Point","coordinates":[3.12558,41.84784]}},{"type":"Feature","properties":{"name":"Pamplona, Monumento al Encierro","country":"ES","_umap_options":{"color":"#0288d1","iconColor":"#0288d1"}},"geometry":{"type":"Point","coordinates":[-1.64132,42.81479]}},{"type":"Feature","properties":{"name":"Pp's Park Platja d'Aro","country":"ES","_umap_options":{"color":"#0288d1","iconColor":"#0288d1"}},"geometry":{"type":"Point","coordinates":[3.06083,41.81152]}},{"type":"Feature","properties":{"name":"Prado Museum Broadcasting, SAU","country":"ES","_umap_options":{"color":"#0288d1","iconColor":"#0288d1"}},"geometry":{"type":"Point","coordinates":[-3.69137,40.41561]}},{"type":"Feature","properties":{"name":"Royal Palace of Madrid","country":"ES","_umap_options":{"color":"#0288d1","iconColor":"#0288d1"}},"geometry":{"type":"Point","coordinates":[-3.71431,40.41795]}},{"type":"Feature","properties":{"name":"Sant Feliu de Guíxols, Parròquia de Santa Maria Assumpta","country":"ES","date":"2022","description":"Великдень 2022","_umap_options":{"color":"#0288d1","iconColor":"#0288d1"}},"geometry":{"type":"Point","coordinates":[3.03304,41.78604]}},{"type":"Feature","properties":{"name":"Sevilla, Plaza de España","country":"ES","_umap_options":{"color":"#0288d1","iconColor":"#0288d1"}},"geometry":{"type":"Point","coordinates":[-5.98689,37.3772]}},{"type":"Feature","properties":{"name":"SLas Ventas Bullring","country":"ES","date":"2012","_umap_options":{"color":"#0288d1","iconColor":"#0288d1"}},"geometry":{"type":"Point","coordinates":[-3.66329,40.43214]}},{"type":"Feature","properties":{"name":"Zumaia","country":"ES","_umap_options":{"color":"#0288d1","iconColor":"#0288d1"}},"geometry":{"type":"Point","coordinates":[-2.26089,43.30025]}},{"type":"Feature","properties":{"name":"Basilique Notre-Dame de la Garde","country":"FR","_umap_options":{"color":"#0288d1","iconColor":"#0288d1"}},"geometry":{"type":"Point","coordinates":[5.37124,43.28395]}},{"type":"Feature","properties":{"name":"Canal du Midi","country":"FR","description":"{'@type': 'html', 'value': '\"This 360-km network of navigable waterways linking the Mediterranean and the Atlantic through 328 structures (locks, aqueducts, bridges, tunnels, etc.) is one of the most...\"'}","_umap_options":{"color":"#673ab7","iconColor":"#673ab7"}},"geometry":{"type":"Point","coordinates":[1.42428,43.6132]}},{"type":"Feature","properties":{"name":"Cité de Carcassonne","country":"FR","_umap_options":{"color":"#673ab7","iconColor":"#673ab7"}},"geometry":{"type":"Point","coordinates":[2.3642,43.20608]}},{"type":"Feature","properties":{"name":"INSEAD","country":"FR","_umap_options":{"color":"#0288d1","iconColor":"#0288d1"}},"geometry":{"type":"Point","coordinates":[2.68538,48.4066]}},{"type":"Feature","properties":{"name":"Léon - Montpellier Antigone","country":"FR","_umap_options":{"color":"#0288d1","iconColor":"#0288d1"}},"geometry":{"type":"Point","coordinates":[3.89626,43.60731]}},{"type":"Feature","properties":{"name":"Mont Saint-Michel","country":"FR","_umap_options":{"color":"#673ab7","iconColor":"#673ab7"}},"geometry":{"type":"Point","coordinates":[-1.51146,48.63606]}},{"type":"Feature","properties":{"name":"Montpellier, Arc de Triomphe","country":"FR","_umap_options":{"color":"#0288d1","iconColor":"#0288d1"}},"geometry":{"type":"Point","coordinates":[3.87242,43.61114]}},{"type":"Feature","properties":{"name":"Musée d'Orsay","country":"FR","date":"2023","_umap_options":{"color":"#0288d1","iconColor":"#0288d1"}},"geometry":{"type":"Point","coordinates":[2.32656,48.85996]}},{"type":"Feature","properties":{"name":"Palace of the Kings of Majorca","country":"FR","_umap_options":{"color":"#0288d1","iconColor":"#0288d1"}},"geometry":{"type":"Point","coordinates":[2.89392,42.69399]}},{"type":"Feature","properties":{"name":"Paris, Arc de Triomphe","country":"FR","date":"2019","description":"2019/20","_umap_options":{"color":"#0288d1","iconColor":"#0288d1"}},"geometry":{"type":"Point","coordinates":[2.29503,48.87379]}},{"type":"Feature","properties":{"name":"Paris, Eiffel Tower","country":"FR","date":"2019","description":"2019/20. 2 tickets Adult (2 x 25,50 €)","_umap_options":{"color":"#0288d1","iconColor":"#0288d1"}},"geometry":{"type":"Point","coordinates":[2.29448,48.85837]}},{"type":"Feature","properties":{"name":"Paris, Léon - [ex Léon de Bruxelles]","country":"FR","date":"2019","description":"2019/20","_umap_options":{"color":"#0288d1","iconColor":"#0288d1"}},"geometry":{"type":"Point","coordinates":[2.32812,48.88345]}},{"type":"Feature","properties":{"name":"Paris, Léon - [ex Léon de Bruxelles]","country":"FR","date":"2019","description":"2019/20","_umap_options":{"color":"#0288d1","iconColor":"#0288d1"}},"geometry":{"type":"Point","coordinates":[2.33546,48.87138]}},{"type":"Feature","properties":{"name":"Paris, Louvre Museum","country":"FR","date":"2019","description":"2019/20. 2x Entrance Ticket + Audio Guide (in English) (€24.71) = €49.42","_umap_options":{"color":"#0288d1","iconColor":"#0288d1"}},"geometry":{"type":"Point","coordinates":[2.33764,48.86061]}},{"type":"Feature","properties":{"name":"Paris, Palace of Versailles","country":"FR","date":"2019","description":"2019/20. 2x Entrance Ticket + Audio Guide (in English) (€24.71)\t€49.42","_umap_options":{"color":"#673ab7","iconColor":"#673ab7"}},"geometry":{"type":"Point","coordinates":[2.12035,48.80486]}},{"type":"Feature","properties":{"name":"Paris, Sacré-Cœur","country":"FR","date":"2019","description":"2019/20","_umap_options":{"color":"#0288d1","iconColor":"#0288d1"}},"geometry":{"type":"Point","coordinates":[2.3431,48.8867]}},{"type":"Feature","properties":{"name":"Rennes. Notre Dame De Bonne Nouvelle","country":"FR","date":"2023","_umap_options":{"color":"#0288d1","iconColor":"#0288d1"}},"geometry":{"type":"Point","coordinates":[-1.68043,48.11497]}},{"type":"Feature","properties":{"name":"Tomb of Napoleon","country":"FR","_umap_options":{"color":"#0288d1","iconColor":"#0288d1"}},"geometry":{"type":"Point","coordinates":[2.31254,48.85506]}},{"type":"Feature","properties":{"name":"Toulouse, Place du Capitole","country":"FR","_umap_options":{"color":"#0288d1","iconColor":"#0288d1"}},"geometry":{"type":"Point","coordinates":[1.44331,43.60431]}},{"type":"Feature","properties":{"name":"GB-FR La Manche Tunnel","_umap_options":{"color":"#0288d1","iconColor":"#0288d1"}},"geometry":{"type":"Point","coordinates":[1.49147,51.01839]}},{"type":"Feature","properties":{"name":"Adjarian Wine House","country":"GE","date":"2018","_umap_options":{"color":"#0288d1","iconColor":"#0288d1"}},"geometry":{"type":"Point","coordinates":[41.74142,41.54837]}},{"type":"Feature","properties":{"name":"Batumi, Ali & Nino Statue","country":"GE","date":"2018","_umap_options":{"color":"#0288d1","iconColor":"#0288d1"}},"geometry":{"type":"Point","coordinates":[41.64312,41.65558]}},{"type":"Feature","properties":{"name":"Batumi's Rafting","country":"GE","date":"2018","_umap_options":{"color":"#0288d1","iconColor":"#0288d1"}},"geometry":{"type":"Point","coordinates":[41.85805,41.57186]}},{"type":"Feature","properties":{"name":"Gergeti Trinity Church","country":"GE","date":"2019","_umap_options":{"color":"#0288d1","iconColor":"#0288d1"}},"geometry":{"type":"Point","coordinates":[44.62026,42.6622]}},{"type":"Feature","properties":{"name":"Gudauri View Point","country":"GE","date":"2019","_umap_options":{"color":"#0288d1","iconColor":"#0288d1"}},"geometry":{"type":"Point","coordinates":[44.45281,42.49212]}},{"type":"Feature","properties":{"name":"Kazbegi Hotel","country":"GE","date":"2019","_umap_options":{"color":"#0288d1","iconColor":"#0288d1"}},"geometry":{"type":"Point","coordinates":[44.65086,42.659]}},{"type":"Feature","properties":{"name":"Acropolis of Athens","country":"GR","_umap_options":{"color":"#673ab7","iconColor":"#673ab7"}},"geometry":{"type":"Point","coordinates":[23.72575,37.97153]}},{"type":"Feature","properties":{"name":"Lake Kournas","country":"GR","_umap_options":{"color":"#0288d1","iconColor":"#0288d1"}},"geometry":{"type":"Point","coordinates":[24.2762,35.33038]}},{"type":"Feature","properties":{"name":"Rhetymno Old Town","country":"GR","_umap_options":{"color":"#0288d1","iconColor":"#0288d1"}},"geometry":{"type":"Point","coordinates":[24.47275,35.36956]}},{"type":"Feature","properties":{"name":"Deep Water Bay Beach","country":"HK","_umap_options":{"color":"#0288d1","iconColor":"#0288d1"}},"geometry":{"type":"Point","coordinates":[114.18806,22.24391]}},{"type":"Feature","properties":{"name":"Sik Sik Yuen Wong Tai Sin Temple","country":"HK","_umap_options":{"color":"#0288d1","iconColor":"#0288d1"}},"geometry":{"type":"Point","coordinates":[114.19326,22.34273]}},{"type":"Feature","properties":{"name":"Tai Shing Street Market","country":"HK","_umap_options":{"color":"#0288d1","iconColor":"#0288d1"}},"geometry":{"type":"Point","coordinates":[114.19447,22.33738]}},{"type":"Feature","properties":{"name":"Temple Street Night Market","country":"HK","_umap_options":{"color":"#0288d1","iconColor":"#0288d1"}},"geometry":{"type":"Point","coordinates":[114.16998,22.30652]}},{"type":"Feature","properties":{"name":"The Victoria Peak","country":"HK","_umap_options":{"color":"#0288d1","iconColor":"#0288d1"}},"geometry":{"type":"Point","coordinates":[114.14992,22.2704]}},{"type":"Feature","properties":{"name":"Limski Fjord","country":"HR","_umap_options":{"color":"#0288d1","iconColor":"#0288d1"}},"geometry":{"type":"Point","coordinates":[13.73598,45.13127]}},{"type":"Feature","properties":{"name":"Poreč","country":"HR","date":"2011","_umap_options":{"color":"#0288d1","iconColor":"#0288d1"}},"geometry":{"type":"Point","coordinates":[13.59552,45.22686]}},{"type":"Feature","properties":{"name":"Pula Arena","country":"HR","_umap_options":{"color":"#0288d1","iconColor":"#0288d1"}},"geometry":{"type":"Point","coordinates":[13.85025,44.87323]}},{"type":"Feature","properties":{"name":"Zagrab, Avenue Mall","country":"HR","date":"2011","_umap_options":{"color":"#0288d1","iconColor":"#0288d1"}},"geometry":{"type":"Point","coordinates":[15.97898,45.77657]}},{"type":"Feature","properties":{"name":"Budapest Fisherman's Bastion","country":"HU","_umap_options":{"color":"#0288d1","iconColor":"#0288d1"}},"geometry":{"type":"Point","coordinates":[19.03478,47.50218]}},{"type":"Feature","properties":{"name":"Budapest, Széchenyi Chain Bridge","country":"HU","description":"200 FT","_umap_options":{"color":"#0288d1","iconColor":"#0288d1"}},"geometry":{"type":"Point","coordinates":[19.0437,47.49899]}},{"type":"Feature","properties":{"name":"Visegrád High Castle","country":"HU","_umap_options":{"color":"#0288d1","iconColor":"#0288d1"}},"geometry":{"type":"Point","coordinates":[18.98008,47.79407]}},{"type":"Feature","properties":{"name":"Dublin Castle","country":"IE","_umap_options":{"color":"#0288d1","iconColor":"#0288d1"}},"geometry":{"type":"Point","coordinates":[-6.26743,53.34289]}},{"type":"Feature","properties":{"name":"Guinness Storehouse","country":"IE","_umap_options":{"color":"#0288d1","iconColor":"#0288d1"}},"geometry":{"type":"Point","coordinates":[-6.28672,53.34181]}},{"type":"Feature","properties":{"name":"Howth Cliff Walk","country":"IE","_umap_options":{"color":"#0288d1","iconColor":"#0288d1"}},"geometry":{"type":"Point","coordinates":[-6.04682,53.385]}},{"type":"Feature","properties":{"name":"Kish Fish","country":"IE","_umap_options":{"color":"#0288d1","iconColor":"#0288d1"}},"geometry":{"type":"Point","coordinates":[-6.07054,53.39142]}},{"type":"Feature","properties":{"name":"No2 Bar and Grill","country":"IE","_umap_options":{"color":"#0288d1","iconColor":"#0288d1"}},"geometry":{"type":"Point","coordinates":[-6.36991,53.28852]}},{"type":"Feature","properties":{"name":"Plunkets","country":"IE","_umap_options":{"color":"#0288d1","iconColor":"#0288d1"}},"geometry":{"type":"Point","coordinates":[-6.26258,53.34797]}},{"type":"Feature","properties":{"name":"The Quays Dublin - Temple Bar","country":"IE","_umap_options":{"color":"#0288d1","iconColor":"#0288d1"}},"geometry":{"type":"Point","coordinates":[-6.26326,53.34567]}},{"type":"Feature","properties":{"name":"The Temple Bar Pub","country":"IE","_umap_options":{"color":"#0288d1","iconColor":"#0288d1"}},"geometry":{"type":"Point","coordinates":[-6.26419,53.34547]}},{"type":"Feature","properties":{"name":"Vat House Bar","country":"IE","_umap_options":{"color":"#0288d1","iconColor":"#0288d1"}},"geometry":{"type":"Point","coordinates":[-6.26194,53.34466]}},{"type":"Feature","properties":{"name":"IE -Jameson Distillery Bow St.","_umap_options":{"color":"#0288d1","iconColor":"#0288d1"}},"geometry":{"type":"Point","coordinates":[-6.27703,53.34819]}},{"type":"Feature","properties":{"name":"Church of Nativity","country":"IL","_umap_options":{"color":"#0288d1","iconColor":"#0288d1"}},"geometry":{"type":"Point","coordinates":[35.20753,31.7043]}},{"type":"Feature","properties":{"name":"Ein Bokek beach","country":"IL","_umap_options":{"color":"#0288d1","iconColor":"#0288d1"}},"geometry":{"type":"Point","coordinates":[35.36325,31.19664]}},{"type":"Feature","properties":{"name":"Eshet Lot / Lots Wife","country":"IL","_umap_options":{"color":"#0288d1","iconColor":"#0288d1"}},"geometry":{"type":"Point","coordinates":[35.3956,31.08176]}},{"type":"Feature","properties":{"name":"Jerusalem. Western Wall","country":"IL","_umap_options":{"color":"#0288d1","iconColor":"#0288d1"}},"geometry":{"type":"Point","coordinates":[35.23451,31.77672]}},{"type":"Feature","properties":{"name":"Nazareth. Church Of Annunciation","country":"IL","_umap_options":{"color":"#0288d1","iconColor":"#0288d1"}},"geometry":{"type":"Point","coordinates":[35.2974,32.7022]}},{"type":"Feature","properties":{"name":"The Jordan Carriages‬","country":"IL","_umap_options":{"color":"#0288d1","iconColor":"#0288d1"}},"geometry":{"type":"Point","coordinates":[35.5711,32.7112]}},{"type":"Feature","properties":{"name":"Tiberias Lake","country":"IL","_umap_options":{"color":"#0288d1","iconColor":"#0288d1"}},"geometry":{"type":"Point","coordinates":[35.63546,32.75526]}},{"type":"Feature","properties":{"name":"Aquarium of Genoa","country":"IT","_umap_options":{"color":"#0288d1","iconColor":"#0288d1"}},"geometry":{"type":"Point","coordinates":[8.92667,44.41022]}},{"type":"Feature","properties":{"name":"Bugatti Autoricambi S.p.A.","country":"IT","date":"2010","_umap_options":{"color":"#0288d1","iconColor":"#0288d1"}},"geometry":{"type":"Point","coordinates":[10.12918,45.56559]}},{"type":"Feature","properties":{"name":"Colosseum","country":"IT","_umap_options":{"color":"#0288d1","iconColor":"#0288d1"}},"geometry":{"type":"Point","coordinates":[12.49223,41.89021]}},{"type":"Feature","properties":{"name":"Duomo di Milano","country":"IT","_umap_options":{"color":"#0288d1","iconColor":"#0288d1"}},"geometry":{"type":"Point","coordinates":[9.19193,45.4641]}},{"type":"Feature","properties":{"name":"IT - Historic Centre of Rome","_umap_options":{"color":"#673ab7","iconColor":"#673ab7"}},"geometry":{"type":"Point","coordinates":[12.49624,41.9027]}},{"type":"Feature","properties":{"name":"Menaggio","country":"IT","_umap_options":{"color":"#0288d1","iconColor":"#0288d1"}},"geometry":{"type":"Point","coordinates":[9.23883,46.02171]}},{"type":"Feature","properties":{"name":"Mount Vesuvius","country":"IT","_umap_options":{"color":"#0288d1","iconColor":"#0288d1"}},"geometry":{"type":"Point","coordinates":[14.42891,40.82238]}},{"type":"Feature","properties":{"name":"Pompeii","country":"IT","_umap_options":{"color":"#673ab7","iconColor":"#673ab7"}},"geometry":{"type":"Point","coordinates":[14.48611,40.75113]}},{"type":"Feature","properties":{"name":"Santa Maria delle Grazie","country":"IT","_umap_options":{"color":"#673ab7","iconColor":"#673ab7"}},"geometry":{"type":"Point","coordinates":[9.17096,45.46596]}},{"type":"Feature","properties":{"name":"Santuario di San Bernardino alle Ossa","country":"IT","_umap_options":{"color":"#0288d1","iconColor":"#0288d1"}},"geometry":{"type":"Point","coordinates":[9.19554,45.46242]}},{"type":"Feature","properties":{"name":"Sforzesco Castle","country":"IT","_umap_options":{"color":"#0288d1","iconColor":"#0288d1"}},"geometry":{"type":"Point","coordinates":[9.17933,45.47048]}},{"type":"Feature","properties":{"name":"St. Mark's Square","country":"IT","_umap_options":{"color":"#0288d1","iconColor":"#0288d1"}},"geometry":{"type":"Point","coordinates":[12.33847,45.43417]}},{"type":"Feature","properties":{"name":"The Basilica of St. Anthony","country":"IT","_umap_options":{"color":"#0288d1","iconColor":"#0288d1"}},"geometry":{"type":"Point","coordinates":[11.88077,45.40139]}},{"type":"Feature","properties":{"name":"Verona","country":"IT","_umap_options":{"color":"#0288d1","iconColor":"#0288d1"}},"geometry":{"type":"Point","coordinates":[10.99162,45.43838]}},{"type":"Feature","properties":{"name":"Akbozat","country":"KZ","description":"{'@type': 'html', 'value': 'Знакомство с национальным казахским бытом<br>Второй день Конгресса завершится посещением парка отдыха с возможностью поучаствовать в национальных мастер-классах:<br>\"Национальная кухня\"<br>\"Мелодичный сазсырнай\"<br>\"Казахская Юрта\"<br>\"Национальный танец\"'}","_umap_options":{"color":"#0288d1","iconColor":"#0288d1"}},"geometry":{"type":"Point","coordinates":[71.63407,51.12277]}},{"type":"Feature","properties":{"name":"KZ - Akmola oblast","description":"показательная охота с беркутом, во время которой профессиональный беркутчи расскажет вам о способах охоты и ее основных приемах, об этапах приобщения птицы к охоте, о сложностях воспитания ее характера.","_umap_options":{"color":"#0288d1","iconColor":"#0288d1"}},"geometry":{"type":"Point","coordinates":[71.77164,51.37635]}},{"type":"Feature","properties":{"name":"Astana. Expo","country":"KZ","_umap_options":{"color":"#0288d1","iconColor":"#0288d1"}},"geometry":{"type":"Point","coordinates":[71.41594,51.08871]}},{"type":"Feature","properties":{"name":"Luxembourg","country":"LU","_umap_options":{"color":"#0288d1","iconColor":"#0288d1"}},"geometry":{"type":"Point","coordinates":[6.13194,49.61162]}},{"type":"Feature","properties":{"name":"Budva Old Town","country":"ME","_umap_options":{"color":"#0288d1","iconColor":"#0288d1"}},"geometry":{"type":"Point","coordinates":[18.83764,42.27815]}},{"type":"Feature","properties":{"name":"Sveti Stefan","country":"ME","_umap_options":{"color":"#0288d1","iconColor":"#0288d1"}},"geometry":{"type":"Point","coordinates":[18.89126,42.25589]}},{"type":"Feature","properties":{"name":"Sands Macao","country":"MO","_umap_options":{"color":"#0288d1","iconColor":"#0288d1"}},"geometry":{"type":"Point","coordinates":[113.55487,22.19163]}},{"type":"Feature","properties":{"name":"Amsterdam, Boat tour","country":"NL","_umap_options":{"color":"#0288d1","iconColor":"#0288d1"}},"geometry":{"type":"Point","coordinates":[4.88269,52.36183]}},{"type":"Feature","properties":{"name":"Eindhoven, Markt","country":"NL","_umap_options":{"color":"#0288d1","iconColor":"#0288d1"}},"geometry":{"type":"Point","coordinates":[5.47825,51.4393]}},{"type":"Feature","properties":{"name":"Rijksmuseum","country":"NL","_umap_options":{"color":"#0288d1","iconColor":"#0288d1"}},"geometry":{"type":"Point","coordinates":[4.88522,52.36]}},{"type":"Feature","properties":{"name":"NL - Zaandam","_umap_options":{"color":"#0288d1","iconColor":"#0288d1"}},"geometry":{"type":"Point","coordinates":[4.81512,52.43815]}},{"type":"Feature","properties":{"name":"NL - Zaandam wind mills","_umap_options":{"color":"#0288d1","iconColor":"#0288d1"}},"geometry":{"type":"Point","coordinates":[4.81762,52.4742]}},{"type":"Feature","properties":{"name":"Akershus Fortress","country":"NO","_umap_options":{"color":"#0288d1","iconColor":"#0288d1"}},"geometry":{"type":"Point","coordinates":[10.73708,59.90759]}},{"type":"Feature","properties":{"name":"Hovedøya","country":"NO","_umap_options":{"color":"#0288d1","iconColor":"#0288d1"}},"geometry":{"type":"Point","coordinates":[10.72464,59.89523]}},{"type":"Feature","properties":{"name":"Kragstøtten","country":"NO","_umap_options":{"color":"#0288d1","iconColor":"#0288d1"}},"geometry":{"type":"Point","coordinates":[10.65549,59.9725]}},{"type":"Feature","properties":{"name":"Oslo, Fram Museum","country":"NO","_umap_options":{"color":"#673ab7","iconColor":"#673ab7"}},"geometry":{"type":"Point","coordinates":[10.69973,59.90338]}},{"type":"Feature","properties":{"name":"The Vigeland Park","country":"NO","_umap_options":{"color":"#0288d1","iconColor":"#0288d1"}},"geometry":{"type":"Point","coordinates":[10.70087,59.92703]}},{"type":"Feature","properties":{"name":"Mutrah Souq","country":"OM","_umap_options":{"color":"#0288d1","iconColor":"#0288d1"}},"geometry":{"type":"Point","coordinates":[58.56456,23.62038]}},{"type":"Feature","properties":{"name":"Nizwa Fort","country":"OM","_umap_options":{"color":"#0288d1","iconColor":"#0288d1"}},"geometry":{"type":"Point","coordinates":[57.5302,22.93321]}},{"type":"Feature","properties":{"name":"Wadi Tanuf","country":"OM","_umap_options":{"color":"#0288d1","iconColor":"#0288d1"}},"geometry":{"type":"Point","coordinates":[57.4689,23.05324]}},{"type":"Feature","properties":{"name":"Wilderness","country":"OM","_umap_options":{"color":"#0288d1","iconColor":"#0288d1"}},"geometry":{"type":"Point","coordinates":[57.85329,23.17724]}},{"type":"Feature","properties":{"name":"Baba Sianya's Place","country":"PL","_umap_options":{"color":"#0288d1","iconColor":"#0288d1"}},"geometry":{"type":"Point","coordinates":[17.33703,50.46245]}},{"type":"Feature","properties":{"name":"PL - Historic Centre of Kraków","_umap_options":{"color":"#673ab7","iconColor":"#673ab7"}},"geometry":{"type":"Point","coordinates":[19.94172,50.06054]}},{"type":"Feature","properties":{"name":"Historic Centre of Warsaw","country":"PL","_umap_options":{"color":"#673ab7","iconColor":"#673ab7"}},"geometry":{"type":"Point","coordinates":[21.01361,52.24773]}},{"type":"Feature","properties":{"name":"Hydropolis Wroclaw","country":"PL","date":"2025","description":"06.09.2025","_umap_options":{"color":"#0288d1","iconColor":"#0288d1"}},"geometry":{"type":"Point","coordinates":[17.0572,51.10352]}},{"type":"Feature","properties":{"name":"Kaplica Świętej Jadwigi","country":"PL","date":"2025","description":"Roman and Diana Wedding 2025","_umap_options":{"color":"#0288d1","iconColor":"#0288d1"}},"geometry":{"type":"Point","coordinates":[17.46655,50.86341]}},{"type":"Feature","properties":{"name":"Kopalnia Soli Wieliczka","country":"PL"},"geometry":{"type":"Point","coordinates":[20.05757,49.98543]}},{"type":"Feature","properties":{"name":"Kraków, Stare Miasto","country":"PL","_umap_options":{"color":"#0288d1","iconColor":"#0288d1"}},"geometry":{"type":"Point","coordinates":[19.94172,50.06054]}},{"type":"Feature","properties":{"name":"Łańcut Castle","country":"PL","date":"2025","_umap_options":{"color":"#0288d1","iconColor":"#0288d1"}},"geometry":{"type":"Point","coordinates":[22.23459,50.06867]}},{"type":"Feature","properties":{"name":"Lublin Castle","country":"PL","_umap_options":{"color":"#0288d1","iconColor":"#0288d1"}},"geometry":{"type":"Point","coordinates":[22.57244,51.25042]}},{"type":"Feature","properties":{"name":"Moszna Zamek","country":"PL","_umap_options":{"color":"#0288d1","iconColor":"#0288d1"}},"geometry":{"type":"Point","coordinates":[17.76782,50.44075]}},{"type":"Feature","properties":{"name":"Museum in Nieborów and Arkadia","country":"PL","_umap_options":{"color":"#0288d1","iconColor":"#0288d1"}},"geometry":{"type":"Point","coordinates":[20.07023,52.06659]}},{"type":"Feature","properties":{"name":"Poznań Old Market Square","country":"PL","_umap_options":{"color":"#0288d1","iconColor":"#0288d1"}},"geometry":{"type":"Point","coordinates":[16.93437,52.40825]}},{"type":"Feature","properties":{"name":"Rzeszów, Śródmieście","country":"PL","_umap_options":{"color":"#0288d1","iconColor":"#0288d1"}},"geometry":{"type":"Point","coordinates":[22.00365,50.03954]}},{"type":"Feature","properties":{"name":"Solina Dam","country":"PL","date":"2025","_umap_options":{"color":"#0288d1","iconColor":"#0288d1"}},"geometry":{"type":"Point","coordinates":[22.45402,49.39579]}},{"type":"Feature","properties":{"name":"UA Border","country":"PL","date":"2025","_umap_options":{"color":"#0288d1","iconColor":"#0288d1"}},"geometry":{"type":"Point","coordinates":[22.71736,49.22116]}},{"type":"Feature","properties":{"name":"Wrocław, Market Square","country":"PL","_umap_options":{"color":"#0288d1","iconColor":"#0288d1"}},"geometry":{"type":"Point","coordinates":[17.03103,51.11037]}},{"type":"Feature","properties":{"name":"Zapora wodna w Myczkowcach","country":"PL","_umap_options":{"color":"#0288d1","iconColor":"#0288d1"}},"geometry":{"type":"Point","coordinates":[22.40837,49.43111]}},{"type":"Feature","properties":{"name":"Zwierzyniec Pod Topolą","country":"PL","_umap_options":{"color":"#0288d1","iconColor":"#0288d1"}},"geometry":{"type":"Point","coordinates":[21.47753,52.245]}},{"type":"Feature","properties":{"name":"PL Zamek w Pszczynie"},"geometry":{"type":"Point","coordinates":[18.94045,49.97816]}},{"type":"Feature","properties":{"name":"Lisboa, Santa Justa Lift","country":"PT","_umap_options":{"color":"#0288d1","iconColor":"#0288d1"}},"geometry":{"type":"Point","coordinates":[-9.13943,38.71213]}},{"type":"Feature","properties":{"name":"Nova Praia","country":"PT","_umap_options":{"color":"#0288d1","iconColor":"#0288d1"}},"geometry":{"type":"Point","coordinates":[-9.23216,38.63425]}},{"type":"Feature","properties":{"name":"Flagpoles of the World Cup Competitors","country":"QA","_umap_options":{"color":"#0288d1","iconColor":"#0288d1"}},"geometry":{"type":"Point","coordinates":[51.52886,25.29311]}},{"type":"Feature","properties":{"name":"Souq Waqif","country":"QA","_umap_options":{"color":"#0288d1","iconColor":"#0288d1"}},"geometry":{"type":"Point","coordinates":[51.53288,25.28798]}},{"type":"Feature","properties":{"name":"București, Piana Vyshnia - Vișinotecă","country":"RO","_umap_options":{"color":"#0288d1","iconColor":"#0288d1"}},"geometry":{"type":"Point","coordinates":[26.10157,44.43098]}},{"type":"Feature","properties":{"name":"Heroes' Mausoleum","country":"RO","date":"2010","_umap_options":{"color":"#0288d1","iconColor":"#0288d1"}},"geometry":{"type":"Point","coordinates":[27.20789,45.87239]}},{"type":"Feature","properties":{"name":"Kislovodsk","country":"RU","_umap_options":{"color":"#0288d1","iconColor":"#0288d1"}},"geometry":{"type":"Point","coordinates":[42.71592,43.90559]}},{"type":"Feature","properties":{"name":"Ozero Tambukan","country":"RU","_umap_options":{"color":"#0288d1","iconColor":"#0288d1"}},"geometry":{"type":"Point","coordinates":[43.16302,43.96155]}},{"type":"Feature","properties":{"name":"Pereval Gumbashi","country":"RU","_umap_options":{"color":"#0288d1","iconColor":"#0288d1"}},"geometry":{"type":"Point","coordinates":[42.20865,43.77711]}},{"type":"Feature","properties":{"name":"Pyatigorsk, Gora Mashuk","country":"RU","_umap_options":{"color":"#0288d1","iconColor":"#0288d1"}},"geometry":{"type":"Point","coordinates":[43.089,44.05074]}},{"type":"Feature","properties":{"name":"St. Basil's Cathedral","country":"RU","_umap_options":{"color":"#0288d1","iconColor":"#0288d1"}},"geometry":{"type":"Point","coordinates":[37.62309,55.75252]}},{"type":"Feature","properties":{"name":"Иноземцево","country":"RU","_umap_options":{"color":"#0288d1","iconColor":"#0288d1"}},"geometry":{"type":"Point","coordinates":[43.09541,44.08873]}},{"type":"Feature","properties":{"name":"Москва, Бизнес-центр Аврора","country":"RU","date":"2009","description":"Deutsche Bank, 2009","_umap_options":{"color":"#0288d1","iconColor":"#0288d1"}},"geometry":{"type":"Point","coordinates":[37.64185,55.73453]}},{"type":"Feature","properties":{"name":"Москва, ВДНХ","country":"RU","_umap_options":{"color":"#0288d1","iconColor":"#0288d1"}},"geometry":{"type":"Point","coordinates":[37.62194,55.83499]}},{"type":"Feature","properties":{"name":"Disgusting Food Museum","country":"SE","_umap_options":{"color":"#0288d1","iconColor":"#0288d1"}},"geometry":{"type":"Point","coordinates":[13.00124,55.60091]}},{"type":"Feature","properties":{"name":"Malmö Castle","country":"SE","_umap_options":{"color":"#0288d1","iconColor":"#0288d1"}},"geometry":{"type":"Point","coordinates":[12.98761,55.6048]}},{"type":"Feature","properties":{"name":"Ljubljana","country":"SI","_umap_options":{"color":"#0288d1","iconColor":"#0288d1"}},"geometry":{"type":"Point","coordinates":[14.50575,46.05695]}},{"type":"Feature","properties":{"name":"Chodník korunami stromov Bachledova dolina","country":"SK","date":"2026"},"geometry":{"type":"Point","coordinates":[20.31336,49.28618]}},{"type":"Feature","properties":{"name":"Dolný Kubín","country":"SK","_umap_options":{"color":"#0288d1","iconColor":"#0288d1"}},"geometry":{"type":"Point","coordinates":[19.29688,49.21268]}},{"type":"Feature","properties":{"name":"Lanovka na Hrebienok","country":"SK","date":"2026"},"geometry":{"type":"Point","coordinates":[20.2207,49.14558]}},{"type":"Feature","properties":{"name":"Orava Castle","country":"SK"},"geometry":{"type":"Point","coordinates":[19.35866,49.26206]}},{"type":"Feature","properties":{"name":"Veža snov","country":"SK"},"geometry":{"type":"Point","coordinates":[20.05922,49.12741]}},{"type":"Feature","properties":{"name":"Antalya","country":"TR","_umap_options":{"color":"#0288d1","iconColor":"#0288d1"}},"geometry":{"type":"Point","coordinates":[30.71332,36.89689]}},{"type":"Feature","properties":{"name":"Travertines of Pamukkale (thermal pools)","country":"TR","_umap_options":{"color":"#0288d1","iconColor":"#0288d1"}},"geometry":{"type":"Point","coordinates":[29.12271,37.92339]}},{"type":"Feature","properties":{"name":"Askania Nova zoological park","country":"UA","_umap_options":{"color":"#0288d1","iconColor":"#0288d1"}},"geometry":{"type":"Point","coordinates":[33.86397,46.46015]}},{"type":"Feature","properties":{"name":"Heniches'ka Hirka","country":"UA","_umap_options":{"color":"#0288d1","iconColor":"#0288d1"}},"geometry":{"type":"Point","coordinates":[34.82901,46.10977]}},{"type":"Feature","properties":{"name":"Krekhiv monastery","country":"UA","date":"2006","_umap_options":{"color":"#0288d1","iconColor":"#0288d1"}},"geometry":{"type":"Point","coordinates":[23.79786,50.03401]}},{"type":"Feature","properties":{"name":"Kyiv St. Sophia's Cathedral","country":"UA","_umap_options":{"color":"#673ab7","iconColor":"#673ab7"}},"geometry":{"type":"Point","coordinates":[30.51431,50.45291]}},{"type":"Feature","properties":{"name":"Lviv","country":"UA","_umap_options":{"color":"#673ab7","iconColor":"#673ab7"}},"geometry":{"type":"Point","coordinates":[24.02972,49.83968]}},{"type":"Feature","properties":{"name":"Берестечко","country":"UA","_umap_options":{"color":"#0288d1","iconColor":"#0288d1"}},"geometry":{"type":"Point","coordinates":[25.12289,50.35894]}},{"type":"Feature","properties":{"name":"Біла  Церква, парк Олександрівка","country":"UA","_umap_options":{"color":"#0288d1","iconColor":"#0288d1"}},"geometry":{"type":"Point","coordinates":[30.06824,49.81294]}},{"type":"Feature","properties":{"name":"Буча міський парк","country":"UA","_umap_options":{"color":"#0288d1","iconColor":"#0288d1"}},"geometry":{"type":"Point","coordinates":[30.21794,50.56245]}},{"type":"Feature","properties":{"name":"Високий замок","country":"UA","_umap_options":{"color":"#0288d1","iconColor":"#0288d1"}},"geometry":{"type":"Point","coordinates":[24.03941,49.84831]}},{"type":"Feature","properties":{"name":"Вичтачів. Дніпровські кручі","country":"UA","_umap_options":{"color":"#0288d1","iconColor":"#0288d1"}},"geometry":{"type":"Point","coordinates":[30.83948,50.12747]}},{"type":"Feature","properties":{"name":"Вінниця, Набережна Roshen","country":"UA","_umap_options":{"color":"#0288d1","iconColor":"#0288d1"}},"geometry":{"type":"Point","coordinates":[28.4864,49.23302]}},{"type":"Feature","properties":{"name":"Віслюча ферма «Osloff»","country":"UA","_umap_options":{"color":"#0288d1","iconColor":"#0288d1"}},"geometry":{"type":"Point","coordinates":[30.54669,50.20679]}},{"type":"Feature","properties":{"name":"водоспад Кам'янка","country":"UA","_umap_options":{"color":"#0288d1","iconColor":"#0288d1"}},"geometry":{"type":"Point","coordinates":[23.56393,49.03347]}},{"type":"Feature","properties":{"name":"Гмирянка","country":"UA","_umap_options":{"color":"#0288d1","iconColor":"#0288d1"}},"geometry":{"type":"Point","coordinates":[32.42761,50.79751]}},{"type":"Feature","properties":{"name":"Десна. сплав по річці","country":"UA","_umap_options":{"color":"#0288d1","iconColor":"#0288d1"}},"geometry":{"type":"Point","coordinates":[30.74161,50.83391]}},{"type":"Feature","properties":{"name":"Деца в Нотаря","country":"UA","_umap_options":{"color":"#0288d1","iconColor":"#0288d1"}},"geometry":{"type":"Point","coordinates":[22.31838,48.59183]}},{"type":"Feature","properties":{"name":"Дністровська ГЕС дамба","country":"UA","_umap_options":{"color":"#0288d1","iconColor":"#0288d1"}},"geometry":{"type":"Point","coordinates":[27.45635,48.59521]}},{"type":"Feature","properties":{"name":"Долина нарцисів","country":"UA","_umap_options":{"color":"#0288d1","iconColor":"#0288d1"}},"geometry":{"type":"Point","coordinates":[23.35667,48.18389]}},{"type":"Feature","properties":{"name":"Задорожнє озеро","country":"UA","_umap_options":{"color":"#0288d1","iconColor":"#0288d1"}},"geometry":{"type":"Point","coordinates":[23.92094,49.55404]}},{"type":"Feature","properties":{"name":"Замок Паланок","country":"UA","_umap_options":{"color":"#0288d1","iconColor":"#0288d1"}},"geometry":{"type":"Point","coordinates":[22.68759,48.43178]}},{"type":"Feature","properties":{"name":"Заповідник Tустань","country":"UA","_umap_options":{"color":"#0288d1","iconColor":"#0288d1"}},"geometry":{"type":"Point","coordinates":[23.40947,49.19182]}},{"type":"Feature","properties":{"name":"Затока","country":"UA","_umap_options":{"color":"#0288d1","iconColor":"#0288d1"}},"geometry":{"type":"Point","coordinates":[30.48917,46.09555]}},{"type":"Feature","properties":{"name":"Зашків","country":"UA","_umap_options":{"color":"#0288d1","iconColor":"#0288d1"}},"geometry":{"type":"Point","coordinates":[23.98295,49.9493]}},{"type":"Feature","properties":{"name":"зоопарк XII місяців","country":"UA","_umap_options":{"color":"#0288d1","iconColor":"#0288d1"}},"geometry":{"type":"Point","coordinates":[30.2974,50.73723]}},{"type":"Feature","properties":{"name":"Івано-Франківськ, Fabbrica","country":"UA","_umap_options":{"color":"#0288d1","iconColor":"#0288d1"}},"geometry":{"type":"Point","coordinates":[24.71118,48.92219]}},{"type":"Feature","properties":{"name":"Кам'янець-Подільська фортеця","country":"UA","_umap_options":{"color":"#0288d1","iconColor":"#0288d1"}},"geometry":{"type":"Point","coordinates":[26.56259,48.67348]}},{"type":"Feature","properties":{"name":"Качанівка","country":"UA","_umap_options":{"color":"#0288d1","iconColor":"#0288d1"}},"geometry":{"type":"Point","coordinates":[32.65528,50.83679]}},{"type":"Feature","properties":{"name":"Керч","country":"UA","_umap_options":{"color":"#0288d1","iconColor":"#0288d1"}},"geometry":{"type":"Point","coordinates":[36.46829,45.35731]}},{"type":"Feature","properties":{"name":"Коломия","country":"UA","_umap_options":{"color":"#0288d1","iconColor":"#0288d1"}},"geometry":{"type":"Point","coordinates":[25.04121,48.53049]}},{"type":"Feature","properties":{"name":"Коростишівський кар'єр","country":"UA","_umap_options":{"color":"#0288d1","iconColor":"#0288d1"}},"geometry":{"type":"Point","coordinates":[29.07954,50.32331]}},{"type":"Feature","properties":{"name":"Косино, термальні води","country":"UA","_umap_options":{"color":"#0288d1","iconColor":"#0288d1"}},"geometry":{"type":"Point","coordinates":[22.49274,48.25977]}},{"type":"Feature","properties":{"name":"Кривий Ріг","country":"UA","_umap_options":{"color":"#0288d1","iconColor":"#0288d1"}},"geometry":{"type":"Point","coordinates":[33.39178,47.91048]}},{"type":"Feature","properties":{"name":"Лозівський Молокозавод","country":"UA","date":"2010","description":"2010/11","_umap_options":{"color":"#0288d1","iconColor":"#0288d1"}},"geometry":{"type":"Point","coordinates":[36.31327,48.90859]}},{"type":"Feature","properties":{"name":"Луцьк, замок Любарта","country":"UA","_umap_options":{"color":"#0288d1","iconColor":"#0288d1"}},"geometry":{"type":"Point","coordinates":[25.32332,50.73889]}},{"type":"Feature","properties":{"name":"UA - Лядівський скельний чоловічий монастир","_umap_options":{"color":"#0288d1","iconColor":"#0288d1"}},"geometry":{"type":"Point","coordinates":[27.60799,48.48484]}},{"type":"Feature","properties":{"name":"Манявський водоспад","country":"UA","_umap_options":{"color":"#0288d1","iconColor":"#0288d1"}},"geometry":{"type":"Point","coordinates":[24.30352,48.6257]}},{"type":"Feature","properties":{"name":"Межигір'я","country":"UA","_umap_options":{"color":"#0288d1","iconColor":"#0288d1"}},"geometry":{"type":"Point","coordinates":[30.47387,50.61479]}},{"type":"Feature","properties":{"name":"Олеський замок","country":"UA","_umap_options":{"color":"#0288d1","iconColor":"#0288d1"}},"geometry":{"type":"Point","coordinates":[24.90088,49.96838]}},{"type":"Feature","properties":{"name":"Острозький замок","country":"UA","_umap_options":{"color":"#0288d1","iconColor":"#0288d1"}},"geometry":{"type":"Point","coordinates":[26.52077,50.32664]}},{"type":"Feature","properties":{"name":"Парк Буки","country":"UA","_umap_options":{"color":"#0288d1","iconColor":"#0288d1"}},"geometry":{"type":"Point","coordinates":[29.6567,49.838]}},{"type":"Feature","properties":{"name":"Парк Київська Русь","country":"UA","_umap_options":{"color":"#0288d1","iconColor":"#0288d1"}},"geometry":{"type":"Point","coordinates":[30.47148,50.1439]}},{"type":"Feature","properties":{"name":"Порт Південний","country":"UA","_umap_options":{"color":"#0288d1","iconColor":"#0288d1"}},"geometry":{"type":"Point","coordinates":[31.0164,46.65193]}},{"type":"Feature","properties":{"name":"Почаївська Лавра","country":"UA","_umap_options":{"color":"#0288d1","iconColor":"#0288d1"}},"geometry":{"type":"Point","coordinates":[25.50824,50.00543]}},{"type":"Feature","properties":{"name":"Равликова ферма Nature_Snail","country":"UA","_umap_options":{"color":"#0288d1","iconColor":"#0288d1"}},"geometry":{"type":"Point","coordinates":[30.61355,50.14862]}},{"type":"Feature","properties":{"name":"Радомишль, замок","country":"UA","_umap_options":{"color":"#0288d1","iconColor":"#0288d1"}},"geometry":{"type":"Point","coordinates":[29.21662,50.47765]}},{"type":"Feature","properties":{"name":"резиденція Хмельницького","country":"UA","_umap_options":{"color":"#0288d1","iconColor":"#0288d1"}},"geometry":{"type":"Point","coordinates":[32.65747,49.08102]}},{"type":"Feature","properties":{"name":"Рожеве озеро","country":"UA","_umap_options":{"color":"#0288d1","iconColor":"#0288d1"}},"geometry":{"type":"Point","coordinates":[33.77622,46.25128]}},{"type":"Feature","properties":{"name":"с. Панське Дамба Кременчуцького водосховища","country":"UA","_umap_options":{"color":"#0288d1","iconColor":"#0288d1"}},"geometry":{"type":"Point","coordinates":[32.07561,49.50519]}},{"type":"Feature","properties":{"name":"Скадовськ","country":"UA","_umap_options":{"color":"#0288d1","iconColor":"#0288d1"}},"geometry":{"type":"Point","coordinates":[32.89317,46.11009]}},{"type":"Feature","properties":{"name":"Сколе, ресторан Святослав","country":"UA","_umap_options":{"color":"#0288d1","iconColor":"#0288d1"}},"geometry":{"type":"Point","coordinates":[23.4671,49.00019]}},{"type":"Feature","properties":{"name":"Солотвино. Підземне відділення республіканської алергологічної лікарні","country":"UA","_umap_options":{"color":"#0288d1","iconColor":"#0288d1"}},"geometry":{"type":"Point","coordinates":[23.84969,47.96554]}},{"type":"Feature","properties":{"name":"Софіївка Національний дендрологічний парк","country":"UA","_umap_options":{"color":"#0288d1","iconColor":"#0288d1"}},"geometry":{"type":"Point","coordinates":[30.22253,48.76337]}},{"type":"Feature","properties":{"name":"UA - Ставка Гітлера «Вервольф»","_umap_options":{"color":"#0288d1","iconColor":"#0288d1"}},"geometry":{"type":"Point","coordinates":[28.49513,49.30721]}},{"type":"Feature","properties":{"name":"Суботів, Іллінська церква","country":"UA","_umap_options":{"color":"#0288d1","iconColor":"#0288d1"}},"geometry":{"type":"Point","coordinates":[32.55487,49.09427]}},{"type":"Feature","properties":{"name":"Сулимів","country":"UA","_umap_options":{"color":"#0288d1","iconColor":"#0288d1"}},"geometry":{"type":"Point","coordinates":[24.15872,49.9685]}},{"type":"Feature","properties":{"name":"Сухолуччя","country":"UA","_umap_options":{"color":"#0288d1","iconColor":"#0288d1"}},"geometry":{"type":"Point","coordinates":[30.35806,51.0255]}},{"type":"Feature","properties":{"name":"Східниця","country":"UA","_umap_options":{"color":"#0288d1","iconColor":"#0288d1"}},"geometry":{"type":"Point","coordinates":[23.34835,49.2251]}},{"type":"Feature","properties":{"name":"Тараканівський форт","country":"UA","_umap_options":{"color":"#0288d1","iconColor":"#0288d1"}},"geometry":{"type":"Point","coordinates":[25.71585,50.36328]}},{"type":"Feature","properties":{"name":"Тарасова Гора","country":"UA","_umap_options":{"color":"#0288d1","iconColor":"#0288d1"}},"geometry":{"type":"Point","coordinates":[31.51243,49.7321]}},{"type":"Feature","properties":{"name":"Тиса, рафтинг","country":"UA","date":"2015","description":"корпоратив літо 2015","_umap_options":{"color":"#0288d1","iconColor":"#0288d1"}},"geometry":{"type":"Point","coordinates":[23.31701,48.13892]}},{"type":"Feature","properties":{"name":"ТОВ Ядзакі Україна","country":"UA","_umap_options":{"color":"#0288d1","iconColor":"#0288d1"}},"geometry":{"type":"Point","coordinates":[22.2666,48.59452]}},{"type":"Feature","properties":{"name":"Трускавець. Дельфінарій Оскар","country":"UA","_umap_options":{"color":"#0288d1","iconColor":"#0288d1"}},"geometry":{"type":"Point","coordinates":[23.49046,49.27762]}},{"type":"Feature","properties":{"name":"Херсонес","country":"UA","description":"Ancient City of Tauric Chersonese","_umap_options":{"color":"#673ab7","iconColor":"#673ab7"}},"geometry":{"type":"Point","coordinates":[33.49023,44.6124]}},{"type":"Feature","properties":{"name":"Холодний Яр, дуб Максима Залізняка.","country":"UA","_umap_options":{"color":"#0288d1","iconColor":"#0288d1"}},"geometry":{"type":"Point","coordinates":[32.26033,49.10986]}},{"type":"Feature","properties":{"name":"Хотинська фортеця","country":"UA","_umap_options":{"color":"#0288d1","iconColor":"#0288d1"}},"geometry":{"type":"Point","coordinates":[26.49835,48.52201]}},{"type":"Feature","properties":{"name":"Чепа","country":"UA","_umap_options":{"color":"#0288d1","iconColor":"#0288d1"}},"geometry":{"type":"Point","coordinates":[23.02056,48.07117]}},{"type":"Feature","properties":{"name":"Шацьк","country":"UA","description":"Між зоряним небом і озером синім ...","_umap_options":{"color":"#0288d1","iconColor":"#0288d1"}},"geometry":{"type":"Point","coordinates":[23.87712,51.47531]}},{"type":"Feature","properties":{"name":"Ялта","country":"UA","_umap_options":{"color":"#0288d1","iconColor":"#0288d1"}},"geometry":{"type":"Point","coordinates":[34.16539,44.4936]}},{"type":"Feature","properties":{"name":"Яремче, водоспад пробій","country":"UA","_umap_options":{"color":"#0288d1","iconColor":"#0288d1"}},"geometry":{"type":"Point","coordinates":[24.53984,48.43946]}},{"type":"Feature","properties":{"name":"Ясницький кар'єр","country":"UA","_umap_options":{"color":"#0288d1","iconColor":"#0288d1"}},"geometry":{"type":"Point","coordinates":[23.83987,49.92444]}},{"type":"Feature","properties":{"name":"The British Museum","country":"GB","_umap_options":{"color":"#0288d1","iconColor":"#0288d1"}},"geometry":{"type":"Point","coordinates":[-0.12696,51.51941]}},{"type":"Feature","properties":{"name":"Tower of London","country":"GB","_umap_options":{"color":"#673ab7","iconColor":"#673ab7"}},"geometry":{"type":"Point","coordinates":[-0.07595,51.50811]}},{"type":"Feature","properties":{"name":"American Tobacco Campus","country":"US","_umap_options":{"color":"#0288d1","iconColor":"#0288d1"}},"geometry":{"type":"Point","coordinates":[-78.90417,35.99333]}},{"type":"Feature","properties":{"name":"Boeing Everett Factory","country":"US","_umap_options":{"color":"#0288d1","iconColor":"#0288d1"}},"geometry":{"type":"Point","coordinates":[-122.27207,47.92652]}},{"type":"Feature","properties":{"name":"Buffalo","country":"US","description":"Best buffalo wings","_umap_options":{"color":"#0288d1","iconColor":"#0288d1"}},"geometry":{"type":"Point","coordinates":[-78.87837,42.88645]}},{"type":"Feature","properties":{"name":"Desert","country":"US","_umap_options":{"color":"#0288d1","iconColor":"#0288d1"}},"geometry":{"type":"Point","coordinates":[-115.82968,33.67175]}},{"type":"Feature","properties":{"name":"Hollywood Walk of Fame","country":"US","_umap_options":{"color":"#0288d1","iconColor":"#0288d1"}},"geometry":{"type":"Point","coordinates":[-118.32671,34.10163]}},{"type":"Feature","properties":{"name":"IMF HQ2","country":"US","_umap_options":{"color":"#0288d1","iconColor":"#0288d1"}},"geometry":{"type":"Point","coordinates":[-77.04439,38.9]}},{"type":"Feature","properties":{"name":"Niagara Falls Observation Tower","country":"US","_umap_options":{"color":"#0288d1","iconColor":"#0288d1"}},"geometry":{"type":"Point","coordinates":[-79.06879,43.08691]}},{"type":"Feature","properties":{"name":"Ohio 1625 Stony Hill Rd","country":"US","description":"Дядько Зеник","_umap_options":{"color":"#0288d1","iconColor":"#0288d1"}},"geometry":{"type":"Point","coordinates":[-81.76381,41.23228]}},{"type":"Feature","properties":{"name":"Rock and Roll Hall of Fame","country":"US","_umap_options":{"color":"#0288d1","iconColor":"#0288d1"}},"geometry":{"type":"Point","coordinates":[-81.69537,41.50855]}},{"type":"Feature","properties":{"name":"Seattle Space Needle","country":"US","_umap_options":{"color":"#0288d1","iconColor":"#0288d1"}},"geometry":{"type":"Point","coordinates":[-122.34928,47.62051]}},{"type":"Feature","properties":{"name":"Top of The Rock","country":"US","_umap_options":{"color":"#0288d1","iconColor":"#0288d1"}},"geometry":{"type":"Point","coordinates":[-73.97941,40.75935]}},{"type":"Feature","properties":{"name":"St. Peter's Square","country":"VA","_umap_options":{"color":"#0288d1","iconColor":"#0288d1"}},"geometry":{"type":"Point","coordinates":[12.45673,41.90222]}},{"type":"Feature","properties":{"name":"Prison man in iron mask"},"geometry":{"type":"Point","coordinates":[7.04451,43.52382]}},{"type":"Feature","properties":{"name":"Oceanographic Museum of Monaco"},"geometry":{"type":"Point","coordinates":[7.42551,43.73068]}},{"type":"Feature","properties":{"name":"Prince's Palace of Monaco"},"geometry":{"type":"Point","coordinates":[7.41982,43.73126]}},{"type":"Feature","properties":{"name":"Nice"},"geometry":{"type":"Point","coordinates":[7.27951,43.69595]}},{"type":"Feature","properties":{"name":"Cannes"},"geometry":{"type":"Point","coordinates":[7.01065,43.5506]}},{"type":"Feature","properties":{"name":"Èze"},"geometry":{"type":"Point","coordinates":[7.36207,43.72889]}}]}