{"type":"FeatureCollection","features":[{"type":"Feature","properties":{"name":"Titlis Engelberg (2428)","country":"CH","date":"2021","_umap_options":{"color":"#bdbdbd","iconColor":"#bdbdbd"}},"geometry":{"type":"Point","coordinates":[8.41778,46.7825]}},{"type":"Feature","properties":{"name":"Kubínska","country":"SK","date":"2003","_umap_options":{"color":"#bdbdbd","iconColor":"#bdbdbd"}},"geometry":{"type":"Point","coordinates":[19.26581,49.25013]}},{"type":"Feature","properties":{"name":"Plejsy (1025m)","country":"SK","_umap_options":{"color":"#bdbdbd","iconColor":"#bdbdbd"}},"geometry":{"type":"Point","coordinates":[20.89169,48.89916]}},{"type":"Feature","properties":{"name":"Буковель (1372м)","country":"UA","_umap_options":{"color":"#bdbdbd","iconColor":"#bdbdbd"}},"geometry":{"type":"Point","coordinates":[24.39222,48.36028]}},{"type":"Feature","properties":{"name":"Плай (800м)","country":"UA","_umap_options":{"color":"#bdbdbd","iconColor":"#bdbdbd"}},"geometry":{"type":"Point","coordinates":[23.2835,48.89933]}},{"type":"Feature","properties":{"name":"Тростян (1232m)","country":"UA","_umap_options":{"color":"#bdbdbd","iconColor":"#bdbdbd"}},"geometry":{"type":"Point","coordinates":[23.38965,48.8567]}},{"type":"Feature","properties":{"name":"Holiday Valley (690m)","country":"US","_umap_options":{"color":"#bdbdbd","iconColor":"#bdbdbd"}},"geometry":{"type":"Point","coordinates":[-78.6674,42.26258]}},{"type":"Feature","properties":{"name":"Mt. Baker (1550m)","country":"US","_umap_options":{"color":"#bdbdbd","iconColor":"#bdbdbd"}},"geometry":{"type":"Point","coordinates":[-121.66666,48.85729]}}]}